{"type":"FeatureCollection", "features": [
{"type":"Feature","geometry":{"type":"Polygon","coordinates":[[[100.28020321600007,13.542164571000058],[100.27984058900006,13.544143923000036],[100.29052350700005,13.549253590000035],[100.29537920300004,13.55107898700004],[100.29882673000009,13.553012122000041],[100.30071217600005,13.553400044000057],[100.29902464700007,13.55704387700007],[100.28538128100007,13.558494544000041],[100.27212106900004,13.560112871000058],[100.26009158500005,13.533738348000043],[100.26100601400003,13.531925665000074],[100.26408502200007,13.533687099000076],[100.26573895400008,13.539382612000054],[100.26708468200007,13.54190053700006],[100.26962475600004,13.543818336000072],[100.27124421300005,13.543876110000042],[100.27607339200006,13.54173931500003],[100.27768028600008,13.539977369000042],[100.28020321600007,13.542164571000058]]]},"properties":{"Shape_Leng":0.115564128724,"Shape_Area":0.000422933505932,"ADM3_EN":"Mahachai","ADM3_TH":"มหาชัย","ADM3_PCODE":"TH740101","ADM2_EN":"Mueang Samut Sakhon","ADM2_TH":"เมืองสมุทรสาคร","ADM2_PCODE":"TH7401","ADM1_EN":"Samut Sakhon","ADM1_TH":"สมุทรสาคร","ADM1_PCODE":"TH74","ADM0_EN":"Thailand","ADM0_TH":"ประเทศไทย","ADM0_PCODE":"TH"}},
{"type":"Feature","geometry":{"type":"Polygon","coordinates":[[[100.26100601400003,13.531925665000074],[100.26182736700008,13.530695048000041],[100.26353045700006,13.528448421000064],[100.26561620600006,13.52829575900006],[100.26846108900008,13.531101536000051],[100.27599525500005,13.533406445000026],[100.27804700000007,13.535475166000026],[100.27768028600008,13.539977369000042],[100.27607339200006,13.54173931500003],[100.27124421300005,13.543876110000042],[100.26962475600004,13.543818336000072],[100.26708468200007,13.54190053700006],[100.26573895400008,13.539382612000054],[100.26408502200007,13.533687099000076],[100.26100601400003,13.531925665000074]]]},"properties":{"Shape_Leng":0.0509695792785,"Shape_Area":0.000150548750695,"ADM3_EN":"Tha Chalom","ADM3_TH":"ท่าฉลอม","ADM3_PCODE":"TH740102","ADM2_EN":"Mueang Samut Sakhon","ADM2_TH":"เมืองสมุทรสาคร","ADM2_PCODE":"TH7401","ADM1_EN":"Samut Sakhon","ADM1_TH":"สมุทรสาคร","ADM1_PCODE":"TH74","ADM0_EN":"Thailand","ADM0_TH":"ประเทศไทย","ADM0_PCODE":"TH"}},
{"type":"Feature","geometry":{"type":"Polygon","coordinates":[[[100.27768028600008,13.539977369000042],[100.27804700000007,13.535475166000026],[100.27599525500005,13.533406445000026],[100.26846108900008,13.531101536000051],[100.26561620600006,13.52829575900006],[100.27180559100003,13.527798693000022],[100.27813287500004,13.531962317000023],[100.28145903500007,13.534505358000047],[100.28020321600007,13.542164571000058],[100.27768028600008,13.539977369000042]]]},"properties":{"Shape_Leng":0.0486395411881,"Shape_Area":0.000062310565463,"ADM3_EN":"Krok Krak","ADM3_TH":"โกรกกราก","ADM3_PCODE":"TH740103","ADM2_EN":"Mueang Samut Sakhon","ADM2_TH":"เมืองสมุทรสาคร","ADM2_PCODE":"TH7401","ADM1_EN":"Samut Sakhon","ADM1_TH":"สมุทรสาคร","ADM1_PCODE":"TH74","ADM0_EN":"Thailand","ADM0_TH":"ประเทศไทย","ADM0_PCODE":"TH"}},
{"type":"Feature","geometry":{"type":"Polygon","coordinates":[[[100.21508404600007,13.465315409000027],[100.21401722100006,13.468774033000045],[100.21223718500005,13.469158629000049],[100.20992878800007,13.475585478000028],[100.20576465900007,13.48616425800003],[100.20236325700006,13.490434105000077],[100.20011417900008,13.49226145700004],[100.19803395300005,13.497766771000045],[100.19643444400003,13.503643253000064],[100.19462994900005,13.507444646000067],[100.19171806100007,13.509460860000047],[100.18826806600003,13.514221159000044],[100.18866405200004,13.515357963000042],[100.18781524000008,13.518352208000067],[100.18923774400008,13.523064324000075],[100.18749558200005,13.525495071000023],[100.17062774200008,13.51981799400005],[100.17117195500003,13.517951151000034],[100.17380135600007,13.51309584300003],[100.17600507900005,13.511101748000044],[100.17695936300004,13.506449865000036],[100.17859142300006,13.506726068000035],[100.17950546000009,13.504213450000066],[100.17612349700005,13.498171571000057],[100.17553590600005,13.495568752000054],[100.17663736200006,13.48799419900007],[100.17962337700004,13.488427572000035],[100.18079962300004,13.483370727000022],[100.18373154600005,13.467139125000074],[100.18607231900006,13.459508367000069],[100.18719887000003,13.458442723000076],[100.18776838500008,13.459627151000063],[100.19144223500007,13.459277868000072],[100.19254072600006,13.46071848400004],[100.19425799900006,13.459600210000076],[100.19538920800005,13.46134584500004],[100.19964274400007,13.462344634000033],[100.20082180900005,13.461366218000023],[100.20300226200004,13.461885107000057],[100.20283827300005,13.46318769100003],[100.20673057800008,13.464046453000037],[100.20738808300007,13.462050051000062],[100.20893617900003,13.462772201000064],[100.20895298300007,13.464178833000062],[100.21408315100007,13.465589930000021],[100.21508404600007,13.465315409000027]]]},"properties":{"Shape_Leng":0.207876136898,"Shape_Area":0.001393971685,"ADM3_EN":"Ban Bo","ADM3_TH":"บ้านบ่อ","ADM3_PCODE":"TH740104","ADM2_EN":"Mueang Samut Sakhon","ADM2_TH":"เมืองสมุทรสาคร","ADM2_PCODE":"TH7401","ADM1_EN":"Samut Sakhon","ADM1_TH":"สมุทรสาคร","ADM1_PCODE":"TH74","ADM0_EN":"Thailand","ADM0_TH":"ประเทศไทย","ADM0_PCODE":"TH"}},
{"type":"Feature","geometry":{"type":"Polygon","coordinates":[[[100.17062774200008,13.51981799400005],[100.16890544400007,13.522887001000072],[100.16603692800004,13.524944925000057],[100.16484614500007,13.527016236000065],[100.16587506900004,13.529102654000042],[100.16356946100007,13.531934197000055],[100.16109368700006,13.532764364000059],[100.15893182400004,13.532172051000032],[100.15770471500008,13.53302609800005],[100.16083260900007,13.535251284000026],[100.15895195100006,13.538451424000073],[100.15642559900004,13.53647256000005],[100.15324370500008,13.537581712000076],[100.15166528100008,13.534408203000055],[100.14873373600005,13.533606398000074],[100.14320716800006,13.529439977000038],[100.13531519700007,13.524509200000068],[100.13527380900007,13.523732220000056],[100.12795585100008,13.516498762000026],[100.12326557700004,13.519573098000023],[100.12188045500005,13.514542431000052],[100.12002571300008,13.513391863000038],[100.12208969500006,13.511767227000064],[100.12914091500005,13.509736730000043],[100.13344595600006,13.511404166000034],[100.13619888400007,13.510989809000023],[100.13873719500003,13.507523554000045],[100.13868011600005,13.504169851000029],[100.13978069900008,13.503906296000025],[100.14225911900007,13.499237884000024],[100.14259087200008,13.496364458000073],[100.14100472900009,13.494116512000062],[100.13988971100008,13.489627534000022],[100.14049260900003,13.48770932800005],[100.13954668600007,13.487051786000052],[100.14154411800007,13.479154809000022],[100.14140863300008,13.478514396000037],[100.14354752400004,13.472174771000027],[100.14729227200007,13.460080983000068],[100.14811537300005,13.458004022000068],[100.15087913200006,13.44844271200003],[100.15429523100005,13.450035954000043],[100.15439326900008,13.449348821000058],[100.15992515300007,13.450642210000069],[100.16050402800005,13.451404565000075],[100.16816559800009,13.452993333000052],[100.17018102000009,13.454666319000069],[100.17044792900003,13.453444322000053],[100.17372648700007,13.454371321000053],[100.17374163400007,13.455080805000023],[100.17747160800008,13.45506337300003],[100.18550371400005,13.457458754000072],[100.18719887000003,13.458442723000076],[100.18607231900006,13.459508367000069],[100.18373154600005,13.467139125000074],[100.18079962300004,13.483370727000022],[100.17962337700004,13.488427572000035],[100.17663736200006,13.48799419900007],[100.17553590600005,13.495568752000054],[100.17612349700005,13.498171571000057],[100.17950546000009,13.504213450000066],[100.17859142300006,13.506726068000035],[100.17695936300004,13.506449865000036],[100.17600507900005,13.511101748000044],[100.17380135600007,13.51309584300003],[100.17117195500003,13.517951151000034],[100.17062774200008,13.51981799400005]]]},"properties":{"Shape_Leng":0.299151657325,"Shape_Area":0.00304803672346,"ADM3_EN":"Bang Thorat","ADM3_TH":"บางโทรัด","ADM3_PCODE":"TH740105","ADM2_EN":"Mueang Samut Sakhon","ADM2_TH":"เมืองสมุทรสาคร","ADM2_PCODE":"TH7401","ADM1_EN":"Samut Sakhon","ADM1_TH":"สมุทรสาคร","ADM1_PCODE":"TH74","ADM0_EN":"Thailand","ADM0_TH":"ประเทศไทย","ADM0_PCODE":"TH"}},
{"type":"Feature","geometry":{"type":"Polygon","coordinates":[[[100.12002571300008,13.513391863000038],[100.11882123300006,13.512059142000055],[100.11655994500006,13.50772266100006],[100.11747429500008,13.504749747000062],[100.11403924600006,13.503704406000054],[100.11327532900003,13.50037622700006],[100.11044092300006,13.501737637000076],[100.10768565700005,13.502068875000077],[100.10591615900006,13.50315329700004],[100.10447267500007,13.50272041900007],[100.10339641300004,13.49970793700004],[100.10333842300008,13.494763320000061],[100.10692050200004,13.496795187000032],[100.11321520200005,13.498431311000047],[100.11320755500009,13.495083544000067],[100.11256950700005,13.491700881000043],[100.11449840800003,13.482782045000022],[100.11521094600005,13.481993361000036],[100.11949235900005,13.480894592000027],[100.11910839400008,13.478098812000042],[100.12045873300008,13.47647657500005],[100.12245629500006,13.470420041000068],[100.12539568600005,13.462739140000053],[100.12906661000005,13.45388170700005],[100.13289451000009,13.44263126900006],[100.14432356700007,13.446434449000037],[100.14651253100004,13.446943321000049],[100.14831797900007,13.448758608000048],[100.14986419700006,13.447706267000058],[100.15087913200006,13.44844271200003],[100.14811537300005,13.458004022000068],[100.14729227200007,13.460080983000068],[100.14354752400004,13.472174771000027],[100.14140863300008,13.478514396000037],[100.14154411800007,13.479154809000022],[100.13954668600007,13.487051786000052],[100.14049260900003,13.48770932800005],[100.13988971100008,13.489627534000022],[100.14100472900009,13.494116512000062],[100.14259087200008,13.496364458000073],[100.14225911900007,13.499237884000024],[100.13978069900008,13.503906296000025],[100.13868011600005,13.504169851000029],[100.13873719500003,13.507523554000045],[100.13619888400007,13.510989809000023],[100.13344595600006,13.511404166000034],[100.12914091500005,13.509736730000043],[100.12208969500006,13.511767227000064],[100.12002571300008,13.513391863000038]]]},"properties":{"Shape_Leng":0.230761381973,"Shape_Area":0.00156056555812,"ADM3_EN":"Kalong","ADM3_TH":"กาหลง","ADM3_PCODE":"TH740106","ADM2_EN":"Mueang Samut Sakhon","ADM2_TH":"เมืองสมุทรสาคร","ADM2_PCODE":"TH7401","ADM1_EN":"Samut Sakhon","ADM1_TH":"สมุทรสาคร","ADM1_PCODE":"TH74","ADM0_EN":"Thailand","ADM0_TH":"ประเทศไทย","ADM0_PCODE":"TH"}},
{"type":"Feature","geometry":{"type":"Polygon","coordinates":[[[100.10447267500007,13.50272041900007],[100.08470605700006,13.497099037000055],[100.08242885800007,13.49616831800006],[100.07194274600005,13.493606209000063],[100.06732209500007,13.491216775000055],[100.05315896400003,13.485801796000032],[100.06987433300009,13.461278366000045],[100.07328743300008,13.456400354000039],[100.07598920100008,13.44679510800006],[100.07850060400006,13.43708231000005],[100.07773917600008,13.428832898000053],[100.07878223200004,13.425330343000041],[100.08181609100006,13.426038830000039],[100.08321935900005,13.42715647600005],[100.08834498700008,13.428440593000062],[100.09129027900008,13.430402926000056],[100.09302096200008,13.429598093000038],[100.09911374600006,13.431570633000035],[100.09975968400005,13.432201100000043],[100.10437195200006,13.433413160000043],[100.10655676200008,13.435604799000032],[100.11031292700005,13.435389894000025],[100.11509456500005,13.436963417000072],[100.11491189400004,13.43791796100004],[100.11702503900005,13.438068833000045],[100.12118971800004,13.440217207000046],[100.12173825900004,13.439161842000033],[100.12506411300006,13.440276228000073],[100.12496302000005,13.441161745000045],[100.12758100500008,13.440917321000029],[100.13289451000009,13.44263126900006],[100.12906661000005,13.45388170700005],[100.12539568600005,13.462739140000053],[100.12245629500006,13.470420041000068],[100.12045873300008,13.47647657500005],[100.11910839400008,13.478098812000042],[100.11949235900005,13.480894592000027],[100.11521094600005,13.481993361000036],[100.11449840800003,13.482782045000022],[100.11256950700005,13.491700881000043],[100.11320755500009,13.495083544000067],[100.11321520200005,13.498431311000047],[100.10692050200004,13.496795187000032],[100.10333842300008,13.494763320000061],[100.10339641300004,13.49970793700004],[100.10447267500007,13.50272041900007]]]},"properties":{"Shape_Leng":0.283375912676,"Shape_Area":0.00351734367827,"ADM3_EN":"Na Khok","ADM3_TH":"นาโคก","ADM3_PCODE":"TH740107","ADM2_EN":"Mueang Samut Sakhon","ADM2_TH":"เมืองสมุทรสาคร","ADM2_PCODE":"TH7401","ADM1_EN":"Samut Sakhon","ADM1_TH":"สมุทรสาคร","ADM1_PCODE":"TH74","ADM0_EN":"Thailand","ADM0_TH":"ประเทศไทย","ADM0_PCODE":"TH"}},
{"type":"Feature","geometry":{"type":"Polygon","coordinates":[[[100.27212106900004,13.560112871000058],[100.26900274600007,13.559985844000039],[100.26813012400004,13.557313948000058],[100.26545869900008,13.553333846000044],[100.26323544100006,13.552736052000057],[100.25788453200005,13.554507025000078],[100.25295641200006,13.55408833100006],[100.25286457900006,13.551404310000066],[100.25054568200005,13.545355316000041],[100.24603789600008,13.546220681000023],[100.24096724100008,13.546059816000025],[100.23804450100005,13.545065083000054],[100.23172623300007,13.54423689400005],[100.23147322900007,13.541643306000026],[100.23336620800006,13.54000813600004],[100.23407578500007,13.537880089000055],[100.23629902500005,13.53840800100005],[100.23927202500005,13.536191960000053],[100.23949720600007,13.534056150000026],[100.23874746900003,13.531695326000033],[100.23994877600006,13.530147304000025],[100.24163202700004,13.53090346600004],[100.24274712100004,13.529163302000029],[100.24189078800003,13.525685294000027],[100.24286343300008,13.525477955000042],[100.26182736700008,13.530695048000041],[100.26100601400003,13.531925665000074],[100.26009158500005,13.533738348000043],[100.27212106900004,13.560112871000058]]]},"properties":{"Shape_Leng":0.139541740498,"Shape_Area":0.000590722843705,"ADM3_EN":"Tha Chin","ADM3_TH":"ท่าจีน","ADM3_PCODE":"TH740108","ADM2_EN":"Mueang Samut Sakhon","ADM2_TH":"เมืองสมุทรสาคร","ADM2_PCODE":"TH7401","ADM1_EN":"Samut Sakhon","ADM1_TH":"สมุทรสาคร","ADM1_PCODE":"TH74","ADM0_EN":"Thailand","ADM0_TH":"ประเทศไทย","ADM0_PCODE":"TH"}},
{"type":"Feature","geometry":{"type":"Polygon","coordinates":[[[100.31250855800005,13.619587187000036],[100.30901170200008,13.61969218300004],[100.30899261100006,13.620627063000029],[100.30626672200003,13.621385885000052],[100.29633432300005,13.620998758000042],[100.29180869400005,13.621666412000025],[100.28725243000008,13.621561308000025],[100.28586083300007,13.62240140700004],[100.28537307400006,13.620046870000067],[100.28179411800005,13.62031840000003],[100.28151500800004,13.619195902000058],[100.27988174600006,13.612593460000028],[100.27711072100004,13.612666200000035],[100.27685197000005,13.611510438000039],[100.27362767600005,13.61133194200005],[100.27402080000007,13.609035249000044],[100.27095787700006,13.609200416000022],[100.27064137300005,13.604954074000034],[100.27016202200008,13.59833450900004],[100.27197838700005,13.591029845000037],[100.27342789500005,13.588997839000058],[100.27603465100003,13.587768273000052],[100.27579730600007,13.584231823000039],[100.27742941500009,13.582303226000022],[100.27938499300006,13.581290910000064],[100.28078759400006,13.581656911000039],[100.28237967000007,13.579624669000054],[100.27976111900006,13.57737790300007],[100.28304473600008,13.576512583000067],[100.28075602800004,13.572963899000058],[100.28630788500004,13.56846316800005],[100.28706870000008,13.565859838000051],[100.28834302400008,13.564484567000022],[100.29038999100004,13.562236040000073],[100.29312375900008,13.564801530000068],[100.29499880800006,13.563025148000065],[100.30984994600004,13.577100199000029],[100.31456372400004,13.58064137200006],[100.31480845000004,13.578973878000056],[100.31794684300007,13.578065612000046],[100.31873355600004,13.580236796000065],[100.31689627600008,13.58025993900003],[100.31681254800009,13.582235165000043],[100.31798244100008,13.583092590000035],[100.31942830500009,13.579498803000035],[100.32049355700008,13.580181081000035],[100.31863869500006,13.583414444000027],[100.32227743400006,13.586318345000052],[100.32219700900004,13.587338609000028],[100.31672913600005,13.585191574000078],[100.31545763300005,13.586126418000049],[100.31501456700005,13.589960119000068],[100.31558761600007,13.593911439000067],[100.31679705800008,13.595759239000074],[100.31705698800005,13.59870989600006],[100.31534001400007,13.598995548000062],[100.31673735800007,13.60805773800007],[100.32001236000008,13.60850732800003],[100.31511567700005,13.61172375600006],[100.31113976000006,13.611880694000035],[100.31136608400004,13.613332384000046],[100.31250855800005,13.619587187000036]]]},"properties":{"Shape_Leng":0.237296401445,"Shape_Area":0.00201888649028,"ADM3_EN":"Na Di","ADM3_TH":"นาดี","ADM3_PCODE":"TH740109","ADM2_EN":"Mueang Samut Sakhon","ADM2_TH":"เมืองสมุทรสาคร","ADM2_PCODE":"TH7401","ADM1_EN":"Samut Sakhon","ADM1_TH":"สมุทรสาคร","ADM1_PCODE":"TH74","ADM0_EN":"Thailand","ADM0_TH":"ประเทศไทย","ADM0_PCODE":"TH"}},
{"type":"Feature","geometry":{"type":"Polygon","coordinates":[[[100.28538128100007,13.558494544000041],[100.28401201800006,13.564067537000028],[100.28433910200005,13.564714110000068],[100.28834302400008,13.564484567000022],[100.28706870000008,13.565859838000051],[100.28630788500004,13.56846316800005],[100.28075602800004,13.572963899000058],[100.28304473600008,13.576512583000067],[100.27976111900006,13.57737790300007],[100.28237967000007,13.579624669000054],[100.28078759400006,13.581656911000039],[100.27938499300006,13.581290910000064],[100.27742941500009,13.582303226000022],[100.27579730600007,13.584231823000039],[100.27603465100003,13.587768273000052],[100.27342789500005,13.588997839000058],[100.27197838700005,13.591029845000037],[100.26505713600005,13.589515195000047],[100.26436245600007,13.582584918000066],[100.25826966600005,13.582160568000063],[100.25769073500004,13.58138038800007],[100.25364619100009,13.580627864000064],[100.25081805200006,13.580635440000037],[100.24898707600005,13.579305884000064],[100.24913946000004,13.577964884000039],[100.24616869800008,13.57853366200004],[100.24265408400004,13.58080814400006],[100.24103342500007,13.579385523000042],[100.23838141000004,13.579323397000053],[100.23823128900005,13.57423175200006],[100.23547547400005,13.574095133000071],[100.23253304000008,13.574842110000077],[100.22997987400004,13.573304926000048],[100.22494060200006,13.566434590000028],[100.22226961500007,13.566166818000056],[100.21905229800007,13.566869203000067],[100.21662789400006,13.568226227000025],[100.21583301700008,13.56523605500007],[100.21155015800008,13.563433817000032],[100.20956136700005,13.564144523000039],[100.20944241700005,13.56198529900007],[100.20782712000005,13.560012787000062],[100.20612280400007,13.559551021000061],[100.20476099800004,13.557299271000034],[100.20383030600004,13.55746711300003],[100.20485569100003,13.550405990000058],[100.20424399900008,13.548910791000026],[100.20198205900004,13.549532116000023],[100.19868872500007,13.548654051000028],[100.19840363200007,13.547825252000052],[100.20126000200008,13.544676997000067],[100.20164017700006,13.54309236000006],[100.20897360500004,13.543697940000072],[100.21019056800009,13.540604272000053],[100.21136763900006,13.541428136000036],[100.22207940700008,13.544618438000043],[100.22522261300008,13.54604960100005],[100.22728247500004,13.544333434000066],[100.22961768800008,13.545055565000041],[100.23172623300007,13.54423689400005],[100.23804450100005,13.545065083000054],[100.24096724100008,13.546059816000025],[100.24603789600008,13.546220681000023],[100.25054568200005,13.545355316000041],[100.25286457900006,13.551404310000066],[100.25295641200006,13.55408833100006],[100.25788453200005,13.554507025000078],[100.26323544100006,13.552736052000057],[100.26545869900008,13.553333846000044],[100.26813012400004,13.557313948000058],[100.26900274600007,13.559985844000039],[100.27212106900004,13.560112871000058],[100.28538128100007,13.558494544000041]]]},"properties":{"Shape_Leng":0.281363541658,"Shape_Area":0.00218055635192,"ADM3_EN":"Tha Sai","ADM3_TH":"ท่าทราย","ADM3_PCODE":"TH740110","ADM2_EN":"Mueang Samut Sakhon","ADM2_TH":"เมืองสมุทรสาคร","ADM2_PCODE":"TH7401","ADM1_EN":"Samut Sakhon","ADM1_TH":"สมุทรสาคร","ADM1_PCODE":"TH74","ADM0_EN":"Thailand","ADM0_TH":"ประเทศไทย","ADM0_PCODE":"TH"}},
{"type":"Feature","geometry":{"type":"Polygon","coordinates":[[[100.31942830500009,13.579498803000035],[100.32361174500005,13.572101739000061],[100.33806895600009,13.585163710000074],[100.35340896400004,13.598947338000073],[100.34808507500009,13.602683998000032],[100.34813360500004,13.604093654000053],[100.34505519000004,13.60440052100006],[100.34464311000005,13.607323410000049],[100.34184356500003,13.608382978000066],[100.35002279900004,13.619738219000055],[100.35272827600005,13.622148952000032],[100.35049703900006,13.625218392000022],[100.34924369000004,13.624098858000025],[100.34493230400005,13.624954303000038],[100.34360472900005,13.62229572700005],[100.34168639900008,13.623803457000065],[100.33938121800009,13.624552262000066],[100.33658384100005,13.61630135200005],[100.33461242100009,13.616842897000026],[100.33368644400008,13.615510379000057],[100.33138967400004,13.615379999000027],[100.33064782500009,13.613863801000036],[100.32478645200007,13.613975202000063],[100.31596113700004,13.612100242000054],[100.31136608400004,13.613332384000046],[100.31113976000006,13.611880694000035],[100.31511567700005,13.61172375600006],[100.32001236000008,13.60850732800003],[100.31673735800007,13.60805773800007],[100.31534001400007,13.598995548000062],[100.31705698800005,13.59870989600006],[100.31679705800008,13.595759239000074],[100.31558761600007,13.593911439000067],[100.31501456700005,13.589960119000068],[100.31545763300005,13.586126418000049],[100.31672913600005,13.585191574000078],[100.32219700900004,13.587338609000028],[100.32227743400006,13.586318345000052],[100.31863869500006,13.583414444000027],[100.32049355700008,13.580181081000035],[100.31942830500009,13.579498803000035]]]},"properties":{"Shape_Leng":0.198316388716,"Shape_Area":0.00111404585827,"ADM3_EN":"Khok Krabue","ADM3_TH":"คอกกระบือ","ADM3_PCODE":"TH740111","ADM2_EN":"Mueang Samut Sakhon","ADM2_TH":"เมืองสมุทรสาคร","ADM2_PCODE":"TH7401","ADM1_EN":"Samut Sakhon","ADM1_TH":"สมุทรสาคร","ADM1_PCODE":"TH74","ADM0_EN":"Thailand","ADM0_TH":"ประเทศไทย","ADM0_PCODE":"TH"}},
{"type":"Feature","geometry":{"type":"Polygon","coordinates":[[[100.31136608400004,13.613332384000046],[100.31596113700004,13.612100242000054],[100.32478645200007,13.613975202000063],[100.33064782500009,13.613863801000036],[100.33138967400004,13.615379999000027],[100.33368644400008,13.615510379000057],[100.33461242100009,13.616842897000026],[100.33658384100005,13.61630135200005],[100.33938121800009,13.624552262000066],[100.34168639900008,13.623803457000065],[100.34360472900005,13.62229572700005],[100.34493230400005,13.624954303000038],[100.34924369000004,13.624098858000025],[100.35049703900006,13.625218392000022],[100.35272827600005,13.622148952000032],[100.35002279900004,13.619738219000055],[100.34184356500003,13.608382978000066],[100.34464311000005,13.607323410000049],[100.34505519000004,13.60440052100006],[100.34813360500004,13.604093654000053],[100.34808507500009,13.602683998000032],[100.35340896400004,13.598947338000073],[100.33806895600009,13.585163710000074],[100.33953671700004,13.583794932000046],[100.34127134600004,13.585087141000031],[100.34910271200005,13.587477297000078],[100.35757650200009,13.591276376000053],[100.36248407100004,13.594376843000077],[100.36824821000005,13.600169858000072],[100.37189064700004,13.60035468500007],[100.37835236900008,13.601359228000035],[100.37714927800005,13.60642172200005],[100.37648208400009,13.619703151000067],[100.37179593500008,13.622730904000036],[100.37157172900004,13.624907569000072],[100.36941508700005,13.62756065900004],[100.36861098900005,13.630119450000052],[100.36720966700005,13.630171153000049],[100.36600587100008,13.633624022000049],[100.36492421500009,13.633891186000028],[100.35905888300005,13.632780154000045],[100.35869708800004,13.637319000000048],[100.35559750800007,13.636533643000064],[100.35434040900009,13.640888890000042],[100.35024229000004,13.640497348000054],[100.34014380200006,13.639091367000049],[100.33611114000007,13.638837352000053],[100.33168072500007,13.635743224000066],[100.32960810100008,13.633005034000064],[100.32566624300006,13.630184641000028],[100.32361783300007,13.630579913000076],[100.32400281400004,13.627701739000031],[100.32160970600006,13.62555003500006],[100.31747048200003,13.624968009000042],[100.31685575200004,13.623698937000029],[100.31367249000004,13.623720648000074],[100.31250855800005,13.619587187000036],[100.31136608400004,13.613332384000046]]]},"properties":{"Shape_Leng":0.276777720305,"Shape_Area":0.00170007656654,"ADM3_EN":"Bang Nam Chuet","ADM3_TH":"บางน้ำจืด","ADM3_PCODE":"TH740112","ADM2_EN":"Mueang Samut Sakhon","ADM2_TH":"เมืองสมุทรสาคร","ADM2_PCODE":"TH7401","ADM1_EN":"Samut Sakhon","ADM1_TH":"สมุทรสาคร","ADM1_PCODE":"TH74","ADM0_EN":"Thailand","ADM0_TH":"ประเทศไทย","ADM0_PCODE":"TH"}},
{"type":"Feature","geometry":{"type":"Polygon","coordinates":[[[100.33953671700004,13.583794932000046],[100.33970505100007,13.582684834000077],[100.34238338500006,13.58055341000005],[100.34184621300005,13.57936621400006],[100.34343040400006,13.578646372000037],[100.34694242700004,13.574381774000074],[100.34545936000006,13.573718270000029],[100.34434549900004,13.569581179000068],[100.34502854000004,13.567299521000052],[100.34676343000007,13.566291989000035],[100.34906697700006,13.566466373000026],[100.34801804300008,13.565263901000037],[100.35007524800005,13.563982443000043],[100.34944058200006,13.54767591700005],[100.34753762300005,13.538468117000036],[100.34755720500004,13.535613081000065],[100.34570283600004,13.530514354000047],[100.34818764000005,13.513540846000069],[100.35793727400005,13.513540516000035],[100.35849605500005,13.487782465000066],[100.35942138400009,13.488242289000027],[100.36418006600007,13.487821775000043],[100.36696481800004,13.48971268200006],[100.37136662300009,13.490535795000028],[100.37609864500007,13.490615768000055],[100.37691715600005,13.489253947000066],[100.38008563100004,13.489429075000032],[100.38149707300005,13.49025879900006],[100.38222672200004,13.492266738000069],[100.38450211300005,13.491089377000037],[100.38812170600005,13.492729584000074],[100.39077256200005,13.493001693000053],[100.39223048700006,13.491007274000026],[100.39594235300007,13.491074118000029],[100.39659582500008,13.491802102000065],[100.40250726300007,13.493395981000049],[100.40408798700008,13.492876937000062],[100.40883825200007,13.493389571000023],[100.40682494400005,13.502220000000023],[100.40664835200005,13.509178653000049],[100.40649410000003,13.529562397000063],[100.40632586800007,13.535797271000035],[100.41406697700006,13.535871970000073],[100.41466287700007,13.538437900000076],[100.41780405400004,13.540153160000045],[100.41950635400008,13.542835258000025],[100.42008972900004,13.545241469000075],[100.41936110600005,13.54708774900007],[100.41648681000004,13.550390050000033],[100.41478208800004,13.551262695000048],[100.41521388500007,13.557151797000074],[100.41250486700005,13.557213142000023],[100.41183675200006,13.555444736000027],[100.40654530000006,13.554416354000068],[100.40436917000005,13.555059349000032],[100.40338993200004,13.553529386000037],[100.39927976400008,13.552721888000065],[100.39585979700007,13.553459621000059],[100.39421284200006,13.55606565000005],[100.39408112400008,13.558264508000036],[100.39257465800006,13.560782551000045],[100.39312862800006,13.56129825000005],[100.39130664200007,13.563261139000076],[100.39061290600006,13.56757901800006],[100.39149979300004,13.568819484000073],[100.38961000800003,13.56964113600003],[100.38889125600008,13.572561450000023],[100.38689857600008,13.574200791000067],[100.38662316200003,13.577895038000065],[100.38499298000005,13.579213651000032],[100.38570091300005,13.581605487000047],[100.38566846400005,13.585803013000032],[100.38420821600005,13.587657947000025],[100.38436168200008,13.589517468000054],[100.38249155100004,13.590243152000028],[100.37852046700004,13.594381655000063],[100.37909137600008,13.596029134000048],[100.37835236900008,13.601359228000035],[100.37189064700004,13.60035468500007],[100.36824821000005,13.600169858000072],[100.36248407100004,13.594376843000077],[100.35757650200009,13.591276376000053],[100.34910271200005,13.587477297000078],[100.34127134600004,13.585087141000031],[100.33953671700004,13.583794932000046]]]},"properties":{"Shape_Leng":0.407964489469,"Shape_Area":0.00540248427724,"ADM3_EN":"Phanthai Norasing","ADM3_TH":"พันท้ายนรสิงห์","ADM3_PCODE":"TH740113","ADM2_EN":"Mueang Samut Sakhon","ADM2_TH":"เมืองสมุทรสาคร","ADM2_PCODE":"TH7401","ADM1_EN":"Samut Sakhon","ADM1_TH":"สมุทรสาคร","ADM1_PCODE":"TH74","ADM0_EN":"Thailand","ADM0_TH":"ประเทศไทย","ADM0_PCODE":"TH"}},
{"type":"Feature","geometry":{"type":"Polygon","coordinates":[[[100.29537920300004,13.55107898700004],[100.29671899200008,13.546021815000074],[100.29580706600007,13.545219578000058],[100.29705727100009,13.542998170000033],[100.29675716600008,13.539215730000024],[100.29828789900006,13.538368587000036],[100.29871752000008,13.536465689000067],[100.29694185400007,13.536421663000056],[100.29602302500007,13.533062896000047],[100.29854674200004,13.532147317000067],[100.30268302900004,13.533212774000049],[100.30320665400006,13.532429524000065],[100.30651491500004,13.532633900000064],[100.30480796300009,13.528269741000031],[100.30107467600004,13.528984427000069],[100.29991490400005,13.52540156200007],[100.29836782700005,13.523291767000046],[100.29779522700005,13.519630716000052],[100.29633179800004,13.519341387000054],[100.29791663000003,13.513218858000073],[100.29431177400005,13.51323149500007],[100.29431918000006,13.504003444000034],[100.29203829700003,13.500617100000056],[100.30310522000008,13.49490454100004],[100.30545518200006,13.494372965000025],[100.31261982700005,13.491132911000022],[100.31717912800008,13.490260764000027],[100.31927850600005,13.489211022000063],[100.32399540700004,13.488060907000033],[100.32679167500004,13.488288511000064],[100.32786403500006,13.487071031000028],[100.33014279400004,13.48648767800006],[100.33072161100006,13.488787048000063],[100.33373005800007,13.487071531000026],[100.33676445100008,13.486652759000037],[100.34496619200007,13.486374055000056],[100.35532520000004,13.486927095000055],[100.35849605500005,13.487782465000066],[100.35793727400005,13.513540516000035],[100.34818764000005,13.513540846000069],[100.34570283600004,13.530514354000047],[100.34755720500004,13.535613081000065],[100.34753762300005,13.538468117000036],[100.34944058200006,13.54767591700005],[100.35007524800005,13.563982443000043],[100.34801804300008,13.565263901000037],[100.34906697700006,13.566466373000026],[100.34676343000007,13.566291989000035],[100.34502854000004,13.567299521000052],[100.34434549900004,13.569581179000068],[100.34545936000006,13.573718270000029],[100.34694242700004,13.574381774000074],[100.34343040400006,13.578646372000037],[100.34184621300005,13.57936621400006],[100.34238338500006,13.58055341000005],[100.33970505100007,13.582684834000077],[100.33953671700004,13.583794932000046],[100.33806895600009,13.585163710000074],[100.32361174500005,13.572101739000061],[100.31942830500009,13.579498803000035],[100.31798244100008,13.583092590000035],[100.31681254800009,13.582235165000043],[100.31689627600008,13.58025993900003],[100.31873355600004,13.580236796000065],[100.31794684300007,13.578065612000046],[100.31480845000004,13.578973878000056],[100.31456372400004,13.58064137200006],[100.30984994600004,13.577100199000029],[100.29499880800006,13.563025148000065],[100.29312375900008,13.564801530000068],[100.29038999100004,13.562236040000073],[100.28834302400008,13.564484567000022],[100.28433910200005,13.564714110000068],[100.28401201800006,13.564067537000028],[100.28538128100007,13.558494544000041],[100.29902464700007,13.55704387700007],[100.30071217600005,13.553400044000057],[100.29882673000009,13.553012122000041],[100.29537920300004,13.55107898700004]]]},"properties":{"Shape_Leng":0.407662620163,"Shape_Area":0.00473596726197,"ADM3_EN":"Khok Kham","ADM3_TH":"โคกขาม","ADM3_PCODE":"TH740114","ADM2_EN":"Mueang Samut Sakhon","ADM2_TH":"เมืองสมุทรสาคร","ADM2_PCODE":"TH7401","ADM1_EN":"Samut Sakhon","ADM1_TH":"สมุทรสาคร","ADM1_PCODE":"TH74","ADM0_EN":"Thailand","ADM0_TH":"ประเทศไทย","ADM0_PCODE":"TH"}},
{"type":"Feature","geometry":{"type":"Polygon","coordinates":[[[100.27064137300005,13.604954074000034],[100.26567181300004,13.60436263300005],[100.26541102600004,13.608711270000072],[100.26248424500005,13.608272052000075],[100.25831802900007,13.60788006200005],[100.25814134400008,13.607086791000029],[100.25551356800008,13.606742011000051],[100.25262978900008,13.60780272200003],[100.25168053300007,13.603997549000042],[100.24949484200005,13.604036781000048],[100.24444233000008,13.602796925000064],[100.24080598300009,13.603305254000077],[100.23187360100007,13.605329113000039],[100.22796511500007,13.605516283000043],[100.22790413200005,13.604494406000072],[100.22751588900007,13.602316793000057],[100.22333834200003,13.596616389000076],[100.22367814300009,13.595052163000048],[100.22210008400003,13.594043642000031],[100.21655342600008,13.587567278000051],[100.21169452800007,13.587601246000077],[100.21030488900004,13.583254063000027],[100.20392522900005,13.592967988000055],[100.20241300700008,13.593197966000048],[100.20006385400006,13.59214688000003],[100.20035423500008,13.590438607000067],[100.20240273800005,13.590880519000052],[100.20182637000005,13.588457094000034],[100.19999608700005,13.587905806000038],[100.20005426900008,13.586328413000047],[100.19795619900003,13.58426213000007],[100.19519378200005,13.585296175000053],[100.19172278000008,13.585584243000028],[100.19137032600008,13.584309162000068],[100.18898510500009,13.583546441000067],[100.18769314700006,13.585569410000062],[100.18610383100008,13.58402669700007],[100.18358916300008,13.584180047000075],[100.18436445500004,13.586045575000071],[100.18296888600008,13.587306085000023],[100.18124199200008,13.586333459000059],[100.18127868500005,13.584925533000046],[100.17828298100005,13.583769420000067],[100.17463326300003,13.583800023000038],[100.17571509700008,13.581938601000047],[100.17652116000005,13.581316225000023],[100.18183369200005,13.581080947000032],[100.18390394100004,13.576635923000026],[100.18594918900004,13.575649171000066],[100.18576782200006,13.574406152000051],[100.18788533400004,13.572786639000071],[100.18684160900006,13.570863579000047],[100.18679324200008,13.567953131000024],[100.18440392400004,13.566349598000045],[100.18415825500006,13.561567223000054],[100.18313305100008,13.560940389000052],[100.18087912800007,13.561586555000076],[100.18084230600005,13.559543465000047],[100.18235180000005,13.558849416000044],[100.18471706900004,13.559221100000059],[100.18536483600008,13.557604255000058],[100.18745973400007,13.557010518000027],[100.18709852500007,13.554360899000073],[100.18897210500006,13.552317990000063],[100.19168981500007,13.552796325000031],[100.19094446800005,13.549843116000034],[100.19423227600004,13.547042667000028],[100.19544388100007,13.548027541000067],[100.19868872500007,13.548654051000028],[100.20198205900004,13.549532116000023],[100.20424399900008,13.548910791000026],[100.20485569100003,13.550405990000058],[100.20383030600004,13.55746711300003],[100.20476099800004,13.557299271000034],[100.20612280400007,13.559551021000061],[100.20782712000005,13.560012787000062],[100.20944241700005,13.56198529900007],[100.20956136700005,13.564144523000039],[100.21155015800008,13.563433817000032],[100.21583301700008,13.56523605500007],[100.21662789400006,13.568226227000025],[100.21905229800007,13.566869203000067],[100.22226961500007,13.566166818000056],[100.22494060200006,13.566434590000028],[100.22997987400004,13.573304926000048],[100.23253304000008,13.574842110000077],[100.23547547400005,13.574095133000071],[100.23823128900005,13.57423175200006],[100.23838141000004,13.579323397000053],[100.24103342500007,13.579385523000042],[100.24265408400004,13.58080814400006],[100.24616869800008,13.57853366200004],[100.24913946000004,13.577964884000039],[100.24898707600005,13.579305884000064],[100.25081805200006,13.580635440000037],[100.25364619100009,13.580627864000064],[100.25769073500004,13.58138038800007],[100.25826966600005,13.582160568000063],[100.26436245600007,13.582584918000066],[100.26505713600005,13.589515195000047],[100.27197838700005,13.591029845000037],[100.27016202200008,13.59833450900004],[100.27064137300005,13.604954074000034]]]},"properties":{"Shape_Leng":0.355553534501,"Shape_Area":0.00242606683013,"ADM3_EN":"Ban Ko","ADM3_TH":"บ้านเกาะ","ADM3_PCODE":"TH740115","ADM2_EN":"Mueang Samut Sakhon","ADM2_TH":"เมืองสมุทรสาคร","ADM2_PCODE":"TH7401","ADM1_EN":"Samut Sakhon","ADM1_TH":"สมุทรสาคร","ADM1_PCODE":"TH74","ADM0_EN":"Thailand","ADM0_TH":"ประเทศไทย","ADM0_PCODE":"TH"}},
{"type":"Feature","geometry":{"type":"Polygon","coordinates":[[[100.21508404600007,13.465315409000027],[100.21753002200006,13.46569405300005],[100.21799005900004,13.466669908000028],[100.22318387400009,13.466880505000063],[100.22227053900008,13.469321647000072],[100.22457409000003,13.470428818000073],[100.22669639800006,13.46871832100004],[100.22944932900003,13.47253752100005],[100.23457870700008,13.47248111600004],[100.23583706400007,13.47338714500006],[100.23493643600005,13.477649989000042],[100.23185939400008,13.484944303000077],[100.23316242400006,13.485891077000076],[100.23086566800004,13.490108075000023],[100.23896455900007,13.49670528300004],[100.23370770600008,13.505081376000021],[100.23415913800005,13.505764974000044],[100.23260847700004,13.508572607000076],[100.23296789700004,13.509808414000076],[100.23290701800005,13.516419403000043],[100.23109655500008,13.519960540000056],[100.23325048200007,13.520697639000048],[100.23360228500007,13.522933358000046],[100.24286343300008,13.525477955000042],[100.24189078800003,13.525685294000027],[100.24274712100004,13.529163302000029],[100.24163202700004,13.53090346600004],[100.23994877600006,13.530147304000025],[100.23874746900003,13.531695326000033],[100.23949720600007,13.534056150000026],[100.23927202500005,13.536191960000053],[100.23629902500005,13.53840800100005],[100.23407578500007,13.537880089000055],[100.23336620800006,13.54000813600004],[100.23147322900007,13.541643306000026],[100.23172623300007,13.54423689400005],[100.22961768800008,13.545055565000041],[100.22728247500004,13.544333434000066],[100.22522261300008,13.54604960100005],[100.22207940700008,13.544618438000043],[100.21136763900006,13.541428136000036],[100.21019056800009,13.540604272000053],[100.20897360500004,13.543697940000072],[100.20164017700006,13.54309236000006],[100.20126000200008,13.544676997000067],[100.19840363200007,13.547825252000052],[100.19868872500007,13.548654051000028],[100.19544388100007,13.548027541000067],[100.19423227600004,13.547042667000028],[100.19311812500007,13.545174864000046],[100.19371602600006,13.53962316600007],[100.19229638300004,13.534810821000065],[100.19038484300006,13.530212758000062],[100.18732650700008,13.526625813000067],[100.18749558200005,13.525495071000023],[100.18923774400008,13.523064324000075],[100.18781524000008,13.518352208000067],[100.18866405200004,13.515357963000042],[100.18826806600003,13.514221159000044],[100.19171806100007,13.509460860000047],[100.19462994900005,13.507444646000067],[100.19643444400003,13.503643253000064],[100.19803395300005,13.497766771000045],[100.20011417900008,13.49226145700004],[100.20236325700006,13.490434105000077],[100.20576465900007,13.48616425800003],[100.20992878800007,13.475585478000028],[100.21223718500005,13.469158629000049],[100.21401722100006,13.468774033000045],[100.21508404600007,13.465315409000027]]]},"properties":{"Shape_Leng":0.280132524497,"Shape_Area":0.00285792630514,"ADM3_EN":"Bang Krachao","ADM3_TH":"บางกระเจ้า","ADM3_PCODE":"TH740116","ADM2_EN":"Mueang Samut Sakhon","ADM2_TH":"เมืองสมุทรสาคร","ADM2_PCODE":"TH7401","ADM1_EN":"Samut Sakhon","ADM1_TH":"สมุทรสาคร","ADM1_PCODE":"TH74","ADM0_EN":"Thailand","ADM0_TH":"ประเทศไทย","ADM0_PCODE":"TH"}},
{"type":"Feature","geometry":{"type":"Polygon","coordinates":[[[100.28020321600007,13.542164571000058],[100.28145903500007,13.534505358000047],[100.27813287500004,13.531962317000023],[100.27180559100003,13.527798693000022],[100.26561620600006,13.52829575900006],[100.26353045700006,13.528448421000064],[100.26182736700008,13.530695048000041],[100.24286343300008,13.525477955000042],[100.23360228500007,13.522933358000046],[100.23325048200007,13.520697639000048],[100.23109655500008,13.519960540000056],[100.23290701800005,13.516419403000043],[100.23296789700004,13.509808414000076],[100.23260847700004,13.508572607000076],[100.23415913800005,13.505764974000044],[100.23370770600008,13.505081376000021],[100.23896455900007,13.49670528300004],[100.23086566800004,13.490108075000023],[100.23316242400006,13.485891077000076],[100.23185939400008,13.484944303000077],[100.23493643600005,13.477649989000042],[100.23583706400007,13.47338714500006],[100.24032624800009,13.473380491000057],[100.24172737900005,13.474627111000075],[100.24282627000008,13.473837794000076],[100.24604303300003,13.474484933000042],[100.25527375000007,13.478011106000054],[100.26017218500004,13.480507147000026],[100.26604353800008,13.48529869600003],[100.27016024400007,13.490679104000037],[100.27111408800005,13.49323484200005],[100.27227121500005,13.499430351000058],[100.27331092100007,13.502745808000043],[100.27506055600008,13.505108498000027],[100.28185269600004,13.50664342500005],[100.28482668000004,13.50442761000005],[100.29203829700003,13.500617100000056],[100.29431918000006,13.504003444000034],[100.29431177400005,13.51323149500007],[100.29791663000003,13.513218858000073],[100.29633179800004,13.519341387000054],[100.29779522700005,13.519630716000052],[100.29836782700005,13.523291767000046],[100.29991490400005,13.52540156200007],[100.30107467600004,13.528984427000069],[100.30480796300009,13.528269741000031],[100.30651491500004,13.532633900000064],[100.30320665400006,13.532429524000065],[100.30268302900004,13.533212774000049],[100.29854674200004,13.532147317000067],[100.29602302500007,13.533062896000047],[100.29694185400007,13.536421663000056],[100.29871752000008,13.536465689000067],[100.29828789900006,13.538368587000036],[100.29675716600008,13.539215730000024],[100.29705727100009,13.542998170000033],[100.29580706600007,13.545219578000058],[100.29671899200008,13.546021815000074],[100.29537920300004,13.55107898700004],[100.29052350700005,13.549253590000035],[100.27984058900006,13.544143923000036],[100.28020321600007,13.542164571000058]]]},"properties":{"Shape_Leng":0.306144354705,"Shape_Area":0.0028183900029,"ADM3_EN":"Bang Ya Phraek","ADM3_TH":"บางหญ้าแพรก","ADM3_PCODE":"TH740117","ADM2_EN":"Mueang Samut Sakhon","ADM2_TH":"เมืองสมุทรสาคร","ADM2_PCODE":"TH7401","ADM1_EN":"Samut Sakhon","ADM1_TH":"สมุทรสาคร","ADM1_PCODE":"TH74","ADM0_EN":"Thailand","ADM0_TH":"ประเทศไทย","ADM0_PCODE":"TH"}},
{"type":"Feature","geometry":{"type":"Polygon","coordinates":[[[100.18749558200005,13.525495071000023],[100.18732650700008,13.526625813000067],[100.19038484300006,13.530212758000062],[100.19229638300004,13.534810821000065],[100.19371602600006,13.53962316600007],[100.19311812500007,13.545174864000046],[100.19423227600004,13.547042667000028],[100.19094446800005,13.549843116000034],[100.19168981500007,13.552796325000031],[100.18897210500006,13.552317990000063],[100.18709852500007,13.554360899000073],[100.18745973400007,13.557010518000027],[100.18536483600008,13.557604255000058],[100.18471706900004,13.559221100000059],[100.18235180000005,13.558849416000044],[100.18084230600005,13.559543465000047],[100.18087912800007,13.561586555000076],[100.18313305100008,13.560940389000052],[100.18415825500006,13.561567223000054],[100.18440392400004,13.566349598000045],[100.18679324200008,13.567953131000024],[100.18684160900006,13.570863579000047],[100.18788533400004,13.572786639000071],[100.18576782200006,13.574406152000051],[100.18594918900004,13.575649171000066],[100.16158763400006,13.576489167000034],[100.16211347600006,13.574480349000055],[100.16321511100006,13.565486901000043],[100.16103981600008,13.564646983000046],[100.15524623500005,13.565523964000022],[100.15218482400007,13.564789174000055],[100.15496325800007,13.56021693300005],[100.15605409700004,13.55623588800006],[100.15688870100007,13.556837794000046],[100.15983051900008,13.555530174000069],[100.15894717200007,13.553942779000067],[100.16033198500008,13.553420194000068],[100.16043418000004,13.551829429000065],[100.16220957900003,13.552269230000036],[100.16250351700006,13.548672682000074],[100.16383851300009,13.547157492000053],[100.16224896400007,13.543368039000029],[100.16331511300007,13.54254429100007],[100.15895195100006,13.538451424000073],[100.16083260900007,13.535251284000026],[100.15770471500008,13.53302609800005],[100.15893182400004,13.532172051000032],[100.16109368700006,13.532764364000059],[100.16356946100007,13.531934197000055],[100.16587506900004,13.529102654000042],[100.16484614500007,13.527016236000065],[100.16603692800004,13.524944925000057],[100.16890544400007,13.522887001000072],[100.17062774200008,13.51981799400005],[100.18749558200005,13.525495071000023]]]},"properties":{"Shape_Leng":0.211946890043,"Shape_Area":0.00147962708288,"ADM3_EN":"Chai Mongkhon","ADM3_TH":"ชัยมงคล","ADM3_PCODE":"TH740118","ADM2_EN":"Mueang Samut Sakhon","ADM2_TH":"เมืองสมุทรสาคร","ADM2_PCODE":"TH7401","ADM1_EN":"Samut Sakhon","ADM1_TH":"สมุทรสาคร","ADM1_PCODE":"TH74","ADM0_EN":"Thailand","ADM0_TH":"ประเทศไทย","ADM0_PCODE":"TH"}},
{"type":"Feature","geometry":{"type":"Polygon","coordinates":[[[100.26820156700006,13.658432223000034],[100.26413065300005,13.660054893000051],[100.25998378400004,13.657521554000027],[100.25456699900008,13.656093489000057],[100.25172749700005,13.656151935000025],[100.24946198000004,13.657801282000037],[100.24858180400008,13.655883591000077],[100.25099739500007,13.654050766000069],[100.24951838700008,13.653711960000066],[100.23176687500006,13.64704529200003],[100.23083478400008,13.644305638000048],[100.23245345000004,13.642903615000023],[100.24624459800003,13.647353929000076],[100.26407724600006,13.653070842000034],[100.26588532900007,13.65154622600005],[100.26691761000006,13.652358972000059],[100.26760839600007,13.653806779000035],[100.26996489100009,13.653140872000051],[100.27097465400004,13.655390742000066],[100.27250727900008,13.656745072000035],[100.26820156700006,13.658432223000034]]]},"properties":{"Shape_Leng":0.104050505401,"Shape_Area":0.000222533545828,"ADM3_EN":"Talat Krathum Baen","ADM3_TH":"ตลาดกระทุ่มแบน","ADM3_PCODE":"TH740201","ADM2_EN":"Krathum Baen","ADM2_TH":"กระทุ่มแบน","ADM2_PCODE":"TH7402","ADM1_EN":"Samut Sakhon","ADM1_TH":"สมุทรสาคร","ADM1_PCODE":"TH74","ADM0_EN":"Thailand","ADM0_TH":"ประเทศไทย","ADM0_PCODE":"TH"}},
{"type":"Feature","geometry":{"type":"Polygon","coordinates":[[[100.33203031600004,13.691406311000037],[100.33070863100005,13.699664875000053],[100.33235310400005,13.69991770200005],[100.33231241600004,13.704174802000068],[100.33348268500004,13.70838681400005],[100.33232533500006,13.712464130000058],[100.33414435800006,13.713061560000028],[100.33510971800007,13.711204143000032],[100.33877210000009,13.712768633000053],[100.33670852300008,13.716464760000065],[100.33311072600009,13.720837635000066],[100.32421428800006,13.717326548000074],[100.32405176200007,13.718830301000025],[100.32259303000006,13.718609341000047],[100.32222003800007,13.720055865000063],[100.32039962500005,13.720915329000036],[100.31603542900007,13.720088544000077],[100.31559854700004,13.723010601000055],[100.31283048900008,13.721833116000028],[100.30914568000009,13.721686101000046],[100.30888829100007,13.724771909000026],[100.30658415500005,13.724070745000063],[100.30643263500008,13.721805773000028],[100.30721967200009,13.719840915000077],[100.30077730400006,13.71985027200003],[100.30401419300006,13.71518326200004],[100.29806282300007,13.714189279000038],[100.29696667700006,13.71774378200007],[100.29460302600006,13.71674484600004],[100.29314462800005,13.718552857000077],[100.28999895800007,13.71775193600007],[100.28893807600008,13.715075935000073],[100.28505475600008,13.714826092000067],[100.28364568300003,13.714064954000037],[100.28354208500008,13.71180497000006],[100.28549843600007,13.711708119000036],[100.28651170600006,13.708201201000065],[100.28466338000004,13.707704730000046],[100.28418963900003,13.704144748000033],[100.28562015500006,13.703965192000055],[100.28521782600006,13.701402121000058],[100.28378707600007,13.701613716000054],[100.28371884900008,13.697318494000058],[100.28604922400007,13.697123806000036],[100.28685119100004,13.694286052000052],[100.28229442100007,13.692828736000024],[100.27815838700008,13.69281810900003],[100.27797431400006,13.690396388000067],[100.27696822600006,13.688242664000029],[100.27479224300004,13.685905413000057],[100.27074667700003,13.683395778000033],[100.26816136800005,13.68315314800003],[100.26209618600006,13.685401812000066],[100.26034716400005,13.684271397000032],[100.26285055300008,13.683504410000069],[100.26273934000005,13.680570835000026],[100.26807865300003,13.680283062000058],[100.27228037100008,13.678575512000066],[100.27384858200008,13.679574849000062],[100.27486298100007,13.677418241000055],[100.27637933600005,13.677726312000061],[100.27611378400007,13.675431144000072],[100.28145866400007,13.676097628000036],[100.28307923300008,13.678299810000055],[100.28634657600008,13.679603864000057],[100.28721399300008,13.682069744000046],[100.28946155800008,13.68134769900007],[100.28970480300006,13.68306070500006],[100.29600046400009,13.682479428000022],[100.29702082700004,13.68430797600007],[100.29973012300007,13.683681655000044],[100.30129340400003,13.68697263000007],[100.30797626600008,13.685629089000031],[100.30807625400007,13.686249003000057],[100.31223305000003,13.68709698400005],[100.31339401800005,13.685838413000056],[100.31608196100007,13.686806432000026],[100.31555685800004,13.688381193000055],[100.31835766900008,13.689551058000063],[100.32533693100004,13.690718822000065],[100.32666641400004,13.691270682000038],[100.33203031600004,13.691406311000037]]]},"properties":{"Shape_Leng":0.286236328736,"Shape_Area":0.00176966623238,"ADM3_EN":"Om Noi","ADM3_TH":"อ้อมน้อย","ADM3_PCODE":"TH740202","ADM2_EN":"Krathum Baen","ADM2_TH":"กระทุ่มแบน","ADM2_PCODE":"TH7402","ADM1_EN":"Samut Sakhon","ADM1_TH":"สมุทรสาคร","ADM1_PCODE":"TH74","ADM0_EN":"Thailand","ADM0_TH":"ประเทศไทย","ADM0_PCODE":"TH"}},
{"type":"Feature","geometry":{"type":"Polygon","coordinates":[[[100.26820156700006,13.658432223000034],[100.26982029500005,13.659481166000035],[100.27035359900003,13.662816614000064],[100.27140107000008,13.663450650000073],[100.27996644100006,13.662892198000065],[100.28203365800005,13.66192092600005],[100.28162133400008,13.663610357000039],[100.28898447600005,13.665752586000053],[100.28953349100004,13.670708879000074],[100.29169290000004,13.676868794000029],[100.29211999200004,13.676703086000032],[100.29353949000006,13.680870438000056],[100.29516047900006,13.680724502000032],[100.29600046400009,13.682479428000022],[100.28970480300006,13.68306070500006],[100.28946155800008,13.68134769900007],[100.28721399300008,13.682069744000046],[100.28634657600008,13.679603864000057],[100.28307923300008,13.678299810000055],[100.28145866400007,13.676097628000036],[100.27611378400007,13.675431144000072],[100.27637933600005,13.677726312000061],[100.27486298100007,13.677418241000055],[100.27384858200008,13.679574849000062],[100.27228037100008,13.678575512000066],[100.26807865300003,13.680283062000058],[100.26273934000005,13.680570835000026],[100.26285055300008,13.683504410000069],[100.26034716400005,13.684271397000032],[100.26046982800005,13.682474655000021],[100.25848934500004,13.67960726800004],[100.25621097400006,13.680685638000057],[100.25442255100006,13.678834264000045],[100.25209056400007,13.678932631000066],[100.24370235300006,13.674651760000074],[100.24183827900004,13.678008143000056],[100.23796252400007,13.676106439000023],[100.24270200800004,13.666868325000053],[100.24542470500006,13.666102047000038],[100.24703831700003,13.664419209000073],[100.24854406200006,13.659254107000038],[100.24946198000004,13.657801282000037],[100.25172749700005,13.656151935000025],[100.25456699900008,13.656093489000057],[100.25998378400004,13.657521554000027],[100.26413065300005,13.660054893000051],[100.26820156700006,13.658432223000034]]]},"properties":{"Shape_Leng":0.175042952041,"Shape_Area":0.0008877165647,"ADM3_EN":"Tha Mai","ADM3_TH":"ท่าไม้","ADM3_PCODE":"TH740203","ADM2_EN":"Krathum Baen","ADM2_TH":"กระทุ่มแบน","ADM2_PCODE":"TH7402","ADM1_EN":"Samut Sakhon","ADM1_TH":"สมุทรสาคร","ADM1_PCODE":"TH74","ADM0_EN":"Thailand","ADM0_TH":"ประเทศไทย","ADM0_PCODE":"TH"}},
{"type":"Feature","geometry":{"type":"Polygon","coordinates":[[[100.27250727900008,13.656745072000035],[100.28310781700009,13.654251878000025],[100.28818197800007,13.653530215000046],[100.28839888600004,13.655181841000058],[100.28958747600007,13.65489876600003],[100.30296978500007,13.657524430000024],[100.30338700500005,13.654725770000027],[100.30649052000007,13.65431043600006],[100.30828293500008,13.653859713000031],[100.31379440400008,13.654320139000049],[100.31479758500006,13.653538549000075],[100.32089156100005,13.65480440500005],[100.32486303800005,13.655203173000075],[100.32845733500005,13.654565399000035],[100.32880761600006,13.653806744000065],[100.33281906300004,13.65408848800007],[100.33921570700005,13.653883392000068],[100.33938354700007,13.654990333000057],[100.33978936000005,13.657761059000052],[100.34130124700005,13.660874092000029],[100.34012855200007,13.666629310000076],[100.33882195800004,13.669583799000065],[100.33824628800005,13.674982059000058],[100.33754623800007,13.677362113000072],[100.33611506200003,13.676981264000062],[100.33365196700004,13.681218079000075],[100.33384388300004,13.683517710000046],[100.33242907100004,13.688363558000049],[100.33203031600004,13.691406311000037],[100.32666641400004,13.691270682000038],[100.32533693100004,13.690718822000065],[100.31835766900008,13.689551058000063],[100.31555685800004,13.688381193000055],[100.31608196100007,13.686806432000026],[100.31339401800005,13.685838413000056],[100.31223305000003,13.68709698400005],[100.30807625400007,13.686249003000057],[100.30797626600008,13.685629089000031],[100.30129340400003,13.68697263000007],[100.29973012300007,13.683681655000044],[100.29702082700004,13.68430797600007],[100.29600046400009,13.682479428000022],[100.29516047900006,13.680724502000032],[100.29353949000006,13.680870438000056],[100.29211999200004,13.676703086000032],[100.29169290000004,13.676868794000029],[100.28953349100004,13.670708879000074],[100.28898447600005,13.665752586000053],[100.28162133400008,13.663610357000039],[100.28203365800005,13.66192092600005],[100.27996644100006,13.662892198000065],[100.27140107000008,13.663450650000073],[100.27035359900003,13.662816614000064],[100.26982029500005,13.659481166000035],[100.26820156700006,13.658432223000034],[100.27250727900008,13.656745072000035]]]},"properties":{"Shape_Leng":0.213415498001,"Shape_Area":0.00169665566275,"ADM3_EN":"Suan Luang","ADM3_TH":"สวนหลวง","ADM3_PCODE":"TH740204","ADM2_EN":"Krathum Baen","ADM2_TH":"กระทุ่มแบน","ADM2_PCODE":"TH7402","ADM1_EN":"Samut Sakhon","ADM1_TH":"สมุทรสาคร","ADM1_PCODE":"TH74","ADM0_EN":"Thailand","ADM0_TH":"ประเทศไทย","ADM0_PCODE":"TH"}},
{"type":"Feature","geometry":{"type":"Polygon","coordinates":[[[100.24946198000004,13.657801282000037],[100.24854406200006,13.659254107000038],[100.24703831700003,13.664419209000073],[100.24542470500006,13.666102047000038],[100.24270200800004,13.666868325000053],[100.23796252400007,13.676106439000023],[100.24183827900004,13.678008143000056],[100.24071110800008,13.67985930900005],[100.22715569400003,13.672737847000064],[100.22674275300005,13.676875706000033],[100.22409139100006,13.681405102000042],[100.21237109600008,13.681727610000053],[100.21192139800007,13.683884758000033],[100.20976699900007,13.684807721000027],[100.20330189100008,13.678371945000038],[100.19866709400009,13.67711302400005],[100.19915274100003,13.675223732000063],[100.20671273200008,13.664807435000057],[100.20452368700006,13.65438871400005],[100.20145385000006,13.651267253000071],[100.20701625100008,13.651269269000068],[100.20593006000007,13.64341851100005],[100.20714739200008,13.642533204000074],[100.21195511100007,13.644073500000047],[100.21455782600003,13.640549692000036],[100.21877237600006,13.638385320000054],[100.22112343400005,13.63898628100003],[100.22795636900008,13.643774531000076],[100.23083478400008,13.644305638000048],[100.23176687500006,13.64704529200003],[100.24951838700008,13.653711960000066],[100.25099739500007,13.654050766000069],[100.24858180400008,13.655883591000077],[100.24946198000004,13.657801282000037]]]},"properties":{"Shape_Leng":0.191400736519,"Shape_Area":0.00142042275846,"ADM3_EN":"Bang Yang","ADM3_TH":"บางยาง","ADM3_PCODE":"TH740205","ADM2_EN":"Krathum Baen","ADM2_TH":"กระทุ่มแบน","ADM2_PCODE":"TH7402","ADM1_EN":"Samut Sakhon","ADM1_TH":"สมุทรสาคร","ADM1_PCODE":"TH74","ADM0_EN":"Thailand","ADM0_TH":"ประเทศไทย","ADM0_PCODE":"TH"}},
{"type":"Feature","geometry":{"type":"Polygon","coordinates":[[[100.31250855800005,13.619587187000036],[100.31367249000004,13.623720648000074],[100.31685575200004,13.623698937000029],[100.31747048200003,13.624968009000042],[100.31369853600006,13.62518766200003],[100.31430467600006,13.628347362000056],[100.31344623200005,13.634627585000032],[100.30885474600007,13.635952958000075],[100.30627974100008,13.638454522000075],[100.30614121000008,13.640237091000074],[100.30708576200004,13.64320140500007],[100.30600168600006,13.643535558000053],[100.30627939800007,13.646533944000055],[100.30766804200005,13.649325754000074],[100.30576952300004,13.649532027000078],[100.30649052000007,13.65431043600006],[100.30338700500005,13.654725770000027],[100.30296978500007,13.657524430000024],[100.28958747600007,13.65489876600003],[100.28839888600004,13.655181841000058],[100.28818197800007,13.653530215000046],[100.28310781700009,13.654251878000025],[100.27250727900008,13.656745072000035],[100.27097465400004,13.655390742000066],[100.26996489100009,13.653140872000051],[100.26760839600007,13.653806779000035],[100.26691761000006,13.652358972000059],[100.26885366700009,13.651204619000055],[100.27240132100007,13.647679958000026],[100.27449950100004,13.646880443000043],[100.27633786000007,13.644292258000064],[100.27848888000005,13.63721505600006],[100.27893141600003,13.633775233000051],[100.28022111800004,13.630923172000053],[100.28121270400004,13.624746918000028],[100.28151500800004,13.619195902000058],[100.28179411800005,13.62031840000003],[100.28537307400006,13.620046870000067],[100.28586083300007,13.62240140700004],[100.28725243000008,13.621561308000025],[100.29180869400005,13.621666412000025],[100.29633432300005,13.620998758000042],[100.30626672200003,13.621385885000052],[100.30899261100006,13.620627063000029],[100.30901170200008,13.61969218300004],[100.31250855800005,13.619587187000036]]]},"properties":{"Shape_Leng":0.174312770241,"Shape_Area":0.00113812128273,"ADM3_EN":"Khlong Maduea","ADM3_TH":"คลองมะเดื่อ","ADM3_PCODE":"TH740206","ADM2_EN":"Krathum Baen","ADM2_TH":"กระทุ่มแบน","ADM2_PCODE":"TH7402","ADM1_EN":"Samut Sakhon","ADM1_TH":"สมุทรสาคร","ADM1_PCODE":"TH74","ADM0_EN":"Thailand","ADM0_TH":"ประเทศไทย","ADM0_PCODE":"TH"}},
{"type":"Feature","geometry":{"type":"Polygon","coordinates":[[[100.19866709400009,13.67711302400005],[100.19624880500004,13.676401357000032],[100.19421983400008,13.674142681000035],[100.19017214700006,13.67486537800005],[100.18908701200007,13.674010988000077],[100.18314392400003,13.685670048000077],[100.18173813000004,13.688987742000052],[100.17701641700006,13.688036331000035],[100.17629351500005,13.684696441000028],[100.17494429000004,13.682115743000054],[100.17327188300004,13.682724292000046],[100.17135058100007,13.680630305000022],[100.17340939800005,13.678556932000049],[100.16966076200003,13.674544193000031],[100.17442295300003,13.671278707000056],[100.17574258400003,13.668738401000041],[100.18035860100008,13.664483692000033],[100.18350235600008,13.66220966800006],[100.18904172100008,13.660371217000034],[100.18889524300005,13.659047142000077],[100.19081998000007,13.657687495000062],[100.20035791800007,13.654076401000054],[100.20003260200008,13.651087737000069],[100.20145385000006,13.651267253000071],[100.20452368700006,13.65438871400005],[100.20671273200008,13.664807435000057],[100.19915274100003,13.675223732000063],[100.19866709400009,13.67711302400005]]]},"properties":{"Shape_Leng":0.126675367765,"Shape_Area":0.000622514518065,"ADM3_EN":"Nong Nok Khai","ADM3_TH":"หนองนกไข่","ADM3_PCODE":"TH740207","ADM2_EN":"Krathum Baen","ADM2_TH":"กระทุ่มแบน","ADM2_PCODE":"TH7402","ADM1_EN":"Samut Sakhon","ADM1_TH":"สมุทรสาคร","ADM1_PCODE":"TH74","ADM0_EN":"Thailand","ADM0_TH":"ประเทศไทย","ADM0_PCODE":"TH"}},
{"type":"Feature","geometry":{"type":"Polygon","coordinates":[[[100.28151500800004,13.619195902000058],[100.28121270400004,13.624746918000028],[100.28022111800004,13.630923172000053],[100.27893141600003,13.633775233000051],[100.27848888000005,13.63721505600006],[100.27633786000007,13.644292258000064],[100.27449950100004,13.646880443000043],[100.27240132100007,13.647679958000026],[100.26885366700009,13.651204619000055],[100.26691761000006,13.652358972000059],[100.26588532900007,13.65154622600005],[100.26407724600006,13.653070842000034],[100.24624459800003,13.647353929000076],[100.24789113900005,13.645295647000069],[100.25771692100005,13.64112594200003],[100.25888378600007,13.639231723000023],[100.26149335600007,13.612859084000036],[100.26248424500005,13.608272052000075],[100.26541102600004,13.608711270000072],[100.26567181300004,13.60436263300005],[100.27064137300005,13.604954074000034],[100.27095787700006,13.609200416000022],[100.27402080000007,13.609035249000044],[100.27362767600005,13.61133194200005],[100.27685197000005,13.611510438000039],[100.27711072100004,13.612666200000035],[100.27988174600006,13.612593460000028],[100.28151500800004,13.619195902000058]]]},"properties":{"Shape_Leng":0.145097722328,"Shape_Area":0.000878517019834,"ADM3_EN":"Don Kai Di","ADM3_TH":"ดอนไก่ดี","ADM3_PCODE":"TH740208","ADM2_EN":"Krathum Baen","ADM2_TH":"กระทุ่มแบน","ADM2_PCODE":"TH7402","ADM1_EN":"Samut Sakhon","ADM1_TH":"สมุทรสาคร","ADM1_PCODE":"TH74","ADM0_EN":"Thailand","ADM0_TH":"ประเทศไทย","ADM0_PCODE":"TH"}},
{"type":"Feature","geometry":{"type":"Polygon","coordinates":[[[100.35024229000004,13.640497348000054],[100.34851968100008,13.641008958000043],[100.34860616200007,13.643725023000059],[100.34717057500006,13.645060569000066],[100.34544933700005,13.644725233000031],[100.34467639000007,13.649228008000023],[100.34632381100005,13.649173861000065],[100.34683704300005,13.655339513000058],[100.34504517300007,13.654708008000057],[100.33938354700007,13.654990333000057],[100.33921570700005,13.653883392000068],[100.33281906300004,13.65408848800007],[100.32880761600006,13.653806744000065],[100.32845733500005,13.654565399000035],[100.32486303800005,13.655203173000075],[100.32089156100005,13.65480440500005],[100.31479758500006,13.653538549000075],[100.31379440400008,13.654320139000049],[100.30828293500008,13.653859713000031],[100.30649052000007,13.65431043600006],[100.30576952300004,13.649532027000078],[100.30766804200005,13.649325754000074],[100.30627939800007,13.646533944000055],[100.30600168600006,13.643535558000053],[100.30708576200004,13.64320140500007],[100.30614121000008,13.640237091000074],[100.30627974100008,13.638454522000075],[100.30885474600007,13.635952958000075],[100.31344623200005,13.634627585000032],[100.31430467600006,13.628347362000056],[100.31369853600006,13.62518766200003],[100.31747048200003,13.624968009000042],[100.32160970600006,13.62555003500006],[100.32400281400004,13.627701739000031],[100.32361783300007,13.630579913000076],[100.32566624300006,13.630184641000028],[100.32960810100008,13.633005034000064],[100.33168072500007,13.635743224000066],[100.33611114000007,13.638837352000053],[100.34014380200006,13.639091367000049],[100.35024229000004,13.640497348000054]]]},"properties":{"Shape_Leng":0.1478760489,"Shape_Area":0.000834309127834,"ADM3_EN":"Khae Rai","ADM3_TH":"แคราย","ADM3_PCODE":"TH740209","ADM2_EN":"Krathum Baen","ADM2_TH":"กระทุ่มแบน","ADM2_PCODE":"TH7402","ADM1_EN":"Samut Sakhon","ADM1_TH":"สมุทรสาคร","ADM1_PCODE":"TH74","ADM0_EN":"Thailand","ADM0_TH":"ประเทศไทย","ADM0_PCODE":"TH"}},
{"type":"Feature","geometry":{"type":"Polygon","coordinates":[[[100.26248424500005,13.608272052000075],[100.26149335600007,13.612859084000036],[100.25888378600007,13.639231723000023],[100.25771692100005,13.64112594200003],[100.24789113900005,13.645295647000069],[100.24624459800003,13.647353929000076],[100.23245345000004,13.642903615000023],[100.23317513200004,13.639080424000042],[100.23290445000004,13.632117239000024],[100.23147876200005,13.628909324000062],[100.22967011000009,13.627157626000042],[100.22700464700006,13.62617635600003],[100.22262514100004,13.626656732000072],[100.21856834400006,13.629126614000029],[100.21504799600007,13.629296403000069],[100.21371245400007,13.628308454000035],[100.21319242000004,13.625346863000061],[100.21469268100009,13.621032849000073],[100.21656878600004,13.620640613000035],[100.22064020800008,13.621156305000056],[100.22314996800009,13.622215281000024],[100.22526300200008,13.622281717000021],[100.22744175800005,13.61997468800007],[100.22804705000004,13.61591594400005],[100.22790413200005,13.604494406000072],[100.22796511500007,13.605516283000043],[100.23187360100007,13.605329113000039],[100.24080598300009,13.603305254000077],[100.24444233000008,13.602796925000064],[100.24949484200005,13.604036781000048],[100.25168053300007,13.603997549000042],[100.25262978900008,13.60780272200003],[100.25551356800008,13.606742011000051],[100.25814134400008,13.607086791000029],[100.25831802900007,13.60788006200005],[100.26248424500005,13.608272052000075]]]},"properties":{"Shape_Leng":0.174223581286,"Shape_Area":0.00128646487826,"ADM3_EN":"Tha Sao","ADM3_TH":"ท่าเสา","ADM3_PCODE":"TH740210","ADM2_EN":"Krathum Baen","ADM2_TH":"กระทุ่มแบน","ADM2_PCODE":"TH7402","ADM1_EN":"Samut Sakhon","ADM1_TH":"สมุทรสาคร","ADM1_PCODE":"TH74","ADM0_EN":"Thailand","ADM0_TH":"ประเทศไทย","ADM0_PCODE":"TH"}},
{"type":"Feature","geometry":{"type":"Polygon","coordinates":[[[100.10360644400004,13.649568934000058],[100.10235771300006,13.64984183000007],[100.09965348800006,13.652112841000076],[100.09472641600007,13.650346155000022],[100.09323104200007,13.653072289000022],[100.08653287600004,13.650760553000055],[100.08410701200006,13.657208882000077],[100.08009884200004,13.65775510900005],[100.07689472100009,13.65744012500005],[100.08005276000006,13.638427787000069],[100.08968217200004,13.622116411000036],[100.09221829300009,13.615918072000056],[100.09503735200008,13.612269063000042],[100.09399611100008,13.610358420000068],[100.09774215600004,13.60777689300005],[100.09774114400005,13.605389269000057],[100.09688960500006,13.603577391000044],[100.09530130400003,13.602646451000055],[100.09591077300007,13.594816212000069],[100.09683034200003,13.59283348300005],[100.09578633800004,13.590773307000063],[100.09589953400007,13.587137925000036],[100.09688247800005,13.584567838000055],[100.11391778200004,13.593203174000053],[100.13097734200005,13.602043087000027],[100.12921632400008,13.605885484000055],[100.12426498800005,13.611266826000076],[100.12044320600006,13.61586997300003],[100.11791026700007,13.62109678400003],[100.10990026300004,13.636483891000069],[100.10711592400008,13.642783077000047],[100.10360644400004,13.649568934000058]]]},"properties":{"Shape_Leng":0.210229298772,"Shape_Area":0.00177171393891,"ADM3_EN":"Ban Phaeo","ADM3_TH":"บ้านแพ้ว","ADM3_PCODE":"TH740301","ADM2_EN":"Ban Phaeo","ADM2_TH":"บ้านแพ้ว","ADM2_PCODE":"TH7403","ADM1_EN":"Samut Sakhon","ADM1_TH":"สมุทรสาคร","ADM1_PCODE":"TH74","ADM0_EN":"Thailand","ADM0_TH":"ประเทศไทย","ADM0_PCODE":"TH"}},
{"type":"Feature","geometry":{"type":"Polygon","coordinates":[[[100.15895195100006,13.538451424000073],[100.16331511300007,13.54254429100007],[100.16224896400007,13.543368039000029],[100.16383851300009,13.547157492000053],[100.16250351700006,13.548672682000074],[100.16220957900003,13.552269230000036],[100.16043418000004,13.551829429000065],[100.16033198500008,13.553420194000068],[100.15894717200007,13.553942779000067],[100.15983051900008,13.555530174000069],[100.15688870100007,13.556837794000046],[100.15605409700004,13.55623588800006],[100.15496325800007,13.56021693300005],[100.15218482400007,13.564789174000055],[100.15524623500005,13.565523964000022],[100.16103981600008,13.564646983000046],[100.16321511100006,13.565486901000043],[100.16211347600006,13.574480349000055],[100.16158763400006,13.576489167000034],[100.18594918900004,13.575649171000066],[100.18390394100004,13.576635923000026],[100.18183369200005,13.581080947000032],[100.17652116000005,13.581316225000023],[100.17571509700008,13.581938601000047],[100.17658800900006,13.58040440700006],[100.17572729100004,13.578862478000076],[100.17421522900008,13.579007499000056],[100.17245978700004,13.583572249000042],[100.17028952000004,13.583547367000051],[100.16540596100003,13.587853281000037],[100.16294180600005,13.587742731000048],[100.16013442200006,13.588554788000067],[100.15904375000008,13.593290412000044],[100.15783794000004,13.595381025000052],[100.15180342000008,13.59614464300006],[100.14903504100005,13.600050613000064],[100.14548732000009,13.603835786000047],[100.14686077500005,13.607623161000049],[100.14695132600008,13.610349643000063],[100.13097734200005,13.602043087000027],[100.11391778200004,13.593203174000053],[100.09688247800005,13.584567838000055],[100.09742290300005,13.583139447000065],[100.10093492400006,13.581823476000068],[100.10169347300007,13.58033868700005],[100.10223771500006,13.576250314000049],[100.10110724400005,13.57236186700004],[100.10134625900008,13.568690842000024],[100.10077524100006,13.566890670000078],[100.09943581800007,13.566642715000057],[100.09973190700003,13.564585833000024],[100.10078867600004,13.564974205000055],[100.10415025200007,13.563726261000056],[100.10495885600005,13.562177571000063],[100.10725466500008,13.56125832400005],[100.10821551800007,13.55948092500006],[100.10733264900006,13.55834225600006],[100.11041392900006,13.554121012000053],[100.11235935500008,13.55297799400006],[100.11235651700008,13.551525554000023],[100.11422291500008,13.55024108400005],[100.11578218000005,13.551138551000065],[100.11643594000009,13.548353832000032],[100.11785978400007,13.547213961000068],[100.11672305600007,13.544576448000043],[100.11730704800004,13.543054138000059],[100.11918884600004,13.543787896000026],[100.11978252300008,13.54223341900007],[100.12092656600004,13.54320500700004],[100.12209566300004,13.541811800000062],[100.12423295700006,13.542409434000035],[100.12528454300008,13.540473766000048],[100.12809902200007,13.54038709100007],[100.13016453300008,13.539410308000072],[100.13252162000003,13.539921651000043],[100.13497054500004,13.538796932000025],[100.13396357100004,13.536462885000049],[100.13610997100005,13.536056422000058],[100.13701092400004,13.53403389500005],[100.13932448100007,13.534378334000053],[100.14137996000005,13.535795794000023],[100.14417998500005,13.535219229000063],[100.14723455400008,13.535632802000066],[100.14873373600005,13.533606398000074],[100.15166528100008,13.534408203000055],[100.15324370500008,13.537581712000076],[100.15642559900004,13.53647256000005],[100.15895195100006,13.538451424000073]]]},"properties":{"Shape_Leng":0.33504066101,"Shape_Area":0.00343457353617,"ADM3_EN":"Lak Sam","ADM3_TH":"หลักสาม","ADM3_PCODE":"TH740302","ADM2_EN":"Ban Phaeo","ADM2_TH":"บ้านแพ้ว","ADM2_PCODE":"TH7403","ADM1_EN":"Samut Sakhon","ADM1_TH":"สมุทรสาคร","ADM1_PCODE":"TH74","ADM0_EN":"Thailand","ADM0_TH":"ประเทศไทย","ADM0_PCODE":"TH"}},
{"type":"Feature","geometry":{"type":"Polygon","coordinates":[[[100.14873373600005,13.533606398000074],[100.14723455400008,13.535632802000066],[100.14417998500005,13.535219229000063],[100.14137996000005,13.535795794000023],[100.13932448100007,13.534378334000053],[100.13701092400004,13.53403389500005],[100.13610997100005,13.536056422000058],[100.13396357100004,13.536462885000049],[100.13497054500004,13.538796932000025],[100.13252162000003,13.539921651000043],[100.13016453300008,13.539410308000072],[100.12809902200007,13.54038709100007],[100.12528454300008,13.540473766000048],[100.12423295700006,13.542409434000035],[100.12209566300004,13.541811800000062],[100.12092656600004,13.54320500700004],[100.11978252300008,13.54223341900007],[100.11918884600004,13.543787896000026],[100.11730704800004,13.543054138000059],[100.11672305600007,13.544576448000043],[100.11785978400007,13.547213961000068],[100.11643594000009,13.548353832000032],[100.11578218000005,13.551138551000065],[100.11422291500008,13.55024108400005],[100.11235651700008,13.551525554000023],[100.11235935500008,13.55297799400006],[100.11041392900006,13.554121012000053],[100.10733264900006,13.55834225600006],[100.10821551800007,13.55948092500006],[100.10725466500008,13.56125832400005],[100.10495885600005,13.562177571000063],[100.10415025200007,13.563726261000056],[100.10078867600004,13.564974205000055],[100.09973190700003,13.564585833000024],[100.09943581800007,13.566642715000057],[100.10077524100006,13.566890670000078],[100.10134625900008,13.568690842000024],[100.10110724400005,13.57236186700004],[100.10223771500006,13.576250314000049],[100.10169347300007,13.58033868700005],[100.10093492400006,13.581823476000068],[100.09742290300005,13.583139447000065],[100.09688247800005,13.584567838000055],[100.07590014300007,13.57409980600005],[100.06668539300006,13.569174743000076],[100.06960819200003,13.563392983000028],[100.07246884500006,13.55860029400003],[100.07626012300005,13.552962801000035],[100.07993737400005,13.546923409000044],[100.08235524200006,13.540971970000044],[100.08335457000004,13.536041436000062],[100.08475112200006,13.533512979000022],[100.09006786900005,13.532904474000077],[100.08994605000004,13.529994957000042],[100.09247851700007,13.526976686000069],[100.09625433300005,13.528897192000045],[100.09937459500009,13.527887881000026],[100.10194527100003,13.525548553000021],[100.10661428100008,13.523919834000026],[100.10885667300005,13.524296374000073],[100.11522669300007,13.518147443000032],[100.11899494600004,13.516962112000044],[100.12002571300008,13.513391863000038],[100.12188045500005,13.514542431000052],[100.12326557700004,13.519573098000023],[100.12795585100008,13.516498762000026],[100.13527380900007,13.523732220000056],[100.13531519700007,13.524509200000068],[100.14320716800006,13.529439977000038],[100.14873373600005,13.533606398000074]]]},"properties":{"Shape_Leng":0.270286411296,"Shape_Area":0.0022822546403,"ADM3_EN":"Yok Krabat","ADM3_TH":"ยกกระบัตร","ADM3_PCODE":"TH740303","ADM2_EN":"Ban Phaeo","ADM2_TH":"บ้านแพ้ว","ADM2_PCODE":"TH7403","ADM1_EN":"Samut Sakhon","ADM1_TH":"สมุทรสาคร","ADM1_PCODE":"TH74","ADM0_EN":"Thailand","ADM0_TH":"ประเทศไทย","ADM0_PCODE":"TH"}},
{"type":"Feature","geometry":{"type":"Polygon","coordinates":[[[100.12002571300008,13.513391863000038],[100.11899494600004,13.516962112000044],[100.11522669300007,13.518147443000032],[100.10885667300005,13.524296374000073],[100.10661428100008,13.523919834000026],[100.10194527100003,13.525548553000021],[100.09937459500009,13.527887881000026],[100.09625433300005,13.528897192000045],[100.09247851700007,13.526976686000069],[100.08994605000004,13.529994957000042],[100.09006786900005,13.532904474000077],[100.08475112200006,13.533512979000022],[100.08335457000004,13.536041436000062],[100.08235524200006,13.540971970000044],[100.07993737400005,13.546923409000044],[100.07626012300005,13.552962801000035],[100.07246884500006,13.55860029400003],[100.06960819200003,13.563392983000028],[100.06668539300006,13.569174743000076],[100.04599703500008,13.55931398100006],[100.04259132700008,13.557591978000062],[100.04383301400009,13.554327274000059],[100.04414041600006,13.544495573000063],[100.04345544900008,13.53967271700003],[100.04194848600008,13.536526994000042],[100.03526209500006,13.533631443000047],[100.03386131200006,13.53198971200004],[100.03128232700004,13.531383763000065],[100.02897323700006,13.528822260000027],[100.03023225300007,13.52568102600003],[100.03196990200007,13.524694294000028],[100.03133703100008,13.520878585000048],[100.02793561400006,13.520404574000054],[100.02667992900007,13.518219567000074],[100.02869767700008,13.513209824000057],[100.02881595400004,13.508576559000062],[100.03446738800005,13.505053746000044],[100.03738863900008,13.50525691100006],[100.03931786900006,13.503873254000041],[100.04259295900005,13.503524345000073],[100.04204684000007,13.50219669300003],[100.04295699600004,13.498742277000076],[100.04516403100007,13.496873546000074],[100.04650422500004,13.497012403000042],[100.04874790700006,13.492284490000031],[100.05315896400003,13.485801796000032],[100.06732209500007,13.491216775000055],[100.07194274600005,13.493606209000063],[100.08242885800007,13.49616831800006],[100.08470605700006,13.497099037000055],[100.10447267500007,13.50272041900007],[100.10591615900006,13.50315329700004],[100.10768565700005,13.502068875000077],[100.11044092300006,13.501737637000076],[100.11327532900003,13.50037622700006],[100.11403924600006,13.503704406000054],[100.11747429500008,13.504749747000062],[100.11655994500006,13.50772266100006],[100.11882123300006,13.512059142000055],[100.12002571300008,13.513391863000038]]]},"properties":{"Shape_Leng":0.308409325449,"Shape_Area":0.0040013377109,"ADM3_EN":"Rong Khe","ADM3_TH":"โรงเข้","ADM3_PCODE":"TH740304","ADM2_EN":"Ban Phaeo","ADM2_TH":"บ้านแพ้ว","ADM2_PCODE":"TH7403","ADM1_EN":"Samut Sakhon","ADM1_TH":"สมุทรสาคร","ADM1_PCODE":"TH74","ADM0_EN":"Thailand","ADM0_TH":"ประเทศไทย","ADM0_PCODE":"TH"}},
{"type":"Feature","geometry":{"type":"Polygon","coordinates":[[[100.07590014300007,13.57409980600005],[100.07272750700008,13.581723650000072],[100.06794437300005,13.59030141200003],[100.06782266600004,13.595121910000046],[100.06841760200007,13.599099627000044],[100.06898948300005,13.61261445100007],[100.07023301600003,13.615770037000061],[100.06760853100008,13.617592896000076],[100.06196354400004,13.62392083900005],[100.05901097100008,13.626837827000031],[100.05447544300006,13.62922270200005],[100.05253845100003,13.627202254000053],[100.05389091700005,13.625904037000055],[100.05332937100007,13.622008382000047],[100.05391627200004,13.619042526000044],[100.05133325800006,13.619402406000063],[100.04882878000006,13.61880042100006],[100.04648614200005,13.615802827000039],[100.04304207300004,13.615048819000037],[100.03783253300008,13.612436991000038],[100.03691691100005,13.613705288000062],[100.03492680800008,13.612630326000044],[100.03407965700006,13.614087969000025],[100.03110954200008,13.612613751000026],[100.03279213200005,13.610467463000077],[100.03313237500004,13.608700502000033],[100.03492233300005,13.607606586000031],[100.03834327400006,13.604310370000064],[100.04125660600005,13.599714353000024],[100.04134489700004,13.59768456200004],[100.04311803600007,13.594837166000048],[100.04268523200005,13.593752915000039],[100.03878330600008,13.593247465000047],[100.03898495100003,13.588269919000027],[100.04029494000008,13.58312137200005],[100.03722203700005,13.582497471000067],[100.03951293800009,13.577425810000022],[100.04120616400007,13.571278737000057],[100.04599703500008,13.55931398100006],[100.06668539300006,13.569174743000076],[100.07590014300007,13.57409980600005]]]},"properties":{"Shape_Leng":0.205951271806,"Shape_Area":0.00171575264974,"ADM3_EN":"Nong Song Hong","ADM3_TH":"หนองสองห้อง","ADM3_PCODE":"TH740305","ADM2_EN":"Ban Phaeo","ADM2_TH":"บ้านแพ้ว","ADM2_PCODE":"TH7403","ADM1_EN":"Samut Sakhon","ADM1_TH":"สมุทรสาคร","ADM1_PCODE":"TH74","ADM0_EN":"Thailand","ADM0_TH":"ประเทศไทย","ADM0_PCODE":"TH"}},
{"type":"Feature","geometry":{"type":"Polygon","coordinates":[[[100.07689472100009,13.65744012500005],[100.07580208100006,13.65919074900006],[100.07052395300008,13.659037349000073],[100.07032461100005,13.660245805000045],[100.06727124500009,13.660715567000068],[100.06474937600007,13.660063525000055],[100.06026616400004,13.660274689000062],[100.06088246200005,13.656743628000072],[100.05805335500008,13.650804342000072],[100.05680847400004,13.647304916000053],[100.05727380000008,13.64113837900004],[100.05844599700004,13.639397485000075],[100.05858231500008,13.63508857000005],[100.05758742900008,13.63259272700003],[100.05447544300006,13.62922270200005],[100.05901097100008,13.626837827000031],[100.06196354400004,13.62392083900005],[100.06760853100008,13.617592896000076],[100.07023301600003,13.615770037000061],[100.06898948300005,13.61261445100007],[100.06841760200007,13.599099627000044],[100.06782266600004,13.595121910000046],[100.06794437300005,13.59030141200003],[100.07272750700008,13.581723650000072],[100.07590014300007,13.57409980600005],[100.09688247800005,13.584567838000055],[100.09589953400007,13.587137925000036],[100.09578633800004,13.590773307000063],[100.09683034200003,13.59283348300005],[100.09591077300007,13.594816212000069],[100.09530130400003,13.602646451000055],[100.09688960500006,13.603577391000044],[100.09774114400005,13.605389269000057],[100.09774215600004,13.60777689300005],[100.09399611100008,13.610358420000068],[100.09503735200008,13.612269063000042],[100.09221829300009,13.615918072000056],[100.08968217200004,13.622116411000036],[100.08005276000006,13.638427787000069],[100.07689472100009,13.65744012500005]]]},"properties":{"Shape_Leng":0.225453729739,"Shape_Area":0.00198948811325,"ADM3_EN":"Nong Bua","ADM3_TH":"หนองบัว","ADM3_PCODE":"TH740306","ADM2_EN":"Ban Phaeo","ADM2_TH":"บ้านแพ้ว","ADM2_PCODE":"TH7403","ADM1_EN":"Samut Sakhon","ADM1_TH":"สมุทรสาคร","ADM1_PCODE":"TH74","ADM0_EN":"Thailand","ADM0_TH":"ประเทศไทย","ADM0_PCODE":"TH"}},
{"type":"Feature","geometry":{"type":"Polygon","coordinates":[[[100.13097734200005,13.602043087000027],[100.14695132600008,13.610349643000063],[100.16975280600008,13.62247665700005],[100.16748008900004,13.62365357300007],[100.16344481900006,13.624507596000058],[100.16297836600006,13.627295429000071],[100.16069077300006,13.62828816900003],[100.15609078800009,13.626845011000057],[100.15425211700006,13.628559990000042],[100.14475508700008,13.624802291000037],[100.14178763200005,13.626673803000074],[100.13695089900006,13.631271673000072],[100.13069530600006,13.639215401000058],[100.12621010800007,13.64275374600004],[100.11906176600007,13.646895075000032],[100.11416141300003,13.652327888000059],[100.10548211500009,13.649253140000042],[100.10360644400004,13.649568934000058],[100.10711592400008,13.642783077000047],[100.10990026300004,13.636483891000069],[100.11791026700007,13.62109678400003],[100.12044320600006,13.61586997300003],[100.12426498800005,13.611266826000076],[100.12921632400008,13.605885484000055],[100.13097734200005,13.602043087000027]]]},"properties":{"Shape_Leng":0.18134559051,"Shape_Area":0.0012504410511,"ADM3_EN":"Lak Song","ADM3_TH":"หลักสอง","ADM3_PCODE":"TH740307","ADM2_EN":"Ban Phaeo","ADM2_TH":"บ้านแพ้ว","ADM2_PCODE":"TH7403","ADM1_EN":"Samut Sakhon","ADM1_TH":"สมุทรสาคร","ADM1_PCODE":"TH74","ADM0_EN":"Thailand","ADM0_TH":"ประเทศไทย","ADM0_PCODE":"TH"}},
{"type":"Feature","geometry":{"type":"Polygon","coordinates":[[[100.16297836600006,13.627295429000071],[100.16294887700008,13.633668107000062],[100.16072105700005,13.636973823000062],[100.15745610900007,13.642896016000066],[100.15412214900005,13.647842069000035],[100.15230207600007,13.649203723000028],[100.14622886700005,13.645376104000036],[100.14464106000008,13.648194787000023],[100.14218626100006,13.654579239000043],[100.14257843100006,13.657497546000059],[100.14043503500005,13.661596659000054],[100.13878821800006,13.661424778000026],[100.13574153500008,13.665038597000034],[100.13633632800008,13.668086381000023],[100.13544488600007,13.669997758000022],[100.13676736600007,13.670813977000023],[100.13432226100008,13.674031572000047],[100.13669377600007,13.674662958000056],[100.13587263300008,13.679306017000044],[100.13587054700008,13.681967602000043],[100.13206506000006,13.68172191800005],[100.12095923200008,13.679138797000064],[100.12334656600007,13.67312898800003],[100.12133335300007,13.672551441000053],[100.12344499700004,13.66707801900003],[100.11747847900006,13.66637981100007],[100.12176689600005,13.653834692000032],[100.11416141300003,13.652327888000059],[100.11906176600007,13.646895075000032],[100.12621010800007,13.64275374600004],[100.13069530600006,13.639215401000058],[100.13695089900006,13.631271673000072],[100.14178763200005,13.626673803000074],[100.14475508700008,13.624802291000037],[100.15425211700006,13.628559990000042],[100.15609078800009,13.626845011000057],[100.16069077300006,13.62828816900003],[100.16297836600006,13.627295429000071]]]},"properties":{"Shape_Leng":0.197994933557,"Shape_Area":0.00121906287537,"ADM3_EN":"Chet Rio","ADM3_TH":"เจ็ดริ้ว","ADM3_PCODE":"TH740308","ADM2_EN":"Ban Phaeo","ADM2_TH":"บ้านแพ้ว","ADM2_PCODE":"TH7403","ADM1_EN":"Samut Sakhon","ADM1_TH":"สมุทรสาคร","ADM1_PCODE":"TH74","ADM0_EN":"Thailand","ADM0_TH":"ประเทศไทย","ADM0_PCODE":"TH"}},
{"type":"Feature","geometry":{"type":"Polygon","coordinates":[[[100.20593006000007,13.64341851100005],[100.20368397200008,13.643516805000047],[100.20204249000005,13.644588373000033],[100.19793492400004,13.643102526000064],[100.19724499300008,13.64218233400004],[100.19383096600006,13.645598992000032],[100.19211036700005,13.646254310000074],[100.18570674300008,13.650664731000063],[100.18080758900004,13.653549790000056],[100.17015801100007,13.659288710000055],[100.16887997300006,13.658318229000031],[100.16547364300004,13.659508095000035],[100.16171065700007,13.653582243000074],[100.15734475900007,13.652214781000055],[100.15230207600007,13.649203723000028],[100.15412214900005,13.647842069000035],[100.15745610900007,13.642896016000066],[100.16072105700005,13.636973823000062],[100.16294887700008,13.633668107000062],[100.16297836600006,13.627295429000071],[100.16344481900006,13.624507596000058],[100.16748008900004,13.62365357300007],[100.16975280600008,13.62247665700005],[100.20061443400004,13.638752819000047],[100.20714739200008,13.642533204000074],[100.20593006000007,13.64341851100005]]]},"properties":{"Shape_Leng":0.14467095127,"Shape_Area":0.000979368973064,"ADM3_EN":"Khlong Tan","ADM3_TH":"คลองตัน","ADM3_PCODE":"TH740309","ADM2_EN":"Ban Phaeo","ADM2_TH":"บ้านแพ้ว","ADM2_PCODE":"TH7403","ADM1_EN":"Samut Sakhon","ADM1_TH":"สมุทรสาคร","ADM1_PCODE":"TH74","ADM0_EN":"Thailand","ADM0_TH":"ประเทศไทย","ADM0_PCODE":"TH"}},
{"type":"Feature","geometry":{"type":"Polygon","coordinates":[[[100.22790413200005,13.604494406000072],[100.22804705000004,13.61591594400005],[100.22744175800005,13.61997468800007],[100.22526300200008,13.622281717000021],[100.22314996800009,13.622215281000024],[100.22064020800008,13.621156305000056],[100.21656878600004,13.620640613000035],[100.21469268100009,13.621032849000073],[100.21319242000004,13.625346863000061],[100.20315815600009,13.622058505000041],[100.19520966900006,13.618533748000061],[100.18800084600008,13.616407564000042],[100.18346971100004,13.615896881000026],[100.18154725300008,13.61405720600004],[100.17716830400008,13.61147539600006],[100.17599349900007,13.609653613000035],[100.17290430900005,13.608063509000033],[100.17134775400007,13.609420157000045],[100.16933422000005,13.609006951000026],[100.16263614400003,13.609752532000073],[100.15844041200006,13.607617019000031],[100.15848631500006,13.605293363000044],[100.15639650500003,13.604386563000048],[100.15589297800005,13.60241125300007],[100.15367278200006,13.598422156000026],[100.15180342000008,13.59614464300006],[100.15783794000004,13.595381025000052],[100.15904375000008,13.593290412000044],[100.16013442200006,13.588554788000067],[100.16294180600005,13.587742731000048],[100.16540596100003,13.587853281000037],[100.17028952000004,13.583547367000051],[100.17245978700004,13.583572249000042],[100.17421522900008,13.579007499000056],[100.17572729100004,13.578862478000076],[100.17658800900006,13.58040440700006],[100.17571509700008,13.581938601000047],[100.17463326300003,13.583800023000038],[100.17828298100005,13.583769420000067],[100.18127868500005,13.584925533000046],[100.18124199200008,13.586333459000059],[100.18296888600008,13.587306085000023],[100.18436445500004,13.586045575000071],[100.18358916300008,13.584180047000075],[100.18610383100008,13.58402669700007],[100.18769314700006,13.585569410000062],[100.18898510500009,13.583546441000067],[100.19137032600008,13.584309162000068],[100.19172278000008,13.585584243000028],[100.19519378200005,13.585296175000053],[100.19795619900003,13.58426213000007],[100.20005426900008,13.586328413000047],[100.19999608700005,13.587905806000038],[100.20182637000005,13.588457094000034],[100.20240273800005,13.590880519000052],[100.20035423500008,13.590438607000067],[100.20006385400006,13.59214688000003],[100.20241300700008,13.593197966000048],[100.20392522900005,13.592967988000055],[100.21030488900004,13.583254063000027],[100.21169452800007,13.587601246000077],[100.21655342600008,13.587567278000051],[100.22210008400003,13.594043642000031],[100.22367814300009,13.595052163000048],[100.22333834200003,13.596616389000076],[100.22751588900007,13.602316793000057],[100.22790413200005,13.604494406000072]]]},"properties":{"Shape_Leng":0.249442544027,"Shape_Area":0.00206931033595,"ADM3_EN":"Amphaeng","ADM3_TH":"อำแพง","ADM3_PCODE":"TH740310","ADM2_EN":"Ban Phaeo","ADM2_TH":"บ้านแพ้ว","ADM2_PCODE":"TH7403","ADM1_EN":"Samut Sakhon","ADM1_TH":"สมุทรสาคร","ADM1_PCODE":"TH74","ADM0_EN":"Thailand","ADM0_TH":"ประเทศไทย","ADM0_PCODE":"TH"}},
{"type":"Feature","geometry":{"type":"Polygon","coordinates":[[[100.23083478400008,13.644305638000048],[100.22795636900008,13.643774531000076],[100.22112343400005,13.63898628100003],[100.21877237600006,13.638385320000054],[100.21455782600003,13.640549692000036],[100.21195511100007,13.644073500000047],[100.20714739200008,13.642533204000074],[100.20061443400004,13.638752819000047],[100.16975280600008,13.62247665700005],[100.14695132600008,13.610349643000063],[100.14686077500005,13.607623161000049],[100.14548732000009,13.603835786000047],[100.14903504100005,13.600050613000064],[100.15180342000008,13.59614464300006],[100.15367278200006,13.598422156000026],[100.15589297800005,13.60241125300007],[100.15639650500003,13.604386563000048],[100.15848631500006,13.605293363000044],[100.15844041200006,13.607617019000031],[100.16263614400003,13.609752532000073],[100.16933422000005,13.609006951000026],[100.17134775400007,13.609420157000045],[100.17290430900005,13.608063509000033],[100.17599349900007,13.609653613000035],[100.17716830400008,13.61147539600006],[100.18154725300008,13.61405720600004],[100.18346971100004,13.615896881000026],[100.18800084600008,13.616407564000042],[100.19520966900006,13.618533748000061],[100.20315815600009,13.622058505000041],[100.21319242000004,13.625346863000061],[100.21371245400007,13.628308454000035],[100.21504799600007,13.629296403000069],[100.21856834400006,13.629126614000029],[100.22262514100004,13.626656732000072],[100.22700464700006,13.62617635600003],[100.22967011000009,13.627157626000042],[100.23147876200005,13.628909324000062],[100.23290445000004,13.632117239000024],[100.23317513200004,13.639080424000042],[100.23245345000004,13.642903615000023],[100.23083478400008,13.644305638000048]]]},"properties":{"Shape_Leng":0.226998786479,"Shape_Area":0.00125630424754,"ADM3_EN":"Suan Som","ADM3_TH":"สวนส้ม","ADM3_PCODE":"TH740311","ADM2_EN":"Ban Phaeo","ADM2_TH":"บ้านแพ้ว","ADM2_PCODE":"TH7403","ADM1_EN":"Samut Sakhon","ADM1_TH":"สมุทรสาคร","ADM1_PCODE":"TH74","ADM0_EN":"Thailand","ADM0_TH":"ประเทศไทย","ADM0_PCODE":"TH"}},
{"type":"Feature","geometry":{"type":"Polygon","coordinates":[[[100.20145385000006,13.651267253000071],[100.20003260200008,13.651087737000069],[100.20035791800007,13.654076401000054],[100.19081998000007,13.657687495000062],[100.18889524300005,13.659047142000077],[100.18904172100008,13.660371217000034],[100.18350235600008,13.66220966800006],[100.18035860100008,13.664483692000033],[100.17574258400003,13.668738401000041],[100.17442295300003,13.671278707000056],[100.16966076200003,13.674544193000031],[100.17340939800005,13.678556932000049],[100.17135058100007,13.680630305000022],[100.16587701100008,13.678744207000022],[100.16359034100009,13.67678133100003],[100.15644981300005,13.680643044000021],[100.15614246100006,13.684226333000026],[100.14933371500007,13.683829204000062],[100.14181623800005,13.683094078000067],[100.13587054700008,13.681967602000043],[100.13587263300008,13.679306017000044],[100.13669377600007,13.674662958000056],[100.13432226100008,13.674031572000047],[100.13676736600007,13.670813977000023],[100.13544488600007,13.669997758000022],[100.13633632800008,13.668086381000023],[100.13574153500008,13.665038597000034],[100.13878821800006,13.661424778000026],[100.14043503500005,13.661596659000054],[100.14257843100006,13.657497546000059],[100.14218626100006,13.654579239000043],[100.14464106000008,13.648194787000023],[100.14622886700005,13.645376104000036],[100.15230207600007,13.649203723000028],[100.15734475900007,13.652214781000055],[100.16171065700007,13.653582243000074],[100.16547364300004,13.659508095000035],[100.16887997300006,13.658318229000031],[100.17015801100007,13.659288710000055],[100.18080758900004,13.653549790000056],[100.18570674300008,13.650664731000063],[100.19211036700005,13.646254310000074],[100.19383096600006,13.645598992000032],[100.19724499300008,13.64218233400004],[100.19793492400004,13.643102526000064],[100.20204249000005,13.644588373000033],[100.20368397200008,13.643516805000047],[100.20593006000007,13.64341851100005],[100.20701625100008,13.651269269000068],[100.20145385000006,13.651267253000071]]]},"properties":{"Shape_Leng":0.226025045635,"Shape_Area":0.00135284237265,"ADM3_EN":"Kaset Phatthana","ADM3_TH":"เกษตรพัฒนา","ADM3_PCODE":"TH740312","ADM2_EN":"Ban Phaeo","ADM2_TH":"บ้านแพ้ว","ADM2_PCODE":"TH7403","ADM1_EN":"Samut Sakhon","ADM1_TH":"สมุทรสาคร","ADM1_PCODE":"TH74","ADM0_EN":"Thailand","ADM0_TH":"ประเทศไทย","ADM0_PCODE":"TH"}}
]}