{"type":"FeatureCollection", "features": [
{"type":"Feature","geometry":{"type":"Polygon","coordinates":[[[100.41107679800007,14.885240061000047],[100.40962180400004,14.889466885000047],[100.40400697400008,14.896328616000062],[100.40369688500004,14.898216360000049],[100.39763058700004,14.899184061000028],[100.39511792600007,14.897083144000021],[100.40501547400004,14.87680761300004],[100.41090152500004,14.877261184000076],[100.41390943700009,14.880048141000032],[100.41107679800007,14.885240061000047]]]},"properties":{"Shape_Leng":0.0636428621578,"Shape_Area":0.000204769318349,"ADM3_EN":"Bang Phutsa","ADM3_TH":"บางพุทรา","ADM3_PCODE":"TH170101","ADM2_EN":"Mueang Sing Buri","ADM2_TH":"เมืองสิงห์บุรี","ADM2_PCODE":"TH1701","ADM1_EN":"Sing Buri","ADM1_TH":"สิงห์บุรี","ADM1_PCODE":"TH17","ADM0_EN":"Thailand","ADM0_TH":"ประเทศไทย","ADM0_PCODE":"TH"}},
{"type":"Feature","geometry":{"type":"Polygon","coordinates":[[[100.41107679800007,14.885240061000047],[100.41270432600004,14.885869102000072],[100.41433706200007,14.883836853000048],[100.41762578400005,14.882388602000049],[100.42099940800006,14.886907744000041],[100.42489440000008,14.888608848000047],[100.42679392700006,14.888316705000022],[100.42866828100006,14.889273698000068],[100.42621769100003,14.896132558000033],[100.42453674600006,14.898431856000059],[100.42420599400003,14.903428903000076],[100.42212673400007,14.903635073000032],[100.42283466600009,14.908328342000061],[100.42272122600008,14.920338084000036],[100.41996838300008,14.927068397000028],[100.42128379900004,14.92997256700005],[100.41987203800005,14.932776207000074],[100.41259387800005,14.931739678000042],[100.39783648800005,14.931973593000066],[100.38944828700005,14.928579350000064],[100.37965994000007,14.92278632800003],[100.37268164800008,14.91970744400004],[100.37446031300004,14.915776175000076],[100.37776946800005,14.913771188000055],[100.38307934700003,14.912022272000058],[100.38525604300008,14.909879153000077],[100.38642076600007,14.90458936300007],[100.38940234900008,14.903350935000049],[100.39056977400008,14.90038344100003],[100.39276464400007,14.899727080000048],[100.39511792600007,14.897083144000021],[100.39763058700004,14.899184061000028],[100.40369688500004,14.898216360000049],[100.40400697400008,14.896328616000062],[100.40962180400004,14.889466885000047],[100.41107679800007,14.885240061000047]]]},"properties":{"Shape_Leng":0.183057597164,"Shape_Area":0.00153499727353,"ADM3_EN":"Bang Man","ADM3_TH":"บางมัญ","ADM3_PCODE":"TH170102","ADM2_EN":"Mueang Sing Buri","ADM2_TH":"เมืองสิงห์บุรี","ADM2_PCODE":"TH1701","ADM1_EN":"Sing Buri","ADM1_TH":"สิงห์บุรี","ADM1_PCODE":"TH17","ADM0_EN":"Thailand","ADM0_TH":"ประเทศไทย","ADM0_PCODE":"TH"}},
{"type":"Feature","geometry":{"type":"Polygon","coordinates":[[[100.41987203800005,14.932776207000074],[100.42250230800005,14.944690337000054],[100.41060648900009,14.962710639000022],[100.40566223500008,14.964638217000072],[100.39828688300008,14.961377776000063],[100.39429710400003,14.957919143000026],[100.38822588300008,14.956700154000032],[100.37826325100008,14.956609796000066],[100.37598662000005,14.956160208000028],[100.36573684100006,14.951527095000074],[100.36743171600006,14.943493129000046],[100.36803093000003,14.932578112000044],[100.37268164800008,14.91970744400004],[100.37965994000007,14.92278632800003],[100.38944828700005,14.928579350000064],[100.39783648800005,14.931973593000066],[100.41259387800005,14.931739678000042],[100.41987203800005,14.932776207000074]]]},"properties":{"Shape_Leng":0.165635155985,"Shape_Area":0.00156686510525,"ADM3_EN":"Phok Ruam","ADM3_TH":"โพกรวม","ADM3_PCODE":"TH170103","ADM2_EN":"Mueang Sing Buri","ADM2_TH":"เมืองสิงห์บุรี","ADM2_PCODE":"TH1701","ADM1_EN":"Sing Buri","ADM1_TH":"สิงห์บุรี","ADM1_PCODE":"TH17","ADM0_EN":"Thailand","ADM0_TH":"ประเทศไทย","ADM0_PCODE":"TH"}},
{"type":"Feature","geometry":{"type":"Polygon","coordinates":[[[100.41090152500004,14.877261184000076],[100.41455148600005,14.877026624000052],[100.42044839000005,14.872196419000034],[100.41987436700003,14.868730586000027],[100.41619264200006,14.86703178700003],[100.41552851900008,14.864892973000053],[100.41889253300008,14.861180587000035],[100.42457161100003,14.858837876000052],[100.42723685300007,14.859336511000038],[100.42959976500003,14.855399413000043],[100.43076922800009,14.850547207000034],[100.44119792700008,14.850578602000041],[100.44407465900008,14.848671909000075],[100.44841127400008,14.852277349000076],[100.45414757800006,14.855929942000046],[100.45431854700007,14.857026374000043],[100.44779948400009,14.857307779000053],[100.44642724900007,14.858030189000033],[100.44545444500005,14.862706012000046],[100.44716535700007,14.86512732400007],[100.44600418600004,14.868753695000066],[100.44746082000006,14.869590121000044],[100.44940291100005,14.874142240000026],[100.44557946700007,14.87591677200004],[100.44404236100007,14.874752693000062],[100.43843772400004,14.875819565000029],[100.43968238200006,14.879761912000049],[100.43702703300005,14.879672312000025],[100.43532621600008,14.882673917000034],[100.43028595400006,14.880474540000023],[100.42695310200008,14.885551188000022],[100.42679392700006,14.888316705000022],[100.42489440000008,14.888608848000047],[100.42099940800006,14.886907744000041],[100.41762578400005,14.882388602000049],[100.41433706200007,14.883836853000048],[100.41270432600004,14.885869102000072],[100.41107679800007,14.885240061000047],[100.41390943700009,14.880048141000032],[100.41090152500004,14.877261184000076]]]},"properties":{"Shape_Leng":0.173664108803,"Shape_Area":0.000865179360903,"ADM3_EN":"Muang Mu","ADM3_TH":"ม่วงหมู่","ADM3_PCODE":"TH170104","ADM2_EN":"Mueang Sing Buri","ADM2_TH":"เมืองสิงห์บุรี","ADM2_PCODE":"TH1701","ADM1_EN":"Sing Buri","ADM1_TH":"สิงห์บุรี","ADM1_PCODE":"TH17","ADM0_EN":"Thailand","ADM0_TH":"ประเทศไทย","ADM0_PCODE":"TH"}},
{"type":"Feature","geometry":{"type":"Polygon","coordinates":[[[100.42128379900004,14.92997256700005],[100.43454491000006,14.935778559000028],[100.44558245500008,14.939840889000038],[100.44917075400008,14.942712291000078],[100.44983431100007,14.95047515500005],[100.45127500000007,14.957617675000051],[100.45040362200007,14.966921365000076],[100.45047274800004,14.973505469000031],[100.45172511100009,14.973747564000064],[100.45042776700006,14.982915157000036],[100.44425064900008,14.995979839000029],[100.44729843900006,14.996797488000027],[100.44688555300007,15.003178427000023],[100.43825656200005,15.000005826000063],[100.43032284000009,14.995266291000064],[100.42546097200005,14.99474619800003],[100.42173834600004,14.996577843000068],[100.41320704900005,14.987226356000065],[100.40700155200005,14.981875643000024],[100.40565184200005,14.978979518000074],[100.40909266300008,14.969861542000046],[100.41157231700004,14.966297093000037],[100.40566223500008,14.964638217000072],[100.41060648900009,14.962710639000022],[100.42250230800005,14.944690337000054],[100.41987203800005,14.932776207000074],[100.42128379900004,14.92997256700005]]]},"properties":{"Shape_Leng":0.21400401342,"Shape_Area":0.00220683399259,"ADM3_EN":"Hua Phai","ADM3_TH":"หัวไผ่","ADM3_PCODE":"TH170105","ADM2_EN":"Mueang Sing Buri","ADM2_TH":"เมืองสิงห์บุรี","ADM2_PCODE":"TH1701","ADM1_EN":"Sing Buri","ADM1_TH":"สิงห์บุรี","ADM1_PCODE":"TH17","ADM0_EN":"Thailand","ADM0_TH":"ประเทศไทย","ADM0_PCODE":"TH"}},
{"type":"Feature","geometry":{"type":"Polygon","coordinates":[[[100.39511792600007,14.897083144000021],[100.39276464400007,14.899727080000048],[100.39056977400008,14.90038344100003],[100.38665421700006,14.898163018000048],[100.38102416900006,14.889648385000044],[100.37540441800007,14.889472819000048],[100.37538873700004,14.885489164000035],[100.37147206100008,14.88653494600004],[100.36119222900004,14.882670289000032],[100.35649272300009,14.881618395000032],[100.35011461900007,14.883113341000069],[100.35052518900005,14.881430893000072],[100.35546493500004,14.879857258000072],[100.35917580800003,14.879863613000055],[100.35895801800007,14.87720838000007],[100.36040003600004,14.876288579000061],[100.36378711400005,14.877848999000037],[100.36503249200007,14.87722894600006],[100.36743094300004,14.87112860600007],[100.37610181800005,14.872113737000063],[100.38061870100006,14.870000592000054],[100.38219972900004,14.870911240000055],[100.38641737600005,14.86746431000006],[100.38688749800008,14.864929496000059],[100.38818300600008,14.863235578000058],[100.39343507100006,14.860438865000049],[100.39574901900005,14.856658436000032],[100.39559880500008,14.853982476000056],[100.40057718100007,14.849820713000042],[100.40355645100004,14.844726671000046],[100.40574639900007,14.84568302100007],[100.41214863600004,14.841405702000031],[100.41690346100006,14.836902359000021],[100.41878114700006,14.835993203000044],[100.42303174000006,14.84271741200007],[100.42881814000003,14.847508259000051],[100.43076922800009,14.850547207000034],[100.42959976500003,14.855399413000043],[100.42723685300007,14.859336511000038],[100.42457161100003,14.858837876000052],[100.41889253300008,14.861180587000035],[100.41552851900008,14.864892973000053],[100.41619264200006,14.86703178700003],[100.41987436700003,14.868730586000027],[100.42044839000005,14.872196419000034],[100.41455148600005,14.877026624000052],[100.41090152500004,14.877261184000076],[100.40501547400004,14.87680761300004],[100.39511792600007,14.897083144000021]]]},"properties":{"Shape_Leng":0.251406991496,"Shape_Area":0.001788444235,"ADM3_EN":"Ton Pho","ADM3_TH":"ต้นโพธิ์","ADM3_PCODE":"TH170106","ADM2_EN":"Mueang Sing Buri","ADM2_TH":"เมืองสิงห์บุรี","ADM2_PCODE":"TH1701","ADM1_EN":"Sing Buri","ADM1_TH":"สิงห์บุรี","ADM1_PCODE":"TH17","ADM0_EN":"Thailand","ADM0_TH":"ประเทศไทย","ADM0_PCODE":"TH"}},
{"type":"Feature","geometry":{"type":"Polygon","coordinates":[[[100.38688749800008,14.864929496000059],[100.38257270900004,14.860237483000049],[100.38175073600007,14.857963236000046],[100.37880660900004,14.856130328000063],[100.37771235600007,14.850101536000068],[100.38943736400006,14.845910926000045],[100.38952257600005,14.83615072300006],[100.39127684600004,14.824724373000038],[100.39305713400006,14.816935558000068],[100.39732349100007,14.812784564000026],[100.39902889800004,14.815220625000052],[100.40423966700007,14.809074274000068],[100.40839723500005,14.810212152000076],[100.40761876800008,14.819407789000024],[100.41204817300007,14.822467209000024],[100.41320655300007,14.829860377000045],[100.41646628500007,14.829497778000075],[100.41852076500004,14.828080374000024],[100.42039979600008,14.832593884000062],[100.42249971200005,14.834000304000028],[100.41878114700006,14.835993203000044],[100.41690346100006,14.836902359000021],[100.41214863600004,14.841405702000031],[100.40574639900007,14.84568302100007],[100.40355645100004,14.844726671000046],[100.40057718100007,14.849820713000042],[100.39559880500008,14.853982476000056],[100.39574901900005,14.856658436000032],[100.39343507100006,14.860438865000049],[100.38818300600008,14.863235578000058],[100.38688749800008,14.864929496000059]]]},"properties":{"Shape_Leng":0.171342249269,"Shape_Area":0.000994205301714,"ADM3_EN":"Chaksi","ADM3_TH":"จักรสีห์","ADM3_PCODE":"TH170107","ADM2_EN":"Mueang Sing Buri","ADM2_TH":"เมืองสิงห์บุรี","ADM2_PCODE":"TH1701","ADM1_EN":"Sing Buri","ADM1_TH":"สิงห์บุรี","ADM1_PCODE":"TH17","ADM0_EN":"Thailand","ADM0_TH":"ประเทศไทย","ADM0_PCODE":"TH"}},
{"type":"Feature","geometry":{"type":"Polygon","coordinates":[[[100.37268164800008,14.91970744400004],[100.36803093000003,14.932578112000044],[100.36743171600006,14.943493129000046],[100.35973436600005,14.94139782800005],[100.35838618500009,14.940238496000063],[100.35590044500003,14.940925078000078],[100.35340042400009,14.938662260000058],[100.34903251500003,14.937151595000046],[100.34766079100007,14.938752192000038],[100.34157055100007,14.937216233000072],[100.34367074600004,14.931581902000062],[100.34644700400008,14.927489603000026],[100.34730471800003,14.923446581000064],[100.34159584800005,14.92202317300007],[100.34018838100008,14.920206765000046],[100.34127689600007,14.916465654000035],[100.33591904300005,14.913977699000043],[100.33614171600004,14.911218500000075],[100.34167760400004,14.90908439900005],[100.34128275800003,14.905752920000054],[100.34316901000005,14.901815947000046],[100.34061536600007,14.899052093000023],[100.34292197700006,14.897451627000066],[100.34480863800007,14.898357374000057],[100.34517213400005,14.896525982000071],[100.34806846500004,14.895197049000046],[100.35002603800007,14.890189156000076],[100.34941403600004,14.888149583000029],[100.35087049800006,14.886665378000032],[100.35011461900007,14.883113341000069],[100.35649272300009,14.881618395000032],[100.36119222900004,14.882670289000032],[100.37147206100008,14.88653494600004],[100.37538873700004,14.885489164000035],[100.37540441800007,14.889472819000048],[100.38102416900006,14.889648385000044],[100.38665421700006,14.898163018000048],[100.39056977400008,14.90038344100003],[100.38940234900008,14.903350935000049],[100.38642076600007,14.90458936300007],[100.38525604300008,14.909879153000077],[100.38307934700003,14.912022272000058],[100.37776946800005,14.913771188000055],[100.37446031300004,14.915776175000076],[100.37268164800008,14.91970744400004]]]},"properties":{"Shape_Leng":0.218785527797,"Shape_Area":0.00189029347506,"ADM3_EN":"Bang Krabue","ADM3_TH":"บางกระบือ","ADM3_PCODE":"TH170108","ADM2_EN":"Mueang Sing Buri","ADM2_TH":"เมืองสิงห์บุรี","ADM2_PCODE":"TH1701","ADM1_EN":"Sing Buri","ADM1_TH":"สิงห์บุรี","ADM1_PCODE":"TH17","ADM0_EN":"Thailand","ADM0_TH":"ประเทศไทย","ADM0_PCODE":"TH"}},
{"type":"Feature","geometry":{"type":"Polygon","coordinates":[[[100.35011461900007,14.883113341000069],[100.35087049800006,14.886665378000032],[100.34941403600004,14.888149583000029],[100.35002603800007,14.890189156000076],[100.34806846500004,14.895197049000046],[100.34517213400005,14.896525982000071],[100.34480863800007,14.898357374000057],[100.34292197700006,14.897451627000066],[100.34061536600007,14.899052093000023],[100.34316901000005,14.901815947000046],[100.34128275800003,14.905752920000054],[100.34167760400004,14.90908439900005],[100.33614171600004,14.911218500000075],[100.33591904300005,14.913977699000043],[100.33476066800006,14.914862294000045],[100.33084475200008,14.913825417000055],[100.32551926200006,14.91728041400006],[100.32140998900007,14.917460280000057],[100.32098305400007,14.918436173000032],[100.31447777100004,14.912340357000062],[100.31367592900006,14.910233682000069],[100.30941503800005,14.908250942000052],[100.30803042200006,14.909216352000044],[100.30378923800004,14.905363900000054],[100.30699341200005,14.903670930000033],[100.30468379900003,14.901221587000066],[100.30711880600006,14.900649521000048],[100.30921250900008,14.898261473000048],[100.30967065300007,14.893042481000066],[100.31187803200004,14.891081367000027],[100.31544997500004,14.89264677500006],[100.31741763800005,14.88945839300004],[100.31984279300008,14.882424312000069],[100.32542198100003,14.87813665300007],[100.32594004000003,14.872633060000055],[100.32768104200005,14.871545814000058],[100.33473168000006,14.870358109000051],[100.33805631500007,14.868639019000057],[100.34415657700004,14.868204556000023],[100.34994734500003,14.866593717000057],[100.35506253800008,14.867239372000029],[100.36025273700005,14.866410015000042],[100.36518982700005,14.86376652100006],[100.36611933200004,14.862779438000075],[100.36952473800005,14.867259428000068],[100.36743094300004,14.87112860600007],[100.36503249200007,14.87722894600006],[100.36378711400005,14.877848999000037],[100.36040003600004,14.876288579000061],[100.35895801800007,14.87720838000007],[100.35917580800003,14.879863613000055],[100.35546493500004,14.879857258000072],[100.35052518900005,14.881430893000072],[100.35011461900007,14.883113341000069]]]},"properties":{"Shape_Leng":0.221097252731,"Shape_Area":0.00162718677553,"ADM3_EN":"Sing","ADM3_TH":"สิงห์","ADM3_PCODE":"TH170201","ADM2_EN":"Bang Rachan","ADM2_TH":"บางระจัน","ADM2_PCODE":"TH1702","ADM1_EN":"Sing Buri","ADM1_TH":"สิงห์บุรี","ADM1_PCODE":"TH17","ADM0_EN":"Thailand","ADM0_TH":"ประเทศไทย","ADM0_PCODE":"TH"}},
{"type":"Feature","geometry":{"type":"Polygon","coordinates":[[[100.30468379900003,14.901221587000066],[100.29787402800008,14.901815887000055],[100.29512541200006,14.899403635000056],[100.28425140200005,14.88728979800004],[100.28775193200005,14.878889574000027],[100.29283585000007,14.871971288000054],[100.29463490000006,14.86545987200003],[100.29990194400006,14.852350691000026],[100.30641962900006,14.83537104100003],[100.31073676500006,14.830651232000037],[100.31598639500004,14.835641790000068],[100.32180868500006,14.844631631000027],[100.32043559000005,14.847645317000058],[100.32102314700006,14.84918716900006],[100.35300085600005,14.848918464000064],[100.35587839800007,14.849826692000022],[100.35816167300004,14.852790972000037],[100.36099755700008,14.861237519000042],[100.36518982700005,14.86376652100006],[100.36025273700005,14.866410015000042],[100.35506253800008,14.867239372000029],[100.34994734500003,14.866593717000057],[100.34415657700004,14.868204556000023],[100.33805631500007,14.868639019000057],[100.33473168000006,14.870358109000051],[100.32768104200005,14.871545814000058],[100.32594004000003,14.872633060000055],[100.32542198100003,14.87813665300007],[100.31984279300008,14.882424312000069],[100.31741763800005,14.88945839300004],[100.31544997500004,14.89264677500006],[100.31187803200004,14.891081367000027],[100.30967065300007,14.893042481000066],[100.30921250900008,14.898261473000048],[100.30711880600006,14.900649521000048],[100.30468379900003,14.901221587000066]]]},"properties":{"Shape_Leng":0.249664752535,"Shape_Area":0.00240299522733,"ADM3_EN":"Mai Dat","ADM3_TH":"ไม้ดัด","ADM3_PCODE":"TH170202","ADM2_EN":"Bang Rachan","ADM2_TH":"บางระจัน","ADM2_PCODE":"TH1702","ADM1_EN":"Sing Buri","ADM1_TH":"สิงห์บุรี","ADM1_PCODE":"TH17","ADM0_EN":"Thailand","ADM0_TH":"ประเทศไทย","ADM0_PCODE":"TH"}},
{"type":"Feature","geometry":{"type":"Polygon","coordinates":[[[100.29787402800008,14.901815887000055],[100.29591460800003,14.905605482000055],[100.28734652900005,14.914333895000027],[100.28327903100006,14.923479989000043],[100.27301199000004,14.928699043000051],[100.26986931000005,14.937433283000075],[100.26752880200007,14.938389861000076],[100.26230109400007,14.93786454900004],[100.26010485700004,14.938527104000059],[100.25903484800006,14.943857930000036],[100.25636942200003,14.945089989000053],[100.25064742600006,14.944997109000042],[100.24556986500005,14.945903466000061],[100.24367778200008,14.943140769000024],[100.24203819400009,14.936357470000075],[100.24164543800003,14.930378240000039],[100.24786686700008,14.926713956000071],[100.25157865500006,14.925700250000034],[100.25664881300008,14.92302961300004],[100.25664272200004,14.919908947000067],[100.25492419800008,14.916882844000042],[100.25859314400009,14.909456239000065],[100.26062581100007,14.907645459000037],[100.25850125500006,14.896401820000051],[100.25641975200006,14.890697146000036],[100.25469269000007,14.887989129000061],[100.26144486500004,14.872002182000074],[100.27099587900005,14.876113170000053],[100.27834426000004,14.88109253500005],[100.28425140200005,14.88728979800004],[100.29512541200006,14.899403635000056],[100.29787402800008,14.901815887000055]]]},"properties":{"Shape_Leng":0.215111937034,"Shape_Area":0.00196540108218,"ADM3_EN":"Choeng Klat","ADM3_TH":"เชิงกลัด","ADM3_PCODE":"TH170203","ADM2_EN":"Bang Rachan","ADM2_TH":"บางระจัน","ADM2_PCODE":"TH1702","ADM1_EN":"Sing Buri","ADM1_TH":"สิงห์บุรี","ADM1_PCODE":"TH17","ADM0_EN":"Thailand","ADM0_TH":"ประเทศไทย","ADM0_PCODE":"TH"}},
{"type":"Feature","geometry":{"type":"Polygon","coordinates":[[[100.32098305400007,14.918436173000032],[100.31832874900005,14.92027375300006],[100.32046001400005,14.921282234000046],[100.31855463100004,14.922969675000047],[100.31774342300008,14.927752863000023],[100.31531751800009,14.92912537500007],[100.31482192400006,14.932476164000036],[100.30943604000004,14.933530333000022],[100.30603529600006,14.936559652000028],[100.30446686300007,14.933805552000024],[100.29786647800006,14.938720488000058],[100.29653549900007,14.937141153000027],[100.29295036200006,14.938610592000032],[100.29211103800009,14.941673872000024],[100.29020590600004,14.94218840600007],[100.29036544400009,14.95273702000003],[100.29111914200007,14.955720884000073],[100.28845836900007,14.956346628000063],[100.28299092700007,14.95467712900006],[100.27976069100004,14.95246936600006],[100.27485973100005,14.950477668000076],[100.26320009600005,14.949859738000043],[100.26327940700008,14.947447045000047],[100.25903484800006,14.943857930000036],[100.26010485700004,14.938527104000059],[100.26230109400007,14.93786454900004],[100.26752880200007,14.938389861000076],[100.26986931000005,14.937433283000075],[100.27301199000004,14.928699043000051],[100.28327903100006,14.923479989000043],[100.28734652900005,14.914333895000027],[100.29591460800003,14.905605482000055],[100.29787402800008,14.901815887000055],[100.30468379900003,14.901221587000066],[100.30699341200005,14.903670930000033],[100.30378923800004,14.905363900000054],[100.30803042200006,14.909216352000044],[100.30941503800005,14.908250942000052],[100.31367592900006,14.910233682000069],[100.31447777100004,14.912340357000062],[100.32098305400007,14.918436173000032]]]},"properties":{"Shape_Leng":0.209097572456,"Shape_Area":0.00150340982336,"ADM3_EN":"Pho Chon Kai","ADM3_TH":"โพชนไก่","ADM3_PCODE":"TH170204","ADM2_EN":"Bang Rachan","ADM2_TH":"บางระจัน","ADM2_PCODE":"TH1702","ADM1_EN":"Sing Buri","ADM1_TH":"สิงห์บุรี","ADM1_PCODE":"TH17","ADM0_EN":"Thailand","ADM0_TH":"ประเทศไทย","ADM0_PCODE":"TH"}},
{"type":"Feature","geometry":{"type":"Polygon","coordinates":[[[100.34157055100007,14.937216233000072],[100.34060076600008,14.940850502000046],[100.33622642400007,14.939466161000041],[100.33487836400008,14.940344752000044],[100.33216098700007,14.946084562000067],[100.32751482100008,14.94519142200005],[100.32730611000005,14.950144825000052],[100.32438143400003,14.94951866200006],[100.32421678400004,14.951711247000048],[100.31951472300005,14.956008441000051],[100.31560491100004,14.955065298000022],[100.31414474400003,14.955948384000067],[100.30639130100008,14.95556939200003],[100.30532592300005,14.953024984000024],[100.30128227500006,14.951544721000062],[100.30104032900005,14.953332125000031],[100.29738827600005,14.954493520000028],[100.29430713800008,14.954065194000066],[100.29111914200007,14.955720884000073],[100.29036544400009,14.95273702000003],[100.29020590600004,14.94218840600007],[100.29211103800009,14.941673872000024],[100.29295036200006,14.938610592000032],[100.29653549900007,14.937141153000027],[100.29786647800006,14.938720488000058],[100.30446686300007,14.933805552000024],[100.30603529600006,14.936559652000028],[100.30943604000004,14.933530333000022],[100.31482192400006,14.932476164000036],[100.31531751800009,14.92912537500007],[100.31774342300008,14.927752863000023],[100.31855463100004,14.922969675000047],[100.32046001400005,14.921282234000046],[100.31832874900005,14.92027375300006],[100.32098305400007,14.918436173000032],[100.32140998900007,14.917460280000057],[100.32551926200006,14.91728041400006],[100.33084475200008,14.913825417000055],[100.33476066800006,14.914862294000045],[100.33591904300005,14.913977699000043],[100.34127689600007,14.916465654000035],[100.34018838100008,14.920206765000046],[100.34159584800005,14.92202317300007],[100.34730471800003,14.923446581000064],[100.34644700400008,14.927489603000026],[100.34367074600004,14.931581902000062],[100.34157055100007,14.937216233000072]]]},"properties":{"Shape_Leng":0.199026315881,"Shape_Area":0.00128527064724,"ADM3_EN":"Mae La","ADM3_TH":"แม่ลา","ADM3_PCODE":"TH170205","ADM2_EN":"Bang Rachan","ADM2_TH":"บางระจัน","ADM2_PCODE":"TH1702","ADM1_EN":"Sing Buri","ADM1_TH":"สิงห์บุรี","ADM1_PCODE":"TH17","ADM0_EN":"Thailand","ADM0_TH":"ประเทศไทย","ADM0_PCODE":"TH"}},
{"type":"Feature","geometry":{"type":"Polygon","coordinates":[[[100.28425140200005,14.88728979800004],[100.27834426000004,14.88109253500005],[100.27099587900005,14.876113170000053],[100.26144486500004,14.872002182000074],[100.26254484000003,14.869130403000042],[100.26779680200008,14.85627501700003],[100.27125300200004,14.852378367000028],[100.27474900400006,14.847148698000069],[100.27231654800005,14.839480641000023],[100.27184270900005,14.829757760000064],[100.27056833200004,14.826850836000062],[100.28758104800005,14.825623476000032],[100.29401793900007,14.826412882000056],[100.29775488600006,14.828481177000072],[100.30089932500005,14.831478416000039],[100.30500514700003,14.82853714600003],[100.30679037800007,14.82852701400003],[100.31073676500006,14.830651232000037],[100.30641962900006,14.83537104100003],[100.29990194400006,14.852350691000026],[100.29463490000006,14.86545987200003],[100.29283585000007,14.871971288000054],[100.28775193200005,14.878889574000027],[100.28425140200005,14.88728979800004]]]},"properties":{"Shape_Leng":0.186129011288,"Shape_Area":0.00161016088,"ADM3_EN":"Ban Cha","ADM3_TH":"บ้านจ่า","ADM3_PCODE":"TH170206","ADM2_EN":"Bang Rachan","ADM2_TH":"บางระจัน","ADM2_PCODE":"TH1702","ADM1_EN":"Sing Buri","ADM1_TH":"สิงห์บุรี","ADM1_PCODE":"TH17","ADM0_EN":"Thailand","ADM0_TH":"ประเทศไทย","ADM0_PCODE":"TH"}},
{"type":"Feature","geometry":{"type":"Polygon","coordinates":[[[100.24556986500005,14.945903466000061],[100.23846540300008,14.949573796000038],[100.23684210300007,14.951957339000046],[100.21529036600003,14.953583285000036],[100.20269512300007,14.953456120000055],[100.20140011500007,14.947328600000048],[100.19949087400005,14.94408926400007],[100.19823863300007,14.93997534500005],[100.19358963700006,14.93745313200003],[100.18929230600008,14.937762604000056],[100.18624174700005,14.937068195000052],[100.18238138500004,14.93490296300007],[100.18192132600007,14.933623404000059],[100.18310720300008,14.923349396000049],[100.18633523100004,14.919313634000048],[100.18628599300007,14.908937122000054],[100.18690015500005,14.907694073000073],[100.19455255200006,14.903947063000032],[100.21250351300006,14.908633036000026],[100.21576716300007,14.910324966000076],[100.22211570400003,14.908399922000058],[100.22929310700005,14.907932665000033],[100.23186116700003,14.906833695000046],[100.23348232900008,14.903991747000077],[100.23748646100006,14.905139064000025],[100.24089203700004,14.902252544000078],[100.24284623200003,14.898064330000068],[100.24726203400007,14.897460681000041],[100.25208237700008,14.89370328900003],[100.25469269000007,14.887989129000061],[100.25641975200006,14.890697146000036],[100.25850125500006,14.896401820000051],[100.26062581100007,14.907645459000037],[100.25859314400009,14.909456239000065],[100.25492419800008,14.916882844000042],[100.25664272200004,14.919908947000067],[100.25664881300008,14.92302961300004],[100.25157865500006,14.925700250000034],[100.24786686700008,14.926713956000071],[100.24164543800003,14.930378240000039],[100.24203819400009,14.936357470000075],[100.24367778200008,14.943140769000024],[100.24556986500005,14.945903466000061]]]},"properties":{"Shape_Leng":0.262038629122,"Shape_Area":0.00293391269157,"ADM3_EN":"Phak Than","ADM3_TH":"พักทัน","ADM3_PCODE":"TH170207","ADM2_EN":"Bang Rachan","ADM2_TH":"บางระจัน","ADM2_PCODE":"TH1702","ADM1_EN":"Sing Buri","ADM1_TH":"สิงห์บุรี","ADM1_PCODE":"TH17","ADM0_EN":"Thailand","ADM0_TH":"ประเทศไทย","ADM0_PCODE":"TH"}},
{"type":"Feature","geometry":{"type":"Polygon","coordinates":[[[100.25469269000007,14.887989129000061],[100.25208237700008,14.89370328900003],[100.24726203400007,14.897460681000041],[100.24284623200003,14.898064330000068],[100.24089203700004,14.902252544000078],[100.23748646100006,14.905139064000025],[100.23348232900008,14.903991747000077],[100.23186116700003,14.906833695000046],[100.22929310700005,14.907932665000033],[100.22211570400003,14.908399922000058],[100.22420346300004,14.903491920000022],[100.21756812900009,14.90089516200004],[100.21578481500006,14.898318578000044],[100.20758978600009,14.89712354900007],[100.20626229000004,14.895300322000026],[100.20759445000004,14.887567863000072],[100.20935309800007,14.884730713000067],[100.21315120800006,14.883594364000032],[100.21868179900008,14.886031667000054],[100.22277867600008,14.885529323000071],[100.22442314200003,14.883922364000057],[100.22344076600007,14.879655224000032],[100.21706447800005,14.87424207600003],[100.21616678000004,14.871663847000036],[100.22054614300004,14.867519999000024],[100.22142227000006,14.863916472000028],[100.21772171300006,14.858631552000077],[100.21837545100004,14.852882327000032],[100.21667577300008,14.848507207000068],[100.21879576800006,14.84441342100007],[100.21542735900005,14.839860029000022],[100.21818127900008,14.839230933000067],[100.22195057700009,14.84324904600004],[100.22341260300004,14.841755987000056],[100.23146292700005,14.842597020000028],[100.23934205400008,14.84409637500005],[100.24003341100007,14.838628313000072],[100.24920034600007,14.840083497000023],[100.25084393600008,14.839711764000072],[100.25321416800006,14.841708949000065],[100.25434018600004,14.846524005000049],[100.25243810300003,14.849978581000073],[100.24825132400008,14.854250265000076],[100.24851605700007,14.85750226600004],[100.25165951700006,14.859673773000054],[100.25321273100008,14.863726893000035],[100.25307010700004,14.86743894600005],[100.26254484000003,14.869130403000042],[100.26144486500004,14.872002182000074],[100.25469269000007,14.887989129000061]]]},"properties":{"Shape_Leng":0.259466973091,"Shape_Area":0.00231317299342,"ADM3_EN":"Sa Chaeng","ADM3_TH":"สระแจง","ADM3_PCODE":"TH170208","ADM2_EN":"Bang Rachan","ADM2_TH":"บางระจัน","ADM2_PCODE":"TH1702","ADM1_EN":"Sing Buri","ADM1_TH":"สิงห์บุรี","ADM1_PCODE":"TH17","ADM0_EN":"Thailand","ADM0_TH":"ประเทศไทย","ADM0_PCODE":"TH"}},
{"type":"Feature","geometry":{"type":"Polygon","coordinates":[[[100.26254484000003,14.869130403000042],[100.25307010700004,14.86743894600005],[100.25321273100008,14.863726893000035],[100.25165951700006,14.859673773000054],[100.24851605700007,14.85750226600004],[100.24825132400008,14.854250265000076],[100.25243810300003,14.849978581000073],[100.25434018600004,14.846524005000049],[100.25321416800006,14.841708949000065],[100.25084393600008,14.839711764000072],[100.24920034600007,14.840083497000023],[100.24003341100007,14.838628313000072],[100.24011140300007,14.800782563000041],[100.24186854500005,14.79806626900006],[100.24403829200008,14.800344086000052],[100.24644992000003,14.800515809000046],[100.25015771800008,14.79775528500005],[100.25239921100007,14.797855627000047],[100.25489875700003,14.795564156000069],[100.25876908200007,14.796426128000064],[100.26631707200005,14.795721137000044],[100.27247882900008,14.799474363000058],[100.26961017000008,14.803658822000045],[100.26248009800008,14.80735310800003],[100.26960921500006,14.821617263000064],[100.27056833200004,14.826850836000062],[100.27184270900005,14.829757760000064],[100.27231654800005,14.839480641000023],[100.27474900400006,14.847148698000069],[100.27125300200004,14.852378367000028],[100.26779680200008,14.85627501700003],[100.26254484000003,14.869130403000042]]]},"properties":{"Shape_Leng":0.214362345556,"Shape_Area":0.00171715417151,"ADM3_EN":"Pho Thale","ADM3_TH":"โพทะเล","ADM3_PCODE":"TH170301","ADM2_EN":"Khai Bang Rachan","ADM2_TH":"ค่ายบางระจัน","ADM2_PCODE":"TH1703","ADM1_EN":"Sing Buri","ADM1_TH":"สิงห์บุรี","ADM1_PCODE":"TH17","ADM0_EN":"Thailand","ADM0_TH":"ประเทศไทย","ADM0_PCODE":"TH"}},
{"type":"Feature","geometry":{"type":"Polygon","coordinates":[[[100.33467699600004,14.812909234000074],[100.33114800100009,14.812833832000024],[100.33267206600004,14.815647949000038],[100.33031018600008,14.815563304000023],[100.32824972900005,14.818802019000032],[100.32561549600007,14.815118108000036],[100.32186020900008,14.81200070400007],[100.31650359000008,14.814030272000025],[100.31215180400005,14.81446819000007],[100.30292268700003,14.813492556000028],[100.29198002100009,14.811067214000047],[100.28585707600007,14.809316532000025],[100.27922471000005,14.808262824000053],[100.27581791000006,14.799222444000065],[100.27381358900004,14.797657161000075],[100.27481842000009,14.794380001000036],[100.27797744200006,14.790201509000042],[100.29036407900008,14.78505984700007],[100.29539402800003,14.780793662000065],[100.29572542600005,14.78436786800006],[100.29745089900007,14.788527475000024],[100.29977672200005,14.790021409000076],[100.30398665300004,14.788170066000077],[100.31184690400005,14.788926885000024],[100.31431288100003,14.789824270000054],[100.31332855900007,14.793744954000033],[100.30945811600009,14.795987019000052],[100.31172520400008,14.798095997000075],[100.31600526700004,14.798250411000026],[100.32526795100006,14.80062003200004],[100.32868386800004,14.802413781000041],[100.33153141900004,14.800785090000034],[100.33379707100005,14.796288164000032],[100.33658036100007,14.794424484000047],[100.33564187400003,14.790364409000063],[100.33974436300008,14.788924442000052],[100.34343143000007,14.784689208000032],[100.34317266700003,14.782019976000072],[100.34886868900008,14.77950241800005],[100.36084227100008,14.786244779000072],[100.36562373700008,14.789747612000042],[100.35963863000006,14.79379367200005],[100.35617132200008,14.797403600000052],[100.34382808900006,14.812620614000025],[100.33467699600004,14.812909234000074]]]},"properties":{"Shape_Leng":0.264455272307,"Shape_Area":0.00175951870471,"ADM3_EN":"Bang Rachan","ADM3_TH":"บางระจัน","ADM3_PCODE":"TH170302","ADM2_EN":"Khai Bang Rachan","ADM2_TH":"ค่ายบางระจัน","ADM2_PCODE":"TH1703","ADM1_EN":"Sing Buri","ADM1_TH":"สิงห์บุรี","ADM1_PCODE":"TH17","ADM0_EN":"Thailand","ADM0_TH":"ประเทศไทย","ADM0_PCODE":"TH"}},
{"type":"Feature","geometry":{"type":"Polygon","coordinates":[[[100.36518982700005,14.86376652100006],[100.36099755700008,14.861237519000042],[100.35816167300004,14.852790972000037],[100.35587839800007,14.849826692000022],[100.35300085600005,14.848918464000064],[100.32102314700006,14.84918716900006],[100.32043559000005,14.847645317000058],[100.32180868500006,14.844631631000027],[100.32476408300005,14.837052823000022],[100.32951989200006,14.834041457000069],[100.33032618600004,14.831395916000076],[100.33302565100007,14.833124829000042],[100.33370111500005,14.83067260000007],[100.33154900300008,14.828271136000069],[100.33364981500006,14.827423515000078],[100.33523457300004,14.824269739000044],[100.33352724300005,14.821612325000046],[100.33457685400003,14.820186270000022],[100.33467699600004,14.812909234000074],[100.34382808900006,14.812620614000025],[100.35617132200008,14.797403600000052],[100.35963863000006,14.79379367200005],[100.36562373700008,14.789747612000042],[100.36714071200004,14.790858882000066],[100.37664105400006,14.801204575000042],[100.37400509400004,14.802465749000078],[100.37201523100003,14.805715058000033],[100.37213004600005,14.810553155000036],[100.36954290900007,14.811247330000072],[100.36540148500006,14.81422181000005],[100.36258393000008,14.817509915000073],[100.35944078300008,14.82664356500004],[100.36032519700007,14.828807374000064],[100.36544171100007,14.834028681000063],[100.36836894800007,14.842319946000032],[100.37141881100007,14.846721483000067],[100.37104066600006,14.854122559000075],[100.36688737900005,14.857845662000045],[100.36611933200004,14.862779438000075],[100.36518982700005,14.86376652100006]]]},"properties":{"Shape_Leng":0.239381793106,"Shape_Area":0.00184116063172,"ADM3_EN":"Pho Sangkho","ADM3_TH":"โพสังโฆ","ADM3_PCODE":"TH170303","ADM2_EN":"Khai Bang Rachan","ADM2_TH":"ค่ายบางระจัน","ADM2_PCODE":"TH1703","ADM1_EN":"Sing Buri","ADM1_TH":"สิงห์บุรี","ADM1_PCODE":"TH17","ADM0_EN":"Thailand","ADM0_TH":"ประเทศไทย","ADM0_PCODE":"TH"}},
{"type":"Feature","geometry":{"type":"Polygon","coordinates":[[[100.36743094300004,14.87112860600007],[100.36952473800005,14.867259428000068],[100.36611933200004,14.862779438000075],[100.36688737900005,14.857845662000045],[100.37104066600006,14.854122559000075],[100.37141881100007,14.846721483000067],[100.36836894800007,14.842319946000032],[100.36544171100007,14.834028681000063],[100.36032519700007,14.828807374000064],[100.35944078300008,14.82664356500004],[100.36258393000008,14.817509915000073],[100.36540148500006,14.81422181000005],[100.36954290900007,14.811247330000072],[100.37213004600005,14.810553155000036],[100.37201523100003,14.805715058000033],[100.37708499700005,14.806938767000076],[100.38416510300004,14.812094154000022],[100.39305713400006,14.816935558000068],[100.39127684600004,14.824724373000038],[100.38952257600005,14.83615072300006],[100.38943736400006,14.845910926000045],[100.37771235600007,14.850101536000068],[100.37880660900004,14.856130328000063],[100.38175073600007,14.857963236000046],[100.38257270900004,14.860237483000049],[100.38688749800008,14.864929496000059],[100.38641737600005,14.86746431000006],[100.38219972900004,14.870911240000055],[100.38061870100006,14.870000592000054],[100.37610181800005,14.872113737000063],[100.36743094300004,14.87112860600007]]]},"properties":{"Shape_Leng":0.19119309683,"Shape_Area":0.00128210946061,"ADM3_EN":"Tha Kham","ADM3_TH":"ท่าข้าม","ADM3_PCODE":"TH170304","ADM2_EN":"Khai Bang Rachan","ADM2_TH":"ค่ายบางระจัน","ADM2_PCODE":"TH1703","ADM1_EN":"Sing Buri","ADM1_TH":"สิงห์บุรี","ADM1_PCODE":"TH17","ADM0_EN":"Thailand","ADM0_TH":"ประเทศไทย","ADM0_PCODE":"TH"}},
{"type":"Feature","geometry":{"type":"Polygon","coordinates":[[[100.31073676500006,14.830651232000037],[100.30679037800007,14.82852701400003],[100.30500514700003,14.82853714600003],[100.30089932500005,14.831478416000039],[100.29775488600006,14.828481177000072],[100.29401793900007,14.826412882000056],[100.28758104800005,14.825623476000032],[100.27056833200004,14.826850836000062],[100.26960921500006,14.821617263000064],[100.26248009800008,14.80735310800003],[100.26961017000008,14.803658822000045],[100.27247882900008,14.799474363000058],[100.27381358900004,14.797657161000075],[100.27581791000006,14.799222444000065],[100.27922471000005,14.808262824000053],[100.28585707600007,14.809316532000025],[100.29198002100009,14.811067214000047],[100.30292268700003,14.813492556000028],[100.31215180400005,14.81446819000007],[100.31650359000008,14.814030272000025],[100.32186020900008,14.81200070400007],[100.32561549600007,14.815118108000036],[100.32824972900005,14.818802019000032],[100.33031018600008,14.815563304000023],[100.33267206600004,14.815647949000038],[100.33114800100009,14.812833832000024],[100.33467699600004,14.812909234000074],[100.33457685400003,14.820186270000022],[100.33352724300005,14.821612325000046],[100.33523457300004,14.824269739000044],[100.33364981500006,14.827423515000078],[100.33154900300008,14.828271136000069],[100.33370111500005,14.83067260000007],[100.33302565100007,14.833124829000042],[100.33032618600004,14.831395916000076],[100.32951989200006,14.834041457000069],[100.32476408300005,14.837052823000022],[100.32180868500006,14.844631631000027],[100.31598639500004,14.835641790000068],[100.31073676500006,14.830651232000037]]]},"properties":{"Shape_Leng":0.226694133608,"Shape_Area":0.00132269752969,"ADM3_EN":"Kho Sai","ADM3_TH":"คอทราย","ADM3_PCODE":"TH170305","ADM2_EN":"Khai Bang Rachan","ADM2_TH":"ค่ายบางระจัน","ADM2_PCODE":"TH1703","ADM1_EN":"Sing Buri","ADM1_TH":"สิงห์บุรี","ADM1_PCODE":"TH17","ADM0_EN":"Thailand","ADM0_TH":"ประเทศไทย","ADM0_PCODE":"TH"}},
{"type":"Feature","geometry":{"type":"Polygon","coordinates":[[[100.21542735900005,14.839860029000022],[100.20993010700005,14.834517154000025],[100.20879143800005,14.828617597000061],[100.20924042000007,14.822084097000072],[100.20514310200008,14.812750909000044],[100.20428657300005,14.809608318000073],[100.20562730800003,14.80820783400003],[100.21426869600003,14.806986659000074],[100.21650429100004,14.798441572000058],[100.21909726100006,14.796903563000058],[100.22499965500003,14.797720682000033],[100.22643316800009,14.795045493000032],[100.23082294900007,14.795692602000031],[100.23720586600007,14.797533051000073],[100.24186854500005,14.79806626900006],[100.24011140300007,14.800782563000041],[100.24003341100007,14.838628313000072],[100.23934205400008,14.84409637500005],[100.23146292700005,14.842597020000028],[100.22341260300004,14.841755987000056],[100.22195057700009,14.84324904600004],[100.21818127900008,14.839230933000067],[100.21542735900005,14.839860029000022]]]},"properties":{"Shape_Leng":0.155689784434,"Shape_Area":0.00134209653264,"ADM3_EN":"Nong Krathum","ADM3_TH":"หนองกระทุ่ม","ADM3_PCODE":"TH170306","ADM2_EN":"Khai Bang Rachan","ADM2_TH":"ค่ายบางระจัน","ADM2_PCODE":"TH1703","ADM1_EN":"Sing Buri","ADM1_TH":"สิงห์บุรี","ADM1_PCODE":"TH17","ADM0_EN":"Thailand","ADM0_TH":"ประเทศไทย","ADM0_PCODE":"TH"}},
{"type":"Feature","geometry":{"type":"Polygon","coordinates":[[[100.43748171900006,14.780975983000076],[100.42677831800006,14.783597365000048],[100.42440743200007,14.781257013000072],[100.42447395500005,14.779636783000058],[100.42204794800006,14.778406206000056],[100.42250234600004,14.773096099000043],[100.42111076000003,14.772989192000068],[100.42069913800003,14.767358338000065],[100.42337728400008,14.764868122000053],[100.42184604900007,14.761725505000072],[100.42154068400004,14.75775446700004],[100.42197345800008,14.750281434000044],[100.41593179400007,14.74900923100006],[100.41475125800008,14.747663002000024],[100.41663898700006,14.74233804000005],[100.41325277700008,14.737746628000025],[100.41607305300005,14.734566663000066],[100.41644854200007,14.732132833000037],[100.41490276800005,14.727578633000064],[100.41653386200005,14.725491624000028],[100.42274085100007,14.728584154000032],[100.42463030200008,14.727473953000072],[100.42875634000006,14.728177532000075],[100.43358619000009,14.727916963000041],[100.43758341800009,14.732710437000037],[100.44096569700008,14.740779761000056],[100.44371954000007,14.744711150000057],[100.44730269400009,14.747402332000036],[100.44833833800004,14.749966609000069],[100.44724546200007,14.751804906000075],[100.44280296700003,14.754044419000024],[100.44225961600006,14.757811802000049],[100.44553607600005,14.763644456000065],[100.44352188000005,14.769041508000043],[100.43908302300008,14.774287557000036],[100.43748997200004,14.777277428000048],[100.43748171900006,14.780975983000076]]]},"properties":{"Shape_Leng":0.171946400863,"Shape_Area":0.00121218053307,"ADM3_EN":"Phra Ngam","ADM3_TH":"พระงาม","ADM3_PCODE":"TH170401","ADM2_EN":"Phrom Buri","ADM2_TH":"พรหมบุรี","ADM2_PCODE":"TH1704","ADM1_EN":"Sing Buri","ADM1_TH":"สิงห์บุรี","ADM1_PCODE":"TH17","ADM0_EN":"Thailand","ADM0_TH":"ประเทศไทย","ADM0_PCODE":"TH"}},
{"type":"Feature","geometry":{"type":"Polygon","coordinates":[[[100.43076922800009,14.850547207000034],[100.42881814000003,14.847508259000051],[100.43244659900006,14.846918628000026],[100.43981728800009,14.84732370300003],[100.44230827900009,14.844652560000043],[100.44173824600006,14.839755199000024],[100.43873644800004,14.83371446700005],[100.43606022800009,14.82560565500006],[100.43645480900005,14.822889470000064],[100.44085237000007,14.819791311000074],[100.44409395400004,14.821238678000043],[100.45225323600005,14.819449462000023],[100.45430469700005,14.821039093000024],[100.45718006200008,14.82059614700006],[100.45798115300005,14.81910371400005],[100.46109954700006,14.81891184500006],[100.46421327800005,14.820561605000023],[100.46418776700006,14.822966354000073],[100.46605196500008,14.826861433000033],[100.46560422400006,14.828586722000068],[100.46100906000004,14.83041359300006],[100.46070347600005,14.832156731000055],[100.45637472400006,14.832792177000044],[100.45674837600006,14.835195337000073],[100.45474832500008,14.835838274000025],[100.45734655400008,14.841627499000026],[100.45972745300008,14.843511067000065],[100.45825971700003,14.845930341000042],[100.45941768400007,14.851420487000041],[100.45898043400007,14.855367085000069],[100.45675124500008,14.857591640000066],[100.45431854700007,14.857026374000043],[100.45414757800006,14.855929942000046],[100.44841127400008,14.852277349000076],[100.44407465900008,14.848671909000075],[100.44119792700008,14.850578602000041],[100.43076922800009,14.850547207000034]]]},"properties":{"Shape_Leng":0.156539850339,"Shape_Area":0.000720878345451,"ADM3_EN":"Phrom Buri","ADM3_TH":"พรหมบุรี","ADM3_PCODE":"TH170402","ADM2_EN":"Phrom Buri","ADM2_TH":"พรหมบุรี","ADM2_PCODE":"TH1704","ADM1_EN":"Sing Buri","ADM1_TH":"สิงห์บุรี","ADM1_PCODE":"TH17","ADM0_EN":"Thailand","ADM0_TH":"ประเทศไทย","ADM0_PCODE":"TH"}},
{"type":"Feature","geometry":{"type":"Polygon","coordinates":[[[100.44352188000005,14.769041508000043],[100.44723755800004,14.771185138000021],[100.45727695600004,14.773557770000025],[100.46098873600005,14.770954713000037],[100.46407120400005,14.771851455000046],[100.46330660500007,14.768240135000042],[100.47125611600006,14.76771711200007],[100.47225453800007,14.76859534700003],[100.47220738800007,14.770810365000045],[100.47563433000005,14.771900840000058],[100.47334330600006,14.775644613000054],[100.47387609300006,14.781110181000031],[100.47137559500004,14.783487776000072],[100.47191385900004,14.785173933000067],[100.46947960900008,14.787873180000076],[100.47214495600008,14.790228962000072],[100.47192717700005,14.793606185000044],[100.46821928600008,14.798215829000071],[100.46577974700006,14.79944703800004],[100.45741609300006,14.801637586000027],[100.45322310200004,14.80079556800007],[100.45174651400004,14.798925645000054],[100.45289867800005,14.797602771000072],[100.45310493000005,14.79289092700003],[100.44954043900003,14.788390655000057],[100.44649707500008,14.786314576000052],[100.44073304500006,14.783778614000028],[100.43748171900006,14.780975983000076],[100.43748997200004,14.777277428000048],[100.43908302300008,14.774287557000036],[100.44352188000005,14.769041508000043]]]},"properties":{"Shape_Leng":0.13723695301,"Shape_Area":0.00078920889518,"ADM3_EN":"Bang Nam Chiao","ADM3_TH":"บางน้ำเชี่ยว","ADM3_PCODE":"TH170403","ADM2_EN":"Phrom Buri","ADM2_TH":"พรหมบุรี","ADM2_PCODE":"TH1704","ADM1_EN":"Sing Buri","ADM1_TH":"สิงห์บุรี","ADM1_PCODE":"TH17","ADM0_EN":"Thailand","ADM0_TH":"ประเทศไทย","ADM0_PCODE":"TH"}},
{"type":"Feature","geometry":{"type":"Polygon","coordinates":[[[100.43358619000009,14.727916963000041],[100.43759179700004,14.727790931000072],[100.43782679000009,14.725730261000024],[100.44216866700003,14.725730878000036],[100.44497137700006,14.724069866000036],[100.44860039600007,14.724588636000021],[100.45073976300006,14.72110204300003],[100.45794010500003,14.721096421000027],[100.46087204400004,14.722765902000049],[100.46375687100004,14.725893316000054],[100.46860520300004,14.723724188000062],[100.46929308500006,14.72165321400007],[100.47403546800007,14.722229933000051],[100.47534247900006,14.723947488000022],[100.47348345100005,14.730884635000052],[100.47755270300007,14.733168628000044],[100.47673920300008,14.736237279000022],[100.47839252900008,14.738787826000078],[100.48326132500006,14.738205704000052],[100.48468555100004,14.739415832000077],[100.48308320600006,14.744110499000044],[100.48809338800004,14.74813398300006],[100.48672941600006,14.753051200000073],[100.48428107200004,14.756560945000047],[100.47717690000007,14.759241304000057],[100.47246055500005,14.761680988000023],[100.47431132100007,14.764776076000032],[100.47793878100003,14.765118552000047],[100.47510618900009,14.768395461000068],[100.47225453800007,14.76859534700003],[100.47125611600006,14.76771711200007],[100.46330660500007,14.768240135000042],[100.46407120400005,14.771851455000046],[100.46098873600005,14.770954713000037],[100.45727695600004,14.773557770000025],[100.44723755800004,14.771185138000021],[100.44352188000005,14.769041508000043],[100.44553607600005,14.763644456000065],[100.44225961600006,14.757811802000049],[100.44280296700003,14.754044419000024],[100.44724546200007,14.751804906000075],[100.44833833800004,14.749966609000069],[100.44730269400009,14.747402332000036],[100.44371954000007,14.744711150000057],[100.44096569700008,14.740779761000056],[100.43758341800009,14.732710437000037],[100.43358619000009,14.727916963000041]]]},"properties":{"Shape_Leng":0.219015422432,"Shape_Area":0.00176743116549,"ADM3_EN":"Ban Mo","ADM3_TH":"บ้านหม้อ","ADM3_PCODE":"TH170404","ADM2_EN":"Phrom Buri","ADM2_TH":"พรหมบุรี","ADM2_PCODE":"TH1704","ADM1_EN":"Sing Buri","ADM1_TH":"สิงห์บุรี","ADM1_PCODE":"TH17","ADM0_EN":"Thailand","ADM0_TH":"ประเทศไทย","ADM0_PCODE":"TH"}},
{"type":"Feature","geometry":{"type":"Polygon","coordinates":[[[100.44085237000007,14.819791311000074],[100.44157884700007,14.815143372000023],[100.43862061800007,14.810263466000038],[100.43802519000008,14.807810752000023],[100.43892407400006,14.804481735000024],[100.44278121400004,14.801567702000057],[100.45174651400004,14.798925645000054],[100.45322310200004,14.80079556800007],[100.45741609300006,14.801637586000027],[100.46577974700006,14.79944703800004],[100.46821928600008,14.798215829000071],[100.47301401100003,14.800688796000031],[100.48262596100005,14.81130984400005],[100.47795034600006,14.813040512000043],[100.46925615800006,14.818522359000042],[100.46421327800005,14.820561605000023],[100.46109954700006,14.81891184500006],[100.45798115300005,14.81910371400005],[100.45718006200008,14.82059614700006],[100.45430469700005,14.821039093000024],[100.45225323600005,14.819449462000023],[100.44409395400004,14.821238678000043],[100.44085237000007,14.819791311000074]]]},"properties":{"Shape_Leng":0.116631207713,"Shape_Area":0.000708522451317,"ADM3_EN":"Ban Paeng","ADM3_TH":"บ้านแป้ง","ADM3_PCODE":"TH170405","ADM2_EN":"Phrom Buri","ADM2_TH":"พรหมบุรี","ADM2_PCODE":"TH1704","ADM1_EN":"Sing Buri","ADM1_TH":"สิงห์บุรี","ADM1_PCODE":"TH17","ADM0_EN":"Thailand","ADM0_TH":"ประเทศไทย","ADM0_PCODE":"TH"}},
{"type":"Feature","geometry":{"type":"Polygon","coordinates":[[[100.41878114700006,14.835993203000044],[100.42249971200005,14.834000304000028],[100.42039979600008,14.832593884000062],[100.41852076500004,14.828080374000024],[100.41646628500007,14.829497778000075],[100.41320655300007,14.829860377000045],[100.41204817300007,14.822467209000024],[100.40761876800008,14.819407789000024],[100.40839723500005,14.810212152000076],[100.40901316300005,14.802949599000044],[100.41585027400004,14.803581631000043],[100.42017429800006,14.804333878000023],[100.42115482600008,14.806951193000032],[100.41978476800006,14.812815202000024],[100.42255312600008,14.81330517300006],[100.42759418100007,14.815865958000074],[100.43234945100005,14.819321751000075],[100.43401099400006,14.819633517000057],[100.43645480900005,14.822889470000064],[100.43606022800009,14.82560565500006],[100.43873644800004,14.83371446700005],[100.44173824600006,14.839755199000024],[100.44230827900009,14.844652560000043],[100.43981728800009,14.84732370300003],[100.43244659900006,14.846918628000026],[100.42881814000003,14.847508259000051],[100.42303174000006,14.84271741200007],[100.41878114700006,14.835993203000044]]]},"properties":{"Shape_Leng":0.143876281783,"Shape_Area":0.000808420704706,"ADM3_EN":"Hua Pa","ADM3_TH":"หัวป่า","ADM3_PCODE":"TH170406","ADM2_EN":"Phrom Buri","ADM2_TH":"พรหมบุรี","ADM2_PCODE":"TH1704","ADM1_EN":"Sing Buri","ADM1_TH":"สิงห์บุรี","ADM1_PCODE":"TH17","ADM0_EN":"Thailand","ADM0_TH":"ประเทศไทย","ADM0_PCODE":"TH"}},
{"type":"Feature","geometry":{"type":"Polygon","coordinates":[[[100.43748171900006,14.780975983000076],[100.44073304500006,14.783778614000028],[100.44649707500008,14.786314576000052],[100.44954043900003,14.788390655000057],[100.45310493000005,14.79289092700003],[100.45289867800005,14.797602771000072],[100.45174651400004,14.798925645000054],[100.44278121400004,14.801567702000057],[100.43892407400006,14.804481735000024],[100.43802519000008,14.807810752000023],[100.43862061800007,14.810263466000038],[100.44157884700007,14.815143372000023],[100.44085237000007,14.819791311000074],[100.43645480900005,14.822889470000064],[100.43401099400006,14.819633517000057],[100.43234945100005,14.819321751000075],[100.42759418100007,14.815865958000074],[100.42255312600008,14.81330517300006],[100.41978476800006,14.812815202000024],[100.42115482600008,14.806951193000032],[100.42017429800006,14.804333878000023],[100.41585027400004,14.803581631000043],[100.41565209900006,14.79871395300006],[100.41167908700004,14.798284778000038],[100.41158524100007,14.795139781000046],[100.41022629200006,14.792671237000036],[100.41406045800005,14.790926870000021],[100.41638782000007,14.79151192200004],[100.42090453900005,14.789752571000065],[100.42215527200005,14.785694097000032],[100.42196971000004,14.782850834000044],[100.42440743200007,14.781257013000072],[100.42677831800006,14.783597365000048],[100.43748171900006,14.780975983000076]]]},"properties":{"Shape_Leng":0.153242501344,"Shape_Area":0.000954897834692,"ADM3_EN":"Rong Chang","ADM3_TH":"โรงช้าง","ADM3_PCODE":"TH170407","ADM2_EN":"Phrom Buri","ADM2_TH":"พรหมบุรี","ADM2_PCODE":"TH1704","ADM1_EN":"Sing Buri","ADM1_TH":"สิงห์บุรี","ADM1_PCODE":"TH17","ADM0_EN":"Thailand","ADM0_TH":"ประเทศไทย","ADM0_PCODE":"TH"}},
{"type":"Feature","geometry":{"type":"Polygon","coordinates":[[[100.40288109300008,14.759318689000054],[100.40051608700009,14.75917019700006],[100.39583465900006,14.761792785000068],[100.39399403000004,14.765677768000046],[100.38987834800008,14.765975586000025],[100.39083977200005,14.769297639000058],[100.39512153000004,14.771249328000067],[100.40172825100007,14.783937690000073],[100.39999024300005,14.787866370000074],[100.40032562000005,14.789304492000042],[100.39944993900008,14.793492266000044],[100.39684804900008,14.795769637000035],[100.38904788900004,14.792392490000054],[100.38262608500008,14.784699347000071],[100.37415794500004,14.773052778000022],[100.36641807800004,14.76575734100004],[100.36496881900007,14.762648665000029],[100.37144526500003,14.763057858000025],[100.37200467100007,14.760324561000061],[100.37484648800006,14.756058719000066],[100.37520351700005,14.752435176000063],[100.37654185200006,14.752657009000075],[100.37994018400008,14.746373841000036],[100.38078707600005,14.742903970000043],[100.38279134100009,14.744139953000058],[100.39268656100006,14.743820860000028],[100.39937900700005,14.75048782500005],[100.39965358900008,14.753911101000028],[100.40189919000005,14.755698434000067],[100.40288109300008,14.759318689000054]]]},"properties":{"Shape_Leng":0.166448815244,"Shape_Area":0.00104964566307,"ADM3_EN":"Thon Samo","ADM3_TH":"ถอนสมอ","ADM3_PCODE":"TH170501","ADM2_EN":"Tha Chang","ADM2_TH":"ท่าช้าง","ADM2_PCODE":"TH1705","ADM1_EN":"Sing Buri","ADM1_TH":"สิงห์บุรี","ADM1_PCODE":"TH17","ADM0_EN":"Thailand","ADM0_TH":"ประเทศไทย","ADM0_PCODE":"TH"}},
{"type":"Feature","geometry":{"type":"Polygon","coordinates":[[[100.34886868900008,14.77950241800005],[100.34977951000008,14.775739608000038],[100.34830819500007,14.77226201700006],[100.34956953900007,14.769955388000028],[100.35223970900006,14.768915617000062],[100.35595084400006,14.761521326000036],[100.35787243500005,14.761177701000065],[100.36496881900007,14.762648665000029],[100.36641807800004,14.76575734100004],[100.37415794500004,14.773052778000022],[100.38262608500008,14.784699347000071],[100.38904788900004,14.792392490000054],[100.39684804900008,14.795769637000035],[100.39666452700004,14.798270427000034],[100.39409230100006,14.800888563000058],[100.38742060300007,14.800739543000077],[100.38260143400004,14.798912114000075],[100.37664105400006,14.801204575000042],[100.36714071200004,14.790858882000066],[100.36562373700008,14.789747612000042],[100.36084227100008,14.786244779000072],[100.34886868900008,14.77950241800005]]]},"properties":{"Shape_Leng":0.138669457293,"Shape_Area":0.000849653482894,"ADM3_EN":"Pho Prachak","ADM3_TH":"โพประจักษ์","ADM3_PCODE":"TH170502","ADM2_EN":"Tha Chang","ADM2_TH":"ท่าช้าง","ADM2_PCODE":"TH1705","ADM1_EN":"Sing Buri","ADM1_TH":"สิงห์บุรี","ADM1_PCODE":"TH17","ADM0_EN":"Thailand","ADM0_TH":"ประเทศไทย","ADM0_PCODE":"TH"}},
{"type":"Feature","geometry":{"type":"Polygon","coordinates":[[[100.39305713400006,14.816935558000068],[100.38416510300004,14.812094154000022],[100.37708499700005,14.806938767000076],[100.37201523100003,14.805715058000033],[100.37400509400004,14.802465749000078],[100.37664105400006,14.801204575000042],[100.38260143400004,14.798912114000075],[100.38742060300007,14.800739543000077],[100.39409230100006,14.800888563000058],[100.39666452700004,14.798270427000034],[100.39684804900008,14.795769637000035],[100.39944993900008,14.793492266000044],[100.40032562000005,14.789304492000042],[100.40490344500006,14.791982174000054],[100.41022629200006,14.792671237000036],[100.41158524100007,14.795139781000046],[100.41167908700004,14.798284778000038],[100.41565209900006,14.79871395300006],[100.41585027400004,14.803581631000043],[100.40901316300005,14.802949599000044],[100.40839723500005,14.810212152000076],[100.40423966700007,14.809074274000068],[100.39902889800004,14.815220625000052],[100.39732349100007,14.812784564000026],[100.39305713400006,14.816935558000068]]]},"properties":{"Shape_Leng":0.127061638177,"Shape_Area":0.00055021775636,"ADM3_EN":"Wihan Khao","ADM3_TH":"วิหารขาว","ADM3_PCODE":"TH170503","ADM2_EN":"Tha Chang","ADM2_TH":"ท่าช้าง","ADM2_PCODE":"TH1705","ADM1_EN":"Sing Buri","ADM1_TH":"สิงห์บุรี","ADM1_PCODE":"TH17","ADM0_EN":"Thailand","ADM0_TH":"ประเทศไทย","ADM0_PCODE":"TH"}},
{"type":"Feature","geometry":{"type":"Polygon","coordinates":[[[100.42440743200007,14.781257013000072],[100.42196971000004,14.782850834000044],[100.42215527200005,14.785694097000032],[100.42090453900005,14.789752571000065],[100.41638782000007,14.79151192200004],[100.41406045800005,14.790926870000021],[100.41022629200006,14.792671237000036],[100.40490344500006,14.791982174000054],[100.40032562000005,14.789304492000042],[100.39999024300005,14.787866370000074],[100.40172825100007,14.783937690000073],[100.39512153000004,14.771249328000067],[100.39083977200005,14.769297639000058],[100.38987834800008,14.765975586000025],[100.39399403000004,14.765677768000046],[100.39583465900006,14.761792785000068],[100.40051608700009,14.75917019700006],[100.40288109300008,14.759318689000054],[100.40810740300009,14.754777122000064],[100.41219871300007,14.752808775000062],[100.41475125800008,14.747663002000024],[100.41593179400007,14.74900923100006],[100.42197345800008,14.750281434000044],[100.42154068400004,14.75775446700004],[100.42184604900007,14.761725505000072],[100.42337728400008,14.764868122000053],[100.42069913800003,14.767358338000065],[100.42111076000003,14.772989192000068],[100.42250234600004,14.773096099000043],[100.42204794800006,14.778406206000056],[100.42447395500005,14.779636783000058],[100.42440743200007,14.781257013000072]]]},"properties":{"Shape_Leng":0.14421886643,"Shape_Area":0.000923665292985,"ADM3_EN":"Phikun Thong","ADM3_TH":"พิกุลทอง","ADM3_PCODE":"TH170504","ADM2_EN":"Tha Chang","ADM2_TH":"ท่าช้าง","ADM2_PCODE":"TH1705","ADM1_EN":"Sing Buri","ADM1_TH":"สิงห์บุรี","ADM1_PCODE":"TH17","ADM0_EN":"Thailand","ADM0_TH":"ประเทศไทย","ADM0_PCODE":"TH"}},
{"type":"Feature","geometry":{"type":"Polygon","coordinates":[[[100.35003208300009,15.010981651000066],[100.34873311900009,15.008824057000027],[100.34326136000004,15.008810134000043],[100.34029325000006,15.014828224000041],[100.33882608900007,15.01996140600005],[100.33237559700007,15.020139130000075],[100.33067223100005,15.024184449000074],[100.32716840300009,15.027469600000074],[100.32545272000004,15.031025987000078],[100.31900881700005,15.029731311000035],[100.31677645200006,15.030240136000032],[100.31208574900006,15.028726926000047],[100.31139323700006,15.029688596000028],[100.30417937500005,15.02726978800007],[100.30574887500006,15.024591163000025],[100.30876735100009,15.022355489000063],[100.30979510800006,15.020303722000051],[100.31033160800007,15.014173206000066],[100.30936191900008,15.009966943000052],[100.31360113700003,14.99825917000004],[100.31513543100004,14.997082792000072],[100.31826810100006,14.990304395000067],[100.31982211600007,14.991099465000048],[100.32103912700006,14.988699955000072],[100.32685528700006,14.991698770000028],[100.32881075700004,14.991172265000046],[100.33640448300008,14.992661588000033],[100.33801313000004,14.984626253000044],[100.34209326100006,14.98536413200003],[100.34519274200005,14.98717339600006],[100.34421099600007,14.990481273000057],[100.34811694500007,14.990937554000027],[100.35205969500004,14.992725370000073],[100.34659912900008,15.002902329000051],[100.35569990800008,15.003910403000077],[100.35003208300009,15.010981651000066]]]},"properties":{"Shape_Leng":0.186586376653,"Shape_Area":0.00127198153767,"ADM3_EN":"In Buri","ADM3_TH":"อินทร์บุรี","ADM3_PCODE":"TH170601","ADM2_EN":"In Buri","ADM2_TH":"อินทร์บุรี","ADM2_PCODE":"TH1706","ADM1_EN":"Sing Buri","ADM1_TH":"สิงห์บุรี","ADM1_PCODE":"TH17","ADM0_EN":"Thailand","ADM0_TH":"ประเทศไทย","ADM0_PCODE":"TH"}},
{"type":"Feature","geometry":{"type":"Polygon","coordinates":[[[100.32545272000004,15.031025987000078],[100.32515486600005,15.035339305000036],[100.32323878600005,15.040292642000054],[100.31769366400005,15.04669270900007],[100.31350283700004,15.049573810000027],[100.30646197000004,15.051381669000023],[100.30553707200005,15.054745296000021],[100.30914981500007,15.05977725300005],[100.30940607900004,15.062174567000056],[100.30527683400004,15.065478828000039],[100.30077202700005,15.064220848000048],[100.29690990400007,15.061358278000057],[100.29402518000006,15.061687105000033],[100.29357123700004,15.064535337000052],[100.28846569100006,15.065885584000057],[100.27983224800005,15.063859939000054],[100.27763830600009,15.066152395000074],[100.26187756200005,15.059040025000058],[100.25958723600007,15.058910965000052],[100.26074354800005,15.054052100000035],[100.25952104100008,15.04993291900007],[100.25654278700006,15.04928106400007],[100.25543961800008,15.04628748600004],[100.25870329400004,15.041179530000022],[100.25812354900006,15.038247441000067],[100.25958999400007,15.033003718000032],[100.26183081300007,15.034902074000058],[100.26423806900004,15.035092174000056],[100.26746264900004,15.032990984000037],[100.27224801900007,15.032944870000051],[100.27659108100005,15.033966967000026],[100.28137452400006,15.032876266000073],[100.28460299100004,15.028494929000033],[100.28904231800004,15.02440918800005],[100.29008707600008,15.020514008000077],[100.30127449700007,15.016317654000034],[100.30563010300006,15.015706582000064],[100.31033160800007,15.014173206000066],[100.30979510800006,15.020303722000051],[100.30876735100009,15.022355489000063],[100.30574887500006,15.024591163000025],[100.30417937500005,15.02726978800007],[100.31139323700006,15.029688596000028],[100.31208574900006,15.028726926000047],[100.31677645200006,15.030240136000032],[100.31900881700005,15.029731311000035],[100.32545272000004,15.031025987000078]]]},"properties":{"Shape_Leng":0.233891379097,"Shape_Area":0.00209667202006,"ADM3_EN":"Prasuk","ADM3_TH":"ประศุก","ADM3_PCODE":"TH170602","ADM2_EN":"In Buri","ADM2_TH":"อินทร์บุรี","ADM2_PCODE":"TH1706","ADM1_EN":"Sing Buri","ADM1_TH":"สิงห์บุรี","ADM1_PCODE":"TH17","ADM0_EN":"Thailand","ADM0_TH":"ประเทศไทย","ADM0_PCODE":"TH"}},
{"type":"Feature","geometry":{"type":"Polygon","coordinates":[[[100.36573684100006,14.951527095000074],[100.36357718600004,14.953791735000038],[100.36080692500008,14.95381523900005],[100.35509041700004,14.952019955000026],[100.35068180600007,14.95359428100005],[100.34914622700006,14.957310324000048],[100.34893806500008,14.965270634000035],[100.34666654400007,14.973275836000028],[100.33989270400008,14.980544333000068],[100.33801313000004,14.984626253000044],[100.33640448300008,14.992661588000033],[100.32881075700004,14.991172265000046],[100.32685528700006,14.991698770000028],[100.32103912700006,14.988699955000072],[100.31481990800006,14.985462034000022],[100.30987118500008,14.984708015000024],[100.31094215400003,14.978485567000064],[100.30726657800005,14.977239951000058],[100.30670694700007,14.973388231000058],[100.30440413400004,14.973804631000064],[100.30481690000005,14.969227691000071],[100.30363864600008,14.967057516000068],[100.29914320500006,14.968434989000059],[100.29742026100007,14.966851959000053],[100.29873190400008,14.964087034000045],[100.29695553700009,14.961895685000059],[100.29293942300006,14.96354025200003],[100.29111914200007,14.955720884000073],[100.29430713800008,14.954065194000066],[100.29738827600005,14.954493520000028],[100.30104032900005,14.953332125000031],[100.30128227500006,14.951544721000062],[100.30532592300005,14.953024984000024],[100.30639130100008,14.95556939200003],[100.31414474400003,14.955948384000067],[100.31560491100004,14.955065298000022],[100.31951472300005,14.956008441000051],[100.32421678400004,14.951711247000048],[100.32438143400003,14.94951866200006],[100.32730611000005,14.950144825000052],[100.32751482100008,14.94519142200005],[100.33216098700007,14.946084562000067],[100.33487836400008,14.940344752000044],[100.33622642400007,14.939466161000041],[100.34060076600008,14.940850502000046],[100.34157055100007,14.937216233000072],[100.34766079100007,14.938752192000038],[100.34903251500003,14.937151595000046],[100.35340042400009,14.938662260000058],[100.35590044500003,14.940925078000078],[100.35838618500009,14.940238496000063],[100.35973436600005,14.94139782800005],[100.36743171600006,14.943493129000046],[100.36573684100006,14.951527095000074]]]},"properties":{"Shape_Leng":0.259961535378,"Shape_Area":0.0019876974936,"ADM3_EN":"Thap Ya","ADM3_TH":"ทับยา","ADM3_PCODE":"TH170603","ADM2_EN":"In Buri","ADM2_TH":"อินทร์บุรี","ADM2_PCODE":"TH1706","ADM1_EN":"Sing Buri","ADM1_TH":"สิงห์บุรี","ADM1_PCODE":"TH17","ADM0_EN":"Thailand","ADM0_TH":"ประเทศไทย","ADM0_PCODE":"TH"}},
{"type":"Feature","geometry":{"type":"Polygon","coordinates":[[[100.42173834600004,14.996577843000068],[100.42082352400007,15.000209488000053],[100.41800795700004,15.003316101000053],[100.41580009600005,15.003631592000033],[100.41529327500007,15.005933640000023],[100.41581392800003,15.016981074000057],[100.41032073100007,15.01640638300006],[100.40180955200003,15.014720923000027],[100.39411746100006,15.012648133000027],[100.39095903800006,15.012375059000021],[100.38852847400005,15.010779479000064],[100.38483301100007,15.010083201000043],[100.38223856800005,15.011295375000032],[100.37387349000005,15.008763524000074],[100.36499630700007,15.013938911000025],[100.36007460800005,15.013780895000025],[100.35471719700007,15.011975994000068],[100.35257290500005,15.012363734000076],[100.35003208300009,15.010981651000066],[100.35569990800008,15.003910403000077],[100.35771729400005,15.00480774600004],[100.35939509600007,15.002450546000034],[100.35985709700009,14.997990169000047],[100.36785456700005,14.99675742100004],[100.37182656600004,14.98805819000006],[100.37799234400006,14.981851296000059],[100.38222414900008,14.97875242300006],[100.38769672400008,14.98214785500005],[100.39447583400005,14.985146911000072],[100.39569840100006,14.986300691000054],[100.39863510500004,14.982889528000044],[100.40382426800005,14.98081456600005],[100.40700155200005,14.981875643000024],[100.41320704900005,14.987226356000065],[100.42173834600004,14.996577843000068]]]},"properties":{"Shape_Leng":0.198042289647,"Shape_Area":0.00162048794346,"ADM3_EN":"Ngio Rai","ADM3_TH":"งิ้วราย","ADM3_PCODE":"TH170604","ADM2_EN":"In Buri","ADM2_TH":"อินทร์บุรี","ADM2_PCODE":"TH1706","ADM1_EN":"Sing Buri","ADM1_TH":"สิงห์บุรี","ADM1_PCODE":"TH17","ADM0_EN":"Thailand","ADM0_TH":"ประเทศไทย","ADM0_PCODE":"TH"}},
{"type":"Feature","geometry":{"type":"Polygon","coordinates":[[[100.31350283700004,15.049573810000027],[100.31481332600003,15.05159050800006],[100.31808770400005,15.052522170000032],[100.32118935900007,15.056079778000026],[100.33232993300004,15.06265452200006],[100.33808757200006,15.065450485000042],[100.33587867900007,15.07258657400007],[100.34052700500007,15.075721935000047],[100.35070032300007,15.084727517000033],[100.35589007200008,15.08289515100006],[100.35984515800004,15.085113368000066],[100.36438145300008,15.086609836000036],[100.36331639200006,15.091024533000052],[100.36479272100007,15.091384173000051],[100.35464397900006,15.096715006000068],[100.35314538600005,15.101620830000059],[100.35598325200004,15.117641872000036],[100.35464828700003,15.12050380200003],[100.34831440100004,15.116222593000032],[100.33577961300006,15.105321052000022],[100.32027332800004,15.093853060000072],[100.32004004200007,15.092588368000065],[100.31564708200005,15.091310029000056],[100.31457774200004,15.089313747000062],[100.30551856500006,15.08603081800004],[100.29934384900008,15.086001888000055],[100.29639314000008,15.08462458400004],[100.29309157600005,15.081269199000076],[100.29370256100003,15.079146655000045],[100.29117182100003,15.076797831000022],[100.29327258500007,15.074014539000075],[100.29462759500007,15.069934149000062],[100.29357123700004,15.064535337000052],[100.29402518000006,15.061687105000033],[100.29690990400007,15.061358278000057],[100.30077202700005,15.064220848000048],[100.30527683400004,15.065478828000039],[100.30940607900004,15.062174567000056],[100.30914981500007,15.05977725300005],[100.30553707200005,15.054745296000021],[100.30646197000004,15.051381669000023],[100.31350283700004,15.049573810000027]]]},"properties":{"Shape_Leng":0.251987621686,"Shape_Area":0.00213819133551,"ADM3_EN":"Chi Nam Rai","ADM3_TH":"ชีน้ำร้าย","ADM3_PCODE":"TH170605","ADM2_EN":"In Buri","ADM2_TH":"อินทร์บุรี","ADM2_PCODE":"TH1706","ADM1_EN":"Sing Buri","ADM1_TH":"สิงห์บุรี","ADM1_PCODE":"TH17","ADM0_EN":"Thailand","ADM0_TH":"ประเทศไทย","ADM0_PCODE":"TH"}},
{"type":"Feature","geometry":{"type":"Polygon","coordinates":[[[100.35003208300009,15.010981651000066],[100.35257290500005,15.012363734000076],[100.35471719700007,15.011975994000068],[100.36007460800005,15.013780895000025],[100.35952868700008,15.01656997200007],[100.35674326900005,15.016860208000026],[100.35643920900009,15.027133484000046],[100.35762569900004,15.036400398000069],[100.35326682200008,15.039457902000038],[100.35357900800005,15.043223140000066],[100.36214675300005,15.046989071000041],[100.36042777300008,15.049329181000076],[100.35571175000007,15.049353052000072],[100.35207702200006,15.053046259000041],[100.34848860900007,15.053485028000068],[100.35315057000008,15.055155998000032],[100.35580050300007,15.058930118000035],[100.35883836200009,15.058936274000075],[100.35987310800004,15.063739124000051],[100.35968583900006,15.070440935000022],[100.36122724400008,15.072507767000047],[100.35907486700006,15.072801366000022],[100.35804898600009,15.08069260700006],[100.35589007200008,15.08289515100006],[100.35070032300007,15.084727517000033],[100.34052700500007,15.075721935000047],[100.33587867900007,15.07258657400007],[100.33808757200006,15.065450485000042],[100.33232993300004,15.06265452200006],[100.32118935900007,15.056079778000026],[100.31808770400005,15.052522170000032],[100.31481332600003,15.05159050800006],[100.31350283700004,15.049573810000027],[100.31769366400005,15.04669270900007],[100.32323878600005,15.040292642000054],[100.32515486600005,15.035339305000036],[100.32545272000004,15.031025987000078],[100.32716840300009,15.027469600000074],[100.33067223100005,15.024184449000074],[100.33237559700007,15.020139130000075],[100.33882608900007,15.01996140600005],[100.34029325000006,15.014828224000041],[100.34326136000004,15.008810134000043],[100.34873311900009,15.008824057000027],[100.35003208300009,15.010981651000066]]]},"properties":{"Shape_Leng":0.242765726338,"Shape_Area":0.00194641027406,"ADM3_EN":"Tha Ngam","ADM3_TH":"ท่างาม","ADM3_PCODE":"TH170606","ADM2_EN":"In Buri","ADM2_TH":"อินทร์บุรี","ADM2_PCODE":"TH1706","ADM1_EN":"Sing Buri","ADM1_TH":"สิงห์บุรี","ADM1_PCODE":"TH17","ADM0_EN":"Thailand","ADM0_TH":"ประเทศไทย","ADM0_PCODE":"TH"}},
{"type":"Feature","geometry":{"type":"Polygon","coordinates":[[[100.40566223500008,14.964638217000072],[100.41157231700004,14.966297093000037],[100.40909266300008,14.969861542000046],[100.40565184200005,14.978979518000074],[100.40700155200005,14.981875643000024],[100.40382426800005,14.98081456600005],[100.39863510500004,14.982889528000044],[100.39569840100006,14.986300691000054],[100.39447583400005,14.985146911000072],[100.38769672400008,14.98214785500005],[100.38222414900008,14.97875242300006],[100.37799234400006,14.981851296000059],[100.37182656600004,14.98805819000006],[100.36785456700005,14.99675742100004],[100.35985709700009,14.997990169000047],[100.35939509600007,15.002450546000034],[100.35771729400005,15.00480774600004],[100.35569990800008,15.003910403000077],[100.34659912900008,15.002902329000051],[100.35205969500004,14.992725370000073],[100.34811694500007,14.990937554000027],[100.34421099600007,14.990481273000057],[100.34519274200005,14.98717339600006],[100.34209326100006,14.98536413200003],[100.33801313000004,14.984626253000044],[100.33989270400008,14.980544333000068],[100.34666654400007,14.973275836000028],[100.34893806500008,14.965270634000035],[100.34914622700006,14.957310324000048],[100.35068180600007,14.95359428100005],[100.35509041700004,14.952019955000026],[100.36080692500008,14.95381523900005],[100.36357718600004,14.953791735000038],[100.36573684100006,14.951527095000074],[100.37598662000005,14.956160208000028],[100.37826325100008,14.956609796000066],[100.38822588300008,14.956700154000032],[100.39429710400003,14.957919143000026],[100.39828688300008,14.961377776000063],[100.40566223500008,14.964638217000072]]]},"properties":{"Shape_Leng":0.232389904184,"Shape_Area":0.00203490415671,"ADM3_EN":"Namtan","ADM3_TH":"น้ำตาล","ADM3_PCODE":"TH170607","ADM2_EN":"In Buri","ADM2_TH":"อินทร์บุรี","ADM2_PCODE":"TH1706","ADM1_EN":"Sing Buri","ADM1_TH":"สิงห์บุรี","ADM1_PCODE":"TH17","ADM0_EN":"Thailand","ADM0_TH":"ประเทศไทย","ADM0_PCODE":"TH"}},
{"type":"Feature","geometry":{"type":"Polygon","coordinates":[[[100.41581392800003,15.016981074000057],[100.41648611300008,15.021232491000035],[100.41622096200007,15.025758990000043],[100.41685668900004,15.044057708000025],[100.42443028700006,15.051634568000054],[100.41344394800007,15.059068080000031],[100.37490801000007,15.086660777000077],[100.36479272100007,15.091384173000051],[100.36331639200006,15.091024533000052],[100.36438145300008,15.086609836000036],[100.35984515800004,15.085113368000066],[100.35589007200008,15.08289515100006],[100.35804898600009,15.08069260700006],[100.35907486700006,15.072801366000022],[100.36122724400008,15.072507767000047],[100.35968583900006,15.070440935000022],[100.35987310800004,15.063739124000051],[100.35883836200009,15.058936274000075],[100.35580050300007,15.058930118000035],[100.35315057000008,15.055155998000032],[100.34848860900007,15.053485028000068],[100.35207702200006,15.053046259000041],[100.35571175000007,15.049353052000072],[100.36042777300008,15.049329181000076],[100.36214675300005,15.046989071000041],[100.35357900800005,15.043223140000066],[100.35326682200008,15.039457902000038],[100.35762569900004,15.036400398000069],[100.35643920900009,15.027133484000046],[100.35674326900005,15.016860208000026],[100.35952868700008,15.01656997200007],[100.36007460800005,15.013780895000025],[100.36499630700007,15.013938911000025],[100.37387349000005,15.008763524000074],[100.38223856800005,15.011295375000032],[100.38483301100007,15.010083201000043],[100.38852847400005,15.010779479000064],[100.39095903800006,15.012375059000021],[100.39411746100006,15.012648133000027],[100.40180955200003,15.014720923000027],[100.41032073100007,15.01640638300006],[100.41581392800003,15.016981074000057]]]},"properties":{"Shape_Leng":0.289685694559,"Shape_Area":0.00381989197107,"ADM3_EN":"Thong En","ADM3_TH":"ทองเอน","ADM3_PCODE":"TH170608","ADM2_EN":"In Buri","ADM2_TH":"อินทร์บุรี","ADM2_PCODE":"TH1706","ADM1_EN":"Sing Buri","ADM1_TH":"สิงห์บุรี","ADM1_PCODE":"TH17","ADM0_EN":"Thailand","ADM0_TH":"ประเทศไทย","ADM0_PCODE":"TH"}},
{"type":"Feature","geometry":{"type":"Polygon","coordinates":[[[100.29111914200007,14.955720884000073],[100.29293942300006,14.96354025200003],[100.29695553700009,14.961895685000059],[100.29873190400008,14.964087034000045],[100.29742026100007,14.966851959000053],[100.29914320500006,14.968434989000059],[100.30363864600008,14.967057516000068],[100.30481690000005,14.969227691000071],[100.30440413400004,14.973804631000064],[100.30670694700007,14.973388231000058],[100.30726657800005,14.977239951000058],[100.31094215400003,14.978485567000064],[100.30987118500008,14.984708015000024],[100.31481990800006,14.985462034000022],[100.32103912700006,14.988699955000072],[100.31982211600007,14.991099465000048],[100.31826810100006,14.990304395000067],[100.31513543100004,14.997082792000072],[100.31360113700003,14.99825917000004],[100.30936191900008,15.009966943000052],[100.31033160800007,15.014173206000066],[100.30563010300006,15.015706582000064],[100.30127449700007,15.016317654000034],[100.29008707600008,15.020514008000077],[100.28904231800004,15.02440918800005],[100.28460299100004,15.028494929000033],[100.28137452400006,15.032876266000073],[100.27659108100005,15.033966967000026],[100.27224801900007,15.032944870000051],[100.26746264900004,15.032990984000037],[100.26423806900004,15.035092174000056],[100.26183081300007,15.034902074000058],[100.25958999400007,15.033003718000032],[100.25812354900006,15.038247441000067],[100.25870329400004,15.041179530000022],[100.25543961800008,15.04628748600004],[100.24786161100008,15.040164958000048],[100.24078880900004,15.038723615000038],[100.23661968000005,15.040109451000035],[100.23662652000007,15.038292113000068],[100.23451438000006,15.038337253000066],[100.23455936900007,15.04013748500006],[100.21874294500009,15.044283996000047],[100.21867617200007,15.04061026900007],[100.21971632000003,15.038767633000077],[100.22225527700004,15.038703965000025],[100.22327914900006,15.03321373500006],[100.22126568800007,15.03270369300003],[100.22559728600004,15.027102812000066],[100.22394397200009,15.024909168000022],[100.23018627600004,15.024942604000046],[100.23517334600007,15.023737212000071],[100.23735358000005,15.020961581000051],[100.24032675400008,15.02217420200003],[100.24046356300005,15.024652350000054],[100.24519520300004,15.02354223900005],[100.24594626400005,15.021033723000073],[100.24268862400004,15.019048874000077],[100.24350154500007,15.017398924000076],[100.24751993600006,15.01704526900005],[100.24988183600004,15.019217806000029],[100.25120831300006,15.017935027000021],[100.24990945900004,15.012819679000074],[100.25436047100004,15.009716370000035],[100.25617640800004,15.007493382000064],[100.25819969400004,15.007968336000033],[100.26154972500007,15.011067291000074],[100.26519130600008,15.011683152000046],[100.26851120600008,15.009650028000067],[100.26965051400003,15.003691654000022],[100.27152030700006,14.999671288000059],[100.27541935300007,14.995840638000061],[100.27502095300008,14.992701383000053],[100.27661314800008,14.991550430000075],[100.28078382700005,14.991473404000033],[100.28315681200007,14.993471343000067],[100.28618807900006,14.992899654000041],[100.28567143200007,14.988080007000065],[100.28868167500008,14.983052587000032],[100.28851906300008,14.979504299000041],[100.29118008800003,14.976667666000026],[100.28720328800006,14.975040858000057],[100.28830228200007,14.969674454000028],[100.28713379900006,14.969253366000032],[100.28808924100008,14.96022840300003],[100.28716454800008,14.95809743500007],[100.28845836900007,14.956346628000063],[100.29111914200007,14.955720884000073]]]},"properties":{"Shape_Leng":0.39721646471,"Shape_Area":0.00299156065439,"ADM3_EN":"Huai Chan","ADM3_TH":"ห้วยชัน","ADM3_PCODE":"TH170609","ADM2_EN":"In Buri","ADM2_TH":"อินทร์บุรี","ADM2_PCODE":"TH1706","ADM1_EN":"Sing Buri","ADM1_TH":"สิงห์บุรี","ADM1_PCODE":"TH17","ADM0_EN":"Thailand","ADM0_TH":"ประเทศไทย","ADM0_PCODE":"TH"}},
{"type":"Feature","geometry":{"type":"Polygon","coordinates":[[[100.44688555300007,15.003178427000023],[100.45135881600004,15.003904113000033],[100.46124363400008,15.002565685000036],[100.46912141200005,15.023582404000024],[100.46932911400006,15.028281726000046],[100.46744957400006,15.032090783000058],[100.44671152400008,15.055237117000047],[100.42748741400004,15.061086905000025],[100.42575994600008,15.052902222000057],[100.42443028700006,15.051634568000054],[100.41685668900004,15.044057708000025],[100.41622096200007,15.025758990000043],[100.41648611300008,15.021232491000035],[100.41581392800003,15.016981074000057],[100.41529327500007,15.005933640000023],[100.41580009600005,15.003631592000033],[100.41800795700004,15.003316101000053],[100.42082352400007,15.000209488000053],[100.42173834600004,14.996577843000068],[100.42546097200005,14.99474619800003],[100.43032284000009,14.995266291000064],[100.43825656200005,15.000005826000063],[100.44688555300007,15.003178427000023]]]},"properties":{"Shape_Leng":0.198888852151,"Shape_Area":0.00252619511669,"ADM3_EN":"Pho Chai","ADM3_TH":"โพธิ์ชัย","ADM3_PCODE":"TH170610","ADM2_EN":"In Buri","ADM2_TH":"อินทร์บุรี","ADM2_PCODE":"TH1706","ADM1_EN":"Sing Buri","ADM1_TH":"สิงห์บุรี","ADM1_PCODE":"TH17","ADM0_EN":"Thailand","ADM0_TH":"ประเทศไทย","ADM0_PCODE":"TH"}}
]}