{"type":"Topology","arcs":[[[4304,5008],[36,-17]],[[4340,4991],[-27,-97],[-10,-56],[-14,-59],[-23,-3],[-27,5],[-22,-22],[-11,-46],[-37,-36],[-14,-21],[-20,-12],[-35,-39],[-5,-14],[8,-17],[-21,-32],[7,-22],[-4,-23],[-19,-41],[-47,-41],[-4,-22],[29,-7],[15,-9],[16,-21],[-9,-19],[-13,-6],[-30,-26],[-19,-11],[-11,-22],[4,-21],[-8,-27],[-25,-8],[-10,-25],[-21,6],[-2,8],[-28,0],[-13,-6],[-15,4],[-17,-10],[-7,-25],[-46,-25],[-48,-4],[-17,17],[-9,-10],[-32,-79],[26,-30],[-1,-45]],[[3724,3992],[-37,22],[-27,25],[-49,-27],[-18,2],[-18,-29],[-28,-16],[-36,15],[-11,-1],[-43,-47],[-54,-3],[-21,11],[-19,-9],[-17,8],[-26,-20],[-23,2],[-208,13],[20,93],[-6,13],[-58,46],[-12,-15],[-17,-3],[-21,-14],[-5,-12],[-10,8],[-12,-6],[-31,-1],[-17,8],[-30,5],[-5,-11],[-22,7],[4,15],[11,2],[-18,11],[-9,21],[-13,8],[-3,16],[-21,2],[9,18],[-29,2],[-6,-7],[-18,7],[-17,-11],[-27,3],[7,10],[-18,13],[-21,5],[-22,-26],[-17,-9]],[[2655,4136],[0,12],[-30,8],[-10,-19],[-29,12],[-3,10],[-20,2]],[[2563,4161],[-6,9],[6,16],[35,31],[14,-1],[-8,19],[23,9],[17,21],[10,-1],[8,27],[-6,25],[15,25],[-19,8],[10,39],[-2,19],[-11,13],[14,40],[33,24],[25,37],[25,10],[8,21],[-5,5],[-78,-8],[-22,19],[-4,12],[11,10],[1,19],[-31,5],[4,8],[-29,16],[19,-3],[4,7],[-17,23],[13,16],[-14,10],[-4,23],[11,19],[-25,3],[-10,19],[-47,15],[-35,41],[10,2],[12,-16],[45,-7],[20,11],[6,35],[0,30],[8,-6],[-5,-40],[9,-12],[30,-7],[23,20],[23,14],[-12,22],[17,6],[11,23],[-4,15]],[[2689,4901],[19,-2],[18,-13],[0,-11],[15,11],[9,19],[8,-8],[51,3],[20,-14],[19,-1],[35,8],[64,-16],[61,6],[101,-4],[7,29],[111,-5],[-1,-16],[85,-7],[15,-7],[22,-54],[29,-49],[36,-25],[29,0],[50,33],[32,15],[109,20],[11,21],[46,15],[24,-11],[4,7],[21,1],[3,13],[38,-12],[1,14],[14,4],[8,-10],[37,-3],[7,16],[20,6],[19,-3],[11,15],[8,-8],[40,23],[18,-1],[10,19],[-3,21],[12,21],[2,49],[37,-32],[10,-35],[8,-10]],[[4039,4933],[42,-29],[15,-4],[10,17],[16,-4],[19,17],[11,-6],[6,11],[19,-2],[15,19],[35,6],[25,21],[1,13],[-13,10],[17,3],[17,-9],[18,15],[12,-3]],[[3724,3992],[13,-51],[16,-10],[3,-15],[12,-1],[3,-16],[13,-13],[26,-48],[31,-2],[18,-14],[-9,-20],[23,-9],[0,-9],[47,-13],[22,-29],[14,-2],[29,-29],[7,-20],[11,-6],[-1,-19],[9,-9],[14,5],[35,-36],[37,-8],[24,-30],[24,-13],[21,-21],[-5,-17],[22,-21],[-7,-8],[23,-28],[-2,-16],[30,-29]],[[4227,3435],[1,-27],[12,-11],[13,6],[20,-16],[-6,-44],[-20,-6],[-119,-2],[-258,1],[-46,9]],[[3824,3345],[-45,2],[-28,-7],[-41,-20],[-35,3],[-34,-2],[-33,-17],[-31,-26],[-27,6],[-25,-23],[0,-16],[-23,-21],[-30,-6],[-5,-8],[-32,4],[-40,-15],[-37,0],[-36,23],[-43,14],[-31,-3],[-31,8],[-53,-2],[-48,-21],[-21,-4],[-23,-17],[-52,-27],[-38,-15],[1,-11],[-15,-7],[-27,-31],[-18,-13],[-20,-29]],[[2903,3064],[-18,6],[18,21],[-24,29],[21,30],[-6,21],[9,-3],[2,20],[11,12],[-11,15],[-2,58],[-13,42]],[[2890,3315],[13,3],[12,14],[25,16],[-5,38],[11,46],[20,22],[-2,13],[23,9],[11,14],[-8,5],[3,20],[20,41],[-8,9],[11,11],[-11,15],[-37,18],[-16,1],[-25,21],[24,29],[-14,20],[1,21],[38,0],[13,9],[-7,7],[11,24],[13,8],[-2,16],[-9,-8],[-9,20],[22,10],[21,32],[3,34],[-9,6],[-27,-1],[-153,26],[7,13],[-41,37],[-18,41],[-14,18],[-38,19],[-13,36],[-32,19],[-12,-12],[-25,9],[-9,15],[6,15],[-16,20],[17,22]],[[2890,3315],[-55,-6],[-173,-3],[-98,5],[-65,-10],[-39,-18],[-34,-33],[-32,-17],[-29,-27],[-6,-20],[10,-19],[-14,-35],[-66,-39],[-49,-20],[-65,-12],[-83,5],[-77,20]],[[2015,3086],[-8,36],[3,88],[-3,60],[3,36],[-5,41],[0,40],[15,16],[20,5],[28,17],[-5,6],[29,40],[15,15],[1,23],[36,30],[10,0],[14,16],[50,2],[18,19],[9,-6],[36,33],[2,12],[16,0],[34,14],[16,0],[4,-11],[34,2],[24,14],[24,2],[30,14],[-14,36],[15,50],[-9,22],[17,34],[1,20],[10,20],[2,32],[-25,109],[-6,71],[3,66],[5,14]],[[2464,4124],[32,-10],[-3,-11],[30,-8],[13,28],[11,-3],[24,19],[-8,22]],[[6129,3801],[9,-28],[35,-35],[-3,-14],[8,-20],[-6,-8],[17,-9],[3,-11],[32,-15],[27,-4],[34,-24],[2,-16],[37,-23]],[[6324,3594],[-36,-46],[-22,-34],[1,-12],[-34,-46],[-9,-35],[0,-15],[14,-11],[-13,-26],[7,-14],[45,-21]],[[6277,3334],[-63,-19],[-64,-51],[-30,-32],[-66,-64],[-29,-15],[-93,-61],[-22,-21],[-67,-44],[-23,-117],[-20,-70],[-24,-27],[-83,-71],[-41,-42],[-38,-46],[-14,-12],[-27,-12]],[[5573,2630],[-83,34],[-20,14],[-23,30],[6,8],[-17,11],[-14,19],[-19,6],[-9,19],[5,13],[-5,20],[14,0],[-17,17],[12,0],[-31,34]],[[5372,2855],[-10,6],[14,16],[-28,19],[20,27],[-8,13],[7,9],[-17,6],[-21,-12],[-31,-3],[-5,22],[9,30],[-9,29],[-11,16],[5,15],[24,12],[4,31],[-8,16],[4,30],[-10,27],[-17,21],[-7,16],[-19,10],[-8,17]],[[5250,3228],[16,4],[-1,36],[10,6],[9,45],[23,35],[65,82],[27,-3],[2,-8],[22,16],[6,16],[12,5],[15,20],[23,15],[10,28],[10,14],[29,4],[4,9],[32,2],[-5,11],[13,11],[-47,28],[-15,5],[10,22],[1,37],[-7,34],[2,25],[30,37],[9,27],[-3,19]],[[5552,3810],[17,9],[28,-5],[36,-29],[27,-16],[9,-12],[25,2],[16,12],[10,48],[33,-17],[62,-3],[59,2],[28,-9],[126,-12],[31,10],[70,11]],[[5552,3810],[-12,14],[0,36],[8,24],[31,53],[-8,17],[6,22],[-11,48],[-17,26],[7,17],[0,30],[8,9],[30,-3],[14,9],[5,32],[20,15],[-1,28],[-13,14],[1,24],[-10,27],[5,64],[-19,19],[5,16],[-13,7],[10,31],[-2,13],[11,25],[4,35],[12,14],[-21,36],[-31,17],[3,32],[-18,38],[12,10],[-19,10],[6,11],[-21,25],[-7,67],[-15,34],[10,27],[-3,27],[51,43],[-30,23],[-44,25],[-35,23]],[[5461,4924],[83,50],[35,8],[52,0],[33,12],[43,30],[53,24],[39,11],[45,9]],[[5844,5068],[26,-38],[38,-18],[52,-7],[13,-12],[-8,-18],[32,-8],[28,20],[31,-4],[16,-14],[1,-23],[-20,-49]],[[6053,4897],[-29,-42],[-23,-13],[4,-24],[17,-22],[20,-5],[5,-13],[29,-6],[10,-9],[7,-35],[21,-9],[20,3],[7,-14],[29,-7],[9,-25],[-8,-17],[22,-29],[39,-6],[9,-19],[-3,-25],[-15,-14],[-47,-33],[-24,-23],[-6,-32],[-37,-57],[-2,-54],[-31,-21],[-11,-13],[-3,-18],[10,-23],[27,-24],[23,-40],[23,-57],[26,-97],[7,-109],[-3,-68],[-8,-34],[-16,-30],[-22,-32]],[[5250,3228],[-20,1],[-4,8],[-32,0],[-16,21],[-23,4],[-24,21],[5,35],[-10,4],[-8,31],[-36,29],[-15,0],[-16,17],[-14,-17],[-31,12],[-5,-7],[-17,22],[-8,42],[-18,22],[-12,3],[-10,22],[-40,-18],[3,-8],[-19,-2],[-14,11],[2,11],[-28,35],[-5,16],[24,30],[-7,5],[18,31],[-30,27],[1,22],[-40,23],[-20,3],[-5,15],[-13,4],[-34,25],[-20,21],[-14,1],[-11,31],[16,16],[-8,8],[19,14],[-4,15],[24,23],[-2,11],[23,25],[-10,10],[3,16],[-12,54],[10,23],[13,8],[-3,17],[-13,6],[-3,22],[10,24],[15,11],[21,1],[5,14],[12,1],[18,24],[-7,31],[22,13],[-2,17],[14,2],[11,17],[15,4],[8,17],[-8,3],[8,18],[11,2],[-7,13],[34,59],[13,-1],[7,23],[11,-2],[10,17],[38,30],[21,3],[-3,18],[12,6],[-7,10],[16,7],[10,39],[13,15],[-1,19],[-14,42],[-7,60],[5,15],[-23,22],[-1,40],[27,28],[2,15]],[[5046,4726],[42,46],[37,26],[13,16],[15,35],[28,12],[97,-9],[21,1],[60,19],[102,52]],[[4304,5008],[17,13],[49,0],[40,12],[34,-14],[36,2],[21,11],[1,66],[13,8],[5,23],[14,6],[-1,36],[-36,34],[-1,30],[8,19],[3,27],[20,4],[15,11],[61,11],[12,15],[21,11],[24,21],[14,5],[7,14],[1,69],[8,15],[-7,45],[-15,4],[31,31],[18,11],[18,36],[22,11],[-9,20],[7,19],[-7,44],[20,33],[-12,17],[-20,5],[-18,35],[19,15],[2,15],[18,10],[3,18],[-15,28],[-18,7],[-9,33],[2,19],[-15,20],[-18,8],[-17,21],[-13,28],[10,22],[-6,12],[-32,20],[-16,51],[41,27],[1,31],[-19,25],[9,10],[-10,14],[3,37],[-21,13],[-18,-7],[-11,39],[5,10],[-1,37]],[[4592,6331],[23,3],[14,-17],[48,-11],[9,-11],[27,4],[16,-14],[39,-17],[11,-24],[-3,-16],[8,-47],[9,-19],[3,-25],[21,-20],[33,-16],[5,-17],[49,4],[39,-17],[1,-12],[26,1],[12,11],[23,9]],[[5005,6080],[42,23],[48,57],[7,24],[43,5],[29,-3],[40,-12],[-2,28],[11,-5],[10,-24],[10,1],[31,-47],[47,-16],[20,-21],[24,-17],[-5,-12],[9,-20],[12,-10],[12,-28],[28,-18],[24,-32],[0,-39],[42,-29],[32,-10],[28,-16],[43,-33],[-12,-19],[-10,-30],[7,-13],[31,-20],[19,-8],[67,-5]],[[5692,5731],[-4,-10],[12,-28],[35,-12],[10,-16],[22,-8],[15,4],[30,-8],[52,6],[53,18],[42,10],[21,-1],[25,-12],[20,-51],[-26,-42],[-17,-7],[-3,-15],[-23,-2],[-28,-28],[-4,-25],[9,-45],[37,-33],[0,-10],[-17,-3],[-1,-22],[-15,-26],[3,-12],[-40,-20],[-26,-30],[-22,-5],[9,-22],[-35,-71],[-21,-24],[-9,-27],[1,-26],[26,-43],[21,-17]],[[5046,4726],[-25,15],[-19,18],[-35,44],[-44,11],[-82,2],[-76,14],[-20,9],[-21,28],[-35,26],[-76,18],[-16,-7]],[[4597,4904],[-25,7],[-18,30],[-44,1],[-5,10],[-27,1],[-25,-6],[-48,24],[-1,7],[-25,14],[-3,-7],[-36,6]],[[4339,6323],[-57,-206],[-41,-32],[-47,-1],[7,-11],[-4,-27],[10,-8],[-16,-36],[-2,-45],[-26,-25],[-62,-34],[-23,-71],[-9,-34],[-16,6],[-26,-6],[-19,5],[-6,-8],[-22,10],[-49,-13],[-13,2],[-14,19],[-56,-5]],[[3848,5803],[-4,7],[-17,-20],[-43,-13],[-55,8],[-66,22],[-15,-16],[-2,-22],[16,-11],[-4,-24],[-116,-19],[-118,-16],[-81,-19],[-44,-5],[-89,-3],[-151,-23],[-38,-1]],[[3021,5648],[6,15],[-7,30],[-16,30],[-12,6],[-16,43],[-15,-3],[-15,22],[-10,-7],[-8,14],[26,9],[23,25],[7,24],[-9,37],[26,29],[-7,24],[-10,3],[-14,41],[-11,5],[-24,-2],[-10,6],[-22,55],[5,21],[16,29],[-20,33]],[[2904,6137],[-5,30],[-38,1],[-6,11],[10,36]],[[2865,6215],[18,3],[51,-6],[36,27]],[[2970,6239],[31,-7],[23,26],[25,-28],[30,0],[15,20],[17,4],[15,-8],[1,-15],[-18,-14],[8,-20],[32,-2],[27,-7],[35,8],[26,18],[2,20],[27,17],[26,3],[23,15],[24,-1],[4,-12],[29,-18],[15,12],[18,-1],[16,17],[20,6],[23,-2],[6,-22],[16,-5],[24,15],[23,4],[5,-30],[54,9],[29,0],[21,29],[8,3],[33,-10],[14,13],[18,-12],[38,21],[19,-9],[29,1],[18,8],[4,16],[25,6],[15,19],[19,-7],[11,4],[16,-15],[42,0],[44,16],[27,-3],[16,-9],[4,9],[20,-1],[0,13],[28,-10],[13,19],[58,-15],[5,-7],[37,-8],[16,16],[23,9],[60,1],[37,-15]],[[862,4003],[145,2],[211,-68],[27,-26],[3,-50],[-11,-54],[9,-15],[21,-8],[3,16],[23,17],[-7,7],[15,39],[20,15],[34,3],[15,8],[-7,13],[5,24],[15,5],[-6,12],[18,-2],[6,17],[19,3],[26,13],[3,-13],[12,3],[13,-11],[-1,13],[50,9],[15,15],[39,4],[15,15],[7,20]],[[1599,4029],[30,-6],[-1,-9],[24,-7],[21,-36],[71,-52],[10,-18],[79,-84],[17,-12],[128,42]],[[1978,3847],[-12,-43],[-5,-40],[-35,-22],[-15,10],[4,-17],[-12,4],[-20,-11],[-2,-27],[-22,-15],[-25,1],[2,-15],[-12,-16],[-12,5],[0,-31],[12,-28],[42,-26],[14,-4],[5,-29],[-31,-23],[-3,-18],[-12,-4],[-30,-25],[-5,-13],[9,-21],[-24,-27],[-3,-12],[-40,4],[-32,-14],[9,-19],[-51,-41],[7,-8],[-27,-26],[-17,-2],[-18,-12],[1,-8],[-28,6],[-16,-6],[-42,9],[-40,-33],[7,-29],[-14,-13]],[[1485,3208],[-37,4],[-7,-6],[-24,3],[-17,11],[-53,10],[-13,-5],[0,23],[-33,8],[-26,30],[-26,-17],[-2,10],[-43,-7],[-2,-17],[-34,17],[-36,-9],[-19,17],[-39,17],[-18,3],[-1,-12],[-30,1],[-12,8],[-15,-9],[-21,-1],[-17,11],[4,15],[-23,6],[-11,-10],[-36,13],[-17,11],[-18,-15],[1,-12],[-47,0],[2,13],[-26,3],[-34,13],[-8,10],[-20,-6],[-24,-16],[4,-6],[-25,-12],[-15,17],[-4,-7],[-41,4],[-21,-4],[-32,-14],[-25,3],[-11,-6],[-46,8],[-12,7],[-30,-13],[-11,14],[-13,0],[-64,-16],[-5,-24],[-37,-25],[-29,7],[-33,-26],[-26,10]],[[227,3240],[-29,33],[15,32],[13,38],[-23,16],[2,16],[-10,28],[-1,21],[19,3],[13,16],[25,4],[12,32],[-1,26],[19,24],[37,21],[8,17],[15,3],[1,32],[-76,31],[-3,32],[7,22],[20,4],[45,-8],[-4,50],[6,9],[37,18],[20,14],[27,9],[11,14],[11,59],[2,48],[9,29],[28,51],[19,23],[42,31],[32,16]],[[575,4054],[18,-34],[19,-15],[17,-5],[233,3]],[[2904,6137],[-18,-8],[-13,-19],[-14,-37],[-17,-11],[-45,-2],[-90,-50],[-26,-20],[-33,-35],[2,-26],[-5,-12],[-27,-22],[-24,-12],[-9,-15],[-16,-10],[-18,16],[-11,1],[-6,15],[-30,17],[-27,-6],[-18,17],[-40,2],[-16,18],[-83,-57],[-35,-23],[-12,-18],[-24,-12],[-5,-37],[3,-34],[-67,-6],[-172,-37],[-50,-5],[-11,-5],[-2,18],[-16,-3],[-19,9],[-44,0],[-19,-25],[-21,-5],[-19,15],[-24,-1],[-8,15],[-36,7],[-5,7],[-26,-4],[8,16],[-10,6],[-19,-3],[-21,5],[-24,-6],[-13,22],[-22,4],[-42,-5],[-20,8],[-21,-9],[-19,6],[-10,-14],[-61,-19],[-5,-15],[-33,-3],[-54,2]],[[1342,5732],[15,20],[-19,27],[-22,11],[19,22],[3,19],[-22,0],[-15,11],[-10,29],[18,25],[36,29],[-3,17],[9,14],[23,-9],[21,0],[5,28],[9,3],[22,-19],[34,-11],[18,2],[5,21],[28,6],[26,12],[25,-6],[35,23],[10,29],[-12,15],[20,17],[32,5],[9,26],[-14,20],[7,14],[28,-5],[14,23],[6,21],[-16,31],[21,11],[24,-5],[18,-36],[8,0],[20,32],[-25,34],[1,7]],[[1753,6245],[14,5],[-1,14],[51,-33],[-2,-10],[13,-20],[10,-1],[12,20],[39,-13],[8,-9],[38,-8],[31,16],[-7,22],[9,12],[18,-3],[14,14],[10,-8],[21,1],[34,-12],[10,-12],[22,-2],[8,13],[34,-11],[10,5],[22,-10],[10,16],[24,6],[-13,14],[31,15],[22,2],[15,19],[-9,28],[10,14],[24,-2],[17,30],[31,-7],[10,7],[31,5],[1,12],[-20,10],[7,16],[42,7],[1,-26],[37,13],[24,-2],[22,16],[16,2],[13,-13],[21,-3],[2,-24],[15,-29],[43,-15],[28,6],[14,-9],[-11,-22],[11,-6],[18,6],[33,-12],[10,-20],[36,-3],[14,-10],[20,-3],[22,-20],[30,0],[20,-16],[22,-2]],[[575,4054],[68,33],[8,20],[-9,17],[-38,55],[-13,27],[-7,35],[10,41],[1,23],[-18,23],[-56,31],[-42,34],[-11,12],[-5,39],[29,30],[91,44],[10,12],[-2,20],[-55,36],[-15,19],[5,12],[29,8],[5,12],[-7,26],[13,20],[50,58],[2,21],[15,31],[4,23],[-8,8],[-18,-25],[-23,1],[-27,49],[-2,22],[8,6],[30,1],[62,15],[50,5],[49,-8],[9,8],[13,35],[9,39],[15,23],[-51,14],[-23,0],[-9,19],[28,28],[38,50],[72,73],[44,25],[17,24],[19,17],[21,29],[12,31],[14,19],[41,-19],[19,1],[11,16],[1,34],[51,70],[16,6],[30,-1],[40,8],[9,6]],[[1204,5445],[18,-2],[0,-14],[29,5],[-3,-7],[37,-25],[22,-9],[10,-17],[15,-4],[-1,-12],[22,-13],[15,7],[36,-17],[2,-10]],[[1406,5327],[-30,-29],[-13,-36],[17,-45],[-3,-20],[-15,-15],[-2,-20],[-13,-18],[-7,-42],[6,-41],[-28,-15],[-6,-12],[4,-41],[-16,-26],[3,-22],[-28,-39],[-30,-60],[-12,-33],[-29,-57],[-32,-28],[14,-22],[21,-9],[-13,-32],[36,-21],[20,-21],[8,3],[21,-18],[-9,-12],[-51,-30],[-34,-52],[-8,-3],[-26,-46],[3,-16],[-18,-19],[-27,-5],[-25,-15],[17,-3],[32,-26],[28,0],[72,-10],[11,-22],[4,-28],[9,-13],[-29,-26],[-157,-115],[-17,-18],[-69,-45],[-19,-17],[-61,-39],[-38,-36],[-5,-9]],[[2464,4124],[-23,7],[-44,3],[-19,-9],[-16,3],[-41,-18],[-5,-13],[-19,-11],[-27,-3],[-18,-27],[-52,-30],[-27,-12],[-26,-1],[-6,-34],[23,-7],[1,-25],[-25,-10],[2,-23],[-19,3],[-15,-8],[-8,-21],[-37,1],[-9,-28],[-40,-8],[-23,-16],[-13,10]],[[1599,4029],[17,23],[22,7],[12,16],[-2,22],[7,13],[21,10],[17,54],[-5,18],[15,39],[-27,11],[-9,15],[-27,5],[-7,17],[13,9],[38,75],[23,15],[14,39],[17,12],[7,17],[17,19],[10,-3],[11,18],[-1,14],[12,14],[10,-2],[27,28],[7,17],[-26,58],[14,13],[-13,12],[7,17],[-5,52],[-29,28],[20,52],[32,41],[-17,27],[9,40],[26,16],[36,34],[30,55],[-10,12],[-14,40],[-14,18],[-7,48]],[[1877,5114],[35,12],[11,-16],[26,-13],[19,1],[3,-18],[15,-6],[24,3],[21,10],[26,-8],[15,6],[22,-9],[30,8],[9,-8],[27,4],[6,20],[21,3],[16,-15],[14,5],[29,-3],[0,14],[36,-15],[16,5],[15,-5],[7,15],[22,-5]],[[2342,5099],[14,-14],[29,-18],[62,-11],[58,-4],[41,-10],[16,2],[29,-6],[50,-21],[24,-25],[-1,-22],[21,-36],[4,-33]],[[2342,5099],[5,16],[22,22],[-9,21],[17,13],[-10,5],[-1,17],[12,7],[1,21],[17,24],[8,-4],[15,19],[25,14],[18,1],[28,13],[16,-5],[31,31],[22,9],[38,-11],[36,7],[24,15],[49,-2],[35,-16],[17,19],[25,-5],[14,18],[4,65],[5,24],[9,15],[56,31],[71,30],[17,20],[31,15],[11,45],[-8,17],[12,22],[16,16]],[[3848,5803],[3,-27],[-8,-18],[10,-18],[40,-18],[0,-21],[6,-21],[-7,-12],[-2,-28],[-33,-26],[-3,-21],[-25,-46],[1,-59],[19,-19],[11,-29],[15,-11],[7,-27],[0,-31],[-7,1],[-23,-19],[-22,-1],[-25,-15],[-15,3],[22,-24],[15,-6],[28,-59],[19,-25],[-3,-8],[17,-21],[23,-6],[19,10],[41,-2],[23,-34],[8,-34],[10,-25],[25,-5],[19,6],[16,-5],[18,7],[77,-6],[13,-13],[-49,-65],[-5,-34],[-13,-12],[-57,-33],[-17,-13]],[[4597,4904],[4,-29],[-2,-50],[10,-12],[-9,-18],[-45,-29],[-28,-22],[6,-30],[-15,-15],[-17,-30],[3,-11],[-18,-20],[-24,-3],[-5,-7],[8,-22],[-14,-21],[2,-25],[9,-9],[7,-36],[-11,-39],[35,-36],[-22,-23],[11,-25],[11,-37],[23,-5],[12,-10],[-2,-17],[-15,-36],[-8,-30],[4,-33],[-14,-4],[-7,-34],[8,-11],[9,-32],[-2,-20],[22,-19],[0,-13],[-17,-27],[9,-16],[-10,-12],[14,-30],[1,-24],[-12,0],[1,-17],[-11,-22],[-13,-1],[-24,-16],[-14,-1],[-19,-13],[-25,-4],[-1,-9],[-37,-18],[-5,-16],[12,0],[8,-24],[-12,-5],[2,-20],[13,2],[17,-10],[9,-20],[-2,-22],[9,-4],[-1,-18],[11,-4],[9,-29],[-17,3],[1,-38],[-14,-8],[-22,12],[-19,-18],[-20,0],[-15,-25],[-10,-4],[-12,-22],[-17,-3],[4,-16],[-11,-20],[1,-31],[-12,-19],[-33,-20],[4,-9]],[[4243,3493],[6,-21],[-16,-9],[-6,-28]],[[5372,2855],[-54,6],[-18,7],[-28,-1],[-28,14],[-29,2],[-29,10],[-26,17],[-20,23],[-34,18],[-25,28],[-26,17],[-34,13],[-12,11],[-38,2],[-26,6],[-46,53],[-43,31],[-1,16],[-37,42],[3,23],[-63,62],[-8,31],[4,30],[-26,11],[-17,17],[-3,13],[-20,-3],[-33,31],[-32,7],[-39,0]],[[4584,3392],[-18,11],[-29,7],[-52,45],[-69,52],[-40,27],[-21,-33],[16,-8],[-19,-49],[-20,9],[-49,11],[-16,16],[-24,13]],[[1877,5114],[-5,11],[-9,-13],[-36,6],[-17,10],[-24,-1],[-10,-9],[-53,21],[-31,26],[-12,-13],[-7,6],[-19,-6],[-20,11],[-16,-15],[-28,2],[-26,17],[1,19],[-19,1],[-2,20],[-10,0],[-9,22],[11,6],[-22,3],[-5,8],[-27,-3],[-6,11],[-19,-6],[-16,6],[3,26],[-28,40],[-10,7]],[[1204,5445],[35,33],[-6,11],[-20,12],[5,13],[39,5],[12,17],[54,1],[20,5],[-15,61],[-2,50],[-28,21],[-6,20],[8,17],[42,21]],[[2015,3086],[-30,6],[-129,35],[-68,17],[-26,9],[-47,23],[-61,23],[-24,4],[-43,-12],[-31,-1],[-35,12],[-36,6]],[[4339,6323],[15,14],[19,-10],[-5,25],[25,6],[9,-14],[23,-1],[22,26],[13,32],[36,-8],[39,3]],[[4535,6396],[26,-29],[22,-4],[-5,-13],[14,-19]],[[9278,8708],[-76,8],[-24,-9],[-23,17],[-87,4],[-11,5],[-35,47],[-31,18],[-39,2],[-75,0],[-149,-9],[-13,-11],[-63,-70],[-21,-15],[-85,-46]],[[8546,8649],[-36,16],[-22,-2],[-16,11],[-11,29],[0,20],[-41,20],[-22,-4],[-17,6],[-128,128],[-74,41],[-8,13],[-18,54],[-12,20],[-9,44],[-10,-13],[0,-29],[-36,-51],[-22,2],[0,-20],[-19,-16],[-17,0],[-21,-15],[-41,5],[-26,12],[-51,-40],[-7,-13],[-15,11],[-15,-29],[-16,-2],[-6,-21],[4,-17],[-7,-23],[-11,-15],[-17,-2],[-1,-20],[-11,-7],[-11,-36],[-26,-14],[5,-23],[-25,-9],[-22,3],[-43,-30],[-3,-14],[-16,-3],[-4,-25],[-14,0],[-21,-10],[-3,-16],[-27,1],[-14,7],[-46,-20],[-22,-4],[-8,6],[-18,47],[-7,48],[-60,90],[-54,57],[0,8],[33,24],[6,11],[-72,37],[-40,-24],[-27,0],[-16,21],[-14,3],[-46,-7],[-18,-12],[-32,1],[-18,-4],[-14,45],[-7,91]],[[7083,8991],[15,5],[31,-3],[22,19],[22,-1],[3,10],[32,13],[4,18],[11,-2],[2,26],[-10,7],[9,12],[-8,7],[13,20],[-9,29],[12,11],[22,-1],[-8,10],[24,26],[-2,14],[28,4],[0,9],[-22,9],[5,10],[-27,25],[-2,25],[14,6],[0,26],[12,16],[47,7],[19,7],[-1,19],[19,-6],[31,16],[18,15],[31,-5],[9,15],[41,23],[10,23],[32,16],[6,-10],[39,10],[23,16],[3,-10],[34,28],[23,-2],[-5,32],[12,11],[28,42],[-7,16],[17,11],[15,-6],[33,3],[47,12],[7,-8],[20,-1],[19,-20],[24,-4],[12,6],[23,-2],[24,-14],[70,2],[-4,14],[26,8],[5,13],[22,13],[8,-6],[22,13],[81,28],[14,2],[18,22],[27,-3],[27,12],[14,24],[-2,12],[29,3],[-10,32],[16,8],[29,-9],[55,27],[2,10],[55,24],[7,43],[-28,9],[-13,24],[-23,1],[4,24],[-6,9],[12,7],[7,23],[17,17],[23,12],[16,-23],[21,-5],[2,-12],[39,-14],[5,-7],[67,-38],[19,-5],[28,-17],[5,-18],[18,23],[-11,18],[57,14],[29,14],[70,-42],[75,-35],[70,-63],[55,-57],[201,-191],[43,-20],[51,-45],[19,-27],[11,-80],[-1,-47],[-6,-53],[-16,-81],[-10,-35],[-12,-57],[-9,-28],[-26,-95],[-4,-71],[2,-33],[-5,-31],[19,-69],[21,-49],[2,-12]],[[9278,8708],[19,-35],[38,-35],[28,-64],[10,-17],[25,-67],[0,-14],[16,-31],[44,-56],[13,-35],[4,-57],[-3,-55],[12,-22],[42,-40],[40,-53],[14,-62],[17,-39],[25,-35],[-4,-34],[24,-43],[13,-37],[17,-32],[14,-34],[-6,-7],[-22,5],[-3,-18],[10,-12]],[[9665,7779],[-21,-3],[-28,4],[-20,15],[-27,33],[-24,3],[-45,-16],[-38,-26],[-9,-17],[5,-19],[-36,10],[-61,-3],[-29,5],[-2,-19],[-13,-13],[-20,4],[-1,10],[21,22],[17,25],[7,34],[-20,41],[-14,5],[-23,-12],[-26,-23],[-6,-31],[-35,-17],[-35,4],[-18,-6],[21,-29],[-22,-21],[-40,28],[-23,6],[-10,-11],[-34,-7],[-51,24],[-10,-16],[-24,-7],[-61,-25],[-32,7],[-38,-15],[-16,-12],[-16,9],[-12,29],[-143,46],[-20,10],[-56,16]],[[8577,7821],[-32,10],[-29,31],[-35,10],[-15,16],[-31,14],[-7,19],[-21,14],[-28,37],[5,10],[28,17],[31,-1],[24,-8],[76,39],[55,8],[11,36],[28,21],[28,-5],[-13,16],[-35,11],[-20,0],[-7,13],[-33,-8],[-34,5],[-2,16],[-25,15],[0,13],[-23,11],[-20,2],[-6,22],[-21,19],[-22,43],[-14,52],[19,32],[38,19],[83,53],[18,26],[4,27],[1,117],[-2,11],[12,25],[-17,20]],[[8577,7821],[-35,-14],[-87,-50],[-66,-31],[-25,-23],[-21,-42],[-54,-66],[-45,-28],[-76,-26],[-51,-14],[-49,-2],[-11,10],[6,29],[-15,10],[-36,5],[-19,-6],[-49,-30],[-40,3],[-30,-5],[-171,-34],[-206,-29],[-58,-11],[-33,-2],[-16,-10],[-26,-6],[-63,-1],[-20,6]],[[7281,7454],[-73,21],[-93,-3],[-126,7],[-146,-1],[-103,9],[-29,-5],[-37,5],[-8,17],[-29,-12],[-33,3],[-14,13],[-13,-2],[-16,-23],[-47,3],[-43,9],[-26,12],[-16,-14],[-19,-7],[-39,4],[-22,18],[-38,5],[-29,17],[-29,-22],[-96,6]],[[6157,7514],[4,27],[-5,20],[-17,20],[11,25],[-6,24],[11,43],[18,34],[14,48],[9,92],[-14,28],[11,27],[-5,16],[12,10],[-20,11],[1,12],[13,33],[25,9],[50,39],[11,29],[-12,2],[-1,14],[35,34],[7,29],[-19,18],[16,2],[7,11],[-6,27],[14,4],[-9,23],[-13,6],[32,40],[-23,16],[-18,-1],[0,14],[-41,-10],[-62,10],[-17,11],[-19,0],[-11,-10],[-16,3],[2,10],[-26,11],[-8,12],[-16,1],[-23,19],[-15,-1],[-20,33],[-32,0],[-19,-29],[-17,2],[-8,-16],[-20,-14],[-34,3],[-27,-21],[-39,2],[-31,-18],[-17,3],[-12,26],[-10,7],[-25,36],[-11,34],[-5,39],[-18,40],[-6,32],[-12,25],[-29,34],[-63,57],[-64,74],[-31,20],[-47,1],[-34,17],[4,32],[24,27],[-23,21],[127,4],[84,24],[100,16],[45,-4],[105,-30],[20,-16],[41,-86],[9,-10],[51,-25],[70,-3],[61,-20],[33,3],[53,32],[47,47],[16,29],[19,63],[19,47],[31,40],[32,2],[54,-23],[3,-13],[32,-20],[19,-6],[36,1],[27,9],[46,29],[51,-9],[54,4],[62,-16],[16,9],[21,-9],[32,13],[9,9],[18,0],[6,15],[22,-1],[10,24],[46,2],[18,14],[0,15],[28,8],[28,-5],[13,4],[24,-6],[33,7]],[[9665,7779],[24,-49],[4,-43],[19,-33],[50,-60],[35,-36],[51,-10],[36,-2],[53,-14],[62,-25],[-21,-20],[-1,-17],[-34,-27],[-36,6],[-27,11],[-16,-4],[-20,13],[-8,-9],[-62,4],[-16,5],[-32,-7],[-15,-13],[-11,-29],[9,-4],[-26,-22],[-8,-19],[-12,-4],[-13,-21],[0,-18],[-24,-3],[-4,-24],[5,-20],[-6,-28],[-12,-20],[-28,-18],[-14,3],[-37,-33],[1,-18],[-23,-6],[-13,-47],[1,-39],[-17,-18],[-21,-7],[-4,-10],[-3,-40],[11,-60],[-28,-51],[-41,-52],[-26,-28],[-43,-38],[-22,-35],[-57,-49],[-45,-22],[-30,-30],[-12,-29],[-20,-73],[-27,-68],[3,-32],[10,-34],[3,-49],[9,-35],[20,-36],[36,-50],[3,-18],[19,-26]],[[9214,6189],[-66,-2],[-44,7],[-12,-18],[-24,4],[-28,-4],[-21,10],[-33,-3],[-10,11],[-19,-3],[11,20],[1,25],[8,8],[-11,20],[-42,-9],[-47,-30],[-45,3],[-79,9],[-15,17],[10,27],[-9,27],[-10,-4],[-19,16],[-40,3],[-13,8],[-18,-4],[-7,11],[6,14],[-32,6],[0,10],[-22,3],[0,19],[-9,30],[-32,19],[-1,32],[-23,0],[-14,13],[-37,6],[1,-16],[-25,-4],[-13,-22],[-33,-20],[-59,-14],[-10,-23],[-38,-27],[-45,-10],[-22,-16],[-13,-18],[-20,-19],[-24,-7],[-32,12],[-85,1],[-25,-9],[-21,-31],[-20,-7],[-16,-17],[-48,2],[-23,11]],[[7897,6256],[-25,9],[-4,28],[-22,21],[-4,40]],[[7842,6354],[0,22],[-9,31],[-51,10],[-28,34],[-9,23],[-41,41],[-17,7],[-9,15],[-21,11],[9,19],[-25,26],[6,12],[-20,16],[-23,7],[-7,14],[9,5],[2,20],[-18,-4],[1,13],[14,16],[17,6],[0,19],[-19,39],[23,7],[3,28],[9,8],[32,-7],[14,4],[23,32],[16,3],[-8,25],[17,16],[15,5],[-9,42],[-31,18],[12,18],[-12,-1],[-17,13],[-30,1],[-17,7],[6,25],[0,24],[-38,4],[2,17],[-15,2],[9,23],[-33,15],[-23,1],[-24,23],[4,17],[13,12],[-2,10],[18,3],[-14,11],[-35,7],[-22,-1],[-5,17],[-35,20],[-6,33],[-22,10],[-28,-13],[-9,14],[-37,23],[9,24],[-21,22],[9,18],[-6,15],[-26,26],[1,27],[-34,36],[2,14]],[[7842,6354],[-77,10],[-53,-20],[-32,-27],[-24,-4],[-30,7],[-95,-36],[-17,-11],[-40,-9],[-50,9],[-47,12],[-21,8],[-58,-9],[-11,3],[-36,-3],[-20,3],[-59,-9],[-66,-1],[-8,-8],[-54,19],[-13,20],[-55,21],[-4,11],[-20,0],[-19,-20],[-22,-10],[-43,15],[-12,-10],[-29,7],[-22,-5],[-21,-12],[0,-8],[-28,-1],[-12,-10],[-23,3],[-1,-13],[-36,-30],[-16,-42],[-25,-23],[-40,-5],[-17,10],[-15,0],[-47,8],[-43,-13],[-19,0],[-17,-16],[-33,11],[-28,16],[-35,6],[-44,-12],[-9,14],[-19,6],[6,18],[-32,16],[3,9],[-22,35],[14,13],[-18,12]],[[6228,6309],[-130,27],[-41,23],[-12,23],[-4,44],[1,101],[22,141],[13,50],[-32,39],[-34,55],[84,32],[9,9],[15,-2],[14,9],[8,19],[3,32],[24,-8],[6,16],[20,-2],[9,15],[-6,9],[9,17],[-18,37],[7,6],[-1,20],[18,4],[1,35],[-18,10],[7,9],[-10,28],[15,23],[-16,15],[3,11],[25,6],[39,-5],[11,8],[36,4],[20,29],[16,-1],[74,20],[12,9],[4,-11],[51,-5],[19,-10],[7,6],[50,1],[0,52],[-25,14],[-12,-2],[-5,36],[-49,-5],[-14,27],[-50,28],[-16,-3],[-10,31],[-20,5],[-16,35],[-45,2],[-8,21],[-15,7],[8,15],[-45,-3],[-1,11],[-25,-2],[-9,-13],[-12,10],[2,17],[-15,20],[-19,4]],[[5692,5731],[16,9],[12,-7],[20,12],[32,-2],[23,9],[40,2],[16,11],[29,5],[7,10],[20,3],[17,17],[62,10],[13,9],[30,-1],[2,11],[31,9],[3,15],[-22,27],[-4,24],[20,23],[30,64],[36,72],[14,75],[10,2],[-4,40],[8,27],[31,13],[14,19],[5,18],[-9,17],[16,7],[6,22],[12,6]],[[7897,6256],[4,-25],[-11,-33],[17,-15],[12,3],[21,-64],[-16,-42],[-14,-25],[-26,-24],[20,-4],[-15,-14],[5,-28],[18,-24],[0,-13],[15,-8],[-3,-10],[15,-33],[-20,-24],[-7,-21],[-13,0],[7,-12],[-23,-9],[-22,-33],[-55,-31],[-8,-17],[-33,0],[-21,-6],[-38,0],[-8,-29],[-23,-12],[-14,-25],[-17,-5],[-1,-27],[20,-13],[3,-14],[15,-3],[22,-15],[-10,-16],[-1,-38],[15,-3],[-2,-18],[-13,-9],[8,-43],[-13,-9],[-3,-27],[8,-13],[-19,-24],[-2,-25],[-14,-15],[4,-12],[-11,-4],[2,-32],[-4,-13],[1,-35],[-8,-7]],[[7641,5258],[-25,-3],[-23,10],[4,18],[-30,31],[-13,34],[-41,14],[-29,30],[-37,-1],[-14,-8],[-13,6],[-45,-2],[-25,13],[-18,-1],[-22,-16],[-30,-8],[-13,1],[-51,28],[-28,4],[-23,-5]],[[7165,5403],[-26,-8],[-24,-18],[-43,-7],[-43,-1],[-14,11],[-41,9],[-39,-7],[-23,0],[-59,-53],[-42,42],[-24,-4],[-53,-31],[-29,-10],[-27,-18],[-38,-5],[-31,-12],[-46,14],[-31,5],[-22,-11],[-11,-14],[2,-23],[-16,-21],[-15,-5],[-12,-25],[-13,-13],[0,-44],[5,-6]],[[6450,5148],[-13,-10],[5,-46],[-20,-9],[-52,-49],[-70,-34],[-18,-22],[-30,-19],[-50,-39],[-20,-10],[-33,1],[-17,-6],[-22,7],[-34,-2],[-23,-13]],[[9214,6189],[34,-4],[62,-24],[51,-29],[17,-16],[40,-63],[27,-27],[16,-30],[2,-16],[-9,-50],[-25,-48],[-18,-25],[-71,-65],[-64,-35],[-17,-12],[-228,-261],[40,-51],[34,-27],[19,-30],[2,-18],[-8,-38],[-27,-40],[-28,-69],[-17,-22],[-52,-89],[-32,-27],[-4,-11],[-60,-60]],[[8898,5002],[-5,46],[-13,54],[-21,0],[-36,-17],[7,-14],[-26,-12],[-38,5],[-13,7],[-40,-3],[-41,-11],[-22,-30],[-30,6]],[[8620,5033],[-28,-1],[2,15],[-25,27],[-16,1],[1,11],[-16,14],[-35,5],[-6,-5],[-13,19],[-46,10],[-77,-2],[-49,27],[-50,40],[-67,32],[-30,20],[-23,8],[-60,8],[-32,11],[-43,-3],[-57,-16],[-26,4],[-14,9],[-7,15],[-21,17],[-37,19],[3,17],[-18,18],[-48,-5],[-19,-11],[-24,-48],[7,-26],[-14,-37],[-61,7],[-30,25]],[[8620,5033],[-5,-29],[-14,-18],[-5,-23],[-14,-5],[-19,-20],[-19,-2],[-3,-9],[-15,3],[-28,-3],[-4,-10],[-17,-1],[-18,-26],[6,-16],[-14,-21],[-58,-16],[3,-7],[-21,-16],[-20,-5],[-7,-29],[-23,-22],[15,-3],[-11,-28],[25,-32],[-3,-31],[-14,-15],[-13,8],[-18,-27],[-46,2],[-32,8],[-29,-1],[-103,-26],[-95,-28],[-59,-13],[-10,-11],[-6,-23],[39,-15],[1,-17],[-8,-13],[16,-48],[-12,-40],[-16,-16],[17,-29],[4,5],[24,-19],[17,2],[21,-18],[11,6],[2,-25],[-14,-22],[17,-15],[-18,-16],[-20,-8],[-39,-29],[-8,-21],[7,-11],[-11,-17],[5,-14],[-28,-22],[-8,-21],[-17,-9],[-17,-23],[11,-4],[-4,-29],[8,-16],[17,-17],[-12,-15],[-9,-61],[2,-9]],[[7904,3932],[-15,1],[-23,-12],[-37,-1],[-9,18],[-14,-1],[-25,-24],[-36,-12],[-6,14],[-15,-3],[-11,8],[-4,22],[-13,8],[1,17],[-12,1],[-12,29],[-1,24],[-25,23],[-27,2],[-4,-9],[-14,6],[16,30],[-1,10],[-26,15],[-15,-1],[-17,11],[-4,15],[-23,25],[2,27],[-12,16],[6,4],[5,28],[21,23],[-7,15],[18,2],[7,19],[-10,23],[15,32],[-32,27],[1,22],[-41,43],[3,38],[15,12],[24,37],[-60,77],[-21,38],[-10,27],[-17,24],[-55,32],[-32,10],[-7,56],[2,32],[-5,24],[-59,35],[-5,15],[-16,17],[-22,-15],[-24,-28],[-20,-7],[-6,17],[-17,15],[-11,26],[-13,13],[-8,21],[18,14],[9,22],[22,12],[-6,24],[9,8],[-3,27],[-21,15],[-17,4],[5,33],[23,56],[-2,27],[-14,53],[-9,7],[12,31],[-4,33],[-13,60],[18,25],[-3,7]],[[6324,3594],[46,48],[36,16],[40,-8],[26,27],[55,-8],[23,27],[-12,13],[11,19],[-1,16],[-16,13],[-3,19],[13,12],[-16,24],[6,11],[-9,41],[-8,12],[11,16],[-3,14],[18,16],[12,34],[-3,18],[-14,22],[8,34],[33,14],[9,17],[47,48],[7,17],[14,6],[20,21],[4,29],[35,21],[31,27],[23,42],[17,11]],[[6784,4283],[20,-32],[36,-80],[7,-42],[16,-31],[42,-12],[34,-2],[22,-7],[58,-47],[27,-14],[10,-32],[18,-17],[4,-31],[21,-22],[25,-35],[6,-16],[24,-11],[11,1],[11,15],[14,-8],[-2,-30],[8,1],[35,-46],[-3,-16],[13,0],[-3,-14],[25,-3],[39,-18],[20,-23],[24,-47],[21,-6],[5,-17],[19,-8],[66,-14],[60,-10],[18,12],[115,-8],[124,15]],[[7774,3628],[89,6],[35,0],[14,-9],[-1,-13],[-24,-45],[-23,-23],[-33,-50],[-10,-10],[-19,-41],[-47,-51],[-39,-11],[-32,-70],[-12,-16],[-7,-24],[16,-12],[10,-23],[16,-11],[2,-15],[16,-16],[26,-6],[2,-8],[32,-15],[-3,-9],[31,-16],[-3,-8],[22,-11],[16,-18]],[[7848,3103],[-64,-14],[-88,-46],[-36,-16],[-45,-26],[-34,-62],[-20,-43],[-6,-21],[7,-45]],[[7562,2830],[-20,7],[-5,11],[-3,43],[-5,20],[-56,58],[-51,49],[-28,8],[-23,40],[-12,-5],[-24,6],[-5,-8],[-33,-3],[-29,9],[-18,-8],[-42,6],[-12,-6],[-34,-3],[-14,-17],[-21,-9],[-11,9],[-14,-11],[-28,-3],[-18,-10],[-26,-26],[-11,-2],[-6,-18],[-28,-8]],[[6985,2959],[-96,-15],[-63,-11],[-41,-10],[-83,-25],[-32,15],[5,23],[-7,16],[-23,17],[2,12],[-17,3],[4,20],[-16,12],[-38,6],[6,8],[-12,19],[-54,20],[-5,15],[-42,33],[2,9],[-17,22],[-38,8],[-41,56],[-26,14],[-18,-4],[-6,22],[-18,2],[4,17],[-19,33],[2,21],[-21,17]],[[8898,5002],[-110,-130],[-8,-23],[1,-20],[-19,-21],[-4,-20],[-18,-27],[-2,-42],[-24,-42],[2,-24],[-16,-25],[-23,-13],[4,-13],[-12,-35],[1,-16],[-17,-28],[-1,-13],[-13,4],[-33,-34],[-100,-117],[-17,-29],[5,-113],[1,-112],[8,-80],[17,-42],[-14,-15],[13,-32],[-19,-20],[-9,-22],[20,-23],[5,-42],[-14,3],[6,-24],[12,-16],[1,-16],[18,-12],[-2,-104],[-4,-20],[-16,-38],[-21,-32],[-40,-91],[-21,-73],[-25,-39],[-57,-38],[-94,-50],[-44,-20],[-101,-54],[-83,-37],[-126,-45],[-57,-24]],[[7774,3628],[16,6],[22,19],[14,23],[32,21],[4,71],[25,5],[7,19],[24,29],[40,29],[-8,15],[-22,14],[-24,53]],[[6450,5148],[36,-21],[12,-28],[38,-72],[0,-23],[-15,-55],[14,-59],[48,-22],[-14,-22],[11,-24],[-8,-36],[6,-30],[13,-6],[10,-16],[-6,-14],[23,-24],[-18,-10],[-15,-32],[17,-32],[8,-33],[14,1],[39,-20],[-1,-16],[25,-11],[13,-29],[27,-8],[1,-23],[-23,-27],[17,-20],[0,-26],[15,-1],[9,-18],[-14,-29],[10,-9],[-27,-12],[7,-12],[31,-25],[4,-15],[27,-6]],[[7507,2388],[-18,-40],[-15,-22],[-13,-31],[14,-56],[-11,-23],[0,-14],[-13,-33],[-36,-59],[-48,-61],[-3,-18],[21,-63],[9,-32],[20,-2],[1,-27],[-9,-33],[1,-30],[8,-49],[14,-24],[-11,-28],[10,0],[1,-40],[-6,-13],[7,-36],[-8,-22],[-7,-41],[7,-33]],[[7422,1558],[-74,30],[-39,-22],[-12,1],[-14,-14],[-34,-7],[-27,-28],[-4,-10],[-20,-9],[-18,-20],[-42,-6],[-33,21],[-29,-2],[-16,-18],[-7,5],[-20,-11],[-36,-10],[-39,0],[-27,-19],[-14,1],[-13,-21],[-21,4],[-17,-24],[0,-23],[-33,-40],[-20,0],[-13,-14],[-28,-8],[-14,-17],[-21,-1],[-37,-22],[-44,-4],[-25,-24],[-50,2],[-41,8],[-15,12],[-26,-5],[-20,-10],[-42,-45]],[[6437,1208],[8,31],[-8,31],[1,194],[2,52],[22,5],[23,-11],[-9,17],[12,20],[30,11],[7,16],[11,-10],[28,0],[21,28],[-9,25],[13,40],[20,23],[-10,0],[-13,15],[-1,23],[30,25],[30,12],[-7,14],[8,14],[-18,14],[14,18],[23,-1],[10,28],[21,1],[10,23],[-10,15],[3,17],[-8,17],[8,22],[24,5],[4,12],[-10,19],[-9,34],[5,24],[-2,24],[16,15],[39,-2],[17,28],[43,20],[21,67],[35,11],[1,27],[14,23],[26,13],[18,26],[38,10],[31,-1],[9,28],[-12,20],[23,16],[19,-10],[8,4],[-23,49],[-1,31],[16,7],[-4,9],[18,3],[21,17],[23,-10],[9,6],[10,-12],[47,-1],[10,16],[15,5],[3,13],[43,2],[38,-7],[30,2],[55,-34],[33,-4],[44,-20],[63,-34]],[[7422,1558],[91,-21],[55,-22],[94,-34],[51,-13],[95,-17],[72,-25],[23,-3],[43,21],[37,-33],[2,-19],[32,-10],[6,-30],[-7,-9],[-53,-19],[4,-25],[14,-21],[7,-23],[-2,-15],[-27,-6],[-10,-19],[-27,-24],[40,-50],[28,-7],[-11,-41],[-42,-12],[-30,0],[-34,-31],[-2,-11],[27,-5],[3,-34],[-24,-15],[8,-23],[-7,-16],[39,-16],[5,-34],[-19,-8],[-1,-15],[-26,-26],[-40,4],[-52,11],[-17,-18],[-37,-8],[-11,-28],[-29,-24],[-13,-2],[-25,29],[-20,-3],[5,-34],[-17,-13],[-36,-7],[-14,-12],[-1,-16],[-19,-21],[-25,10],[-18,-16],[-2,-22],[-58,-16],[-21,-23],[-3,-24],[-11,-11],[0,-14],[-27,-5],[-14,-25],[18,-8],[-23,-13],[-31,-6],[-3,-15],[-26,5],[-27,-35],[-1,-10],[-18,-9],[5,-18],[16,3],[27,19],[1,-39],[3,-8],[21,4],[26,-8],[32,-29],[6,-10],[23,-3],[14,-22],[-8,-6],[-37,-5],[-29,-15],[8,-16],[-7,-20],[-12,-10],[-5,-16],[20,-12],[-5,-15],[-26,-27],[-4,-15],[-16,5],[-11,-22],[15,-25],[11,-10],[-13,-17],[-9,1],[-5,18],[-17,2],[4,-34],[17,-13],[-37,8],[-32,23],[-12,-1],[-10,-18],[-12,-44],[10,-44],[-45,-29],[-10,2],[-24,25],[-26,11],[-38,-21],[-33,-3],[-8,5],[-1,26],[15,32],[56,40],[-2,11],[-52,43],[-28,8],[-21,-13],[-30,-11],[-8,9],[-8,36],[10,26],[14,11],[-1,12],[-40,15],[5,12],[31,9],[-9,14],[1,34],[18,-8],[71,-8],[54,21],[31,-3],[-4,22],[-20,21],[-38,12],[-56,23],[-31,3],[13,32],[-12,43],[-21,21],[-33,17],[-29,25],[7,20],[-15,6],[-25,-33],[-67,6],[-67,-4],[-17,4],[-3,17],[-21,-7],[7,-26],[-10,-45],[-13,-3],[-21,34],[-33,22],[0,8],[22,45],[-7,33],[-14,2],[-42,-21],[-15,-2],[-41,-23],[-14,1],[-12,15],[32,27],[4,90],[-16,14],[-26,1],[-3,-16],[-36,7],[-39,3],[-14,-17],[0,-40],[27,-10],[10,-28],[-26,-5],[-42,21],[-74,1],[-14,14],[-10,36],[-39,13],[-2,14],[-19,23],[-16,10],[-17,-2],[-12,17],[-28,18],[2,12],[19,0],[19,-22],[16,3],[-15,8],[15,14],[-23,11],[4,20],[-40,6],[-27,18],[6,23],[22,11],[-24,28],[-15,-1],[-12,-30],[-30,-4]],[[6059,891],[-17,23],[-39,-5],[-4,29],[23,26],[3,11],[-16,7],[-24,-15],[4,19],[17,5],[26,32],[8,41],[21,16]],[[6061,1080],[29,-14],[48,33],[29,14],[61,3],[46,-5],[22,29],[22,15],[31,-13],[19,16],[38,24],[31,26]],[[6985,2959],[12,-6],[-4,-26],[-16,-5],[0,-22],[-31,0],[-5,-25],[14,-4],[8,-21],[-11,-30],[17,-13],[-19,-33],[-25,6],[0,-11],[-15,-3],[-7,-19],[-20,-4],[0,-19],[-18,1],[-14,-14],[5,-25],[33,-13],[-3,-17],[21,-10],[18,-23],[38,-11],[-49,-17],[-25,-22],[-25,-5],[-41,-43],[-84,-43],[-42,-17],[-24,-18],[-42,-20],[-30,-10],[-36,-40],[-24,-17],[-40,-10],[-50,-4],[-64,10],[-22,-3],[-33,-29],[-12,-76],[-14,-311],[-65,-186],[-66,-136],[-21,-47]],[[6154,1568],[-16,20],[6,13],[-7,23],[8,-2],[7,20],[-8,-4],[-25,21],[3,18],[21,13],[-6,19],[-16,4],[-8,31],[-10,-7],[-17,8],[-1,22],[15,1],[7,20],[-20,13],[7,40],[-24,13],[9,16],[-21,35],[-64,40],[-61,60],[-26,22],[-59,63],[-88,85],[-88,104]],[[5672,2279],[-14,23],[-49,24],[-28,25],[7,41],[-7,7],[15,23],[-4,39],[7,34],[-7,23],[5,21],[-6,60],[-18,31]],[[7562,2830],[-17,-21],[16,-14],[16,-35],[5,-42],[18,-18],[-4,-65],[1,-37],[-4,-68],[1,-25],[-28,-56],[-38,-33],[-21,-28]],[[6061,1080],[21,13],[-1,17],[-22,-8],[-10,17],[42,15],[29,17],[8,10],[23,7],[-17,19],[-30,-16],[10,30],[-6,17],[-29,6],[1,15],[-9,10],[2,19],[-17,15],[-5,27],[6,20],[-17,9],[0,12],[16,17],[13,4],[7,38],[-5,19],[-15,8],[12,14],[28,0],[30,21],[-8,12],[9,39],[24,12],[-9,8],[13,14],[-1,11]],[[2970,6239],[-9,12],[2,38],[9,35],[34,12],[18,18],[33,14],[6,24],[28,13],[8,47],[-13,27],[7,26],[-6,34],[10,29],[19,40],[1,19]],[[3117,6627],[19,-3],[16,16],[43,0],[0,19],[13,11],[28,6],[7,-11],[16,11],[36,11],[-1,10],[19,9],[41,3],[29,19],[11,0]],[[3394,6728],[18,3],[25,43],[-6,7],[19,14],[-4,16],[22,4],[23,23],[0,23],[8,17],[15,2],[24,24],[21,66],[12,11],[22,0],[2,10],[25,6],[7,12],[46,27],[9,17],[16,11],[16,43],[3,30],[-11,3],[-6,31],[21,9],[48,-6],[25,-8],[23,12],[36,-1],[25,16],[12,25],[15,2],[10,14],[1,42],[-40,25],[-3,12],[-5,85],[48,52],[22,6],[48,5],[25,10],[13,34],[-26,10],[6,16],[27,48],[-4,73],[-11,24],[9,45],[-6,9],[-24,5],[-38,26],[-11,3],[1,16]],[[3947,7780],[34,-5],[23,17],[46,13],[26,-14],[10,-14],[26,-10],[19,-22],[32,5],[23,-23],[50,5],[32,-11],[28,7],[40,-17],[4,-7],[32,9],[47,2],[9,-23],[17,-21],[37,-26],[58,-5],[40,0],[122,-20],[-4,-8],[12,-23],[27,-9],[11,4],[61,1],[2,-8],[28,-13],[20,-17],[11,11],[24,7],[20,-5],[44,7],[11,-8],[20,11],[33,7],[4,-11],[61,10],[8,-6],[32,0],[39,10],[9,-8],[14,9],[23,-15]],[[5212,7566],[-7,-20],[-4,-34],[4,-31],[17,-27],[6,-49],[-4,-51],[-18,-15],[-44,-17],[-28,-24],[-49,-11],[-15,-7],[11,-17],[3,-32],[-10,-20],[17,-27],[-1,-18],[11,-20],[-1,-17],[-20,3],[-20,-14],[11,-17],[-15,-11],[-12,-24],[4,-13],[-11,-13],[-43,-12],[-47,-5],[-14,-8],[-15,4],[-19,-14],[-18,11],[-7,-18],[-32,-4],[-16,-7],[-20,0],[-23,-25],[-13,-23],[6,-19],[-23,-17],[11,-10],[-5,-12],[9,-16],[-17,-8],[-18,-23],[-16,10],[-22,-5],[-14,-18],[-32,-19],[-28,-33],[7,-3],[2,-21],[-27,-24],[3,-31],[-21,-12],[-11,-17],[-11,0],[5,-74],[-13,-14],[32,-24],[-13,-6],[9,-16],[4,-25],[-18,-12],[10,-39],[-7,-40],[-15,4],[-10,-16],[-12,-3]],[[5212,7566],[19,-3],[-2,12],[55,-6],[28,14],[24,5],[11,-9],[33,0],[21,12],[6,-6],[13,17],[18,-9],[26,8],[19,30],[55,20],[6,18],[23,-1],[15,13],[-18,18],[47,8],[17,-8],[15,20],[21,-12],[21,-1],[27,-41],[33,-20],[-4,-16],[8,-22],[16,-22],[42,-14],[49,-6],[22,-9],[8,-11],[19,-2],[39,-53],[45,-27],[23,13],[24,-15],[19,-1],[19,15],[36,-3],[27,17],[4,15],[16,10]],[[6157,7514],[12,-68],[26,-39],[10,-26],[-2,-21],[-28,-25],[-14,3],[-32,-21],[-15,-3],[5,-17],[-21,-13],[-7,-12],[-44,-26],[-5,-35],[7,-12],[-3,-29],[-12,1],[-40,-20],[-46,-3],[-1,-24],[-17,-16],[-65,11],[-16,0],[-23,-20],[-45,6],[-20,-8],[-21,8],[-43,-22],[-18,0],[-3,-31],[-32,-4],[-14,-26],[-19,-20],[-16,-6],[-19,-18],[-9,-42],[-2,-32],[-9,-38],[-8,-3],[-15,-38],[-52,-34],[-48,-14],[-15,-27],[1,-20],[-11,-28],[11,-15],[-10,-23],[-37,-4],[-45,-39],[-62,-72],[-43,-31],[-6,-11],[-5,-39],[0,-54],[-10,-14],[-33,-14],[-42,-8],[-17,-12],[-40,-76],[-24,-29],[-12,-26],[-19,-66],[-1,-31],[-15,-34],[7,-24]],[[3394,6728],[-35,298],[-9,20],[-24,-8],[-127,31],[-105,-10],[-1,5],[-52,88],[15,16],[-7,19],[-3,45],[18,34],[-8,6],[-92,43],[-36,9],[-27,12],[-86,32],[-6,12],[7,54],[24,30],[-8,18],[9,55],[-11,9],[13,26],[11,5],[-4,19],[-17,7],[-1,22],[9,21]],[[2841,7646],[15,25],[16,5],[35,-21],[16,15],[-26,15],[9,13],[35,14],[25,4],[8,8],[43,-8],[10,17],[15,2],[14,20],[32,26],[23,7],[30,28],[19,11],[12,16],[45,2],[-4,-10],[35,-30],[29,15],[39,-9],[12,9],[19,-11],[1,13],[16,17],[33,-13],[25,-2],[7,14],[10,-6],[29,3],[29,-3],[7,6],[36,2],[13,-11],[61,-15],[16,-8],[23,15],[34,-20],[60,37],[43,7],[38,-13],[-6,-15],[28,-8],[7,-14],[20,3],[27,-24],[26,9],[17,-3]],[[1753,6245],[-23,12],[6,11],[-31,16],[0,14],[-23,5],[-15,-7],[-31,24],[-19,6],[11,23],[15,-2],[3,27],[8,16],[-23,7],[11,13],[-20,2],[-53,41],[6,13],[-25,1],[-10,31],[0,16],[-20,5],[-19,15],[12,19],[23,1],[22,15],[1,22],[27,10],[21,25],[19,-2],[0,24],[7,7],[27,1],[10,16],[-8,12],[14,7],[-16,10],[14,1],[1,11],[20,-10],[26,9],[8,-17],[18,15],[10,42],[-11,0],[12,23],[65,6],[12,14],[-13,42],[-8,5],[12,12],[-20,21],[-18,8],[21,13],[-23,9],[4,16],[23,5],[1,12],[-22,18],[20,6],[16,17],[12,-4],[20,6],[1,15],[33,37],[1,13],[24,32],[-19,16],[23,27],[-2,14],[11,14],[20,-3],[8,21],[54,14],[-14,20],[23,14],[15,3],[0,25],[31,13],[18,21],[-4,22]],[[2083,7299],[35,-8],[43,-17],[51,-25],[18,-6],[105,-58],[28,-37],[70,-26],[56,-33],[17,-62],[33,-62],[30,-31],[48,-36],[47,-22],[34,-9],[78,-10],[28,-13],[67,-63],[43,-60],[25,-26],[54,-18],[53,-30],[15,-16],[13,5],[23,-6],[2,-11],[18,8]],[[2083,7299],[12,26],[13,3],[9,15],[34,19],[15,14],[19,34],[9,46],[15,30],[21,27],[23,9],[24,2],[31,14],[28,2],[52,-8],[77,-1],[35,3],[100,41],[96,50],[37,3],[37,-4],[51,11],[20,11]],[[812,2016],[-68,-29],[-27,10],[0,-10],[-27,-7],[-11,8],[-30,-18],[-14,-17],[-44,8],[-47,18],[0,40],[-8,14],[-25,1],[-36,-27],[-48,-8],[-16,-7],[-29,-32]],[[382,1960],[-38,21],[-28,5],[-38,-3],[-7,9],[17,20],[25,-2],[14,10],[2,14],[-10,21],[-14,9],[-23,2],[1,14],[17,0],[19,9],[-7,20],[21,13],[15,20],[-2,26],[-28,16],[-43,-11],[-16,9],[-24,2],[-23,-21],[-29,-1],[-32,12],[-12,-12],[6,-14],[-32,-4],[-32,-25],[-17,-2],[-24,18],[-28,6],[-10,14],[12,3],[28,-8],[22,8],[-1,30],[-14,11],[-20,3],[-23,13],[1,23],[10,7],[-12,14],[23,0],[14,32],[33,-4],[10,6],[-17,24],[3,20],[-24,16],[1,10],[35,2],[2,16],[15,0],[7,23],[-7,12],[17,5],[-12,17],[14,5],[5,14],[-21,-2],[-23,20],[-24,4],[-1,11],[32,10],[11,17],[40,1],[4,27],[-24,4],[9,12],[15,-2],[6,10],[-14,15],[41,11],[-8,15],[-16,-15],[-15,10],[5,11],[32,10],[-6,22],[15,9]],[[182,2657],[26,-3],[20,-9],[26,29],[10,40],[22,-1],[2,15],[17,27],[0,44],[36,-3],[73,9],[31,-25],[30,0],[9,26],[46,-4],[20,-10],[15,-19],[29,-1],[32,-13],[4,-43],[14,-1],[29,10],[31,2],[44,-6],[47,2],[50,-10],[0,30],[-5,52],[-8,16],[307,59]],[[1139,2870],[3,-36],[-2,-29],[-27,-89],[-14,-23],[-47,-55],[2,-46],[-46,-161],[-22,-64],[-12,-2],[-21,-34],[-2,-26],[-9,4],[-23,-33],[-20,9],[-29,3],[-19,-3],[-55,-39],[-21,-4],[-24,-26],[-4,-58],[12,-39],[-4,-18],[-18,-19],[6,-10],[28,-26],[41,-30]],[[2015,3086],[-9,-72],[-20,-40],[-79,-112],[-27,-27],[-28,-15],[-44,-13],[-49,-8],[-109,-13]],[[1650,2786],[-36,5],[-19,8],[1,13],[-29,4],[-18,25],[-12,7],[-50,13],[-16,9],[-3,16],[-32,15],[-17,-15],[-70,-12],[-191,-3],[-19,-1]],[[182,2657],[-2,13],[16,18],[-11,9],[-21,-17],[1,27],[-19,-6],[-24,2],[-15,7],[-18,24],[-8,0],[-6,-21],[-34,35],[14,17],[-19,28],[-32,-7],[-4,45],[17,-7],[33,7],[24,38],[15,3],[15,16],[16,-17],[52,-27],[17,3],[20,18],[26,7],[-2,51],[-19,34],[-27,12],[-8,16],[16,22],[15,34],[-34,22],[-4,8],[-19,-2],[10,21],[18,5],[-1,9],[-20,4],[7,24],[-50,-6],[-7,12],[25,16],[14,0],[-2,33],[17,17],[-3,17],[20,13],[36,1],[10,5]],[[2903,3064],[-14,-37],[-23,-22],[-31,-43],[5,-16],[-10,-18],[-20,-9],[-15,-17],[-24,0],[-21,-17],[-17,-25],[-29,-15],[-26,-20]],[[2678,2825],[-10,-32],[23,-16],[4,-14],[-11,-30],[-14,-9],[1,-13],[14,-14],[-15,0],[9,-11],[-2,-17],[6,-19],[67,-50],[80,-38],[26,-8],[15,-52],[5,-46],[7,-16],[-11,-30],[-61,-28],[-19,-18],[-23,-8],[-12,5],[-12,-9]],[[2745,2352],[-45,-2],[-86,-10],[-264,-40],[-174,1],[-59,-17],[-16,7],[-47,33],[-58,22],[-56,9],[-85,-8],[-97,-7],[-151,-1]],[[1607,2339],[3,119],[8,166],[2,94],[12,35],[18,33]],[[2745,2352],[-19,-18],[20,-45],[-5,-13],[16,-22],[-18,-12],[8,-8],[25,-2],[15,12],[20,-17],[-25,-25],[-1,-9],[41,-18],[-4,-7],[22,-7],[19,-17],[16,11],[44,0],[31,-30],[1,-11],[19,2],[2,-11],[33,-9],[16,8],[8,-18],[-2,-15],[36,7],[3,-15],[28,-24],[19,9],[0,-12],[20,-10],[3,-20]],[[3136,2006],[-23,-15],[-110,-34],[-14,-12]],[[2989,1945],[-135,9],[-51,0],[-76,-3],[-160,-21],[-23,-2],[-151,7],[-29,0],[-220,-5],[-143,-15],[-78,4],[-26,0],[-70,-15],[-90,-22],[-31,-4]],[[1706,1878],[-61,14],[-6,16],[-49,10],[-17,62],[-28,9],[-78,8],[-21,-8],[-6,-20],[-22,0],[-31,15],[-28,-11],[-16,5],[-12,21],[-31,10]],[[1300,2009],[22,46],[39,54],[53,31],[181,91],[7,9],[5,99]],[[2989,1945],[-51,-33],[-35,-45],[-37,-40],[-7,-31],[28,-39],[52,-41],[52,-25],[25,-7],[77,-5],[17,2],[43,14],[45,9],[25,-3],[55,-20],[11,-11],[53,-70],[23,-39],[-4,-25],[16,-9],[6,-20],[24,-37],[-21,-3],[-15,-14],[-13,7],[-27,-17],[-4,-9],[-31,-9],[4,8],[-29,4],[-16,16],[-12,-17],[-15,12],[-23,-19],[-5,-17],[-25,-10],[-17,3],[-6,13],[-20,-11],[-47,-8],[-25,-17],[-18,-18],[-9,-31],[9,-6],[-14,-18],[-19,-11],[2,-39],[-19,-17],[38,-10],[20,10],[22,-32],[9,-37],[-5,-11],[-16,-5],[-14,-16],[-4,-25],[-34,-24],[-33,-36],[-51,-24],[-25,-2],[-21,-20],[-32,-2],[-28,-9],[-44,4],[-41,-4],[-54,-31]],[[2679,968],[-52,12],[-24,17],[-22,9],[-41,28],[-56,9],[-49,22],[-74,49],[-50,21],[-64,22],[-215,-26],[-100,-1],[-48,16],[-7,10]],[[1877,1156],[21,81],[29,71],[-9,27],[-36,67],[-24,78],[-5,86],[3,36],[-12,2],[-39,29],[-3,43],[-13,27],[3,23],[9,3],[-4,34],[-41,49],[-50,66]],[[812,2016],[12,8],[24,-6],[14,11],[25,7],[21,-1],[31,13],[33,1],[18,18],[36,14],[93,-5],[49,-2],[39,-12],[51,-39],[42,-14]],[[1877,1156],[-61,-21],[-88,-44],[-37,-22],[-39,-51],[-65,-50],[-52,-22],[-22,-18],[-174,-122],[-102,-65],[-61,-34]],[[1176,707],[-22,-28],[2,-24],[-15,-1],[-13,15],[-4,32],[-13,52],[-15,14],[-14,1],[-30,-26],[-42,-8],[-36,-11],[-1,-30],[14,-4],[28,4],[11,-7],[-6,-28],[-16,-10],[-40,-1],[-25,19],[-30,2],[-15,8],[-1,18],[-10,4],[-13,-20],[-30,-14],[-19,26],[-40,3],[-29,-16],[-15,-3],[-52,16],[-10,9],[2,23],[-30,16],[-18,15],[-20,44],[16,-10],[31,-2],[23,15],[27,3],[9,14],[30,28],[10,21],[-3,34],[-8,18],[-38,-1],[-34,12],[-2,23],[-16,22],[-1,17],[10,8],[36,10],[30,24],[12,36],[-4,20],[7,27],[0,22],[-14,44],[-12,11],[-11,28],[-28,1],[-24,-6],[-35,-42],[-65,-31],[-29,-4],[-31,-33],[-8,-25],[-20,2],[-19,30],[-31,18],[-34,-9],[-23,-21],[-26,-17],[-10,1],[-2,25],[7,13],[24,9],[17,41],[-4,29],[10,12],[-3,25],[8,22],[10,12],[46,25],[-5,19],[14,10],[-7,12],[-25,-4],[-6,6],[18,13],[-7,14],[-22,2],[-15,-7],[-12,5],[-2,24],[-25,-7],[-18,2],[-15,13],[5,22],[21,9],[15,-1],[8,13],[-39,36],[-22,10],[-5,15],[21,24],[19,-9],[-5,-16],[18,-22],[10,15],[28,7],[13,12],[-18,19],[0,11],[30,7],[14,12],[-3,45],[-10,16],[8,29],[-6,11],[-48,8],[-14,16],[2,16],[-9,22],[-21,-6],[-37,3],[-17,6],[-4,18],[9,10],[54,11],[39,14],[23,-7],[25,10],[-17,24],[10,25],[-18,6],[3,15],[-17,4],[-9,-22],[-13,15],[-34,11],[10,17],[-2,14],[29,16],[0,19],[30,11],[-4,19]],[[2679,968],[-13,-7],[-116,-30],[-39,-23],[-19,-32],[-8,-37],[-3,-33],[16,-41],[22,-24],[54,-37],[6,-10],[8,-44],[13,-42],[-1,-50],[4,-81],[7,-43],[-6,-38],[-11,-11],[-67,-15],[-23,5],[-51,-1],[-24,-26],[-24,-5],[-72,-52],[-37,-33],[-15,4],[-77,1],[-55,2],[-58,-20],[-7,-11],[-12,-46],[-28,-34],[-11,-21],[-15,-48],[-24,-16],[-15,2],[-55,28],[-55,66],[-34,30],[-16,8],[-27,2],[-32,-6],[-37,-15],[-26,-2],[-8,9],[-8,28],[-18,26],[18,27],[-6,11],[-60,-2],[-34,15],[-29,7],[-46,26],[-20,5],[-11,-6],[-10,-23],[-20,-4],[-20,12],[-4,12],[39,45],[-41,43],[2,18],[16,14],[-1,10],[-23,24],[-12,24],[-33,45],[-13,50],[-2,27],[5,31],[-10,11],[-72,25],[-70,14],[-29,1]],[[4417,2622],[-6,-13],[4,-24],[-10,-12],[9,-9],[-3,-19],[16,-26],[15,-13],[-11,-30],[-22,-26],[-20,-39],[21,-37],[-9,-19],[-37,25],[-21,-5],[-22,4],[-21,-16],[-9,-16],[-45,-23],[-8,-7],[-47,-23],[-8,-18],[-36,-2],[-35,-27],[5,-65],[-6,-39],[5,-74],[-46,13],[-31,-4],[-47,16],[-30,0],[-3,-5],[-30,1],[-16,8],[-38,-10],[-9,-9],[-7,-42],[-41,-47],[-15,-28],[-35,-1],[-16,-8],[-18,-18],[-13,-22],[-4,-23]],[[3717,1890],[-19,-20],[-10,-20],[-10,-2],[-25,23],[-30,6],[-8,10],[-20,1],[-17,12],[-11,-21],[-27,15],[-14,48],[-14,10],[0,22],[-16,0],[0,14],[-22,6],[-6,16],[-10,-1]],[[3458,2009],[-19,14],[12,19],[-23,4],[-11,48],[13,15],[-19,14],[-2,46],[8,29],[31,49],[-9,15],[-17,3],[-6,28],[17,26]],[[3433,2319],[8,1],[15,32],[3,18],[12,-5],[47,33],[10,34],[81,1],[93,19],[70,-9],[7,18],[32,19],[3,22],[19,31],[5,24],[22,21],[20,4],[-7,30],[33,48],[22,58],[17,11],[19,31],[-4,10]],[[3960,2770],[236,-146],[50,-18],[32,-6],[15,-12],[49,11],[-3,31],[11,21],[67,-29]],[[2678,2825],[57,-29],[42,-41],[56,-5],[27,1],[55,18],[68,25],[17,2],[43,-23],[2,-13],[39,-21],[61,-14],[90,-27],[21,-4],[29,-24],[0,-34],[-18,-60],[-15,-79],[0,-87],[15,-32],[11,-5],[25,13],[29,7],[3,10],[34,14],[10,-23],[19,1],[15,-16],[2,-13],[13,-6],[-17,-22],[14,-4],[8,-15]],[[3458,2009],[-16,-24],[-15,-3],[9,13],[-23,7],[-4,13],[-22,2],[-9,17],[-12,-3],[0,-27],[-18,3],[-35,28],[-39,-20],[-27,8],[-30,15],[-17,-12],[-21,1],[-2,-14],[-22,8],[-19,-15]],[[4417,2622],[14,14],[4,42],[21,20],[34,-9],[33,11],[42,-9],[25,-11],[16,12],[35,-1],[3,13],[14,-4],[41,9]],[[4699,2709],[37,-6],[15,-22],[32,9],[17,-10],[23,1],[10,-7],[0,-20],[18,-5],[2,-23],[32,-24],[6,-12],[-4,-18],[25,-3],[-2,-15],[10,-11],[-18,-16],[-11,-25],[2,-13],[14,-21],[-12,3],[-4,-27],[34,-14],[5,-9],[22,1],[11,-19],[-23,-26],[0,-9],[-21,-19],[-23,7],[-49,-61],[28,-13],[36,-36],[-1,-5],[-64,-37],[-34,-12],[-10,5],[-19,-10],[-14,1],[-24,-13],[6,-9],[-41,-24],[-34,-25],[15,-26],[-10,-9],[8,-32],[32,-8],[16,-50],[16,-15],[-15,-15],[15,-15],[1,-18],[26,-27],[11,-2],[-5,-15],[2,-27],[-20,-33],[14,-13],[-1,-10],[11,-23],[-2,-9],[15,-20],[24,-16],[1,-20],[11,-8],[-5,-28],[41,-29],[-13,-32],[16,-20],[20,-13]],[[4900,1584],[13,-20],[19,-8],[4,-14],[-34,-34],[-50,-4],[-7,-16],[-15,-7],[-21,12],[16,16],[-7,23],[-31,4],[-14,-7],[-48,1],[-5,10],[17,21],[-6,18],[-25,30],[-52,11],[-39,19],[-8,15],[-27,-5],[-11,4],[-21,-28],[-47,5],[-13,-11],[-18,15],[-12,-19],[-33,-8],[-35,1],[-14,19],[-9,1],[-26,-17],[-20,18],[-4,-13],[-37,14],[-11,16],[1,17],[-15,18],[-19,8],[-23,24],[-27,7],[8,10],[-19,4],[2,9],[-18,10],[-17,30],[-18,9],[-31,2],[-19,11],[-10,-5],[-36,9],[-31,26],[-32,2],[-10,17],[-26,-7],[-21,9],[-30,1],[-23,-11],[-14,3],[-18,-25],[-12,-1],[-13,17],[-25,-11],[-8,4],[10,23],[-17,-11],[-33,15],[-8,30]],[[5672,2279],[-42,-103],[-23,-45],[-17,-28],[-8,9],[11,14],[-11,1],[-27,26],[4,13],[-13,-3],[-19,12],[-10,27],[-36,21],[-11,-15],[1,-38],[14,-22],[-4,-16],[12,-42],[16,-16],[-22,-19],[6,-9],[-8,-19],[-22,18],[-36,1],[-23,39],[-8,-8],[-16,2],[-1,-20],[-8,-14],[12,-16],[-16,-26],[14,-11],[-1,-19],[-20,1],[-54,24],[-20,-20],[-16,16],[-38,-6],[10,-122],[9,-18],[-5,-24],[15,-15],[-10,-5],[-89,-25],[-15,-47],[-34,-23],[-32,-4],[36,-54],[0,-10],[-35,-63],[-3,-35],[-15,-10]],[[5064,1533],[-6,12],[-28,-9],[-11,9],[1,27],[6,11],[-8,13],[19,10],[6,12],[-37,9],[1,-21],[-24,-5],[-27,-13],[-48,5],[-8,-9]],[[4699,2709],[-10,14],[6,9],[-13,24],[17,39],[-28,18],[5,22],[-17,13],[22,21],[-12,27],[-15,8],[21,5],[-2,23],[-16,-1],[-3,11],[-18,1],[16,21],[0,24],[-7,5],[8,28],[-21,40],[3,22],[11,28],[3,28],[-32,3],[8,63],[-6,14],[2,19],[-11,22],[-1,41],[-20,21],[5,18],[-19,12],[6,8],[3,32]],[[6059,891],[-7,-5],[-16,-35],[-26,7],[-19,-5],[-1,-17],[10,-7],[25,4],[-19,-16],[-49,-7],[5,-22],[18,11],[21,-16],[1,-13],[-18,-12],[-24,6],[-23,-4],[-14,9],[-23,-2],[-34,16],[8,17],[-4,12],[-39,19],[15,30],[-7,10],[-20,1],[-7,-15],[-20,-7],[-18,6],[21,23],[-4,8],[-25,-3],[-33,21],[6,19],[36,30],[-45,17],[6,20],[-26,12],[18,20],[-1,11],[18,14],[7,24],[0,21],[-10,9],[12,20],[-24,7],[-7,13],[-24,-9],[22,-28],[-12,-13],[-16,18],[-23,-8],[-15,-11],[-19,0],[11,15],[-2,13],[-30,6],[-8,9],[14,21],[-21,10],[-9,28],[1,29],[-21,12],[-64,13],[-20,-5],[-26,5],[1,15],[-14,29],[-32,-5],[-3,18],[-16,4],[11,9],[-31,10],[-46,-2],[-8,-16],[10,-15],[-6,-13],[-20,23],[-41,5],[-6,8],[13,16],[-38,39],[-23,3],[2,16],[-31,7],[-24,-3],[3,21],[-59,-21],[-17,24],[12,37],[-16,34],[-16,20],[-2,23]],[[3960,2770],[-37,2],[-83,28],[-30,16],[-79,67],[-69,41],[-22,9],[13,29],[64,47],[19,22],[0,37],[16,23],[28,18],[-2,15],[-27,34],[-8,34],[23,52],[51,11],[19,26],[-6,27],[1,17],[-7,20]]],"transform":{"scale":[0.00006414147984798803,0.00007473166956695781],"translate":[104.41891012300005,15.537116648000051]},"objects":{"Amnat Charoen":{"type":"GeometryCollection","geometries":[{"arcs":[[0,1,2,3,4,5,6]],"type":"Polygon","properties":{"Shape_Leng":0.51016340446,"Shape_Area":0.00578310703521,"ADM3_EN":"Bung","ADM3_TH":"บุ่ง","ADM3_PCODE":"TH370101","ADM2_EN":"Mueang Amnat Charoen","ADM2_TH":"เมืองอำนาจเจริญ","ADM2_PCODE":"TH3701","ADM1_EN":"Amnat Charoen","ADM1_TH":"อำนาจเจริญ","ADM1_PCODE":"TH37","ADM0_EN":"Thailand","ADM0_TH":"ประเทศไทย","ADM0_PCODE":"TH"}},{"arcs":[[-3,7,8,9,10,11]],"type":"Polygon","properties":{"Shape_Leng":0.416915180104,"Shape_Area":0.00389483300212,"ADM3_EN":"Kai Kham","ADM3_TH":"ไก่คำ","ADM3_PCODE":"TH370102","ADM2_EN":"Mueang Amnat Charoen","ADM2_TH":"เมืองอำนาจเจริญ","ADM2_PCODE":"TH3701","ADM1_EN":"Amnat Charoen","ADM1_TH":"อำนาจเจริญ","ADM1_PCODE":"TH37","ADM0_EN":"Thailand","ADM0_TH":"ประเทศไทย","ADM0_PCODE":"TH"}},{"arcs":[[-4,-12,12,13,14]],"type":"Polygon","properties":{"Shape_Leng":0.291777038513,"Shape_Area":0.00269117768261,"ADM3_EN":"Na Chik","ADM3_TH":"นาจิก","ADM3_PCODE":"TH370103","ADM2_EN":"Mueang Amnat Charoen","ADM2_TH":"เมืองอำนาจเจริญ","ADM2_PCODE":"TH3701","ADM1_EN":"Amnat Charoen","ADM1_TH":"อำนาจเจริญ","ADM1_PCODE":"TH37","ADM0_EN":"Thailand","ADM0_TH":"ประเทศไทย","ADM0_PCODE":"TH"}},{"arcs":[[15,16,17,18,19,20,21]],"type":"Polygon","properties":{"Shape_Leng":0.297623928729,"Shape_Area":0.00349650605255,"ADM3_EN":"Pla Khao","ADM3_TH":"ปลาค้าว","ADM3_PCODE":"TH370104","ADM2_EN":"Mueang Amnat Charoen","ADM2_TH":"เมืองอำนาจเจริญ","ADM2_PCODE":"TH3701","ADM1_EN":"Amnat Charoen","ADM1_TH":"อำนาจเจริญ","ADM1_PCODE":"TH37","ADM0_EN":"Thailand","ADM0_TH":"ประเทศไทย","ADM0_PCODE":"TH"}},{"arcs":[[-22,22,23,24,25]],"type":"Polygon","properties":{"Shape_Leng":0.30365571902,"Shape_Area":0.00327949793711,"ADM3_EN":"Lao Phruan","ADM3_TH":"เหล่าพรวน","ADM3_PCODE":"TH370105","ADM2_EN":"Mueang Amnat Charoen","ADM2_TH":"เมืองอำนาจเจริญ","ADM2_PCODE":"TH3701","ADM1_EN":"Amnat Charoen","ADM1_TH":"อำนาจเจริญ","ADM1_PCODE":"TH37","ADM0_EN":"Thailand","ADM0_TH":"ประเทศไทย","ADM0_PCODE":"TH"}},{"arcs":[[-21,26,27,-23]],"type":"Polygon","properties":{"Shape_Leng":0.378411460021,"Shape_Area":0.00475941402206,"ADM3_EN":"Sang Nok Tha","ADM3_TH":"สร้างนกทา","ADM3_PCODE":"TH370106","ADM2_EN":"Mueang Amnat Charoen","ADM2_TH":"เมืองอำนาจเจริญ","ADM2_PCODE":"TH3701","ADM1_EN":"Amnat Charoen","ADM1_TH":"อำนาจเจริญ","ADM1_PCODE":"TH37","ADM0_EN":"Thailand","ADM0_TH":"ประเทศไทย","ADM0_PCODE":"TH"}},{"arcs":[[-1,28,29,30,31,-24,-28,32,33]],"type":"Polygon","properties":{"Shape_Leng":0.464381036107,"Shape_Area":0.00674328228708,"ADM3_EN":"Khuem Yai","ADM3_TH":"คึมใหญ่","ADM3_PCODE":"TH370107","ADM2_EN":"Mueang Amnat Charoen","ADM2_TH":"เมืองอำนาจเจริญ","ADM2_PCODE":"TH3701","ADM1_EN":"Amnat Charoen","ADM1_TH":"อำนาจเจริญ","ADM1_PCODE":"TH37","ADM0_EN":"Thailand","ADM0_TH":"ประเทศไทย","ADM0_PCODE":"TH"}},{"arcs":[[34,35,36,37,38,39]],"type":"Polygon","properties":{"Shape_Leng":0.319207525029,"Shape_Area":0.0032643550981,"ADM3_EN":"Na Phue","ADM3_TH":"นาผือ","ADM3_PCODE":"TH370108","ADM2_EN":"Mueang Amnat Charoen","ADM2_TH":"เมืองอำนาจเจริญ","ADM2_PCODE":"TH3701","ADM1_EN":"Amnat Charoen","ADM1_TH":"อำนาจเจริญ","ADM1_PCODE":"TH37","ADM0_EN":"Thailand","ADM0_TH":"ประเทศไทย","ADM0_PCODE":"TH"}},{"arcs":[[40,41,42,43,44,45]],"type":"Polygon","properties":{"Shape_Leng":0.439244027578,"Shape_Area":0.00494148681991,"ADM3_EN":"Nam Plik","ADM3_TH":"น้ำปลีก","ADM3_PCODE":"TH370109","ADM2_EN":"Mueang Amnat Charoen","ADM2_TH":"เมืองอำนาจเจริญ","ADM2_PCODE":"TH3701","ADM1_EN":"Amnat Charoen","ADM1_TH":"อำนาจเจริญ","ADM1_PCODE":"TH37","ADM0_EN":"Thailand","ADM0_TH":"ประเทศไทย","ADM0_PCODE":"TH"}},{"arcs":[[-38,46,47,48]],"type":"Polygon","properties":{"Shape_Leng":0.339388619672,"Shape_Area":0.00288219807856,"ADM3_EN":"Na Wang","ADM3_TH":"นาวัง","ADM3_PCODE":"TH370110","ADM2_EN":"Mueang Amnat Charoen","ADM2_TH":"เมืองอำนาจเจริญ","ADM2_PCODE":"TH3701","ADM1_EN":"Amnat Charoen","ADM1_TH":"อำนาจเจริญ","ADM1_PCODE":"TH37","ADM0_EN":"Thailand","ADM0_TH":"ประเทศไทย","ADM0_PCODE":"TH"}},{"arcs":[[-46,49,50,51]],"type":"Polygon","properties":{"Shape_Leng":0.344852988236,"Shape_Area":0.00365623583311,"ADM3_EN":"Na Mo Ma","ADM3_TH":"นาหมอม้า","ADM3_PCODE":"TH370111","ADM2_EN":"Mueang Amnat Charoen","ADM2_TH":"เมืองอำนาจเจริญ","ADM2_PCODE":"TH3701","ADM1_EN":"Amnat Charoen","ADM1_TH":"อำนาจเจริญ","ADM1_PCODE":"TH37","ADM0_EN":"Thailand","ADM0_TH":"ประเทศไทย","ADM0_PCODE":"TH"}},{"arcs":[[-5,-15,52,-42,53,54,55]],"type":"Polygon","properties":{"Shape_Leng":0.407496610054,"Shape_Area":0.00457668070742,"ADM3_EN":"Non Pho","ADM3_TH":"โนนโพธิ์","ADM3_PCODE":"TH370112","ADM2_EN":"Mueang Amnat Charoen","ADM2_TH":"เมืองอำนาจเจริญ","ADM2_PCODE":"TH3701","ADM1_EN":"Amnat Charoen","ADM1_TH":"อำนาจเจริญ","ADM1_PCODE":"TH37","ADM0_EN":"Thailand","ADM0_TH":"ประเทศไทย","ADM0_PCODE":"TH"}},{"arcs":[[-6,-56,56,-36,57]],"type":"Polygon","properties":{"Shape_Leng":0.401657386668,"Shape_Area":0.00507491915993,"ADM3_EN":"Non Nam Thaeng","ADM3_TH":"โนนหนามแท่ง","ADM3_PCODE":"TH370113","ADM2_EN":"Mueang Amnat Charoen","ADM2_TH":"เมืองอำนาจเจริญ","ADM2_PCODE":"TH3701","ADM1_EN":"Amnat Charoen","ADM1_TH":"อำนาจเจริญ","ADM1_PCODE":"TH37","ADM0_EN":"Thailand","ADM0_TH":"ประเทศไทย","ADM0_PCODE":"TH"}},{"arcs":[[-2,-34,58,59,-8]],"type":"Polygon","properties":{"Shape_Leng":0.352796349718,"Shape_Area":0.0031707141914,"ADM3_EN":"Huai Rai","ADM3_TH":"ห้วยไร่","ADM3_PCODE":"TH370114","ADM2_EN":"Mueang Amnat Charoen","ADM2_TH":"เมืองอำนาจเจริญ","ADM2_PCODE":"TH3701","ADM1_EN":"Amnat Charoen","ADM1_TH":"อำนาจเจริญ","ADM1_PCODE":"TH37","ADM0_EN":"Thailand","ADM0_TH":"ประเทศไทย","ADM0_PCODE":"TH"}},{"arcs":[[-20,60,61,-59,-33,-27]],"type":"Polygon","properties":{"Shape_Leng":0.512107864361,"Shape_Area":0.00387211856042,"ADM3_EN":"Nong Masaeo","ADM3_TH":"หนองมะแซว","ADM3_PCODE":"TH370115","ADM2_EN":"Mueang Amnat Charoen","ADM2_TH":"เมืองอำนาจเจริญ","ADM2_PCODE":"TH3701","ADM1_EN":"Amnat Charoen","ADM1_TH":"อำนาจเจริญ","ADM1_PCODE":"TH37","ADM0_EN":"Thailand","ADM0_TH":"ประเทศไทย","ADM0_PCODE":"TH"}},{"arcs":[[-37,-57,-55,62,-51,63,-47]],"type":"Polygon","properties":{"Shape_Leng":0.423499067505,"Shape_Area":0.00491176582094,"ADM3_EN":"Kut Pla Duk","ADM3_TH":"กุดปลาดุก","ADM3_PCODE":"TH370116","ADM2_EN":"Mueang Amnat Charoen","ADM2_TH":"เมืองอำนาจเจริญ","ADM2_PCODE":"TH3701","ADM1_EN":"Amnat Charoen","ADM1_TH":"อำนาจเจริญ","ADM1_PCODE":"TH37","ADM0_EN":"Thailand","ADM0_TH":"ประเทศไทย","ADM0_PCODE":"TH"}},{"arcs":[[-14,64,-43,-53]],"type":"Polygon","properties":{"Shape_Leng":0.291829730691,"Shape_Area":0.00180913338358,"ADM3_EN":"Don Moei","ADM3_TH":"ดอนเมย","ADM3_PCODE":"TH370117","ADM2_EN":"Mueang Amnat Charoen","ADM2_TH":"เมืองอำนาจเจริญ","ADM2_PCODE":"TH3701","ADM1_EN":"Amnat Charoen","ADM1_TH":"อำนาจเจริญ","ADM1_PCODE":"TH37","ADM0_EN":"Thailand","ADM0_TH":"ประเทศไทย","ADM0_PCODE":"TH"}},{"arcs":[[-41,-52,-63,-54]],"type":"Polygon","properties":{"Shape_Leng":0.381613579052,"Shape_Area":0.00346558613991,"ADM3_EN":"Na Yom","ADM3_TH":"นายม","ADM3_PCODE":"TH370118","ADM2_EN":"Mueang Amnat Charoen","ADM2_TH":"เมืองอำนาจเจริญ","ADM2_PCODE":"TH3701","ADM1_EN":"Amnat Charoen","ADM1_TH":"อำนาจเจริญ","ADM1_PCODE":"TH37","ADM0_EN":"Thailand","ADM0_TH":"ประเทศไทย","ADM0_PCODE":"TH"}},{"arcs":[[-7,-58,-35,65,66,-29]],"type":"Polygon","properties":{"Shape_Leng":0.371558455444,"Shape_Area":0.00395473068817,"ADM3_EN":"Na Tae","ADM3_TH":"นาแต้","ADM3_PCODE":"TH370119","ADM2_EN":"Mueang Amnat Charoen","ADM2_TH":"เมืองอำนาจเจริญ","ADM2_PCODE":"TH3701","ADM1_EN":"Amnat Charoen","ADM1_TH":"อำนาจเจริญ","ADM1_PCODE":"TH37","ADM0_EN":"Thailand","ADM0_TH":"ประเทศไทย","ADM0_PCODE":"TH"}},{"arcs":[[67,68,69]],"type":"Polygon","properties":{"Shape_Leng":0.57037909777,"Shape_Area":0.00887912765141,"ADM3_EN":"Chanuman","ADM3_TH":"ชานุมาน","ADM3_PCODE":"TH370201","ADM2_EN":"Chanuman","ADM2_TH":"ชานุมาน","ADM2_PCODE":"TH3702","ADM1_EN":"Amnat Charoen","ADM1_TH":"อำนาจเจริญ","ADM1_PCODE":"TH37","ADM0_EN":"Thailand","ADM0_TH":"ประเทศไทย","ADM0_PCODE":"TH"}},{"arcs":[[-68,70,71,72]],"type":"Polygon","properties":{"Shape_Leng":0.352762663421,"Shape_Area":0.00457953791692,"ADM3_EN":"Khok San","ADM3_TH":"โคกสาร","ADM3_PCODE":"TH370202","ADM2_EN":"Chanuman","ADM2_TH":"ชานุมาน","ADM2_PCODE":"TH3702","ADM1_EN":"Amnat Charoen","ADM1_TH":"อำนาจเจริญ","ADM1_PCODE":"TH37","ADM0_EN":"Thailand","ADM0_TH":"ประเทศไทย","ADM0_PCODE":"TH"}},{"arcs":[[-69,-73,73,74,75]],"type":"Polygon","properties":{"Shape_Leng":0.780104338346,"Shape_Area":0.0156888758213,"ADM3_EN":"Kham Khuean Kaeo","ADM3_TH":"คำเขื่อนแก้ว","ADM3_PCODE":"TH370203","ADM2_EN":"Chanuman","ADM2_TH":"ชานุมาน","ADM2_PCODE":"TH3702","ADM1_EN":"Amnat Charoen","ADM1_TH":"อำนาจเจริญ","ADM1_PCODE":"TH37","ADM0_EN":"Thailand","ADM0_TH":"ประเทศไทย","ADM0_PCODE":"TH"}},{"arcs":[[-72,76,77,78,79,-74]],"type":"Polygon","properties":{"Shape_Leng":0.65670130767,"Shape_Area":0.0123693869698,"ADM3_EN":"Khok Kong","ADM3_TH":"โคกก่ง","ADM3_PCODE":"TH370204","ADM2_EN":"Chanuman","ADM2_TH":"ชานุมาน","ADM2_PCODE":"TH3702","ADM1_EN":"Amnat Charoen","ADM1_TH":"อำนาจเจริญ","ADM1_PCODE":"TH37","ADM0_EN":"Thailand","ADM0_TH":"ประเทศไทย","ADM0_PCODE":"TH"}},{"arcs":[[-75,-80,80,81]],"type":"Polygon","properties":{"Shape_Leng":0.54165359771,"Shape_Area":0.00821551783524,"ADM3_EN":"Pa Ko","ADM3_TH":"ป่าก่อ","ADM3_PCODE":"TH370205","ADM2_EN":"Chanuman","ADM2_TH":"ชานุมาน","ADM2_PCODE":"TH3702","ADM1_EN":"Amnat Charoen","ADM1_TH":"อำนาจเจริญ","ADM1_PCODE":"TH37","ADM0_EN":"Thailand","ADM0_TH":"ประเทศไทย","ADM0_PCODE":"TH"}},{"arcs":[[-25,-32,82,-81,-79,83,84,85,86]],"type":"Polygon","properties":{"Shape_Leng":0.592641044365,"Shape_Area":0.00901406703189,"ADM3_EN":"Nong Kha","ADM3_TH":"หนองข่า","ADM3_PCODE":"TH370301","ADM2_EN":"Pathum Ratchawongsa","ADM2_TH":"ปทุมราชวงศา","ADM2_PCODE":"TH3703","ADM1_EN":"Amnat Charoen","ADM1_TH":"อำนาจเจริญ","ADM1_PCODE":"TH37","ADM0_EN":"Thailand","ADM0_TH":"ประเทศไทย","ADM0_PCODE":"TH"}},{"arcs":[[-78,87,88,89,-84]],"type":"Polygon","properties":{"Shape_Leng":0.48560991834,"Shape_Area":0.00786209221,"ADM3_EN":"Kham Phon","ADM3_TH":"คำโพน","ADM3_PCODE":"TH370302","ADM2_EN":"Pathum Ratchawongsa","ADM2_TH":"ปทุมราชวงศา","ADM2_PCODE":"TH3703","ADM1_EN":"Amnat Charoen","ADM1_TH":"อำนาจเจริญ","ADM1_PCODE":"TH37","ADM0_EN":"Thailand","ADM0_TH":"ประเทศไทย","ADM0_PCODE":"TH"}},{"arcs":[[-85,-90,90,91]],"type":"Polygon","properties":{"Shape_Leng":0.445692575889,"Shape_Area":0.00515741003914,"ADM3_EN":"Na Wa","ADM3_TH":"นาหว้า","ADM3_PCODE":"TH370303","ADM2_EN":"Pathum Ratchawongsa","ADM2_TH":"ปทุมราชวงศา","ADM2_PCODE":"TH3703","ADM1_EN":"Amnat Charoen","ADM1_TH":"อำนาจเจริญ","ADM1_PCODE":"TH37","ADM0_EN":"Thailand","ADM0_TH":"ประเทศไทย","ADM0_PCODE":"TH"}},{"arcs":[[-17,92,93,94,95,96,97]],"type":"Polygon","properties":{"Shape_Leng":0.426444577641,"Shape_Area":0.00586294951457,"ADM3_EN":"Lue","ADM3_TH":"ลือ","ADM3_PCODE":"TH370304","ADM2_EN":"Pathum Ratchawongsa","ADM2_TH":"ปทุมราชวงศา","ADM2_PCODE":"TH3703","ADM1_EN":"Amnat Charoen","ADM1_TH":"อำนาจเจริญ","ADM1_PCODE":"TH37","ADM0_EN":"Thailand","ADM0_TH":"ประเทศไทย","ADM0_PCODE":"TH"}},{"arcs":[[-89,98,-95,99,-91]],"type":"Polygon","properties":{"Shape_Leng":0.458617827181,"Shape_Area":0.00492842148672,"ADM3_EN":"Huai","ADM3_TH":"ห้วย","ADM3_PCODE":"TH370305","ADM2_EN":"Pathum Ratchawongsa","ADM2_TH":"ปทุมราชวงศา","ADM2_PCODE":"TH3703","ADM1_EN":"Amnat Charoen","ADM1_TH":"อำนาจเจริญ","ADM1_PCODE":"TH37","ADM0_EN":"Thailand","ADM0_TH":"ประเทศไทย","ADM0_PCODE":"TH"}},{"arcs":[[-16,-26,-87,100,-93]],"type":"Polygon","properties":{"Shape_Leng":0.32738341957,"Shape_Area":0.00310407768015,"ADM3_EN":"Non Ngam","ADM3_TH":"โนนงาม","ADM3_PCODE":"TH370306","ADM2_EN":"Pathum Ratchawongsa","ADM2_TH":"ปทุมราชวงศา","ADM2_PCODE":"TH3703","ADM1_EN":"Amnat Charoen","ADM1_TH":"อำนาจเจริญ","ADM1_PCODE":"TH37","ADM0_EN":"Thailand","ADM0_TH":"ประเทศไทย","ADM0_PCODE":"TH"}},{"arcs":[[-86,-92,-100,-94,-101]],"type":"Polygon","properties":{"Shape_Leng":0.462514725439,"Shape_Area":0.00589680329396,"ADM3_EN":"Na Pa Saeng","ADM3_TH":"นาป่าแซง","ADM3_PCODE":"TH370307","ADM2_EN":"Pathum Ratchawongsa","ADM2_TH":"ปทุมราชวงศา","ADM2_PCODE":"TH3703","ADM1_EN":"Amnat Charoen","ADM1_TH":"อำนาจเจริญ","ADM1_PCODE":"TH37","ADM0_EN":"Thailand","ADM0_TH":"ประเทศไทย","ADM0_PCODE":"TH"}},{"arcs":[[101,102,103]],"type":"Polygon","properties":{"Shape_Leng":0.32223505124,"Shape_Area":0.00355077508777,"ADM3_EN":"Phana","ADM3_TH":"พนา","ADM3_PCODE":"TH370401","ADM2_EN":"Phana","ADM2_TH":"พนา","ADM2_PCODE":"TH3704","ADM1_EN":"Amnat Charoen","ADM1_TH":"อำนาจเจริญ","ADM1_PCODE":"TH37","ADM0_EN":"Thailand","ADM0_TH":"ประเทศไทย","ADM0_PCODE":"TH"}},{"arcs":[[-103,104,105,106]],"type":"Polygon","properties":{"Shape_Leng":0.596552208668,"Shape_Area":0.00715490465941,"ADM3_EN":"Chan Lan","ADM3_TH":"จานลาน","ADM3_PCODE":"TH370402","ADM2_EN":"Phana","ADM2_TH":"พนา","ADM2_PCODE":"TH3704","ADM1_EN":"Amnat Charoen","ADM1_TH":"อำนาจเจริญ","ADM1_PCODE":"TH37","ADM0_EN":"Thailand","ADM0_TH":"ประเทศไทย","ADM0_PCODE":"TH"}},{"arcs":[[-18,-98,107,108,109]],"type":"Polygon","properties":{"Shape_Leng":0.411021812547,"Shape_Area":0.00543960420414,"ADM3_EN":"Mai Klon","ADM3_TH":"ไม้กลอน","ADM3_PCODE":"TH370403","ADM2_EN":"Phana","ADM2_TH":"พนา","ADM2_PCODE":"TH3704","ADM1_EN":"Amnat Charoen","ADM1_TH":"อำนาจเจริญ","ADM1_PCODE":"TH37","ADM0_EN":"Thailand","ADM0_TH":"ประเทศไทย","ADM0_PCODE":"TH"}},{"arcs":[[-97,110,-104,-107,111,-108]],"type":"Polygon","properties":{"Shape_Leng":0.505446807574,"Shape_Area":0.00451137482557,"ADM3_EN":"Phra Lao","ADM3_TH":"พระเหลา","ADM3_PCODE":"TH370404","ADM2_EN":"Phana","ADM2_TH":"พนา","ADM2_PCODE":"TH3704","ADM1_EN":"Amnat Charoen","ADM1_TH":"อำนาจเจริญ","ADM1_PCODE":"TH37","ADM0_EN":"Thailand","ADM0_TH":"ประเทศไทย","ADM0_PCODE":"TH"}},{"arcs":[[-40,112,113,114,115,116,-66]],"type":"Polygon","properties":{"Shape_Leng":0.578401477988,"Shape_Area":0.00860298492274,"ADM3_EN":"Senangkhanikhom","ADM3_TH":"เสนางคนิคม","ADM3_PCODE":"TH370501","ADM2_EN":"Senangkhanikhom","ADM2_TH":"เสนางคนิคม","ADM2_PCODE":"TH3705","ADM1_EN":"Amnat Charoen","ADM1_TH":"อำนาจเจริญ","ADM1_PCODE":"TH37","ADM0_EN":"Thailand","ADM0_TH":"ประเทศไทย","ADM0_PCODE":"TH"}},{"arcs":[[-30,-67,-117,117,118]],"type":"Polygon","properties":{"Shape_Leng":0.456818774197,"Shape_Area":0.00517469807631,"ADM3_EN":"Phon Thong","ADM3_TH":"โพนทอง","ADM3_PCODE":"TH370502","ADM2_EN":"Senangkhanikhom","ADM2_TH":"เสนางคนิคม","ADM2_PCODE":"TH3705","ADM1_EN":"Amnat Charoen","ADM1_TH":"อำนาจเจริญ","ADM1_PCODE":"TH37","ADM0_EN":"Thailand","ADM0_TH":"ประเทศไทย","ADM0_PCODE":"TH"}},{"arcs":[[-115,119,120]],"type":"Polygon","properties":{"Shape_Leng":0.330999662835,"Shape_Area":0.00377855888133,"ADM3_EN":"Rai Si Suk","ADM3_TH":"ไร่สีสุก","ADM3_PCODE":"TH370503","ADM2_EN":"Senangkhanikhom","ADM2_TH":"เสนางคนิคม","ADM2_PCODE":"TH3705","ADM1_EN":"Amnat Charoen","ADM1_TH":"อำนาจเจริญ","ADM1_PCODE":"TH37","ADM0_EN":"Thailand","ADM0_TH":"ประเทศไทย","ADM0_PCODE":"TH"}},{"arcs":[[-39,-49,121,122,-113]],"type":"Polygon","properties":{"Shape_Leng":0.394395561934,"Shape_Area":0.00486124762753,"ADM3_EN":"Na Wiang","ADM3_TH":"นาเวียง","ADM3_PCODE":"TH370504","ADM2_EN":"Senangkhanikhom","ADM2_TH":"เสนางคนิคม","ADM2_PCODE":"TH3705","ADM1_EN":"Amnat Charoen","ADM1_TH":"อำนาจเจริญ","ADM1_PCODE":"TH37","ADM0_EN":"Thailand","ADM0_TH":"ประเทศไทย","ADM0_PCODE":"TH"}},{"arcs":[[-31,-119,-82,-83]],"type":"Polygon","properties":{"Shape_Leng":0.494075992841,"Shape_Area":0.00520556048261,"ADM3_EN":"Nong Hai","ADM3_TH":"หนองไฮ","ADM3_PCODE":"TH370505","ADM2_EN":"Senangkhanikhom","ADM2_TH":"เสนางคนิคม","ADM2_PCODE":"TH3705","ADM1_EN":"Amnat Charoen","ADM1_TH":"อำนาจเจริญ","ADM1_PCODE":"TH37","ADM0_EN":"Thailand","ADM0_TH":"ประเทศไทย","ADM0_PCODE":"TH"}},{"arcs":[[-114,-123,123,-120]],"type":"Polygon","properties":{"Shape_Leng":0.278121058,"Shape_Area":0.00293622766929,"ADM3_EN":"Nong Sam Si","ADM3_TH":"หนองสามสี","ADM3_PCODE":"TH370506","ADM2_EN":"Senangkhanikhom","ADM2_TH":"เสนางคนิคม","ADM2_PCODE":"TH3705","ADM1_EN":"Amnat Charoen","ADM1_TH":"อำนาจเจริญ","ADM1_PCODE":"TH37","ADM0_EN":"Thailand","ADM0_TH":"ประเทศไทย","ADM0_PCODE":"TH"}},{"arcs":[[124,125,126,127]],"type":"Polygon","properties":{"Shape_Leng":0.34255602078,"Shape_Area":0.00296359940177,"ADM3_EN":"Hua Taphan","ADM3_TH":"หัวตะพาน","ADM3_PCODE":"TH370601","ADM2_EN":"Hua Taphan","ADM2_TH":"หัวตะพาน","ADM2_PCODE":"TH3706","ADM1_EN":"Amnat Charoen","ADM1_TH":"อำนาจเจริญ","ADM1_PCODE":"TH37","ADM0_EN":"Thailand","ADM0_TH":"ประเทศไทย","ADM0_PCODE":"TH"}},{"arcs":[[-44,-65,128,129,-127,130]],"type":"Polygon","properties":{"Shape_Leng":0.416442892251,"Shape_Area":0.0038955432446,"ADM3_EN":"Kham Phra","ADM3_TH":"คำพระ","ADM3_PCODE":"TH370602","ADM2_EN":"Hua Taphan","ADM2_TH":"หัวตะพาน","ADM2_PCODE":"TH3706","ADM1_EN":"Amnat Charoen","ADM1_TH":"อำนาจเจริญ","ADM1_PCODE":"TH37","ADM0_EN":"Thailand","ADM0_TH":"ประเทศไทย","ADM0_PCODE":"TH"}},{"arcs":[[-11,131,132,133,134,-129,-13]],"type":"Polygon","properties":{"Shape_Leng":0.3165549361,"Shape_Area":0.00431985074335,"ADM3_EN":"Kheng Yai","ADM3_TH":"เค็งใหญ่","ADM3_PCODE":"TH370603","ADM2_EN":"Hua Taphan","ADM2_TH":"หัวตะพาน","ADM2_PCODE":"TH3706","ADM1_EN":"Amnat Charoen","ADM1_TH":"อำนาจเจริญ","ADM1_PCODE":"TH37","ADM0_EN":"Thailand","ADM0_TH":"ประเทศไทย","ADM0_PCODE":"TH"}},{"arcs":[[-134,135,136,137,138,139]],"type":"Polygon","properties":{"Shape_Leng":0.298994937389,"Shape_Area":0.00277465609946,"ADM3_EN":"Nong Kaeo","ADM3_TH":"หนองแก้ว","ADM3_PCODE":"TH370604","ADM2_EN":"Hua Taphan","ADM2_TH":"หัวตะพาน","ADM2_PCODE":"TH3706","ADM1_EN":"Amnat Charoen","ADM1_TH":"อำนาจเจริญ","ADM1_PCODE":"TH37","ADM0_EN":"Thailand","ADM0_TH":"ประเทศไทย","ADM0_PCODE":"TH"}},{"arcs":[[-138,140,141,142]],"type":"Polygon","properties":{"Shape_Leng":0.355989418908,"Shape_Area":0.00516739641502,"ADM3_EN":"Phon Mueang Noi","ADM3_TH":"โพนเมืองน้อย","ADM3_PCODE":"TH370605","ADM2_EN":"Hua Taphan","ADM2_TH":"หัวตะพาน","ADM2_PCODE":"TH3706","ADM1_EN":"Amnat Charoen","ADM1_TH":"อำนาจเจริญ","ADM1_PCODE":"TH37","ADM0_EN":"Thailand","ADM0_TH":"ประเทศไทย","ADM0_PCODE":"TH"}},{"arcs":[[-125,143,-139,-143,144,145]],"type":"Polygon","properties":{"Shape_Leng":0.505573983286,"Shape_Area":0.00769794759946,"ADM3_EN":"Sang Tho Noi","ADM3_TH":"สร้างถ่อน้อย","ADM3_PCODE":"TH370606","ADM2_EN":"Hua Taphan","ADM2_TH":"หัวตะพาน","ADM2_PCODE":"TH3706","ADM1_EN":"Amnat Charoen","ADM1_TH":"อำนาจเจริญ","ADM1_PCODE":"TH37","ADM0_EN":"Thailand","ADM0_TH":"ประเทศไทย","ADM0_PCODE":"TH"}},{"arcs":[[-142,146,-145]],"type":"Polygon","properties":{"Shape_Leng":0.313326687093,"Shape_Area":0.00469554106453,"ADM3_EN":"Chik Du","ADM3_TH":"จิกดู่","ADM3_PCODE":"TH370607","ADM2_EN":"Hua Taphan","ADM2_TH":"หัวตะพาน","ADM2_PCODE":"TH3706","ADM1_EN":"Amnat Charoen","ADM1_TH":"อำนาจเจริญ","ADM1_PCODE":"TH37","ADM0_EN":"Thailand","ADM0_TH":"ประเทศไทย","ADM0_PCODE":"TH"}},{"arcs":[[-128,-130,-135,-140,-144]],"type":"Polygon","properties":{"Shape_Leng":0.222374440274,"Shape_Area":0.00235994060035,"ADM3_EN":"Rattana Wari","ADM3_TH":"รัตนวารี","ADM3_PCODE":"TH370608","ADM2_EN":"Hua Taphan","ADM2_TH":"หัวตะพาน","ADM2_PCODE":"TH3706","ADM1_EN":"Amnat Charoen","ADM1_TH":"อำนาจเจริญ","ADM1_PCODE":"TH37","ADM0_EN":"Thailand","ADM0_TH":"ประเทศไทย","ADM0_PCODE":"TH"}},{"arcs":[[147,148,149,150,151]],"type":"Polygon","properties":{"Shape_Leng":0.25900278487,"Shape_Area":0.00221970849996,"ADM3_EN":"Amnat","ADM3_TH":"อำนาจ","ADM3_PCODE":"TH370701","ADM2_EN":"Lue Amnat","ADM2_TH":"ลืออำนาจ","ADM2_PCODE":"TH3707","ADM1_EN":"Amnat Charoen","ADM1_TH":"อำนาจเจริญ","ADM1_PCODE":"TH37","ADM0_EN":"Thailand","ADM0_TH":"ประเทศไทย","ADM0_PCODE":"TH"}},{"arcs":[[-133,152,-150,153,-136]],"type":"Polygon","properties":{"Shape_Leng":0.268776033552,"Shape_Area":0.00184209595674,"ADM3_EN":"Dong Mayang","ADM3_TH":"ดงมะยาง","ADM3_PCODE":"TH370702","ADM2_EN":"Lue Amnat","ADM2_TH":"ลืออำนาจ","ADM2_PCODE":"TH3707","ADM1_EN":"Amnat Charoen","ADM1_TH":"อำนาจเจริญ","ADM1_PCODE":"TH37","ADM0_EN":"Thailand","ADM0_TH":"ประเทศไทย","ADM0_PCODE":"TH"}},{"arcs":[[-148,154,155,156]],"type":"Polygon","properties":{"Shape_Leng":0.389910665535,"Shape_Area":0.00352576132672,"ADM3_EN":"Pueai","ADM3_TH":"เปือย","ADM3_PCODE":"TH370703","ADM2_EN":"Lue Amnat","ADM2_TH":"ลืออำนาจ","ADM2_PCODE":"TH3707","ADM1_EN":"Amnat Charoen","ADM1_TH":"อำนาจเจริญ","ADM1_PCODE":"TH37","ADM0_EN":"Thailand","ADM0_TH":"ประเทศไทย","ADM0_PCODE":"TH"}},{"arcs":[[-19,-110,157,158,-156,159,-61]],"type":"Polygon","properties":{"Shape_Leng":0.483270144605,"Shape_Area":0.00444135981396,"ADM3_EN":"Dong Bang","ADM3_TH":"ดงบัง","ADM3_PCODE":"TH370704","ADM2_EN":"Lue Amnat","ADM2_TH":"ลืออำนาจ","ADM2_PCODE":"TH3707","ADM1_EN":"Amnat Charoen","ADM1_TH":"อำนาจเจริญ","ADM1_PCODE":"TH37","ADM0_EN":"Thailand","ADM0_TH":"ประเทศไทย","ADM0_PCODE":"TH"}},{"arcs":[[-106,160,-158,-109,-112]],"type":"Polygon","properties":{"Shape_Leng":0.461944790206,"Shape_Area":0.00432397369831,"ADM3_EN":"Rai Khi","ADM3_TH":"ไร่ขี","ADM3_PCODE":"TH370705","ADM2_EN":"Lue Amnat","ADM2_TH":"ลืออำนาจ","ADM2_PCODE":"TH3707","ADM1_EN":"Amnat Charoen","ADM1_TH":"อำนาจเจริญ","ADM1_PCODE":"TH37","ADM0_EN":"Thailand","ADM0_TH":"ประเทศไทย","ADM0_PCODE":"TH"}},{"arcs":[[-9,-60,-62,-160,-155,-152,161]],"type":"Polygon","properties":{"Shape_Leng":0.273532519099,"Shape_Area":0.00295581482699,"ADM3_EN":"Maet","ADM3_TH":"แมด","ADM3_PCODE":"TH370706","ADM2_EN":"Lue Amnat","ADM2_TH":"ลืออำนาจ","ADM2_PCODE":"TH3707","ADM1_EN":"Amnat Charoen","ADM1_TH":"อำนาจเจริญ","ADM1_PCODE":"TH37","ADM0_EN":"Thailand","ADM0_TH":"ประเทศไทย","ADM0_PCODE":"TH"}},{"arcs":[[-10,-162,-151,-153,-132]],"type":"Polygon","properties":{"Shape_Leng":0.30872881928,"Shape_Area":0.00312753380577,"ADM3_EN":"Khok Klang","ADM3_TH":"โคกกลาง","ADM3_PCODE":"TH370707","ADM2_EN":"Lue Amnat","ADM2_TH":"ลืออำนาจ","ADM2_PCODE":"TH3707","ADM1_EN":"Amnat Charoen","ADM1_TH":"อำนาจเจริญ","ADM1_PCODE":"TH37","ADM0_EN":"Thailand","ADM0_TH":"ประเทศไทย","ADM0_PCODE":"TH"}}]}}}