{"type":"Topology","arcs":[[[8442,3936],[-101,90],[-72,-41],[-117,50]],[[8152,4035],[90,106],[138,41],[66,-74],[54,-13],[73,67]],[[8573,4162],[95,37]],[[8668,4199],[-29,-106],[-86,-60],[-49,4],[-6,-58],[-56,-43]],[[8152,4035],[-52,-82],[-2,-79],[45,-97]],[[8143,3777],[-163,3],[-42,110],[28,125],[81,86]],[[8047,4101],[146,132],[98,37]],[[8291,4270],[100,18],[116,-22]],[[8507,4266],[66,-104]],[[8047,4101],[-125,-14],[-85,-38],[-25,-45]],[[7812,4004],[-171,87],[-90,-36],[4,106],[-89,104],[-209,-28],[-47,-70],[100,-5],[22,-118],[-146,19],[-49,-39],[-71,32],[-54,-18]],[[7012,4038],[-10,172],[51,127]],[[7053,4337],[13,37],[112,11],[74,-17],[53,74],[211,8],[134,190],[-23,111],[84,115],[-10,65],[37,68]],[[7738,4999],[70,-24],[66,-97],[-19,-153],[71,-18],[162,50],[15,-85],[108,22],[31,-67],[-16,-175],[65,-182]],[[7053,4337],[-171,4],[-234,20]],[[6648,4361],[-17,41],[-92,19],[-71,95]],[[6468,4516],[-106,137],[32,104],[205,395]],[[6599,5152],[162,61],[117,-27],[133,-2],[154,45],[43,31]],[[7208,5260],[201,-36],[180,-58]],[[7589,5166],[63,-160],[86,-7]],[[8143,3777],[81,-169],[-19,-47],[-184,-174],[-19,-113]],[[8002,3274],[-385,25],[-51,-65],[-6,-92],[-53,-73]],[[7507,3069],[-32,189],[39,76],[-18,60],[73,176],[181,68],[126,113],[38,107],[-102,146]],[[8507,4266],[-21,150],[109,135],[-43,145],[-103,90],[-144,222],[22,90],[138,98],[27,58]],[[8492,5254],[114,-20],[78,-46],[109,66],[93,4],[168,-63],[81,-93],[98,1]],[[9233,5103],[69,-123],[5,-69],[-51,-123],[-99,-62],[-153,23],[-107,-39],[-49,-114],[-22,-141],[57,-80]],[[8883,4375],[-139,-151],[-76,-25]],[[7012,4038],[-30,-118],[-70,-187],[-101,-165],[-122,-246],[-17,-69],[10,-179]],[[6682,3074],[43,-212]],[[6725,2862],[-79,-34],[-54,25],[-104,-12],[-84,46],[-2,80],[-73,92],[-147,100],[5,112]],[[6187,3271],[27,92],[-9,133],[-44,50],[35,67],[-29,87],[131,18],[113,179],[67,202],[65,34],[8,61],[97,167]],[[8883,4375],[78,28],[184,-88],[136,-24],[205,-6]],[[9486,4285],[89,-143],[-77,-33],[-21,-168],[33,-105],[-54,-58],[-9,-123],[-103,-55],[-39,-47],[-183,-8]],[[9122,3545],[-94,31],[-230,-41]],[[8798,3535],[-64,90],[-60,-5],[9,79],[-241,237]],[[9122,3545],[-63,-45],[37,-86],[135,-25],[31,-87],[48,-12],[120,-186],[55,-15],[-5,-103],[-47,-32],[51,-33],[-31,-72],[80,-45],[-42,-135],[10,-104]],[[9501,2565],[-131,3],[-100,-86],[-74,42],[-116,-78],[-112,25],[13,100],[-43,87],[-77,2],[-79,-87],[-115,56]],[[8667,2629],[-103,93],[-36,105],[-10,127],[72,67],[-74,31],[-5,146],[-86,14],[-101,75],[23,67],[65,-9],[286,50],[76,77],[24,63]],[[8002,3274],[79,-142],[-27,-118],[15,-71],[107,-138],[42,-159],[-28,-123],[37,-83],[181,-9],[84,-23]],[[8492,2408],[-69,-112],[13,-75],[-27,-52]],[[8409,2169],[-280,10],[-250,63],[-366,79],[-108,-5],[-42,40],[15,127],[32,74],[-216,84],[-186,8],[-77,65],[-206,63]],[[6725,2777],[0,85]],[[6682,3074],[207,0],[131,-25],[197,40],[202,-30],[88,10]],[[8667,2629],[38,-61]],[[8705,2568],[-213,-160]],[[9233,5103],[173,33],[127,-130],[105,-18],[108,-73]],[[9746,4915],[-182,-110],[-73,-67],[-12,-117],[26,-99],[-45,-153],[26,-84]],[[7589,5166],[329,150],[134,-15],[242,-6],[198,-41]],[[9069,6402],[94,-97],[237,58],[246,-14],[204,3]],[[9850,6352],[-21,-167],[59,-108],[-30,-65],[26,-45]],[[9884,5967],[-69,-41],[-291,-35],[-26,-67],[-112,-133],[-143,-1],[-102,-32],[-46,38],[-98,-44],[-141,13],[-51,-31],[-85,12],[-58,-38],[-159,-32]],[[8503,5576],[-55,206],[90,128],[110,55],[23,109]],[[8671,6074],[-103,190],[-11,74]],[[8557,6338],[117,-1],[1,75],[126,-20],[54,12],[214,-2]],[[8968,7266],[-77,-11],[41,-79],[-141,-52],[14,-77],[-187,-49],[-90,24],[-82,-13],[-90,44],[-141,-32]],[[8215,7021],[-73,267],[-71,92],[-99,72],[-95,156],[-221,228],[-10,112]],[[7646,7948],[127,-3],[7,-57],[137,0],[89,-45],[114,14],[68,-96],[96,11],[323,-22],[51,-77],[-10,-73],[84,1],[38,-73],[-2,-110],[178,-44],[22,-108]],[[8492,5254],[16,119],[-5,203]],[[9884,5967],[61,-20],[54,-73],[-55,-45],[-195,-10],[19,-137],[-41,-131],[23,-99],[-39,-70],[92,-39],[34,-89],[-94,-73],[-15,-51],[18,-215]],[[7589,5166],[-48,119],[14,85],[82,51],[144,-31],[39,70],[-26,69],[8,104],[35,25],[9,114],[49,31],[-55,111],[-70,-17],[18,147]],[[7788,6044],[60,41],[93,16],[30,95],[84,10],[50,-50],[174,-6],[1,-20],[169,-5],[126,-50],[96,-1]],[[7788,6044],[-162,27],[-39,40],[130,117],[13,37],[-125,3],[-64,71],[-63,6],[-58,50],[9,65],[47,28],[-58,33]],[[7418,6521],[51,84],[-3,48],[54,4],[10,53],[82,-14],[31,33],[-45,56]],[[7598,6785],[242,-5],[43,144],[215,12],[127,-18]],[[8225,6918],[7,-89],[55,-89],[165,-103],[87,-140]],[[8539,6497],[18,-159]],[[8215,7021],[10,-103]],[[7598,6785],[69,95],[12,80],[-41,81],[30,97],[-102,77],[-36,63],[-56,6],[-20,54],[54,39],[-13,53],[-128,37],[-39,66],[-5,180],[-64,76],[-14,116],[-40,11]],[[7205,7916],[99,51],[60,-31],[130,20],[152,-8]],[[8968,7266],[31,13],[154,-42],[99,-55],[67,-11]],[[9319,7171],[14,-98],[62,-14],[208,23],[75,-146]],[[9678,6936],[-158,8],[-163,-39],[-3,-137],[-61,-73],[-195,-103],[-124,-51],[-207,-37],[-228,-7]],[[9678,6936],[39,-74],[118,-98],[-134,-47],[-217,-22],[-137,-61],[-73,-56],[-148,-54],[-57,-122]],[[9319,7171],[66,-27],[164,52],[48,-2],[46,-114],[110,-205],[116,-96],[-49,-66],[-55,8],[-95,-68],[-50,-117],[94,-90],[136,-94]],[[8705,2568],[93,-34],[61,29],[39,73],[43,-114],[-43,-206],[44,-112],[-60,-50],[-106,-175],[-144,-101]],[[8632,1878],[-84,-163],[-143,-133],[42,-180],[-297,-17],[169,-214],[12,-99]],[[8331,1072],[-21,-10]],[[8310,1062],[-51,65],[-186,156],[-9,81],[70,162],[27,167],[69,49],[126,-5],[55,29],[30,95],[-3,177],[73,62],[72,101],[4,125],[-95,82]],[[8310,1062],[90,-174],[21,-112]],[[8421,776],[-70,-5]],[[8351,771],[-485,538],[-207,173],[-7,108],[-108,98],[-30,100],[31,94],[-6,76]],[[7539,1958],[93,45],[208,41],[136,-9],[167,13],[121,38],[114,-62],[31,145]],[[9501,2565],[78,-118],[66,-37],[-3,-152],[79,-34],[-37,-58],[-149,-35],[-78,-49],[62,-137],[-29,-63],[87,-49],[51,53],[119,-146],[-129,-54],[-117,-127],[-40,-229]],[[9461,1330],[-160,-6],[-50,91],[23,104],[-86,130],[-85,50],[-78,-34],[-105,43],[-64,61],[-64,13],[-160,96]],[[9461,1330],[97,-150],[-11,-370]],[[9547,810],[-172,52],[-153,66],[-197,42],[-471,16],[-99,-14],[-48,64],[-76,36]],[[9547,810],[15,-84],[82,-166],[-187,-36],[-99,-69],[-80,-16],[-115,-82],[-88,-35],[-25,-89],[-76,-65],[-205,-52],[-55,-30]],[[8714,86],[-146,55],[-72,49],[-37,98],[-12,241],[-26,247]],[[7539,1958],[-121,76],[-95,213],[-150,-21],[-95,-45],[-7,66],[66,94],[-32,69],[-266,33],[-119,89]],[[6720,2532],[5,245]],[[8351,771],[-441,-56],[-191,-58],[-63,-82],[-144,-25],[-68,55],[-236,60]],[[7208,665],[-14,204],[-88,169],[38,160],[30,34],[4,106],[57,0],[95,102],[47,-15],[51,60],[-269,154],[-97,-1],[-27,91],[-56,83],[-148,60],[-66,-2],[-51,43],[-19,-49],[-67,2],[2,49],[-58,-38]],[[6572,1877],[27,306],[22,150],[99,199]],[[8714,86],[-99,-17],[-42,-60],[-116,-9],[-52,72],[-195,21],[-91,-10],[-17,39],[-105,43],[-75,-8],[-143,47],[-72,55],[-183,-43],[-17,41],[-81,2],[-202,-39],[-16,151],[0,294]],[[7018,6243],[113,-69],[-27,-48],[-189,-56],[-47,-65]],[[6868,6005],[-126,10],[-90,30],[-100,-63],[-69,-17]],[[6483,5965],[-149,-62],[-306,-79],[-87,-36]],[[5941,5788],[-34,43],[-154,14],[-24,44],[-111,32]],[[5618,5921],[89,61],[-32,89]],[[5675,6071],[175,62],[104,132],[69,41],[-45,28],[111,159],[36,92],[-28,20],[114,122],[10,43]],[[6221,6770],[184,11],[124,-18],[65,21],[8,-104],[58,-145],[76,-26],[72,-67],[0,-86],[58,-28],[69,-94],[83,9]],[[7208,5260],[-81,28],[-78,159],[-76,75],[52,90],[-54,128],[112,151],[21,52],[-71,54],[-56,-14],[-109,22]],[[7018,6243],[80,95],[94,44],[-10,96]],[[7182,6478],[89,24],[33,48],[114,-29]],[[6599,5152],[-61,-27],[-42,44]],[[6496,5169],[-10,141],[-27,97],[39,8],[60,178],[-26,76],[25,69],[-72,158],[-2,69]],[[5727,7725],[63,-158]],[[5790,7567],[-177,-188],[-214,-148],[-50,-6],[-119,-124],[30,-87]],[[5260,7014],[-60,19],[-224,-21],[-90,18],[-84,-35],[-146,-5],[-63,22],[-219,-2],[-82,-70]],[[4292,6940],[-64,15],[-271,-136],[-273,-80],[-54,-89]],[[3630,6650],[-102,38],[-97,69],[-157,-46],[-216,15],[-28,83],[-142,37],[0,60],[-65,10]],[[2823,6916],[-67,205]],[[2756,7121],[166,38],[205,26],[204,1],[199,14],[405,-145],[80,138]],[[4015,7193],[164,91],[455,228],[53,186],[90,49],[285,43],[163,134]],[[5225,7924],[40,-80],[281,-98],[181,-21]],[[2823,6916],[-62,9],[-57,-54],[-59,-255],[56,-3],[-54,-185],[17,-35],[124,-46],[-39,-140],[-64,-41],[-212,-1]],[[2473,6165],[-198,-13],[-85,38],[-71,-179],[-67,-114],[-262,-47],[-169,35]],[[1621,5885],[-136,38],[-88,-20],[-70,56],[-33,113],[-187,48],[41,87],[-169,22],[-38,153],[112,169],[-5,141],[-136,-63],[-10,36],[106,14],[-14,73],[25,124],[-69,12],[-40,101],[-134,49],[-50,239],[-14,167],[-68,99],[-58,-6],[-72,58],[-18,92],[-97,80],[85,23],[21,-65],[77,-42],[78,-2],[-29,130],[124,40]],[[755,7851],[153,-145],[172,-224],[58,-38],[263,-63],[237,-20],[316,-13],[13,15],[218,46],[19,-50],[193,40],[55,-20],[44,67]],[[2496,7446],[97,-82],[3,-60],[89,-6],[-32,-137],[50,-51],[53,11]],[[7182,6478],[-50,115],[26,74],[92,51],[35,82],[-22,37],[-148,26],[-61,90],[64,135],[-68,51],[5,60],[122,-10],[59,79],[-28,87],[-47,24],[-164,-8]],[[6997,7371],[-64,38],[-54,76],[15,132],[-43,89],[-37,150],[26,39],[148,12],[69,32]],[[7057,7939],[51,-57],[97,34]],[[6468,4516],[-263,-24],[-16,61],[-187,10]],[[6002,4563],[-96,0],[-142,182],[-154,25],[-138,52],[-172,-28],[-49,134]],[[5251,4928],[50,96]],[[5301,5024],[179,46],[51,-74],[121,33],[73,-21],[-2,52],[50,27],[84,-54],[37,15]],[[5894,5048],[62,-7],[95,38],[176,-12],[82,25],[14,62],[173,15]],[[6997,7371],[-179,-101],[-43,68],[-139,-54],[-79,80],[-124,-11],[-106,123],[-61,-22],[-38,154],[-94,3],[-8,93],[-49,49],[3,83],[-104,9],[2,28],[-120,-5]],[[5858,7868],[-105,62],[-62,125],[174,22],[-2,21],[127,22],[31,29],[-16,215]],[[6005,8364],[38,31],[164,-14],[149,5],[211,184],[8,94],[71,49],[31,100],[165,-125],[129,-54],[134,-243],[7,-46],[-107,-126],[89,-88],[11,-67],[-48,-125]],[[5675,6071],[-43,78]],[[5632,6149],[32,182],[-46,26],[6,120],[-38,22],[25,65],[-42,19],[-5,73],[-85,11],[-38,96],[-53,11],[-27,139],[-64,22],[-37,79]],[[5790,7567],[139,-23],[126,-182],[88,-40],[16,-117],[65,-82],[-26,-20],[-48,-306],[71,-27]],[[3630,6650],[56,3],[23,-51],[69,23],[54,-139],[67,-96],[120,-84],[68,-2],[38,-52],[-2,-105],[65,-29]],[[4188,6118],[-222,-82],[-25,-64],[-127,-132],[-115,-58],[-75,-61],[108,-74],[-40,-52],[-42,-274],[-164,31],[-149,-52],[-129,21],[-94,48],[-49,-30]],[[3065,5339],[-115,76],[-132,25],[-15,76],[-145,25],[-10,36]],[[2648,5577],[-77,126],[41,52],[-60,150],[-25,155],[-57,23],[3,82]],[[5941,5788],[32,-59],[64,21],[43,-125],[13,-141],[-93,-41],[-50,-110],[24,-77],[-39,-56],[-41,-152]],[[5301,5024],[-16,57],[57,182],[26,172]],[[5368,5435],[44,174],[-8,130],[67,134],[147,48]],[[5632,6149],[-244,29],[-169,60],[-261,54],[-30,89],[-88,36],[12,66],[-104,40],[-2,102],[-235,110],[1,22],[-137,88],[-11,83],[-72,12]],[[5727,7725],[152,43],[-21,100]],[[5368,5435],[-89,22],[-179,164],[-64,7],[-1,76],[-135,38],[-93,-14],[-83,40],[-75,101],[-75,20],[-21,56],[-72,33],[-127,109],[49,5],[-62,66],[-153,-40]],[[3853,9643],[66,-68],[166,-96],[106,-139],[114,-109],[69,-129],[44,-18],[228,-25],[28,-91],[66,-9],[114,-127],[74,20],[38,-71],[-15,-72],[52,-33],[-22,-138]],[[4981,8538],[56,-88],[-1,-58],[-84,-54],[31,-63],[-110,-8],[-51,-89]],[[4822,8178],[-79,92],[-65,43],[-31,-28],[-211,-15],[-160,35],[-51,-94],[-256,175],[-213,-151],[-85,55]],[[3671,8290],[-76,112],[-75,5],[-158,-35],[-209,58]],[[3153,8430],[-98,23],[-32,43],[3,166],[-27,12],[75,177],[-28,30],[-258,152],[-130,198],[-126,268],[-94,154],[18,59],[88,97],[28,95]],[[2572,9904],[64,-126],[100,-115],[175,-57],[216,-85],[158,-117],[11,98],[54,115],[74,41],[132,-51],[248,21],[49,15]],[[4015,7193],[-70,176],[33,261],[-131,111],[-238,-32],[8,320],[-8,148],[64,65],[-2,48]],[[4822,8178],[95,-54],[10,-72],[53,-26],[85,17],[59,-58],[83,1],[18,-62]],[[2496,7446],[-30,34],[-16,160],[-50,65],[70,122],[-15,90],[-105,41],[87,47],[-25,96],[19,48],[98,53],[51,-155],[46,81],[-55,253]],[[2571,8381],[582,49]],[[755,7851],[109,32],[-3,166],[-190,-61],[-26,70],[13,186],[-112,2],[-63,-27],[-30,182],[-6,139]],[[447,8540],[42,18],[31,98],[86,69],[244,18],[159,56],[151,86],[81,-186],[27,-120],[472,-216],[168,21],[435,-34],[129,1],[99,30]],[[447,8540],[-35,258],[94,1],[-34,141],[-26,186],[50,5],[-10,57],[124,31],[167,74],[3,54],[204,16],[48,100],[181,29],[-29,66],[40,37],[-68,47],[-47,154],[138,18],[202,51],[164,19],[52,58],[76,5],[117,-76],[70,3],[79,-64],[122,24],[239,-19],[63,41],[141,48]],[[3853,9643],[36,68],[-38,49],[-122,62],[72,58],[135,4],[292,66],[108,49],[90,-45],[71,-124],[88,-51],[-30,-112],[130,-39],[32,-56],[51,-3],[33,-58],[-8,-73],[173,-60],[36,-113],[-47,-96],[40,-63],[84,-29],[117,-204],[61,-9],[224,40]],[[5481,8904],[-32,-97],[-57,-12],[-70,-70],[-130,-94],[-45,2],[-14,-91],[-152,-4]],[[5481,8904],[204,12],[18,-76],[90,-117],[11,-100],[42,6],[159,-265]],[[6002,4563],[16,-244],[-74,-356],[-80,-235],[-127,-154]],[[5737,3574],[-260,20],[-96,24],[-162,-9],[18,-32]],[[5237,3577],[-60,-3],[-15,76],[-74,89],[-30,105],[-74,15],[-2,97]],[[4982,3956],[24,81],[64,78],[-28,64],[206,103],[-33,114],[10,98],[-131,28],[-7,130],[42,37],[122,15],[19,34],[-81,67],[-31,106]],[[5158,4911],[93,17]],[[4982,3956],[-69,23],[-74,-25],[-194,-24],[-56,-36],[-150,-37],[-138,-89],[-132,-55]],[[4169,3713],[-17,108],[134,21],[-18,79],[59,9],[-73,197],[32,218],[-47,208],[43,-10],[55,79],[59,14],[2,71]],[[4398,4707],[4,124],[123,49],[66,53],[39,-101],[65,-17],[76,26],[180,124],[168,5],[39,-59]],[[6572,1877],[-59,41],[-63,-71],[-36,83],[-72,26],[-29,-34],[-83,12],[-154,-32]],[[6076,1902],[-40,156],[-180,204],[-192,309],[81,34]],[[5745,2605],[86,-87],[101,2],[-28,-102],[27,-32],[151,118],[95,-36],[19,128],[-107,21],[-32,39],[76,71],[-51,60],[-60,157],[-17,117],[-39,30],[53,89],[-53,31],[-18,147],[-28,44]],[[5920,3402],[126,-115],[141,-16]],[[1365,3715],[67,-98],[-69,-61],[-20,-82],[48,-8],[6,-111],[-37,-104],[7,-69],[100,-5],[8,-121],[-34,-55],[30,-58],[-61,-183],[17,-78],[178,3],[99,48],[60,-21],[43,81]],[[1807,2793],[67,-63],[241,-161],[-7,-63]],[[2108,2506],[-88,-69],[-150,-70],[-100,-69],[-101,-33],[-3,-37],[-83,-75],[17,-71],[-165,-19],[-28,25],[-170,-9],[-69,-106],[-105,-64]],[[1063,1909],[-410,214],[-76,121],[-89,71],[-53,111],[-7,89],[65,182],[43,53],[-54,135],[-96,97],[-63,31],[-80,159],[-62,36],[-31,155],[48,143],[180,105],[59,15],[50,59],[93,12],[4,172]],[[584,3869],[214,-9],[103,163],[32,-25],[182,-48],[123,-133],[89,14],[-36,-57],[74,-59]],[[5237,3577],[76,-89],[119,-80],[52,-94],[-3,-67],[-81,-50],[21,-88],[-86,-39],[6,-59],[-200,-31]],[[5141,2980],[-88,33],[-387,-61],[-72,-67],[-114,61]],[[4480,2946],[-97,-13],[-49,65],[-250,31],[12,28],[-84,92],[-279,36]],[[3733,3185],[-185,211],[1,71]],[[3549,3467],[261,112],[193,61],[166,73]],[[3549,3467],[-62,76],[-55,-12],[-138,79],[-76,4],[-96,-41],[-3,-50],[-119,-97],[-105,-3],[-165,41],[-94,81],[-112,-1]],[[2524,3544],[29,92],[-60,181],[126,85],[116,-85],[48,49],[45,-20],[119,63]],[[2947,3909],[323,152],[-101,113]],[[3169,4174],[56,62],[117,-35],[140,0],[116,91],[-12,14],[127,72],[121,-18],[208,163],[16,127],[-44,79],[-54,15],[40,59]],[[4000,4803],[107,-41],[138,21],[21,-41],[132,-35]],[[6076,1902],[-77,18],[-134,-9],[-50,-47],[49,-75],[-108,-64],[17,-50],[-192,-37],[-303,-31],[-59,44],[-160,-66],[-34,47],[-162,-37],[15,-48],[-144,-25],[-273,-90],[-44,-34],[-142,-21],[-69,43],[-80,-43],[-120,16],[-107,-79],[-34,65],[-71,52],[-1,39],[-94,36]],[[3699,1506],[180,21],[3,107],[-26,75],[35,313],[39,56]],[[3930,2078],[66,-27],[169,-18],[62,-40],[87,51],[123,3],[16,36],[145,54],[132,-13],[31,67],[58,-24],[49,-69],[136,-97],[17,31],[88,-15],[199,-74],[72,39],[78,-35],[48,173],[-24,81],[-62,89],[59,87],[-23,21]],[[5456,2398],[18,86],[83,12],[70,58],[-8,79],[46,18],[80,-46]],[[1807,2793],[-2,103],[215,50],[130,113],[49,90],[171,-4],[56,20],[88,169],[-46,50],[56,160]],[[3733,3185],[-18,-74],[-41,-14],[-59,-134],[54,-119],[-83,-81],[-111,-58],[31,-73]],[[3506,2632],[-79,75],[-69,111],[-55,-4],[-69,-58],[-169,-66],[73,-95],[-74,-42],[-79,-1],[-125,-51],[-86,-90],[-73,55],[-127,20],[-66,-35]],[[2508,2451],[-158,2],[-137,-29],[-105,82]],[[5141,2980],[-30,-48],[60,-10],[14,-119],[53,-14],[-2,-89],[38,-55],[30,-183],[-42,-44],[145,16],[49,-36]],[[3930,2078],[-9,38],[-125,85],[-49,100]],[[3747,2301],[148,83],[174,38],[-17,125],[86,58],[83,133],[60,59],[141,65],[58,84]],[[2508,2451],[21,-61],[-82,-35],[-11,-131],[-82,-43],[38,-38],[-71,-81],[37,-27],[-88,-52],[19,-47],[-46,-96],[59,-26],[1,-52],[63,-97],[114,-111],[-79,-152]],[[2401,1402],[-278,36],[-49,-36],[-7,-78],[-120,-117],[-104,57],[-351,-141],[-101,-15],[3,78],[-117,70],[-31,126],[65,72],[34,104],[-15,99],[-68,110],[-46,-6],[-100,70],[-53,78]],[[5737,3574],[87,18],[40,-50],[56,-140]],[[4000,4803],[-59,48],[-93,16],[7,88],[-165,27],[-55,29],[-89,-3],[-123,-36],[-73,6],[-126,-83],[-119,30],[-111,112],[-56,10],[5,126],[122,166]],[[3699,1506],[-86,-19],[-37,59],[-60,-28],[-263,69],[-126,-1],[-130,34],[24,-71],[-64,-296],[5,-83],[-124,57],[-229,66],[-208,109]],[[3506,2632],[-18,-96],[111,-92],[84,-100],[-15,-43],[79,0]],[[2947,3909],[-70,-5],[-197,68],[-107,152],[-61,18],[-7,58],[-103,22],[-92,-59]],[[2310,4163],[-129,54],[-117,-37],[-82,72],[-132,-67],[-98,14],[-41,45],[-99,24],[-39,90],[-93,23],[-128,-75],[-37,7],[-71,166],[-166,51],[-82,-28],[-12,79],[-65,-21],[-74,25],[-27,98],[26,87],[-68,70],[0,132],[-48,44],[-125,17],[-44,-25],[-51,48]],[[508,5056],[96,48],[-58,98],[74,29],[-81,89],[-13,66],[43,86],[132,-18],[12,27]],[[713,5481],[65,-227],[48,-47],[198,-111],[166,-30],[86,11],[214,-11],[211,-32],[53,-62],[156,32],[213,-53],[56,13],[181,-18]],[[2360,4946],[51,-169],[-112,-151],[31,-75],[50,3],[65,-110],[93,-1],[113,-102],[134,-30],[153,3],[169,-69],[62,-71]],[[2360,4946],[115,-26],[59,53],[99,-3],[-7,55],[-57,20],[25,151],[-39,7],[-31,77],[55,44],[-69,119],[72,117],[66,17]],[[584,3869],[-60,23],[-33,62],[94,103],[204,150],[48,169],[-156,21],[-81,40],[-188,30],[-126,-71],[-17,107],[-58,93],[-89,6],[-40,61],[-68,13],[31,100],[-45,112],[99,107],[44,-37],[51,24],[60,-61],[62,56],[21,112],[52,43],[119,-76]],[[2310,4163],[-11,-31],[106,-75],[-263,-260],[-54,-90],[-6,-71],[-96,-5],[-59,40],[-322,20],[-128,-21],[-84,82],[-28,-37]],[[713,5481],[22,109],[399,-9],[202,73],[20,57],[141,22],[82,-38],[95,140],[-53,50]]],"transform":{"scale":[0.00003168755285528347,0.00003632972327232408],"translate":[100.19129282300008,14.439152878000073]},"objects":{"Ang Thong":{"type":"GeometryCollection","geometries":[{"arcs":[[0,1,2,3]],"type":"Polygon","properties":{"Shape_Leng":0.0477779902665,"Shape_Area":0.000076799094928,"ADM3_EN":"Talat Luang","ADM3_TH":"ตลาดหลวง","ADM3_PCODE":"TH150101","ADM2_EN":"Mueang Ang Thong","ADM2_TH":"เมืองอ่างทอง","ADM2_PCODE":"TH1501","ADM1_EN":"Ang Thong","ADM1_TH":"อ่างทอง","ADM1_PCODE":"TH15","ADM0_EN":"Thailand","ADM0_TH":"ประเทศไทย","ADM0_PCODE":"TH"}},{"arcs":[[-2,4,5,6,7,8]],"type":"Polygon","properties":{"Shape_Leng":0.0684857533406,"Shape_Area":0.00012863533078,"ADM3_EN":"Bang Kaeo","ADM3_TH":"บางแก้ว","ADM3_PCODE":"TH150102","ADM2_EN":"Mueang Ang Thong","ADM2_TH":"เมืองอ่างทอง","ADM2_PCODE":"TH1501","ADM1_EN":"Ang Thong","ADM1_TH":"อ่างทอง","ADM1_PCODE":"TH15","ADM0_EN":"Thailand","ADM0_TH":"ประเทศไทย","ADM0_PCODE":"TH"}},{"arcs":[[-7,9,10,11,12,13]],"type":"Polygon","properties":{"Shape_Leng":0.165224218696,"Shape_Area":0.000688838066375,"ADM3_EN":"Sala Daeng","ADM3_TH":"ศาลาแดง","ADM3_PCODE":"TH150103","ADM2_EN":"Mueang Ang Thong","ADM2_TH":"เมืองอ่างทอง","ADM2_PCODE":"TH1501","ADM1_EN":"Ang Thong","ADM1_TH":"อ่างทอง","ADM1_PCODE":"TH15","ADM0_EN":"Thailand","ADM0_TH":"ประเทศไทย","ADM0_PCODE":"TH"}},{"arcs":[[-13,14,15,16,17,18,19]],"type":"Polygon","properties":{"Shape_Leng":0.132344845241,"Shape_Area":0.00108994438523,"ADM3_EN":"Pa Ngio","ADM3_TH":"ป่างิ้ว","ADM3_PCODE":"TH150104","ADM2_EN":"Mueang Ang Thong","ADM2_TH":"เมืองอ่างทอง","ADM2_PCODE":"TH1501","ADM1_EN":"Ang Thong","ADM1_TH":"อ่างทอง","ADM1_PCODE":"TH15","ADM0_EN":"Thailand","ADM0_TH":"ประเทศไทย","ADM0_PCODE":"TH"}},{"arcs":[[-6,20,21,22,-10]],"type":"Polygon","properties":{"Shape_Leng":0.112574316002,"Shape_Area":0.000332659362319,"ADM3_EN":"Ban Hae","ADM3_TH":"บ้านแห","ADM3_PCODE":"TH150105","ADM2_EN":"Mueang Ang Thong","ADM2_TH":"เมืองอ่างทอง","ADM2_PCODE":"TH1501","ADM1_EN":"Ang Thong","ADM1_TH":"อ่างทอง","ADM1_PCODE":"TH15","ADM0_EN":"Thailand","ADM0_TH":"ประเทศไทย","ADM0_PCODE":"TH"}},{"arcs":[[-3,-9,23,24,25,26]],"type":"Polygon","properties":{"Shape_Leng":0.127822843488,"Shape_Area":0.000663114667598,"ADM3_EN":"Talat Kruat","ADM3_TH":"ตลาดกรวด","ADM3_PCODE":"TH150106","ADM2_EN":"Mueang Ang Thong","ADM2_TH":"เมืองอ่างทอง","ADM2_PCODE":"TH1501","ADM1_EN":"Ang Thong","ADM1_TH":"อ่างทอง","ADM1_PCODE":"TH15","ADM0_EN":"Thailand","ADM0_TH":"ประเทศไทย","ADM0_PCODE":"TH"}},{"arcs":[[-12,27,28,29,30,-15]],"type":"Polygon","properties":{"Shape_Leng":0.147750321315,"Shape_Area":0.000863288521139,"ADM3_EN":"Mahatthai","ADM3_TH":"มหาดไทย","ADM3_PCODE":"TH150107","ADM2_EN":"Mueang Ang Thong","ADM2_TH":"เมืองอ่างทอง","ADM2_PCODE":"TH1501","ADM1_EN":"Ang Thong","ADM1_TH":"อ่างทอง","ADM1_PCODE":"TH15","ADM0_EN":"Thailand","ADM0_TH":"ประเทศไทย","ADM0_PCODE":"TH"}},{"arcs":[[-4,-27,31,32,33,34]],"type":"Polygon","properties":{"Shape_Leng":0.115778312115,"Shape_Area":0.000753110554966,"ADM3_EN":"Ban It","ADM3_TH":"บ้านอิฐ","ADM3_PCODE":"TH150108","ADM2_EN":"Mueang Ang Thong","ADM2_TH":"เมืองอ่างทอง","ADM2_PCODE":"TH1501","ADM1_EN":"Ang Thong","ADM1_TH":"อ่างทอง","ADM1_PCODE":"TH15","ADM0_EN":"Thailand","ADM0_TH":"ประเทศไทย","ADM0_PCODE":"TH"}},{"arcs":[[-34,35,36,37]],"type":"Polygon","properties":{"Shape_Leng":0.154359120066,"Shape_Area":0.000939374738668,"ADM3_EN":"Hua Phai","ADM3_TH":"หัวไผ่","ADM3_PCODE":"TH150109","ADM2_EN":"Mueang Ang Thong","ADM2_TH":"เมืองอ่างทอง","ADM2_PCODE":"TH1501","ADM1_EN":"Ang Thong","ADM1_TH":"อ่างทอง","ADM1_PCODE":"TH15","ADM0_EN":"Thailand","ADM0_TH":"ประเทศไทย","ADM0_PCODE":"TH"}},{"arcs":[[-22,38,39,40,41,-29,42]],"type":"Polygon","properties":{"Shape_Leng":0.177548113035,"Shape_Area":0.00124403990918,"ADM3_EN":"Champa Lo","ADM3_TH":"จำปาหล่อ","ADM3_PCODE":"TH150110","ADM2_EN":"Mueang Ang Thong","ADM2_TH":"เมืองอ่างทอง","ADM2_PCODE":"TH1501","ADM1_EN":"Ang Thong","ADM1_TH":"อ่างทอง","ADM1_PCODE":"TH15","ADM0_EN":"Thailand","ADM0_TH":"ประเทศไทย","ADM0_PCODE":"TH"}},{"arcs":[[-1,-35,-38,43,44,-39,-21,-5]],"type":"Polygon","properties":{"Shape_Leng":0.171098066434,"Shape_Area":0.000808964957212,"ADM3_EN":"Pho Sa","ADM3_TH":"โพสะ","ADM3_PCODE":"TH150111","ADM2_EN":"Mueang Ang Thong","ADM2_TH":"เมืองอ่างทอง","ADM2_PCODE":"TH1501","ADM1_EN":"Ang Thong","ADM1_TH":"อ่างทอง","ADM1_PCODE":"TH15","ADM0_EN":"Thailand","ADM0_TH":"ประเทศไทย","ADM0_PCODE":"TH"}},{"arcs":[[-26,45,46,-32]],"type":"Polygon","properties":{"Shape_Leng":0.107070195534,"Shape_Area":0.000428195419751,"ADM3_EN":"Ban Ri","ADM3_TH":"บ้านรี","ADM3_PCODE":"TH150112","ADM2_EN":"Mueang Ang Thong","ADM2_TH":"เมืองอ่างทอง","ADM2_PCODE":"TH1501","ADM1_EN":"Ang Thong","ADM1_TH":"อ่างทอง","ADM1_PCODE":"TH15","ADM0_EN":"Thailand","ADM0_TH":"ประเทศไทย","ADM0_PCODE":"TH"}},{"arcs":[[-11,-23,-43,-28]],"type":"Polygon","properties":{"Shape_Leng":0.155530794443,"Shape_Area":0.00100565846015,"ADM3_EN":"Khlong Wua","ADM3_TH":"คลองวัว","ADM3_PCODE":"TH150113","ADM2_EN":"Mueang Ang Thong","ADM2_TH":"เมืองอ่างทอง","ADM2_PCODE":"TH1501","ADM1_EN":"Ang Thong","ADM1_TH":"อ่างทอง","ADM1_PCODE":"TH15","ADM0_EN":"Thailand","ADM0_TH":"ประเทศไทย","ADM0_PCODE":"TH"}},{"arcs":[[-8,-14,-20,47,-24]],"type":"Polygon","properties":{"Shape_Leng":0.133656149037,"Shape_Area":0.000579294110471,"ADM3_EN":"Yan Sue","ADM3_TH":"ย่านซื่อ","ADM3_PCODE":"TH150114","ADM2_EN":"Mueang Ang Thong","ADM2_TH":"เมืองอ่างทอง","ADM2_PCODE":"TH1501","ADM1_EN":"Ang Thong","ADM1_TH":"อ่างทอง","ADM1_PCODE":"TH15","ADM0_EN":"Thailand","ADM0_TH":"ประเทศไทย","ADM0_PCODE":"TH"}},{"arcs":[[48,49,50,51,52,53]],"type":"Polygon","properties":{"Shape_Leng":0.148323592309,"Shape_Area":0.000942603829876,"ADM3_EN":"Chorakhe Rong","ADM3_TH":"จรเข้ร้อง","ADM3_PCODE":"TH150201","ADM2_EN":"Chaiyo","ADM2_TH":"ไชโย","ADM2_PCODE":"TH1502","ADM1_EN":"Ang Thong","ADM1_TH":"อ่างทอง","ADM1_PCODE":"TH15","ADM0_EN":"Thailand","ADM0_TH":"ประเทศไทย","ADM0_PCODE":"TH"}},{"arcs":[[54,55,56]],"type":"Polygon","properties":{"Shape_Leng":0.137596539433,"Shape_Area":0.000727638871416,"ADM3_EN":"Chaiyaphum","ADM3_TH":"ไชยภูมิ","ADM3_PCODE":"TH150202","ADM2_EN":"Chaiyo","ADM2_TH":"ไชโย","ADM2_PCODE":"TH1502","ADM1_EN":"Ang Thong","ADM1_TH":"อ่างทอง","ADM1_PCODE":"TH15","ADM0_EN":"Thailand","ADM0_TH":"ประเทศไทย","ADM0_PCODE":"TH"}},{"arcs":[[-25,57,-51,58,-46]],"type":"Polygon","properties":{"Shape_Leng":0.166272839123,"Shape_Area":0.000859895614678,"ADM3_EN":"Chaiyarit","ADM3_TH":"ชัยฤทธิ์","ADM3_PCODE":"TH150203","ADM2_EN":"Chaiyo","ADM2_TH":"ไชโย","ADM2_PCODE":"TH1502","ADM1_EN":"Ang Thong","ADM1_TH":"อ่างทอง","ADM1_PCODE":"TH15","ADM0_EN":"Thailand","ADM0_TH":"ประเทศไทย","ADM0_PCODE":"TH"}},{"arcs":[[-48,59,60,-52,-58]],"type":"Polygon","properties":{"Shape_Leng":0.143665354376,"Shape_Area":0.00074064641433,"ADM3_EN":"Thewarat","ADM3_TH":"เทวราช","ADM3_PCODE":"TH150204","ADM2_EN":"Chaiyo","ADM2_TH":"ไชโย","ADM2_PCODE":"TH1502","ADM1_EN":"Ang Thong","ADM1_TH":"อ่างทอง","ADM1_PCODE":"TH15","ADM0_EN":"Thailand","ADM0_TH":"ประเทศไทย","ADM0_PCODE":"TH"}},{"arcs":[[-53,-61,61,62,63,64,65]],"type":"Polygon","properties":{"Shape_Leng":0.146302491577,"Shape_Area":0.000810583925611,"ADM3_EN":"Ratsathit","ADM3_TH":"ราชสถิตย์","ADM3_PCODE":"TH150205","ADM2_EN":"Chaiyo","ADM2_TH":"ไชโย","ADM2_PCODE":"TH1502","ADM1_EN":"Ang Thong","ADM1_TH":"อ่างทอง","ADM1_PCODE":"TH15","ADM0_EN":"Thailand","ADM0_TH":"ประเทศไทย","ADM0_PCODE":"TH"}},{"arcs":[[-56,66,-64,67,68]],"type":"Polygon","properties":{"Shape_Leng":0.136773124713,"Shape_Area":0.000660653255115,"ADM3_EN":"Chaiyo","ADM3_TH":"ไชโย","ADM3_PCODE":"TH150206","ADM2_EN":"Chaiyo","ADM2_TH":"ไชโย","ADM2_PCODE":"TH1502","ADM1_EN":"Ang Thong","ADM1_TH":"อ่างทอง","ADM1_PCODE":"TH15","ADM0_EN":"Thailand","ADM0_TH":"ประเทศไทย","ADM0_PCODE":"TH"}},{"arcs":[[-55,69,70,71,-65,-67]],"type":"Polygon","properties":{"Shape_Leng":0.134628448423,"Shape_Area":0.00071786839459,"ADM3_EN":"Lak Fa","ADM3_TH":"หลักฟ้า","ADM3_PCODE":"TH150207","ADM2_EN":"Chaiyo","ADM2_TH":"ไชโย","ADM2_PCODE":"TH1502","ADM1_EN":"Ang Thong","ADM1_TH":"อ่างทอง","ADM1_PCODE":"TH15","ADM0_EN":"Thailand","ADM0_TH":"ประเทศไทย","ADM0_PCODE":"TH"}},{"arcs":[[-54,-66,-72,72]],"type":"Polygon","properties":{"Shape_Leng":0.109920351462,"Shape_Area":0.000224139972168,"ADM3_EN":"Chawai","ADM3_TH":"ชะไว","ADM3_PCODE":"TH150208","ADM2_EN":"Chaiyo","ADM2_TH":"ไชโย","ADM2_PCODE":"TH1502","ADM1_EN":"Ang Thong","ADM1_TH":"อ่างทอง","ADM1_PCODE":"TH15","ADM0_EN":"Thailand","ADM0_TH":"ประเทศไทย","ADM0_PCODE":"TH"}},{"arcs":[[-49,-73,-71,73]],"type":"Polygon","properties":{"Shape_Leng":0.138593570254,"Shape_Area":0.000254167536727,"ADM3_EN":"Tri Narong","ADM3_TH":"ตรีณรงค์","ADM3_PCODE":"TH150209","ADM2_EN":"Chaiyo","ADM2_TH":"ไชโย","ADM2_PCODE":"TH1502","ADM1_EN":"Ang Thong","ADM1_TH":"อ่างทอง","ADM1_PCODE":"TH15","ADM0_EN":"Thailand","ADM0_TH":"ประเทศไทย","ADM0_PCODE":"TH"}},{"arcs":[[-45,74,75,76,77]],"type":"Polygon","properties":{"Shape_Leng":0.156429396352,"Shape_Area":0.000450092004452,"ADM3_EN":"Bang Pla Kot","ADM3_TH":"บางปลากด","ADM3_PCODE":"TH150301","ADM2_EN":"Pa Mok","ADM2_TH":"ป่าโมก","ADM2_PCODE":"TH1503","ADM1_EN":"Ang Thong","ADM1_TH":"อ่างทอง","ADM1_PCODE":"TH15","ADM0_EN":"Thailand","ADM0_TH":"ประเทศไทย","ADM0_PCODE":"TH"}},{"arcs":[[-40,-78,78,79,80,81]],"type":"Polygon","properties":{"Shape_Leng":0.171896686487,"Shape_Area":0.000695704049792,"ADM3_EN":"Pa Mok","ADM3_TH":"ป่าโมก","ADM3_PCODE":"TH150302","ADM2_EN":"Pa Mok","ADM2_TH":"ป่าโมก","ADM2_PCODE":"TH1503","ADM1_EN":"Ang Thong","ADM1_TH":"อ่างทอง","ADM1_PCODE":"TH15","ADM0_EN":"Thailand","ADM0_TH":"ประเทศไทย","ADM0_PCODE":"TH"}},{"arcs":[[-37,82,83,-75,-44]],"type":"Polygon","properties":{"Shape_Leng":0.190705002758,"Shape_Area":0.000852948798308,"ADM3_EN":"Sai Thong","ADM3_TH":"สายทอง","ADM3_PCODE":"TH150303","ADM2_EN":"Pa Mok","ADM2_TH":"ป่าโมก","ADM2_PCODE":"TH1503","ADM1_EN":"Ang Thong","ADM1_TH":"อ่างทอง","ADM1_PCODE":"TH15","ADM0_EN":"Thailand","ADM0_TH":"ประเทศไทย","ADM0_PCODE":"TH"}},{"arcs":[[-76,-84,84,85]],"type":"Polygon","properties":{"Shape_Leng":0.143976437217,"Shape_Area":0.000943467385239,"ADM3_EN":"Rong Chang","ADM3_TH":"โรงช้าง","ADM3_PCODE":"TH150304","ADM2_EN":"Pa Mok","ADM2_TH":"ป่าโมก","ADM2_PCODE":"TH1503","ADM1_EN":"Ang Thong","ADM1_TH":"อ่างทอง","ADM1_PCODE":"TH15","ADM0_EN":"Thailand","ADM0_TH":"ประเทศไทย","ADM0_PCODE":"TH"}},{"arcs":[[-77,-86,86,87,-79]],"type":"Polygon","properties":{"Shape_Leng":0.128855230746,"Shape_Area":0.000873127360879,"ADM3_EN":"Bang Sadet","ADM3_TH":"บางเสด็จ","ADM3_PCODE":"TH150305","ADM2_EN":"Pa Mok","ADM2_TH":"ป่าโมก","ADM2_PCODE":"TH1503","ADM1_EN":"Ang Thong","ADM1_TH":"อ่างทอง","ADM1_PCODE":"TH15","ADM0_EN":"Thailand","ADM0_TH":"ประเทศไทย","ADM0_PCODE":"TH"}},{"arcs":[[-41,-82,88,89]],"type":"Polygon","properties":{"Shape_Leng":0.15534652308,"Shape_Area":0.000484237528863,"ADM3_EN":"Norasing","ADM3_TH":"นรสิงห์","ADM3_PCODE":"TH150306","ADM2_EN":"Pa Mok","ADM2_TH":"ป่าโมก","ADM2_PCODE":"TH1503","ADM1_EN":"Ang Thong","ADM1_TH":"อ่างทอง","ADM1_PCODE":"TH15","ADM0_EN":"Thailand","ADM0_TH":"ประเทศไทย","ADM0_PCODE":"TH"}},{"arcs":[[-81,90,91,92,-89]],"type":"Polygon","properties":{"Shape_Leng":0.2419468307,"Shape_Area":0.00148544904524,"ADM3_EN":"Ekkarat","ADM3_TH":"เอกราช","ADM3_PCODE":"TH150307","ADM2_EN":"Pa Mok","ADM2_TH":"ป่าโมก","ADM2_PCODE":"TH1503","ADM1_EN":"Ang Thong","ADM1_TH":"อ่างทอง","ADM1_PCODE":"TH15","ADM0_EN":"Thailand","ADM0_TH":"ประเทศไทย","ADM0_PCODE":"TH"}},{"arcs":[[-80,-88,93,-91]],"type":"Polygon","properties":{"Shape_Leng":0.144927513869,"Shape_Area":0.000750238409264,"ADM3_EN":"Phong Pheng","ADM3_TH":"โผงเผง","ADM3_PCODE":"TH150308","ADM2_EN":"Pa Mok","ADM2_TH":"ป่าโมก","ADM2_PCODE":"TH1503","ADM1_EN":"Ang Thong","ADM1_TH":"อ่างทอง","ADM1_PCODE":"TH15","ADM0_EN":"Thailand","ADM0_TH":"ประเทศไทย","ADM0_PCODE":"TH"}},{"arcs":[[94,95,96,97,98,99,100]],"type":"Polygon","properties":{"Shape_Leng":0.147031703659,"Shape_Area":0.00084787724919,"ADM3_EN":"Ang Kaeo","ADM3_TH":"อ่างแก้ว","ADM3_PCODE":"TH150401","ADM2_EN":"Pho Thong","ADM2_TH":"โพธิ์ทอง","ADM2_PCODE":"TH1504","ADM1_EN":"Ang Thong","ADM1_TH":"อ่างทอง","ADM1_PCODE":"TH15","ADM0_EN":"Thailand","ADM0_TH":"ประเทศไทย","ADM0_PCODE":"TH"}},{"arcs":[[-19,101,-95,102,103,-62,-60]],"type":"Polygon","properties":{"Shape_Leng":0.16888079203,"Shape_Area":0.000940404934852,"ADM3_EN":"Inthapramun","ADM3_TH":"อินทประมูล","ADM3_PCODE":"TH150402","ADM2_EN":"Pho Thong","ADM2_TH":"โพธิ์ทอง","ADM2_PCODE":"TH1504","ADM1_EN":"Ang Thong","ADM1_TH":"อ่างทอง","ADM1_PCODE":"TH15","ADM0_EN":"Thailand","ADM0_TH":"ประเทศไทย","ADM0_PCODE":"TH"}},{"arcs":[[-18,104,105,-96,-102]],"type":"Polygon","properties":{"Shape_Leng":0.111325549458,"Shape_Area":0.000512319180369,"ADM3_EN":"Bang Phlap","ADM3_TH":"บางพลับ","ADM3_PCODE":"TH150403","ADM2_EN":"Pho Thong","ADM2_TH":"โพธิ์ทอง","ADM2_PCODE":"TH1504","ADM1_EN":"Ang Thong","ADM1_TH":"อ่างทอง","ADM1_PCODE":"TH15","ADM0_EN":"Thailand","ADM0_TH":"ประเทศไทย","ADM0_PCODE":"TH"}},{"arcs":[[106,107,108,109,110,111,112,113,114]],"type":"Polygon","properties":{"Shape_Leng":0.248841702522,"Shape_Area":0.00164074263589,"ADM3_EN":"Nong Mae Kai","ADM3_TH":"หนองแม่ไก่","ADM3_PCODE":"TH150404","ADM2_EN":"Pho Thong","ADM2_TH":"โพธิ์ทอง","ADM2_PCODE":"TH1504","ADM1_EN":"Ang Thong","ADM1_TH":"อ่างทอง","ADM1_PCODE":"TH15","ADM0_EN":"Thailand","ADM0_TH":"ประเทศไทย","ADM0_PCODE":"TH"}},{"arcs":[[-112,115,116,117,118,119]],"type":"Polygon","properties":{"Shape_Leng":0.320186120251,"Shape_Area":0.00297020481979,"ADM3_EN":"Ram Masak","ADM3_TH":"รำมะสัก","ADM3_PCODE":"TH150405","ADM2_EN":"Pho Thong","ADM2_TH":"โพธิ์ทอง","ADM2_PCODE":"TH1504","ADM1_EN":"Ang Thong","ADM1_TH":"อ่างทอง","ADM1_PCODE":"TH15","ADM0_EN":"Thailand","ADM0_TH":"ประเทศไทย","ADM0_PCODE":"TH"}},{"arcs":[[-63,-104,120,121,122,-68]],"type":"Polygon","properties":{"Shape_Leng":0.168886063831,"Shape_Area":0.000700225128121,"ADM3_EN":"Bang Rakam","ADM3_TH":"บางระกำ","ADM3_PCODE":"TH150406","ADM2_EN":"Pho Thong","ADM2_TH":"โพธิ์ทอง","ADM2_PCODE":"TH1504","ADM1_EN":"Ang Thong","ADM1_TH":"อ่างทอง","ADM1_PCODE":"TH15","ADM0_EN":"Thailand","ADM0_TH":"ประเทศไทย","ADM0_PCODE":"TH"}},{"arcs":[[-17,123,124,125,126,127,-105]],"type":"Polygon","properties":{"Shape_Leng":0.131669994103,"Shape_Area":0.00055787158995,"ADM3_EN":"Pho Rang Nok","ADM3_TH":"โพธิ์รังนก","ADM3_PCODE":"TH150407","ADM2_EN":"Pho Thong","ADM2_TH":"โพธิ์ทอง","ADM2_PCODE":"TH1504","ADM1_EN":"Ang Thong","ADM1_TH":"อ่างทอง","ADM1_PCODE":"TH15","ADM0_EN":"Thailand","ADM0_TH":"ประเทศไทย","ADM0_PCODE":"TH"}},{"arcs":[[-122,128,129,130]],"type":"Polygon","properties":{"Shape_Leng":0.189657482748,"Shape_Area":0.00130235184665,"ADM3_EN":"Ongkharak","ADM3_TH":"องครักษ์","ADM3_PCODE":"TH150408","ADM2_EN":"Pho Thong","ADM2_TH":"โพธิ์ทอง","ADM2_PCODE":"TH1504","ADM1_EN":"Ang Thong","ADM1_TH":"อ่างทอง","ADM1_PCODE":"TH15","ADM0_EN":"Thailand","ADM0_TH":"ประเทศไทย","ADM0_PCODE":"TH"}},{"arcs":[[-100,131,132,-108,133]],"type":"Polygon","properties":{"Shape_Leng":0.148835529595,"Shape_Area":0.000973955471993,"ADM3_EN":"Khok Phutsa","ADM3_TH":"โคกพุทรา","ADM3_PCODE":"TH150409","ADM2_EN":"Pho Thong","ADM2_TH":"โพธิ์ทอง","ADM2_PCODE":"TH1504","ADM1_EN":"Ang Thong","ADM1_TH":"อ่างทอง","ADM1_PCODE":"TH15","ADM0_EN":"Thailand","ADM0_TH":"ประเทศไทย","ADM0_PCODE":"TH"}},{"arcs":[[-111,134,135,136,137,-116]],"type":"Polygon","properties":{"Shape_Leng":0.227071507698,"Shape_Area":0.00192765785746,"ADM3_EN":"Yang Chai","ADM3_TH":"ยางช้าย","ADM3_PCODE":"TH150410","ADM2_EN":"Pho Thong","ADM2_TH":"โพธิ์ทอง","ADM2_PCODE":"TH1504","ADM1_EN":"Ang Thong","ADM1_TH":"อ่างทอง","ADM1_PCODE":"TH15","ADM0_EN":"Thailand","ADM0_TH":"ประเทศไทย","ADM0_PCODE":"TH"}},{"arcs":[[-98,138,-127,139,140]],"type":"Polygon","properties":{"Shape_Leng":0.112064895029,"Shape_Area":0.000591250311995,"ADM3_EN":"Bo Rae","ADM3_TH":"บ่อแร่","ADM3_PCODE":"TH150411","ADM2_EN":"Pho Thong","ADM2_TH":"โพธิ์ทอง","ADM2_PCODE":"TH1504","ADM1_EN":"Ang Thong","ADM1_TH":"อ่างทอง","ADM1_PCODE":"TH15","ADM0_EN":"Thailand","ADM0_TH":"ประเทศไทย","ADM0_PCODE":"TH"}},{"arcs":[[-109,-133,141]],"type":"Polygon","properties":{"Shape_Leng":0.137400332782,"Shape_Area":0.000774437644005,"ADM3_EN":"Thang Phra","ADM3_TH":"ทางพระ","ADM3_PCODE":"TH150412","ADM2_EN":"Pho Thong","ADM2_TH":"โพธิ์ทอง","ADM2_PCODE":"TH1504","ADM1_EN":"Ang Thong","ADM1_TH":"อ่างทอง","ADM1_PCODE":"TH15","ADM0_EN":"Thailand","ADM0_TH":"ประเทศไทย","ADM0_PCODE":"TH"}},{"arcs":[[-97,-106,-128,-139]],"type":"Polygon","properties":{"Shape_Leng":0.1089521728,"Shape_Area":0.000465115278712,"ADM3_EN":"Sam Ngam","ADM3_TH":"สามง่าม","ADM3_PCODE":"TH150413","ADM2_EN":"Pho Thong","ADM2_TH":"โพธิ์ทอง","ADM2_PCODE":"TH1504","ADM1_EN":"Ang Thong","ADM1_TH":"อ่างทอง","ADM1_PCODE":"TH15","ADM0_EN":"Thailand","ADM0_TH":"ประเทศไทย","ADM0_PCODE":"TH"}},{"arcs":[[-101,-134,-107,142,-129,-121,-103]],"type":"Polygon","properties":{"Shape_Leng":0.219343001887,"Shape_Area":0.00109055625358,"ADM3_EN":"Bang Chao Cha","ADM3_TH":"บางเจ้าฉ่า","ADM3_PCODE":"TH150414","ADM2_EN":"Pho Thong","ADM2_TH":"โพธิ์ทอง","ADM2_PCODE":"TH1504","ADM1_EN":"Ang Thong","ADM1_TH":"อ่างทอง","ADM1_PCODE":"TH15","ADM0_EN":"Thailand","ADM0_TH":"ประเทศไทย","ADM0_PCODE":"TH"}},{"arcs":[[-99,-141,143,-135,-110,-142,-132]],"type":"Polygon","properties":{"Shape_Leng":0.209943938832,"Shape_Area":0.00137692693341,"ADM3_EN":"Kham Yat","ADM3_TH":"คำหยาด","ADM3_PCODE":"TH150415","ADM2_EN":"Pho Thong","ADM2_TH":"โพธิ์ทอง","ADM2_PCODE":"TH1504","ADM1_EN":"Ang Thong","ADM1_TH":"อ่างทอง","ADM1_PCODE":"TH15","ADM0_EN":"Thailand","ADM0_TH":"ประเทศไทย","ADM0_PCODE":"TH"}},{"arcs":[[144,145,146,147,148,149]],"type":"Polygon","properties":{"Shape_Leng":0.274965522224,"Shape_Area":0.00265303484436,"ADM3_EN":"Sawaeng Ha","ADM3_TH":"แสวงหา","ADM3_PCODE":"TH150501","ADM2_EN":"Sawaeng Ha","ADM2_TH":"แสวงหา","ADM2_PCODE":"TH1505","ADM1_EN":"Ang Thong","ADM1_TH":"อ่างทอง","ADM1_PCODE":"TH15","ADM0_EN":"Thailand","ADM0_TH":"ประเทศไทย","ADM0_PCODE":"TH"}},{"arcs":[[-114,150,-147,151]],"type":"Polygon","properties":{"Shape_Leng":0.169936933066,"Shape_Area":0.00118879817979,"ADM3_EN":"Si Phran","ADM3_TH":"ศรีพราน","ADM3_PCODE":"TH150502","ADM2_EN":"Sawaeng Ha","ADM2_TH":"แสวงหา","ADM2_PCODE":"TH1505","ADM1_EN":"Ang Thong","ADM1_TH":"อ่างทอง","ADM1_PCODE":"TH15","ADM0_EN":"Thailand","ADM0_TH":"ประเทศไทย","ADM0_PCODE":"TH"}},{"arcs":[[-113,-120,152,153,-148,-151]],"type":"Polygon","properties":{"Shape_Leng":0.211583250204,"Shape_Area":0.00181861577609,"ADM3_EN":"Ban Phran","ADM3_TH":"บ้านพราน","ADM3_PCODE":"TH150503","ADM2_EN":"Sawaeng Ha","ADM2_TH":"แสวงหา","ADM2_PCODE":"TH1505","ADM1_EN":"Ang Thong","ADM1_TH":"อ่างทอง","ADM1_PCODE":"TH15","ADM0_EN":"Thailand","ADM0_TH":"ประเทศไทย","ADM0_PCODE":"TH"}},{"arcs":[[-119,154,155,-153]],"type":"Polygon","properties":{"Shape_Leng":0.253142023273,"Shape_Area":0.00229501941753,"ADM3_EN":"Wang Nam Yen","ADM3_TH":"วังน้ำเย็น","ADM3_PCODE":"TH150504","ADM2_EN":"Sawaeng Ha","ADM2_TH":"แสวงหา","ADM2_PCODE":"TH1505","ADM1_EN":"Ang Thong","ADM1_TH":"อ่างทอง","ADM1_PCODE":"TH15","ADM0_EN":"Thailand","ADM0_TH":"ประเทศไทย","ADM0_PCODE":"TH"}},{"arcs":[[-149,-154,-156,156]],"type":"Polygon","properties":{"Shape_Leng":0.302947973894,"Shape_Area":0.00311197976638,"ADM3_EN":"Si Bua Thong","ADM3_TH":"สีบัวทอง","ADM3_PCODE":"TH150505","ADM2_EN":"Sawaeng Ha","ADM2_TH":"แสวงหา","ADM2_PCODE":"TH1505","ADM1_EN":"Ang Thong","ADM1_TH":"อ่างทอง","ADM1_PCODE":"TH15","ADM0_EN":"Thailand","ADM0_TH":"ประเทศไทย","ADM0_PCODE":"TH"}},{"arcs":[[-145,157,158]],"type":"Polygon","properties":{"Shape_Leng":0.187998088659,"Shape_Area":0.000941391949318,"ADM3_EN":"Huai Phai","ADM3_TH":"ห้วยไผ่","ADM3_PCODE":"TH150506","ADM2_EN":"Sawaeng Ha","ADM2_TH":"แสวงหา","ADM2_PCODE":"TH1505","ADM1_EN":"Ang Thong","ADM1_TH":"อ่างทอง","ADM1_PCODE":"TH15","ADM0_EN":"Thailand","ADM0_TH":"ประเทศไทย","ADM0_PCODE":"TH"}},{"arcs":[[-115,-152,-146,-159,159,-130,-143]],"type":"Polygon","properties":{"Shape_Leng":0.155396885489,"Shape_Area":0.000969261339872,"ADM3_EN":"Chamlong","ADM3_TH":"จำลอง","ADM3_PCODE":"TH150507","ADM2_EN":"Sawaeng Ha","ADM2_TH":"แสวงหา","ADM2_PCODE":"TH1505","ADM1_EN":"Ang Thong","ADM1_TH":"อ่างทอง","ADM1_PCODE":"TH15","ADM0_EN":"Thailand","ADM0_TH":"ประเทศไทย","ADM0_PCODE":"TH"}},{"arcs":[[-125,160,161,162,163,164]],"type":"Polygon","properties":{"Shape_Leng":0.161037542604,"Shape_Area":0.00112714427433,"ADM3_EN":"Phai Chamsin","ADM3_TH":"ไผ่จำศิล","ADM3_PCODE":"TH150601","ADM2_EN":"Wiset Chai Chan","ADM2_TH":"วิเศษชัยชาญ","ADM2_PCODE":"TH1506","ADM1_EN":"Ang Thong","ADM1_TH":"อ่างทอง","ADM1_PCODE":"TH15","ADM0_EN":"Thailand","ADM0_TH":"ประเทศไทย","ADM0_PCODE":"TH"}},{"arcs":[[-164,165,166,167]],"type":"Polygon","properties":{"Shape_Leng":0.165290121768,"Shape_Area":0.000957685483921,"ADM3_EN":"San Chao Rong Thong","ADM3_TH":"ศาลเจ้าโรงทอง","ADM3_PCODE":"TH150602","ADM2_EN":"Wiset Chai Chan","ADM2_TH":"วิเศษชัยชาญ","ADM2_PCODE":"TH1506","ADM1_EN":"Ang Thong","ADM1_TH":"อ่างทอง","ADM1_PCODE":"TH15","ADM0_EN":"Thailand","ADM0_TH":"ประเทศไทย","ADM0_PCODE":"TH"}},{"arcs":[[-30,-42,-90,-93,168,169,170,171]],"type":"Polygon","properties":{"Shape_Leng":0.200309292547,"Shape_Area":0.000868368572854,"ADM3_EN":"Phai Dam Phatthana","ADM3_TH":"ไผ่ดำพัฒนา","ADM3_PCODE":"TH150603","ADM2_EN":"Wiset Chai Chan","ADM2_TH":"วิเศษชัยชาญ","ADM2_PCODE":"TH1506","ADM1_EN":"Ang Thong","ADM1_TH":"อ่างทอง","ADM1_PCODE":"TH15","ADM0_EN":"Thailand","ADM0_TH":"ประเทศไทย","ADM0_PCODE":"TH"}},{"arcs":[[172,173,174,175,176]],"type":"Polygon","properties":{"Shape_Leng":0.264493495411,"Shape_Area":0.00246475713173,"ADM3_EN":"Sao Rong Hai","ADM3_TH":"สาวร้องไห้","ADM3_PCODE":"TH150604","ADM2_EN":"Wiset Chai Chan","ADM2_TH":"วิเศษชัยชาญ","ADM2_PCODE":"TH1506","ADM1_EN":"Ang Thong","ADM1_TH":"อ่างทอง","ADM1_PCODE":"TH15","ADM0_EN":"Thailand","ADM0_TH":"ประเทศไทย","ADM0_PCODE":"TH"}},{"arcs":[[-163,177,178,179,180,181,-166]],"type":"Polygon","properties":{"Shape_Leng":0.172430080667,"Shape_Area":0.00145997509792,"ADM3_EN":"Tha Chang","ADM3_TH":"ท่าช้าง","ADM3_PCODE":"TH150605","ADM2_EN":"Wiset Chai Chan","ADM2_TH":"วิเศษชัยชาญ","ADM2_PCODE":"TH1506","ADM1_EN":"Ang Thong","ADM1_TH":"อ่างทอง","ADM1_PCODE":"TH15","ADM0_EN":"Thailand","ADM0_TH":"ประเทศไทย","ADM0_PCODE":"TH"}},{"arcs":[[-167,-182,182,183,184,185,186]],"type":"Polygon","properties":{"Shape_Leng":0.225141206303,"Shape_Area":0.00133765069272,"ADM3_EN":"Yi Lon","ADM3_TH":"ยี่ล้น","ADM3_PCODE":"TH150606","ADM2_EN":"Wiset Chai Chan","ADM2_TH":"วิเศษชัยชาญ","ADM2_PCODE":"TH1506","ADM1_EN":"Ang Thong","ADM1_TH":"อ่างทอง","ADM1_PCODE":"TH15","ADM0_EN":"Thailand","ADM0_TH":"ประเทศไทย","ADM0_PCODE":"TH"}},{"arcs":[[-170,187,188,189,190]],"type":"Polygon","properties":{"Shape_Leng":0.256628856111,"Shape_Area":0.00143476598384,"ADM3_EN":"Bang Chak","ADM3_TH":"บางจัก","ADM3_PCODE":"TH150607","ADM2_EN":"Wiset Chai Chan","ADM2_TH":"วิเศษชัยชาญ","ADM2_PCODE":"TH1506","ADM1_EN":"Ang Thong","ADM1_TH":"อ่างทอง","ADM1_PCODE":"TH15","ADM0_EN":"Thailand","ADM0_TH":"ประเทศไทย","ADM0_PCODE":"TH"}},{"arcs":[[-174,191,-183,-181,192,193,194]],"type":"Polygon","properties":{"Shape_Leng":0.210660335992,"Shape_Area":0.00159789437906,"ADM3_EN":"Huai Khan Laen","ADM3_TH":"ห้วยคันแหลน","ADM3_PCODE":"TH150608","ADM2_EN":"Wiset Chai Chan","ADM2_TH":"วิเศษชัยชาญ","ADM2_PCODE":"TH1506","ADM1_EN":"Ang Thong","ADM1_TH":"อ่างทอง","ADM1_PCODE":"TH15","ADM0_EN":"Thailand","ADM0_TH":"ประเทศไทย","ADM0_PCODE":"TH"}},{"arcs":[[-179,195,-190,196,197]],"type":"Polygon","properties":{"Shape_Leng":0.182858407504,"Shape_Area":0.00133506438082,"ADM3_EN":"Khlong Khanak","ADM3_TH":"คลองขนาก","ADM3_PCODE":"TH150609","ADM2_EN":"Wiset Chai Chan","ADM2_TH":"วิเศษชัยชาญ","ADM2_PCODE":"TH1506","ADM1_EN":"Ang Thong","ADM1_TH":"อ่างทอง","ADM1_PCODE":"TH15","ADM0_EN":"Thailand","ADM0_TH":"ประเทศไทย","ADM0_PCODE":"TH"}},{"arcs":[[-175,-195,198,199]],"type":"Polygon","properties":{"Shape_Leng":0.194160833844,"Shape_Area":0.00134668927136,"ADM3_EN":"Phai Wong","ADM3_TH":"ไผ่วง","ADM3_PCODE":"TH150610","ADM2_EN":"Wiset Chai Chan","ADM2_TH":"วิเศษชัยชาญ","ADM2_PCODE":"TH1506","ADM1_EN":"Ang Thong","ADM1_TH":"อ่างทอง","ADM1_PCODE":"TH15","ADM0_EN":"Thailand","ADM0_TH":"ประเทศไทย","ADM0_PCODE":"TH"}},{"arcs":[[-162,200,-171,-191,-196,-178]],"type":"Polygon","properties":{"Shape_Leng":0.183833361341,"Shape_Area":0.000882027164091,"ADM3_EN":"Si Roi","ADM3_TH":"สี่ร้อย","ADM3_PCODE":"TH150611","ADM2_EN":"Wiset Chai Chan","ADM2_TH":"วิเศษชัยชาญ","ADM2_PCODE":"TH1506","ADM1_EN":"Ang Thong","ADM1_TH":"อ่างทอง","ADM1_PCODE":"TH15","ADM0_EN":"Thailand","ADM0_TH":"ประเทศไทย","ADM0_PCODE":"TH"}},{"arcs":[[-126,-165,-168,-187,201,-136,-144,-140]],"type":"Polygon","properties":{"Shape_Leng":0.253560247789,"Shape_Area":0.00216193090807,"ADM3_EN":"Muang Tia","ADM3_TH":"ม่วงเตี้ย","ADM3_PCODE":"TH150612","ADM2_EN":"Wiset Chai Chan","ADM2_TH":"วิเศษชัยชาญ","ADM2_PCODE":"TH1506","ADM1_EN":"Ang Thong","ADM1_TH":"อ่างทอง","ADM1_PCODE":"TH15","ADM0_EN":"Thailand","ADM0_TH":"ประเทศไทย","ADM0_PCODE":"TH"}},{"arcs":[[-16,-31,-172,-201,-161,-124]],"type":"Polygon","properties":{"Shape_Leng":0.135886615138,"Shape_Area":0.000641948566932,"ADM3_EN":"Hua Taphan","ADM3_TH":"หัวตะพาน","ADM3_PCODE":"TH150613","ADM2_EN":"Wiset Chai Chan","ADM2_TH":"วิเศษชัยชาญ","ADM2_PCODE":"TH1506","ADM1_EN":"Ang Thong","ADM1_TH":"อ่างทอง","ADM1_PCODE":"TH15","ADM0_EN":"Thailand","ADM0_TH":"ประเทศไทย","ADM0_PCODE":"TH"}},{"arcs":[[-189,202,-199,-194,203,-197]],"type":"Polygon","properties":{"Shape_Leng":0.219619938745,"Shape_Area":0.00185475315918,"ADM3_EN":"Lak Kaeo","ADM3_TH":"หลักแก้ว","ADM3_PCODE":"TH150614","ADM2_EN":"Wiset Chai Chan","ADM2_TH":"วิเศษชัยชาญ","ADM2_PCODE":"TH1506","ADM1_EN":"Ang Thong","ADM1_TH":"อ่างทอง","ADM1_PCODE":"TH15","ADM0_EN":"Thailand","ADM0_TH":"ประเทศไทย","ADM0_PCODE":"TH"}},{"arcs":[[-180,-198,-204,-193]],"type":"Polygon","properties":{"Shape_Leng":0.111669147591,"Shape_Area":0.000547182432074,"ADM3_EN":"Talat Mai","ADM3_TH":"ตลาดใหม่","ADM3_PCODE":"TH150615","ADM2_EN":"Wiset Chai Chan","ADM2_TH":"วิเศษชัยชาญ","ADM2_PCODE":"TH1506","ADM1_EN":"Ang Thong","ADM1_TH":"อ่างทอง","ADM1_PCODE":"TH15","ADM0_EN":"Thailand","ADM0_TH":"ประเทศไทย","ADM0_PCODE":"TH"}},{"arcs":[[-185,204,205,206,207,208]],"type":"Polygon","properties":{"Shape_Leng":0.275570534754,"Shape_Area":0.00168170579317,"ADM3_EN":"Samko","ADM3_TH":"สามโก้","ADM3_PCODE":"TH150701","ADM2_EN":"Samko","ADM2_TH":"สามโก้","ADM2_PCODE":"TH1507","ADM1_EN":"Ang Thong","ADM1_TH":"อ่างทอง","ADM1_PCODE":"TH15","ADM0_EN":"Thailand","ADM0_TH":"ประเทศไทย","ADM0_PCODE":"TH"}},{"arcs":[[-137,-202,-186,-209,209]],"type":"Polygon","properties":{"Shape_Leng":0.216539390668,"Shape_Area":0.00145218682099,"ADM3_EN":"Ratsadon Phatthana","ADM3_TH":"ราษฎรพัฒนา","ADM3_PCODE":"TH150702","ADM2_EN":"Samko","ADM2_TH":"สามโก้","ADM2_PCODE":"TH1507","ADM1_EN":"Ang Thong","ADM1_TH":"อ่างทอง","ADM1_PCODE":"TH15","ADM0_EN":"Thailand","ADM0_TH":"ประเทศไทย","ADM0_PCODE":"TH"}},{"arcs":[[-177,210,-206,211]],"type":"Polygon","properties":{"Shape_Leng":0.274335535141,"Shape_Area":0.00151852686827,"ADM3_EN":"Optom","ADM3_TH":"อบทม","ADM3_PCODE":"TH150703","ADM2_EN":"Samko","ADM2_TH":"สามโก้","ADM2_PCODE":"TH1507","ADM1_EN":"Ang Thong","ADM1_TH":"อ่างทอง","ADM1_PCODE":"TH15","ADM0_EN":"Thailand","ADM0_TH":"ประเทศไทย","ADM0_PCODE":"TH"}},{"arcs":[[-173,-212,-205,-184,-192]],"type":"Polygon","properties":{"Shape_Leng":0.218225536938,"Shape_Area":0.00115319675883,"ADM3_EN":"Pho Muang Phan","ADM3_TH":"โพธิ์ม่วงพันธ์","ADM3_PCODE":"TH150704","ADM2_EN":"Samko","ADM2_TH":"สามโก้","ADM2_PCODE":"TH1507","ADM1_EN":"Ang Thong","ADM1_TH":"อ่างทอง","ADM1_PCODE":"TH15","ADM0_EN":"Thailand","ADM0_TH":"ประเทศไทย","ADM0_PCODE":"TH"}},{"arcs":[[-117,-138,-210,-208,212]],"type":"Polygon","properties":{"Shape_Leng":0.215993464018,"Shape_Area":0.0016607818446,"ADM3_EN":"Mongkhontham Nimit","ADM3_TH":"มงคลธรรมนิมิต","ADM3_PCODE":"TH150705","ADM2_EN":"Samko","ADM2_TH":"สามโก้","ADM2_PCODE":"TH1507","ADM1_EN":"Ang Thong","ADM1_TH":"อ่างทอง","ADM1_PCODE":"TH15","ADM0_EN":"Thailand","ADM0_TH":"ประเทศไทย","ADM0_PCODE":"TH"}}]}}}