{"type":"Topology","arcs":[[[2728,5720],[7,-8]],[[2735,5712],[5,-13]],[[2740,5699],[17,-115]],[[2757,5584],[1,-61]],[[2758,5523],[2,-87],[-49,-79]],[[2711,5357],[-24,30]],[[2687,5387],[-49,96],[-12,34]],[[2626,5517],[-10,98],[5,89],[21,65]],[[2642,5769],[28,45]],[[2670,5814],[58,-94]],[[2758,5523],[81,-10]],[[2839,5513],[46,-7]],[[2885,5506],[-3,-18]],[[2882,5488],[-12,-46]],[[2870,5442],[-40,-79],[-15,-53]],[[2815,5310],[-35,13]],[[2780,5323],[-69,34]],[[2757,5584],[32,4]],[[2789,5588],[60,6]],[[2849,5594],[-10,-81]],[[2849,5594],[8,61]],[[2857,5655],[52,-17]],[[2909,5638],[-24,-132]],[[2740,5699],[57,-22]],[[2797,5677],[-8,-89]],[[2797,5677],[60,-22]],[[2735,5712],[18,13],[48,-11],[0,59],[20,36]],[[2821,5809],[67,-61],[24,-58]],[[2912,5690],[-3,-52]],[[2728,5720],[9,31],[58,80]],[[2795,5831],[26,-22]],[[2670,5814],[63,79]],[[2733,5893],[62,-62]],[[2795,5831],[41,92]],[[2836,5923],[17,-16],[43,-95],[48,-40]],[[2944,5772],[-28,-78]],[[2916,5694],[-4,-4]],[[2836,5923],[45,61]],[[2881,5984],[91,-132]],[[2972,5852],[-28,-80]],[[2733,5893],[47,93],[22,61]],[[2802,6047],[38,-20],[41,-43]],[[2881,5984],[19,30],[93,260]],[[2993,6274],[121,-81],[34,-9],[20,-21]],[[3168,6163],[-153,-368]],[[3015,5795],[-43,57]],[[2802,6047],[54,184]],[[2856,6231],[54,113]],[[2910,6344],[29,-36],[54,-34]],[[3168,6163],[39,-10],[6,-13],[61,-59]],[[3274,6081],[-113,-371]],[[3161,5710],[-89,99],[-43,-32]],[[3029,5777],[-14,18]],[[3161,5710],[-29,-95]],[[3132,5615],[-29,8]],[[3103,5623],[-16,77]],[[3087,5700],[-58,77]],[[2910,6344],[45,56]],[[2955,6400],[90,137],[24,45],[19,64]],[[3088,6646],[92,-8],[74,-27],[39,2],[54,-13],[15,35],[69,-43]],[[3431,6592],[-156,-509]],[[3275,6083],[-1,-2]],[[9490,6345],[-179,216],[-134,159],[-106,122],[-99,108],[-34,14],[-202,109],[-11,-27]],[[8725,7046],[-38,10],[-35,39],[-39,1]],[[8613,7096],[20,60],[1,81],[8,115],[-49,40],[-13,26],[-3,89],[5,36],[-12,196],[-1,150]],[[8569,7889],[123,4],[94,-18],[136,-41],[150,-56],[79,-16],[171,-48],[115,-27]],[[9437,7687],[139,-35],[-50,-96],[-34,-92],[251,-255],[108,-112],[148,-150],[-26,-40],[-142,-241],[-44,-31],[-258,-202],[-39,-88]],[[8569,7889],[-230,-29],[-87,-14]],[[8252,7846],[-9,63],[-17,39],[-24,92],[18,38],[49,49],[0,121],[-5,103],[-12,7],[6,44],[-46,168]],[[8212,8570],[109,-13],[30,-21],[86,-31],[104,-3]],[[8541,8502],[63,-30],[99,-60],[35,31],[23,37],[56,8],[78,66],[22,34],[94,46],[20,-15],[18,-37],[32,-20],[177,-28],[11,29],[70,111],[20,22],[7,71],[16,12],[53,-7],[64,-34]],[[9499,8738],[-25,-341],[-5,-279],[2,-163],[-11,-31],[5,-90],[-28,-147]],[[8212,8570],[-16,109],[23,38],[-20,-10],[-66,4],[-97,-37],[-42,-21],[-53,-51],[-32,8],[-28,-8],[-3,-33],[-57,31],[-131,39],[-38,26],[-38,4]],[[7614,8669],[0,69],[-10,8],[2,139],[3,598]],[[7609,9483],[1,4],[372,48],[326,50],[72,10],[198,35]],[[8578,9630],[-23,-706],[-2,-120],[-17,-52],[7,-27],[11,-123],[8,-28],[-22,-46],[1,-26]],[[8578,9630],[189,21],[38,18],[314,62],[187,28],[291,51],[0,-23],[-37,-390],[-25,-252],[-28,-296],[-8,-111]],[[8613,7096],[-61,-83],[-42,-2],[-39,-28],[-34,-12],[-46,27],[-35,38],[-56,-16],[-39,9],[-55,63],[-13,37],[-35,29],[-39,61],[-18,-76],[-31,-68],[-33,-58],[-59,-36],[-25,-29],[-64,-104],[-31,-36]],[[7858,6812],[-18,6],[-47,-7],[-33,32],[-5,44],[0,102],[-9,28],[6,53],[43,129],[32,5],[1,89],[34,145],[-5,57],[-20,98],[-48,-6],[-28,-28],[-47,147]],[[7714,7706],[8,5]],[[7722,7711],[111,81],[143,12],[82,15],[194,27]],[[7722,7711],[-60,171],[-34,108],[-103,381]],[[7525,8371],[57,41],[27,53],[3,28],[24,16],[28,90],[-52,45],[2,25]],[[8725,7046],[24,-17],[18,-35],[34,-15],[30,-35],[42,-22],[31,-68],[40,-59],[92,-45],[-13,-49],[-45,-20],[-38,22],[-22,-3],[-26,-43],[38,-23],[12,-33],[-33,-27],[-43,-57],[-24,-6],[-38,9],[-49,-50],[-22,-58],[-29,-60],[-16,-78],[-24,-48],[-39,-19],[-12,-18],[-91,-19],[-63,-47],[-48,-55],[-9,-66]],[[8402,6002],[-21,-14],[-36,-51]],[[8345,5937],[-46,9],[-39,-12],[-36,52],[-14,49],[-45,61],[-63,62],[2,43],[-52,45],[-49,17],[-31,35],[-30,-36],[-63,-21],[-158,5],[-62,25],[-28,18],[-5,19],[41,86],[4,50],[-21,64]],[[7650,6508],[37,87],[40,56],[38,30],[42,53],[51,78]],[[9490,6345],[-150,-358],[-128,-298],[-50,-101],[-59,-130],[-81,-164]],[[9022,5294],[-46,11],[-20,16],[-31,74],[-18,55],[-43,68],[-35,78],[-13,75],[6,53],[-15,86],[-33,126],[-48,63]],[[8726,5999],[-43,-2],[-40,16],[-186,-2],[-55,-9]],[[3172,5247],[116,-62]],[[3288,5185],[11,-6]],[[3299,5179],[-224,-52]],[[3075,5127],[-5,44]],[[3070,5171],[8,45],[-3,81]],[[3075,5297],[97,-50]],[[3551,5040],[-237,-93]],[[3314,4947],[-211,-81],[-37,9]],[[3066,4875],[25,81]],[[3091,4956],[94,43],[234,114]],[[3419,5113],[132,-73]],[[3091,4956],[-7,68]],[[3084,5024],[19,3],[270,112]],[[3373,5139],[45,-26]],[[3418,5113],[1,0]],[[3075,5127],[9,-103]],[[3066,4875],[-51,17]],[[3015,4892],[11,107],[-7,111]],[[3019,5110],[17,5],[34,56]],[[3299,5179],[74,-40]],[[4834,8436],[-2,-57],[-15,-26],[-11,-63],[5,-58],[-11,-47],[52,-9],[-1,-30],[65,-6],[-2,-111],[22,-96],[-41,-90],[-16,-10],[-81,-108],[-32,-35]],[[4766,7690],[-89,13],[-107,2],[-39,-21],[-37,-31],[-77,-15],[-62,-18],[-65,-30]],[[4290,7590],[-14,44],[-22,137],[-3,91],[-13,40]],[[4238,7902],[-3,13]],[[4235,7915],[2,53],[24,394],[18,39],[92,135]],[[4371,8536],[57,63],[121,106],[22,36],[67,58]],[[4638,8799],[-40,-88],[44,-73],[-22,-31],[-19,-56],[33,-34],[38,-17],[49,-7],[50,-30],[63,-27]],[[4834,8436],[37,8],[70,47],[50,5],[17,-13],[56,10],[53,24],[44,-29],[0,-47],[24,-8],[133,2],[7,74]],[[5325,8509],[37,-17],[11,-84],[25,-29],[71,-35],[40,19],[8,30],[33,-14],[46,15],[48,-29],[20,30],[33,-44],[33,11],[57,2],[7,-40],[45,-78]],[[5839,8246],[20,-113],[-27,-65],[-11,-75],[-49,-82]],[[5772,7911],[-63,-27],[-18,-25]],[[5691,7859],[-56,19],[-81,-22],[-38,-33],[-25,29],[-34,-74],[-47,-5],[6,-100],[-28,3],[-65,-23],[-69,-14],[-10,30],[-35,-5]],[[5209,7664],[-84,-15],[-29,-12],[-33,-31]],[[5063,7606],[-21,-21],[-47,-25],[-69,3]],[[4926,7563],[-13,17],[-72,51],[-42,46],[-33,13]],[[5244,6309],[-8,-15],[48,-80],[35,-78],[15,-58],[42,-74]],[[5376,6004],[-25,-15],[-82,-87],[-27,-18],[-287,-41]],[[4955,5843],[-36,268]],[[4919,6111],[16,-12],[17,114],[6,82],[-27,99],[-51,-13],[-37,262],[-121,-19],[-20,10]],[[4702,6634],[47,136],[42,112],[65,133]],[[4856,7015],[17,3],[8,39],[88,-3],[-6,-79],[14,-6],[14,-59],[23,-66],[35,-43],[51,-84],[13,-109],[-2,-74],[7,-64],[19,-37],[18,-77],[64,-28],[25,-19]],[[5376,6004],[138,101]],[[5514,6105],[60,-161],[18,-99],[4,-151],[46,-34],[105,-58],[-20,-58],[-43,-17],[-39,19],[-38,-37],[-35,-2],[-30,-15],[-16,-23],[-14,-60],[-24,-22],[5,-43],[-70,-39]],[[5423,5305],[-163,69],[-27,23],[18,31],[-46,48],[-44,10],[-62,52],[-59,21],[-145,-53],[-113,-35],[-88,-33],[-66,-16],[-43,23],[-109,70]],[[4476,5515],[47,67]],[[4523,5582],[147,179],[37,40],[92,20],[156,22]],[[3132,5615],[15,-6],[72,-57]],[[3219,5552],[-7,-21],[-40,-284]],[[3075,5297],[1,71],[9,92]],[[3085,5460],[10,76]],[[3095,5536],[8,87]],[[3219,5552],[17,-11],[28,8],[66,-9]],[[3330,5540],[-42,-355]],[[3330,5540],[61,1],[27,9],[72,-6]],[[3490,5544],[-36,-303],[-36,-128]],[[3490,5544],[40,-13],[108,-9]],[[3638,5522],[10,-121]],[[3648,5401],[37,-434]],[[3685,4967],[-134,73]],[[3075,5297],[-56,51]],[[3019,5348],[-108,113]],[[2911,5461],[22,53]],[[2933,5514],[78,-35],[74,-19]],[[2933,5514],[28,83]],[[2961,5597],[134,-61]],[[2961,5597],[15,99]],[[2976,5696],[111,4]],[[2916,5694],[60,2]],[[2911,5461],[-29,27]],[[5014,4490],[48,-113],[10,-65],[17,-151],[25,-165]],[[5114,3996],[-255,10],[-30,100],[-1,30],[-200,-3],[-49,-47],[-11,7],[-43,-31],[-64,-23],[-97,38],[-92,29]],[[4272,4106],[9,68],[-8,67],[-27,73],[-54,75]],[[4192,4389],[291,186]],[[4483,4575],[67,39]],[[4550,4614],[11,-25],[123,20],[32,13],[7,-59],[99,19],[14,-41],[65,-2],[55,6],[3,-16],[36,10],[19,-49]],[[6817,7388],[20,-65],[21,-148],[34,-21],[7,-37]],[[6899,7117],[-222,-163],[30,-68],[140,-341],[4,-22],[5,-363]],[[6856,6160],[-2,-95],[-123,-6]],[[6731,6059],[0,90],[-89,-56],[-149,33],[-59,42],[-72,-3]],[[6362,6165],[-16,77],[-32,83],[-121,277],[-19,-14]],[[6174,6588],[-72,150],[27,62],[-5,37],[-41,36],[-30,40],[-13,61]],[[6040,6974],[88,66],[44,23],[16,33],[101,20],[2,-10],[55,8],[-14,65],[0,138],[92,4],[0,125],[35,4],[0,-216],[121,4],[-1,190]],[[6579,7428],[95,43],[7,-36],[60,11],[40,-22],[36,-36]],[[7650,6508],[-54,44],[-53,95],[-97,-32],[-16,-12],[22,-224],[16,-131],[-22,-4],[-74,14],[-22,17],[-61,-14],[-72,-5],[0,-7]],[[7217,6249],[-61,-6],[-46,-61],[-26,-60],[-29,-15],[-55,51],[-144,2]],[[6899,7117],[815,589]],[[6733,5065],[494,16]],[[7227,5081],[366,12]],[[7593,5093],[-15,-45],[-16,-87],[-28,-57],[-1,-71]],[[7533,4833],[-50,3],[-67,-6],[-27,-10],[-110,7],[-26,-17],[-67,-6],[-40,27],[-178,2],[-22,-15],[-28,12],[-69,2],[-19,8],[-235,-3],[-3,22],[-165,8],[-68,0],[-1,-28],[-101,-2]],[[6257,4837],[-17,152],[-9,150]],[[6231,5139],[502,-74]],[[6731,6059],[1,-233],[0,-367],[1,-394]],[[6231,5139],[0,38]],[[6231,5177],[23,520],[-53,5],[44,96],[54,89],[9,30],[48,109],[10,117],[-4,22]],[[7217,6249],[10,-1168]],[[8345,5937],[4,-66],[-33,-85],[-43,-96],[-12,-91],[3,-17],[-23,-43],[-64,-17],[-19,-26],[8,-79],[-17,1],[-215,106],[-62,27],[-164,81],[-32,-44],[-15,-47],[-11,-86],[8,-47],[-17,-76],[10,-82],[-6,-35],[-39,-68],[-13,-54]],[[8726,5999],[-31,-67],[-10,-59],[6,-86],[-13,-86],[-28,-45],[-29,10],[-147,19],[-24,-8],[-19,-46],[-4,-90],[-13,-108],[-12,-76],[-33,-76],[-15,-79],[12,-54],[7,-211],[-12,-40],[-28,-51],[-29,-86],[-40,-80],[-61,-167]],[[8203,4513],[-323,154],[-144,74],[-95,46],[-108,46]],[[9022,5294],[-116,-244],[-171,-372],[-47,-96],[-56,-124],[94,-52],[-23,-159],[-301,159],[-11,0],[-188,107]],[[3698,4832],[19,-240]],[[3717,4592],[-42,-53],[-16,-73],[2,-69],[18,-184],[-4,-77],[-13,-109],[-26,-76]],[[3636,3951],[-36,33],[-55,17],[-47,55],[-35,5],[-18,50],[-18,20],[-71,52],[25,103],[-44,149]],[[3337,4435],[-29,94]],[[3308,4529],[-21,74],[76,-12],[31,9],[40,30]],[[3434,4630],[25,-61],[73,56],[-31,78],[41,35],[79,152],[56,-26],[8,-39],[13,7]],[[3636,3951],[-20,-40],[-46,-57],[-30,-23],[-72,-30],[-51,7],[-72,36],[-50,45],[-94,106]],[[3201,3995],[-40,48],[-65,55]],[[3096,4098],[33,61],[27,23],[21,36],[101,130],[59,87]],[[2870,5442],[43,-27],[36,-45],[24,-17],[-48,-79]],[[2925,5274],[-39,14]],[[2886,5288],[-71,22]],[[3019,5348],[21,-91],[-31,2],[-5,-24],[-25,-8]],[[2979,5227],[-54,47]],[[3019,5110],[-11,49],[-29,68]],[[3431,6592],[193,-29],[24,-8]],[[3648,6555],[179,-25]],[[3827,6530],[6,-98],[-11,-73],[-203,-482],[-9,-28],[-24,4],[-57,-22]],[[3529,5831],[-73,72]],[[3456,5903],[-105,108],[-76,72]],[[2780,5323],[-47,-181]],[[2733,5142],[-114,112]],[[2619,5254],[34,89],[34,44]],[[2733,5142],[-21,-84]],[[2712,5058],[-19,-10],[-109,24]],[[2584,5072],[13,103],[22,78]],[[2619,5253],[0,1]],[[2712,5058],[5,-11]],[[2717,5047],[-18,-39]],[[2699,5008],[-9,-34],[11,-38]],[[2701,4936],[-23,-5]],[[2678,4931],[-123,-47],[-62,-45]],[[2493,4839],[-26,124]],[[2467,4963],[32,10],[66,39],[19,60]],[[2678,4931],[-93,-354]],[[2585,4577],[-74,68],[-25,46],[-11,44],[-12,83]],[[2463,4818],[30,21]],[[2463,4818],[-42,-33],[11,-69]],[[2432,4716],[-74,-18],[0,11],[-55,33],[11,77]],[[2314,4819],[-1,37],[37,71],[4,32]],[[2354,4959],[75,-4],[38,8]],[[2585,4577],[106,-85]],[[2691,4492],[-26,-48],[-11,-73]],[[2654,4371],[-122,-9]],[[2532,4362],[-36,34],[-13,36],[-51,284]],[[2701,4936],[2,-8]],[[2703,4928],[3,-175],[90,-168]],[[2796,4585],[-44,-30],[-61,-63]],[[2619,5253],[-34,32],[-41,85],[-42,71],[-9,27]],[[2493,5468],[67,19]],[[2560,5487],[66,30]],[[2354,4959],[-73,62],[-60,129]],[[2221,5150],[-21,77],[-11,97],[8,111]],[[2197,5435],[72,-31],[65,3]],[[2334,5407],[64,14],[18,19],[28,-12],[15,47],[34,-7]],[[4235,5818],[-48,-8],[-35,-41],[-11,-74],[1,-56],[-260,28]],[[3882,5667],[14,87],[17,52],[89,151],[19,60],[15,399]],[[4036,6416],[99,-3],[13,-32],[-13,-101],[51,-24],[-7,-38],[-26,-71],[-23,-113],[52,-15],[52,-32],[1,-169]],[[4476,5515],[-17,-23],[-34,-128]],[[4425,5364],[-76,15],[-164,43],[-64,21],[-145,38]],[[3976,5481],[-121,29]],[[3855,5510],[27,157]],[[4235,5818],[22,21],[25,-6],[62,11],[27,15]],[[4371,5859],[4,-40],[25,-55]],[[4400,5764],[20,-47],[103,-135]],[[4036,6416],[9,246]],[[4045,6662],[94,20],[12,13],[114,8]],[[4265,6703],[0,-3]],[[4265,6700],[9,-29],[5,-87]],[[4279,6584],[4,-116],[9,-48],[4,-78],[31,-101],[21,-41],[2,-68],[-6,-86],[10,-86],[18,-71],[-1,-30]],[[2886,5288],[-54,-205],[-115,-36]],[[3019,5110],[-40,-11],[-280,-91]],[[2703,4928],[146,-1],[70,-41],[84,-37]],[[3003,4849],[-51,-106]],[[2952,4743],[-30,-46],[-59,-62],[-67,-50]],[[3015,4892],[-12,-43]],[[2289,6199],[-40,-22],[-45,11],[-23,-5],[-61,-41],[-11,-25]],[[2109,6117],[-31,-69],[-21,-110],[11,-103],[55,-75],[70,-161],[11,-67],[-7,-97]],[[2197,5435],[-35,-12]],[[2162,5423],[8,102],[-8,49],[-67,155],[-21,31]],[[2074,5760],[-39,62],[-9,50],[-1,90],[12,75]],[[2037,6037],[15,48],[29,62]],[[2081,6147],[17,33],[75,51],[27,4],[49,-11],[23,15]],[[2272,6239],[17,-40]],[[2081,6147],[-220,230],[-182,196],[-85,78]],[[1594,6651],[132,-10],[107,-12],[299,-27],[99,-21],[90,-55],[-49,-102],[-8,-25]],[[2264,6399],[-4,-38]],[[2260,6361],[12,-122]],[[2037,6037],[-34,-6],[-57,33],[-17,-11],[-58,14],[-30,-4],[-32,19],[-79,20],[-27,23],[-57,17],[-16,13],[-74,10],[-224,50]],[[1332,6215],[7,84],[23,369]],[[1362,6668],[232,-17]],[[2162,5423],[-25,0]],[[2137,5423],[-29,-8]],[[2108,5415],[-38,-5],[-66,24],[-37,-1],[-31,13],[-14,31],[-26,14],[-39,-9],[-121,43],[-57,-3],[-45,37],[-42,55],[-60,14],[-33,32],[-43,12],[-91,54],[-76,19]],[[1289,5745],[2,29]],[[1291,5774],[116,-24],[86,-23],[155,-11],[138,-5],[25,-10],[155,14],[5,19],[42,12],[0,16],[61,-2]],[[1291,5774],[41,441]],[[2108,5415],[-19,-32],[-14,14],[-39,-33],[-24,2],[-54,-18],[-23,8],[-47,-11],[-134,-4],[-45,9]],[[1709,5350],[-17,36],[-65,5],[-36,22],[-63,21],[-72,62],[-56,15]],[[1400,5511],[-118,33]],[[1282,5544],[-1,124],[8,77]],[[2560,5487],[-14,43],[-7,156],[-81,-9],[-4,101],[-20,9],[-59,48]],[[2375,5835],[39,60]],[[2414,5895],[81,-77],[51,-19],[64,-6],[32,-24]],[[2334,5407],[-20,306],[8,39],[53,83]],[[2289,6199],[24,-25],[19,-45],[24,-125],[15,-40],[43,-69]],[[2375,5835],[-266,282]],[[2260,6361],[40,8]],[[2300,6369],[12,-10],[210,-296]],[[2522,6063],[140,-230],[8,-19]],[[2332,3587],[33,-215],[19,-206],[22,-93]],[[2406,3073],[12,-118],[-24,-19],[5,-36],[-37,-51],[2,-24],[72,-85],[28,-3],[4,-35],[21,-4],[30,-57],[-2,-63],[-14,-66],[-20,-39],[1,-26],[-23,-14],[-18,-31],[-3,-30]],[[2440,2372],[-25,-19],[-37,-62],[-3,-36],[11,-80],[-66,-23],[-12,40],[-33,51],[5,34],[-23,67],[1,50],[-29,40],[-18,5],[-25,-23],[-22,7],[-40,-19],[-50,15],[-10,20],[-4,-43],[-22,-54],[-4,-72],[-19,-34],[-3,-49],[-26,-54],[1,-22],[-41,-78],[-8,-55],[8,-39],[-12,-180],[-23,-387],[-2,-77],[19,-137],[33,-267],[63,-462],[5,-21],[31,-222],[-57,-1],[-37,-36],[-63,-13],[-14,15],[-26,-37],[-33,2],[-38,-21],[-3,-21],[-38,27],[-2,-33],[-123,-7],[-12,26],[-46,-34],[-10,21],[-23,-45],[-118,-9],[-92,-20],[-33,191],[-3,151],[-2,441],[-3,135],[127,2],[10,55],[24,27],[27,11],[28,58],[9,52],[-11,40],[-48,71],[-27,19],[7,128],[-45,1],[-11,-38],[-55,-20],[-31,-3],[-36,14],[-16,-33],[-67,-17],[-56,16],[-27,56],[-2,48],[-25,54],[9,11],[-17,40],[-13,3],[-11,93],[14,27],[-31,18],[-11,44]],[[999,1695],[9,-10],[92,-6],[39,-33],[87,82],[43,-9],[41,16],[3,19],[39,3],[6,64],[30,37],[-1,64],[21,8],[-15,96],[-14,26],[42,26],[19,-18],[55,-2],[25,32],[48,37],[-2,80],[61,126],[33,30],[35,5],[-17,157],[-23,18],[-46,76],[4,47],[38,14],[27,38],[55,31],[9,40],[19,-23],[20,22],[-13,30],[25,21],[19,-10],[24,21],[-5,58],[34,18],[17,24],[31,-9],[10,20],[23,-6],[-5,31],[23,17],[10,-48],[16,17],[-34,54],[14,41],[-13,21],[9,19],[-6,65],[-11,30],[12,48],[-18,22],[13,24],[-7,87],[2,51],[-12,21],[6,41],[-19,4],[14,27],[-18,15],[4,30],[-11,36],[17,29],[-12,29],[17,27],[-10,24],[21,22],[14,106],[17,24],[1,70]],[[1980,3939],[45,3]],[[2025,3942],[30,-143],[-14,-33],[-6,-44],[-29,-97],[129,-64],[5,21],[42,1],[21,-17],[35,-52],[65,61],[29,12]],[[999,1695],[-16,18],[-2,40],[-15,-3],[-5,80],[-26,28],[11,52],[-6,47],[6,44],[-24,40],[2,40],[-30,16],[-41,45],[-24,45],[9,35],[-10,60],[-1,72],[-21,93],[0,63],[-11,225]],[[795,2735],[389,461],[763,900]],[[1947,4096],[11,-24],[17,5]],[[1975,4077],[-1,-48],[10,-47],[-4,-43]],[[2161,4774],[-77,-28],[12,-90]],[[2096,4656],[-52,37],[-45,-104],[-76,48],[-101,40],[-32,-100],[8,-3],[-48,-123],[48,-114]],[[1798,4337],[-162,-132]],[[1636,4205],[-19,162],[0,101],[-12,273]],[[1605,4741],[-3,62]],[[1602,4803],[32,-4],[56,19],[61,-1],[63,14],[49,41],[36,46],[46,15],[34,26],[26,1]],[[2005,4960],[30,23],[13,-24],[31,22]],[[2079,4981],[8,-88],[38,27],[7,-48],[29,-98]],[[1602,4803],[-12,301]],[[1590,5104],[125,23]],[[1715,5127],[102,19],[63,-6],[17,10],[35,-10]],[[1932,5140],[-10,-19],[15,-49],[36,-23],[32,-89]],[[1932,5140],[9,48],[30,0],[90,22],[37,-7],[33,16]],[[2131,5219],[4,-83],[-7,-70],[-58,-58],[9,-27]],[[2137,5423],[-8,-85],[2,-119]],[[1715,5127],[-8,71],[-9,-2],[0,92],[-6,5],[17,57]],[[1590,5104],[-3,66],[-116,-20]],[[1471,5150],[-18,95],[-19,4],[7,52],[-25,13],[-7,54],[-9,143]],[[2314,4819],[-104,42],[8,-66],[-57,-21]],[[2079,4981],[56,13],[1,31],[19,5],[17,70],[21,12],[28,38]],[[932,3854],[-21,7],[-128,-73],[-164,-99],[-104,-55],[-34,10],[-11,-39],[-90,-55],[4,-16],[-30,-32],[-27,-8],[-17,13]],[[310,3507],[-29,-14],[-93,6],[6,60],[16,19],[9,48],[-18,89],[-1,36],[-21,64],[-10,117],[-11,51],[-24,-8],[-40,92],[3,50],[-23,105],[-4,43]],[[70,4265],[247,11],[3,45],[-20,141],[25,15],[69,-1],[76,-25],[85,-10],[47,-16],[46,16],[159,45]],[[807,4486],[68,-191],[15,-71],[12,-111],[12,-72],[24,-87],[-6,-100]],[[70,4265],[-14,149],[-10,52],[27,6],[-1,92],[18,50],[1,41],[-9,68],[-10,20],[30,13],[16,-40],[23,1],[37,33],[-20,44],[-24,14],[10,22],[-34,44],[-25,51],[-30,-8],[-7,16],[80,38],[-5,65],[-11,52],[33,29],[-27,82],[39,9],[-1,46]],[[156,5254],[33,11],[201,17],[125,14]],[[515,5296],[92,-252]],[[607,5044],[139,-394]],[[746,4650],[61,-164]],[[3201,3995],[-36,-31],[-11,-29],[22,-4],[-6,-65],[-17,-23],[11,-33],[-10,-20],[-48,-25],[-1,-123]],[[3105,3642],[-63,-18],[-52,36],[-37,7],[-39,-83],[-17,12],[-44,-92],[-18,-49],[-76,68]],[[2759,3523],[11,71],[54,163],[43,151],[32,169],[19,87]],[[2918,4164],[84,-16],[35,-13],[59,-37]],[[2654,4371],[30,-80],[61,-67],[72,-35]],[[2817,4189],[101,-25]],[[2759,3523],[-40,25],[-11,-33],[-83,42],[-41,1],[-16,16],[-39,100],[-107,-26]],[[2422,3648],[-4,37],[107,26],[-31,96],[136,225],[-19,62],[13,-1],[14,48],[-19,17]],[[2619,4158],[-92,88],[-13,55],[11,41]],[[2525,4342],[7,20]],[[2856,6231],[-129,74]],[[2727,6305],[-255,113],[-37,5],[-135,-54]],[[2264,6399],[118,37],[342,162]],[[2724,6598],[78,-78],[65,-45],[28,-30],[25,-5],[35,-40]],[[2724,6598],[96,46],[40,32],[208,250]],[[3068,6926],[21,-37],[14,-51],[4,-87],[-19,-105]],[[2727,6305],[-113,-97],[-92,-145]],[[3827,6530],[79,-7],[9,6],[8,94],[75,9],[47,30]],[[3882,5667],[-18,5],[-158,17],[-28,-4],[-40,62],[-44,21],[-65,63]],[[5244,6309],[75,147],[-3,23],[-80,234],[1,27],[42,113]],[[5279,6853],[65,202],[58,15],[49,1]],[[5451,7071],[5,-55],[31,-104],[-2,-52],[19,-5],[43,-106],[33,12],[18,-65],[62,-137],[11,-102],[14,-57],[24,-48],[-45,-63],[22,-57]],[[5686,6232],[-172,-127]],[[4856,7015],[67,178]],[[4923,7193],[49,-62],[50,-53],[134,-103],[45,-40],[78,-82]],[[5209,7664],[68,-49],[-40,-20],[12,-90],[2,-133],[89,32],[56,4],[8,-55],[57,11],[4,-83],[-7,-91],[-18,-22],[13,-72],[-2,-25]],[[4923,7193],[35,148],[68,158],[37,107]],[[3314,4947],[47,-127]],[[3361,4820],[-61,-37],[-32,-9],[-63,15],[-38,-20],[-40,4],[-7,-47],[-18,4],[-6,-48]],[[3096,4682],[-115,34],[-29,27]],[[3308,4529],[-49,-33],[-10,16],[-23,-19],[-70,71],[-16,-21],[-82,37]],[[3058,4580],[38,102]],[[3361,4820],[73,-190]],[[3685,4967],[13,-135]],[[3068,6926],[108,132],[33,34],[38,23],[56,9],[123,-17]],[[3426,7107],[79,-9],[24,-12],[26,-47],[-2,-30],[-25,-98],[-37,-124],[-21,-81],[-39,-114]],[[3068,6926],[-14,14],[-65,30],[-50,16],[-17,74],[20,46],[0,24],[42,37],[-11,26],[24,11],[36,-28],[5,33],[31,15],[8,30],[47,49],[286,335],[122,75]],[[3532,7713],[-72,-412]],[[3460,7301],[-34,-194]],[[4238,7902],[-236,-528]],[[4002,7374],[-65,-148]],[[3937,7226],[-86,56],[-39,18],[-44,5],[-77,-11],[-166,-1],[-65,8]],[[3532,7713],[149,66],[85,32],[91,23]],[[3857,7834],[94,27],[56,5],[55,16],[91,13],[28,-1],[54,21]],[[4290,7590],[20,-140],[-6,-46]],[[4304,7404],[-13,-66]],[[4291,7338],[-141,54],[-43,-5],[-86,-23],[-19,10]],[[4045,6662],[12,347],[-14,97],[-27,54],[-22,26],[-57,40]],[[4291,7338],[0,-72],[-12,-194],[6,-42],[-17,-121],[10,-43],[-6,-134],[-7,-29]],[[3648,6555],[17,60],[272,611]],[[2796,4585],[29,-60],[92,-75],[38,30],[49,69],[24,-29]],[[3028,4520],[-30,-36],[-105,-98],[-10,8],[-35,-118],[-9,-8],[-22,-79]],[[3058,4580],[-30,-60]],[[6257,4837],[39,-336],[-21,-1],[-18,-131]],[[6257,4369],[-73,21],[-32,-16],[-53,3],[2,148],[-124,51],[-25,-24],[-68,36],[-23,-9],[-20,-95],[-18,6],[-145,-7]],[[5678,4483],[-128,-3],[-65,-8],[-45,11],[-116,-4],[-33,59]],[[5291,4538],[-29,89],[8,77],[17,78],[13,87],[-60,-17],[23,138],[8,107],[34,18],[0,30],[39,64],[27,15],[13,44],[24,-3],[14,28]],[[5422,5293],[140,-14],[133,-27],[310,-45],[226,-30]],[[5014,4490],[123,38],[47,-2],[91,20],[16,-8]],[[5678,4483],[16,-110],[16,-3],[3,-66],[-32,-103],[-26,-141],[-17,-18],[-29,-66],[-24,-113],[-34,-79]],[[5551,3784],[-96,76],[-20,-32],[-36,29],[-37,15],[-26,-70]],[[5336,3802],[-24,6],[-75,-4],[-41,11],[-40,71],[-34,70],[-8,40]],[[6257,4369],[-2,-84],[-15,-63],[-27,-77],[-15,-135],[-15,5],[-14,-86],[9,-11],[-22,-67],[-63,-150],[-20,-88],[-8,-85],[-162,41],[-160,68],[-48,45],[-57,26],[-1,8],[-93,48],[7,20]],[[3648,5401],[51,-22],[187,-175]],[[3886,5204],[-1,-157],[-8,-103],[17,-18],[-4,-24],[30,-17],[-12,-42],[160,-88]],[[4068,4755],[84,-48],[90,-67],[35,-54],[-128,-43],[14,-123]],[[4163,4420],[-92,71],[-84,49],[-84,37],[-83,28],[-51,3],[-52,-16]],[[3886,5204],[15,-14]],[[3901,5190],[189,-176]],[[4090,5014],[-24,-119],[2,-140]],[[4192,4389],[-29,31]],[[4090,5014],[112,-104]],[[4202,4910],[233,-218],[48,-117]],[[5423,5305],[-1,-12]],[[4550,4614],[-34,65],[-23,82],[51,13],[22,51],[-9,43],[11,13],[-25,32],[9,16],[-6,55]],[[4546,4984],[-9,106],[-7,139],[8,61],[-109,14],[8,43],[-12,17]],[[1947,4096],[-9,33],[-15,4],[-30,55],[-95,149]],[[2096,4656],[138,-97],[18,-20]],[[2252,4539],[-34,-107],[-31,-50],[-46,-106],[-10,-35],[-44,-43],[-30,-49],[-29,0],[-53,-72]],[[2525,4342],[-27,5],[-159,98],[-57,10],[19,53],[-49,31]],[[2025,3942],[75,54],[30,-3],[43,27],[53,7],[-2,63],[-20,68],[32,17],[74,15],[12,-15],[14,-76],[24,-2],[31,19],[44,-7],[29,-15],[40,12],[18,-57],[30,-8],[40,14],[-15,77],[42,26]],[[2422,3648],[1,-21],[-95,-16],[4,-24]],[[4562,9981],[25,-260],[9,-129],[-4,-47],[-18,-67],[-79,-185]],[[4495,9293],[-87,38],[-186,65],[-334,139],[-29,16]],[[3859,9551],[67,370],[15,4],[70,53],[35,2],[209,-64],[66,-22],[228,-135],[-24,220],[37,2]],[[4495,9293],[-137,-326],[-159,-369]],[[4199,8598],[-24,4]],[[4175,8602],[76,188],[-138,99],[-81,37],[-90,69],[-50,60],[-39,38],[-71,24]],[[3782,9117],[77,434]],[[4371,8536],[-74,36],[-39,2],[-59,24]],[[4562,9981],[73,4],[31,14],[159,-107]],[[4825,9892],[67,-501],[-2,-27],[-73,-163]],[[4817,9201],[-179,-402]],[[3456,5903],[-117,-277]],[[3339,5626],[-178,84]],[[3529,5831],[-15,-10],[-1,-134],[-22,-132]],[[3491,5555],[-152,71]],[[3491,5555],[-1,-11]],[[3855,5510],[-74,14],[-77,-5],[-66,3]],[[4702,6634],[-35,-108]],[[4667,6526],[-95,11],[-23,-3],[-100,21],[-60,68],[8,43],[-98,34],[-34,0]],[[4304,7404],[85,-6],[9,-13],[54,-1],[2,-60],[53,3],[-1,-125],[28,3],[1,-22],[44,2],[16,11],[71,3],[11,25],[-18,-1],[-1,29],[43,2],[4,55],[11,21],[14,124],[44,2],[6,16],[131,62],[15,29]],[[3976,5481],[-15,-110],[-34,3],[-26,-184]],[[4546,4984],[-29,-3],[-6,55],[-56,2],[-66,-6],[0,22],[-77,6],[-3,39],[-83,7],[-22,-107],[-2,-89]],[[1636,4205],[-141,-106],[-204,-137]],[[1291,3962],[19,384],[-6,88],[-18,213],[5,60]],[[1291,4707],[314,34]],[[1291,4707],[-545,-57]],[[607,5044],[272,32],[48,8],[544,66]],[[515,5296],[-109,303],[5,5],[166,37],[80,-2],[179,-12],[177,-28],[159,-28],[110,-27]],[[1291,3962],[-194,-129],[-47,-35],[-60,-17],[-13,49],[-45,24]],[[3532,7713],[111,618],[77,439],[62,347]],[[4175,8602],[-213,-519],[-105,-249]],[[4825,9892],[36,-28],[10,-24],[3,-209],[233,-13],[-3,-110],[27,-26],[264,-15],[139,-6],[391,15],[-7,-108],[-25,-71],[-11,-48],[6,-73],[-8,-20]],[[5880,9156],[-359,-13],[-80,4],[-17,-14],[0,-28],[22,-60],[3,-35],[-10,-79],[-34,-46],[-74,-29],[-30,-18],[-37,-6]],[[5264,8832],[-48,9],[-33,-24],[-20,25],[-24,70],[-43,0],[-35,15],[-14,53],[-13,188],[-53,3],[-164,30]],[[5325,8509],[-9,63],[-23,20],[-20,75],[2,55],[-11,110]],[[5880,9156],[-54,-64],[2,-42],[32,-21],[22,-29],[0,-28],[18,-57],[20,-34],[23,-74],[25,-52],[-14,-152],[-2,-66],[12,-21],[-33,-43],[-11,-65],[6,-47],[-25,-17],[-62,-98]],[[6174,6588],[-64,-44],[-197,-148],[-65,-45]],[[5848,6351],[-60,276],[-68,339],[-26,167],[-19,255],[-25,133],[-4,46],[7,135],[14,67]],[[5667,7769],[47,-12],[50,-28],[65,-48],[28,-63],[20,-104],[17,-39],[8,-58],[-5,-31],[43,-47],[79,-189],[1,-42],[25,-31],[-7,-66],[2,-37]],[[5691,7859],[-27,-28],[-49,-33],[7,-23],[45,-6]],[[5848,6351],[-162,-119]],[[4279,6584],[328,-242]],[[4607,6342],[-20,-98],[-21,-222],[-46,-56],[-120,-202]],[[4667,6526],[-60,-184]],[[4919,6111],[-312,231]],[[5880,9156],[683,26]],[[6563,9182],[3,-427],[2,-53],[1,-363],[4,-298]],[[6573,8041],[-514,-74],[-105,-13],[-55,-22],[-73,-8],[-54,-13]],[[7525,8371],[-64,-35],[-43,-49],[-44,-25],[-49,-3],[-25,-22],[-55,-18],[-28,-23],[-57,-64]],[[7160,8132],[-236,-38],[-216,-31],[-135,-22]],[[6563,9182],[319,16],[73,6],[234,105],[207,90],[193,79],[20,5]],[[6573,8041],[2,-321],[4,-292]],[[7160,8132],[-8,-82],[-8,-25],[4,-51],[-4,-54],[12,-107],[-22,-13],[-80,-66],[-7,-21],[-34,-10],[-40,5],[-4,-35],[-52,-31],[-29,-41],[12,-118],[46,-109],[-34,-26],[-21,3],[-35,34],[-39,3]],[[5336,3802],[-24,-106],[-23,-75],[-19,-176],[-147,46],[-73,-133],[-55,8],[-40,14],[6,29],[-64,32],[-117,52],[-32,29],[-24,-73],[-134,70],[8,28],[-51,27],[-34,-1],[-11,-41],[-39,19],[0,45],[-62,26],[-2,32],[-236,120],[-44,33],[64,102],[52,95],[37,102]],[[156,5254],[-11,24],[-11,99],[-19,130],[9,3],[-2,117],[-14,42],[-28,3],[4,92],[-24,8],[-8,47],[-16,5],[-2,89],[10,146]],[[44,6059],[72,2],[26,9],[92,13],[-33,89],[35,11],[40,-3],[116,16],[68,17],[10,-100],[11,-28],[32,-120],[127,-7],[151,-42],[114,-28],[207,-56],[179,-58]],[[44,6059],[6,94],[16,1],[-1,81],[32,-2],[-3,58],[-41,196],[-7,112],[-46,129],[235,-13],[585,-21],[320,-14],[222,-12]],[[3105,3642],[-13,-190],[-8,-32],[11,-44],[-7,-11],[8,-67],[-28,-21]],[[3068,3277],[-42,0],[-35,11],[-113,-18],[-83,-69],[-34,-41],[-15,3],[-16,-65],[-27,-81],[-39,43],[-7,24],[-31,-8],[-11,19],[-30,8],[-48,-3],[-30,-41],[-22,15],[-79,-1]],[[3068,3277],[13,-30],[-16,-86],[31,-35],[-2,-28],[20,-35],[-63,-139],[12,-38],[6,-64],[18,-113],[7,-96],[-8,-29],[21,-11],[5,-26],[40,-46],[11,-81],[-19,-4],[-101,-52],[-13,-27],[-23,-90],[-62,10],[-60,-4],[-19,-19],[-59,-36],[-12,-80],[-40,-63],[-63,-28],[-18,-18],[-47,73],[-100,63],[-24,113],[-36,12],[-26,23],[12,50],[-13,29]],[[795,2735],[-76,65],[-4,48],[-35,57],[-14,55],[-22,2],[-20,74],[-18,6],[-96,-24],[-6,98],[-51,-17],[-8,16],[-12,79],[-67,-9],[-29,11],[2,59],[-21,-2],[-3,31],[-28,-7],[-12,97],[26,-1],[9,67],[0,67]]],"transform":{"scale":[0.00006106649364936265,0.00004618547934793605],"translate":[100.32791238700008,13.493389571000023]},"objects":{"Bangkok":{"type":"GeometryCollection","geometries":[{"arcs":[[0,1,2,3,4,5,6,7,8,9]],"type":"Polygon","properties":{"Shape_Leng":0.047699197689,"Shape_Area":0.00012841753384,"ADM3_EN":"Phraborom Maharatchawang","ADM3_TH":"พระบรมมหาราชวัง","ADM3_PCODE":"TH100101","ADM2_EN":"Phra Nakhon","ADM2_TH":"พระนคร","ADM2_PCODE":"TH1001","ADM1_EN":"Bangkok","ADM1_TH":"กรุงเทพมหานคร","ADM1_PCODE":"TH10","ADM0_EN":"Thailand","ADM0_TH":"ประเทศไทย","ADM0_PCODE":"TH"}},{"arcs":[[-5,10,11,12,13,14,15,16]],"type":"Polygon","properties":{"Shape_Leng":0.0335504975348,"Shape_Area":0.000060684794936,"ADM3_EN":"Wang Burapha Phirom","ADM3_TH":"วังบูรพาภิรมย์","ADM3_PCODE":"TH100102","ADM2_EN":"Phra Nakhon","ADM2_TH":"พระนคร","ADM2_PCODE":"TH1001","ADM1_EN":"Bangkok","ADM1_TH":"กรุงเทพมหานคร","ADM1_PCODE":"TH10","ADM0_EN":"Thailand","ADM0_TH":"ประเทศไทย","ADM0_PCODE":"TH"}},{"arcs":[[-4,17,18,19,-11]],"type":"Polygon","properties":{"Shape_Leng":0.0172893090991,"Shape_Area":0.000017697609583,"ADM3_EN":"Wat Ratchabophit","ADM3_TH":"วัดราชบพิธ","ADM3_PCODE":"TH100103","ADM2_EN":"Phra Nakhon","ADM2_TH":"พระนคร","ADM2_PCODE":"TH1001","ADM1_EN":"Bangkok","ADM1_TH":"กรุงเทพมหานคร","ADM1_PCODE":"TH10","ADM0_EN":"Thailand","ADM0_TH":"ประเทศไทย","ADM0_PCODE":"TH"}},{"arcs":[[-12,-20,20,21,22]],"type":"Polygon","properties":{"Shape_Leng":0.019045760664,"Shape_Area":0.000019204332426,"ADM3_EN":"Samran Rat","ADM3_TH":"สำราญราษฎร์","ADM3_PCODE":"TH100104","ADM2_EN":"Phra Nakhon","ADM2_TH":"พระนคร","ADM2_PCODE":"TH1001","ADM1_EN":"Bangkok","ADM1_TH":"กรุงเทพมหานคร","ADM1_PCODE":"TH10","ADM0_EN":"Thailand","ADM0_TH":"ประเทศไทย","ADM0_PCODE":"TH"}},{"arcs":[[-3,23,24,-18]],"type":"Polygon","properties":{"Shape_Leng":0.0152319029369,"Shape_Area":0.000012573118207,"ADM3_EN":"San Chaopho Suea","ADM3_TH":"ศาลเจ้าพ่อเสือ","ADM3_PCODE":"TH100105","ADM2_EN":"Phra Nakhon","ADM2_TH":"พระนคร","ADM2_PCODE":"TH1001","ADM1_EN":"Bangkok","ADM1_TH":"กรุงเทพมหานคร","ADM1_PCODE":"TH10","ADM0_EN":"Thailand","ADM0_TH":"ประเทศไทย","ADM0_PCODE":"TH"}},{"arcs":[[-19,-25,25,-21]],"type":"Polygon","properties":{"Shape_Leng":0.0145698146505,"Shape_Area":0.000012926025474,"ADM3_EN":"Sao Chingcha","ADM3_TH":"เสาชิงช้า","ADM3_PCODE":"TH100106","ADM2_EN":"Phra Nakhon","ADM2_TH":"พระนคร","ADM2_PCODE":"TH1001","ADM1_EN":"Bangkok","ADM1_TH":"กรุงเทพมหานคร","ADM1_PCODE":"TH10","ADM0_EN":"Thailand","ADM0_TH":"ประเทศไทย","ADM0_PCODE":"TH"}},{"arcs":[[-2,26,27,28,-22,-26,-24]],"type":"Polygon","properties":{"Shape_Leng":0.0311498856869,"Shape_Area":0.000040793205236,"ADM3_EN":"Bowon Niwet","ADM3_TH":"บวรนิเวศ","ADM3_PCODE":"TH100107","ADM2_EN":"Phra Nakhon","ADM2_TH":"พระนคร","ADM2_PCODE":"TH1001","ADM1_EN":"Bangkok","ADM1_TH":"กรุงเทพมหานคร","ADM1_PCODE":"TH10","ADM0_EN":"Thailand","ADM0_TH":"ประเทศไทย","ADM0_PCODE":"TH"}},{"arcs":[[-1,29,30,-27]],"type":"Polygon","properties":{"Shape_Leng":0.0182196842241,"Shape_Area":0.000015660098605,"ADM3_EN":"Talat Yot","ADM3_TH":"ตลาดยอด","ADM3_PCODE":"TH100108","ADM2_EN":"Phra Nakhon","ADM2_TH":"พระนคร","ADM2_PCODE":"TH1001","ADM1_EN":"Bangkok","ADM1_TH":"กรุงเทพมหานคร","ADM1_PCODE":"TH10","ADM0_EN":"Thailand","ADM0_TH":"ประเทศไทย","ADM0_PCODE":"TH"}},{"arcs":[[-10,31,32,-30]],"type":"Polygon","properties":{"Shape_Leng":0.0223027835321,"Shape_Area":0.000028269878569,"ADM3_EN":"Chana Songkhram","ADM3_TH":"ชนะสงคราม","ADM3_PCODE":"TH100109","ADM2_EN":"Phra Nakhon","ADM2_TH":"พระนคร","ADM2_PCODE":"TH1001","ADM1_EN":"Bangkok","ADM1_TH":"กรุงเทพมหานคร","ADM1_PCODE":"TH10","ADM0_EN":"Thailand","ADM0_TH":"ประเทศไทย","ADM0_PCODE":"TH"}},{"arcs":[[-28,-31,33,34,35,36]],"type":"Polygon","properties":{"Shape_Leng":0.029040217625,"Shape_Area":0.00003448889732,"ADM3_EN":"Ban Phan Thom","ADM3_TH":"บ้านพานถม","ADM3_PCODE":"TH100110","ADM2_EN":"Phra Nakhon","ADM2_TH":"พระนคร","ADM2_PCODE":"TH1001","ADM1_EN":"Bangkok","ADM1_TH":"กรุงเทพมหานคร","ADM1_PCODE":"TH10","ADM0_EN":"Thailand","ADM0_TH":"ประเทศไทย","ADM0_PCODE":"TH"}},{"arcs":[[-35,37,38,39]],"type":"Polygon","properties":{"Shape_Leng":0.026212045743,"Shape_Area":0.000037455922148,"ADM3_EN":"Bang Khun Phrom","ADM3_TH":"บางขุนพรหม","ADM3_PCODE":"TH100111","ADM2_EN":"Phra Nakhon","ADM2_TH":"พระนคร","ADM2_PCODE":"TH1001","ADM1_EN":"Bangkok","ADM1_TH":"กรุงเทพมหานคร","ADM1_PCODE":"TH10","ADM0_EN":"Thailand","ADM0_TH":"ประเทศไทย","ADM0_PCODE":"TH"}},{"arcs":[[-33,40,41,-38,-34]],"type":"Polygon","properties":{"Shape_Leng":0.0276077722976,"Shape_Area":0.000042297125782,"ADM3_EN":"Wat Sam Phraya","ADM3_TH":"วัดสามพระยา","ADM3_PCODE":"TH100112","ADM2_EN":"Phra Nakhon","ADM2_TH":"พระนคร","ADM2_PCODE":"TH1001","ADM1_EN":"Bangkok","ADM1_TH":"กรุงเทพมหานคร","ADM1_PCODE":"TH10","ADM0_EN":"Thailand","ADM0_TH":"ประเทศไทย","ADM0_PCODE":"TH"}},{"arcs":[[-39,42,43,44,45]],"type":"Polygon","properties":{"Shape_Leng":0.0590911397556,"Shape_Area":0.000197434719331,"ADM3_EN":"Dusit","ADM3_TH":"ดุสิต","ADM3_PCODE":"TH100201","ADM2_EN":"Dusit","ADM2_TH":"ดุสิต","ADM2_PCODE":"TH1002","ADM1_EN":"Bangkok","ADM1_TH":"กรุงเทพมหานคร","ADM1_PCODE":"TH10","ADM0_EN":"Thailand","ADM0_TH":"ประเทศไทย","ADM0_PCODE":"TH"}},{"arcs":[[-42,46,47,48,-43]],"type":"Polygon","properties":{"Shape_Leng":0.0425908083049,"Shape_Area":0.000094878077557,"ADM3_EN":"Wachira Phayaban","ADM3_TH":"วชิรพยาบาล","ADM3_PCODE":"TH100202","ADM2_EN":"Dusit","ADM2_TH":"ดุสิต","ADM2_PCODE":"TH1002","ADM1_EN":"Bangkok","ADM1_TH":"กรุงเทพมหานคร","ADM1_PCODE":"TH10","ADM0_EN":"Thailand","ADM0_TH":"ประเทศไทย","ADM0_PCODE":"TH"}},{"arcs":[[-45,49,50,51,52]],"type":"Polygon","properties":{"Shape_Leng":0.0570557293971,"Shape_Area":0.000157273608272,"ADM3_EN":"Suan Chitlada","ADM3_TH":"สวนจิตรลดา","ADM3_PCODE":"TH100203","ADM2_EN":"Dusit","ADM2_TH":"ดุสิต","ADM2_PCODE":"TH1002","ADM1_EN":"Bangkok","ADM1_TH":"กรุงเทพมหานคร","ADM1_PCODE":"TH10","ADM0_EN":"Thailand","ADM0_TH":"ประเทศไทย","ADM0_PCODE":"TH"}},{"arcs":[[-52,53,54,55,56]],"type":"Polygon","properties":{"Shape_Leng":0.0254499671284,"Shape_Area":0.000030176409882,"ADM3_EN":"Si Yaek Mahanak","ADM3_TH":"สี่แยกมหานาค","ADM3_PCODE":"TH100204","ADM2_EN":"Dusit","ADM2_TH":"ดุสิต","ADM2_PCODE":"TH1002","ADM1_EN":"Bangkok","ADM1_TH":"กรุงเทพมหานคร","ADM1_PCODE":"TH10","ADM0_EN":"Thailand","ADM0_TH":"ประเทศไทย","ADM0_PCODE":"TH"}},{"arcs":[[-44,-49,57,58,59,60,61,-50]],"type":"Polygon","properties":{"Shape_Leng":0.0931174025064,"Shape_Area":0.000470428583425,"ADM3_EN":"Thanon Nakhon Chaisi","ADM3_TH":"ถนนนครไชยศรี","ADM3_PCODE":"TH100206","ADM2_EN":"Dusit","ADM2_TH":"ดุสิต","ADM2_PCODE":"TH1002","ADM1_EN":"Bangkok","ADM1_TH":"กรุงเทพมหานคร","ADM1_PCODE":"TH10","ADM0_EN":"Thailand","ADM0_TH":"ประเทศไทย","ADM0_PCODE":"TH"}},{"arcs":[[62,63,64,65,66]],"type":"Polygon","properties":{"Shape_Leng":0.260617260973,"Shape_Area":0.00333501863047,"ADM3_EN":"Krathum Rai","ADM3_TH":"กระทุ่มราย","ADM3_PCODE":"TH100301","ADM2_EN":"Nong Chok","ADM2_TH":"หนองจอก","ADM2_PCODE":"TH1003","ADM1_EN":"Bangkok","ADM1_TH":"กรุงเทพมหานคร","ADM1_PCODE":"TH10","ADM0_EN":"Thailand","ADM0_TH":"ประเทศไทย","ADM0_PCODE":"TH"}},{"arcs":[[-66,67,68,69,70,71]],"type":"Polygon","properties":{"Shape_Leng":0.252294887268,"Shape_Area":0.00255757622443,"ADM3_EN":"Nong Chok","ADM3_TH":"หนองจอก","ADM3_PCODE":"TH100302","ADM2_EN":"Nong Chok","ADM2_TH":"หนองจอก","ADM2_PCODE":"TH1003","ADM1_EN":"Bangkok","ADM1_TH":"กรุงเทพมหานคร","ADM1_PCODE":"TH10","ADM0_EN":"Thailand","ADM0_TH":"ประเทศไทย","ADM0_PCODE":"TH"}},{"arcs":[[-70,72,73,74,75]],"type":"Polygon","properties":{"Shape_Leng":0.220180858568,"Shape_Area":0.00255123610831,"ADM3_EN":"Khlong Sip","ADM3_TH":"คลองสิบ","ADM3_PCODE":"TH100303","ADM2_EN":"Nong Chok","ADM2_TH":"หนองจอก","ADM2_PCODE":"TH1003","ADM1_EN":"Bangkok","ADM1_TH":"กรุงเทพมหานคร","ADM1_PCODE":"TH10","ADM0_EN":"Thailand","ADM0_TH":"ประเทศไทย","ADM0_PCODE":"TH"}},{"arcs":[[-71,-76,76]],"type":"Polygon","properties":{"Shape_Leng":0.237979071503,"Shape_Area":0.0031600350608,"ADM3_EN":"Khlong Sip Song","ADM3_TH":"คลองสิบสอง","ADM3_PCODE":"TH100304","ADM2_EN":"Nong Chok","ADM2_TH":"หนองจอก","ADM2_PCODE":"TH1003","ADM1_EN":"Bangkok","ADM1_TH":"กรุงเทพมหานคร","ADM1_PCODE":"TH10","ADM0_EN":"Thailand","ADM0_TH":"ประเทศไทย","ADM0_PCODE":"TH"}},{"arcs":[[-65,77,78,79,80,-68]],"type":"Polygon","properties":{"Shape_Leng":0.212501442699,"Shape_Area":0.00189148730449,"ADM3_EN":"Khok Faet","ADM3_TH":"โคกแฝด","ADM3_PCODE":"TH100305","ADM2_EN":"Nong Chok","ADM2_TH":"หนองจอก","ADM2_PCODE":"TH1003","ADM1_EN":"Bangkok","ADM1_TH":"กรุงเทพมหานคร","ADM1_PCODE":"TH10","ADM0_EN":"Thailand","ADM0_TH":"ประเทศไทย","ADM0_PCODE":"TH"}},{"arcs":[[-69,-81,81,82,-73]],"type":"Polygon","properties":{"Shape_Leng":0.172195631731,"Shape_Area":0.001510855239,"ADM3_EN":"Khu Fung Nuea","ADM3_TH":"คู้ฝั่งเหนือ","ADM3_PCODE":"TH100306","ADM2_EN":"Nong Chok","ADM2_TH":"หนองจอก","ADM2_PCODE":"TH1003","ADM1_EN":"Bangkok","ADM1_TH":"กรุงเทพมหานคร","ADM1_PCODE":"TH10","ADM0_EN":"Thailand","ADM0_TH":"ประเทศไทย","ADM0_PCODE":"TH"}},{"arcs":[[-64,83,84,85,86,-78]],"type":"Polygon","properties":{"Shape_Leng":0.247376121779,"Shape_Area":0.00268616590068,"ADM3_EN":"Lam Phak Chi","ADM3_TH":"ลำผักชี","ADM3_PCODE":"TH100307","ADM2_EN":"Nong Chok","ADM2_TH":"หนองจอก","ADM2_PCODE":"TH1003","ADM1_EN":"Bangkok","ADM1_TH":"กรุงเทพมหานคร","ADM1_PCODE":"TH10","ADM0_EN":"Thailand","ADM0_TH":"ประเทศไทย","ADM0_PCODE":"TH"}},{"arcs":[[-63,87,88,89,-84]],"type":"Polygon","properties":{"Shape_Leng":0.263948667877,"Shape_Area":0.00216648821512,"ADM3_EN":"Lam Toiting","ADM3_TH":"ลำต้อยติ่ง","ADM3_PCODE":"TH100308","ADM2_EN":"Nong Chok","ADM2_TH":"หนองจอก","ADM2_PCODE":"TH1003","ADM1_EN":"Bangkok","ADM1_TH":"กรุงเทพมหานคร","ADM1_PCODE":"TH10","ADM0_EN":"Thailand","ADM0_TH":"ประเทศไทย","ADM0_PCODE":"TH"}},{"arcs":[[90,91,92,93,94,95]],"type":"Polygon","properties":{"Shape_Leng":0.0365448527912,"Shape_Area":0.000054204621665,"ADM3_EN":"Maha Phruettharam","ADM3_TH":"มหาพฤฒาราม","ADM3_PCODE":"TH100401","ADM2_EN":"Bang Rak","ADM2_TH":"บางรัก","ADM2_PCODE":"TH1004","ADM1_EN":"Bangkok","ADM1_TH":"กรุงเทพมหานคร","ADM1_PCODE":"TH10","ADM0_EN":"Thailand","ADM0_TH":"ประเทศไทย","ADM0_PCODE":"TH"}},{"arcs":[[96,97,98,99,100]],"type":"Polygon","properties":{"Shape_Leng":0.0649014321234,"Shape_Area":0.00012706175065,"ADM3_EN":"Si Lom","ADM3_TH":"สีลม","ADM3_PCODE":"TH100402","ADM2_EN":"Bang Rak","ADM2_TH":"บางรัก","ADM2_PCODE":"TH1004","ADM1_EN":"Bangkok","ADM1_TH":"กรุงเทพมหานคร","ADM1_PCODE":"TH10","ADM0_EN":"Thailand","ADM0_TH":"ประเทศไทย","ADM0_PCODE":"TH"}},{"arcs":[[-100,101,102,103,104]],"type":"Polygon","properties":{"Shape_Leng":0.0460135491947,"Shape_Area":0.000050282545941,"ADM3_EN":"Suriyawong","ADM3_TH":"สุริยวงศ์","ADM3_PCODE":"TH100403","ADM2_EN":"Bang Rak","ADM2_TH":"บางรัก","ADM2_PCODE":"TH1004","ADM1_EN":"Bangkok","ADM1_TH":"กรุงเทพมหานคร","ADM1_PCODE":"TH10","ADM0_EN":"Thailand","ADM0_TH":"ประเทศไทย","ADM0_PCODE":"TH"}},{"arcs":[[-94,105,-102,-99,106,107,108]],"type":"Polygon","properties":{"Shape_Leng":0.0317871408724,"Shape_Area":0.000041524104538,"ADM3_EN":"Bang Rak","ADM3_TH":"บางรัก","ADM3_PCODE":"TH100404","ADM2_EN":"Bang Rak","ADM2_TH":"บางรัก","ADM2_PCODE":"TH1004","ADM1_EN":"Bangkok","ADM1_TH":"กรุงเทพมหานคร","ADM1_PCODE":"TH10","ADM0_EN":"Thailand","ADM0_TH":"ประเทศไทย","ADM0_PCODE":"TH"}},{"arcs":[[-93,109,-103,-106]],"type":"Polygon","properties":{"Shape_Leng":0.0420566719374,"Shape_Area":0.000063883089515,"ADM3_EN":"Si Phraya","ADM3_TH":"สี่พระยา","ADM3_PCODE":"TH100405","ADM2_EN":"Bang Rak","ADM2_TH":"บางรัก","ADM2_PCODE":"TH1004","ADM1_EN":"Bangkok","ADM1_TH":"กรุงเทพมหานคร","ADM1_PCODE":"TH10","ADM0_EN":"Thailand","ADM0_TH":"ประเทศไทย","ADM0_PCODE":"TH"}},{"arcs":[[110,111,112,113,114,115,116]],"type":"Polygon","properties":{"Shape_Leng":0.174591990576,"Shape_Area":0.00150999919421,"ADM3_EN":"Anusawari","ADM3_TH":"อนุสาวรีย์","ADM3_PCODE":"TH100502","ADM2_EN":"Bang Khen","ADM2_TH":"บางเขน","ADM2_PCODE":"TH1005","ADM1_EN":"Bangkok","ADM1_TH":"กรุงเทพมหานคร","ADM1_PCODE":"TH10","ADM0_EN":"Thailand","ADM0_TH":"ประเทศไทย","ADM0_PCODE":"TH"}},{"arcs":[[-111,117,118,119,120,121,122,123,124]],"type":"Polygon","properties":{"Shape_Leng":0.22115614307,"Shape_Area":0.00190493061881,"ADM3_EN":"Tha Raeng","ADM3_TH":"ท่าแร้ง","ADM3_PCODE":"TH100508","ADM2_EN":"Bang Khen","ADM2_TH":"บางเขน","ADM2_PCODE":"TH1005","ADM1_EN":"Bangkok","ADM1_TH":"กรุงเทพมหานคร","ADM1_PCODE":"TH10","ADM0_EN":"Thailand","ADM0_TH":"ประเทศไทย","ADM0_PCODE":"TH"}},{"arcs":[[125,126,127,128,129,130]],"type":"Polygon","properties":{"Shape_Leng":0.167378836341,"Shape_Area":0.000983787911877,"ADM3_EN":"Khlong Chan","ADM3_TH":"คลองจั่น","ADM3_PCODE":"TH100601","ADM2_EN":"Bang Kapi","ADM2_TH":"บางกะปิ","ADM2_PCODE":"TH1006","ADM1_EN":"Bangkok","ADM1_TH":"กรุงเทพมหานคร","ADM1_PCODE":"TH10","ADM0_EN":"Thailand","ADM0_TH":"ประเทศไทย","ADM0_PCODE":"TH"}},{"arcs":[[-127,131,132,133,134,135]],"type":"Polygon","properties":{"Shape_Leng":0.196599661484,"Shape_Area":0.00131948010662,"ADM3_EN":"Hua Mak","ADM3_TH":"หัวหมาก","ADM3_PCODE":"TH100608","ADM2_EN":"Bang Kapi","ADM2_TH":"บางกะปิ","ADM2_PCODE":"TH1006","ADM1_EN":"Bangkok","ADM1_TH":"กรุงเทพมหานคร","ADM1_PCODE":"TH10","ADM0_EN":"Thailand","ADM0_TH":"ประเทศไทย","ADM0_PCODE":"TH"}},{"arcs":[[-55,136,137,-96,138,139,140]],"type":"Polygon","properties":{"Shape_Leng":0.0440417645107,"Shape_Area":0.000103531248948,"ADM3_EN":"Rong Mueang","ADM3_TH":"รองเมือง","ADM3_PCODE":"TH100701","ADM2_EN":"Pathum Wan","ADM2_TH":"ปทุมวัน","ADM2_PCODE":"TH1007","ADM1_EN":"Bangkok","ADM1_TH":"กรุงเทพมหานคร","ADM1_PCODE":"TH10","ADM0_EN":"Thailand","ADM0_TH":"ประเทศไทย","ADM0_PCODE":"TH"}},{"arcs":[[-91,-138,141,142]],"type":"Polygon","properties":{"Shape_Leng":0.0456528688331,"Shape_Area":0.000111828020935,"ADM3_EN":"Wang Mai","ADM3_TH":"วังใหม่","ADM3_PCODE":"TH100702","ADM2_EN":"Pathum Wan","ADM2_TH":"ปทุมวัน","ADM2_PCODE":"TH1007","ADM1_EN":"Bangkok","ADM1_TH":"กรุงเทพมหานคร","ADM1_PCODE":"TH10","ADM0_EN":"Thailand","ADM0_TH":"ประเทศไทย","ADM0_PCODE":"TH"}},{"arcs":[[-92,-143,143,144,-104,-110]],"type":"Polygon","properties":{"Shape_Leng":0.055476662169,"Shape_Area":0.000175620916637,"ADM3_EN":"Pathum Wan","ADM3_TH":"ปทุมวัน","ADM3_PCODE":"TH100703","ADM2_EN":"Pathum Wan","ADM2_TH":"ปทุมวัน","ADM2_PCODE":"TH1007","ADM1_EN":"Bangkok","ADM1_TH":"กรุงเทพมหานคร","ADM1_PCODE":"TH10","ADM0_EN":"Thailand","ADM0_TH":"ประเทศไทย","ADM0_PCODE":"TH"}},{"arcs":[[-101,-105,-145,145,146,147,148]],"type":"Polygon","properties":{"Shape_Leng":0.0731119215761,"Shape_Area":0.000280661497459,"ADM3_EN":"Lumphini","ADM3_TH":"ลุมพินี","ADM3_PCODE":"TH100704","ADM2_EN":"Pathum Wan","ADM2_TH":"ปทุมวัน","ADM2_PCODE":"TH1007","ADM1_EN":"Bangkok","ADM1_TH":"กรุงเทพมหานคร","ADM1_PCODE":"TH10","ADM0_EN":"Thailand","ADM0_TH":"ประเทศไทย","ADM0_PCODE":"TH"}},{"arcs":[[-139,149,150,151,152]],"type":"Polygon","properties":{"Shape_Leng":0.0326563058633,"Shape_Area":0.000051765216552,"ADM3_EN":"Pom Prap","ADM3_TH":"ป้อมปราบ","ADM3_PCODE":"TH100801","ADM2_EN":"Pom Prap Sattru Phai","ADM2_TH":"ป้อมปราบศัตรูพ่า","ADM2_PCODE":"TH1008","ADM1_EN":"Bangkok","ADM1_TH":"กรุงเทพมหานคร","ADM1_PCODE":"TH10","ADM0_EN":"Thailand","ADM0_TH":"ประเทศไทย","ADM0_PCODE":"TH"}},{"arcs":[[-140,-153,153,154]],"type":"Polygon","properties":{"Shape_Leng":0.0261026158476,"Shape_Area":0.000036808795172,"ADM3_EN":"Wat Thepsirin","ADM3_TH":"วัดเทพศิรินทร์","ADM3_PCODE":"TH100802","ADM2_EN":"Pom Prap Sattru Phai","ADM2_TH":"ป้อมปราบศัตรูพ่า","ADM2_PCODE":"TH1008","ADM1_EN":"Bangkok","ADM1_TH":"กรุงเทพมหานคร","ADM1_PCODE":"TH10","ADM0_EN":"Thailand","ADM0_TH":"ประเทศไทย","ADM0_PCODE":"TH"}},{"arcs":[[-56,-141,-155,155,156]],"type":"Polygon","properties":{"Shape_Leng":0.0278480624001,"Shape_Area":0.000048524072198,"ADM3_EN":"Khlong Mahanak","ADM3_TH":"คลองมหานาค","ADM3_PCODE":"TH100803","ADM2_EN":"Pom Prap Sattru Phai","ADM2_TH":"ป้อมปราบศัตรูพ่า","ADM2_PCODE":"TH1008","ADM1_EN":"Bangkok","ADM1_TH":"กรุงเทพมหานคร","ADM1_PCODE":"TH10","ADM0_EN":"Thailand","ADM0_TH":"ประเทศไทย","ADM0_PCODE":"TH"}},{"arcs":[[-13,-23,-29,-37,157,-156,-154,-152,158]],"type":"Polygon","properties":{"Shape_Leng":0.0275586954102,"Shape_Area":0.000033807341422,"ADM3_EN":"Ban Bat","ADM3_TH":"บ้านบาตร","ADM3_PCODE":"TH100804","ADM2_EN":"Pom Prap Sattru Phai","ADM2_TH":"ป้อมปราบศัตรูพ่า","ADM2_PCODE":"TH1008","ADM1_EN":"Bangkok","ADM1_TH":"กรุงเทพมหานคร","ADM1_PCODE":"TH10","ADM0_EN":"Thailand","ADM0_TH":"ประเทศไทย","ADM0_PCODE":"TH"}},{"arcs":[[-36,-40,-46,-53,-57,-157,-158]],"type":"Polygon","properties":{"Shape_Leng":0.0283858716794,"Shape_Area":0.000038069649092,"ADM3_EN":"Wat Sommanat","ADM3_TH":"วัดโสมนัส","ADM3_PCODE":"TH100805","ADM2_EN":"Pom Prap Sattru Phai","ADM2_TH":"ป้อมปราบศัตรูพ่า","ADM2_PCODE":"TH1008","ADM1_EN":"Bangkok","ADM1_TH":"กรุงเทพมหานคร","ADM1_PCODE":"TH10","ADM0_EN":"Thailand","ADM0_TH":"ประเทศไทย","ADM0_PCODE":"TH"}},{"arcs":[[159,160,161,162,163,164]],"type":"Polygon","properties":{"Shape_Leng":0.156672422684,"Shape_Area":0.00110240834801,"ADM3_EN":"Bang Chak","ADM3_TH":"บางจาก","ADM3_PCODE":"TH100905","ADM2_EN":"Phra Khanong","ADM2_TH":"พระโขนง","ADM2_PCODE":"TH1009","ADM1_EN":"Bangkok","ADM1_TH":"กรุงเทพมหานคร","ADM1_PCODE":"TH10","ADM0_EN":"Thailand","ADM0_TH":"ประเทศไทย","ADM0_PCODE":"TH"}},{"arcs":[[165,166,167,168,169,170,171,172]],"type":"Polygon","properties":{"Shape_Leng":0.24354636909,"Shape_Area":0.00207695702493,"ADM3_EN":"Min Buri","ADM3_TH":"มีนบุรี","ADM3_PCODE":"TH101001","ADM2_EN":"Min Buri","ADM2_TH":"มีนบุรี","ADM2_PCODE":"TH1010","ADM1_EN":"Bangkok","ADM1_TH":"กรุงเทพมหานคร","ADM1_PCODE":"TH10","ADM0_EN":"Thailand","ADM0_TH":"ประเทศไทย","ADM0_PCODE":"TH"}},{"arcs":[[-79,-87,173,174,-167,175]],"type":"Polygon","properties":{"Shape_Leng":0.264090831495,"Shape_Area":0.00297262206759,"ADM3_EN":"Saen Saep","ADM3_TH":"แสนแสบ","ADM3_PCODE":"TH101002","ADM2_EN":"Min Buri","ADM2_TH":"มีนบุรี","ADM2_PCODE":"TH1010","ADM1_EN":"Bangkok","ADM1_TH":"กรุงเทพมหานคร","ADM1_PCODE":"TH10","ADM0_EN":"Thailand","ADM0_TH":"ประเทศไทย","ADM0_PCODE":"TH"}},{"arcs":[[176,177,178,179,180,181]],"type":"Polygon","properties":{"Shape_Leng":0.191464718709,"Shape_Area":0.000929574739749,"ADM3_EN":"Lat Krabang","ADM3_TH":"ลาดกระบัง","ADM3_PCODE":"TH101101","ADM2_EN":"Lat Krabang","ADM2_TH":"ลาดกระบัง","ADM2_PCODE":"TH1011","ADM1_EN":"Bangkok","ADM1_TH":"กรุงเทพมหานคร","ADM1_PCODE":"TH10","ADM0_EN":"Thailand","ADM0_TH":"ประเทศไทย","ADM0_PCODE":"TH"}},{"arcs":[[-169,182,-182,183,184]],"type":"Polygon","properties":{"Shape_Leng":0.158409003038,"Shape_Area":0.00135118114937,"ADM3_EN":"Khlong Song Ton Nun","ADM3_TH":"คลองสองต้นนุ่น","ADM3_PCODE":"TH101102","ADM2_EN":"Lat Krabang","ADM2_TH":"ลาดกระบัง","ADM2_PCODE":"TH1011","ADM1_EN":"Bangkok","ADM1_TH":"กรุงเทพมหานคร","ADM1_PCODE":"TH10","ADM0_EN":"Thailand","ADM0_TH":"ประเทศไทย","ADM0_PCODE":"TH"}},{"arcs":[[-168,-175,185,-177,-183]],"type":"Polygon","properties":{"Shape_Leng":0.168611731695,"Shape_Area":0.00148435898344,"ADM3_EN":"Khlong Sam Prawet","ADM3_TH":"คลองสามประเวศ","ADM3_PCODE":"TH101103","ADM2_EN":"Lat Krabang","ADM2_TH":"ลาดกระบัง","ADM2_PCODE":"TH1011","ADM1_EN":"Bangkok","ADM1_TH":"กรุงเทพมหานคร","ADM1_PCODE":"TH10","ADM0_EN":"Thailand","ADM0_TH":"ประเทศไทย","ADM0_PCODE":"TH"}},{"arcs":[[-86,186,-178,-186,-174]],"type":"Polygon","properties":{"Shape_Leng":0.277370880432,"Shape_Area":0.00279614257644,"ADM3_EN":"Lam Pla Thio","ADM3_TH":"ลำปลาทิว","ADM3_PCODE":"TH101104","ADM2_EN":"Lat Krabang","ADM2_TH":"ลาดกระบัง","ADM2_PCODE":"TH1011","ADM1_EN":"Bangkok","ADM1_TH":"กรุงเทพมหานคร","ADM1_PCODE":"TH10","ADM0_EN":"Thailand","ADM0_TH":"ประเทศไทย","ADM0_PCODE":"TH"}},{"arcs":[[-85,-90,187,188,-179,-187]],"type":"Polygon","properties":{"Shape_Leng":0.255740213428,"Shape_Area":0.00227612356907,"ADM3_EN":"Thap Yao","ADM3_TH":"ทับยาว","ADM3_PCODE":"TH101105","ADM2_EN":"Lat Krabang","ADM2_TH":"ลาดกระบัง","ADM2_PCODE":"TH1011","ADM1_EN":"Bangkok","ADM1_TH":"กรุงเทพมหานคร","ADM1_PCODE":"TH10","ADM0_EN":"Thailand","ADM0_TH":"ประเทศไทย","ADM0_PCODE":"TH"}},{"arcs":[[-89,189,-188]],"type":"Polygon","properties":{"Shape_Leng":0.219708767271,"Shape_Area":0.00191223122212,"ADM3_EN":"Khum Thong","ADM3_TH":"ขุมทอง","ADM3_PCODE":"TH101106","ADM2_EN":"Lat Krabang","ADM2_TH":"ลาดกระบัง","ADM2_PCODE":"TH1011","ADM1_EN":"Bangkok","ADM1_TH":"กรุงเทพมหานคร","ADM1_PCODE":"TH10","ADM0_EN":"Thailand","ADM0_TH":"ประเทศไทย","ADM0_PCODE":"TH"}},{"arcs":[[190,191,192,193,194,195]],"type":"Polygon","properties":{"Shape_Leng":0.125002177381,"Shape_Area":0.000623488143742,"ADM3_EN":"Chong Nonsi","ADM3_TH":"ช่องนนทรี","ADM3_PCODE":"TH101203","ADM2_EN":"Yan Nawa","ADM2_TH":"ยานนาวา","ADM2_PCODE":"TH1012","ADM1_EN":"Bangkok","ADM1_TH":"กรุงเทพมหานคร","ADM1_PCODE":"TH10","ADM0_EN":"Thailand","ADM0_TH":"ประเทศไทย","ADM0_PCODE":"TH"}},{"arcs":[[-193,196,197,198]],"type":"Polygon","properties":{"Shape_Leng":0.0957172776203,"Shape_Area":0.000412130019867,"ADM3_EN":"Bang Phongphang","ADM3_TH":"บางโพงพาง","ADM3_PCODE":"TH101204","ADM2_EN":"Yan Nawa","ADM2_TH":"ยานนาวา","ADM2_PCODE":"TH1012","ADM1_EN":"Bangkok","ADM1_TH":"กรุงเทพมหานคร","ADM1_PCODE":"TH10","ADM0_EN":"Thailand","ADM0_TH":"ประเทศไทย","ADM0_PCODE":"TH"}},{"arcs":[[-15,199,200,201]],"type":"Polygon","properties":{"Shape_Leng":0.0262821546475,"Shape_Area":0.000042319691683,"ADM3_EN":"Chakkrawat","ADM3_TH":"จักรวรรดิ","ADM3_PCODE":"TH101301","ADM2_EN":"Samphanthawong","ADM2_TH":"สัมพันธวงศ์","ADM2_PCODE":"TH1013","ADM1_EN":"Bangkok","ADM1_TH":"กรุงเทพมหานคร","ADM1_PCODE":"TH10","ADM0_EN":"Thailand","ADM0_TH":"ประเทศไทย","ADM0_PCODE":"TH"}},{"arcs":[[-14,-159,-151,202,203,-200]],"type":"Polygon","properties":{"Shape_Leng":0.0381829399005,"Shape_Area":0.0000416354866,"ADM3_EN":"Samphanthawong","ADM3_TH":"สัมพันธวงศ์","ADM3_PCODE":"TH101302","ADM2_EN":"Samphanthawong","ADM2_TH":"สัมพันธวงศ์","ADM2_PCODE":"TH1013","ADM1_EN":"Bangkok","ADM1_TH":"กรุงเทพมหานคร","ADM1_PCODE":"TH10","ADM0_EN":"Thailand","ADM0_TH":"ประเทศไทย","ADM0_PCODE":"TH"}},{"arcs":[[-95,-109,204,-203,-150]],"type":"Polygon","properties":{"Shape_Leng":0.0295760559052,"Shape_Area":0.000033778940379,"ADM3_EN":"Talat Noi","ADM3_TH":"ตลาดน้อย","ADM3_PCODE":"TH101303","ADM2_EN":"Samphanthawong","ADM2_TH":"สัมพันธวงศ์","ADM2_PCODE":"TH1013","ADM1_EN":"Bangkok","ADM1_TH":"กรุงเทพมหานคร","ADM1_PCODE":"TH10","ADM0_EN":"Thailand","ADM0_TH":"ประเทศไทย","ADM0_PCODE":"TH"}},{"arcs":[[-61,205,206,207,208,209]],"type":"Polygon","properties":{"Shape_Leng":0.109781018866,"Shape_Area":0.000773578647051,"ADM3_EN":"Sam Sen Nai","ADM3_TH":"สามเสนใน","ADM3_PCODE":"TH101401","ADM2_EN":"Phaya Thai","ADM2_TH":"พญาไท","ADM2_PCODE":"TH1014","ADM1_EN":"Bangkok","ADM1_TH":"กรุงเทพมหานคร","ADM1_PCODE":"TH10","ADM0_EN":"Thailand","ADM0_TH":"ประเทศไทย","ADM0_PCODE":"TH"}},{"arcs":[[-6,-17,210,211,212]],"type":"Polygon","properties":{"Shape_Leng":0.0315398833687,"Shape_Area":0.000060224529044,"ADM3_EN":"Wat Kanlaya","ADM3_TH":"วัดกัลยาณ์","ADM3_PCODE":"TH101501","ADM2_EN":"Thon Buri","ADM2_TH":"ธนบุรี","ADM2_PCODE":"TH1015","ADM1_EN":"Bangkok","ADM1_TH":"กรุงเทพมหานคร","ADM1_PCODE":"TH10","ADM0_EN":"Thailand","ADM0_TH":"ประเทศไทย","ADM0_PCODE":"TH"}},{"arcs":[[-212,213,214,215,216]],"type":"Polygon","properties":{"Shape_Leng":0.0297183583737,"Shape_Area":0.000054383348615,"ADM3_EN":"Hiranruchi","ADM3_TH":"หิรัญรูจี","ADM3_PCODE":"TH101502","ADM2_EN":"Thon Buri","ADM2_TH":"ธนบุรี","ADM2_PCODE":"TH1015","ADM1_EN":"Bangkok","ADM1_TH":"กรุงเทพมหานคร","ADM1_PCODE":"TH10","ADM0_EN":"Thailand","ADM0_TH":"ประเทศไทย","ADM0_PCODE":"TH"}},{"arcs":[[-215,217,218,219,220,221,222,223]],"type":"Polygon","properties":{"Shape_Leng":0.0438725654743,"Shape_Area":0.000085835436507,"ADM3_EN":"Bang Yi Ruea","ADM3_TH":"บางยี่เรือ","ADM3_PCODE":"TH101503","ADM2_EN":"Thon Buri","ADM2_TH":"ธนบุรี","ADM2_PCODE":"TH1015","ADM1_EN":"Bangkok","ADM1_TH":"กรุงเทพมหานคร","ADM1_PCODE":"TH10","ADM0_EN":"Thailand","ADM0_TH":"ประเทศไทย","ADM0_PCODE":"TH"}},{"arcs":[[-222,224,225,226]],"type":"Polygon","properties":{"Shape_Leng":0.0456834240497,"Shape_Area":0.000115614800995,"ADM3_EN":"Bukkhalo","ADM3_TH":"บุคคโล","ADM3_PCODE":"TH101504","ADM2_EN":"Thon Buri","ADM2_TH":"ธนบุรี","ADM2_PCODE":"TH1015","ADM1_EN":"Bangkok","ADM1_TH":"กรุงเทพมหานคร","ADM1_PCODE":"TH10","ADM0_EN":"Thailand","ADM0_TH":"ประเทศไทย","ADM0_PCODE":"TH"}},{"arcs":[[-223,-227,227,228,229,230]],"type":"Polygon","properties":{"Shape_Leng":0.0411734921036,"Shape_Area":0.000094403349464,"ADM3_EN":"Talat Phlu","ADM3_TH":"ตลาดพลู","ADM3_PCODE":"TH101505","ADM2_EN":"Thon Buri","ADM2_TH":"ธนบุรี","ADM2_PCODE":"TH1015","ADM1_EN":"Bangkok","ADM1_TH":"กรุงเทพมหานคร","ADM1_PCODE":"TH10","ADM0_EN":"Thailand","ADM0_TH":"ประเทศไทย","ADM0_PCODE":"TH"}},{"arcs":[[-226,231,232,233,234,-228]],"type":"Polygon","properties":{"Shape_Leng":0.0602811501248,"Shape_Area":0.000143398845393,"ADM3_EN":"Dao Khanong","ADM3_TH":"ดาวคะนอง","ADM3_PCODE":"TH101506","ADM2_EN":"Thon Buri","ADM2_TH":"ธนบุรี","ADM2_PCODE":"TH1015","ADM1_EN":"Bangkok","ADM1_TH":"กรุงเทพมหานคร","ADM1_PCODE":"TH10","ADM0_EN":"Thailand","ADM0_TH":"ประเทศไทย","ADM0_PCODE":"TH"}},{"arcs":[[-221,235,236,237,-232,-225]],"type":"Polygon","properties":{"Shape_Leng":0.0521485260561,"Shape_Area":0.000119641583785,"ADM3_EN":"Samre","ADM3_TH":"สำเหร่","ADM3_PCODE":"TH101507","ADM2_EN":"Thon Buri","ADM2_TH":"ธนบุรี","ADM2_PCODE":"TH1015","ADM1_EN":"Bangkok","ADM1_TH":"กรุงเทพมหานคร","ADM1_PCODE":"TH10","ADM0_EN":"Thailand","ADM0_TH":"ประเทศไทย","ADM0_PCODE":"TH"}},{"arcs":[[-7,-213,-217,238,239,240]],"type":"Polygon","properties":{"Shape_Leng":0.0359007873357,"Shape_Area":0.000073067519856,"ADM3_EN":"Wat Arun","ADM3_TH":"วัดอรุณ","ADM3_PCODE":"TH101601","ADM2_EN":"Bangkok Yai","ADM2_TH":"บางกอกใหญ่","ADM2_PCODE":"TH1016","ADM1_EN":"Bangkok","ADM1_TH":"กรุงเทพมหานคร","ADM1_PCODE":"TH10","ADM0_EN":"Thailand","ADM0_TH":"ประเทศไทย","ADM0_PCODE":"TH"}},{"arcs":[[-216,-224,-231,241,242,243,244,-239]],"type":"Polygon","properties":{"Shape_Leng":0.0849663061943,"Shape_Area":0.000452807464828,"ADM3_EN":"Wat Tha Phra","ADM3_TH":"วัดท่าพระ","ADM3_PCODE":"TH101602","ADM2_EN":"Bangkok Yai","ADM2_TH":"บางกอกใหญ่","ADM2_PCODE":"TH1016","ADM1_EN":"Bangkok","ADM1_TH":"กรุงเทพมหานคร","ADM1_PCODE":"TH10","ADM0_EN":"Thailand","ADM0_TH":"ประเทศไทย","ADM0_PCODE":"TH"}},{"arcs":[[245,246,247]],"type":"Polygon","properties":{"Shape_Leng":0.107192933085,"Shape_Area":0.000403190123124,"ADM3_EN":"Huai Khwang","ADM3_TH":"ห้วยขวาง","ADM3_PCODE":"TH101701","ADM2_EN":"Huai Khwang","ADM2_TH":"ห้วยขวาง","ADM2_PCODE":"TH1017","ADM1_EN":"Bangkok","ADM1_TH":"กรุงเทพมหานคร","ADM1_PCODE":"TH10","ADM0_EN":"Thailand","ADM0_TH":"ประเทศไทย","ADM0_PCODE":"TH"}},{"arcs":[[-135,248,249,250,251,-246,252,253,254]],"type":"Polygon","properties":{"Shape_Leng":0.108580050596,"Shape_Area":0.000510873958789,"ADM3_EN":"Bang Kapi","ADM3_TH":"บางกะปิ","ADM3_PCODE":"TH101702","ADM2_EN":"Huai Khwang","ADM2_TH":"ห้วยขวาง","ADM2_PCODE":"TH1017","ADM1_EN":"Bangkok","ADM1_TH":"กรุงเทพมหานคร","ADM1_PCODE":"TH10","ADM0_EN":"Thailand","ADM0_TH":"ประเทศไทย","ADM0_PCODE":"TH"}},{"arcs":[[-248,255,256,257,258,259,-253]],"type":"Polygon","properties":{"Shape_Leng":0.116550037189,"Shape_Area":0.000448573924012,"ADM3_EN":"Sam Sen Nok","ADM3_TH":"สามเสนนอก","ADM3_PCODE":"TH101704","ADM2_EN":"Huai Khwang","ADM2_TH":"ห้วยขวาง","ADM2_PCODE":"TH1017","ADM1_EN":"Bangkok","ADM1_TH":"กรุงเทพมหานคร","ADM1_PCODE":"TH10","ADM0_EN":"Thailand","ADM0_TH":"ประเทศไทย","ADM0_PCODE":"TH"}},{"arcs":[[-16,-202,260,-218,-214,-211]],"type":"Polygon","properties":{"Shape_Leng":0.0374714310026,"Shape_Area":0.000077437720472,"ADM3_EN":"Somdet Chaophraya","ADM3_TH":"สมเด็จเจ้าพระยา","ADM3_PCODE":"TH101801","ADM2_EN":"Khlong San","ADM2_TH":"คลองสาน","ADM2_PCODE":"TH1018","ADM1_EN":"Bangkok","ADM1_TH":"กรุงเทพมหานคร","ADM1_PCODE":"TH10","ADM0_EN":"Thailand","ADM0_TH":"ประเทศไทย","ADM0_PCODE":"TH"}},{"arcs":[[-201,-204,-205,261,-219,-261]],"type":"Polygon","properties":{"Shape_Leng":0.0521380549105,"Shape_Area":0.000086720837988,"ADM3_EN":"Khlong San","ADM3_TH":"คลองสาน","ADM3_PCODE":"TH101802","ADM2_EN":"Khlong San","ADM2_TH":"คลองสาน","ADM2_PCODE":"TH1018","ADM1_EN":"Bangkok","ADM1_TH":"กรุงเทพมหานคร","ADM1_PCODE":"TH10","ADM0_EN":"Thailand","ADM0_TH":"ประเทศไทย","ADM0_PCODE":"TH"}},{"arcs":[[-237,262,263,264]],"type":"Polygon","properties":{"Shape_Leng":0.0547058222103,"Shape_Area":0.000189210906805,"ADM3_EN":"Bang Lamphu Lang","ADM3_TH":"บางลำภูล่าง","ADM3_PCODE":"TH101803","ADM2_EN":"Khlong San","ADM2_TH":"คลองสาน","ADM2_PCODE":"TH1018","ADM1_EN":"Bangkok","ADM1_TH":"กรุงเทพมหานคร","ADM1_PCODE":"TH10","ADM0_EN":"Thailand","ADM0_TH":"ประเทศไทย","ADM0_PCODE":"TH"}},{"arcs":[[-108,265,-263,-236,-220,-262]],"type":"Polygon","properties":{"Shape_Leng":0.0553990230072,"Shape_Area":0.000142560744119,"ADM3_EN":"Khlong Ton Sai","ADM3_TH":"คลองต้นไทร","ADM3_PCODE":"TH101804","ADM2_EN":"Khlong San","ADM2_TH":"คลองสาน","ADM2_PCODE":"TH1018","ADM1_EN":"Bangkok","ADM1_TH":"กรุงเทพมหานคร","ADM1_PCODE":"TH10","ADM0_EN":"Thailand","ADM0_TH":"ประเทศไทย","ADM0_PCODE":"TH"}},{"arcs":[[266,267,268,269,270,271,272,273]],"type":"Polygon","properties":{"Shape_Leng":0.102010318204,"Shape_Area":0.000102901020764,"ADM3_EN":"Khlong Chak Phra","ADM3_TH":"คลองชักพระ","ADM3_PCODE":"TH101901","ADM2_EN":"Taling Chan","ADM2_TH":"ตลิ่งชัน","ADM2_PCODE":"TH1019","ADM1_EN":"Bangkok","ADM1_TH":"กรุงเทพมหานคร","ADM1_PCODE":"TH10","ADM0_EN":"Thailand","ADM0_TH":"ประเทศไทย","ADM0_PCODE":"TH"}},{"arcs":[[-273,274,275,276,277]],"type":"Polygon","properties":{"Shape_Leng":0.11055461278,"Shape_Area":0.000518146654927,"ADM3_EN":"Taling Chan","ADM3_TH":"ตลิ่งชัน","ADM3_PCODE":"TH101902","ADM2_EN":"Taling Chan","ADM2_TH":"ตลิ่งชัน","ADM2_PCODE":"TH1019","ADM1_EN":"Bangkok","ADM1_TH":"กรุงเทพมหานคร","ADM1_PCODE":"TH10","ADM0_EN":"Thailand","ADM0_TH":"ประเทศไทย","ADM0_PCODE":"TH"}},{"arcs":[[-272,278,279,280,-275]],"type":"Polygon","properties":{"Shape_Leng":0.124438486746,"Shape_Area":0.000763039632358,"ADM3_EN":"Chimphli","ADM3_TH":"ฉิมพลี","ADM3_PCODE":"TH101903","ADM2_EN":"Taling Chan","ADM2_TH":"ตลิ่งชัน","ADM2_PCODE":"TH1019","ADM1_EN":"Bangkok","ADM1_TH":"กรุงเทพมหานคร","ADM1_PCODE":"TH10","ADM0_EN":"Thailand","ADM0_TH":"ประเทศไทย","ADM0_PCODE":"TH"}},{"arcs":[[-270,281,282,283,284,285]],"type":"Polygon","properties":{"Shape_Leng":0.129039682589,"Shape_Area":0.000427303622241,"ADM3_EN":"Bang Phrom","ADM3_TH":"บางพรม","ADM3_PCODE":"TH101904","ADM2_EN":"Taling Chan","ADM2_TH":"ตลิ่งชัน","ADM2_PCODE":"TH1019","ADM1_EN":"Bangkok","ADM1_TH":"กรุงเทพมหานคร","ADM1_PCODE":"TH10","ADM0_EN":"Thailand","ADM0_TH":"ประเทศไทย","ADM0_PCODE":"TH"}},{"arcs":[[-271,-286,286,-279]],"type":"Polygon","properties":{"Shape_Leng":0.131243487254,"Shape_Area":0.000818837942107,"ADM3_EN":"Bang Ramat","ADM3_TH":"บางระมาด","ADM3_PCODE":"TH101905","ADM2_EN":"Taling Chan","ADM2_TH":"ตลิ่งชัน","ADM2_PCODE":"TH1019","ADM1_EN":"Bangkok","ADM1_TH":"กรุงเทพมหานคร","ADM1_PCODE":"TH10","ADM0_EN":"Thailand","ADM0_TH":"ประเทศไทย","ADM0_PCODE":"TH"}},{"arcs":[[-284,287,288,289,290]],"type":"Polygon","properties":{"Shape_Leng":0.1212861827,"Shape_Area":0.000349702475326,"ADM3_EN":"Bang Chueak Nang","ADM3_TH":"บางเชือกหนัง","ADM3_PCODE":"TH101907","ADM2_EN":"Taling Chan","ADM2_TH":"ตลิ่งชัน","ADM2_PCODE":"TH1019","ADM1_EN":"Bangkok","ADM1_TH":"กรุงเทพมหานคร","ADM1_PCODE":"TH10","ADM0_EN":"Thailand","ADM0_TH":"ประเทศไทย","ADM0_PCODE":"TH"}},{"arcs":[[-8,-241,291,292,293]],"type":"Polygon","properties":{"Shape_Leng":0.0605452271145,"Shape_Area":0.000114527859533,"ADM3_EN":"Sirirat","ADM3_TH":"ศิริราช","ADM3_PCODE":"TH102004","ADM2_EN":"Bangkok Noi","ADM2_TH":"บางกอกน้อย","ADM2_PCODE":"TH1020","ADM1_EN":"Bangkok","ADM1_TH":"กรุงเทพมหานคร","ADM1_PCODE":"TH10","ADM0_EN":"Thailand","ADM0_TH":"ประเทศไทย","ADM0_PCODE":"TH"}},{"arcs":[[-240,-245,294,-292]],"type":"Polygon","properties":{"Shape_Leng":0.0621605705818,"Shape_Area":0.000193423651061,"ADM3_EN":"Ban Chang Lo","ADM3_TH":"บ้านช่างหล่อ","ADM3_PCODE":"TH102005","ADM2_EN":"Bangkok Noi","ADM2_TH":"บางกอกน้อย","ADM2_PCODE":"TH1020","ADM1_EN":"Bangkok","ADM1_TH":"กรุงเทพมหานคร","ADM1_PCODE":"TH10","ADM0_EN":"Thailand","ADM0_TH":"ประเทศไทย","ADM0_PCODE":"TH"}},{"arcs":[[-267,295,-293,296]],"type":"Polygon","properties":{"Shape_Leng":0.0534211231429,"Shape_Area":0.000137295210782,"ADM3_EN":"Bang Khun Non","ADM3_TH":"บางขุนนนท์","ADM3_PCODE":"TH102006","ADM2_EN":"Bangkok Noi","ADM2_TH":"บางกอกน้อย","ADM2_PCODE":"TH1020","ADM1_EN":"Bangkok","ADM1_TH":"กรุงเทพมหานคร","ADM1_PCODE":"TH10","ADM0_EN":"Thailand","ADM0_TH":"ประเทศไทย","ADM0_PCODE":"TH"}},{"arcs":[[-244,-268,-297,-295]],"type":"Polygon","properties":{"Shape_Leng":0.0856667433692,"Shape_Area":0.000330735531537,"ADM3_EN":"Bang Khun Si","ADM3_TH":"บางขุนศรี","ADM3_PCODE":"TH102007","ADM2_EN":"Bangkok Noi","ADM2_TH":"บางกอกน้อย","ADM2_PCODE":"TH1020","ADM1_EN":"Bangkok","ADM1_TH":"กรุงเทพมหานคร","ADM1_PCODE":"TH10","ADM0_EN":"Thailand","ADM0_TH":"ประเทศไทย","ADM0_PCODE":"TH"}},{"arcs":[[-9,-294,-296,-274,-278,297,298,299]],"type":"Polygon","properties":{"Shape_Leng":0.079320454399,"Shape_Area":0.000252720028799,"ADM3_EN":"Arun Ammarin","ADM3_TH":"อรุณอมรินทร์","ADM3_PCODE":"TH102009","ADM2_EN":"Bangkok Noi","ADM2_TH":"บางกอกน้อย","ADM2_PCODE":"TH1020","ADM1_EN":"Bangkok","ADM1_TH":"กรุงเทพมหานคร","ADM1_PCODE":"TH10","ADM0_EN":"Thailand","ADM0_TH":"ประเทศไทย","ADM0_PCODE":"TH"}},{"arcs":[[300,301,302,303,304,305]],"type":"Polygon","properties":{"Shape_Leng":0.621028978998,"Shape_Area":0.00620382063126,"ADM3_EN":"Tha Kham","ADM3_TH":"ท่าข้าม","ADM3_PCODE":"TH102105","ADM2_EN":"Bang Khun Thian","ADM2_TH":"บางขุนเทียน","ADM2_PCODE":"TH1021","ADM1_EN":"Bangkok","ADM1_TH":"กรุงเทพมหานคร","ADM1_PCODE":"TH10","ADM0_EN":"Thailand","ADM0_TH":"ประเทศไทย","ADM0_PCODE":"TH"}},{"arcs":[[-304,306,307,308,309]],"type":"Polygon","properties":{"Shape_Leng":0.348044523853,"Shape_Area":0.00409812212478,"ADM3_EN":"Samae Dam","ADM3_TH":"แสมดำ","ADM3_PCODE":"TH102107","ADM2_EN":"Bang Khun Thian","ADM2_TH":"บางขุนเทียน","ADM2_PCODE":"TH1021","ADM1_EN":"Bangkok","ADM1_TH":"กรุงเทพมหานคร","ADM1_PCODE":"TH10","ADM0_EN":"Thailand","ADM0_TH":"ประเทศไทย","ADM0_PCODE":"TH"}},{"arcs":[[310,311,312,313,314,315,316,317]],"type":"Polygon","properties":{"Shape_Leng":0.13498433868,"Shape_Area":0.000516230180368,"ADM3_EN":"Bang Wa","ADM3_TH":"บางหว้า","ADM3_PCODE":"TH102201","ADM2_EN":"Phasi Charoen","ADM2_TH":"ภาษีเจริญ","ADM2_PCODE":"TH1022","ADM1_EN":"Bangkok","ADM1_TH":"กรุงเทพมหานคร","ADM1_PCODE":"TH10","ADM0_EN":"Thailand","ADM0_TH":"ประเทศไทย","ADM0_PCODE":"TH"}},{"arcs":[[-316,318,319,320,321]],"type":"Polygon","properties":{"Shape_Leng":0.0748934354848,"Shape_Area":0.000294425784458,"ADM3_EN":"Bang Duan","ADM3_TH":"บางด้วน","ADM3_PCODE":"TH102202","ADM2_EN":"Phasi Charoen","ADM2_TH":"ภาษีเจริญ","ADM2_PCODE":"TH1022","ADM1_EN":"Bangkok","ADM1_TH":"กรุงเทพมหานคร","ADM1_PCODE":"TH10","ADM0_EN":"Thailand","ADM0_TH":"ประเทศไทย","ADM0_PCODE":"TH"}},{"arcs":[[-317,-322,322,323]],"type":"Polygon","properties":{"Shape_Leng":0.0459028657322,"Shape_Area":0.000105038189612,"ADM3_EN":"Bang Chak","ADM3_TH":"บางจาก","ADM3_PCODE":"TH102206","ADM2_EN":"Phasi Charoen","ADM2_TH":"ภาษีเจริญ","ADM2_PCODE":"TH1022","ADM1_EN":"Bangkok","ADM1_TH":"กรุงเทพมหานคร","ADM1_PCODE":"TH10","ADM0_EN":"Thailand","ADM0_TH":"ประเทศไทย","ADM0_PCODE":"TH"}},{"arcs":[[-283,324,-323,-321,325,-288]],"type":"Polygon","properties":{"Shape_Leng":0.0791798822027,"Shape_Area":0.000230854504658,"ADM3_EN":"Bang Waek","ADM3_TH":"บางแวก","ADM3_PCODE":"TH102207","ADM2_EN":"Phasi Charoen","ADM2_TH":"ภาษีเจริญ","ADM2_PCODE":"TH1022","ADM1_EN":"Bangkok","ADM1_TH":"กรุงเทพมหานคร","ADM1_PCODE":"TH10","ADM0_EN":"Thailand","ADM0_TH":"ประเทศไทย","ADM0_PCODE":"TH"}},{"arcs":[[-289,-326,-320,326,327]],"type":"Polygon","properties":{"Shape_Leng":0.0698189799281,"Shape_Area":0.000227261396899,"ADM3_EN":"Khlong Khwang","ADM3_TH":"คลองขวาง","ADM3_PCODE":"TH102208","ADM2_EN":"Phasi Charoen","ADM2_TH":"ภาษีเจริญ","ADM2_PCODE":"TH1022","ADM1_EN":"Bangkok","ADM1_TH":"กรุงเทพมหานคร","ADM1_PCODE":"TH10","ADM0_EN":"Thailand","ADM0_TH":"ประเทศไทย","ADM0_PCODE":"TH"}},{"arcs":[[-230,328,-318,329,-242]],"type":"Polygon","properties":{"Shape_Leng":0.0612873323185,"Shape_Area":0.000147202474611,"ADM3_EN":"Pak Khlong Phasi Charoen","ADM3_TH":"ปากคลองภาษีเจริญ","ADM3_PCODE":"TH102209","ADM2_EN":"Phasi Charoen","ADM2_TH":"ภาษีเจริญ","ADM2_PCODE":"TH1022","ADM1_EN":"Bangkok","ADM1_TH":"กรุงเทพมหานคร","ADM1_PCODE":"TH10","ADM0_EN":"Thailand","ADM0_TH":"ประเทศไทย","ADM0_PCODE":"TH"}},{"arcs":[[-243,-330,-324,-325,-282,-269]],"type":"Polygon","properties":{"Shape_Leng":0.0548227607034,"Shape_Area":0.000077405161459,"ADM3_EN":"Khuha Sawan","ADM3_TH":"คูหาสวรรค์","ADM3_PCODE":"TH102210","ADM2_EN":"Phasi Charoen","ADM2_TH":"ภาษีเจริญ","ADM2_PCODE":"TH1022","ADM1_EN":"Bangkok","ADM1_TH":"กรุงเทพมหานคร","ADM1_PCODE":"TH10","ADM0_EN":"Thailand","ADM0_TH":"ประเทศไทย","ADM0_PCODE":"TH"}},{"arcs":[[330,331,332,333]],"type":"Polygon","properties":{"Shape_Leng":0.17812123782,"Shape_Area":0.00161875639081,"ADM3_EN":"Nong Khaem","ADM3_TH":"หนองแขม","ADM3_PCODE":"TH102302","ADM2_EN":"Nong Khaem","ADM2_TH":"หนองแขม","ADM2_PCODE":"TH1023","ADM1_EN":"Bangkok","ADM1_TH":"กรุงเทพมหานคร","ADM1_PCODE":"TH10","ADM0_EN":"Thailand","ADM0_TH":"ประเทศไทย","ADM0_PCODE":"TH"}},{"arcs":[[-333,334,335,336,337,338]],"type":"Polygon","properties":{"Shape_Leng":0.191667309914,"Shape_Area":0.00142296030111,"ADM3_EN":"Nong Khang Phlu","ADM3_TH":"หนองค้างพลู","ADM3_PCODE":"TH102303","ADM2_EN":"Nong Khaem","ADM2_TH":"หนองแขม","ADM2_PCODE":"TH1023","ADM1_EN":"Bangkok","ADM1_TH":"กรุงเทพมหานคร","ADM1_PCODE":"TH10","ADM0_EN":"Thailand","ADM0_TH":"ประเทศไทย","ADM0_PCODE":"TH"}},{"arcs":[[-198,339,340,341,342]],"type":"Polygon","properties":{"Shape_Leng":0.104052017775,"Shape_Area":0.000452962561295,"ADM3_EN":"Rat Burana","ADM3_TH":"ราษฎร์บูรณะ","ADM3_PCODE":"TH102401","ADM2_EN":"Rat Burana","ADM2_TH":"ราษฎร์บูรณะ","ADM2_PCODE":"TH1024","ADM1_EN":"Bangkok","ADM1_TH":"กรุงเทพมหานคร","ADM1_PCODE":"TH10","ADM0_EN":"Thailand","ADM0_TH":"ประเทศไทย","ADM0_PCODE":"TH"}},{"arcs":[[-234,343,344,-342,345,346,347,348]],"type":"Polygon","properties":{"Shape_Leng":0.13225361524,"Shape_Area":0.000612526577586,"ADM3_EN":"Bang Pakok","ADM3_TH":"บางปะกอก","ADM3_PCODE":"TH102402","ADM2_EN":"Rat Burana","ADM2_TH":"ราษฎร์บูรณะ","ADM2_PCODE":"TH1024","ADM1_EN":"Bangkok","ADM1_TH":"กรุงเทพมหานคร","ADM1_PCODE":"TH10","ADM0_EN":"Thailand","ADM0_TH":"ประเทศไทย","ADM0_PCODE":"TH"}},{"arcs":[[-48,349,350,-298,-277,351,352,-58]],"type":"Polygon","properties":{"Shape_Leng":0.0970121511124,"Shape_Area":0.000279694079149,"ADM3_EN":"Bang Phlat","ADM3_TH":"บางพลัด","ADM3_PCODE":"TH102501","ADM2_EN":"Bang Phlat","ADM2_TH":"บางพลัด","ADM2_PCODE":"TH1025","ADM1_EN":"Bangkok","ADM1_TH":"กรุงเทพมหานคร","ADM1_PCODE":"TH10","ADM0_EN":"Thailand","ADM0_TH":"ประเทศไทย","ADM0_PCODE":"TH"}},{"arcs":[[-59,-353,353,354]],"type":"Polygon","properties":{"Shape_Leng":0.0712590091369,"Shape_Area":0.000259810572198,"ADM3_EN":"Bang O","ADM3_TH":"บางอ้อ","ADM3_PCODE":"TH102502","ADM2_EN":"Bang Phlat","ADM2_TH":"บางพลัด","ADM2_PCODE":"TH1025","ADM1_EN":"Bangkok","ADM1_TH":"กรุงเทพมหานคร","ADM1_PCODE":"TH10","ADM0_EN":"Thailand","ADM0_TH":"ประเทศไทย","ADM0_PCODE":"TH"}},{"arcs":[[-299,-351,355]],"type":"Polygon","properties":{"Shape_Leng":0.0639171833574,"Shape_Area":0.000200380992597,"ADM3_EN":"Bang Bamru","ADM3_TH":"บางบำหรุ","ADM3_PCODE":"TH102503","ADM2_EN":"Bang Phlat","ADM2_TH":"บางพลัด","ADM2_PCODE":"TH1025","ADM1_EN":"Bangkok","ADM1_TH":"กรุงเทพมหานคร","ADM1_PCODE":"TH10","ADM0_EN":"Thailand","ADM0_TH":"ประเทศไทย","ADM0_PCODE":"TH"}},{"arcs":[[-32,-300,-356,-350,-47,-41]],"type":"Polygon","properties":{"Shape_Leng":0.0628772093095,"Shape_Area":0.00025148260677,"ADM3_EN":"Bang Yi Khan","ADM3_TH":"บางยี่ขัน","ADM3_PCODE":"TH102504","ADM2_EN":"Bang Phlat","ADM2_TH":"บางพลัด","ADM2_PCODE":"TH1025","ADM1_EN":"Bangkok","ADM1_TH":"กรุงเทพมหานคร","ADM1_PCODE":"TH10","ADM0_EN":"Thailand","ADM0_TH":"ประเทศไทย","ADM0_PCODE":"TH"}},{"arcs":[[-208,356,-256,-247,357]],"type":"Polygon","properties":{"Shape_Leng":0.13081873355,"Shape_Area":0.000704524243177,"ADM3_EN":"Din Daeng","ADM3_TH":"ดินแดง","ADM3_PCODE":"TH102601","ADM2_EN":"Din Daeng","ADM2_TH":"ดินแดง","ADM2_PCODE":"TH1026","ADM1_EN":"Bangkok","ADM1_TH":"กรุงเทพมหานคร","ADM1_PCODE":"TH10","ADM0_EN":"Thailand","ADM0_TH":"ประเทศไทย","ADM0_PCODE":"TH"}},{"arcs":[[-126,358,359,360,361,-132]],"type":"Polygon","properties":{"Shape_Leng":0.130970051297,"Shape_Area":0.000865272872227,"ADM3_EN":"Khlong Kum","ADM3_TH":"คลองกุ่ม","ADM3_PCODE":"TH102701","ADM2_EN":"Bueng Kum","ADM2_TH":"บึงกุ่ม","ADM2_PCODE":"TH1027","ADM1_EN":"Bangkok","ADM1_TH":"กรุงเทพมหานคร","ADM1_PCODE":"TH10","ADM0_EN":"Thailand","ADM0_TH":"ประเทศไทย","ADM0_PCODE":"TH"}},{"arcs":[[-131,362,363,-359]],"type":"Polygon","properties":{"Shape_Leng":0.115172495691,"Shape_Area":0.000392690245021,"ADM3_EN":"Nawamin","ADM3_TH":"นวมินทร์","ADM3_PCODE":"TH102704","ADM2_EN":"Bueng Kum","ADM2_TH":"บึงกุ่ม","ADM2_PCODE":"TH1027","ADM1_EN":"Bangkok","ADM1_TH":"กรุงเทพมหานคร","ADM1_PCODE":"TH10","ADM0_EN":"Thailand","ADM0_TH":"ประเทศไทย","ADM0_PCODE":"TH"}},{"arcs":[[-123,364,-360,-364,365]],"type":"Polygon","properties":{"Shape_Leng":0.121475717517,"Shape_Area":0.000698930229889,"ADM3_EN":"Nuan Chan","ADM3_TH":"นวลจันทร์","ADM3_PCODE":"TH102705","ADM2_EN":"Bueng Kum","ADM2_TH":"บึงกุ่ม","ADM2_PCODE":"TH1027","ADM1_EN":"Bangkok","ADM1_TH":"กรุงเทพมหานคร","ADM1_PCODE":"TH10","ADM0_EN":"Thailand","ADM0_TH":"ประเทศไทย","ADM0_PCODE":"TH"}},{"arcs":[[-98,366,367,368,-264,-266,-107]],"type":"Polygon","properties":{"Shape_Leng":0.063382912952,"Shape_Area":0.000149911124564,"ADM3_EN":"Thung Wat Don","ADM3_TH":"ทุ่งวัดดอน","ADM3_PCODE":"TH102801","ADM2_EN":"Sathon","ADM2_TH":"สาทร","ADM2_PCODE":"TH1028","ADM1_EN":"Bangkok","ADM1_TH":"กรุงเทพมหานคร","ADM1_PCODE":"TH10","ADM0_EN":"Thailand","ADM0_TH":"ประเทศไทย","ADM0_PCODE":"TH"}},{"arcs":[[-195,369,370,-368,371]],"type":"Polygon","properties":{"Shape_Leng":0.0670493987214,"Shape_Area":0.000205206792244,"ADM3_EN":"Yan Nawa","ADM3_TH":"ยานนาวา","ADM3_PCODE":"TH102802","ADM2_EN":"Sathon","ADM2_TH":"สาทร","ADM2_PCODE":"TH1028","ADM1_EN":"Bangkok","ADM1_TH":"กรุงเทพมหานคร","ADM1_PCODE":"TH10","ADM0_EN":"Thailand","ADM0_TH":"ประเทศไทย","ADM0_PCODE":"TH"}},{"arcs":[[-97,-149,372,-196,-372,-367]],"type":"Polygon","properties":{"Shape_Leng":0.0770714882853,"Shape_Area":0.00024943284235,"ADM3_EN":"Thung Mahamek","ADM3_TH":"ทุ่งมหาเมฆ","ADM3_PCODE":"TH102803","ADM2_EN":"Sathon","ADM2_TH":"สาทร","ADM2_PCODE":"TH1028","ADM1_EN":"Bangkok","ADM1_TH":"กรุงเทพมหานคร","ADM1_PCODE":"TH10","ADM0_EN":"Thailand","ADM0_TH":"ประเทศไทย","ADM0_PCODE":"TH"}},{"arcs":[[-60,-355,373,374]],"type":"Polygon","properties":{"Shape_Leng":0.0927720260173,"Shape_Area":0.000542395598547,"ADM3_EN":"Bang Sue","ADM3_TH":"บางซื่อ","ADM3_PCODE":"TH102901","ADM2_EN":"Bang Sue","ADM2_TH":"บางซื่อ","ADM2_PCODE":"TH1029","ADM1_EN":"Bangkok","ADM1_TH":"กรุงเทพมหานคร","ADM1_PCODE":"TH10","ADM0_EN":"Thailand","ADM0_TH":"ประเทศไทย","ADM0_PCODE":"TH"}},{"arcs":[[-374,375,376,377]],"type":"Polygon","properties":{"Shape_Leng":0.120704760845,"Shape_Area":0.000541353644791,"ADM3_EN":"Wong Sawang","ADM3_TH":"วงศ์สว่าง","ADM3_PCODE":"TH102902","ADM2_EN":"Bang Sue","ADM2_TH":"บางซื่อ","ADM2_PCODE":"TH1029","ADM1_EN":"Bangkok","ADM1_TH":"กรุงเทพมหานคร","ADM1_PCODE":"TH10","ADM0_EN":"Thailand","ADM0_TH":"ประเทศไทย","ADM0_PCODE":"TH"}},{"arcs":[[-114,378,379,380,-377,381,382]],"type":"Polygon","properties":{"Shape_Leng":0.130836129561,"Shape_Area":0.000888921780865,"ADM3_EN":"Lat Yao","ADM3_TH":"ลาดยาว","ADM3_PCODE":"TH103001","ADM2_EN":"Chatuchak","ADM2_TH":"จตุจักร","ADM2_PCODE":"TH1030","ADM1_EN":"Bangkok","ADM1_TH":"กรุงเทพมหานคร","ADM1_PCODE":"TH10","ADM0_EN":"Thailand","ADM0_TH":"ประเทศไทย","ADM0_PCODE":"TH"}},{"arcs":[[-113,383,384,385,-379]],"type":"Polygon","properties":{"Shape_Leng":0.0734196937802,"Shape_Area":0.000237765931685,"ADM3_EN":"Sena Nikhom","ADM3_TH":"เสนานิคม","ADM3_PCODE":"TH103002","ADM2_EN":"Chatuchak","ADM2_TH":"จตุจักร","ADM2_PCODE":"TH1030","ADM1_EN":"Bangkok","ADM1_TH":"กรุงเทพมหานคร","ADM1_PCODE":"TH10","ADM0_EN":"Thailand","ADM0_TH":"ประเทศไทย","ADM0_PCODE":"TH"}},{"arcs":[[-257,386,-380,-386,387]],"type":"Polygon","properties":{"Shape_Leng":0.0994943749676,"Shape_Area":0.000490781948282,"ADM3_EN":"Chantharakasem","ADM3_TH":"จันทรเกษม","ADM3_PCODE":"TH103003","ADM2_EN":"Chatuchak","ADM2_TH":"จตุจักร","ADM2_PCODE":"TH1030","ADM1_EN":"Bangkok","ADM1_TH":"กรุงเทพมหานคร","ADM1_PCODE":"TH10","ADM0_EN":"Thailand","ADM0_TH":"ประเทศไทย","ADM0_PCODE":"TH"}},{"arcs":[[-207,388,-387,-357]],"type":"Polygon","properties":{"Shape_Leng":0.0939842228832,"Shape_Area":0.000464935780621,"ADM3_EN":"Chomphon","ADM3_TH":"จอมพล","ADM3_PCODE":"TH103004","ADM2_EN":"Chatuchak","ADM2_TH":"จตุจักร","ADM2_PCODE":"TH1030","ADM1_EN":"Bangkok","ADM1_TH":"กรุงเทพมหานคร","ADM1_PCODE":"TH10","ADM0_EN":"Thailand","ADM0_TH":"ประเทศไทย","ADM0_PCODE":"TH"}},{"arcs":[[-206,-375,-378,-381,-389]],"type":"Polygon","properties":{"Shape_Leng":0.119395978224,"Shape_Area":0.000642799645383,"ADM3_EN":"Chatuchak","ADM3_TH":"จตุจักร","ADM3_PCODE":"TH103005","ADM2_EN":"Chatuchak","ADM2_TH":"จตุจักร","ADM2_PCODE":"TH1030","ADM1_EN":"Bangkok","ADM1_TH":"กรุงเทพมหานคร","ADM1_PCODE":"TH10","ADM0_EN":"Thailand","ADM0_TH":"ประเทศไทย","ADM0_PCODE":"TH"}},{"arcs":[[-233,-238,389,390,-344]],"type":"Polygon","properties":{"Shape_Leng":0.0684929660622,"Shape_Area":0.00018902790814,"ADM3_EN":"Bang Kho Laem","ADM3_TH":"บางคอแหลม","ADM3_PCODE":"TH103101","ADM2_EN":"Bang Kho Laem","ADM2_TH":"บางคอแหลม","ADM2_PCODE":"TH1031","ADM1_EN":"Bangkok","ADM1_TH":"กรุงเทพมหานคร","ADM1_PCODE":"TH10","ADM0_EN":"Thailand","ADM0_TH":"ประเทศไทย","ADM0_PCODE":"TH"}},{"arcs":[[-265,-369,-371,391,-390]],"type":"Polygon","properties":{"Shape_Leng":0.0491461024152,"Shape_Area":0.000130251395777,"ADM3_EN":"Wat Phraya Krai","ADM3_TH":"วัดพระยาไกร","ADM3_PCODE":"TH103102","ADM2_EN":"Bang Kho Laem","ADM2_TH":"บางคอแหลม","ADM2_PCODE":"TH1031","ADM1_EN":"Bangkok","ADM1_TH":"กรุงเทพมหานคร","ADM1_PCODE":"TH10","ADM0_EN":"Thailand","ADM0_TH":"ประเทศไทย","ADM0_PCODE":"TH"}},{"arcs":[[-194,-199,-343,-345,-391,-392,-370]],"type":"Polygon","properties":{"Shape_Leng":0.0875122636701,"Shape_Area":0.000396075409126,"ADM3_EN":"Bang Khlo","ADM3_TH":"บางโคล่","ADM3_PCODE":"TH103103","ADM2_EN":"Bang Kho Laem","ADM2_TH":"บางคอแหลม","ADM2_PCODE":"TH1031","ADM1_EN":"Bangkok","ADM1_TH":"กรุงเทพมหานคร","ADM1_PCODE":"TH10","ADM0_EN":"Thailand","ADM0_TH":"ประเทศไทย","ADM0_PCODE":"TH"}},{"arcs":[[-181,392,393,394,395,396,-184]],"type":"Polygon","properties":{"Shape_Leng":0.208558985602,"Shape_Area":0.00206139269958,"ADM3_EN":"Prawet","ADM3_TH":"ประเวศ","ADM3_PCODE":"TH103201","ADM2_EN":"Prawet","ADM2_TH":"ประเวศ","ADM2_PCODE":"TH1032","ADM1_EN":"Bangkok","ADM1_TH":"กรุงเทพมหานคร","ADM1_PCODE":"TH10","ADM0_EN":"Thailand","ADM0_TH":"ประเทศไทย","ADM0_PCODE":"TH"}},{"arcs":[[-160,397,-395,398,399,400]],"type":"Polygon","properties":{"Shape_Leng":0.138532862146,"Shape_Area":0.00107664208102,"ADM3_EN":"Nong Bon","ADM3_TH":"หนองบอน","ADM3_PCODE":"TH103202","ADM2_EN":"Prawet","ADM2_TH":"ประเวศ","ADM2_PCODE":"TH1032","ADM1_EN":"Bangkok","ADM1_TH":"กรุงเทพมหานคร","ADM1_PCODE":"TH10","ADM0_EN":"Thailand","ADM0_TH":"ประเทศไทย","ADM0_PCODE":"TH"}},{"arcs":[[-394,401,-399]],"type":"Polygon","properties":{"Shape_Leng":0.161638085134,"Shape_Area":0.00136497936745,"ADM3_EN":"Dokmai","ADM3_TH":"ดอกไม้","ADM3_PCODE":"TH103203","ADM2_EN":"Prawet","ADM2_TH":"ประเวศ","ADM2_PCODE":"TH1032","ADM1_EN":"Bangkok","ADM1_TH":"กรุงเทพมหานคร","ADM1_PCODE":"TH10","ADM0_EN":"Thailand","ADM0_TH":"ประเทศไทย","ADM0_PCODE":"TH"}},{"arcs":[[-148,402,403,404,405,-191,-373]],"type":"Polygon","properties":{"Shape_Leng":0.142378814748,"Shape_Area":0.000634984880266,"ADM3_EN":"Khlong Toei","ADM3_TH":"คลองเตย","ADM3_PCODE":"TH103301","ADM2_EN":"Khlong Toei","ADM2_TH":"คลองเตย","ADM2_PCODE":"TH1033","ADM1_EN":"Bangkok","ADM1_TH":"กรุงเทพมหานคร","ADM1_PCODE":"TH10","ADM0_EN":"Thailand","ADM0_TH":"ประเทศไทย","ADM0_PCODE":"TH"}},{"arcs":[[-404,406,407,408]],"type":"Polygon","properties":{"Shape_Leng":0.0566396084754,"Shape_Area":0.000162408255318,"ADM3_EN":"Khlong Tan","ADM3_TH":"คลองตัน","ADM3_PCODE":"TH103302","ADM2_EN":"Khlong Toei","ADM2_TH":"คลองเตย","ADM2_PCODE":"TH1033","ADM1_EN":"Bangkok","ADM1_TH":"กรุงเทพมหานคร","ADM1_PCODE":"TH10","ADM0_EN":"Thailand","ADM0_TH":"ประเทศไทย","ADM0_PCODE":"TH"}},{"arcs":[[-163,409,-405,-409,410,411]],"type":"Polygon","properties":{"Shape_Leng":0.0953437064542,"Shape_Area":0.000327954912133,"ADM3_EN":"Phra Khanong","ADM3_TH":"พระโขนง","ADM3_PCODE":"TH103303","ADM2_EN":"Khlong Toei","ADM2_TH":"คลองเตย","ADM2_PCODE":"TH1033","ADM1_EN":"Bangkok","ADM1_TH":"กรุงเทพมหานคร","ADM1_PCODE":"TH10","ADM0_EN":"Thailand","ADM0_TH":"ประเทศไทย","ADM0_PCODE":"TH"}},{"arcs":[[-134,412,-396,-398,-165,413,414,-249]],"type":"Polygon","properties":{"Shape_Leng":0.221440309296,"Shape_Area":0.00203735784553,"ADM3_EN":"Suan Luang","ADM3_TH":"สวนหลวง","ADM3_PCODE":"TH103401","ADM2_EN":"Suan Luang","ADM2_TH":"สวนหลวง","ADM2_PCODE":"TH1034","ADM1_EN":"Bangkok","ADM1_TH":"กรุงเทพมหานคร","ADM1_PCODE":"TH10","ADM0_EN":"Thailand","ADM0_TH":"ประเทศไทย","ADM0_PCODE":"TH"}},{"arcs":[[-309,415,-312,416,417]],"type":"Polygon","properties":{"Shape_Leng":0.0968308228629,"Shape_Area":0.000524612728082,"ADM3_EN":"Bang Khun Thian","ADM3_TH":"บางขุนเทียน","ADM3_PCODE":"TH103501","ADM2_EN":"Chom Thong","ADM2_TH":"จอมทอง","ADM2_PCODE":"TH1035","ADM1_EN":"Bangkok","ADM1_TH":"กรุงเทพมหานคร","ADM1_PCODE":"TH10","ADM0_EN":"Thailand","ADM0_TH":"ประเทศไทย","ADM0_PCODE":"TH"}},{"arcs":[[-229,-235,-349,418,-417,-311,-329]],"type":"Polygon","properties":{"Shape_Leng":0.0880086514986,"Shape_Area":0.000274070041166,"ADM3_EN":"Bang Kho","ADM3_TH":"บางค้อ","ADM3_PCODE":"TH103502","ADM2_EN":"Chom Thong","ADM2_TH":"จอมทอง","ADM2_PCODE":"TH1035","ADM1_EN":"Bangkok","ADM1_TH":"กรุงเทพมหานคร","ADM1_PCODE":"TH10","ADM0_EN":"Thailand","ADM0_TH":"ประเทศไทย","ADM0_PCODE":"TH"}},{"arcs":[[-306,419,-347,420]],"type":"Polygon","properties":{"Shape_Leng":0.138776620517,"Shape_Area":0.000690014368093,"ADM3_EN":"Bang Mot","ADM3_TH":"บางมด","ADM3_PCODE":"TH103503","ADM2_EN":"Chom Thong","ADM2_TH":"จอมทอง","ADM2_PCODE":"TH1035","ADM1_EN":"Bangkok","ADM1_TH":"กรุงเทพมหานคร","ADM1_PCODE":"TH10","ADM0_EN":"Thailand","ADM0_TH":"ประเทศไทย","ADM0_PCODE":"TH"}},{"arcs":[[-305,-310,-418,-419,-348,-420]],"type":"Polygon","properties":{"Shape_Leng":0.128712719818,"Shape_Area":0.000452583510676,"ADM3_EN":"Chom Thong","ADM3_TH":"จอมทอง","ADM3_PCODE":"TH103504","ADM2_EN":"Chom Thong","ADM2_TH":"จอมทอง","ADM2_PCODE":"TH1035","ADM1_EN":"Bangkok","ADM1_TH":"กรุงเทพมหานคร","ADM1_PCODE":"TH10","ADM0_EN":"Thailand","ADM0_TH":"ประเทศไทย","ADM0_PCODE":"TH"}},{"arcs":[[421,422,423]],"type":"Polygon","properties":{"Shape_Leng":0.144841540911,"Shape_Area":0.000973289494475,"ADM3_EN":"Si Kan","ADM3_TH":"สีกัน","ADM3_PCODE":"TH103602","ADM2_EN":"Don Mueang","ADM2_TH":"ดอนเมือง","ADM2_PCODE":"TH1036","ADM1_EN":"Bangkok","ADM1_TH":"กรุงเทพมหานคร","ADM1_PCODE":"TH10","ADM0_EN":"Thailand","ADM0_TH":"ประเทศไทย","ADM0_PCODE":"TH"}},{"arcs":[[-423,424,425,426,427]],"type":"Polygon","properties":{"Shape_Leng":0.142293102521,"Shape_Area":0.000894017829097,"ADM3_EN":"Don Mueang","ADM3_TH":"ดอนเมือง","ADM3_PCODE":"TH103604","ADM2_EN":"Don Mueang","ADM2_TH":"ดอนเมือง","ADM2_PCODE":"TH1036","ADM1_EN":"Bangkok","ADM1_TH":"กรุงเทพมหานคร","ADM1_PCODE":"TH10","ADM0_EN":"Thailand","ADM0_TH":"ประเทศไทย","ADM0_PCODE":"TH"}},{"arcs":[[-116,428,-425,-422,429,430,431]],"type":"Polygon","properties":{"Shape_Leng":0.174935667119,"Shape_Area":0.00122409574098,"ADM3_EN":"Sanam Bin","ADM3_TH":"สนามบิน","ADM3_PCODE":"TH103605","ADM2_EN":"Don Mueang","ADM2_TH":"ดอนเมือง","ADM2_PCODE":"TH1036","ADM1_EN":"Bangkok","ADM1_TH":"กรุงเทพมหานคร","ADM1_PCODE":"TH10","ADM0_EN":"Thailand","ADM0_TH":"ประเทศไทย","ADM0_PCODE":"TH"}},{"arcs":[[-51,-62,-210,432,433]],"type":"Polygon","properties":{"Shape_Leng":0.058860506427,"Shape_Area":0.000208399908379,"ADM3_EN":"Thung Phaya Thai","ADM3_TH":"ทุ่งพญาไท","ADM3_PCODE":"TH103701","ADM2_EN":"Ratchathewi","ADM2_TH":"ราชเทวี","ADM2_PCODE":"TH1037","ADM1_EN":"Bangkok","ADM1_TH":"กรุงเทพมหานคร","ADM1_PCODE":"TH10","ADM0_EN":"Thailand","ADM0_TH":"ประเทศไทย","ADM0_PCODE":"TH"}},{"arcs":[[-209,434,435,-433]],"type":"Polygon","properties":{"Shape_Leng":0.0438905179432,"Shape_Area":0.000102602893498,"ADM3_EN":"Thanon Phaya Thai","ADM3_TH":"ถนนพญาไท","ADM3_PCODE":"TH103702","ADM2_EN":"Ratchathewi","ADM2_TH":"ราชเทวี","ADM2_PCODE":"TH1037","ADM1_EN":"Bangkok","ADM1_TH":"กรุงเทพมหานคร","ADM1_PCODE":"TH10","ADM0_EN":"Thailand","ADM0_TH":"ประเทศไทย","ADM0_PCODE":"TH"}},{"arcs":[[-54,-434,-436,436,-144,-142,-137]],"type":"Polygon","properties":{"Shape_Leng":0.0495912201689,"Shape_Area":0.000081260261776,"ADM3_EN":"Thanon Phet Buri","ADM3_TH":"ถนนเพชรบุรี","ADM3_PCODE":"TH103703","ADM2_EN":"Ratchathewi","ADM2_TH":"ราชเทวี","ADM2_PCODE":"TH1037","ADM1_EN":"Bangkok","ADM1_TH":"กรุงเทพมหานคร","ADM1_PCODE":"TH10","ADM0_EN":"Thailand","ADM0_TH":"ประเทศไทย","ADM0_PCODE":"TH"}},{"arcs":[[-146,-437,-435,-358,-252,437]],"type":"Polygon","properties":{"Shape_Leng":0.0687635088403,"Shape_Area":0.000207704345229,"ADM3_EN":"Makkasan","ADM3_TH":"มักกะสัน","ADM3_PCODE":"TH103704","ADM2_EN":"Ratchathewi","ADM2_TH":"ราชเทวี","ADM2_PCODE":"TH1037","ADM1_EN":"Bangkok","ADM1_TH":"กรุงเทพมหานคร","ADM1_PCODE":"TH10","ADM0_EN":"Thailand","ADM0_TH":"ประเทศไทย","ADM0_PCODE":"TH"}},{"arcs":[[-124,-366,-363,-130,438,439,-258,-388,-385,440]],"type":"Polygon","properties":{"Shape_Leng":0.18920124976,"Shape_Area":0.00124859943101,"ADM3_EN":"Lat Phrao","ADM3_TH":"ลาดพร้าว","ADM3_PCODE":"TH103801","ADM2_EN":"Lat Phrao","ADM2_TH":"ลาดพร้าว","ADM2_PCODE":"TH1038","ADM1_EN":"Bangkok","ADM1_TH":"กรุงเทพมหานคร","ADM1_PCODE":"TH10","ADM0_EN":"Thailand","ADM0_TH":"ประเทศไทย","ADM0_PCODE":"TH"}},{"arcs":[[-112,-125,-441,-384]],"type":"Polygon","properties":{"Shape_Leng":0.113170676041,"Shape_Area":0.000529190695697,"ADM3_EN":"Chorakhe Bua","ADM3_TH":"จรเข้บัว","ADM3_PCODE":"TH103802","ADM2_EN":"Lat Phrao","ADM2_TH":"ลาดพร้าว","ADM2_PCODE":"TH1038","ADM1_EN":"Bangkok","ADM1_TH":"กรุงเทพมหานคร","ADM1_PCODE":"TH10","ADM0_EN":"Thailand","ADM0_TH":"ประเทศไทย","ADM0_PCODE":"TH"}},{"arcs":[[-147,-438,-251,441,-407,-403]],"type":"Polygon","properties":{"Shape_Leng":0.0608429310919,"Shape_Area":0.000181938882918,"ADM3_EN":"Khlong Toei Nuea","ADM3_TH":"คลองเตยเหนือ","ADM3_PCODE":"TH103901","ADM2_EN":"Vadhana","ADM2_TH":"วัฒนา","ADM2_PCODE":"TH1039","ADM1_EN":"Bangkok","ADM1_TH":"กรุงเทพมหานคร","ADM1_PCODE":"TH10","ADM0_EN":"Thailand","ADM0_TH":"ประเทศไทย","ADM0_PCODE":"TH"}},{"arcs":[[-250,-415,442,-411,-408,-442]],"type":"Polygon","properties":{"Shape_Leng":0.124554642044,"Shape_Area":0.000606169563548,"ADM3_EN":"Khlong Tan Nuea","ADM3_TH":"คลองตันเหนือ","ADM3_PCODE":"TH103902","ADM2_EN":"Vadhana","ADM2_TH":"วัฒนา","ADM2_PCODE":"TH1039","ADM1_EN":"Bangkok","ADM1_TH":"กรุงเทพมหานคร","ADM1_PCODE":"TH10","ADM0_EN":"Thailand","ADM0_TH":"ประเทศไทย","ADM0_PCODE":"TH"}},{"arcs":[[-164,-412,-443,-414]],"type":"Polygon","properties":{"Shape_Leng":0.0856720797508,"Shape_Area":0.000295373977998,"ADM3_EN":"Phra Khanong Nuea","ADM3_TH":"พระโขนงเหนือ","ADM3_PCODE":"TH103903","ADM2_EN":"Vadhana","ADM2_TH":"วัฒนา","ADM2_PCODE":"TH1039","ADM1_EN":"Bangkok","ADM1_TH":"กรุงเทพมหานคร","ADM1_PCODE":"TH10","ADM0_EN":"Thailand","ADM0_TH":"ประเทศไทย","ADM0_PCODE":"TH"}},{"arcs":[[-314,443,444,445]],"type":"Polygon","properties":{"Shape_Leng":0.102771113926,"Shape_Area":0.000583410728222,"ADM3_EN":"Bang Khae","ADM3_TH":"บางแค","ADM3_PCODE":"TH104001","ADM2_EN":"Bang Khae","ADM2_TH":"บางแค","ADM2_PCODE":"TH1040","ADM1_EN":"Bangkok","ADM1_TH":"กรุงเทพมหานคร","ADM1_PCODE":"TH10","ADM0_EN":"Thailand","ADM0_TH":"ประเทศไทย","ADM0_PCODE":"TH"}},{"arcs":[[-315,-446,446,-338,447,-327,-319]],"type":"Polygon","properties":{"Shape_Leng":0.152794257705,"Shape_Area":0.00108527761393,"ADM3_EN":"Bang Khae Nuea","ADM3_TH":"บางแคเหนือ","ADM3_PCODE":"TH104002","ADM2_EN":"Bang Khae","ADM2_TH":"บางแค","ADM2_PCODE":"TH1040","ADM1_EN":"Bangkok","ADM1_TH":"กรุงเทพมหานคร","ADM1_PCODE":"TH10","ADM0_EN":"Thailand","ADM0_TH":"ประเทศไทย","ADM0_PCODE":"TH"}},{"arcs":[[-290,-328,-448,-337,448]],"type":"Polygon","properties":{"Shape_Leng":0.162216512983,"Shape_Area":0.00132078973399,"ADM3_EN":"Bang Phai","ADM3_TH":"บางไผ่","ADM3_PCODE":"TH104003","ADM2_EN":"Bang Khae","ADM2_TH":"บางแค","ADM2_PCODE":"TH1040","ADM1_EN":"Bangkok","ADM1_TH":"กรุงเทพมหานคร","ADM1_PCODE":"TH10","ADM0_EN":"Thailand","ADM0_TH":"ประเทศไทย","ADM0_PCODE":"TH"}},{"arcs":[[-334,-339,-447,-445,449]],"type":"Polygon","properties":{"Shape_Leng":0.13293337398,"Shape_Area":0.00100865056582,"ADM3_EN":"Lak Song","ADM3_TH":"หลักสอง","ADM3_PCODE":"TH104004","ADM2_EN":"Bang Khae","ADM2_TH":"บางแค","ADM2_PCODE":"TH1040","ADM1_EN":"Bangkok","ADM1_TH":"กรุงเทพมหานคร","ADM1_PCODE":"TH10","ADM0_EN":"Thailand","ADM0_TH":"ประเทศไทย","ADM0_PCODE":"TH"}},{"arcs":[[-382,450,-427,451]],"type":"Polygon","properties":{"Shape_Leng":0.170551152171,"Shape_Area":0.00140873420058,"ADM3_EN":"Thung Song Hong","ADM3_TH":"ทุ่งสองห้อง","ADM3_PCODE":"TH104101","ADM2_EN":"Lak Si","ADM2_TH":"หลักสี่","ADM2_PCODE":"TH1041","ADM1_EN":"Bangkok","ADM1_TH":"กรุงเทพมหานคร","ADM1_PCODE":"TH10","ADM0_EN":"Thailand","ADM0_TH":"ประเทศไทย","ADM0_PCODE":"TH"}},{"arcs":[[-115,-383,-452,-426,-429]],"type":"Polygon","properties":{"Shape_Leng":0.108172808623,"Shape_Area":0.000493375199795,"ADM3_EN":"Talat Bang Khen","ADM3_TH":"ตลาดบางเขน","ADM3_PCODE":"TH104102","ADM2_EN":"Lak Si","ADM2_TH":"หลักสี่","ADM2_PCODE":"TH1041","ADM1_EN":"Bangkok","ADM1_TH":"กรุงเทพมหานคร","ADM1_PCODE":"TH10","ADM0_EN":"Thailand","ADM0_TH":"ประเทศไทย","ADM0_PCODE":"TH"}},{"arcs":[[-431,452,453,454]],"type":"Polygon","properties":{"Shape_Leng":0.223643087036,"Shape_Area":0.00135694426894,"ADM3_EN":"Sai Mai","ADM3_TH":"สายไหม","ADM3_PCODE":"TH104201","ADM2_EN":"Sai Mai","ADM2_TH":"สายไหม","ADM2_PCODE":"TH1042","ADM1_EN":"Bangkok","ADM1_TH":"กรุงเทพมหานคร","ADM1_PCODE":"TH10","ADM0_EN":"Thailand","ADM0_TH":"ประเทศไทย","ADM0_PCODE":"TH"}},{"arcs":[[-119,455,-454,456]],"type":"Polygon","properties":{"Shape_Leng":0.161480189658,"Shape_Area":0.00126583635606,"ADM3_EN":"O Ngoen","ADM3_TH":"ออเงิน","ADM3_PCODE":"TH104202","ADM2_EN":"Sai Mai","ADM2_TH":"สายไหม","ADM2_PCODE":"TH1042","ADM1_EN":"Bangkok","ADM1_TH":"กรุงเทพมหานคร","ADM1_PCODE":"TH10","ADM0_EN":"Thailand","ADM0_TH":"ประเทศไทย","ADM0_PCODE":"TH"}},{"arcs":[[-117,-432,-455,-456,-118]],"type":"Polygon","properties":{"Shape_Leng":0.145952300661,"Shape_Area":0.00101339617593,"ADM3_EN":"Khlong Thanon","ADM3_TH":"คลองถนน","ADM3_PCODE":"TH104203","ADM2_EN":"Sai Mai","ADM2_TH":"สายไหม","ADM2_PCODE":"TH1042","ADM1_EN":"Bangkok","ADM1_TH":"กรุงเทพมหานคร","ADM1_PCODE":"TH10","ADM0_EN":"Thailand","ADM0_TH":"ประเทศไทย","ADM0_PCODE":"TH"}},{"arcs":[[-171,457,458,459]],"type":"Polygon","properties":{"Shape_Leng":0.160027192182,"Shape_Area":0.00106885379635,"ADM3_EN":"Khan Na Yao","ADM3_TH":"คันนายาว","ADM3_PCODE":"TH104301","ADM2_EN":"Khan Na Yao","ADM2_TH":"คันนายาว","ADM2_PCODE":"TH1043","ADM1_EN":"Bangkok","ADM1_TH":"กรุงเทพมหานคร","ADM1_PCODE":"TH10","ADM0_EN":"Thailand","ADM0_TH":"ประเทศไทย","ADM0_PCODE":"TH"}},{"arcs":[[-122,460,-459,461,-361,-365]],"type":"Polygon","properties":{"Shape_Leng":0.222379627926,"Shape_Area":0.00106574309478,"ADM3_EN":"Ram Inthra","ADM3_TH":"รามอินทรา","ADM3_PCODE":"TH104302","ADM2_EN":"Khan Na Yao","ADM2_TH":"คันนายาว","ADM2_PCODE":"TH1043","ADM1_EN":"Bangkok","ADM1_TH":"กรุงเทพมหานคร","ADM1_PCODE":"TH10","ADM0_EN":"Thailand","ADM0_TH":"ประเทศไทย","ADM0_PCODE":"TH"}},{"arcs":[[-133,-362,-462,-458,-170,-185,-397,-413]],"type":"Polygon","properties":{"Shape_Leng":0.231038328144,"Shape_Area":0.00233829594149,"ADM3_EN":"Saphan Sung","ADM3_TH":"สะพานสูง","ADM3_PCODE":"TH104401","ADM2_EN":"Saphan Sung","ADM2_TH":"สะพานสูง","ADM2_PCODE":"TH1044","ADM1_EN":"Bangkok","ADM1_TH":"กรุงเทพมหานคร","ADM1_PCODE":"TH10","ADM0_EN":"Thailand","ADM0_TH":"ประเทศไทย","ADM0_PCODE":"TH"}},{"arcs":[[-254,-260,462,463]],"type":"Polygon","properties":{"Shape_Leng":0.093323057985,"Shape_Area":0.00040982008486,"ADM3_EN":"Wang Thonglang","ADM3_TH":"วังทองหลาง","ADM3_PCODE":"TH104501","ADM2_EN":"Wang Thonglang","ADM2_TH":"วังทองหลาง","ADM2_PCODE":"TH1045","ADM1_EN":"Bangkok","ADM1_TH":"กรุงเทพมหานคร","ADM1_PCODE":"TH10","ADM0_EN":"Thailand","ADM0_TH":"ประเทศไทย","ADM0_PCODE":"TH"}},{"arcs":[[-259,-440,464,-463]],"type":"Polygon","properties":{"Shape_Leng":0.0666796296901,"Shape_Area":0.00014359006703,"ADM3_EN":"Saphan Song","ADM3_TH":"สะพานสอง","ADM3_PCODE":"TH104502","ADM2_EN":"Wang Thonglang","ADM2_TH":"วังทองหลาง","ADM2_PCODE":"TH1045","ADM1_EN":"Bangkok","ADM1_TH":"กรุงเทพมหานคร","ADM1_PCODE":"TH10","ADM0_EN":"Thailand","ADM0_TH":"ประเทศไทย","ADM0_PCODE":"TH"}},{"arcs":[[-129,465,-465,-439]],"type":"Polygon","properties":{"Shape_Leng":0.0759578332845,"Shape_Area":0.000302096929092,"ADM3_EN":"Khlong Chaokhun Sing","ADM3_TH":"คลองเจ้าคุณสิงห์","ADM3_PCODE":"TH104503","ADM2_EN":"Wang Thonglang","ADM2_TH":"วังทองหลาง","ADM2_PCODE":"TH1045","ADM1_EN":"Bangkok","ADM1_TH":"กรุงเทพมหานคร","ADM1_PCODE":"TH10","ADM0_EN":"Thailand","ADM0_TH":"ประเทศไทย","ADM0_PCODE":"TH"}},{"arcs":[[-128,-136,-255,-464,-466]],"type":"Polygon","properties":{"Shape_Leng":0.107258521504,"Shape_Area":0.00057243499851,"ADM3_EN":"Phlapphla","ADM3_TH":"พลับพลา","ADM3_PCODE":"TH104504","ADM2_EN":"Wang Thonglang","ADM2_TH":"วังทองหลาง","ADM2_PCODE":"TH1045","ADM1_EN":"Bangkok","ADM1_TH":"กรุงเทพมหานคร","ADM1_PCODE":"TH10","ADM0_EN":"Thailand","ADM0_TH":"ประเทศไทย","ADM0_PCODE":"TH"}},{"arcs":[[-120,-457,466,467,468]],"type":"Polygon","properties":{"Shape_Leng":0.212166394757,"Shape_Area":0.00224521880404,"ADM3_EN":"Sam Wa Tawan Tok","ADM3_TH":"สามวาตะวันตก","ADM3_PCODE":"TH104601","ADM2_EN":"Khlong Sam Wa","ADM2_TH":"คลองสามวา","ADM2_PCODE":"TH1046","ADM1_EN":"Bangkok","ADM1_TH":"กรุงเทพมหานคร","ADM1_PCODE":"TH10","ADM0_EN":"Thailand","ADM0_TH":"ประเทศไทย","ADM0_PCODE":"TH"}},{"arcs":[[-74,-83,469,470,-468,471]],"type":"Polygon","properties":{"Shape_Leng":0.239044212722,"Shape_Area":0.00329262173296,"ADM3_EN":"Sam Wa Tawan Ok","ADM3_TH":"สามวาตะวันออก","ADM3_PCODE":"TH104602","ADM2_EN":"Khlong Sam Wa","ADM2_TH":"คลองสามวา","ADM2_PCODE":"TH1046","ADM1_EN":"Bangkok","ADM1_TH":"กรุงเทพมหานคร","ADM1_PCODE":"TH10","ADM0_EN":"Thailand","ADM0_TH":"ประเทศไทย","ADM0_PCODE":"TH"}},{"arcs":[[-121,-469,472,-172,-460,-461]],"type":"Polygon","properties":{"Shape_Leng":0.211850682575,"Shape_Area":0.00168307587123,"ADM3_EN":"Bang Chan","ADM3_TH":"บางชัน","ADM3_PCODE":"TH104603","ADM2_EN":"Khlong Sam Wa","ADM2_TH":"คลองสามวา","ADM2_PCODE":"TH1046","ADM1_EN":"Bangkok","ADM1_TH":"กรุงเทพมหานคร","ADM1_PCODE":"TH10","ADM0_EN":"Thailand","ADM0_TH":"ประเทศไทย","ADM0_PCODE":"TH"}},{"arcs":[[-173,-473,-471,473]],"type":"Polygon","properties":{"Shape_Leng":0.138427831995,"Shape_Area":0.000873313366695,"ADM3_EN":"Sai Kong Din","ADM3_TH":"ทรายกองดิน","ADM3_PCODE":"TH104604","ADM2_EN":"Khlong Sam Wa","ADM2_TH":"คลองสามวา","ADM2_PCODE":"TH1046","ADM1_EN":"Bangkok","ADM1_TH":"กรุงเทพมหานคร","ADM1_PCODE":"TH10","ADM0_EN":"Thailand","ADM0_TH":"ประเทศไทย","ADM0_PCODE":"TH"}},{"arcs":[[-80,-176,-166,-474,-470,-82]],"type":"Polygon","properties":{"Shape_Leng":0.186854924389,"Shape_Area":0.00146679205076,"ADM3_EN":"Sai Kong Din Tai","ADM3_TH":"ทรายกองดินใต้","ADM3_PCODE":"TH104605","ADM2_EN":"Khlong Sam Wa","ADM2_TH":"คลองสามวา","ADM2_PCODE":"TH1046","ADM1_EN":"Bangkok","ADM1_TH":"กรุงเทพมหานคร","ADM1_PCODE":"TH10","ADM0_EN":"Thailand","ADM0_TH":"ประเทศไทย","ADM0_PCODE":"TH"}},{"arcs":[[-161,-401,474]],"type":"Polygon","properties":{"Shape_Leng":0.200075635854,"Shape_Area":0.00159167877647,"ADM3_EN":"Bang Na","ADM3_TH":"บางนา","ADM3_PCODE":"TH104701","ADM2_EN":"Bang Na","ADM2_TH":"บางนา","ADM2_PCODE":"TH1047","ADM1_EN":"Bangkok","ADM1_TH":"กรุงเทพมหานคร","ADM1_PCODE":"TH10","ADM0_EN":"Thailand","ADM0_TH":"ประเทศไทย","ADM0_PCODE":"TH"}},{"arcs":[[-285,-291,-449,-336,475,476]],"type":"Polygon","properties":{"Shape_Leng":0.240679745855,"Shape_Area":0.00158202502864,"ADM3_EN":"Thawi Watthana","ADM3_TH":"ทวีวัฒนา","ADM3_PCODE":"TH104801","ADM2_EN":"Thawi Watthana","ADM2_TH":"ทวีวัฒนา","ADM2_PCODE":"TH1048","ADM1_EN":"Bangkok","ADM1_TH":"กรุงเทพมหานคร","ADM1_PCODE":"TH10","ADM0_EN":"Thailand","ADM0_TH":"ประเทศไทย","ADM0_PCODE":"TH"}},{"arcs":[[-280,-287,-477,477]],"type":"Polygon","properties":{"Shape_Leng":0.252686317543,"Shape_Area":0.00260871856102,"ADM3_EN":"Sala Thammasop","ADM3_TH":"ศาลาธรรมสพน์","ADM3_PCODE":"TH104802","ADM2_EN":"Thawi Watthana","ADM2_TH":"ทวีวัฒนา","ADM2_PCODE":"TH1048","ADM1_EN":"Bangkok","ADM1_TH":"กรุงเทพมหานคร","ADM1_PCODE":"TH10","ADM0_EN":"Thailand","ADM0_TH":"ประเทศไทย","ADM0_PCODE":"TH"}},{"arcs":[[-301,-421,-346,-341,478,479]],"type":"Polygon","properties":{"Shape_Leng":0.157511433728,"Shape_Area":0.000875540310724,"ADM3_EN":"Bang Mot","ADM3_TH":"บางมด","ADM3_PCODE":"TH104901","ADM2_EN":"Thung Khru","ADM2_TH":"ทุ่งครุ","ADM2_PCODE":"TH1049","ADM1_EN":"Bangkok","ADM1_TH":"กรุงเทพมหานคร","ADM1_PCODE":"TH10","ADM0_EN":"Thailand","ADM0_TH":"ประเทศไทย","ADM0_PCODE":"TH"}},{"arcs":[[-302,-480,480]],"type":"Polygon","properties":{"Shape_Leng":0.20753363226,"Shape_Area":0.00179801290828,"ADM3_EN":"Thung Khru","ADM3_TH":"ทุ่งครุ","ADM3_PCODE":"TH104902","ADM2_EN":"Thung Khru","ADM2_TH":"ทุ่งครุ","ADM2_PCODE":"TH1049","ADM1_EN":"Bangkok","ADM1_TH":"กรุงเทพมหานคร","ADM1_PCODE":"TH10","ADM0_EN":"Thailand","ADM0_TH":"ประเทศไทย","ADM0_PCODE":"TH"}},{"arcs":[[-308,481,-331,-450,-444,-313,-416]],"type":"Polygon","properties":{"Shape_Leng":0.280742127208,"Shape_Area":0.00284522238684,"ADM3_EN":"Bang Bon","ADM3_TH":"บางบอน","ADM3_PCODE":"TH105001","ADM2_EN":"Bang Bon","ADM2_TH":"บางบอน","ADM2_PCODE":"TH1050","ADM1_EN":"Bangkok","ADM1_TH":"กรุงเทพมหานคร","ADM1_PCODE":"TH10","ADM0_EN":"Thailand","ADM0_TH":"ประเทศไทย","ADM0_PCODE":"TH"}}]}}}