{"type":"Topology","arcs":[[[3064,7862],[9,31],[-19,7],[11,35],[30,0],[4,16],[-24,23]],[[3075,7974],[95,-16],[55,20]],[[3225,7978],[19,10],[24,-21],[-76,-79],[-46,-56],[-82,30]],[[3075,7974],[11,6],[39,0],[-45,11]],[[3080,7991],[94,-12],[2,20],[23,-2],[-1,16],[30,-7]],[[3228,8006],[-3,-28]],[[3080,7991],[26,7],[-19,9],[8,13],[41,10],[-8,12]],[[3128,8042],[53,0]],[[3181,8042],[47,-12],[0,-24]],[[2531,7470],[2,-22]],[[2533,7448],[9,-47],[41,-46],[15,-5],[-2,-25],[40,-10],[38,-27],[31,-9],[5,-11]],[[2710,7268],[14,-54],[10,-3]],[[2734,7211],[7,-58],[48,-17],[60,-11],[11,2],[61,-11]],[[2921,7116],[-121,-4],[-62,14],[-8,-49],[-11,-45],[-30,-52],[-14,-1],[0,-128],[10,-90]],[[2685,6761],[-32,-6]],[[2653,6755],[-16,61],[0,37],[-19,52],[2,31],[-42,106],[-18,38],[-34,55],[-50,68],[-92,102],[-32,21],[-15,21],[11,11],[22,-3],[15,17],[-4,40],[7,30],[-7,23],[5,22],[20,-15],[13,-21],[31,-7],[42,3],[39,23]],[[3181,8042],[90,107]],[[3271,8149],[63,-107],[24,-23],[24,-8],[53,19],[2,-87]],[[3437,7943],[-1,-166],[17,-4],[-15,-33],[16,-8],[-13,-22],[-15,-6],[-6,-17],[8,-20]],[[3428,7667],[-66,30],[-28,-14],[-52,23],[-16,1],[-13,19],[-25,17],[-46,-40],[-14,-34],[14,-3],[6,-16],[-5,-23]],[[3183,7627],[-39,-14],[-47,7],[5,12],[-31,36],[-5,22],[-15,9]],[[3051,7699],[-31,38],[-24,-17],[-11,5],[-29,43],[0,18]],[[2956,7786],[58,25],[27,23],[23,28]],[[3437,7943],[37,-26],[53,-13],[-4,-18],[11,-14],[7,-29],[61,5],[16,10],[-2,29],[23,16],[23,-2],[21,12],[25,-10]],[[3708,7903],[-27,-43],[-26,5],[12,-19],[34,-28],[44,-22],[4,-24],[17,20],[25,-8],[47,-30],[-2,-27],[-48,4],[-12,-16],[44,-6],[3,-34],[25,1],[0,-31],[21,0],[-9,-30],[34,-3],[25,-35],[1,-44],[5,-16],[18,-6],[19,-84],[15,-25],[-14,-54],[3,-17],[-8,-35],[20,-26],[-17,-30],[-31,-21],[-39,-34]],[[3891,7185],[-38,-30],[-28,-8],[-13,-38],[-4,-41],[-29,-27]],[[3779,7041],[-52,-18],[-28,21],[-18,5],[-24,-9],[-34,33],[-41,27],[-45,22],[-27,34]],[[3510,7156],[10,12],[38,7],[-34,34],[0,13],[30,29],[6,56],[20,26],[1,37],[-8,27],[8,28],[-15,57],[1,22],[-11,15],[-30,21],[1,8],[-30,41],[-45,16],[-27,33],[3,29]],[[3271,8149],[11,21],[-12,41]],[[3270,8211],[43,0],[22,20],[33,1],[64,-19],[49,12],[12,28],[4,31],[16,27],[-14,51],[15,21],[53,25]],[[3567,8408],[15,-23],[32,20],[38,-21],[1,-19],[13,-13],[7,-29],[0,-30],[-8,-16],[11,-36],[13,-5],[5,-16],[21,30],[91,21],[-3,14],[23,15]],[[3826,8300],[14,-48],[-9,-5],[11,-32],[-17,-3],[13,-24]],[[3838,8188],[-67,-1],[8,-50],[-68,-32],[-14,-3],[7,-25],[0,-46],[5,-14],[31,-27],[31,-8],[14,-29],[-3,-38],[-22,-15],[4,-42]],[[3764,7858],[-56,45]],[[3510,7156],[-15,-7],[-18,-20],[-55,-42],[-19,-6],[-23,-21],[-34,-17],[-51,-2],[-44,-17],[-30,6],[-23,21]],[[3198,7051],[-3,45],[-28,23],[7,19],[2,32],[-14,45],[9,28]],[[3171,7243],[17,22],[10,28],[12,12],[-17,53],[-20,18],[18,33],[-9,49],[11,35],[-8,10],[-15,49],[24,41],[-11,34]],[[3567,8408],[-32,7],[-29,59]],[[3506,8474],[21,13],[-17,41],[12,3],[-32,49],[-31,-16],[-3,34],[-15,23],[0,25]],[[3441,8646],[11,12],[54,-66],[22,16],[17,-11],[112,14],[62,24],[72,1],[28,14],[35,9],[66,8],[93,-5]],[[4013,8662],[-38,-46]],[[3975,8616],[-35,-53],[-14,-3],[-6,23],[-11,7],[-22,-9],[-16,-22],[-11,-30],[-25,-25],[-7,-15],[11,-31],[-12,-51],[-10,-13],[11,-40],[-6,-5],[17,-22],[-13,-27]],[[3270,8211],[-18,6],[-30,-9],[-26,6],[1,20],[-15,9],[-51,-3]],[[3131,8240],[-11,11],[-47,103],[-3,25]],[[3070,8379],[29,13],[41,28],[31,34],[18,2],[61,-30],[27,-23],[21,22],[22,7],[35,-27],[42,14],[22,2],[87,53]],[[3128,8042],[22,5],[12,30],[-6,19],[-19,19],[15,3],[-11,34],[9,3],[-4,54],[-15,31]],[[3070,8379],[-11,3],[-17,33],[-32,79],[-20,59],[-3,53],[3,56],[8,49],[15,49],[-65,51],[103,116],[43,-35],[20,-33],[13,0],[35,-28],[16,9],[26,-5],[44,20],[14,1],[64,-21],[17,-29],[29,1]],[[3372,8807],[5,-17],[21,-5],[-2,-20],[13,5],[-1,-17],[15,2],[-2,-25],[16,5],[13,-37],[-9,-52]],[[2921,7116],[24,26],[1,42],[63,22],[30,25],[73,10],[6,12],[39,3],[14,-13]],[[3198,7051],[-26,3],[-26,-6],[-16,-14],[-2,-22],[-15,-18],[-19,-43],[-3,-25],[-40,-17],[-12,-38],[-35,-30],[-10,-21],[19,-70],[19,-10],[-11,-32],[-3,-42],[-18,11],[-5,26],[-36,4],[-32,76],[-19,5],[-31,24],[-25,11],[-23,-11],[-19,-19],[-39,-8],[-34,-16],[-52,-8]],[[2533,7448],[11,8],[38,-11],[3,-29],[21,4],[54,38],[73,17]],[[2733,7475],[-19,-25],[0,-40],[16,-48],[-12,-23],[12,-35],[-21,-13],[1,-23]],[[2734,7211],[33,49],[257,396],[27,43]],[[2733,7475],[-7,34],[10,29],[-14,6],[28,16],[-78,77],[-37,33],[18,19]],[[2653,7689],[38,-9],[31,18],[18,20],[68,41],[34,8],[18,-3],[81,14],[15,8]],[[2531,7470],[-3,5],[20,39],[7,53],[-15,25],[1,21],[11,22],[21,-2],[13,21],[-2,28],[19,24],[40,-7],[10,-10]],[[3838,8188],[28,-26],[25,-6]],[[3891,8156],[-7,-30],[-59,-53],[-8,-20],[5,-19],[67,-26],[23,-39],[3,-34]],[[3915,7935],[-11,-37],[9,-14],[17,1],[2,-15],[18,-40],[-15,3],[-22,-10],[-6,34],[-18,-7],[-17,9],[-23,-7],[-38,4],[-23,-14],[-24,16]],[[3891,7185],[126,-12],[12,3],[26,26],[14,24],[11,37],[35,45],[11,64],[48,44],[20,26],[-32,-12],[-14,21],[5,27],[-24,31],[8,6],[11,44],[-61,44]],[[4087,7603],[9,18],[26,25],[16,-7],[19,13],[31,-7],[28,19],[34,-7],[24,-12],[47,-10],[33,20],[7,12],[42,-3],[-15,43],[1,35]],[[4389,7742],[13,-12],[90,-33],[2,56],[20,-1],[2,-33],[34,-8],[29,-18],[30,-36],[56,-8]],[[4665,7649],[9,-33],[-4,-61],[25,-38],[-5,-37],[7,-24],[-47,-20],[-17,-31],[-21,5],[-17,-20],[9,-23],[23,-39],[-3,-68],[-9,-2],[-51,-57]],[[4564,7201],[-25,-27],[0,-50],[-42,-62],[-43,5],[0,14],[-29,17],[-39,-26],[-29,6],[-31,-27],[-75,-23],[-12,-8],[-63,-62],[-19,-30],[-36,-10],[-23,-14],[-32,-8],[-16,6],[-13,24],[-20,0],[-16,-16],[-36,2],[-40,16],[-59,15],[-39,3]],[[3827,6946],[-10,37],[7,33],[-16,17],[-29,8]],[[4564,7201],[25,-34],[14,-52],[14,-2],[63,-26],[50,7],[25,-34],[31,-12],[17,-17],[-15,-26],[8,-16],[38,-20],[9,-19]],[[4843,6950],[-23,-24],[-20,-30],[11,-5],[123,-31],[34,-24],[67,-2]],[[5035,6834],[6,-26],[0,-103],[28,-3],[51,2],[18,-4],[23,-22],[25,-9],[-24,-31],[-20,-58],[-22,-3],[-34,-13],[-9,-12],[53,-4],[91,-30],[21,-25],[24,-14],[43,-41],[-3,-36],[19,-27],[39,-40],[39,-29],[47,-43],[11,22],[24,-37],[35,-87],[22,-43],[7,-34],[0,-26],[55,21],[23,4]],[[5627,6083],[8,-35],[-5,-33],[0,-57],[-4,-29],[9,-10],[-7,-25],[-11,-69],[-24,-42],[-17,1],[-6,-13],[56,-24],[9,-25],[-20,-51],[-2,-33],[6,-32],[-3,-58],[41,-72],[19,-38],[3,-19],[-270,-12],[-67,-5]],[[5342,5402],[-77,-3],[-8,-15],[-22,12],[-57,51],[-21,34],[-21,0],[-9,24],[-14,13],[-21,2],[-28,48],[-28,17],[4,18],[-14,14],[-24,1],[-3,16],[-19,21],[-37,23],[-30,-1],[-29,6],[-24,-4],[-28,39],[10,29],[-49,16],[-17,10],[-24,-5],[-14,19],[-48,32],[-12,41],[-36,75],[-12,117],[-14,22],[-47,19],[-23,43],[-38,28],[-23,48],[-26,8],[-21,-4],[-33,9],[-50,-5]],[[4355,6220],[-22,6],[-15,-8],[-49,22],[-110,2],[-48,26],[-48,43]],[[4063,6311],[-22,24],[-26,51],[-24,23],[-40,14],[-6,38],[8,26],[28,19],[13,31],[-2,26],[-9,9],[-41,-2],[-30,19],[-33,8],[-5,50],[-30,78],[6,23],[24,0],[2,13],[-20,77],[12,27],[2,26],[-32,14],[1,13],[-12,28]],[[3891,8156],[48,4],[21,-9],[6,-14],[42,-16],[25,-24],[32,5],[40,-17],[11,-23],[19,16],[48,-6],[38,-19]],[[4221,8053],[-20,-13],[-12,-44],[32,-7],[83,1],[3,23],[-8,32],[49,-1],[30,-9],[9,-22],[1,-40],[-5,-25],[-24,-32],[5,-18],[29,4],[28,-16]],[[4421,7886],[0,-42],[-28,-17],[10,-51],[-14,-34]],[[4087,7603],[-65,45],[27,26],[-39,21],[11,33],[15,0],[-5,32],[0,44],[-18,9],[21,21],[7,40],[-9,23],[-28,9],[-17,-3],[-26,31],[-25,8],[2,18],[-13,7],[-11,-11],[1,-21]],[[4421,7886],[41,-10],[32,3],[-20,49],[6,19],[20,18],[-12,36],[9,29],[61,-3]],[[4558,8027],[2,-33],[11,-18],[0,-21],[37,-23],[6,19],[-13,32],[-17,19],[-2,32],[48,2],[22,-8],[30,-3],[103,19],[19,-31],[32,-32],[29,0]],[[4865,7981],[23,-11],[54,-48],[25,28],[-12,45],[19,25],[4,25],[21,-5],[25,-43],[18,8],[14,-13],[22,2],[4,-17],[-3,-29],[9,-20],[21,-15],[15,4],[2,-20],[14,-1],[16,-23]],[[5156,7873],[-10,-68],[3,-13]],[[5149,7792],[-21,-4],[-34,-18],[-14,-23],[-41,-19],[24,-48],[-17,-36],[-4,-53],[-30,-10],[-25,9],[-7,-21]],[[4980,7569],[-61,23],[-23,27],[-30,6],[-46,21],[-14,-41],[-33,-14],[-16,2],[-46,33],[-20,25],[-26,-2]],[[4980,7569],[22,-18],[54,-19],[49,-6],[23,-14],[8,-20],[-3,-25],[35,-14],[43,-40],[-15,-25],[39,-1],[-20,-199],[-9,-21],[-16,-10],[-99,2],[-24,-4],[-31,-20],[-47,-57],[-60,-89],[-15,-14],[-71,-25]],[[5149,7792],[5,-7],[43,1],[33,-26],[7,-52],[17,-2],[116,-5],[2,-28],[12,-14],[-5,-15],[16,-14],[26,7],[51,-2],[23,-13],[26,-3],[11,-28],[39,-20],[20,6],[42,-17],[14,-21],[24,-3],[58,-22],[21,-39],[22,-6],[8,-17]],[[5780,7452],[15,-5],[60,5],[21,-14],[22,-26],[52,2],[33,-15],[24,-2],[17,-14],[4,-19],[25,-15],[44,-40],[10,-27],[28,-44],[22,2],[41,-31],[19,-30],[26,-20],[14,0]],[[6257,7159],[-32,-21],[-24,-30],[-16,-46],[-17,-19],[19,-59],[-8,-18],[8,-26],[37,-42],[-1,-17],[59,-64],[-18,-1],[-35,-20],[-32,-33],[-28,-57],[-9,-28],[-1,-38],[-20,-50],[-22,-23],[-37,-60]],[[6080,6507],[-53,71],[-44,23],[-12,22],[-6,33],[-12,20],[-101,51],[-56,17],[-63,24],[-46,31],[-27,40],[-33,24],[-43,5],[-13,-54],[-23,-34],[-13,16],[-39,12],[-7,21],[-28,2],[-161,1],[-36,-29],[-24,30],[-205,1]],[[6080,6507],[3,-34],[19,-7],[47,-29],[48,-25],[-46,-51],[-32,-8],[-8,-14],[6,-42],[-5,-17],[-44,-31],[-51,-5],[-24,9],[-41,-24],[-9,-21],[-22,-13]],[[5921,6195],[-25,-18],[-29,-11],[-22,6],[-1,-29],[-147,111],[-42,-24],[-31,-13],[-13,-16],[1,-44],[-10,-27],[25,-47]],[[7107,6218],[2,-13],[18,-19],[28,-55],[31,-35],[-9,-29],[44,-33],[20,-20],[60,-77],[44,-27],[25,14]],[[7370,5924],[-16,-34],[-24,-26],[-10,-44],[4,-11],[-15,-24],[-32,-23],[-20,-22],[-7,-26],[-30,-30],[-42,-14],[-25,-14]],[[7153,5656],[-36,37],[-4,18],[-15,-21],[-40,-43],[-22,-31],[-28,-60],[-27,13],[-24,1],[0,-46],[19,-42],[21,-66],[3,-26],[-3,-95],[-171,4],[-13,3],[-57,28],[-33,0],[-42,18],[-49,44],[-41,41],[-71,62],[-63,30]],[[6457,5525],[4,14],[2,69],[-5,17],[-3,58],[0,110],[87,7],[-56,44],[-105,78]],[[6381,5922],[101,62],[34,23],[-34,46],[-68,41],[7,47],[23,38],[2,17],[38,1],[20,26],[-2,35],[5,33],[-34,35],[-26,18],[-20,-16],[-32,18],[-5,-7],[-44,3],[12,34],[22,27],[-45,-33],[-26,13],[19,35],[-4,13],[19,36],[37,28],[1,9],[43,3],[32,10],[46,110],[10,18],[11,-3],[6,-40],[8,-10],[0,-25],[30,-27],[8,-26],[39,13],[18,21],[-1,34],[21,30],[13,8],[39,56],[25,28]],[[6729,6704],[60,-80],[47,-84],[18,-20],[20,-35],[20,-19],[18,-42],[25,-30],[22,3],[42,-56],[25,-23],[23,-32],[22,-13],[36,-55]],[[7370,5924],[1,37],[-10,30],[11,11],[15,-5],[45,-54],[66,-42],[24,-3],[20,-30],[5,-22],[32,-5],[53,12],[60,26],[34,24],[23,-7],[37,3],[38,35],[-1,12],[17,7],[13,-9],[5,16],[26,3],[22,-7],[7,10],[23,-4],[11,-18],[13,2],[8,-33],[25,-10],[27,-18],[24,-38],[25,10],[0,-12],[23,-22],[28,-11],[-3,-12],[17,-8],[-1,-32],[7,-4],[-2,-58],[-10,-18],[15,-22],[14,5],[-8,-18],[16,-13],[26,0],[22,-16],[26,-51],[18,0],[-5,-36],[9,-13],[36,-7],[9,-19],[-10,-15],[17,-13],[-8,-42],[6,-19],[-12,-10],[7,-11],[-8,-19],[24,-9],[16,-25],[-6,-13],[38,-21],[-6,-12],[13,-12],[14,-48]],[[8391,5221],[-22,-15],[-5,12],[-35,0],[-37,-11],[-4,13],[-51,-11],[-15,24],[-32,9],[-27,20]],[[8163,5262],[-8,32],[-31,65],[-16,22],[-29,16],[-28,32],[-33,47],[-8,1],[-31,-25],[-25,-9],[-52,-10],[-35,-2],[-27,-20],[-18,6],[-19,-17],[-51,17],[-21,1],[-28,-10],[-46,8],[-43,-71],[-41,-74],[-31,28],[-23,34],[-36,19],[-15,28],[-36,48],[-16,11],[-88,8],[-87,23],[-50,28],[2,-24],[15,-11],[12,-48],[-19,8],[-22,-3],[-20,42],[9,31],[-51,41],[7,32],[14,15],[4,35],[11,40]],[[5921,6195],[73,-42],[9,-35],[-20,-39],[2,-40],[290,-60],[46,-15],[60,-42]],[[6457,5525],[-22,9],[-21,28],[-36,-7],[-28,5],[-122,14],[-4,-37],[12,-49],[25,-35],[41,-37],[17,-33],[2,-53]],[[6321,5330],[-68,-28],[-50,-44],[-6,-26],[-32,-4],[-22,14],[-13,-14],[-34,-10],[-22,-42],[-35,-7],[-19,-16],[-3,-36],[8,-21],[-10,-20],[-22,18],[-31,4],[-76,0],[-66,22],[-24,14],[-40,39],[-6,35],[-19,25],[-17,8],[-42,0],[-22,8],[-73,-57],[-29,-32],[-18,-8],[-42,11],[-56,48],[-64,36],[-28,21]],[[5340,5268],[6,79],[-10,21],[6,34]],[[6257,7159],[31,-32],[31,-45],[35,-38],[15,-25],[38,-27],[17,6]],[[6424,6998],[14,10],[31,-13],[26,-31],[52,-3],[19,-6],[-3,-24],[12,-30],[22,-28],[14,-29],[55,-59],[19,-43],[44,-38]],[[8163,5262],[-21,-19],[10,-28],[-41,-31],[-19,5],[-21,-21],[13,-22],[-1,-32],[16,-6],[-9,-11],[-111,-9],[-108,-2],[-56,4],[13,-54],[23,-15],[-55,-2],[-32,-20],[-17,9],[-6,-15],[-30,5],[-46,31],[-19,-24],[-23,-64],[50,-64],[27,-28],[0,-40],[-20,-17],[-39,32],[-8,-8],[-27,34],[-36,15],[-22,23],[-14,-7],[-23,39],[-11,2],[-11,29],[-21,16],[-10,19],[-17,3],[-5,18],[-13,8],[-22,-4],[-51,15],[-4,-21],[-18,-23],[-32,-11],[-21,-1],[-16,-27],[-28,-27],[-21,-4],[-13,-29],[6,-29],[-11,-10],[-11,-39],[-50,-18],[-32,-20],[-38,11],[-23,33],[-21,-26],[-50,-5],[-21,39],[-61,39],[-23,24],[-20,29],[-36,11],[-43,29],[-26,-4],[-47,20],[-9,12],[-16,45],[-30,46],[-17,14],[-29,0],[-27,17],[-25,54],[-36,31],[-10,36],[-24,25],[-48,2],[-14,10],[-7,21],[-20,28],[-57,22]],[[2865,4982],[-31,-13],[-5,-21],[-26,5],[-26,-18],[-18,-2],[21,-32],[30,-33],[-2,-82],[5,-22],[40,-23],[13,-20],[-2,-64],[-16,-22],[-20,-10],[-82,-19],[-12,-22]],[[2734,4584],[-16,-44],[-30,-18],[-8,-14]],[[2680,4508],[-37,7],[5,22],[-46,32]],[[2602,4569],[13,35],[7,35],[-3,55],[-10,61],[-19,55],[-33,69],[-26,36]],[[2531,4915],[15,25],[-17,11],[-13,29],[9,36],[-44,136],[1,6],[47,35],[17,-10],[27,10],[23,-2],[16,11],[27,-2],[25,9],[5,36],[16,14],[4,25],[21,-3],[10,9],[29,5]],[[2749,5295],[16,-7],[50,38],[30,7]],[[2845,5333],[4,-127],[9,-96],[2,-95],[5,-33]],[[2946,4115],[16,-7],[-2,-15],[-15,-4],[-14,-26],[-16,-1],[-11,-13],[3,-45],[-20,-191],[11,-2],[58,11],[-16,-43],[12,-29],[47,-9],[-5,-46],[15,-11],[-2,-27],[9,-26],[2,-72]],[[3018,3559],[-48,-24],[-28,9],[-29,-17],[-45,5],[12,-48],[-48,-19],[-23,-40],[-16,-5],[-27,-21],[-26,52],[-12,15],[-26,13],[-67,13],[-25,-3],[-20,-12],[-67,1],[-36,-4],[-24,-159]],[[2463,3315],[-38,3],[-16,-6],[-63,-1],[-48,-12]],[[2298,3299],[-59,90],[-65,83],[-92,107],[-100,102],[-2,8],[-31,29],[13,40],[-12,23],[2,27],[20,5],[6,12],[-2,29],[22,12],[8,36],[6,1],[20,-33],[43,-11],[62,33],[51,56],[20,43],[6,30]],[[2214,4021],[40,-16],[18,1],[9,15],[19,7],[24,-8],[18,13],[5,-8],[47,-11],[-19,-65],[38,-5],[47,25],[93,296]],[[2553,4265],[26,-13],[15,-14],[51,-10],[54,23],[36,-9],[25,4],[23,-6],[29,13],[38,-15],[11,-22],[1,-50],[15,-38],[20,-18],[22,-7],[27,12]],[[2734,4584],[18,-17],[9,-23],[20,11],[29,-22],[48,-6],[73,16],[30,-8],[31,15],[8,35],[12,8],[36,-18],[28,-31],[43,-36],[2,-34],[38,-5],[21,22],[-7,43],[13,41],[6,51],[19,-9],[19,-34],[22,-2],[32,-15],[3,-19],[23,-49],[2,-53],[32,-48],[30,-11],[19,-37],[13,-6],[50,-4],[14,-10]],[[3470,4329],[-24,-25],[-22,2],[-74,49],[-5,-19],[-13,-8],[41,-60],[-100,-1],[-35,-5],[-32,24],[0,17],[-16,14],[-8,27],[-16,6],[-43,-8],[-58,-17],[-36,13],[-23,-25],[-9,-74],[-20,-35],[-31,-89]],[[2553,4265],[14,24],[71,98],[34,53],[30,60],[-22,8]],[[3470,4329],[43,-51],[4,-17],[-23,-56],[12,-25],[-3,-20],[-28,-26],[-19,1],[8,-49],[-29,-25],[0,-29],[12,-71],[-7,-39],[-23,-19],[-10,-19],[-25,-20],[-22,-5],[114,-70],[17,4],[24,21],[30,-4],[0,-24],[32,-23],[26,-44],[51,-7],[30,-21],[31,8],[54,3],[47,-9],[17,10],[42,2],[-8,-32],[-24,-22],[-11,-23],[-14,-11],[-12,-41],[-11,-13],[14,-24],[40,2],[16,26],[22,91],[27,-3],[42,-38],[17,-5],[52,-35]],[[4025,3577],[-38,-18],[-22,-47],[18,-23],[-19,-17],[23,-30],[-34,-46],[4,-6],[-24,-27],[-20,-56]],[[3913,3307],[-24,-6],[-43,12],[-28,14],[-30,23],[1,39],[-8,36],[-14,7],[-22,-7],[-45,-4],[-26,6],[-10,13],[-40,7],[-15,10],[-45,-4],[-50,45],[-39,8],[-48,0],[-19,8],[-49,7],[-17,-8],[-31,7],[-27,25],[-37,25],[-15,-3],[-38,14],[-10,-3],[-17,-35],[-149,16]],[[3470,4329],[13,6],[18,32],[32,41],[-7,20],[34,13],[44,58],[55,43],[39,-14],[44,-54],[32,5],[20,12],[23,-6],[13,6],[28,31],[15,6],[5,18],[26,4],[32,-2],[19,14],[57,-21],[38,-1],[36,4],[27,-7],[26,-24]],[[4139,4513],[17,-46],[15,-13],[3,-51],[-13,-23],[10,-33],[21,-30],[54,-9],[13,-8],[-8,-22],[-27,-33],[-10,-28],[-30,-26],[-15,6],[-23,-19],[-11,-57],[6,-18],[-19,-38],[25,-50],[-16,-12],[-6,-19],[4,-25],[-9,-36],[-20,-11],[19,-59],[-4,-38],[4,-47],[-40,-57],[-48,-18],[-29,-33],[43,-36],[-16,-14],[8,-26],[-12,-7]],[[3913,3307],[-10,-34],[-33,-29],[-5,-28],[5,-18],[27,-13],[-11,-40],[0,-27],[-14,-37],[15,-20],[0,-29],[-7,-18],[-48,-55],[-3,-24],[-29,-9],[-20,-22],[-3,-18],[-23,-22],[7,-22],[-16,-13],[-38,-18],[-29,6],[-18,-10],[-28,8],[-24,-25],[-17,-7],[-10,-36],[-13,-28],[-24,-8],[-9,8],[-36,-21],[-23,-5],[-23,-17],[0,-18],[-39,-89],[12,-100],[-6,-17],[-17,-5],[1,-45]],[[3404,2402],[-31,1],[-17,10],[-34,0],[-54,-16],[-30,1],[-22,-18],[0,-17],[-26,2],[-50,-25],[-6,-27],[-10,-3]],[[3124,2310],[-44,49],[-20,58],[0,29],[-39,18],[-17,16],[-24,4],[-9,-16],[-46,-31],[-28,21],[-16,26],[-9,1],[-18,80],[-15,21],[-5,39],[-18,33],[-35,7],[-35,25],[-58,9],[-16,-6],[-32,17],[-17,-5],[-14,14],[5,29],[-3,116],[-30,16],[-18,-6],[-27,47],[7,54],[0,84],[5,75],[-16,78],[-19,31],[-30,23],[-20,49]],[[2865,4982],[38,36],[24,3],[19,17],[30,-7],[19,11],[51,-7],[24,4],[43,-12],[11,-17],[20,-3],[5,-13],[20,-6],[24,-42],[29,-16],[59,0],[16,-9],[42,6],[39,-31],[0,-16],[16,-17],[26,-8],[9,-16],[1,-27],[29,-45],[20,-10],[18,5],[31,56],[11,-9],[5,-25],[26,-9],[35,2],[19,14],[35,4]],[[3659,4795],[29,-11],[48,-9],[52,-22],[40,-23],[15,-23],[-2,-23],[16,-11],[30,-42],[14,-6],[37,7],[15,-6],[15,-35],[28,-26],[31,-1],[38,25]],[[4065,4589],[19,-12],[54,-47],[1,-17]],[[2214,4021],[3,25],[-5,40],[-9,2],[-8,37],[2,22],[18,15],[2,35],[-12,47],[-3,35],[26,0],[25,17],[0,11],[19,-10],[21,21],[20,-14],[-6,-11],[29,-2],[13,-15],[24,5],[34,24],[8,16],[22,7],[37,33],[69,76],[17,28],[20,62],[9,-2],[13,44]],[[246,3326],[-23,6],[19,50],[-9,60],[11,34],[11,-3],[17,-60],[-8,-17],[-18,-70]],[[310,3621],[-26,33],[-1,25],[13,2],[25,-39],[-11,-21]],[[285,3713],[-3,26],[8,1],[-5,-27]],[[1490,3856],[-11,6],[-15,41],[15,6],[13,-15],[5,-25],[-7,-13]],[[1337,3877],[-7,-60],[-22,-32],[1,-32],[-22,-18],[-16,-24],[-7,-46],[-21,-37],[-28,-10],[-11,-14],[-24,-7],[-11,11],[-15,36],[-9,64],[-35,46],[0,17],[16,21],[1,35],[10,59],[22,8],[50,-19],[19,3],[16,27],[20,6],[26,40],[30,24],[14,3],[6,-13],[-10,-41],[7,-47]],[[1343,4039],[41,8],[-10,-25],[-30,-11],[-12,11],[-5,25],[16,-8]],[[309,4078],[-2,-47],[-23,-10],[3,-33],[21,0],[21,-29],[9,-46],[22,-20],[1,-11],[-21,-54],[-24,-21],[-53,-7],[-15,25],[-24,22],[-34,75],[-11,63],[-30,34],[-5,23],[11,17],[30,-3],[22,16],[47,19],[24,19],[20,-7],[11,-25]],[[54,4209],[11,-40],[-15,-16],[-22,-40],[-23,-11],[-5,32],[10,16],[1,59],[11,10],[26,0],[6,-10]],[[4455,8990],[16,-104],[-2,-86],[-17,-37],[9,-35]],[[4461,8728],[-18,-15],[-33,63],[-69,12],[-2,22],[-18,7],[-19,-16],[-20,-1],[-39,8],[-69,-25],[15,-31]],[[4189,8752],[-56,-24],[-11,-19],[-36,-8],[3,-27],[-60,-3],[-16,-9]],[[4013,8662],[1,24],[14,46],[-30,9],[-1,21],[-38,75]],[[3959,8837],[10,26],[17,-9],[18,21],[20,5],[-1,18],[37,35],[8,21],[-9,15],[18,6]],[[4077,8975],[15,6],[-6,19],[19,11],[-1,20],[23,-3],[22,-13],[5,16],[33,1],[16,-44],[20,-13],[16,5],[15,-18],[25,9],[7,-19],[13,15],[34,-1],[3,19],[19,8],[14,-11],[13,8],[19,-6],[3,19],[13,2],[5,-15],[19,10],[14,-10]],[[3975,8616],[62,3],[15,-30],[35,-30],[12,-47],[3,-35],[-38,-12],[2,-19],[-7,-27],[19,-15],[10,-33],[13,-19],[22,-14],[30,-8],[8,-13],[17,-3]],[[4178,8314],[21,-43],[-6,-1],[-7,-43],[15,-24],[16,-9],[-9,-14],[4,-27],[-6,-15],[21,-31],[4,-16],[-10,-38]],[[4461,8728],[46,-20],[9,-27],[28,8],[3,-26],[-9,-10],[14,-28],[13,4],[12,-26],[24,-17]],[[4601,8586],[-2,-58],[-22,-33],[-25,-65],[-2,-23],[15,-61],[-29,-47],[-7,-24],[-50,-90],[-8,-25]],[[4471,8160],[-55,83],[-18,13],[0,30],[-18,55],[-3,30],[-20,28],[-29,20],[-11,57]],[[4317,8476],[-9,50],[-30,96],[-29,52],[-25,25],[-35,53]],[[4317,8476],[-20,-32],[6,-11],[-12,-12],[11,-22],[-1,-39],[-21,-4],[-21,19],[-40,-10],[-32,28],[-10,-5],[6,-23],[-8,-17],[3,-34]],[[4471,8160],[15,-34],[28,-40],[-5,-20],[49,-39]],[[4397,9773],[16,-30],[26,-13],[16,0],[24,-13],[6,-20],[26,-21],[11,-19]],[[4522,9657],[-18,-24],[-25,-21],[-13,-38],[-14,-11],[-44,0],[-7,-16],[-19,-5],[4,-12],[-20,-14],[2,-20],[-30,-41],[18,-21],[-14,-18],[9,-5],[-13,-42],[-10,3],[-27,-48],[-5,-25],[9,-12],[-44,-18]],[[4261,9269],[-11,-16],[-23,22],[-2,142],[-26,10],[5,50]],[[4204,9477],[6,26],[-9,0],[2,23],[14,16],[8,34],[-11,35],[-8,2],[16,87]],[[4222,9700],[37,9],[7,8],[-16,18],[4,15],[28,16],[-4,14],[44,34],[36,6],[20,-19],[19,-28]],[[3372,8807],[22,20],[24,-6]],[[3418,8821],[27,4],[2,-22],[12,-10],[11,-27],[12,6],[-11,24],[24,-9],[19,24],[23,-6],[18,31],[12,32],[14,4],[12,-13],[1,-29],[58,3],[5,16],[24,-6],[21,5],[8,-25],[43,-3],[-18,21],[19,22],[15,-6],[-4,-16],[14,-4],[14,14],[36,-13],[18,11],[21,-17],[5,25],[14,-3],[-2,-19],[12,-8],[14,12],[-10,17],[18,8],[4,-10],[36,-17]],[[4077,8975],[4,22],[-18,-7],[-24,4],[7,15],[-11,11],[7,57],[7,28],[-7,40],[5,17]],[[4047,9162],[9,5],[28,-11],[36,31],[9,16],[14,-2],[44,22],[8,27],[-10,27],[-15,1],[-10,21],[-31,42],[-20,4],[0,12],[-20,10],[-9,30],[3,18],[38,20],[52,12],[20,36],[11,-6]],[[4261,9269],[11,-13],[-12,-10],[25,-42],[-23,-13],[16,-17],[2,-27],[32,-14],[16,-22],[20,5],[28,-4]],[[4376,9112],[18,-13],[45,0],[23,-20],[36,-8],[5,-12],[24,-16]],[[4527,9043],[-25,-24],[-40,-15],[-7,-14]],[[3418,8821],[11,55],[-10,10],[-27,-21],[-15,19],[21,39],[33,-17],[13,15],[-1,17],[21,9],[13,-5],[22,17],[14,-17],[37,-12],[51,11],[58,50],[-33,50],[30,15],[19,23],[-12,27],[29,32],[76,68],[-5,24],[-20,13],[12,16],[29,12],[36,-15],[17,4],[33,-13],[43,16],[-4,-11],[12,-37],[31,-2],[11,-8]],[[3963,9205],[8,-29],[50,13],[12,-5],[-4,-17],[18,-5]],[[3963,9205],[18,29],[-32,47],[-8,24],[-13,11],[25,21],[-5,20],[-28,50],[41,4],[-17,25],[11,22]],[[3955,9458],[27,27],[31,15],[17,-22],[19,-1],[-3,18],[20,-2],[18,33],[13,9],[-46,40],[-2,42],[11,9],[9,31]],[[4069,9657],[38,9],[8,27],[32,-7],[0,-16],[26,0],[24,22],[4,19],[21,-11]],[[3955,9458],[-15,2],[-4,16],[13,4],[5,21],[-9,7],[-33,-8],[-4,-10],[-18,16],[8,13],[-41,21],[-30,-10],[-9,30],[-12,7],[11,48],[-37,-4],[-3,17],[-42,-2],[-54,8],[-9,12],[11,15],[21,58],[39,2],[33,-16],[17,-20],[13,-29],[79,33],[46,14],[14,-20],[39,-8],[26,11],[57,-5],[2,-24]],[[4974,8618],[-21,-4],[-40,120],[-11,50],[13,-1]],[[4915,8783],[71,22]],[[4986,8805],[30,-12],[22,-24],[-6,-36],[7,-18],[-4,-39],[-9,-17],[6,-34],[-23,1],[-35,-8]],[[4527,9043],[60,-5],[17,-9],[6,-21],[30,-31],[48,-9],[-1,-8],[51,1],[40,15],[21,-9],[28,1],[38,15]],[[4865,8983],[18,-5],[33,-25],[0,-24],[-9,-15],[-24,-5],[26,-104]],[[4909,8805],[-27,3],[-28,-17],[-75,-35],[-35,-5],[-10,9],[-31,0]],[[4703,8760],[-32,4],[-59,-15],[-8,14],[-52,9],[-61,-24],[-30,-20]],[[4991,9429],[-16,-36],[25,-26],[-86,-60],[-21,-24],[-8,-29],[16,0]],[[4901,9254],[1,-16],[21,-13],[-17,-44],[33,-17],[13,-36],[22,1],[7,-11],[-8,-17],[12,-22],[-64,-1],[-77,-12]],[[4844,9066],[-14,54],[-63,114],[-43,145],[-70,51]],[[4654,9430],[34,25],[4,13],[17,-14],[28,1],[10,10],[35,8],[11,9],[27,-12],[26,4],[28,29]],[[4874,9503],[31,-35],[11,12],[75,-51]],[[4703,8760],[7,-50],[-14,-33],[8,-38],[13,1],[19,-35],[-14,-26],[24,-17]],[[4746,8562],[-21,-54]],[[4725,8508],[-65,29],[-25,-10],[-11,14],[2,18],[-19,11],[-6,16]],[[5931,8532],[-2,-61],[-32,-2],[-77,-61],[0,-20],[15,-27],[1,-32],[-13,-159],[-18,-72],[-4,-37],[11,-13],[-6,-27],[-25,-3],[-3,-32]],[[5778,7986],[-79,-5],[-36,8],[-19,10],[-26,1],[1,21],[11,26],[-22,-3],[-45,7],[2,10],[-29,5],[-9,29],[-22,-1],[-11,31],[-16,18],[29,9],[52,4],[-10,26],[-41,29],[-6,28],[-26,35],[-18,3],[-37,29],[-36,20],[-41,8],[11,11],[39,7],[-37,24],[4,14],[-42,20],[24,30],[-46,5],[-7,20],[-19,5],[12,23]],[[5283,8493],[21,15],[29,-1],[13,14],[-5,24],[4,34],[-9,12],[15,21],[21,7]],[[5372,8619],[30,-21],[18,-39],[43,-32],[3,-24],[25,-22],[24,-8],[39,-36],[28,-10],[21,38],[12,-6],[20,17],[12,-20],[29,13],[14,-15],[19,12],[-14,17],[58,18],[55,5],[27,10],[12,-4],[44,7],[40,13]],[[5156,7873],[20,-14],[19,-4],[82,9],[12,13],[-3,27],[29,-3],[-11,10],[0,45],[-12,1],[-19,26],[9,65],[-9,2],[-19,33],[-17,-2],[-21,36],[9,15],[-20,24],[12,23],[-5,30],[-22,22],[-36,26],[10,25],[-10,24],[9,0],[-33,28],[-23,28]],[[5107,8362],[-25,34],[-5,30],[11,18],[-16,26]],[[5072,8470],[89,37],[41,25],[18,-13],[-6,-19],[69,-7]],[[5778,7986],[21,-15],[36,-6],[-24,-115],[-8,-30],[62,-17],[46,-32]],[[5911,7771],[-4,-38],[-26,-12],[9,-10],[-25,-20],[4,-21],[-53,-14],[-4,-105],[-9,-35],[-23,-64]],[[6041,9461],[-76,-5],[-68,51],[-28,10],[-14,13],[-34,1],[-18,-6],[-35,14],[-23,2],[-82,-5],[-117,-21],[-45,0],[-58,-8],[-69,-1],[-21,8],[-52,-2],[-29,-7],[-5,23],[-25,-5],[-45,12],[-20,13],[-63,-15],[-43,14],[9,22],[-39,8],[-19,32]],[[5022,9609],[23,53],[-7,43],[20,119],[45,99],[9,37]],[[5112,9960],[60,-5],[141,-50],[-4,-21],[79,-7],[31,-17],[32,-1],[53,-35],[58,-7],[44,-1],[2,-6],[39,-3],[-1,-27],[27,-3],[2,10],[42,-3],[7,12],[63,-6],[42,-37],[-2,-18],[29,-45],[-1,-19],[24,-8],[20,-19],[27,0],[11,-32],[34,-27],[2,-30],[18,-24],[10,1],[-1,-21],[23,-9],[16,-17],[2,-24]],[[4376,9112],[43,70],[7,-4],[37,42],[35,9],[29,27],[86,31],[1,23],[-17,30],[-16,7],[28,31],[21,-7],[17,32],[7,27]],[[4844,9066],[21,-83]],[[4974,8618],[7,-20]],[[4981,8598],[-44,-15],[-37,26],[-1,11],[-25,7],[-6,-41],[-58,-17],[-1,-16],[-63,9]],[[4909,8805],[6,-22]],[[4991,9429],[7,12],[70,65],[-56,36],[-12,26],[2,20],[20,21]],[[6041,9461],[7,-8],[-12,-23]],[[6036,9430],[-39,0],[-153,-38],[-44,-8],[-56,-2],[-28,7],[-60,-10],[-79,-3],[-22,-11],[-48,-6],[-37,10],[-102,-18],[-35,-10],[-9,11],[-59,-26],[-16,-13],[-44,16],[-25,-2],[-17,32],[-42,-14],[-38,-20],[0,-7],[-33,-16],[-7,-26]],[[5043,9276],[-15,5],[-35,-24],[-37,-4],[-31,-10],[-24,11]],[[4397,9773],[32,1],[76,45],[2,9],[-14,32],[7,36],[54,19],[14,31],[32,40],[31,13],[34,-25],[37,-8],[15,-14],[42,18],[23,-12],[116,3],[100,16],[27,-13],[87,-4]],[[4874,9503],[-10,21],[17,23],[15,34],[-8,10],[-40,10],[-15,17],[-42,21],[-18,39],[9,34],[-6,12],[-23,11],[-30,-15],[-52,-37],[-32,-1],[-28,-30],[-16,2],[-12,-27],[-18,-5],[-43,35]],[[6036,9430],[8,-21],[40,-5],[6,-23],[12,-3],[2,-26],[21,-14],[15,1],[41,-11],[10,-10],[5,-28],[23,-32]],[[6219,9258],[-26,-5],[10,-24],[-29,-10],[-31,16],[-62,-24],[-29,-17],[-73,-15],[-35,-4],[-41,-13],[-63,2],[-43,-11],[-82,4],[-59,-16],[-49,-3],[-33,-6],[-67,6],[-30,-4],[-17,-10],[-6,21],[4,49],[-4,20],[-45,0],[-47,-12],[-16,-11],[-30,9],[-73,-10],[-25,6],[-19,-15],[-12,3]],[[5187,9184],[-21,7],[-12,-10],[-13,12],[-23,40],[-29,11],[-26,28],[-20,4]],[[4725,8508],[26,-18],[30,9],[12,-10],[30,9],[31,-64],[10,-34],[8,-6],[9,-38],[39,-32]],[[4920,8324],[-24,-8],[-17,-28],[-17,-4],[-25,-25],[-9,0],[24,-50],[7,-35],[-6,-33],[-16,-14],[26,-68],[2,-78]],[[4920,8324],[16,8],[-3,30],[22,9],[8,20],[23,1],[70,-43],[35,14],[16,-1]],[[6219,9258],[10,-15],[-2,-20],[17,0],[31,-31],[10,1],[27,-38],[31,-14],[11,1],[19,-20],[50,-9],[13,-11],[1,-18],[26,-26],[28,-12],[22,-25],[23,-4],[10,-20],[25,-3],[23,-50],[22,-10],[13,-18],[-2,-23],[34,-41],[37,-20],[16,5]],[[6714,8837],[15,-2],[71,-45],[3,-11],[-29,-25],[-10,-25],[-27,-33],[-68,-11],[-30,-22],[-40,-22],[-22,-7],[-12,-15],[-22,-9],[-8,-16],[-24,-15],[-31,-36],[-75,19],[-33,-64],[-80,59]],[[6292,8557],[-75,35],[-34,23],[-55,11]],[[6128,8626],[-50,16],[-64,53],[18,5],[29,-4],[38,13],[14,23],[-23,28],[-14,-4],[-9,32],[-47,28],[-31,3],[-47,-9],[2,49],[-34,-5],[-22,-15],[-40,-15],[-78,-13],[-18,0],[-59,13],[-36,3],[-23,-7],[-38,1],[-32,-6],[6,36],[-12,17],[-46,7],[-31,-27],[-34,1],[-17,24],[-15,-3],[-44,10],[-40,-5],[-7,-13],[-34,-19],[-26,-1]],[[5264,8842],[-8,28],[-15,-6],[-4,14],[-35,-28],[-40,13]],[[5162,8863],[13,14],[10,69],[-13,38],[5,33],[-17,18],[-23,12],[4,28],[8,3],[24,37],[14,69]],[[5372,8619],[-14,20],[-24,15],[-23,-12],[-44,2],[-1,11],[-20,7],[-8,26],[-42,41],[-29,5],[-4,20],[70,0],[37,21],[-2,13],[-28,5],[-13,-6],[-5,28],[39,9],[3,18]],[[6128,8626],[-36,-39],[-58,-30],[-58,-18],[-45,-7]],[[4986,8805],[29,44],[29,5],[2,27],[14,2],[17,-15],[14,3],[22,-20],[49,12]],[[5072,8470],[-14,1],[-32,47],[-29,60],[-1,22],[-15,-2]],[[2503,6031],[37,34],[23,13],[29,34],[3,39],[10,44],[23,30],[2,24]],[[2630,6249],[35,-5]],[[2665,6244],[-3,-158],[-13,-26],[-95,-59],[-51,30]],[[2665,6244],[21,-6],[12,-12],[49,-11],[24,-12],[33,-25],[83,-30],[16,-20],[40,-12],[19,1],[26,-38],[17,5],[8,-16],[24,20],[18,30],[12,9],[39,52],[25,-5],[18,-43],[18,2],[-1,11],[22,42],[59,38],[6,1],[190,-90]],[[3443,6135],[9,-12],[-33,-54],[-63,-22],[10,-44],[-10,-45],[-33,-28],[-8,-57],[2,-31],[7,-14],[-42,-66],[-42,41],[-32,59],[-19,18],[-102,41],[-9,-19],[-25,-1],[-27,-18],[-29,-4],[-5,-19],[12,-1],[0,-19],[-14,-39],[8,-30],[-4,-34],[15,-44],[-2,-22],[-18,-23],[-44,-37],[-18,-30],[7,-44],[-12,-49],[-27,5]],[[2895,5493],[-55,16],[-82,224],[-56,-17],[-18,3],[-8,13],[-21,-3],[-77,2],[-9,25],[-23,8],[-17,18],[-2,15],[-21,31],[-51,10],[-27,1],[-16,-9],[-23,-29],[-40,4]],[[2349,5805],[6,7],[-6,28],[15,21],[2,19],[29,12],[29,20],[2,20],[16,17],[9,34],[28,16],[9,32],[15,0]],[[2531,4915],[-33,52],[-203,-57],[-24,75],[149,43],[-13,45],[-149,-42],[-8,25],[-32,50],[117,67],[-9,33],[-58,-32],[-3,2],[-69,-38],[-37,71],[72,41],[-16,29],[-32,16],[-28,2],[-31,-38],[-26,4],[4,27],[-4,32],[29,46],[14,83],[18,40],[5,59],[20,36],[18,10],[13,21],[36,19],[10,14],[39,3],[13,19],[20,10],[18,40],[-7,72],[5,11]],[[2895,5493],[-11,-39],[-70,38],[-12,-19],[17,-41],[-14,-22],[-15,-53],[-27,-10],[-14,-52]],[[2845,5333],[23,17],[14,-2],[29,25],[6,18],[48,20],[-1,22],[27,33],[51,28],[3,-8],[23,12],[-5,31],[34,5],[11,8],[27,-6],[-2,-16],[13,-8],[17,8],[21,-4],[14,-15],[23,-2],[23,12],[-3,-12],[51,-43],[13,-15],[15,1],[24,-12],[44,-5],[28,14],[20,-8],[36,14],[-7,14],[25,14],[46,62],[46,-16],[28,-5],[28,37],[40,41],[21,49],[19,7],[9,-17],[46,-48],[82,-62],[2,-13]],[[3857,5508],[-7,-17],[-40,-21],[7,-26],[-6,-38],[11,-16],[5,-44],[-13,-46],[13,-44],[21,-16],[-8,-29],[-22,-9],[-9,12],[-38,15],[-29,3],[-41,-6],[-12,-14],[-24,11],[38,-75],[1,-42],[-35,22],[-18,38],[-18,11],[-54,-13],[-19,-20],[-12,-23],[-4,-25],[-6,-94],[-5,-28],[61,-39],[26,-48],[34,-8],[3,-34],[-7,-33],[9,-17]],[[4355,6220],[-21,-32],[-34,-64],[-41,-49],[-14,-9],[-14,-25],[-14,-63],[-13,-29],[-34,-40],[-13,-30],[-28,-36],[-2,-61],[7,-27],[56,-98],[56,-104],[27,-36],[11,-24],[58,-72]],[[4342,5421],[-89,4],[-122,-7],[-36,6],[-144,83],[-24,-34],[-29,19],[-41,16]],[[3443,6135],[59,-28],[30,1],[214,-11],[40,-19],[34,-11],[94,-36],[22,0],[30,32],[20,49],[36,47],[10,32],[-14,41],[14,55],[31,24]],[[5340,5268],[-26,5],[-9,-9],[-28,8],[-19,-8],[-8,-17],[-4,17],[9,27],[-22,3],[-25,23],[-64,31],[-33,24],[-19,-10],[-59,-6],[-39,-19],[-26,-5],[-42,-54],[-14,-34],[-5,-30],[16,-57],[-3,-29],[-11,-3],[-13,-34],[22,-12],[30,-4],[4,-18],[30,8],[28,0],[21,13],[19,-1],[54,-22],[8,-95],[-34,-14],[-30,-29]],[[5048,4917],[-31,-4],[-17,22],[-22,10],[-33,-7],[-34,10],[-23,30],[-33,12],[-76,-6],[-28,5],[-37,-4],[-45,-11],[-30,6],[-52,2],[-3,50],[-131,192],[-15,28],[-3,26],[-27,9],[-15,14],[-41,80],[8,6],[-18,34]],[[2630,6249],[8,58],[-4,13],[32,6],[14,28],[1,19],[19,54],[-16,43],[-3,45],[10,0],[8,25],[-3,49],[-16,36],[-2,31],[-12,31],[-13,68]],[[5048,4917],[-23,-50],[-17,-70],[-93,11],[5,-73],[-10,12],[-54,29],[-11,11],[-31,-2],[-41,7],[-28,35],[-25,5],[-25,-17],[-64,-67],[-78,-45],[-7,2],[-25,53],[-34,40],[-23,3],[-29,25],[-10,17],[-28,13],[-31,6],[-42,-11],[-26,-18],[-29,-28],[-42,25],[-31,28],[-21,5],[-24,-47],[-5,-46],[-15,-24],[-5,-29],[-31,-48],[-11,-34],[2,-33],[-21,-13]],[[1524,5642],[6,-18],[-5,-21],[-53,-24],[12,21],[-12,29],[12,14],[14,-9],[26,8]],[[1649,6129],[18,-2],[14,-14],[-8,-37],[-18,-12],[-30,16],[7,21],[-9,20],[6,22],[20,-14]],[[1709,6170],[7,-9],[-20,-4],[13,13]],[[1504,6204],[-8,-28],[21,-36],[-19,-45],[15,-55],[31,-17],[1,-20],[26,-52],[18,-13],[26,0],[-19,-12],[4,-19],[-8,-37],[44,-13],[-31,0],[7,-25],[-9,-20],[-19,-17],[-11,-30],[-46,-39],[-12,-19],[-19,20],[4,51],[-6,20],[-18,11],[-17,23],[37,44],[-7,26],[-32,17],[-22,-9],[-11,15],[32,1],[11,8],[-5,33],[15,14],[-34,36],[0,26],[-10,16],[-21,2],[15,16],[-8,35],[25,22],[-1,23],[-9,17],[1,21],[11,12],[23,-13],[27,22],[8,-12]],[[2146,947],[-23,28],[12,15],[11,-43]],[[2170,1016],[38,-6],[1,-10],[-37,-6],[-16,18],[14,4]],[[2387,1081],[-4,-23],[-24,1],[-4,30],[16,15],[16,-23]],[[2118,1243],[3,-31],[31,-16],[-12,-15],[-20,3],[-14,-15],[-36,-11],[-9,-42],[3,44],[-11,27],[-29,24],[-1,16],[16,12],[79,4]],[[2333,1265],[9,23],[5,-10],[-14,-13]],[[2287,1276],[-1,-32],[-11,-6],[-57,8],[-29,19],[-35,-1],[2,11],[79,-10],[45,28],[7,-17]],[[1650,1557],[15,-26],[-22,3],[-1,20],[-14,13],[5,21],[18,-14],[-1,-17]],[[1200,1964],[17,-4],[23,-25],[34,-3],[27,15],[27,1],[30,-16],[66,17],[33,-8],[-3,-23],[13,-31],[-2,-30],[8,-21],[-11,-13],[-1,-23],[20,-30],[3,-33],[-28,-21],[-2,-13],[-29,-8],[-6,-9],[-21,1],[-16,-9],[-12,-23],[-18,-13],[-20,-32],[13,-25],[-32,-43],[-37,-11],[-23,-20],[-26,2],[-18,17],[0,17],[22,12],[-19,30],[-20,95],[-37,44],[-6,14],[-56,57],[-1,40],[10,62],[23,-6],[13,-37],[3,-33],[26,-4],[36,20],[-12,34],[13,19],[-14,16],[2,30],[-11,16],[19,8]],[[1423,2023],[-13,-4],[-8,27],[14,-3],[7,-20]],[[2541,1888],[-22,-29],[-1,-35],[-8,-29],[28,-29],[-1,-45],[21,-46],[17,-10],[-9,-24],[20,-1],[26,-13],[12,-110],[-10,-60],[14,0],[196,14],[20,5],[26,-194],[-14,-16]],[[2856,1266],[-15,-15],[-53,-33],[-32,-37],[-36,-80],[-43,-30],[-23,-5],[-104,9],[-24,6],[-39,0]],[[2487,1081],[3,32],[43,-3],[26,11],[4,30],[53,-8],[2,12],[-17,43],[24,31],[1,24],[18,23],[-24,32],[-52,54],[-36,27],[-60,26],[-67,13],[-104,-12],[-15,-9],[-26,-27],[-19,-32],[-18,2],[-51,-8],[-1,4],[-79,-12],[-51,-33],[-23,30],[-22,5],[-20,-7],[-37,-26],[-20,-4],[-26,14],[-14,34],[9,20],[42,4],[9,14],[33,10],[32,40],[0,39],[-10,27],[-19,30],[-27,25],[-35,-14],[-25,13],[-20,-6],[-22,-26],[-5,-18],[-14,-3],[-4,32],[-15,23],[17,33],[-4,16],[-16,12],[6,12],[20,3],[18,22],[25,14],[26,1],[12,20],[41,18],[-5,20],[-21,-4],[-14,24],[-17,12],[-34,-8],[-12,-26],[-14,-1],[-36,30],[-21,-2],[4,22],[-8,27],[22,24],[3,17],[-19,26],[-37,31],[13,61],[17,23],[2,28],[-9,35]],[[1767,2047],[108,4],[54,23],[40,2],[28,-28],[9,13],[65,33],[19,15],[11,22],[13,8],[36,0],[48,10],[20,11],[20,28],[20,-2],[0,-12],[23,-64],[26,-13],[7,-16],[63,-47],[23,-7],[88,-76],[53,-63]],[[3124,2310],[-43,-21],[-16,-34],[-31,-23],[-14,-23],[-36,-35],[-41,-23],[-3,-22]],[[2940,2129],[-18,5],[-8,21],[24,29],[-3,48],[-21,15],[-31,7],[-4,8],[34,3],[-8,31],[15,16],[3,18],[-26,-4],[-2,13],[-30,9],[-5,21],[-43,-15],[-26,1],[-14,-11],[1,-49],[-18,-13],[-34,-4],[-14,11],[-22,0],[-28,25],[-15,1],[-14,16],[18,29],[-8,49],[12,33],[-7,16],[10,16],[-9,12],[16,16],[-2,15],[-24,-8],[-18,9],[-16,-8],[10,-14],[5,-30],[-91,10],[-23,-22],[-13,-21],[-41,14],[-45,25],[-25,10]],[[2382,2482],[15,29],[21,73],[22,34],[5,34],[18,55],[1,19],[21,42],[-11,55],[-1,52],[-16,57],[-15,25],[-8,43],[-50,126],[-40,81],[2,11],[-48,81]],[[3404,2402],[12,-58],[11,0],[10,-23],[-11,-3],[-21,-28],[0,-16],[-32,-18],[2,-19],[-11,-45],[-25,-39],[-13,-7],[-5,-21],[6,-30],[-43,-35],[-35,-6],[2,-8],[-22,-16],[-11,1],[-12,-16],[5,-29],[14,-13],[2,-17],[17,-47],[-26,-19],[-3,-21],[-18,-13],[2,-32],[-18,-10],[-5,-31],[-13,2],[0,-17],[15,-8],[-20,-17],[-10,-41],[24,-21],[9,-41],[14,-5],[7,-49],[21,-35],[-30,-57],[20,-16],[13,-30],[-11,-12],[13,-20],[-11,-8],[12,-16],[-8,-20],[-115,-39],[-58,-26],[-33,-22],[-20,-24],[1,-25],[24,-16],[-45,-38],[-16,-23],[-8,-38]],[[2951,1121],[-95,145]],[[2541,1888],[17,-13],[33,-11],[41,-6],[5,36],[24,-2],[50,-21],[25,18],[27,-7],[-12,27],[5,9],[31,1],[129,18],[31,21],[7,32],[-15,62],[5,39],[-4,38]],[[1767,2047],[-13,28],[-9,5],[26,72],[29,8],[12,22],[0,32],[-14,32],[11,22],[36,11],[13,-12],[42,-2],[27,11],[20,17],[10,22],[-19,28],[10,26],[41,25],[38,11],[11,-4],[41,19],[19,-5],[12,-27],[20,-11],[6,-32],[41,-8],[36,8],[48,17],[37,25],[40,36],[44,59]],[[1887,2338],[-17,0],[-29,-12],[-45,6],[-2,13],[52,11],[15,9],[23,-14],[3,-13]],[[506,2723],[25,-14],[4,-15],[-10,-28],[14,-13],[-20,-10],[-16,15],[0,12],[-26,12],[-1,39],[15,8],[15,-6]],[[2951,1121],[12,-26],[-3,-18],[12,-13],[6,-54],[8,-6],[-30,-52],[4,-28],[-12,-14],[-9,-36],[12,-30],[2,-34],[-32,-1],[-9,24],[-35,37],[-42,6],[-14,-25],[-41,-6],[0,31],[-22,21],[-39,27],[-34,15],[-41,0],[-6,-18],[-18,5],[-18,-25],[-14,25],[5,42],[-35,38],[-14,30],[-32,30],[-26,1],[1,14]],[[3057,82],[1,-28],[-17,-2],[-17,23],[-25,7],[-11,11],[-11,34],[10,12],[31,7],[26,-19],[13,-26],[0,-19]],[[2883,209],[9,-9],[25,-71],[9,-50],[-17,-27],[-4,-46],[-16,-6],[-23,49],[-19,13],[4,52],[10,26],[-10,36],[0,30],[32,3]],[[3026,365],[-6,5],[1,40],[14,-11],[2,-27],[-11,-7]],[[2693,606],[0,-9],[-23,3],[-6,-18],[-16,20],[29,11],[7,22],[9,-29]],[[2800,741],[33,-17],[35,1],[-3,-56],[14,-16],[3,-43],[7,-7],[11,-63],[9,-17],[23,1],[18,-31],[-15,-25],[-34,-15],[-29,-34],[-12,-3],[-9,-30],[-16,26],[9,39],[-8,30],[-16,30],[12,18],[-29,25],[-5,39],[-28,32],[-9,21],[-3,36],[29,10],[13,49]],[[2963,757],[16,-12],[5,-22],[-2,-46],[-57,2],[-8,13],[1,27],[13,40],[14,8],[18,-10]],[[2525,866],[-12,17],[9,24],[3,-41]],[[7107,6218],[18,18],[27,-28],[53,41],[23,23],[30,14],[2,12],[23,9],[13,22],[38,4],[19,18],[-36,44],[15,31],[11,1],[13,26],[25,30],[18,4],[4,23],[23,-1],[20,18],[0,40],[16,17],[0,22],[12,20],[-11,34],[-13,3],[4,26],[-15,19],[-4,39],[12,9],[13,30],[-19,9],[-1,28],[-24,33],[-12,6],[-2,23],[-34,9],[-30,-3],[-10,72],[0,29],[-20,12],[-36,5],[-2,15],[-51,8],[-53,1],[11,47],[-29,11],[12,28],[22,1],[0,50]],[[7182,7170],[47,-5],[18,-6],[7,26],[-14,48],[12,62],[-5,12],[-15,-7],[-17,18],[-9,50],[74,12],[17,10],[0,-14],[38,2],[37,-21]],[[7372,7357],[39,-7],[21,-10],[11,-21],[21,6],[4,-9],[46,-5],[4,6],[29,-9],[6,-16],[21,-2],[14,-22],[22,-14],[100,-18],[30,-14],[44,-47],[39,-29],[36,-21],[62,-15],[51,4],[25,-3],[42,-37],[56,-3],[75,-21],[46,-17],[28,-24]],[[8244,7009],[-44,-81],[-35,-52],[25,-9],[49,-30],[61,-46],[13,-53],[14,-8],[-10,-14],[15,-14],[-17,-12],[3,-18],[20,-13],[-2,-12],[38,-32],[24,13],[19,-19],[24,17],[39,-21],[-11,-41],[33,3],[-6,-39],[-10,-12],[8,-21],[-15,-19],[87,-41],[17,-11],[9,-21],[-1,-43],[10,-57],[14,-31],[14,-60],[16,-25],[17,-58],[-15,-32],[5,-45],[10,-23],[-17,-37],[61,7],[30,22],[26,-5],[-11,-61],[18,-36],[31,-16],[32,18],[17,-1],[14,26],[58,13],[86,12],[30,11],[56,8],[11,-50],[-6,-8],[11,-37]],[[9109,5895],[-11,-12],[-2,-31],[-41,2],[-19,-33],[-26,-14],[-42,-3],[-22,5],[-18,-16],[-62,-2],[-23,14],[-88,-43],[-33,-26],[21,-32],[3,-19],[-50,-54],[8,-6],[-2,-26],[-25,-56],[-3,-44],[-9,-17],[11,-50],[-28,-19],[2,-29],[-8,-30],[-15,-4],[-20,13],[-21,1],[-11,-36],[-47,-49],[-29,-22],[-10,2],[-30,-25],[-68,-13]],[[7182,7170],[-111,14],[-98,19],[7,35],[-24,39],[5,22],[50,45],[-55,35],[-42,21],[-17,19],[-17,34],[-34,48],[-20,17],[-33,16],[-60,19],[-4,20],[-15,10],[-18,31],[0,43],[25,17],[1,34],[11,10],[0,28],[15,15]],[[6748,7761],[37,1],[77,10],[64,20],[58,39],[15,26],[93,51],[23,38],[30,17],[14,27],[34,10],[58,-3],[51,-39],[25,-44],[36,-29],[52,-15],[66,-5],[23,-11],[53,31],[49,3],[52,-47],[25,-54],[17,-13]],[[7700,7774],[43,-47],[37,-29],[19,-22],[-15,-5],[-44,-33],[-31,-29],[-61,-21],[-53,-26],[-33,-23],[-41,4],[-87,-12],[-15,4],[-39,-11],[-23,9],[-48,-9],[35,-100],[19,-37],[9,-30]],[[5911,7771],[34,-10],[41,-5],[45,11],[22,15],[72,-15],[38,0],[50,-17],[36,-22],[38,-5],[57,6],[104,-70],[49,-39]],[[6497,7620],[-1,-43],[-36,-76],[-23,-16],[-46,-78],[-2,-33],[-9,-53],[32,-56],[21,3],[30,-6],[4,-52],[-16,-20],[-10,-28],[-49,11],[-16,-2],[13,-49],[0,-54],[23,-30],[12,-40]],[[6497,7620],[8,75],[12,1]],[[6517,7696],[39,-1],[17,16],[42,12],[11,-12],[25,0],[40,42],[57,8]],[[7700,7774],[16,6],[63,42],[60,26],[35,36],[27,21],[46,18],[77,35],[64,47],[10,11],[-2,35],[9,9],[46,16],[29,15],[35,3],[36,-8],[32,19],[15,21],[60,3],[25,-13],[13,6]],[[8396,8122],[7,-26],[-6,-31],[-13,-21],[29,-24],[-4,-45],[27,-21],[25,11],[19,-14],[4,-42],[-8,-20],[5,-29],[17,-49],[-2,-50],[18,-30],[5,-24],[12,-15],[22,-3],[6,-19],[-8,-38],[5,-18],[40,-14],[38,0],[16,22],[19,11],[23,-1],[28,-18],[5,-13],[-3,-66],[22,-24],[36,-17],[22,-20],[14,-45],[21,-7],[21,8],[16,-34],[1,-32],[9,-15],[26,0],[16,-10],[58,-20],[29,4],[17,20],[34,-4],[23,-37]],[[9087,7302],[-27,2],[-1,-20],[-48,-23],[-12,-16],[-21,-5],[-9,-37],[-21,-35],[-1,-37],[-7,-37],[-23,-47],[-34,2],[-22,-6],[-41,35],[-17,27],[1,26],[-8,10],[-44,-22],[-15,3],[-17,-11],[-51,-8],[-15,5],[-25,-16],[4,-37],[-55,-29],[-21,-5],[-6,-14],[-29,-25],[7,-28],[17,-11],[-7,-19],[-21,15],[-37,10],[-11,15],[-42,10],[-30,20],[-18,-14],[-54,-16],[-82,45]],[[9087,7302],[37,-18],[55,2],[31,-26],[22,-7],[23,3],[24,-27],[32,-20],[14,-20],[35,-9],[9,-22],[30,-30],[13,-24],[21,-13],[72,-7],[17,-6],[9,-16],[12,-51],[22,-72],[8,-14],[31,-26],[66,-32],[7,-9],[25,-74],[8,-36],[5,-58],[6,-18],[48,-76],[66,-47],[8,-11],[14,-47],[35,-27],[43,-9],[10,-39],[-2,-60],[-7,-16],[39,-101],[24,-24],[-1,-34],[-23,-19],[6,-40],[-14,-18],[-6,-46],[-50,-20],[-44,2],[-21,-3],[-24,-33],[-20,-40],[-15,-8],[3,-18],[-10,-32],[-32,-3],[-24,14],[-78,6],[-19,9],[-25,31],[-29,25],[-42,-21],[-15,4],[-22,18],[-38,-10],[-14,39],[-20,2],[-9,25],[-31,-13],[-32,10],[-13,20],[-45,-9],[-28,-21],[-48,-5],[-10,-53],[-55,-44],[-17,-23],[-25,-12]],[[6714,8837],[24,19],[18,25],[24,2],[33,12],[7,-5],[52,-1],[75,48],[20,4],[77,-17],[54,-20],[12,-11],[5,-35],[-15,-32],[-37,-40],[-15,-23],[-2,-50],[64,13],[28,-15],[41,31],[10,-1],[107,-64],[13,13],[37,17],[36,-55],[30,-4],[30,2],[22,-28],[45,-15],[1,-14],[45,-41],[13,10],[77,-54],[-1,-15],[14,-14],[34,26],[13,28],[14,11],[6,34],[33,14],[20,-2],[-9,25],[14,8],[44,12],[34,26],[13,-13],[25,-42],[13,-32],[-7,-21],[-31,-23],[-3,-24],[16,-14],[13,-24],[20,-11],[37,-54],[14,-58],[68,-5],[18,7],[15,18],[12,39],[24,28],[6,19],[17,11],[47,4],[58,22],[14,11],[16,-13],[2,-30],[-14,-9],[0,-29],[10,-33],[20,-11],[13,3],[20,-23],[28,-46],[1,-15],[26,-56],[22,-18],[-4,-39],[21,-39],[-15,-19]],[[6517,7696],[-15,39],[4,23],[-1,48],[8,65],[24,26],[6,40],[12,19],[4,24],[-27,65],[7,26],[-13,2],[-20,30],[-26,24],[-11,32],[-23,20],[-22,34],[-27,3],[-6,13],[-25,9],[-6,19],[-26,-4],[-25,27],[-27,3],[-17,-8],[-21,10],[-29,-2],[-20,7],[1,45],[13,41],[16,26],[6,25],[-14,19],[-3,26],[51,19],[20,39],[7,27]]],"transform":{"scale":[0.00010724622942294427,0.00010815556755675402],"translate":[100.64686028100004,12.507871481000052]},"objects":{"Chon Buri":{"type":"GeometryCollection","geometries":[{"arcs":[[0,1,2]],"type":"Polygon","properties":{"Shape_Leng":0.0727449893636,"Shape_Area":0.000202229994105,"ADM3_EN":"Bang Pla Soi","ADM3_TH":"บางปลาสร้อย","ADM3_PCODE":"TH200101","ADM2_EN":"Mueang Chon Buri","ADM2_TH":"เมืองชลบุรี","ADM2_PCODE":"TH2001","ADM1_EN":"Chon Buri","ADM1_TH":"ชลบุรี","ADM1_PCODE":"TH20","ADM0_EN":"Thailand","ADM0_TH":"ประเทศไทย","ADM0_PCODE":"TH"}},{"arcs":[[-2,3,4,5]],"type":"Polygon","properties":{"Shape_Leng":0.055454450445,"Shape_Area":0.000038913353502,"ADM3_EN":"Makham Yong","ADM3_TH":"มะขามหย่ง","ADM3_PCODE":"TH200102","ADM2_EN":"Mueang Chon Buri","ADM2_TH":"เมืองชลบุรี","ADM2_PCODE":"TH2001","ADM1_EN":"Chon Buri","ADM1_TH":"ชลบุรี","ADM1_PCODE":"TH20","ADM0_EN":"Thailand","ADM0_TH":"ประเทศไทย","ADM0_PCODE":"TH"}},{"arcs":[[-5,6,7,8]],"type":"Polygon","properties":{"Shape_Leng":0.054078904003,"Shape_Area":0.000066589399385,"ADM3_EN":"Ban Khot","ADM3_TH":"บ้านโขด","ADM3_PCODE":"TH200103","ADM2_EN":"Mueang Chon Buri","ADM2_TH":"เมืองชลบุรี","ADM2_PCODE":"TH2001","ADM1_EN":"Chon Buri","ADM1_TH":"ชลบุรี","ADM1_PCODE":"TH20","ADM0_EN":"Thailand","ADM0_TH":"ประเทศไทย","ADM0_PCODE":"TH"}},{"arcs":[[9,10,11,12,13,14,15]],"type":"Polygon","properties":{"Shape_Leng":0.255483625871,"Shape_Area":0.0012888097002,"ADM3_EN":"Saen Suk","ADM3_TH":"แสนสุข","ADM3_PCODE":"TH200104","ADM2_EN":"Mueang Chon Buri","ADM2_TH":"เมืองชลบุรี","ADM2_PCODE":"TH2001","ADM1_EN":"Chon Buri","ADM1_TH":"ชลบุรี","ADM1_PCODE":"TH20","ADM0_EN":"Thailand","ADM0_TH":"ประเทศไทย","ADM0_PCODE":"TH"}},{"arcs":[[-3,-6,-9,16,17,18,19,20,21,22]],"type":"Polygon","properties":{"Shape_Leng":0.230806658551,"Shape_Area":0.00140230897846,"ADM3_EN":"Ban Suan","ADM3_TH":"บ้านสวน","ADM3_PCODE":"TH200105","ADM2_EN":"Mueang Chon Buri","ADM2_TH":"เมืองชลบุรี","ADM2_PCODE":"TH2001","ADM1_EN":"Chon Buri","ADM1_TH":"ชลบุรี","ADM1_PCODE":"TH20","ADM0_EN":"Thailand","ADM0_TH":"ประเทศไทย","ADM0_PCODE":"TH"}},{"arcs":[[-19,23,24,25,26,27]],"type":"Polygon","properties":{"Shape_Leng":0.337847541766,"Shape_Area":0.00349955379987,"ADM3_EN":"Nong Ri","ADM3_TH":"หนองรี","ADM3_PCODE":"TH200106","ADM2_EN":"Mueang Chon Buri","ADM2_TH":"เมืองชลบุรี","ADM2_PCODE":"TH2001","ADM1_EN":"Chon Buri","ADM1_TH":"ชลบุรี","ADM1_PCODE":"TH20","ADM0_EN":"Thailand","ADM0_TH":"ประเทศไทย","ADM0_PCODE":"TH"}},{"arcs":[[-18,28,29,30,31,32,33,-24]],"type":"Polygon","properties":{"Shape_Leng":0.265829297835,"Shape_Area":0.00195396950886,"ADM3_EN":"Na Pa","ADM3_TH":"นาป่า","ADM3_PCODE":"TH200107","ADM2_EN":"Mueang Chon Buri","ADM2_TH":"เมืองชลบุรี","ADM2_PCODE":"TH2001","ADM1_EN":"Chon Buri","ADM1_TH":"ชลบุรี","ADM1_PCODE":"TH20","ADM0_EN":"Thailand","ADM0_TH":"ประเทศไทย","ADM0_PCODE":"TH"}},{"arcs":[[-20,-28,34,35,36]],"type":"Polygon","properties":{"Shape_Leng":0.227028100068,"Shape_Area":0.00253377383837,"ADM3_EN":"Nong Khang Khok","ADM3_TH":"หนองข้างคอก","ADM3_PCODE":"TH200108","ADM2_EN":"Mueang Chon Buri","ADM2_TH":"เมืองชลบุรี","ADM2_PCODE":"TH2001","ADM1_EN":"Chon Buri","ADM1_TH":"ชลบุรี","ADM1_PCODE":"TH20","ADM0_EN":"Thailand","ADM0_TH":"ประเทศไทย","ADM0_PCODE":"TH"}},{"arcs":[[-31,37,38,39,40,41]],"type":"Polygon","properties":{"Shape_Leng":0.219074464988,"Shape_Area":0.00128775287861,"ADM3_EN":"Don Hua Lo","ADM3_TH":"ดอนหัวฬ่อ","ADM3_PCODE":"TH200109","ADM2_EN":"Mueang Chon Buri","ADM2_TH":"เมืองชลบุรี","ADM2_PCODE":"TH2001","ADM1_EN":"Chon Buri","ADM1_TH":"ชลบุรี","ADM1_PCODE":"TH20","ADM0_EN":"Thailand","ADM0_TH":"ประเทศไทย","ADM0_PCODE":"TH"}},{"arcs":[[-30,42,43,44,-38]],"type":"Polygon","properties":{"Shape_Leng":0.157134094482,"Shape_Area":0.000992343291356,"ADM3_EN":"Nong Mai Daeng","ADM3_TH":"หนองไม้แดง","ADM3_PCODE":"TH200110","ADM2_EN":"Mueang Chon Buri","ADM2_TH":"เมืองชลบุรี","ADM2_PCODE":"TH2001","ADM1_EN":"Chon Buri","ADM1_TH":"ชลบุรี","ADM1_PCODE":"TH20","ADM0_EN":"Thailand","ADM0_TH":"ประเทศไทย","ADM0_PCODE":"TH"}},{"arcs":[[-8,45,-43,-29,-17]],"type":"Polygon","properties":{"Shape_Leng":0.0768984988605,"Shape_Area":0.000211736166517,"ADM3_EN":"Bang Sai","ADM3_TH":"บางทราย","ADM3_PCODE":"TH200111","ADM2_EN":"Mueang Chon Buri","ADM2_TH":"เมืองชลบุรี","ADM2_PCODE":"TH2001","ADM1_EN":"Chon Buri","ADM1_TH":"ชลบุรี","ADM1_PCODE":"TH20","ADM0_EN":"Thailand","ADM0_TH":"ประเทศไทย","ADM0_PCODE":"TH"}},{"arcs":[[-39,-45,46,47]],"type":"Polygon","properties":{"Shape_Leng":0.24040691135,"Shape_Area":0.00229007936698,"ADM3_EN":"Khlong Tamru","ADM3_TH":"คลองตำหรุ","ADM3_PCODE":"TH200112","ADM2_EN":"Mueang Chon Buri","ADM2_TH":"เมืองชลบุรี","ADM2_PCODE":"TH2001","ADM1_EN":"Chon Buri","ADM1_TH":"ชลบุรี","ADM1_PCODE":"TH20","ADM0_EN":"Thailand","ADM0_TH":"ประเทศไทย","ADM0_PCODE":"TH"}},{"arcs":[[-14,48,-36,49]],"type":"Polygon","properties":{"Shape_Leng":0.23054721409,"Shape_Area":0.00187458965604,"ADM3_EN":"Mueang","ADM3_TH":"เหมือง","ADM3_PCODE":"TH200113","ADM2_EN":"Mueang Chon Buri","ADM2_TH":"เมืองชลบุรี","ADM2_PCODE":"TH2001","ADM1_EN":"Chon Buri","ADM1_TH":"ชลบุรี","ADM1_PCODE":"TH20","ADM0_EN":"Thailand","ADM0_TH":"ประเทศไทย","ADM0_PCODE":"TH"}},{"arcs":[[-11,50,51]],"type":"Polygon","properties":{"Shape_Leng":0.089098842416,"Shape_Area":0.000261280773612,"ADM3_EN":"Ban Puek","ADM3_TH":"บ้านปึก","ADM3_PCODE":"TH200114","ADM2_EN":"Mueang Chon Buri","ADM2_TH":"เมืองชลบุรี","ADM2_PCODE":"TH2001","ADM1_EN":"Chon Buri","ADM1_TH":"ชลบุรี","ADM1_PCODE":"TH20","ADM0_EN":"Thailand","ADM0_TH":"ประเทศไทย","ADM0_PCODE":"TH"}},{"arcs":[[-13,52,-21,-37,-49]],"type":"Polygon","properties":{"Shape_Leng":0.198363230272,"Shape_Area":0.00171797751635,"ADM3_EN":"Huai Kapi","ADM3_TH":"ห้วยกะปิ","ADM3_PCODE":"TH200115","ADM2_EN":"Mueang Chon Buri","ADM2_TH":"เมืองชลบุรี","ADM2_PCODE":"TH2001","ADM1_EN":"Chon Buri","ADM1_TH":"ชลบุรี","ADM1_PCODE":"TH20","ADM0_EN":"Thailand","ADM0_TH":"ประเทศไทย","ADM0_PCODE":"TH"}},{"arcs":[[-12,-52,53,54,-22,-53]],"type":"Polygon","properties":{"Shape_Leng":0.186121412142,"Shape_Area":0.00120306170258,"ADM3_EN":"Samet","ADM3_TH":"เสม็ด","ADM3_PCODE":"TH200116","ADM2_EN":"Mueang Chon Buri","ADM2_TH":"เมืองชลบุรี","ADM2_PCODE":"TH2001","ADM1_EN":"Chon Buri","ADM1_TH":"ชลบุรี","ADM1_PCODE":"TH20","ADM0_EN":"Thailand","ADM0_TH":"ประเทศไทย","ADM0_PCODE":"TH"}},{"arcs":[[-10,55,-54,-51]],"type":"Polygon","properties":{"Shape_Leng":0.101623707901,"Shape_Area":0.000437779515498,"ADM3_EN":"Ang Sila","ADM3_TH":"อ่างศิลา","ADM3_PCODE":"TH200117","ADM2_EN":"Mueang Chon Buri","ADM2_TH":"เมืองชลบุรี","ADM2_PCODE":"TH2001","ADM1_EN":"Chon Buri","ADM1_TH":"ชลบุรี","ADM1_PCODE":"TH20","ADM0_EN":"Thailand","ADM0_TH":"ประเทศไทย","ADM0_PCODE":"TH"}},{"arcs":[[-33,56,57,58]],"type":"Polygon","properties":{"Shape_Leng":0.139388719441,"Shape_Area":0.00052689481224,"ADM3_EN":"Samnak Bok","ADM3_TH":"สำนักบก","ADM3_PCODE":"TH200118","ADM2_EN":"Mueang Chon Buri","ADM2_TH":"เมืองชลบุรี","ADM2_PCODE":"TH2001","ADM1_EN":"Chon Buri","ADM1_TH":"ชลบุรี","ADM1_PCODE":"TH20","ADM0_EN":"Thailand","ADM0_TH":"ประเทศไทย","ADM0_PCODE":"TH"}},{"arcs":[[-26,59,60,61,62,63,64]],"type":"Polygon","properties":{"Shape_Leng":0.375692932057,"Shape_Area":0.00460320802387,"ADM3_EN":"Ban Bueng","ADM3_TH":"บ้านบึง","ADM3_PCODE":"TH200201","ADM2_EN":"Ban Bueng","ADM2_TH":"บ้านบึง","ADM2_PCODE":"TH2002","ADM1_EN":"Chon Buri","ADM1_TH":"ชลบุรี","ADM1_PCODE":"TH20","ADM0_EN":"Thailand","ADM0_TH":"ประเทศไทย","ADM0_PCODE":"TH"}},{"arcs":[[-64,65,66,67,68,69,70,71]],"type":"Polygon","properties":{"Shape_Leng":0.749718591267,"Shape_Area":0.0187896910268,"ADM3_EN":"Khlong Kio","ADM3_TH":"คลองกิ่ว","ADM3_PCODE":"TH200202","ADM2_EN":"Ban Bueng","ADM2_TH":"บ้านบึง","ADM2_PCODE":"TH2002","ADM1_EN":"Chon Buri","ADM1_TH":"ชลบุรี","ADM1_PCODE":"TH20","ADM0_EN":"Thailand","ADM0_TH":"ประเทศไทย","ADM0_PCODE":"TH"}},{"arcs":[[-58,72,73,74,-61,75]],"type":"Polygon","properties":{"Shape_Leng":0.269223727354,"Shape_Area":0.00209190828207,"ADM3_EN":"Map Phai","ADM3_TH":"มาบไผ่","ADM3_PCODE":"TH200203","ADM2_EN":"Ban Bueng","ADM2_TH":"บ้านบึง","ADM2_PCODE":"TH2002","ADM1_EN":"Chon Buri","ADM1_TH":"ชลบุรี","ADM1_PCODE":"TH20","ADM0_EN":"Thailand","ADM0_TH":"ประเทศไทย","ADM0_PCODE":"TH"}},{"arcs":[[-25,-34,-59,-76,-60]],"type":"Polygon","properties":{"Shape_Leng":0.326017263606,"Shape_Area":0.0016417619648,"ADM3_EN":"Nong Samsak","ADM3_TH":"หนองซ้ำซาก","ADM3_PCODE":"TH200204","ADM2_EN":"Ban Bueng","ADM2_TH":"บ้านบึง","ADM2_PCODE":"TH2002","ADM1_EN":"Chon Buri","ADM1_TH":"ชลบุรี","ADM1_PCODE":"TH20","ADM0_EN":"Thailand","ADM0_TH":"ประเทศไทย","ADM0_PCODE":"TH"}},{"arcs":[[-62,-75,76,77,78,79,80,81]],"type":"Polygon","properties":{"Shape_Leng":0.30707290126,"Shape_Area":0.00278543897312,"ADM3_EN":"Nong Bon Daeng","ADM3_TH":"หนองบอนแดง","ADM3_PCODE":"TH200205","ADM2_EN":"Ban Bueng","ADM2_TH":"บ้านบึง","ADM2_PCODE":"TH2002","ADM1_EN":"Chon Buri","ADM1_TH":"ชลบุรี","ADM1_PCODE":"TH20","ADM0_EN":"Thailand","ADM0_TH":"ประเทศไทย","ADM0_PCODE":"TH"}},{"arcs":[[-63,-82,82,-66]],"type":"Polygon","properties":{"Shape_Leng":0.269961200289,"Shape_Area":0.00334542559273,"ADM3_EN":"Nong Chak","ADM3_TH":"หนองชาก","ADM3_PCODE":"TH200206","ADM2_EN":"Ban Bueng","ADM2_TH":"บ้านบึง","ADM2_PCODE":"TH2002","ADM1_EN":"Chon Buri","ADM1_TH":"ชลบุรี","ADM1_PCODE":"TH20","ADM0_EN":"Thailand","ADM0_TH":"ประเทศไทย","ADM0_PCODE":"TH"}},{"arcs":[[-67,-83,-81,83,84,85,86]],"type":"Polygon","properties":{"Shape_Leng":0.596555210282,"Shape_Area":0.0103737041345,"ADM3_EN":"Nong I Run","ADM3_TH":"หนองอิรุณ","ADM3_PCODE":"TH200207","ADM2_EN":"Ban Bueng","ADM2_TH":"บ้านบึง","ADM2_PCODE":"TH2002","ADM1_EN":"Chon Buri","ADM1_TH":"ชลบุรี","ADM1_PCODE":"TH20","ADM0_EN":"Thailand","ADM0_TH":"ประเทศไทย","ADM0_PCODE":"TH"}},{"arcs":[[-68,-87,87,88]],"type":"Polygon","properties":{"Shape_Leng":0.419886606383,"Shape_Area":0.00570125886629,"ADM3_EN":"Nong Phai Kaeo","ADM3_TH":"หนองไผ่แก้ว","ADM3_PCODE":"TH200208","ADM2_EN":"Ban Bueng","ADM2_TH":"บ้านบึง","ADM2_PCODE":"TH2002","ADM1_EN":"Chon Buri","ADM1_TH":"ชลบุรี","ADM1_PCODE":"TH20","ADM0_EN":"Thailand","ADM0_TH":"ประเทศไทย","ADM0_PCODE":"TH"}},{"arcs":[[89,90,91,92,93,94]],"type":"Polygon","properties":{"Shape_Leng":0.539623331711,"Shape_Area":0.00926511347172,"ADM3_EN":"Nong Yai","ADM3_TH":"หนองใหญ่","ADM3_PCODE":"TH200301","ADM2_EN":"Nong Yai","ADM2_TH":"หนองใหญ่","ADM2_PCODE":"TH2003","ADM1_EN":"Chon Buri","ADM1_TH":"ชลบุรี","ADM1_PCODE":"TH20","ADM0_EN":"Thailand","ADM0_TH":"ประเทศไทย","ADM0_PCODE":"TH"}},{"arcs":[[-91,95,96,97]],"type":"Polygon","properties":{"Shape_Leng":0.514897230437,"Shape_Area":0.00598452075536,"ADM3_EN":"Khlong Phlu","ADM3_TH":"คลองพลู","ADM3_PCODE":"TH200302","ADM2_EN":"Nong Yai","ADM2_TH":"หนองใหญ่","ADM2_PCODE":"TH2003","ADM1_EN":"Chon Buri","ADM1_TH":"ชลบุรี","ADM1_PCODE":"TH20","ADM0_EN":"Thailand","ADM0_TH":"ประเทศไทย","ADM0_PCODE":"TH"}},{"arcs":[[-69,-89,98,-93,99,100,101]],"type":"Polygon","properties":{"Shape_Leng":0.523968735228,"Shape_Area":0.00854119924695,"ADM3_EN":"Nong Suea Chang","ADM3_TH":"หนองเสือช้าง","ADM3_PCODE":"TH200303","ADM2_EN":"Nong Yai","ADM2_TH":"หนองใหญ่","ADM2_PCODE":"TH2003","ADM1_EN":"Chon Buri","ADM1_TH":"ชลบุรี","ADM1_PCODE":"TH20","ADM0_EN":"Thailand","ADM0_TH":"ประเทศไทย","ADM0_PCODE":"TH"}},{"arcs":[[-86,102,103,-94,-99,-88]],"type":"Polygon","properties":{"Shape_Leng":0.505077845232,"Shape_Area":0.00496808960597,"ADM3_EN":"Hang Sung","ADM3_TH":"ห้างสูง","ADM3_PCODE":"TH200304","ADM2_EN":"Nong Yai","ADM2_TH":"หนองใหญ่","ADM2_PCODE":"TH2003","ADM1_EN":"Chon Buri","ADM1_TH":"ชลบุรี","ADM1_PCODE":"TH20","ADM0_EN":"Thailand","ADM0_TH":"ประเทศไทย","ADM0_PCODE":"TH"}},{"arcs":[[-92,-98,104,-100]],"type":"Polygon","properties":{"Shape_Leng":0.73837590066,"Shape_Area":0.00928382112227,"ADM3_EN":"Khao Sok","ADM3_TH":"เขาซก","ADM3_PCODE":"TH200305","ADM2_EN":"Nong Yai","ADM2_TH":"หนองใหญ่","ADM2_PCODE":"TH2003","ADM1_EN":"Chon Buri","ADM1_TH":"ชลบุรี","ADM1_PCODE":"TH20","ADM0_EN":"Thailand","ADM0_TH":"ประเทศไทย","ADM0_PCODE":"TH"}},{"arcs":[[105,106,107,108,109,110,111]],"type":"Polygon","properties":{"Shape_Leng":0.253757295311,"Shape_Area":0.00222713298532,"ADM3_EN":"Bang Lamung","ADM3_TH":"บางละมุง","ADM3_PCODE":"TH200401","ADM2_EN":"Bang Lamung","ADM2_TH":"บางละมุง","ADM2_PCODE":"TH2004","ADM1_EN":"Chon Buri","ADM1_TH":"ชลบุรี","ADM1_PCODE":"TH20","ADM0_EN":"Thailand","ADM0_TH":"ประเทศไทย","ADM0_PCODE":"TH"}},{"arcs":[[112,113,114,115,116,117]],"type":"Polygon","properties":{"Shape_Leng":0.442007208758,"Shape_Area":0.00696976336967,"ADM3_EN":"Nong Prue","ADM3_TH":"หนองปรือ","ADM3_PCODE":"TH200402","ADM2_EN":"Bang Lamung","ADM2_TH":"บางละมุง","ADM2_PCODE":"TH2004","ADM1_EN":"Chon Buri","ADM1_TH":"ชลบุรี","ADM1_PCODE":"TH20","ADM0_EN":"Thailand","ADM0_TH":"ประเทศไทย","ADM0_PCODE":"TH"}},{"arcs":[[-107,118,119,-118,120]],"type":"Polygon","properties":{"Shape_Leng":0.334855139494,"Shape_Area":0.00239986897543,"ADM3_EN":"Nong Pla Lai","ADM3_TH":"หนองปลาไหล","ADM3_PCODE":"TH200403","ADM2_EN":"Bang Lamung","ADM2_TH":"บางละมุง","ADM2_PCODE":"TH2004","ADM1_EN":"Chon Buri","ADM1_TH":"ชลบุรี","ADM1_PCODE":"TH20","ADM0_EN":"Thailand","ADM0_TH":"ประเทศไทย","ADM0_PCODE":"TH"}},{"arcs":[[-113,-120,121,122,123]],"type":"Polygon","properties":{"Shape_Leng":0.524871718704,"Shape_Area":0.00621850418759,"ADM3_EN":"Pong","ADM3_TH":"โป่ง","ADM3_PCODE":"TH200404","ADM2_EN":"Bang Lamung","ADM2_TH":"บางละมุง","ADM2_PCODE":"TH2004","ADM1_EN":"Chon Buri","ADM1_TH":"ชลบุรี","ADM1_PCODE":"TH20","ADM0_EN":"Thailand","ADM0_TH":"ประเทศไทย","ADM0_PCODE":"TH"}},{"arcs":[[-122,124,125]],"type":"Polygon","properties":{"Shape_Leng":0.435743997251,"Shape_Area":0.00647891473054,"ADM3_EN":"Khao Mai Kaeo","ADM3_TH":"เขาไม้แก้ว","ADM3_PCODE":"TH200405","ADM2_EN":"Bang Lamung","ADM2_TH":"บางละมุง","ADM2_PCODE":"TH2004","ADM1_EN":"Chon Buri","ADM1_TH":"ชลบุรี","ADM1_PCODE":"TH20","ADM0_EN":"Thailand","ADM0_TH":"ประเทศไทย","ADM0_PCODE":"TH"}},{"arcs":[[-114,-124,126,127,128]],"type":"Polygon","properties":{"Shape_Leng":0.552565463603,"Shape_Area":0.0136393751338,"ADM3_EN":"Huai Yai","ADM3_TH":"ห้วยใหญ่","ADM3_PCODE":"TH200406","ADM2_EN":"Bang Lamung","ADM2_TH":"บางละมุง","ADM2_PCODE":"TH2004","ADM1_EN":"Chon Buri","ADM1_TH":"ชลบุรี","ADM1_PCODE":"TH20","ADM0_EN":"Thailand","ADM0_TH":"ประเทศไทย","ADM0_PCODE":"TH"}},{"arcs":[[-106,129,130,131,-125,-119]],"type":"Polygon","properties":{"Shape_Leng":0.489702037766,"Shape_Area":0.0049980158138,"ADM3_EN":"Takhian Tia","ADM3_TH":"ตะเคียนเตี้ย","ADM3_PCODE":"TH200407","ADM2_EN":"Bang Lamung","ADM2_TH":"บางละมุง","ADM2_PCODE":"TH2004","ADM1_EN":"Chon Buri","ADM1_TH":"ชลบุรี","ADM1_PCODE":"TH20","ADM0_EN":"Thailand","ADM0_TH":"ประเทศไทย","ADM0_PCODE":"TH"}},{"arcs":[[[-108,-121,-117,132]],[[133]],[[134]],[[135]],[[136]],[[137]],[[138]],[[139]],[[140]]],"type":"MultiPolygon","properties":{"Shape_Leng":0.568837647984,"Shape_Area":0.00259227980507,"ADM3_EN":"Na Kluea","ADM3_TH":"นาเกลือ","ADM3_PCODE":"TH200408","ADM2_EN":"Bang Lamung","ADM2_TH":"บางละมุง","ADM2_PCODE":"TH2004","ADM1_EN":"Chon Buri","ADM1_TH":"ชลบุรี","ADM1_PCODE":"TH20","ADM0_EN":"Thailand","ADM0_TH":"ประเทศไทย","ADM0_PCODE":"TH"}},{"arcs":[[141,142,143,144,145,146]],"type":"Polygon","properties":{"Shape_Leng":0.224419800419,"Shape_Area":0.00125192206636,"ADM3_EN":"Phan Thong","ADM3_TH":"พานทอง","ADM3_PCODE":"TH200501","ADM2_EN":"Phan Thong","ADM2_TH":"พานทอง","ADM2_PCODE":"TH2005","ADM1_EN":"Chon Buri","ADM1_TH":"ชลบุรี","ADM1_PCODE":"TH20","ADM0_EN":"Thailand","ADM0_TH":"ประเทศไทย","ADM0_PCODE":"TH"}},{"arcs":[[-32,-42,147,148,-73,-57]],"type":"Polygon","properties":{"Shape_Leng":0.205394482134,"Shape_Area":0.00166113389033,"ADM3_EN":"Nong Tamlueng","ADM3_TH":"หนองตำลึง","ADM3_PCODE":"TH200502","ADM2_EN":"Phan Thong","ADM2_TH":"พานทอง","ADM2_PCODE":"TH2005","ADM1_EN":"Chon Buri","ADM1_TH":"ชลบุรี","ADM1_PCODE":"TH20","ADM0_EN":"Thailand","ADM0_TH":"ประเทศไทย","ADM0_PCODE":"TH"}},{"arcs":[[-143,149,150,151,152]],"type":"Polygon","properties":{"Shape_Leng":0.205595187428,"Shape_Area":0.00155744643156,"ADM3_EN":"Map Pong","ADM3_TH":"มาบโป่ง","ADM3_PCODE":"TH200503","ADM2_EN":"Phan Thong","ADM2_TH":"พานทอง","ADM2_PCODE":"TH2005","ADM1_EN":"Chon Buri","ADM1_TH":"ชลบุรี","ADM1_PCODE":"TH20","ADM0_EN":"Thailand","ADM0_TH":"ประเทศไทย","ADM0_PCODE":"TH"}},{"arcs":[[-41,-144,-153,153,-148]],"type":"Polygon","properties":{"Shape_Leng":0.159466484718,"Shape_Area":0.000928960710931,"ADM3_EN":"Nong Kakha","ADM3_TH":"หนองกะขะ","ADM3_PCODE":"TH200504","ADM2_EN":"Phan Thong","ADM2_TH":"พานทอง","ADM2_PCODE":"TH2005","ADM1_EN":"Chon Buri","ADM1_TH":"ชลบุรี","ADM1_PCODE":"TH20","ADM0_EN":"Thailand","ADM0_TH":"ประเทศไทย","ADM0_PCODE":"TH"}},{"arcs":[[-74,-149,-154,-152,154,-77]],"type":"Polygon","properties":{"Shape_Leng":0.225198760332,"Shape_Area":0.00123772779805,"ADM3_EN":"Nong Hong","ADM3_TH":"หนองหงษ์","ADM3_PCODE":"TH200505","ADM2_EN":"Phan Thong","ADM2_TH":"พานทอง","ADM2_PCODE":"TH2005","ADM1_EN":"Chon Buri","ADM1_TH":"ชลบุรี","ADM1_PCODE":"TH20","ADM0_EN":"Thailand","ADM0_TH":"ประเทศไทย","ADM0_PCODE":"TH"}},{"arcs":[[155,156,157,158,159]],"type":"Polygon","properties":{"Shape_Leng":0.17410852998,"Shape_Area":0.00104953090336,"ADM3_EN":"Khok Khi Non","ADM3_TH":"โคกขี้หนอน","ADM3_PCODE":"TH200506","ADM2_EN":"Phan Thong","ADM2_TH":"พานทอง","ADM2_PCODE":"TH2005","ADM1_EN":"Chon Buri","ADM1_TH":"ชลบุรี","ADM1_PCODE":"TH20","ADM0_EN":"Thailand","ADM0_TH":"ประเทศไทย","ADM0_PCODE":"TH"}},{"arcs":[[-40,-48,160,161,-145]],"type":"Polygon","properties":{"Shape_Leng":0.240085417081,"Shape_Area":0.00134323378167,"ADM3_EN":"Ban Kao","ADM3_TH":"บ้านเก่า","ADM3_PCODE":"TH200507","ADM2_EN":"Phan Thong","ADM2_TH":"พานทอง","ADM2_PCODE":"TH2005","ADM1_EN":"Chon Buri","ADM1_TH":"ชลบุรี","ADM1_PCODE":"TH20","ADM0_EN":"Thailand","ADM0_TH":"ประเทศไทย","ADM0_PCODE":"TH"}},{"arcs":[[-147,162,163,-158,164,165,166]],"type":"Polygon","properties":{"Shape_Leng":0.260043475668,"Shape_Area":0.00110504801304,"ADM3_EN":"Na Pradu","ADM3_TH":"หน้าประดู่","ADM3_PCODE":"TH200508","ADM2_EN":"Phan Thong","ADM2_TH":"พานทอง","ADM2_PCODE":"TH2005","ADM1_EN":"Chon Buri","ADM1_TH":"ชลบุรี","ADM1_PCODE":"TH20","ADM0_EN":"Thailand","ADM0_TH":"ประเทศไทย","ADM0_PCODE":"TH"}},{"arcs":[[-146,-162,167,168,-163]],"type":"Polygon","properties":{"Shape_Leng":0.31341053166,"Shape_Area":0.00198180427123,"ADM3_EN":"Bang Nang","ADM3_TH":"บางนาง","ADM3_PCODE":"TH200509","ADM2_EN":"Phan Thong","ADM2_TH":"พานทอง","ADM2_PCODE":"TH2005","ADM1_EN":"Chon Buri","ADM1_TH":"ชลบุรี","ADM1_PCODE":"TH20","ADM0_EN":"Thailand","ADM0_TH":"ประเทศไทย","ADM0_PCODE":"TH"}},{"arcs":[[-159,-164,-169,169,170,171]],"type":"Polygon","properties":{"Shape_Leng":0.2187177432,"Shape_Area":0.00102134860951,"ADM3_EN":"Ko Loi","ADM3_TH":"เกาะลอย","ADM3_PCODE":"TH200510","ADM2_EN":"Phan Thong","ADM2_TH":"พานทอง","ADM2_PCODE":"TH2005","ADM1_EN":"Chon Buri","ADM1_TH":"ชลบุรี","ADM1_PCODE":"TH20","ADM0_EN":"Thailand","ADM0_TH":"ประเทศไทย","ADM0_PCODE":"TH"}},{"arcs":[[-171,172]],"type":"Polygon","properties":{"Shape_Leng":0.157020698125,"Shape_Area":0.000651309739124,"ADM3_EN":"Bang Hak","ADM3_TH":"บางหัก","ADM3_PCODE":"TH200511","ADM2_EN":"Phan Thong","ADM2_TH":"พานทอง","ADM2_PCODE":"TH2005","ADM1_EN":"Chon Buri","ADM1_TH":"ชลบุรี","ADM1_PCODE":"TH20","ADM0_EN":"Thailand","ADM0_TH":"ประเทศไทย","ADM0_PCODE":"TH"}},{"arcs":[[173,174,175]],"type":"Polygon","properties":{"Shape_Leng":0.060919787929,"Shape_Area":0.000219809467333,"ADM3_EN":"Phanat Nikhom","ADM3_TH":"พนัสนิคม","ADM3_PCODE":"TH200601","ADM2_EN":"Phanat Nikhom","ADM2_TH":"พนัสนิคม","ADM2_PCODE":"TH2006","ADM1_EN":"Chon Buri","ADM1_TH":"ชลบุรี","ADM1_PCODE":"TH20","ADM0_EN":"Thailand","ADM0_TH":"ประเทศไทย","ADM0_PCODE":"TH"}},{"arcs":[[-142,-167,176,177,178,179]],"type":"Polygon","properties":{"Shape_Leng":0.164093252729,"Shape_Area":0.00114674732459,"ADM3_EN":"Na Phrathat","ADM3_TH":"หน้าพระธาตุ","ADM3_PCODE":"TH200602","ADM2_EN":"Phanat Nikhom","ADM2_TH":"พนัสนิคม","ADM2_PCODE":"TH2006","ADM1_EN":"Chon Buri","ADM1_TH":"ชลบุรี","ADM1_PCODE":"TH20","ADM0_EN":"Thailand","ADM0_TH":"ประเทศไทย","ADM0_PCODE":"TH"}},{"arcs":[[180,181,182,183,184]],"type":"Polygon","properties":{"Shape_Leng":0.166653184274,"Shape_Area":0.000870938811289,"ADM3_EN":"Wat Luang","ADM3_TH":"วัดหลวง","ADM3_PCODE":"TH200603","ADM2_EN":"Phanat Nikhom","ADM2_TH":"พนัสนิคม","ADM2_PCODE":"TH2006","ADM1_EN":"Chon Buri","ADM1_TH":"ชลบุรี","ADM1_PCODE":"TH20","ADM0_EN":"Thailand","ADM0_TH":"ประเทศไทย","ADM0_PCODE":"TH"}},{"arcs":[[-150,-180,185,186,187]],"type":"Polygon","properties":{"Shape_Leng":0.121382050471,"Shape_Area":0.000451798347979,"ADM3_EN":"Ban Soet","ADM3_TH":"บ้านเซิด","ADM3_PCODE":"TH200604","ADM2_EN":"Phanat Nikhom","ADM2_TH":"พนัสนิคม","ADM2_PCODE":"TH2006","ADM1_EN":"Chon Buri","ADM1_TH":"ชลบุรี","ADM1_PCODE":"TH20","ADM0_EN":"Thailand","ADM0_TH":"ประเทศไทย","ADM0_PCODE":"TH"}},{"arcs":[[188,189,190,191]],"type":"Polygon","properties":{"Shape_Leng":0.311218337059,"Shape_Area":0.00225676533544,"ADM3_EN":"Na Roek","ADM3_TH":"นาเริก","ADM3_PCODE":"TH200605","ADM2_EN":"Phanat Nikhom","ADM2_TH":"พนัสนิคม","ADM2_PCODE":"TH2006","ADM1_EN":"Chon Buri","ADM1_TH":"ชลบุรี","ADM1_PCODE":"TH20","ADM0_EN":"Thailand","ADM0_TH":"ประเทศไทย","ADM0_PCODE":"TH"}},{"arcs":[[-80,192,193,194,-190,195,196,-84]],"type":"Polygon","properties":{"Shape_Leng":0.467729749309,"Shape_Area":0.00440189759642,"ADM3_EN":"Mon Nang","ADM3_TH":"หมอนนาง","ADM3_PCODE":"TH200606","ADM2_EN":"Phanat Nikhom","ADM2_TH":"พนัสนิคม","ADM2_PCODE":"TH2006","ADM1_EN":"Chon Buri","ADM1_TH":"ชลบุรี","ADM1_PCODE":"TH20","ADM0_EN":"Thailand","ADM0_TH":"ประเทศไทย","ADM0_PCODE":"TH"}},{"arcs":[[197,198,199]],"type":"Polygon","properties":{"Shape_Leng":0.320599875547,"Shape_Area":0.00330716779236,"ADM3_EN":"Sa Si Liam","ADM3_TH":"สระสี่เหลี่ยม","ADM3_PCODE":"TH200607","ADM2_EN":"Phanat Nikhom","ADM2_TH":"พนัสนิคม","ADM2_PCODE":"TH2006","ADM1_EN":"Chon Buri","ADM1_TH":"ชลบุรี","ADM1_PCODE":"TH20","ADM0_EN":"Thailand","ADM0_TH":"ประเทศไทย","ADM0_PCODE":"TH"}},{"arcs":[[-166,200,-183,201,-177]],"type":"Polygon","properties":{"Shape_Leng":0.178562209203,"Shape_Area":0.00134419369966,"ADM3_EN":"Wat Bot","ADM3_TH":"วัดโบสถ์","ADM3_PCODE":"TH200608","ADM2_EN":"Phanat Nikhom","ADM2_TH":"พนัสนิคม","ADM2_PCODE":"TH2006","ADM1_EN":"Chon Buri","ADM1_TH":"ชลบุรี","ADM1_PCODE":"TH20","ADM0_EN":"Thailand","ADM0_TH":"ประเทศไทย","ADM0_PCODE":"TH"}},{"arcs":[[-174,202,203,-186,-179,204]],"type":"Polygon","properties":{"Shape_Leng":0.115585141988,"Shape_Area":0.000504418326864,"ADM3_EN":"Kut Ngong","ADM3_TH":"กุฎโง้ง","ADM3_PCODE":"TH200609","ADM2_EN":"Phanat Nikhom","ADM2_TH":"พนัสนิคม","ADM2_PCODE":"TH2006","ADM1_EN":"Chon Buri","ADM1_TH":"ชลบุรี","ADM1_PCODE":"TH20","ADM0_EN":"Thailand","ADM0_TH":"ประเทศไทย","ADM0_PCODE":"TH"}},{"arcs":[[-181,205,-198,206,207,208]],"type":"Polygon","properties":{"Shape_Leng":0.319743981178,"Shape_Area":0.0019596493569,"ADM3_EN":"Hua Thanon","ADM3_TH":"หัวถนน","ADM3_PCODE":"TH200610","ADM2_EN":"Phanat Nikhom","ADM2_TH":"พนัสนิคม","ADM2_PCODE":"TH2006","ADM1_EN":"Chon Buri","ADM1_TH":"ชลบุรี","ADM1_PCODE":"TH20","ADM0_EN":"Thailand","ADM0_TH":"ประเทศไทย","ADM0_PCODE":"TH"}},{"arcs":[[-156,209,-199,-206,-185,210]],"type":"Polygon","properties":{"Shape_Leng":0.27095916614,"Shape_Area":0.00237597974144,"ADM3_EN":"Tha Kham","ADM3_TH":"ท่าข้าม","ADM3_PCODE":"TH200611","ADM2_EN":"Phanat Nikhom","ADM2_TH":"พนัสนิคม","ADM2_PCODE":"TH2006","ADM1_EN":"Chon Buri","ADM1_TH":"ชลบุรี","ADM1_PCODE":"TH20","ADM0_EN":"Thailand","ADM0_TH":"ประเทศไทย","ADM0_PCODE":"TH"}},{"arcs":[[-208,211,212,213]],"type":"Polygon","properties":{"Shape_Leng":0.307595549643,"Shape_Area":0.002480108159,"ADM3_EN":"Nong Prue","ADM3_TH":"หนองปรือ","ADM3_PCODE":"TH200613","ADM2_EN":"Phanat Nikhom","ADM2_TH":"พนัสนิคม","ADM2_PCODE":"TH2006","ADM1_EN":"Chon Buri","ADM1_TH":"ชลบุรี","ADM1_PCODE":"TH20","ADM0_EN":"Thailand","ADM0_TH":"ประเทศไทย","ADM0_PCODE":"TH"}},{"arcs":[[-78,-155,-151,-188,214,215]],"type":"Polygon","properties":{"Shape_Leng":0.240972647772,"Shape_Area":0.00190908163057,"ADM3_EN":"Nong Khayat","ADM3_TH":"หนองขยาด","ADM3_PCODE":"TH200614","ADM2_EN":"Phanat Nikhom","ADM2_TH":"พนัสนิคม","ADM2_PCODE":"TH2006","ADM1_EN":"Chon Buri","ADM1_TH":"ชลบุรี","ADM1_PCODE":"TH20","ADM0_EN":"Thailand","ADM0_TH":"ประเทศไทย","ADM0_PCODE":"TH"}},{"arcs":[[-79,-216,216,-193]],"type":"Polygon","properties":{"Shape_Leng":0.240550812723,"Shape_Area":0.00177556889177,"ADM3_EN":"Thung Khwang","ADM3_TH":"ทุ่งขวาง","ADM3_PCODE":"TH200615","ADM2_EN":"Phanat Nikhom","ADM2_TH":"พนัสนิคม","ADM2_PCODE":"TH2006","ADM1_EN":"Chon Buri","ADM1_TH":"ชลบุรี","ADM1_PCODE":"TH20","ADM0_EN":"Thailand","ADM0_TH":"ประเทศไทย","ADM0_PCODE":"TH"}},{"arcs":[[-213,217,218,219,220,221,222]],"type":"Polygon","properties":{"Shape_Leng":0.527935075011,"Shape_Area":0.00720311923963,"ADM3_EN":"Nong Hiang","ADM3_TH":"หนองเหียง","ADM3_PCODE":"TH200616","ADM2_EN":"Phanat Nikhom","ADM2_TH":"พนัสนิคม","ADM2_PCODE":"TH2006","ADM1_EN":"Chon Buri","ADM1_TH":"ชลบุรี","ADM1_PCODE":"TH20","ADM0_EN":"Thailand","ADM0_TH":"ประเทศไทย","ADM0_PCODE":"TH"}},{"arcs":[[-192,223,-221,224]],"type":"Polygon","properties":{"Shape_Leng":0.322804940465,"Shape_Area":0.00301547153739,"ADM3_EN":"Na Wang Hin","ADM3_TH":"นาวังหิน","ADM3_PCODE":"TH200617","ADM2_EN":"Phanat Nikhom","ADM2_TH":"พนัสนิคม","ADM2_PCODE":"TH2006","ADM1_EN":"Chon Buri","ADM1_TH":"ชลบุรี","ADM1_PCODE":"TH20","ADM0_EN":"Thailand","ADM0_TH":"ประเทศไทย","ADM0_PCODE":"TH"}},{"arcs":[[-176,225,-222,-224,-191,-195,226,-203]],"type":"Polygon","properties":{"Shape_Leng":0.236513899615,"Shape_Area":0.00109791759332,"ADM3_EN":"Ban Chang","ADM3_TH":"บ้านช้าง","ADM3_PCODE":"TH200618","ADM2_EN":"Phanat Nikhom","ADM2_TH":"พนัสนิคม","ADM2_PCODE":"TH2006","ADM1_EN":"Chon Buri","ADM1_TH":"ชลบุรี","ADM1_PCODE":"TH20","ADM0_EN":"Thailand","ADM0_TH":"ประเทศไทย","ADM0_PCODE":"TH"}},{"arcs":[[-157,-211,-184,-201,-165]],"type":"Polygon","properties":{"Shape_Leng":0.253640794293,"Shape_Area":0.00200366971165,"ADM3_EN":"Khok Phlo","ADM3_TH":"โคกเพลาะ","ADM3_PCODE":"TH200620","ADM2_EN":"Phanat Nikhom","ADM2_TH":"พนัสนิคม","ADM2_PCODE":"TH2006","ADM1_EN":"Chon Buri","ADM1_TH":"ชลบุรี","ADM1_PCODE":"TH20","ADM0_EN":"Thailand","ADM0_TH":"ประเทศไทย","ADM0_PCODE":"TH"}},{"arcs":[[-175,-205,-178,-202,-182,-209,-214,-223,-226]],"type":"Polygon","properties":{"Shape_Leng":0.205261594673,"Shape_Area":0.00125023049009,"ADM3_EN":"Rai Lak Thong","ADM3_TH":"ไร่หลักทอง","ADM3_PCODE":"TH200621","ADM2_EN":"Phanat Nikhom","ADM2_TH":"พนัสนิคม","ADM2_PCODE":"TH2006","ADM1_EN":"Chon Buri","ADM1_TH":"ชลบุรี","ADM1_PCODE":"TH20","ADM0_EN":"Thailand","ADM0_TH":"ประเทศไทย","ADM0_PCODE":"TH"}},{"arcs":[[-187,-204,-227,-194,-217,-215]],"type":"Polygon","properties":{"Shape_Leng":0.158490028398,"Shape_Area":0.000634966431925,"ADM3_EN":"Na Matum","ADM3_TH":"นามะตูม","ADM3_PCODE":"TH200622","ADM2_EN":"Phanat Nikhom","ADM2_TH":"พนัสนิคม","ADM2_PCODE":"TH2006","ADM1_EN":"Chon Buri","ADM1_TH":"ชลบุรี","ADM1_PCODE":"TH20","ADM0_EN":"Thailand","ADM0_TH":"ประเทศไทย","ADM0_PCODE":"TH"}},{"arcs":[[227,228,229]],"type":"Polygon","properties":{"Shape_Leng":0.0816960916548,"Shape_Area":0.00019837921311,"ADM3_EN":"Si Racha","ADM3_TH":"ศรีราชา","ADM3_PCODE":"TH200701","ADM2_EN":"Si Racha","ADM2_TH":"ศรีราชา","ADM2_PCODE":"TH2007","ADM1_EN":"Chon Buri","ADM1_TH":"ชลบุรี","ADM1_PCODE":"TH20","ADM0_EN":"Thailand","ADM0_TH":"ประเทศไทย","ADM0_PCODE":"TH"}},{"arcs":[[-230,230,231,232,233]],"type":"Polygon","properties":{"Shape_Leng":0.413844140642,"Shape_Area":0.00417929656918,"ADM3_EN":"Surasak","ADM3_TH":"สุรศักดิ์","ADM3_PCODE":"TH200702","ADM2_EN":"Si Racha","ADM2_TH":"ศรีราชา","ADM2_PCODE":"TH2007","ADM1_EN":"Chon Buri","ADM1_TH":"ชลบุรี","ADM1_PCODE":"TH20","ADM0_EN":"Thailand","ADM0_TH":"ประเทศไทย","ADM0_PCODE":"TH"}},{"arcs":[[-110,234,-233,235]],"type":"Polygon","properties":{"Shape_Leng":0.438008764336,"Shape_Area":0.00455212786988,"ADM3_EN":"Thung Sukhla","ADM3_TH":"ทุ่งสุขลา","ADM3_PCODE":"TH200703","ADM2_EN":"Si Racha","ADM2_TH":"ศรีราชา","ADM2_PCODE":"TH2007","ADM1_EN":"Chon Buri","ADM1_TH":"ชลบุรี","ADM1_PCODE":"TH20","ADM0_EN":"Thailand","ADM0_TH":"ประเทศไทย","ADM0_PCODE":"TH"}},{"arcs":[[-112,236,237,-130]],"type":"Polygon","properties":{"Shape_Leng":0.457873849879,"Shape_Area":0.00559557465082,"ADM3_EN":"Bueng","ADM3_TH":"บึง","ADM3_PCODE":"TH200704","ADM2_EN":"Si Racha","ADM2_TH":"ศรีราชา","ADM2_PCODE":"TH2007","ADM1_EN":"Chon Buri","ADM1_TH":"ชลบุรี","ADM1_PCODE":"TH20","ADM0_EN":"Thailand","ADM0_TH":"ประเทศไทย","ADM0_PCODE":"TH"}},{"arcs":[[-71,238,239,-237,-111,-236,-232,240]],"type":"Polygon","properties":{"Shape_Leng":0.641802122639,"Shape_Area":0.00830403419553,"ADM3_EN":"Nong Kham","ADM3_TH":"หนองขาม","ADM3_PCODE":"TH200705","ADM2_EN":"Si Racha","ADM2_TH":"ศรีราชา","ADM2_PCODE":"TH2007","ADM1_EN":"Chon Buri","ADM1_TH":"ชลบุรี","ADM1_PCODE":"TH20","ADM0_EN":"Thailand","ADM0_TH":"ประเทศไทย","ADM0_PCODE":"TH"}},{"arcs":[[-70,-102,241,242,-239]],"type":"Polygon","properties":{"Shape_Leng":0.533103245143,"Shape_Area":0.0082935931739,"ADM3_EN":"Khao Khan Song","ADM3_TH":"เขาคันทรง","ADM3_PCODE":"TH200706","ADM2_EN":"Si Racha","ADM2_TH":"ศรีราชา","ADM2_PCODE":"TH2007","ADM1_EN":"Chon Buri","ADM1_TH":"ชลบุรี","ADM1_PCODE":"TH20","ADM0_EN":"Thailand","ADM0_TH":"ประเทศไทย","ADM0_PCODE":"TH"}},{"arcs":[[-15,-50,-35,-27,-65,-72,-241,-231,-229,243]],"type":"Polygon","properties":{"Shape_Leng":0.560333970978,"Shape_Area":0.0121820418875,"ADM3_EN":"Bang Phra","ADM3_TH":"บางพระ","ADM3_PCODE":"TH200707","ADM2_EN":"Si Racha","ADM2_TH":"ศรีราชา","ADM2_PCODE":"TH2007","ADM1_EN":"Chon Buri","ADM1_TH":"ชลบุรี","ADM1_PCODE":"TH20","ADM0_EN":"Thailand","ADM0_TH":"ประเทศไทย","ADM0_PCODE":"TH"}},{"arcs":[[-131,-238,-240,-243,244]],"type":"Polygon","properties":{"Shape_Leng":0.539654206817,"Shape_Area":0.00773211412697,"ADM3_EN":"Bo Win","ADM3_TH":"บ่อวิน","ADM3_PCODE":"TH200708","ADM2_EN":"Si Racha","ADM2_TH":"ศรีราชา","ADM2_PCODE":"TH2007","ADM1_EN":"Chon Buri","ADM1_TH":"ชลบุรี","ADM1_PCODE":"TH20","ADM0_EN":"Thailand","ADM0_TH":"ประเทศไทย","ADM0_PCODE":"TH"}},{"arcs":[[[245]],[[246]],[[247]],[[248]]],"type":"MultiPolygon","properties":{"Shape_Leng":0.25100603777,"Shape_Area":0.000589228975349,"ADM3_EN":"Tha Thewawong","ADM3_TH":"ท่าเทววงษ์","ADM3_PCODE":"TH200801","ADM2_EN":"Ko Si Chang","ADM2_TH":"เกาะสีชัง","ADM2_PCODE":"TH2008","ADM1_EN":"Chon Buri","ADM1_TH":"ชลบุรี","ADM1_PCODE":"TH20","ADM0_EN":"Thailand","ADM0_TH":"ประเทศไทย","ADM0_PCODE":"TH"}},{"arcs":[[[249]],[[250]],[[251]],[[252]],[[253]],[[254]],[[255]],[[256]],[[257]],[[258,259,260,261]]],"type":"MultiPolygon","properties":{"Shape_Leng":0.921893180541,"Shape_Area":0.0081659137588,"ADM3_EN":"Sattahip","ADM3_TH":"สัตหีบ","ADM3_PCODE":"TH200901","ADM2_EN":"Sattahip","ADM2_TH":"สัตหีบ","ADM2_PCODE":"TH2009","ADM1_EN":"Chon Buri","ADM1_TH":"ชลบุรี","ADM1_PCODE":"TH20","ADM0_EN":"Thailand","ADM0_TH":"ประเทศไทย","ADM0_PCODE":"TH"}},{"arcs":[[-115,-129,262,263,264]],"type":"Polygon","properties":{"Shape_Leng":0.462284405896,"Shape_Area":0.00303472231794,"ADM3_EN":"Na Chom Thian","ADM3_TH":"นาจอมเทียน","ADM3_PCODE":"TH200902","ADM2_EN":"Sattahip","ADM2_TH":"สัตหีบ","ADM2_PCODE":"TH2009","ADM1_EN":"Chon Buri","ADM1_TH":"ชลบุรี","ADM1_PCODE":"TH20","ADM0_EN":"Thailand","ADM0_TH":"ประเทศไทย","ADM0_PCODE":"TH"}},{"arcs":[[-128,265,266,-259,267,-263]],"type":"Polygon","properties":{"Shape_Leng":0.487003718702,"Shape_Area":0.00575508288206,"ADM3_EN":"Phlu Ta Luang","ADM3_TH":"พลูตาหลวง","ADM3_PCODE":"TH200903","ADM2_EN":"Sattahip","ADM2_TH":"สัตหีบ","ADM2_PCODE":"TH2009","ADM1_EN":"Chon Buri","ADM1_TH":"ชลบุรี","ADM1_PCODE":"TH20","ADM0_EN":"Thailand","ADM0_TH":"ประเทศไทย","ADM0_PCODE":"TH"}},{"arcs":[[[-262,268,-264,-268]],[[269]],[[270]]],"type":"MultiPolygon","properties":{"Shape_Leng":0.511884228433,"Shape_Area":0.00490160354373,"ADM3_EN":"Bang Sare","ADM3_TH":"บางเสร่","ADM3_PCODE":"TH200904","ADM2_EN":"Sattahip","ADM2_TH":"สัตหีบ","ADM2_PCODE":"TH2009","ADM1_EN":"Chon Buri","ADM1_TH":"ชลบุรี","ADM1_PCODE":"TH20","ADM0_EN":"Thailand","ADM0_TH":"ประเทศไทย","ADM0_PCODE":"TH"}},{"arcs":[[[-260,-267,271]],[[272]],[[273]],[[274]],[[275]],[[276]],[[277]],[[278]]],"type":"MultiPolygon","properties":{"Shape_Leng":0.470857974259,"Shape_Area":0.00181536231247,"ADM3_EN":"Samae San","ADM3_TH":"แสมสาร","ADM3_PCODE":"TH200905","ADM2_EN":"Sattahip","ADM2_TH":"สัตหีบ","ADM2_PCODE":"TH2009","ADM1_EN":"Chon Buri","ADM1_TH":"ชลบุรี","ADM1_PCODE":"TH20","ADM0_EN":"Thailand","ADM0_TH":"ประเทศไทย","ADM0_PCODE":"TH"}},{"arcs":[[-90,279,280,281,282,283,-96]],"type":"Polygon","properties":{"Shape_Leng":1.03692421797,"Shape_Area":0.0213538746012,"ADM3_EN":"Bo Thong","ADM3_TH":"บ่อทอง","ADM3_PCODE":"TH201001","ADM2_EN":"Bo Thong","ADM2_TH":"บ่อทอง","ADM2_PCODE":"TH2010","ADM1_EN":"Chon Buri","ADM1_TH":"ชลบุรี","ADM1_PCODE":"TH20","ADM0_EN":"Thailand","ADM0_TH":"ประเทศไทย","ADM0_PCODE":"TH"}},{"arcs":[[-281,284,285,286]],"type":"Polygon","properties":{"Shape_Leng":0.406967185424,"Shape_Area":0.00526841682574,"ADM3_EN":"Wat Suwan","ADM3_TH":"วัดสุวรรณ","ADM3_PCODE":"TH201002","ADM2_EN":"Bo Thong","ADM2_TH":"บ่อทอง","ADM2_PCODE":"TH2010","ADM1_EN":"Chon Buri","ADM1_TH":"ชลบุรี","ADM1_PCODE":"TH20","ADM0_EN":"Thailand","ADM0_TH":"ประเทศไทย","ADM0_PCODE":"TH"}},{"arcs":[[-85,-197,287,288,-103]],"type":"Polygon","properties":{"Shape_Leng":0.293869553391,"Shape_Area":0.00342643192228,"ADM3_EN":"Bo Kwang Thong","ADM3_TH":"บ่อกวางทอง","ADM3_PCODE":"TH201003","ADM2_EN":"Bo Thong","ADM2_TH":"บ่อทอง","ADM2_PCODE":"TH2010","ADM1_EN":"Chon Buri","ADM1_TH":"ชลบุรี","ADM1_PCODE":"TH20","ADM0_EN":"Thailand","ADM0_TH":"ประเทศไทย","ADM0_PCODE":"TH"}},{"arcs":[[-95,-104,-289,289,290,-285,-280]],"type":"Polygon","properties":{"Shape_Leng":0.546552064661,"Shape_Area":0.0095186814501,"ADM3_EN":"That Thong","ADM3_TH":"ธาตุทอง","ADM3_PCODE":"TH201004","ADM2_EN":"Bo Thong","ADM2_TH":"บ่อทอง","ADM2_PCODE":"TH2010","ADM1_EN":"Chon Buri","ADM1_TH":"ชลบุรี","ADM1_PCODE":"TH20","ADM0_EN":"Thailand","ADM0_TH":"ประเทศไทย","ADM0_PCODE":"TH"}},{"arcs":[[-282,-287,291,292,293]],"type":"Polygon","properties":{"Shape_Leng":0.59259977326,"Shape_Area":0.0119208731027,"ADM3_EN":"Kaset Suwan","ADM3_TH":"เกษตรสุวรรณ","ADM3_PCODE":"TH201005","ADM2_EN":"Bo Thong","ADM2_TH":"บ่อทอง","ADM2_PCODE":"TH2010","ADM1_EN":"Chon Buri","ADM1_TH":"ชลบุรี","ADM1_PCODE":"TH20","ADM0_EN":"Thailand","ADM0_TH":"ประเทศไทย","ADM0_PCODE":"TH"}},{"arcs":[[-283,-294,294]],"type":"Polygon","properties":{"Shape_Leng":0.703220407937,"Shape_Area":0.0178236587394,"ADM3_EN":"Phluang Thong","ADM3_TH":"พลวงทอง","ADM3_PCODE":"TH201006","ADM2_EN":"Bo Thong","ADM2_TH":"บ่อทอง","ADM2_PCODE":"TH2010","ADM1_EN":"Chon Buri","ADM1_TH":"ชลบุรี","ADM1_PCODE":"TH20","ADM0_EN":"Thailand","ADM0_TH":"ประเทศไทย","ADM0_PCODE":"TH"}},{"arcs":[[-219,295,-292,-286,-291,296]],"type":"Polygon","properties":{"Shape_Leng":0.830942088486,"Shape_Area":0.016853548717,"ADM3_EN":"Ko Chan","ADM3_TH":"เกาะจันทร์","ADM3_PCODE":"TH201101","ADM2_EN":"Ko Chan","ADM2_TH":"เกาะจันทร์","ADM2_PCODE":"TH2011","ADM1_EN":"Chon Buri","ADM1_TH":"ชลบุรี","ADM1_PCODE":"TH20","ADM0_EN":"Thailand","ADM0_TH":"ประเทศไทย","ADM0_PCODE":"TH"}},{"arcs":[[-189,-225,-220,-297,-290,-288,-196]],"type":"Polygon","properties":{"Shape_Leng":0.383222421391,"Shape_Area":0.00547791807181,"ADM3_EN":"Tha Bunmi","ADM3_TH":"ท่าบุญมี","ADM3_PCODE":"TH201102","ADM2_EN":"Ko Chan","ADM2_TH":"เกาะจันทร์","ADM2_PCODE":"TH2011","ADM1_EN":"Chon Buri","ADM1_TH":"ชลบุรี","ADM1_PCODE":"TH20","ADM0_EN":"Thailand","ADM0_TH":"ประเทศไทย","ADM0_PCODE":"TH"}}]}}}