{"type":"Topology","arcs":[[[6252,6209],[-67,-4]],[[6185,6205],[-19,25],[-33,-6],[-16,16],[-36,16]],[[6081,6256],[62,41],[46,25],[37,-24],[11,-16],[59,0],[14,-16],[-11,-30],[-23,-8],[-27,-1],[3,-18]],[[7152,5761],[-21,-23],[2,-19],[-12,-10],[-37,-11],[12,-16],[-39,-56],[-22,-20],[-10,-32],[-39,-11],[13,-25],[-13,-4],[-11,-27],[9,-9],[-12,-25],[-10,-6],[25,-26],[-7,-11],[13,-17],[-16,-3],[-15,-23],[-31,8],[-9,-15],[-24,12],[-12,-2],[5,27],[-13,23],[-1,14],[16,36],[-38,-9],[-102,15]],[[6753,5496],[6,5],[-5,31],[8,17],[-14,8],[17,25],[11,30],[31,22],[-11,31],[14,76],[-19,36],[-31,16],[-1,22],[31,14],[-7,11],[37,9],[-1,12],[18,22],[33,12],[40,-12],[13,1]],[[6923,5884],[57,8],[11,-24],[18,-10],[74,-59],[69,-38]],[[7015,5903],[0,16],[13,5],[-2,-16],[-11,-5]],[[7560,5877],[2,-16],[13,-2],[-27,-17],[-22,-22],[-23,-9],[-57,5],[-47,15],[8,12],[-3,18],[16,17],[47,2],[-4,15],[19,29],[36,20],[8,-1],[7,-36],[14,-24],[13,-6]],[[8209,6028],[-25,12],[6,9],[25,-9],[-6,-12]],[[8875,6223],[-7,5],[29,36],[13,0],[-16,-13],[-19,-28]],[[6753,5496],[-6,-24],[-9,-4],[-8,-21],[2,-14],[-14,-16],[-5,-17],[-14,-11],[-24,3],[-48,-14],[-41,-31]],[[6586,5347],[-22,2],[-28,19],[-54,15],[-100,6],[-22,5]],[[6360,5394],[-34,34],[23,34],[-21,8],[22,10],[-4,8],[-17,-5],[-33,18],[1,10],[54,7]],[[6351,5518],[-2,12],[46,23],[2,17],[17,8],[27,33],[12,22],[16,10],[32,5],[17,36],[43,10],[2,21],[-8,10],[6,23],[-3,29],[-19,-9],[-22,6],[-37,33],[-21,39],[26,29],[23,16],[-4,12],[13,15],[1,15],[39,9],[-10,9],[25,21],[-6,18],[13,13],[-3,11],[15,8],[-13,10],[-22,3],[11,16],[-12,6],[-25,-6],[-7,6],[17,31],[-6,12],[-20,3],[2,12],[18,2],[5,39],[-13,10],[-1,19],[-23,7],[-6,22]],[[6496,6214],[12,2],[-8,17],[77,7],[16,18],[22,-8],[9,19],[39,-2],[29,12],[44,-11],[41,-25]],[[6777,6243],[-2,-14],[-23,-10],[-22,-43],[-5,-47],[6,-29],[14,-39],[16,-29],[19,-26],[46,-49],[63,-53],[39,-14],[-5,-6]],[[6252,6209],[58,-16],[103,-38],[35,28],[48,31]],[[6351,5518],[-185,145],[-38,12],[-93,18],[-98,14],[-3,19],[33,11],[24,4],[9,30],[-50,15],[-3,5],[27,18],[-8,23],[-16,5]],[[5950,5837],[22,12],[0,11],[20,4],[16,12],[1,28],[25,26],[47,37],[26,16],[18,1],[9,25],[-6,30],[6,23],[-3,14],[36,46],[3,21],[-22,28],[20,8],[20,-2],[25,15],[-26,6],[-2,7]],[[6081,6256],[-2,10]],[[6079,6266],[7,8],[-9,19],[21,10],[32,-3],[-9,22],[24,25],[-31,-4],[-15,8],[22,6],[25,18],[53,-9],[3,17],[25,-2],[12,8],[-10,7],[25,6]],[[6254,6402],[30,-12],[48,-8],[48,-20],[90,11],[20,19],[56,2],[35,16],[-5,7],[-27,-7],[-4,6],[33,13],[36,-17],[-15,-13],[3,-21],[18,-4],[8,17],[26,24],[28,1],[16,-10],[0,-36],[14,-8],[37,1],[7,-28],[-6,-16],[46,-6],[24,1],[15,-15],[43,11],[31,-2],[7,-16],[37,1],[12,16]],[[6965,6309],[10,13],[68,22],[11,10],[18,0],[-7,-12],[17,0],[6,13],[22,0],[47,22],[-12,-20],[-39,-48],[-5,-22],[-25,-14],[-22,-1],[-76,-22],[-39,-18],[-45,-5],[-31,5],[-7,16],[-45,3],[-34,-8]],[[6254,6402],[-30,22],[0,12],[45,0],[13,16],[55,17],[45,22],[14,38],[32,0],[5,15],[24,11],[61,54],[27,15],[11,14],[3,29],[17,13],[-7,38],[93,-1],[29,8],[48,2],[30,9],[28,15]],[[6797,6751],[23,-2],[32,11],[57,31],[22,-38],[12,-1],[23,-18],[27,-6],[27,-24],[31,-13],[40,-1],[29,4],[10,-20],[21,-19],[60,-16],[78,-2]],[[7289,6637],[-19,-16],[-20,-32],[-3,-14],[-41,-20],[-14,5],[-52,-2],[-30,-25],[-40,4],[-32,20],[-19,-1],[-22,14],[-31,-4],[-19,7],[-43,-5],[-35,-24],[-14,-16],[-17,-35],[-7,-43],[7,-31],[21,-38],[23,-31],[23,-20],[29,0],[31,-21]],[[5950,5837],[-18,-11],[-37,-2],[-36,10],[-19,13],[-30,-6],[-48,3],[-57,11],[-47,-8],[-22,11],[-70,7]],[[5566,5865],[29,35],[7,21],[27,37],[93,118],[40,37],[37,58],[-2,23],[-19,22],[-19,12]],[[5759,6228],[27,-16],[6,-11],[24,9],[19,-8],[-3,16],[19,-1],[3,-14],[19,22],[57,-22],[8,9],[18,-8],[32,22],[51,17],[-42,21],[17,25],[23,6]],[[6037,6295],[42,-29]],[[6037,6295],[-18,14],[-19,4],[10,14],[-37,16],[-8,10],[15,5],[-16,13],[-9,25],[-9,-4],[-24,9],[28,12],[13,15],[-19,27],[-24,-1],[-13,-26],[-33,20],[-18,-3],[-25,9],[1,17],[-29,5],[-2,7],[25,10],[30,23],[-29,13]],[[5827,6529],[6,13],[44,19],[40,28],[37,15],[16,13],[67,176],[-14,25],[1,14],[14,28],[-7,22]],[[6031,6882],[28,-4],[31,8],[37,-6],[19,-11],[27,-27],[18,-7],[34,-24],[11,3],[-1,19],[7,6],[32,-24],[21,-25],[-4,-40],[26,-19],[4,8],[33,9],[-8,20],[22,8],[-2,13],[16,7],[18,-3],[-11,16],[12,13],[38,-10],[15,12]],[[6454,6824],[0,-7],[32,-2],[28,-15],[73,-3],[21,15],[27,-11],[48,7],[49,-9],[3,-6],[49,-9],[-6,-21],[19,-12]],[[5827,6529],[-42,23],[-36,1],[-19,11],[-56,2],[-16,-16],[-19,2],[-65,34],[-49,16],[-23,13],[-22,1],[-44,11],[-42,-12],[-33,7],[-33,1],[-35,-7],[-49,6],[-31,0],[-13,-10],[-23,0],[-41,-16],[-19,4],[-35,-18],[-12,-1]],[[5070,6581],[-19,18],[-33,14],[-44,13],[-84,7]],[[4890,6633],[31,21],[-11,32],[11,22],[-5,27],[13,17],[21,9],[60,3],[8,-8],[28,8],[43,-4],[64,-13],[28,-12],[3,-15],[16,-1],[14,17],[51,3],[7,9],[19,-4],[9,16]],[[5300,6760],[17,-8],[26,6],[-1,-9],[33,-5],[8,-18],[13,1],[13,-19],[46,-1],[6,-19],[27,-4],[15,8],[12,24],[12,6],[41,49],[20,20],[3,40]],[[5591,6831],[29,10],[35,3],[70,-9],[46,15],[49,26],[39,39],[49,-3],[18,-10],[60,-9],[11,1],[34,-12]],[[5759,6228],[-2,9],[19,0],[3,17],[-24,9],[-16,-14],[-19,16],[16,11],[-51,-3],[9,13],[-48,1],[-32,7]],[[5614,6294],[-16,8],[-20,-4],[-33,13],[-14,23],[-16,-14],[-46,7],[-15,14],[-25,-2],[-18,-15]],[[5411,6324],[-26,90],[-27,5],[-78,22],[-89,33],[-25,11],[-21,21],[-30,49],[-43,17],[-2,9]],[[5411,6324],[-4,-8],[-32,3],[-13,-6],[-24,11],[-5,-16],[-14,-10],[-20,1],[-6,-19],[-43,9],[-2,-27],[-20,3],[-8,10],[-35,8],[-29,-19],[7,-8],[-38,-20],[-31,-1],[-10,10],[-22,1],[-29,16],[-32,5],[7,-25],[-34,5],[0,18],[-16,13],[-22,1],[-21,9],[-13,-9],[10,-22],[-39,21],[-32,-4],[-17,-8],[-2,-18],[-31,11],[14,15],[-28,-1],[-23,-15],[-33,15],[-68,-9],[-31,7],[10,27],[-18,0],[-14,-20],[-2,-18],[-17,6],[-12,15],[-37,-11],[7,-10],[-21,-2],[-36,10],[1,12],[-40,-1],[-20,10],[-31,-11],[-10,8],[-4,20],[22,9],[-52,-1],[-12,13],[-19,5],[-19,-11],[-17,1],[-34,-9],[-25,8],[-23,-8],[-31,1],[-45,17],[6,-17],[-17,0],[-59,-12],[-24,-17],[-10,9],[-60,-1],[-6,-10],[-26,-6],[-75,-5],[-27,-4],[-11,5],[-35,-6],[11,23],[-7,9],[-75,-17],[19,-5],[-5,-21],[-13,-9],[-40,1],[5,-13],[16,-9],[18,3],[5,-12],[-21,-3],[-28,-20],[-15,-2],[-14,19],[-28,-4],[-6,10],[-27,-6],[-21,11],[-4,-24],[-37,-2],[-16,-19],[-16,17],[-14,2],[-31,-19],[-7,7],[-23,-2],[2,-11],[-33,-18],[-12,3],[-53,-4],[-2,-9],[-26,-16],[-14,15],[-55,-13],[-19,-19],[-58,-23],[-39,-37],[-26,-6],[-34,-14],[-1,-21],[-16,-7],[-11,-48],[-18,-14],[-4,-23],[-30,-15]],[[2956,5902],[-20,12],[-7,13],[-22,13],[25,21],[-4,7],[-54,6],[42,40],[7,17],[23,12],[0,20],[29,13],[21,27],[-6,11],[0,39],[6,6],[32,5],[29,19],[44,8],[24,9],[34,-2],[28,18],[-2,21],[26,39],[32,19],[12,12],[0,19],[54,25],[15,15],[15,4],[117,-3],[19,2],[15,16],[28,2],[41,11],[-1,33],[20,32],[17,17],[59,46],[67,14],[35,11]],[[3756,6551],[36,-20],[29,-1],[29,20],[8,31],[27,12],[24,3],[24,14],[35,13],[35,-3],[20,15],[29,-1],[29,12],[55,-16],[83,-33],[41,2],[15,7],[50,5],[41,-12],[35,-2],[32,-11],[31,5],[13,-7],[48,-10],[30,-1],[22,-7],[43,-27],[37,5],[33,17],[59,9],[20,32],[12,11],[24,3],[31,17],[54,0]],[[5614,6294],[-18,-37],[-20,-22],[-31,-15],[-20,-19],[-103,-61],[-71,-25],[-35,-16],[-69,-40],[-27,-20],[-14,-16],[-14,-32],[13,-7],[18,-63],[-20,-30],[8,-12]],[[5211,5879],[-51,-3],[-55,2],[-51,-4],[-73,-21],[-57,-11],[-31,-2],[-48,-9],[-44,-35],[-26,7],[-32,1],[-22,34],[-31,-7],[15,-15],[-6,-9],[-70,1],[-46,-7]],[[4583,5801],[-57,12],[-84,-13],[-2,-6],[-45,-5],[-29,7],[-8,-9],[-40,0],[-17,-8],[-57,3]],[[4244,5782],[-13,12],[-46,11],[-33,2],[-67,-4],[-32,9],[-44,3],[-30,-11],[-3,-26],[-36,-18],[-5,-18],[8,-31],[-21,-29],[-15,-6],[-17,-26],[-42,-22],[-34,-32],[0,-26],[-12,-34],[2,-10],[-13,-16],[-8,-42],[-26,-7],[-19,-28],[-8,-3]],[[3730,5430],[-53,23],[-58,18],[-45,1],[-25,-8],[-30,8],[-49,-8]],[[3470,5464],[-68,8],[-20,8],[-3,25],[7,10],[-14,28],[-38,7],[-40,-7],[-18,10],[-21,1],[-28,-11],[-20,10],[-31,0],[-35,12],[-41,-7],[-30,5],[1,15],[29,27],[7,16],[-5,33],[-61,9],[-16,15],[-35,9],[-8,7],[16,40],[-9,7],[1,21],[-6,20],[28,11],[1,23],[-19,21],[11,24],[-32,2],[-7,8],[4,20],[-14,11]],[[5566,5865],[-30,4],[-49,0],[-11,-8],[-6,-23],[-22,-14],[-25,22],[-8,14],[-20,-5],[-15,-16],[-66,26],[-37,-19],[-27,-6],[-44,3],[9,26],[-4,10]],[[6360,5394],[0,-9],[-46,-4],[-56,-10],[-14,7],[-5,-10],[-49,-16],[-47,-8],[-90,-22],[-26,12],[-20,-2],[-28,-14],[6,-27],[-9,-20],[-22,-1],[-18,-10],[-17,-18],[-17,4],[-25,-16],[1,-12],[-35,11],[-29,-9]],[[5814,5220],[-40,14],[-7,26],[-129,74],[-36,12],[-73,19],[-62,12],[-64,-11],[-20,8],[-8,23],[7,4],[-10,30],[-45,26]],[[5327,5457],[6,12],[-13,7],[-12,25],[11,2],[-62,35],[-25,6],[2,11],[-45,10],[-44,14],[-47,-7],[-24,31],[-1,45],[19,56],[13,13],[50,40],[29,3],[16,-10],[2,-31],[17,-23],[13,-7],[30,0],[39,23],[24,25],[11,4],[69,-12],[46,-12],[29,-2],[48,0],[42,-9],[27,-2],[-11,27],[-15,12],[-2,18],[-26,42],[18,13],[8,19],[-3,30]],[[6022,5288],[-18,0],[-4,9],[18,16],[11,-15],[-7,-10]],[[4583,5801],[11,-8],[-10,-17],[-29,-27],[-14,6],[-17,-11],[-9,-23],[-15,-12],[12,-1],[21,-20],[73,-9],[36,-1],[43,-7],[32,-21],[-2,-23],[56,-11],[14,-15],[53,8],[39,-14],[16,-18],[-12,-21],[17,-28],[82,-14],[29,3],[29,-4],[29,-12],[21,1],[36,-9],[56,2],[10,-10],[25,-2],[9,8],[32,-1],[8,-31],[28,-6],[35,4]],[[5814,5220],[24,0],[-19,-19],[-3,-23],[39,-45],[30,-27],[15,-6],[0,-19],[-24,-20],[-17,-29],[5,-45],[-18,-16],[-1,-13]],[[5845,4958],[-32,1]],[[5813,4959],[5,30],[-20,12],[-38,-2],[-7,14],[-21,0],[-23,15],[1,12],[-17,11],[-1,-15],[-32,-15],[-4,13],[-31,-1],[-29,14],[-22,0],[16,-17],[-22,5],[-28,-15],[-35,16],[-22,-1],[-26,7],[-20,-9],[-19,13],[-26,8],[-20,-7],[-30,16],[-22,3],[-8,23],[-39,4],[9,11],[-29,21],[-28,4],[-8,8],[19,13],[-14,6],[10,14],[-32,29],[-19,2],[-19,17],[-48,22],[-10,-10],[-25,16],[-22,3],[-28,15],[-5,17],[-36,2],[-26,21],[-21,2],[-18,10],[-4,22],[-38,17],[-8,15],[6,12],[-12,19],[-29,3],[9,5],[-32,22],[-19,-6],[-17,19],[-22,10],[-11,-3],[-18,22],[-20,11],[-4,17],[-39,13],[-24,-8],[-11,12],[-28,15],[-12,17],[-37,-1],[-16,8],[-24,-11],[-32,5],[-17,9],[-1,11],[-28,33],[7,15],[-14,1],[12,40],[-28,2],[-7,18],[5,13],[-13,11],[-12,-5],[-13,38],[-36,17],[-11,-4],[-23,10],[-49,9],[-9,13]],[[7152,5761],[61,-19],[47,-4],[7,-23],[-2,-27],[11,-9],[29,-4],[0,-10],[26,-13],[27,6],[-12,-32],[7,-24],[-23,-24],[-16,-8],[1,-17],[15,-34],[31,-58],[2,-32],[-7,-25],[16,-13],[-6,-24],[12,-16],[-22,-34],[-35,-10],[-18,-12],[-15,-34],[-47,-3],[-12,-9],[-2,28],[-24,9],[-31,0],[-43,-5],[1,30],[-27,12],[-35,1],[-44,-6],[-46,-17],[-26,-16],[-53,-49],[-25,-30],[4,-10],[-25,-11],[-15,8],[-23,24],[-37,14],[-18,34],[-19,14],[-36,6],[-27,22],[-92,40]],[[7538,5023],[22,-7],[-18,-20],[-11,3],[7,24]],[[7321,5021],[-12,5],[12,22],[19,9],[0,14],[17,7],[3,-22],[-39,-35]],[[7638,5303],[-11,1],[13,19],[23,7],[-25,-27]],[[7800,5432],[4,-16],[-23,-28],[-18,8],[8,21],[29,15]],[[7471,5491],[-8,3],[-4,28],[10,5],[2,-36]],[[8175,5617],[-22,-15],[-23,-24],[-11,-29],[-54,-23],[-37,-5],[-25,-15],[-20,4],[19,6],[22,31],[39,14],[29,23],[22,2],[49,44],[17,10],[10,-9],[-15,-14]],[[7690,5740],[-6,4],[39,15],[11,-5],[-44,-14]],[[6111,7543],[-4,-18],[12,-9],[7,-37],[11,-4],[-3,24],[26,1],[24,30],[19,8],[39,4],[12,11],[27,-3],[2,-12],[27,-2],[21,-8],[24,13],[26,-8],[26,8],[33,-3],[27,19],[16,-1],[39,-35],[29,11],[35,8],[69,34]],[[6655,7574],[14,-3],[52,3],[93,-21],[21,-22],[32,-11],[11,-11],[10,-27],[-13,-11]],[[6875,7471],[-10,-16],[-32,-17],[-14,-16],[10,-8],[5,-22]],[[6834,7392],[-17,-12],[-31,-5],[-26,1],[-16,8],[1,15],[-38,2],[-8,-41],[-30,-3],[-10,-23],[-18,-11],[-8,-18],[-19,-14],[-28,-8],[-23,-15],[2,-16],[-53,-10],[-7,-5],[-62,-3],[-13,15],[-51,-8],[-17,-7],[-59,-11],[-49,4],[-50,8],[-20,-10],[-22,-3],[-29,9],[-11,-9],[-25,-5],[-79,0],[-32,-15],[-19,7],[-40,1],[-45,26],[-34,-9]],[[5848,7227],[-6,-6],[-22,7],[-3,9],[-30,5],[-4,17],[59,7],[-8,15],[32,37],[-10,3],[9,16],[-2,23],[-16,11],[-13,34],[-25,7],[-48,32],[-47,3],[-5,9],[-56,9],[-17,11],[-43,-1],[-31,23],[-50,18],[-3,11],[-53,16],[-32,-12],[-15,17],[-22,2],[-6,14],[-38,24],[-20,21],[-57,8],[-18,18],[-40,15],[3,11],[20,7],[14,21],[-18,22],[15,37],[20,76],[34,19],[20,21],[32,3]],[[5348,7867],[23,-11],[8,-14],[43,-19],[20,6],[32,-3],[21,9],[52,8],[4,-20],[34,-23],[-4,-25],[40,-1],[9,-4],[1,-40],[11,-32],[32,4],[50,-3],[18,10],[6,16],[46,-10],[14,3],[16,-9],[28,2],[13,-12],[37,3],[5,-14],[65,-27],[21,-4],[-8,-9],[15,-26],[10,3],[8,-21],[7,4],[26,-19],[24,1],[23,-24],[17,5],[6,-22],[-10,-6]],[[5348,7867],[-26,31],[2,15],[-25,20],[-45,12],[-27,-2],[-3,27],[-36,1],[-36,21],[-30,-8],[-52,5],[-93,2]],[[4977,7991],[-12,13],[-23,5],[-15,18],[37,1],[-5,6],[-49,0],[0,14],[-19,15],[50,20],[-29,12],[1,12],[-22,6],[21,11],[1,31],[20,4],[8,17],[-16,4],[-24,-5],[23,21],[-3,9],[-34,-1],[17,27],[-7,20],[16,7],[8,-16],[12,-2],[12,15],[-5,10],[-22,11],[-13,16],[-36,-3],[-25,15],[10,11],[-21,26],[-46,-11],[23,20],[37,51],[19,4]],[[4866,8405],[95,8],[77,-6],[10,-11],[24,-6],[23,-31],[19,4],[11,-10],[59,-2],[41,-11],[17,-12],[39,-14],[5,-23],[11,-4],[-3,-15],[25,2],[13,-7],[0,-26],[16,-5],[22,-16],[21,-3],[-3,-10],[43,0],[24,-20],[28,-12],[6,-20],[32,-8],[23,-16],[13,-25],[28,-1],[48,-17],[20,-16],[25,-1],[29,-33],[20,-1],[-4,-18],[63,-23],[34,3],[34,-8],[-2,-6],[59,-11],[13,1],[40,-37],[29,-14],[9,-14],[16,1],[12,-12],[57,-24],[-3,-14],[31,-17],[56,-2],[27,-15],[-15,-9],[0,-13],[-17,-13],[2,-9]],[[6168,7783],[19,-26],[-14,-12],[26,-13],[19,-1],[12,-11],[-44,-16],[-31,0],[4,-15],[33,-17],[4,-11],[-9,-17],[-38,-19],[-14,-24],[18,-24],[-21,-29],[-21,-5]],[[7177,8859],[25,6],[53,-17],[-32,-47],[11,-15],[15,-5],[13,-16],[6,-31]],[[7268,8734],[5,-29],[-3,-34],[-30,-19],[-37,-12],[-17,0],[-35,-21],[-72,-23],[-44,1],[-53,-12]],[[6982,8585],[-24,-63],[-17,-18],[-27,-4],[-60,-38],[8,-6],[-20,-12],[9,-5],[-12,-15],[-15,0],[-11,-21],[-22,-14],[-37,-10],[-10,-16],[-26,-7],[-5,-9]],[[6713,8347],[-28,20],[-45,-3],[-13,-5],[-35,5],[-3,6],[-52,6],[-8,11],[-62,11],[-18,14],[-46,7],[-17,-4],[-3,14],[23,3],[-30,4],[-36,12],[-4,17],[-37,34],[17,9],[2,36],[10,19],[-37,38],[14,16],[-19,0],[-3,13],[-35,0],[-16,8],[-40,-1],[1,6],[-31,10],[-44,-4],[-16,-10],[-50,-3],[-30,9],[-20,-3],[-20,6],[-8,15],[-57,43],[-61,22],[-5,21],[-13,13],[-35,-13],[-42,40],[-29,15],[-62,-12],[-39,7],[-16,29],[-40,11],[-28,-17],[-3,23],[12,5],[-4,17],[39,22],[44,19],[5,22],[12,0],[6,13],[22,9],[1,11],[26,20],[-42,15],[-33,18],[-55,6],[-21,7],[-18,40],[5,13],[-7,19],[-28,10],[-26,2],[-12,15],[-50,15],[-8,14],[-45,11],[-51,0],[-32,-19],[-28,-1],[-16,10],[5,28],[-43,20],[2,26],[-26,37],[-14,3],[-34,-8],[-69,0],[-25,9],[15,23],[-45,6],[-59,38],[-50,-2],[-9,5],[-5,25],[-13,15],[-42,3],[-22,10]],[[4806,9396],[19,1],[34,27],[57,10],[34,-2],[36,11],[49,-1],[32,8],[16,22],[21,9],[8,27],[16,10],[25,3],[28,14],[26,28],[19,14],[-16,12],[8,12],[-5,16],[35,30],[-6,20],[40,31]],[[5282,9698],[37,-6],[12,-26],[18,-19],[48,2],[39,-3],[2,-9],[26,-23],[9,-22],[-16,-19],[-4,-15],[-29,-18],[-5,-9],[41,-42],[22,-14],[27,-2],[73,18],[19,-1],[6,-13],[-52,-56],[-45,-62],[-9,-30],[7,-15],[25,-12],[-4,-21],[27,-5],[26,-14],[2,-10],[26,-14],[25,-1],[28,-9],[45,-23],[59,-3],[27,4],[21,-13],[16,-24],[27,7],[46,-16],[35,-8],[21,4],[15,-15],[7,-23],[44,-5],[33,-10],[15,2],[46,15],[42,-9],[17,-8],[20,2],[33,-12],[52,-2],[10,6],[58,21],[20,-13],[18,3],[5,-13],[-16,-17],[21,-28],[3,-14],[39,-17],[63,-37],[7,-13],[36,-14],[7,-15],[-20,-12],[23,-5],[27,-27],[-3,-11],[48,-23],[61,-11],[18,-12],[14,9],[13,-14],[31,-6],[45,22],[22,27],[36,-3],[25,7],[58,-9],[36,5],[93,-14],[20,8],[40,-6],[25,-10],[10,4]],[[5591,6831],[-4,36],[19,26],[6,21],[34,22],[16,17],[71,20],[34,21],[43,6],[12,27],[10,0],[44,-40],[-2,-8],[37,8],[24,43],[-35,15],[-1,14],[19,3],[-4,16],[-18,-6],[-8,19],[14,21],[-10,6],[-10,38],[-16,18],[6,10],[-29,25],[5,18]],[[6834,7392],[15,-10],[-11,-17],[28,-39]],[[6866,7326],[-38,-24],[-24,-2],[-25,-42],[-12,-4],[-5,-17],[1,-42],[-22,-7],[-14,-13],[-33,-3],[-4,-8],[-47,-25],[-3,-26],[-28,-16],[-1,-14],[-34,-11],[11,-21],[-15,-1],[-2,-28],[-14,0],[-2,-15],[-72,-18],[-17,-30],[14,-4],[-2,-25],[8,-12],[-18,-30],[18,-15],[-36,-22],[13,-18],[-9,-9]],[[4977,7991],[-4,-21],[17,-11],[-21,-24],[-25,-3],[-14,-10],[-6,-16],[-20,8],[-6,-21],[-40,-9],[0,-34],[23,1],[-1,-10],[-25,-11],[38,-4],[-4,-11],[-23,4],[-14,-5],[6,-17],[-29,-7],[9,-10],[-32,-8],[16,-27],[-39,-32],[19,-8],[-12,-17],[33,-16],[9,-12],[-12,-8],[13,-15],[-4,-8],[21,-21],[-6,-7],[11,-15],[-24,-13],[14,-9],[-31,-23],[8,-18],[50,-11],[15,3],[33,-21],[24,-6],[6,-10],[46,-22],[-1,-11],[39,-37],[28,-8],[58,-2],[0,-32],[51,-47],[21,1],[13,-24],[21,-11],[46,-15],[14,-17],[-9,-7],[18,-28],[-1,-21],[20,0],[32,-24],[54,-6],[-5,-12],[13,-14],[21,-8],[0,-9],[19,-10],[3,-19],[17,-18],[-16,-20],[-14,-8],[-57,-3],[-13,4],[9,16],[-26,-1],[-8,16],[-11,-4],[-41,-29],[-4,-31],[-19,-6]],[[5268,7011],[-27,18],[-18,-6],[-21,11],[-44,0],[-17,18],[-55,3],[-21,24],[-44,-2],[-27,9],[-12,-23],[-17,-15],[-34,-2],[-10,10],[-21,3],[-23,-15],[-24,7],[13,22],[-20,15],[-14,-1],[-32,20],[4,20],[20,6],[1,13],[-24,9],[-10,26],[5,14],[-38,21],[-30,-3],[-22,9],[-3,9],[-36,-7],[-7,6],[-44,-2],[-28,-15],[-26,6],[-20,-6],[-23,10],[-42,-21],[-47,-10],[-36,18],[-19,17],[-25,0],[-3,17],[-32,25],[-94,-1],[-15,18],[-25,1],[-10,7],[-39,1],[-19,-6],[-32,2],[-27,13],[-32,7],[-21,12],[-16,-7],[-29,9],[-25,-4],[-38,-15],[-6,-7],[-35,-7],[-45,30],[-1,17],[-19,11],[-39,9],[-12,-4],[-23,8],[-4,10],[17,15],[-4,12],[24,16],[-8,9],[10,13],[32,12],[-2,26],[18,11],[-7,5],[-80,-14],[-38,20],[-40,32],[-8,18],[-26,20],[3,7],[-2,47],[-22,23],[-28,6],[-10,15],[17,-1],[20,15],[6,27],[39,18],[19,3],[23,15],[0,18],[16,-1],[38,14],[6,20],[14,-5],[14,14],[-1,12],[38,24],[2,9],[41,10],[1,-13],[33,-4],[11,16],[18,1],[3,26],[34,4],[7,15],[8,-7],[12,23],[-9,12],[-21,3],[-22,-11],[-58,4],[-12,-7],[-3,-19],[-23,-11],[-4,-16],[-38,3],[-6,9],[-29,4],[8,9],[-22,18],[4,11],[-26,2],[-46,26],[-20,3],[-23,14],[-1,9],[-31,3],[-12,9],[-27,-9],[-19,9],[-30,1],[-4,-9],[-25,-9],[-13,7],[-59,-16],[-16,8],[-22,-2],[-30,7],[-41,3],[-19,-5],[-1,-25],[-14,-31],[-40,-12],[-30,8]],[[3173,7919],[6,12],[-12,27],[24,8],[16,17],[8,20],[-41,16],[-9,18],[-11,5],[-25,-5],[-47,2],[-34,-8],[-20,2],[-1,19],[-46,21],[-5,18],[14,14],[-7,15],[-19,1],[-1,30],[-29,8],[4,12],[-6,42],[-31,1],[-13,14],[6,13],[-4,16],[47,19],[17,14],[32,12],[48,-7],[52,0],[26,16],[26,25],[15,23],[23,11],[2,23],[28,18],[-12,32],[18,25],[24,4],[54,39],[8,31],[20,16],[55,-23],[37,-28],[47,-5],[16,-9],[-20,-24],[9,-10],[20,6],[39,-4],[12,7],[46,-16],[50,10],[39,0],[34,-11],[31,23],[16,2],[12,15],[25,18],[-9,17],[76,42],[5,16],[29,11],[66,-13],[43,17],[6,16],[51,37],[11,24],[46,-3],[29,22],[60,11],[100,56],[1,63],[8,12],[2,31],[-34,17],[3,16],[-12,12],[-26,10],[-62,6],[3,12],[28,15],[11,28],[19,31],[-20,13],[-14,43],[13,28],[-9,14],[-29,10],[-13,13],[-22,7],[31,17],[-10,13],[9,40],[-9,20],[31,34],[20,10],[-10,32],[32,13],[6,14],[63,29],[10,33],[21,8],[-7,27],[15,9],[4,33],[22,13],[8,30],[61,41],[70,-11],[11,-17],[32,-19],[50,-5],[15,-11],[24,4],[87,0],[-1,-17],[12,-36],[21,-9],[21,-35],[21,-7]],[[4806,9396],[-6,-11],[1,-26],[-18,-27],[-58,-20],[-68,-15],[-17,-10],[-17,-26],[-42,-26],[3,-19],[-10,-31],[15,-23],[-6,-36],[37,-1],[10,-23],[20,-2],[25,5],[8,-11],[14,7],[20,-19],[32,8],[15,-7],[-5,-14],[24,-13],[-1,-10],[17,-27],[49,-6],[5,-18],[32,-12],[-17,-41],[37,-4],[26,-16],[13,3],[43,-8],[6,-23],[-8,-40],[29,-15],[17,-19],[43,6],[17,-15],[-1,-13],[-26,-19],[14,-4],[21,-24],[-12,-14],[20,-13],[-13,-10],[2,-14],[-18,-1],[2,-13],[30,-11],[10,2],[23,-23],[-17,-7],[17,-8],[-23,-11],[35,-21],[-7,-21],[-15,-16],[13,-25],[-8,-22],[-34,-11],[-11,6],[-10,-16],[-13,-4],[-1,15],[-20,9],[10,9],[-15,7],[-20,-11],[4,-11],[-21,-6],[-16,-14],[-16,6],[-40,-22],[-11,-17],[-17,12],[-14,-13],[-23,0],[4,-23],[-19,-5],[4,-12],[-13,-12],[20,-5]],[[5300,6760],[-29,-1],[-9,20],[9,11],[-12,15],[-30,15],[-4,25],[-12,7],[14,20],[27,17],[-1,18],[19,15],[7,23],[-13,22],[2,44]],[[6713,8347],[8,-16],[-10,-24],[24,-31],[33,-13],[19,-12],[-9,-43]],[[6778,8208],[16,-37],[-16,-23],[8,-14],[-1,-26],[-36,0],[-53,-11],[-27,-25],[-29,-60],[32,-20],[49,-11],[27,-12],[17,-21],[0,-10],[-17,-30]],[[6748,7908],[-14,8],[-42,8],[-15,9],[-16,23],[-41,3],[-18,10],[-31,5],[-51,-2],[-18,4],[-97,-6],[-21,-11],[-11,-28],[-16,-1],[-37,10],[-21,0],[-38,-8],[-28,-24],[-4,-16],[17,-11],[-24,-51],[-1,-12],[13,-13],[-19,-20],[-47,-2]],[[3756,6551],[1,15],[-61,33],[-32,8],[-5,14],[-39,21],[-33,7],[-7,11],[-23,10],[-12,16],[10,20],[-14,15],[-26,41],[22,4],[74,27],[44,31],[34,4],[17,24],[22,14],[1,20],[16,22],[3,43],[33,58],[-40,21],[-22,38],[-5,19],[-18,-4],[-40,-22],[-48,-11],[-27,-2],[-21,7],[-2,18],[16,27],[-1,24],[33,51],[-5,11],[23,44],[-26,8],[-8,12],[7,26],[-13,8],[-55,14],[-22,18],[-19,5],[-8,-10],[-42,9],[-51,-1],[-14,-8],[-14,10],[-2,24],[-20,17],[-2,11],[12,26],[23,21],[12,21],[-11,11],[15,11],[1,17],[-47,18],[-6,18],[-12,8],[-36,8],[-34,1],[-16,-8],[-41,3],[-48,-15],[-1,25],[24,19],[3,14],[-16,42],[-37,5],[-17,-8],[-22,-33],[-14,-10],[-25,-3],[-16,-12],[-36,-10],[-3,32],[-26,18],[-4,28],[-15,23],[27,19],[37,15],[9,18],[21,10],[17,25],[-20,19],[9,13],[32,12],[7,8],[-6,19],[21,18],[2,24],[27,7],[-9,28],[44,25],[13,16]],[[6748,7908],[-2,-41],[22,-25],[-14,-25],[31,-39],[-41,-76],[-11,-29],[-20,-10],[-6,-21],[-29,-20],[-23,-32],[0,-16]],[[5282,9698],[-1,10],[15,5],[0,19],[20,32],[-6,13],[15,19],[14,56],[17,11],[29,-3],[44,19],[24,23],[17,8],[31,3],[45,22],[34,10],[37,26],[35,8],[28,-7],[16,10],[41,-10],[15,6],[59,-9],[13,5],[16,22],[9,3],[50,0],[-20,-12],[-4,-26],[4,-17],[-10,-47],[-41,-16],[30,-18],[33,14],[-10,-20],[22,-9],[19,5],[36,-2],[50,-18],[27,6],[-6,-18],[38,-33],[-14,2],[22,-20],[9,15],[20,-2],[33,-18],[4,14],[27,8],[2,-18],[28,12],[-6,-20],[24,-14],[52,-11],[-11,17],[46,-7],[12,-8],[16,11],[-6,12],[40,-9],[16,-13],[12,7],[25,-2],[0,-20],[-18,-19],[32,-2],[12,-8],[-18,-6],[15,-29],[14,5],[-1,25],[38,4],[22,-10],[44,-28],[31,-13],[30,-3],[55,9],[39,-6],[34,-14],[28,-22],[67,-4],[30,7],[11,-15],[-5,-27],[59,3],[32,-24],[36,4],[24,-6],[21,2],[15,-11],[-5,-10],[14,-4]],[[7074,9522],[-12,-4],[-20,-33],[12,-5],[-8,-16],[-15,-4],[8,-20],[-14,-2],[2,-15],[-12,-15],[5,-43],[17,-13],[-15,-6],[26,-43],[-7,-12],[20,-24],[24,-1],[20,-13],[45,3],[19,-13],[-14,-24],[20,-18],[20,9],[20,-19],[0,-19],[38,-7],[20,-10],[-6,-8],[-38,-21],[3,-20],[-24,-6],[-19,-17],[10,-35],[-22,1],[-30,-26],[-13,-29],[-21,1],[-23,-11],[-18,0],[-15,-15],[-38,13],[-23,-4],[-12,8],[-33,-12],[-26,5],[-2,-15],[-16,-16],[22,-3],[17,-22],[43,2],[24,-8],[5,10],[19,-2],[28,-12],[6,-10],[46,-8],[17,4],[21,-7],[22,-33]],[[6875,7471],[71,3],[65,23],[30,17],[13,25],[15,6],[55,-18],[10,-12],[40,-17],[10,12],[35,-4],[14,21],[38,8],[3,14],[43,-3],[35,5],[65,-5],[20,7],[43,-4],[93,52],[24,-3],[18,-12],[46,12],[-6,13],[22,13],[16,-2],[7,8],[33,-10],[47,3],[-13,36],[-32,-10],[-25,-2],[-5,21],[-17,24],[13,29],[30,39]],[[7731,7760],[27,5],[41,22],[30,-2],[24,-29],[-10,-2],[-8,-22],[-31,-6],[27,-11],[26,0],[-14,-14],[19,-1],[9,-11],[-12,-10],[38,-28],[2,-16],[-12,-10],[17,-6],[45,-4],[12,-11],[-16,-13],[-31,2],[11,-23],[15,-3],[52,13],[40,4],[5,10],[-22,16],[20,0],[34,-28],[4,-28]],[[8073,7554],[-18,-4],[-60,2],[-75,-14],[-81,-31],[-70,-39],[-55,-45],[-86,-91],[-11,-19],[-1,-20],[-10,-25],[-22,-7],[-28,-22],[-11,-21],[1,-13],[-33,-39],[-9,-24]],[[7504,7142],[-114,0],[-8,12],[-24,-12],[-24,13],[-74,-11],[-39,11],[-48,19],[-12,12],[-10,52],[-35,16],[-18,-3],[-3,11],[-20,4],[-31,20],[-70,32],[-35,10],[-29,2],[-12,13],[-32,-17]],[[6778,8208],[164,3],[172,-68],[152,-63],[87,-7],[17,-4],[27,-23],[8,-30],[50,-8],[22,-12],[16,11],[47,-6],[24,-22],[4,-29],[23,-4],[3,-18],[23,-7],[-3,-14],[9,-26],[25,-9],[-2,-10],[23,-13],[-8,-14],[16,-30],[-1,-13],[13,-29],[42,-3]],[[7504,7142],[-11,-25],[7,-13],[-37,-7],[-39,-25],[-7,-11],[-35,-10],[-26,-28],[-32,-51],[-7,-39],[3,-34],[10,-22],[-8,-7],[31,-13],[-26,-29],[-24,-5],[-43,-51],[-15,-67],[6,-37],[10,-11],[18,0],[10,-20]],[[8403,6658],[22,12],[19,30],[10,-8],[-24,-27],[-27,-7]],[[6982,8585],[200,-19],[62,3],[31,-1],[42,5],[7,-9],[111,-9],[90,-21],[380,-82],[44,-1],[61,10],[100,22],[67,12],[54,-1],[132,1],[80,6],[20,-18],[34,5],[26,-15],[25,2],[-1,8],[29,4],[25,12],[12,-13],[61,2],[37,-11],[-11,-9],[24,-17],[37,-3],[20,3],[16,-11]],[[8797,8440],[21,-16],[27,-7],[28,-19],[36,-2],[17,-19]],[[8926,8377],[-8,-13],[9,-16],[-19,-5],[15,-7],[-45,-44],[-21,-24],[-1,-24],[-19,-8],[0,-9],[-28,-18],[-23,-41],[13,-21],[16,-2],[-23,-10],[17,-18],[-6,-13],[-23,9],[-27,-12],[-19,-20],[11,-8],[-22,-6],[-6,-17],[-20,-20],[-18,-9],[-14,6],[-13,-25],[15,-8],[-24,-15],[-9,10],[-43,-6],[-15,-40],[-11,-17],[-22,-15],[-33,-84],[-24,-38],[-37,-38],[-18,-26],[-49,-3],[-18,5],[-32,-12],[-2,-9],[-23,-7],[-50,-36],[-51,-50],[-10,-36],[7,-38],[25,-22],[36,10],[13,-11],[24,-2],[-25,-32],[-3,-14],[-33,-8],[-21,-16],[3,-8],[-27,-9],[5,72],[-25,16],[-24,9],[-16,17],[-33,10],[-29,3]],[[8776,7662],[-20,3],[8,31],[23,2],[3,-14],[-14,-22]],[[7268,8734],[111,66],[52,50],[12,6],[9,18],[23,6],[-2,9],[25,21],[1,8],[29,22],[14,32],[9,8],[74,26],[7,6],[-22,31],[53,2],[16,10],[29,4],[0,14],[25,28],[4,22],[37,13],[12,15],[-7,6],[18,30],[-12,14],[-18,-1],[-10,10],[-34,8],[5,6],[-14,17],[38,22],[47,13],[31,4],[25,-47],[13,-17],[11,-31],[24,-40],[57,-47],[60,-9],[131,2],[-6,-9],[29,-5],[22,11],[65,-4],[29,7],[40,-6],[7,3],[43,-12],[23,5],[30,-1],[71,27],[5,31],[22,10],[1,12],[16,11],[43,9],[35,-7],[7,17],[16,4],[39,-1],[43,-12],[48,-25],[37,-2],[40,9],[25,-1],[42,-20],[87,-12]],[[9010,9130],[-44,-25],[-19,-24],[-17,-39],[-13,-60],[1,-31],[25,-82],[-11,-46],[13,-34],[-15,-61],[1,-42],[-20,-37],[-57,-34],[-46,-36],[-15,-20],[5,-50],[15,-10],[-12,-31],[7,-26],[-11,-2]],[[9010,9130],[39,26],[20,26],[43,38],[53,32],[29,22],[24,37],[13,42],[21,33],[48,46],[7,40],[-23,15],[-45,50],[-40,30],[12,20],[-10,19]],[[9201,9606],[40,26],[59,13],[-1,11],[21,11],[-2,7],[29,18],[40,1],[55,26],[65,-29],[45,-4],[45,10],[64,-7],[13,-8],[37,3],[18,10],[29,6],[27,-4],[26,10],[-10,-19],[-21,-6],[-5,11],[-32,-7],[-22,-21],[-28,-50],[-25,-76],[-4,-27],[-3,-67],[3,-42],[13,-57],[16,-37],[42,-67],[44,-47],[23,-17],[26,-10],[19,-1],[6,14],[29,2],[21,-9],[-37,-15],[6,-34],[30,-35],[54,-4],[23,-6],[19,-20],[1,-24],[-15,-17],[-26,-13],[-28,-2],[-36,-35],[-14,0],[-10,-13],[1,-19],[15,-17],[16,-1],[-12,-20],[-1,-24],[-25,-5],[-9,7],[-11,-14],[11,-15],[-19,-20],[-15,-3],[-20,-17],[-18,1],[-29,-12],[-4,12],[30,5],[12,16],[-25,30],[-12,0],[-10,15],[6,16],[-34,26],[-35,14],[-42,26],[-24,7],[-16,21],[-51,-2],[-42,-19],[-33,-42],[-15,-5],[-35,-39],[-21,-11],[-9,7],[-51,7],[-30,-6],[-30,6],[-42,1],[-119,-14],[-14,-27],[13,-17],[-16,-4],[-12,-27],[-47,-26],[-7,-12],[16,-21],[-12,-32],[6,-13],[-2,-50],[-12,-26],[-5,-32],[-14,-20],[2,-19],[-20,-22],[-12,-28],[-14,-17],[9,-13],[-17,-41],[-38,-43]],[[9690,8510],[-14,15],[16,13],[10,-16],[-12,-12]],[[9674,8779],[21,4],[14,-6],[-32,-17],[-9,-28],[-24,-13],[-13,0],[-22,-11],[-2,-17],[-24,4],[6,-12],[-21,-13],[-10,3],[-4,-17],[-24,-16],[-16,8],[-47,-28],[-20,3],[25,36],[23,22],[41,18],[33,25],[10,22],[19,21],[30,12],[2,10],[44,-10]],[[7074,9522],[2,18],[37,5],[67,-2],[34,-12],[18,-16],[36,-5],[52,-35],[9,-1],[91,73],[16,5],[34,0],[66,-6],[28,-7],[21,-14],[43,0],[39,20],[37,-3],[47,3],[25,14],[105,-20],[19,-19],[23,-7],[29,1],[22,47],[29,19],[42,12],[49,-22],[33,-7],[26,2],[29,-10],[28,0],[27,-7],[53,2],[28,-6],[10,6],[59,7],[26,-22],[-1,-7],[21,-16],[19,2],[8,-12],[17,2],[40,-9],[25,-13],[126,-12],[70,-22],[32,9],[66,26],[42,25],[15,18],[32,5],[31,10],[12,21],[94,2],[3,6],[136,36]],[[5072,2469],[12,-13],[19,-4],[65,-5],[20,2],[48,-20]],[[5236,2429],[-6,-10]],[[5230,2419],[-29,-4],[-45,1],[-84,9],[-42,1],[-22,12],[-20,20],[32,9]],[[5020,2467],[39,19],[13,-17]],[[5230,2419],[-12,-19],[-28,-6],[-10,-44],[-15,-19],[-89,-62],[3,-32]],[[5079,2237],[-34,2],[3,-22],[-81,-19],[-111,-20],[-40,-2]],[[4816,2176],[14,26],[2,28],[28,6],[19,31],[26,17],[9,28],[22,10],[3,16],[-9,8],[-24,6],[-23,42],[-8,2],[-72,-23],[3,49],[-11,28]],[[4795,2450],[29,13],[15,19],[11,1],[25,-19],[56,-4],[29,4],[19,13],[3,13],[15,-3],[7,-13],[16,-7]],[[4816,2176],[-59,-28],[-39,5],[-32,-3],[-7,-12],[-17,1],[-4,-10],[-56,-28],[-91,-33]],[[4511,2068],[6,120],[-3,57],[-12,37],[-3,34]],[[4499,2316],[30,-2],[8,22],[-36,-2],[-9,6],[-25,36],[62,19],[32,-3],[62,11],[7,8],[-36,5],[-20,16],[7,22],[23,11],[21,3],[52,-14],[31,15],[26,1],[24,-21],[24,-5],[13,6]],[[5546,2916],[-141,-49],[1,-20],[-23,-23],[17,-19],[6,-34],[83,-61],[18,-10],[58,-14],[1,-15],[15,-11],[32,1],[4,-16],[45,-17]],[[5662,2628],[-134,-35],[-22,1],[-59,-12],[-8,-13],[-173,6],[-241,91],[-23,-6]],[[5002,2660],[-49,69],[-14,29],[-38,36],[-78,42],[-69,46],[-2,44],[-8,36],[-47,-6],[-19,-11],[-4,-14],[-19,-3],[-16,-24],[-54,-12],[-24,-15],[-24,-4],[-4,-9],[-29,-10],[-49,3],[-15,7],[-25,-6],[-47,9],[-49,-4],[-23,-6],[-17,5],[4,-33],[33,-27],[-1,-21],[-42,-4],[-18,-12],[-12,5],[-29,-5],[-16,7],[-23,-6],[-19,22],[-50,-3],[-22,6],[-10,11],[-31,11],[-12,9],[-39,14],[-4,-8],[-41,5],[-23,7],[-23,-10],[-30,-1],[-40,-8],[-55,-18],[-16,6],[-55,-5],[-23,5],[-57,-7]],[[3625,2802],[-61,12],[-31,13],[-38,1],[-40,15],[-49,29],[-28,7],[-6,18],[-19,6],[6,15],[18,7],[-27,10],[-12,11],[34,55],[35,19],[20,24],[29,22],[12,16]],[[3468,3082],[49,-33],[1,-21],[27,-14],[16,-33],[-7,-33],[-46,-22],[-4,-9],[23,-40],[24,-1],[28,10],[46,3],[25,-10],[16,14],[47,27],[3,10],[15,-3],[120,-6],[102,-3],[15,-6],[12,-16],[21,-8],[41,6],[75,24],[24,35],[53,11],[20,7],[32,21],[31,12],[33,37],[39,22],[48,1],[29,9],[23,-4],[42,9],[42,18],[-2,10],[14,13],[37,14],[31,17],[15,2],[56,-16],[17,-17],[23,-1],[25,-16],[67,-7],[25,-10],[16,5],[8,-8],[28,-6],[34,5],[61,0],[4,-6],[32,4],[15,-6],[18,-24],[34,-7],[37,-15],[26,-3],[16,-10],[36,-3],[31,-16],[8,-14],[31,-5],[45,-13],[23,2],[55,-24],[60,-10],[17,19],[47,-3],[21,-14],[2,-17]],[[5352,2172],[51,0],[17,-15],[25,-3],[15,-22],[6,-25],[24,-5],[83,0],[34,-9],[5,-9],[93,-27],[83,-13],[57,-3],[94,0]],[[5939,2041],[12,-52],[27,-69],[53,-112],[-7,-13],[-27,-7],[3,-30],[-8,-38],[-45,6],[-32,-11],[-43,-28],[0,18],[-22,-4],[-46,-36],[-27,-28],[-14,-21],[-23,-47],[-8,-7]],[[5732,1562],[2,16],[-41,3],[-56,16],[-57,25],[-60,2],[-56,13],[-11,20],[-13,3]],[[5440,1660],[-60,-14],[-45,1],[-21,-11],[-26,-5],[-12,-9],[-55,-13],[-83,0],[-18,17],[29,69],[17,11]],[[5166,1706],[23,13],[-18,21],[2,47],[-5,22],[-31,68],[-10,34],[-17,90],[-12,133],[-13,68]],[[5085,2202],[34,4],[27,-3],[55,-29],[16,1],[36,-17],[23,-5],[4,-18],[15,0],[23,24],[17,0],[17,13]],[[5079,2237],[6,-35]],[[5166,1706],[-28,3],[-35,-3],[-15,22],[-51,8],[-37,-6],[-4,-7],[-32,-12],[5,-11],[-19,-6],[10,-15],[-24,6],[-41,-23],[-20,-6],[1,-12],[-25,-17],[13,-15],[-14,-13],[-49,-13],[-9,-20],[-9,6],[-6,-21],[-66,-5],[2,-26],[-53,-22],[-1,-9],[-39,-16],[6,-7],[-48,-24],[-48,-12],[7,-14],[-7,-16],[-21,5],[-7,-15],[-27,-14],[-51,-7],[-31,-11],[-29,-2],[-48,-13],[-34,-2],[-18,13],[-32,1],[-25,12],[-1,20],[-20,18],[-2,12],[-22,42],[-14,-20],[-26,-23],[-76,-36],[-20,-26],[-28,-16],[-7,21],[-32,18],[-21,2],[-35,30],[-47,1],[-11,4],[-21,25],[-5,21],[-43,0],[-9,-5],[-55,-1],[-21,-11],[-29,-1]],[[3662,1442],[-1,13],[14,3],[-26,30],[-11,3],[-25,30],[-39,31]],[[3574,1552],[46,-9],[28,1],[57,8]],[[3705,1552],[47,2],[25,12],[25,25],[-12,27],[13,31],[1,28],[17,10],[23,-10],[93,13],[19,20],[-11,22],[15,22],[3,16],[-35,27],[-12,28],[11,3]],[[3927,1828],[16,-12],[3,-15],[33,-5],[20,-14],[37,-9],[37,11],[17,18],[22,-4],[24,10],[31,3],[5,17],[-6,22],[17,2],[10,14],[27,9],[16,13],[8,22],[17,-1],[117,49],[16,30],[-10,28],[19,30],[84,31],[24,-9]],[[5352,2172],[11,20],[-3,31],[21,6],[15,20],[-28,11],[-6,12],[8,16],[37,-4],[-3,21],[10,7],[19,-6],[9,-13],[16,1],[-3,23],[-31,7],[9,17],[29,-7],[-2,25],[3,33],[9,24],[17,15],[33,10]],[[5522,2441],[38,8],[19,11],[22,22],[16,7],[12,-13]],[[5629,2476],[22,-13],[20,-3],[62,6],[32,-11],[14,-17],[-11,-26],[-32,-16],[1,-11],[25,-16],[37,-5],[116,29],[57,23]],[[5972,2416],[9,-53],[-7,-32],[3,-37],[14,-62],[-1,-51],[-7,-35],[-35,-6],[-13,-47],[4,-52]],[[5546,2916],[16,5],[-5,26],[37,5],[1,21],[18,10],[-23,24],[2,39],[-13,8],[15,32],[-6,11],[-22,5],[-11,15],[12,21],[-11,24],[16,20],[-30,3],[-24,-5],[-13,6],[2,26],[9,11],[38,15],[13,17],[8,28],[26,17],[49,3]],[[5650,3303],[22,-23],[12,6],[24,-9],[22,-26],[28,-10],[149,-3]],[[5907,3238],[49,-53],[67,-60],[48,-36],[31,-13],[47,-8],[29,20],[37,-2],[-6,-23],[13,-21],[-19,-16],[-10,-26],[-57,0],[-18,-18],[1,-34],[31,-4],[19,-20],[18,-8],[5,-22],[-11,-24],[-24,-17],[-6,-16],[-32,-2],[-40,3],[-13,6],[-43,35],[-58,-18],[-31,-24],[-17,-21],[-29,-52],[-14,-19],[-10,-44],[-3,-33],[5,-37],[9,-34],[13,-29]],[[5888,2568],[-23,-6],[-100,5],[-98,-2]],[[5667,2565],[-17,9],[-2,12],[18,26],[-4,16]],[[6313,3125],[-7,-6],[-44,-2],[-29,16],[22,10],[-3,23],[6,15],[29,8],[2,-14],[28,-15],[-4,-35]],[[5629,2476],[2,22],[19,20],[23,9],[-9,29],[3,9]],[[5888,2568],[31,-53],[56,-85],[-3,-14]],[[5236,2429],[11,-37],[21,-8],[45,18],[29,7],[62,11],[55,21],[21,4],[42,-4]],[[5072,2469],[28,29],[-13,27],[-7,30],[-78,105]],[[4499,2316],[-33,-1],[-17,8],[-11,16],[-30,2],[-8,6],[-33,-3],[3,-24],[-24,8],[-26,-1],[-31,-18],[-57,14],[-25,32],[-18,3],[-38,23],[5,21],[-15,16],[-3,18],[8,20],[-37,15],[5,29],[-12,11],[10,13],[61,24],[-20,35],[-22,16],[-38,-3],[-24,6],[-24,-13],[-22,-4],[-100,-56],[-22,7],[-32,24],[0,15],[-42,-5],[-16,24],[13,23],[-22,11],[-3,11],[-22,-1],[9,10],[-12,16],[-19,4],[-37,22],[-58,14],[-23,2],[-5,27],[9,30],[-16,39]],[[3927,1828],[-20,5],[-8,-7],[-20,2],[-40,50],[0,24],[-19,7],[-2,17],[-26,13],[29,9],[17,15],[25,-7],[8,10],[-14,16],[-2,16],[-19,28],[9,8],[39,9],[19,13],[29,6],[9,14],[-37,13],[-38,46],[-21,4],[-11,24],[-37,33],[-7,29],[-23,12],[5,30],[40,26],[-7,21],[2,20],[-19,7],[-19,-9],[-81,-14],[-32,1],[-37,-7],[-21,4],[-35,-3],[-51,11],[-5,9],[30,10],[39,24],[-21,17],[-96,6],[-15,17],[6,33],[-12,17],[-32,18],[2,18],[-24,19],[6,24],[17,9],[2,14],[-47,21],[-19,-6],[-17,5],[-1,12],[-22,5],[-38,20],[-51,-3],[-14,13],[-30,5],[-17,-5],[-50,18],[-7,20],[-23,19],[-48,10],[-22,13],[-7,22],[-33,19],[-19,24],[-32,12],[-21,0],[-42,30],[2,6]],[[2851,2819],[22,7],[27,24],[12,34],[20,16],[37,10],[31,24],[44,13],[7,11],[50,12],[5,23],[18,29],[-51,55],[-13,27],[5,22],[22,41]],[[3087,3167],[48,15],[31,-4],[23,12],[30,4],[24,27],[17,10],[31,29],[17,6]],[[3308,3266],[11,2],[22,-15],[39,-2],[21,-6],[21,-24],[15,-8],[0,-30],[15,-14],[33,-5],[5,-13],[-18,-17],[-4,-52]],[[5732,1562],[6,-2],[-8,-33],[-3,-55],[7,-60],[24,-64],[-1,-35],[14,-90],[20,-72],[16,-98],[3,-36]],[[5810,1017],[-27,16],[-25,2],[-1,-28],[-15,-11],[-33,0],[-41,10],[-20,-6],[-28,-20],[-10,-15],[-44,0],[-39,6],[-53,-4],[-24,2],[-105,-3],[-53,-13],[-22,7],[6,14],[-23,16],[-21,7],[-65,-8],[-29,9],[-48,-13],[5,14],[-48,-3],[2,13],[-21,8],[-49,-16],[-19,6],[-20,-41],[-18,-14],[-15,3],[-33,-34],[-3,-34],[-10,-4],[-3,-26],[-14,-14],[-18,-5],[13,-20],[-15,-41],[-28,-17],[-35,-8],[-13,-16],[-30,2],[-36,-4],[-4,-20],[-35,-23],[-25,-5],[-25,4],[-29,-20],[-32,2],[-27,-16]],[[4505,656],[-17,1],[-29,23],[-28,-1],[-11,-11],[-27,-13],[-22,1],[-24,10],[-13,13],[-29,-1],[-20,5],[-46,-33],[-35,-16],[-53,-8],[-6,-17],[-40,-54],[-59,-20],[-14,-20],[-46,-14],[-39,6],[19,5],[3,13],[-20,1],[5,18],[-23,18],[-36,-13],[-8,4],[-34,-8],[-17,-9],[-48,-5],[-28,17],[7,7],[-69,5],[-16,10],[-10,-19],[-16,3],[-27,-13],[-28,14],[-7,11],[-26,-4],[-55,8],[-19,-8],[-21,25],[-22,-2],[-4,24],[-22,2],[-8,7],[9,26],[-3,20],[-33,17],[-3,10],[-35,7],[-23,19],[-42,24],[-25,38],[-54,36],[1,16],[-38,22],[-14,-8],[-29,3],[-22,14],[-13,0],[-23,-19],[-25,-13],[-26,-3],[-13,5],[-10,18],[-36,-6],[-10,9],[-37,2],[-6,22],[-19,-6],[-4,10],[-20,-7],[-15,4],[-10,17]],[[2839,895],[6,14],[-1,34],[-24,14],[-6,15],[41,44],[1,17],[16,10],[5,15],[19,13],[12,26],[-38,7],[4,19],[34,22],[-4,27],[17,23],[-12,21],[-32,6],[-22,10],[7,23],[-25,22],[-11,1],[12,30],[11,10]],[[2849,1318],[14,10],[44,13],[34,1],[25,10],[38,-2],[35,6],[19,19],[40,19],[31,26],[29,16],[62,15],[64,7],[82,5],[54,-1],[15,6],[53,40],[33,16],[34,8],[4,13],[15,7]],[[3662,1442],[-21,-10],[-5,-26],[18,-36],[-22,-2],[-18,-13],[5,-12],[-17,-4],[20,-15],[27,-9],[-12,-18],[13,-23],[20,-17],[-7,-5],[33,-15],[-8,-12],[23,-1],[17,-21],[18,-1],[20,-10],[17,7],[40,-1],[17,-4]],[[3840,1194],[12,-2],[3,-25],[26,-2],[21,-32],[3,-17],[15,-4],[9,-14],[-8,-17],[57,-46],[-11,-6],[40,-32],[3,-12],[26,-4],[-4,-9],[41,-34],[38,-11],[5,-13],[15,3],[16,-23],[17,8],[3,-18],[-10,-11],[25,-16],[42,20],[27,25],[45,-27],[19,7],[37,-15],[45,-33],[51,0],[21,24],[22,3],[44,-2],[4,10],[28,11],[-14,25],[-19,8],[60,22],[25,-15],[-13,40],[36,22],[18,-5],[33,16],[14,24],[-4,9],[16,5],[8,12]],[[4727,1043],[-11,39],[23,17],[15,21],[50,7],[20,-6],[28,3],[2,32],[37,21],[18,-3],[5,-31],[37,1],[9,6],[3,20],[12,12],[20,5],[17,-5],[20,6],[43,-7],[41,27],[40,-2],[20,7],[13,-8],[-6,-15],[12,-4],[19,9],[9,14],[-4,14],[32,7],[12,19],[-37,0],[6,14],[65,1],[20,24],[5,17],[-8,20],[36,7],[-2,13],[12,76],[10,24],[-4,8],[7,27],[-2,19],[28,40],[-8,22],[-2,43],[11,10],[34,4],[5,8],[1,34]],[[4727,1043],[-29,-8],[-21,39],[4,25],[-13,52],[-7,11],[-4,33],[-9,21],[-132,-15],[26,-94],[-99,-8],[-32,10],[-22,2],[-27,20],[-34,31],[-22,-7],[-38,6],[-48,1],[-42,23],[-57,0],[-36,32],[-19,23],[-25,12],[0,8],[-32,10],[-22,1],[-60,-24],[-10,17],[-26,-13],[-4,-32],[-10,0],[-17,-21],[-20,-4]],[[5810,1017],[7,-36],[17,-39],[35,-64],[54,-73],[20,-30],[15,-33],[6,-31],[-16,7],[-22,-11],[1,-21],[-20,0],[20,-9],[-2,-15],[-33,2],[-3,-9],[-19,1],[-8,15],[-24,12],[-23,0],[-19,11],[-38,31],[-74,19],[-22,-7],[-57,-12],[-66,-9],[-89,1],[-38,13],[-207,2],[-16,3],[-22,-8],[4,-10],[-44,-15],[-7,-26],[-44,-9],[-28,4],[-34,16],[-27,-9],[-14,1],[-48,27],[-38,-26],[-24,-25],[-33,-42],[-30,3],[-49,1],[-57,-8],[-43,-13],[-20,-22],[-13,9],[-2,27],[-41,14],[-15,11],[0,15],[-30,12],[-25,-6]],[[2839,895],[-29,11],[-35,5],[-49,-6],[-34,-14],[-58,-16],[3,-16],[-7,-30],[-16,-20],[-31,-27],[-28,-7],[-12,-17],[-32,-8],[-21,-12],[-52,-12],[-7,-12],[-44,4],[-15,14],[-30,-12],[-7,-12],[-23,-6],[-10,26],[-47,7],[-28,-15],[-40,-3],[-40,5],[-15,-18],[-20,-6],[-7,-25],[-51,-32],[-33,-6],[-23,-21],[-39,-10],[-62,1],[-15,-3],[-27,-18],[-39,-2],[-22,17],[9,19],[17,14],[-11,13],[-20,2],[-41,-12],[-51,-6]],[[1697,629],[-15,6],[-8,51],[-28,27],[-20,46],[-9,62],[-23,33],[-8,24],[-17,18],[-33,16],[-24,20],[7,17],[-10,17],[-30,10],[-27,21],[-63,29],[2,26],[-6,32],[-29,26],[-5,10],[-38,31],[-9,32],[-45,41],[-6,15],[15,36],[-60,42],[-16,26],[-8,23],[4,24],[-64,36],[25,21],[9,39],[-13,47],[-19,19],[-4,24],[-13,18],[2,18],[-29,23],[-7,37],[8,22],[-22,6],[-19,37],[-49,30],[-12,11],[6,25],[-13,6]],[[974,1809],[46,28],[28,24],[1,8],[-18,20],[23,38],[-25,35],[13,14],[-17,24],[14,41],[80,35],[34,36],[69,13],[20,10],[16,18],[34,16],[15,13],[5,17],[16,6],[59,5],[12,6],[-2,15],[14,37],[-4,19],[10,20],[28,19],[34,10],[25,13],[63,16],[52,43],[26,5],[70,26],[35,-8],[76,-33],[11,-13],[26,-13],[18,-2],[72,20],[86,-42],[50,-8]],[[2089,2340],[-3,-40],[-8,-10],[19,-20],[20,-32],[1,-47],[25,-31],[30,-21],[3,-32],[8,-13],[30,-16],[7,-38],[11,-10],[45,-11],[1,-32],[10,-6],[40,0],[26,-29],[24,-10],[6,-10],[46,-27],[20,-3],[40,-17],[39,-9],[3,-18],[17,0],[28,-13],[-7,-20],[28,-28],[22,-11],[-9,-23],[13,-9],[35,-2],[31,-17],[36,2],[39,-50],[-7,-12],[-29,-24],[6,-8],[-19,-25],[15,-27],[33,-14],[11,-19],[-6,-27],[8,-14],[-15,-31],[-27,-29],[18,-41],[33,-27],[5,-29],[10,-10],[43,-19],[5,-13]],[[1697,629],[-3,-17],[-25,-6],[-27,3],[-59,-10],[-13,-12],[3,-20],[-9,-17],[9,-34],[-16,-16],[24,-32],[-11,-17],[-6,-32],[8,-29],[-11,-16],[11,-26],[-22,-7],[-8,-16],[-11,-39],[10,-8],[26,-1],[12,-15],[1,-31],[-18,-13],[-7,-16],[14,-19],[-15,-8],[-28,-3],[-16,-15],[-26,-11],[-4,-13],[-35,-18],[-10,-20],[-59,-21],[-4,-20],[-21,-17],[-10,-25],[-32,6],[-54,-18],[-35,22],[-2,22],[7,19],[-34,24],[-20,-5],[-34,12],[-50,58],[-5,18],[-22,10],[-19,17],[-56,-5],[-11,3],[-30,23],[-24,-7],[-65,7],[-43,23],[-33,3],[-2,15],[-17,11],[-31,7],[-44,3],[-17,15],[-5,20],[-11,10],[-27,0],[-37,7],[-5,15],[-37,17],[-45,12],[-21,2],[-36,-8],[-66,2],[-11,7],[-40,-6],[-24,-9],[-17,18],[4,11],[-8,15],[-49,16],[-9,9],[15,15],[46,9],[11,26],[-3,11],[30,13],[12,15],[21,7],[9,13],[-9,18],[-2,29],[-21,14],[-51,14],[-65,11],[5,33],[28,24],[-4,19],[-23,8],[-14,20],[-28,10],[-4,22],[-30,9],[-16,13],[12,22],[-25,20],[-4,28],[19,23],[-14,18],[14,18],[28,19],[-3,30],[-73,20],[-10,8],[-29,60],[14,20],[-7,22],[-29,27],[-24,13],[8,8],[30,5],[23,13],[-7,36],[-15,17],[-9,26],[31,43],[-1,27],[26,-1],[43,18],[14,14],[23,3],[14,-16],[16,2],[50,30],[13,21],[20,8],[49,36],[6,10],[27,2],[41,18],[-2,28],[11,15],[19,4],[21,15],[15,1],[19,29],[46,21],[15,13],[29,6],[22,22],[14,24],[48,-3],[37,-16],[35,11],[41,40],[9,21],[39,26],[10,16],[33,12],[-8,15],[36,7],[45,25],[20,17],[18,6]],[[3705,1552],[-25,27],[-20,8],[9,28],[-30,23],[-27,16],[-11,33],[-35,16],[-32,45],[-1,25],[-12,7],[11,8],[-21,9],[0,27],[-27,7],[14,13],[-6,11],[10,19],[-18,77],[14,14],[-10,10],[11,8],[-21,18],[-23,2],[6,7],[-23,24],[15,4],[-25,11],[-44,41],[-33,-5],[-17,15],[-10,-31],[-36,10],[-26,-14],[-34,-8],[-65,2],[-33,-19],[-26,-9],[-27,30],[-21,-2],[-5,15],[-10,-4],[-9,14],[-20,4],[-8,-17],[-30,-2],[-24,-13],[-25,-6],[-26,24],[8,5],[-21,8],[-32,54],[-31,16],[-18,-7],[-21,-17],[-26,-1],[-17,-11],[-30,-1],[-28,13],[3,16],[-30,3],[19,5],[-18,26],[-15,6],[-4,-13],[-43,-15],[-29,10],[-24,29],[-20,9],[-2,10],[-46,9],[-5,10],[-22,-3],[-35,28],[-32,7],[-8,13],[-13,-3],[-18,21],[5,18],[-33,14],[10,11],[-10,9],[-25,0],[3,11],[-21,22],[-6,33],[-29,12],[21,16],[30,15],[3,20],[-13,24],[1,26],[21,13],[-22,30],[-15,6]],[[2261,2581],[-5,16],[8,18],[-16,11],[36,21],[21,-3],[25,16],[5,17],[38,5],[19,15],[8,25],[40,11],[54,-2],[53,12],[21,22],[10,3],[48,-16],[59,1],[25,10],[22,23],[44,0],[51,31],[24,2]],[[2089,2340],[25,12],[17,26],[61,41],[5,10],[-11,13],[-9,57],[25,21],[19,25],[9,23],[31,13]],[[5472,4455],[9,-17],[7,-41],[35,-20],[-31,-21],[2,-10],[17,-10],[-9,-13],[4,-39],[29,-17],[-43,-26],[5,-7],[30,-3],[46,2],[7,-44],[-34,-14],[19,-16],[-6,-18],[13,-21],[-1,-12],[-28,-7],[-2,-12],[26,0],[19,-14],[33,4],[13,-8],[71,-3],[-8,-41],[11,-27],[0,-15],[13,-12],[25,-11],[10,-14],[-17,-18],[25,-21],[21,-32]],[[5783,3877],[-36,16],[-63,6],[-55,-6],[-53,-18],[-67,-2],[-66,16],[-15,-17],[-32,-3],[-20,-8],[-23,-26]],[[5353,3835],[10,138],[-38,22],[-23,20],[-35,22],[-60,2],[-49,14],[-51,-2],[-46,6],[21,69],[-14,21],[-2,16],[12,5],[3,18],[-17,-4],[-22,28],[11,25],[-47,7]],[[5006,4242],[17,17],[23,10],[23,26],[7,35],[-8,16],[32,20],[20,1]],[[5120,4367],[41,-9],[37,-2],[11,9],[12,49],[12,2],[22,-16],[20,-3],[32,12],[14,17],[-35,13],[-1,8],[16,24],[-9,15],[21,15]],[[5313,4501],[56,20],[24,22],[31,-4],[24,-15],[15,-17],[4,-44],[5,-8]],[[5120,4367],[-37,20],[-15,0],[-26,13],[-9,16],[-62,26],[-49,0],[-19,28],[-56,2],[-14,12],[-100,30],[-79,10],[-64,-7],[-30,-1],[-59,12],[-1,13],[-71,20],[-12,20],[-18,6],[-14,25],[23,16],[5,57],[-7,44]],[[4406,4729],[46,-6],[16,-10],[32,-9],[70,-5],[67,-13],[75,-20],[48,-5],[31,7],[14,26],[32,3],[0,9],[61,-12],[14,-17],[-4,-13],[34,-15],[19,0],[37,-18],[32,4],[17,7],[3,-13],[19,-3],[5,9],[34,-12],[17,1],[35,-10],[55,5],[20,8],[20,-4],[24,3]],[[5279,4626],[11,-92],[23,-33]],[[3730,5430],[38,-5],[33,-14],[-12,-5],[34,-21],[33,-9],[87,4],[10,-34],[-19,-20],[24,0],[25,-29],[27,-13],[-23,-6],[36,-30],[6,-19],[16,-4]],[[4045,5225],[-12,-5],[-17,-26],[-26,-16],[-37,-15],[7,-8],[55,-15],[37,-25],[7,-26],[25,-43],[6,-25],[19,-7],[4,-21],[15,5],[15,-9],[5,-15],[38,-66],[2,-16],[30,-6],[-4,-17],[17,-8],[1,-23],[-21,-21],[8,-12],[45,-23],[7,-26],[23,-14],[18,-22],[14,-1],[35,20],[45,-10]],[[5006,4242],[-16,-14],[-16,-1],[-21,25],[-74,10],[-10,-8],[-4,-25],[-12,-3],[-46,24],[-24,-3],[-32,17],[-63,-1],[-25,-3],[-4,-7],[28,-11],[-1,-16],[-28,-25],[-16,6],[-29,26],[0,20],[-12,4],[-64,1],[-57,-3],[-25,-7],[-21,-13],[-30,7],[-31,19],[-17,2],[11,24],[-20,12],[-1,13],[-30,20],[-16,19],[-57,36],[-13,-14],[-20,24],[-37,17],[-47,5],[-25,26],[5,12],[-20,-3],[17,32],[-17,6],[-7,16],[10,10],[-21,13],[9,33],[-39,-3],[1,16],[-32,-11],[-69,-2],[-11,14],[-6,-10],[-31,-5],[0,-21],[-14,-14],[-2,-14],[-57,-7],[-14,-9],[-19,13],[7,-19],[16,-7],[-23,-4],[-43,-26],[-36,-4],[-42,9],[0,-15],[-29,-9],[-26,2],[9,-13],[-25,-8],[-25,0]],[[3567,4417],[-18,-12],[-19,7],[6,26],[-22,4],[-52,22],[-6,18],[-22,-3],[-42,40],[7,12],[-9,11],[8,23],[10,9],[21,-8],[8,24],[17,18],[-14,-2],[-16,13],[7,15],[-19,-7],[-6,8],[-36,-6],[-29,11],[-31,-14],[-29,13],[-25,-7],[-43,-4],[-24,9],[-13,-5],[-33,0]],[[3143,4632],[14,25],[-11,12],[-72,27],[-22,27],[0,14],[18,40],[-9,26],[38,22],[-9,16],[12,17],[72,25],[41,29],[7,32],[35,45],[18,12],[43,13],[22,27],[37,11],[21,11],[18,42],[27,6],[4,17],[34,26],[24,14],[11,28],[-4,19],[28,23],[0,12],[-15,41],[-15,6],[-60,11],[-52,23],[14,33],[18,23],[20,11],[23,23],[3,12],[-6,31]],[[5472,4455],[27,-2],[35,5],[28,-19],[8,31],[38,-1],[22,53],[32,18],[58,11],[-3,25],[-37,4],[0,7],[28,22],[14,29],[19,4],[32,-11],[16,10],[-8,25],[-18,11],[-24,4],[-7,12],[24,5],[38,-10],[23,-16],[14,1],[29,27],[25,-17]],[[5885,4683],[-1,-36],[-20,0],[31,-10],[-33,-6],[9,-13],[-6,-8],[37,-12],[-20,-16],[13,-9],[19,0],[-10,-31],[27,-46],[16,-12],[41,3],[28,-17],[60,0],[24,-4],[31,-17],[38,-9],[11,-11],[-12,-21],[5,-15],[-40,-45],[0,-16],[-16,-25],[29,-19],[23,7],[75,-3],[17,-12],[-15,-19],[22,-25],[20,-5],[-3,-12],[30,-29]],[[6315,4190],[-26,-16],[-31,-54],[-28,-57],[-11,-37],[4,-13],[-29,2],[-34,-9],[-17,-23]],[[6143,3983],[-12,1],[-18,18],[-43,8],[-2,11],[-48,31],[-35,9],[-35,0],[-14,15],[-23,-4],[-10,-26],[-13,-10],[0,-39],[-17,-54],[-26,-25],[-1,-12],[-18,-16],[-45,-13]],[[6619,3852],[-8,0],[6,29],[11,-13],[-9,-16]],[[5845,4958],[5,-16],[26,-42],[2,-12],[53,-57],[15,-10],[12,-21],[16,3],[42,-21],[42,-4],[0,-9],[-43,-25],[3,-6]],[[6018,4738],[-17,-5],[-62,-33],[-22,-25],[-24,1],[-8,7]],[[5279,4626],[13,2],[28,22],[30,-3],[3,-19],[-30,-16],[9,-12],[56,-9],[5,26],[-8,14],[17,8],[55,-11],[5,9],[23,7],[12,20],[-17,17],[22,0],[33,-19],[43,-15],[32,-22],[19,3],[4,36],[12,24],[-27,20],[-58,-12],[-11,1],[16,26],[41,25],[53,-14],[19,-15],[13,4],[7,18],[-11,15],[-97,31],[-36,-23],[-38,-18],[-20,4],[30,43],[23,13],[33,3],[38,-4],[23,-7],[10,8],[-15,40],[15,22],[-3,16],[16,8],[47,4],[26,-5],[15,3],[15,17],[-3,24],[47,24]],[[6018,4738],[4,-7],[32,3],[70,-16],[23,-11],[64,-5],[47,10],[13,-7],[28,-2],[-7,-11],[-33,-15],[22,-26],[54,-15],[15,0],[51,18],[41,30],[34,-4],[28,-25],[-6,-30],[-24,-33],[3,-18],[-25,-33],[12,-19],[37,-32],[33,-46],[28,-10],[12,13],[29,-15],[17,9],[8,-9],[-1,-28],[-9,-14],[22,-17],[48,-13],[11,12],[46,5],[24,19],[54,20],[4,14],[22,15],[18,-4],[76,-11],[5,-8],[-21,-32],[-29,-12],[-11,-16],[-20,-6],[-51,-6],[-49,-29],[-15,0],[-23,-14],[-1,-21],[-37,-5],[-14,17],[-16,-1],[-1,-10],[-24,-19],[-20,-6],[-22,1],[-23,-15],[-19,4],[-30,16],[-40,-10],[-7,37],[-29,9],[-39,-2],[-29,-7],[-45,-25],[-24,-26],[17,-23],[2,-13],[-13,-18]],[[6970,4169],[-12,9],[0,16],[15,-6],[-3,-19]],[[6973,4226],[-13,18],[15,-2],[-2,-16]],[[6971,4502],[-11,5],[14,8],[-3,-13]],[[6701,4512],[-35,-10],[3,11],[29,13],[3,-14]],[[6716,4558],[-10,-4],[3,18],[20,7],[-13,-21]],[[7055,4520],[-44,32],[10,29],[24,15],[53,-3],[6,-12],[-7,-30],[-42,-31]],[[6804,4694],[12,-16],[-30,-12],[-2,11],[20,17]],[[6926,4857],[39,-9],[-10,-12],[-38,17],[9,4]],[[4045,5225],[14,-10],[18,0],[14,17],[33,-11],[-25,-11],[63,-19],[38,16],[24,-12],[-11,-22],[6,-12],[11,10],[21,-16],[22,1],[18,-17],[15,14],[9,-13],[13,0],[28,-13],[-1,-7],[26,-5],[35,32],[45,31],[38,9],[30,-16],[37,21],[8,17],[45,-14],[-19,-38],[9,-7],[24,7],[11,-27],[29,5],[17,24],[36,8],[-4,21],[12,18],[-16,13],[62,3],[23,11],[18,20],[22,-1],[-4,-14],[39,-17],[48,-15],[-8,-13],[22,-21],[-3,-6],[29,-19],[18,-33],[9,-32],[14,-8],[1,-14],[25,-15],[21,0],[32,-20],[3,-21],[20,-26],[48,-10],[30,-24],[23,0],[10,-14],[13,-1],[23,11],[2,11],[42,2],[31,-10],[-2,-7],[21,-6],[-9,-10],[29,-7],[-8,-16],[9,-2],[-2,-26],[29,-38],[-19,-31],[5,-15],[-26,-26],[3,-13],[-18,-48],[-68,15],[-6,-15],[10,-72]],[[5353,3835],[-6,10],[-33,-3],[-18,6],[16,13],[-24,6],[-8,18],[-49,12],[13,6],[-5,30],[-24,10],[-30,2],[-12,10],[-49,2],[-24,-15],[-28,-4],[-34,-25],[0,-8],[-20,-3],[-9,-17],[-24,-5],[0,7],[-41,-14],[-7,-10],[-25,-3],[-14,-14],[-40,-13]],[[4858,3833],[-18,6],[-48,1],[-7,-6],[-72,2],[-83,-22],[-65,-13],[-78,-23],[-53,-13],[-23,-18],[-38,-7],[-73,2],[-38,4],[-23,-5],[-40,1],[-30,-4],[-43,24],[-29,8],[-38,-23],[-44,-38],[-16,-8],[2,-25],[-17,-19],[7,-22],[-25,-12],[-60,-7],[-46,23],[-26,-11],[-12,2],[-40,-20],[-34,-2],[-116,6],[-15,-9],[-7,-16],[-46,-14],[-38,-3],[-33,-17],[-52,8],[-36,23],[0,20]],[[3405,3606],[8,27],[32,19],[3,13],[-34,13],[0,15],[35,18],[5,42],[13,35],[-5,21],[15,9],[0,37],[19,20],[-1,27],[17,42],[17,29],[25,25],[-2,29],[32,12],[25,17]],[[3609,4056],[34,-3],[16,35],[-20,22],[-8,18],[-10,85],[-39,38],[-8,27],[-17,8],[-12,42],[-20,10],[5,30],[19,7],[3,26],[15,16]],[[3609,4056],[-18,7],[-29,-7],[-5,11],[-37,-1],[-91,21],[-38,7],[-14,-3],[-31,13],[-17,-5],[-27,10],[-27,-10],[-21,9],[-1,11],[-15,0],[-18,17],[-62,7],[-52,-11],[-29,20],[-75,11],[-5,15],[-24,-4],[-18,4],[-24,-8],[-26,20],[-43,-1],[-56,17],[-31,5]],[[2775,4211],[26,34],[39,30],[41,10],[36,34],[37,19],[6,9],[-2,25],[-25,33],[14,27],[47,20],[37,5],[27,18],[-2,21],[-53,15],[-10,11],[8,16],[40,6],[57,16],[20,24],[25,48]],[[3087,3167],[-25,18],[-41,19],[-5,14],[-51,18],[-38,-23],[-22,2],[-19,12],[-46,9],[-30,-15],[-45,10],[-32,-4],[-33,4],[-15,-7],[-52,10],[-27,-7],[-8,-13],[-23,-1],[-29,13],[-41,-4],[-66,-2],[-33,6],[-39,0],[-36,24],[38,21],[17,17],[32,18],[32,24],[1,18],[14,16],[42,18],[19,-17],[36,7],[24,25],[2,13],[22,7],[27,20],[6,18],[-3,22],[21,16],[13,22],[-3,31],[-24,10],[-7,36],[12,24],[-25,4],[-29,-11],[-9,8],[16,27],[6,20],[-14,10],[-1,18],[12,16],[25,6],[56,-2],[13,7],[-1,37],[-6,14],[21,27],[2,27],[-8,14],[2,21],[35,13],[51,4],[46,-4],[32,5],[52,28],[2,61],[-57,32],[-10,16],[-32,4],[-21,10],[-6,27],[-18,8],[-56,18],[0,16],[28,35],[21,11],[4,29],[-6,7],[-2,32]],[[3405,3606],[-22,-18],[-4,-44],[11,-13],[-2,-26],[-12,-35],[3,-17],[-45,-45],[-24,-5],[-17,-11],[5,-24]],[[3298,3368],[-16,-18],[0,-15],[11,-15],[1,-27],[14,-27]],[[5650,3303],[17,19],[1,35],[-12,29],[-28,10],[-3,14],[-19,9],[-35,2],[-7,11],[0,26],[-14,-2],[-21,-17],[-15,2],[-9,18]],[[5505,3459],[-2,8],[-55,20],[21,22],[-3,5],[-51,3],[-16,37],[37,3],[26,-8],[18,5],[-9,17],[-20,11],[-8,27],[20,3],[18,13],[-7,12],[20,11],[-4,12],[24,15],[-30,8],[20,12],[7,14],[21,5],[33,-3],[18,8],[22,-12],[11,20],[17,4],[42,20],[21,22],[16,46],[23,10],[28,28],[0,12],[20,8]],[[6143,3983],[-7,-21],[-13,-2],[-14,-35],[-4,-44],[-20,-35],[-24,-21],[-24,-6],[-22,13],[-22,-3],[-25,-16],[-29,-28],[-17,1],[-19,-14],[-15,-21],[-13,-30],[-31,-49],[-14,-54],[0,-40],[6,-40],[20,-78],[-10,-26],[63,-34],[3,-22],[21,-20],[0,-35],[-28,-9],[-29,-25],[7,-19],[24,-32]],[[6259,3278],[-30,-5],[8,12],[20,5],[2,-12]],[[6186,3800],[10,0],[-3,-25],[-17,-1],[-20,-9],[-8,6],[10,29],[15,8],[13,-8]],[[6472,3825],[-25,9],[7,6],[21,-7],[-3,-8]],[[5505,3459],[-25,-4],[-29,-19],[-9,-14],[6,-27],[-6,-8],[-19,4],[-28,-19],[-17,17],[18,8],[-18,7],[-42,-37],[-28,10]],[[5308,3377],[1,9],[-23,-2],[-11,44],[-25,5],[-7,13],[-18,4],[-19,-4],[-40,27],[-16,3],[-25,-10],[-17,19],[18,20],[-7,20],[-16,-10],[-15,22],[-13,3],[-19,-10],[-16,2],[7,25],[-37,1],[11,20],[-15,5],[20,7],[-14,18],[-27,3],[2,10],[-29,1],[-4,8],[-51,-4],[-9,17],[-17,4],[6,12],[-62,-9],[-6,18],[7,16],[-8,11],[44,138]],[[3298,3368],[37,-1],[35,-9],[19,13],[100,10],[39,-4],[18,-25],[13,-4],[27,6],[23,14],[11,-9],[2,-19],[23,-17],[35,20],[26,8],[54,3],[35,-15],[16,-15],[9,6],[22,-13],[22,11],[38,1],[29,-22],[52,4],[12,14],[32,-1],[26,14],[-9,14],[1,27],[8,15],[20,3],[37,14],[33,3],[12,-10],[28,-6],[21,6],[17,-32],[-8,-9],[12,-33],[33,0],[43,-19],[18,-2],[35,14],[86,-1],[11,15],[36,-7],[27,4],[33,-3],[34,7],[20,9],[26,-3],[43,37],[28,0],[191,-17],[15,2],[43,-14],[27,-4],[8,9],[32,-6],[14,8],[58,0],[18,-12],[24,18],[47,-5],[24,8],[23,-2],[12,5],[15,-11],[9,7],[50,10]]],"transform":{"scale":[0.00008917724732473212,0.0001432994891489112],"translate":[98.62768133900005,9.600876690000064]},"objects":{"Chumphon":{"type":"GeometryCollection","geometries":[{"arcs":[[0,1,2]],"type":"Polygon","properties":{"Shape_Leng":0.0628170161606,"Shape_Area":0.00018954487623,"ADM3_EN":"Tha Taphao","ADM3_TH":"ท่าตะเภา","ADM3_PCODE":"TH860101","ADM2_EN":"Mueang Chumphon","ADM2_TH":"เมืองชุมพร","ADM2_PCODE":"TH8601","ADM1_EN":"Chumphon","ADM1_TH":"ชุมพร","ADM1_PCODE":"TH86","ADM0_EN":"Thailand","ADM0_TH":"ประเทศไทย","ADM0_PCODE":"TH"}},{"arcs":[[[3,4,5]],[[6]],[[7]],[[8]],[[9]]],"type":"MultiPolygon","properties":{"Shape_Leng":0.321845011318,"Shape_Area":0.00167054530405,"ADM3_EN":"Pak Nam","ADM3_TH":"ปากน้ำ","ADM3_PCODE":"TH860102","ADM2_EN":"Mueang Chumphon","ADM2_TH":"เมืองชุมพร","ADM2_PCODE":"TH8601","ADM1_EN":"Chumphon","ADM1_TH":"ชุมพร","ADM1_PCODE":"TH86","ADM0_EN":"Thailand","ADM0_TH":"ประเทศไทย","ADM0_PCODE":"TH"}},{"arcs":[[-5,10,11,12,13,14,15]],"type":"Polygon","properties":{"Shape_Leng":0.394032032025,"Shape_Area":0.00331203426674,"ADM3_EN":"Tha Yang","ADM3_TH":"ท่ายาง","ADM3_PCODE":"TH860103","ADM2_EN":"Mueang Chumphon","ADM2_TH":"เมืองชุมพร","ADM2_PCODE":"TH8601","ADM1_EN":"Chumphon","ADM1_TH":"ชุมพร","ADM1_PCODE":"TH86","ADM0_EN":"Thailand","ADM0_TH":"ประเทศไทย","ADM0_PCODE":"TH"}},{"arcs":[[-1,16,-14,17,18]],"type":"Polygon","properties":{"Shape_Leng":0.31939649884,"Shape_Area":0.00345281642953,"ADM3_EN":"Bang Mak","ADM3_TH":"บางหมาก","ADM3_PCODE":"TH860104","ADM2_EN":"Mueang Chumphon","ADM2_TH":"เมืองชุมพร","ADM2_PCODE":"TH8601","ADM1_EN":"Chumphon","ADM1_TH":"ชุมพร","ADM1_PCODE":"TH86","ADM0_EN":"Thailand","ADM0_TH":"ประเทศไทย","ADM0_PCODE":"TH"}},{"arcs":[[-3,19,20,21,22,-15,-17]],"type":"Polygon","properties":{"Shape_Leng":0.348555269187,"Shape_Area":0.00149529174753,"ADM3_EN":"Na Thung","ADM3_TH":"นาทุ่ง","ADM3_PCODE":"TH860105","ADM2_EN":"Mueang Chumphon","ADM2_TH":"เมืองชุมพร","ADM2_PCODE":"TH8601","ADM1_EN":"Chumphon","ADM1_TH":"ชุมพร","ADM1_PCODE":"TH86","ADM0_EN":"Thailand","ADM0_TH":"ประเทศไทย","ADM0_PCODE":"TH"}},{"arcs":[[-22,23,24,25]],"type":"Polygon","properties":{"Shape_Leng":0.359246744579,"Shape_Area":0.00272394060501,"ADM3_EN":"Na Cha-Ang","ADM3_TH":"นาชะอัง","ADM3_PCODE":"TH860106","ADM2_EN":"Mueang Chumphon","ADM2_TH":"เมืองชุมพร","ADM2_PCODE":"TH8601","ADM1_EN":"Chumphon","ADM1_TH":"ชุมพร","ADM1_PCODE":"TH86","ADM0_EN":"Thailand","ADM0_TH":"ประเทศไทย","ADM0_PCODE":"TH"}},{"arcs":[[-2,-19,26,27,28,29,-20]],"type":"Polygon","properties":{"Shape_Leng":0.239670818354,"Shape_Area":0.00205741189971,"ADM3_EN":"Tak Daet","ADM3_TH":"ตากแดด","ADM3_PCODE":"TH860107","ADM2_EN":"Mueang Chumphon","ADM2_TH":"เมืองชุมพร","ADM2_PCODE":"TH8601","ADM1_EN":"Chumphon","ADM1_TH":"ชุมพร","ADM1_PCODE":"TH86","ADM0_EN":"Thailand","ADM0_TH":"ประเทศไทย","ADM0_PCODE":"TH"}},{"arcs":[[-21,-30,30,31,32,33,-24]],"type":"Polygon","properties":{"Shape_Leng":0.398922785149,"Shape_Area":0.00328117247786,"ADM3_EN":"Bang Luek","ADM3_TH":"บางลึก","ADM3_PCODE":"TH860108","ADM2_EN":"Mueang Chumphon","ADM2_TH":"เมืองชุมพร","ADM2_PCODE":"TH8601","ADM1_EN":"Chumphon","ADM1_TH":"ชุมพร","ADM1_PCODE":"TH86","ADM0_EN":"Thailand","ADM0_TH":"ประเทศไทย","ADM0_PCODE":"TH"}},{"arcs":[[-32,34,35,36,37,38]],"type":"Polygon","properties":{"Shape_Leng":0.319860510466,"Shape_Area":0.00274679186212,"ADM3_EN":"Hat Phan Krai","ADM3_TH":"หาดพันไกร","ADM3_PCODE":"TH860109","ADM2_EN":"Mueang Chumphon","ADM2_TH":"เมืองชุมพร","ADM2_PCODE":"TH8601","ADM1_EN":"Chumphon","ADM1_TH":"ชุมพร","ADM1_PCODE":"TH86","ADM0_EN":"Thailand","ADM0_TH":"ประเทศไทย","ADM0_PCODE":"TH"}},{"arcs":[[-29,39,40,41,-35,-31]],"type":"Polygon","properties":{"Shape_Leng":0.320213726774,"Shape_Area":0.00265288030789,"ADM3_EN":"Wang Phai","ADM3_TH":"วังไผ่","ADM3_PCODE":"TH860110","ADM2_EN":"Mueang Chumphon","ADM2_TH":"เมืองชุมพร","ADM2_PCODE":"TH8601","ADM1_EN":"Chumphon","ADM1_TH":"ชุมพร","ADM1_PCODE":"TH86","ADM0_EN":"Thailand","ADM0_TH":"ประเทศไทย","ADM0_PCODE":"TH"}},{"arcs":[[-36,-42,42,43,44]],"type":"Polygon","properties":{"Shape_Leng":0.742795086498,"Shape_Area":0.00817204197887,"ADM3_EN":"Wang Mai","ADM3_TH":"วังใหม่","ADM3_PCODE":"TH860111","ADM2_EN":"Mueang Chumphon","ADM2_TH":"เมืองชุมพร","ADM2_PCODE":"TH8601","ADM1_EN":"Chumphon","ADM1_TH":"ชุมพร","ADM1_PCODE":"TH86","ADM0_EN":"Thailand","ADM0_TH":"ประเทศไทย","ADM0_PCODE":"TH"}},{"arcs":[[-41,45,46,47,48,49,50,-43]],"type":"Polygon","properties":{"Shape_Leng":0.833379875689,"Shape_Area":0.0160896906229,"ADM3_EN":"Ban Na","ADM3_TH":"บ้านนา","ADM3_PCODE":"TH860112","ADM2_EN":"Mueang Chumphon","ADM2_TH":"เมืองชุมพร","ADM2_PCODE":"TH8601","ADM1_EN":"Chumphon","ADM1_TH":"ชุมพร","ADM1_PCODE":"TH86","ADM0_EN":"Thailand","ADM0_TH":"ประเทศไทย","ADM0_PCODE":"TH"}},{"arcs":[[-28,51,-46,-40]],"type":"Polygon","properties":{"Shape_Leng":0.2182839873,"Shape_Area":0.00198730328754,"ADM3_EN":"Khun Krathing","ADM3_TH":"ขุนกระทิง","ADM3_PCODE":"TH860113","ADM2_EN":"Mueang Chumphon","ADM2_TH":"เมืองชุมพร","ADM2_PCODE":"TH8601","ADM1_EN":"Chumphon","ADM1_TH":"ชุมพร","ADM1_PCODE":"TH86","ADM0_EN":"Thailand","ADM0_TH":"ประเทศไทย","ADM0_PCODE":"TH"}},{"arcs":[[[-13,52,53,54,-27,-18]],[[55]]],"type":"MultiPolygon","properties":{"Shape_Leng":0.447505952191,"Shape_Area":0.0058849976269,"ADM3_EN":"Thung Kha","ADM3_TH":"ทุ่งคา","ADM3_PCODE":"TH860114","ADM2_EN":"Mueang Chumphon","ADM2_TH":"เมืองชุมพร","ADM2_PCODE":"TH8601","ADM1_EN":"Chumphon","ADM1_TH":"ชุมพร","ADM1_PCODE":"TH86","ADM0_EN":"Thailand","ADM0_TH":"ประเทศไทย","ADM0_PCODE":"TH"}},{"arcs":[[-48,56,-54,57,58,59]],"type":"Polygon","properties":{"Shape_Leng":0.570196051467,"Shape_Area":0.00481510889279,"ADM3_EN":"Wisai Nuea","ADM3_TH":"วิสัยเหนือ","ADM3_PCODE":"TH860115","ADM2_EN":"Mueang Chumphon","ADM2_TH":"เมืองชุมพร","ADM2_PCODE":"TH8601","ADM1_EN":"Chumphon","ADM1_TH":"ชุมพร","ADM1_PCODE":"TH86","ADM0_EN":"Thailand","ADM0_TH":"ประเทศไทย","ADM0_PCODE":"TH"}},{"arcs":[[[-4,60,-11]],[[61]],[[62]],[[63]],[[64]],[[65]],[[66]],[[67]]],"type":"MultiPolygon","properties":{"Shape_Leng":0.485132491926,"Shape_Area":0.00274062641404,"ADM3_EN":"Hat Sai Ri","ADM3_TH":"หาดทรายรี","ADM3_PCODE":"TH860116","ADM2_EN":"Mueang Chumphon","ADM2_TH":"เมืองชุมพร","ADM2_PCODE":"TH8601","ADM1_EN":"Chumphon","ADM1_TH":"ชุมพร","ADM1_PCODE":"TH86","ADM0_EN":"Thailand","ADM0_TH":"ประเทศไทย","ADM0_PCODE":"TH"}},{"arcs":[[-47,-52,-55,-57]],"type":"Polygon","properties":{"Shape_Leng":0.387122011292,"Shape_Area":0.00264837731483,"ADM3_EN":"Tham Sing","ADM3_TH":"ถ้ำสิงห์","ADM3_PCODE":"TH860117","ADM2_EN":"Mueang Chumphon","ADM2_TH":"เมืองชุมพร","ADM2_PCODE":"TH8601","ADM1_EN":"Chumphon","ADM1_TH":"ชุมพร","ADM1_PCODE":"TH86","ADM0_EN":"Thailand","ADM0_TH":"ประเทศไทย","ADM0_PCODE":"TH"}},{"arcs":[[68,69,70,71,72,73]],"type":"Polygon","properties":{"Shape_Leng":0.55819793619,"Shape_Area":0.00610275310371,"ADM3_EN":"Tha Sae","ADM3_TH":"ท่าแซะ","ADM3_PCODE":"TH860201","ADM2_EN":"Tha Sae","ADM2_TH":"ท่าแซะ","ADM2_PCODE":"TH8602","ADM1_EN":"Chumphon","ADM1_TH":"ชุมพร","ADM1_PCODE":"TH86","ADM0_EN":"Thailand","ADM0_TH":"ประเทศไทย","ADM0_PCODE":"TH"}},{"arcs":[[-74,74,75,76,77]],"type":"Polygon","properties":{"Shape_Leng":0.542079073517,"Shape_Area":0.00555060017927,"ADM3_EN":"Khu Ring","ADM3_TH":"คุริง","ADM3_PCODE":"TH860202","ADM2_EN":"Tha Sae","ADM2_TH":"ท่าแซะ","ADM2_PCODE":"TH8602","ADM1_EN":"Chumphon","ADM1_TH":"ชุมพร","ADM1_PCODE":"TH86","ADM0_EN":"Thailand","ADM0_TH":"ประเทศไทย","ADM0_PCODE":"TH"}},{"arcs":[[78,79,80,81,82,83]],"type":"Polygon","properties":{"Shape_Leng":0.827664234835,"Shape_Area":0.0121607318923,"ADM3_EN":"Salui","ADM3_TH":"สลุย","ADM3_PCODE":"TH860203","ADM2_EN":"Tha Sae","ADM2_TH":"ท่าแซะ","ADM2_PCODE":"TH8602","ADM1_EN":"Chumphon","ADM1_TH":"ชุมพร","ADM1_PCODE":"TH86","ADM0_EN":"Thailand","ADM0_TH":"ประเทศไทย","ADM0_PCODE":"TH"}},{"arcs":[[-33,-39,84,-72,85,86]],"type":"Polygon","properties":{"Shape_Leng":0.50973494021,"Shape_Area":0.0041894545335,"ADM3_EN":"Na Kratam","ADM3_TH":"นากระตาม","ADM3_PCODE":"TH860204","ADM2_EN":"Tha Sae","ADM2_TH":"ท่าแซะ","ADM2_PCODE":"TH8602","ADM1_EN":"Chumphon","ADM1_TH":"ชุมพร","ADM1_PCODE":"TH86","ADM0_EN":"Thailand","ADM0_TH":"ประเทศไทย","ADM0_PCODE":"TH"}},{"arcs":[[-76,87,88,89,90]],"type":"Polygon","properties":{"Shape_Leng":1.57337594802,"Shape_Area":0.0338663470804,"ADM3_EN":"Rap Ro","ADM3_TH":"รับร่อ","ADM3_PCODE":"TH860205","ADM2_EN":"Tha Sae","ADM2_TH":"ท่าแซะ","ADM2_PCODE":"TH8602","ADM1_EN":"Chumphon","ADM1_TH":"ชุมพร","ADM1_PCODE":"TH86","ADM0_EN":"Thailand","ADM0_TH":"ประเทศไทย","ADM0_PCODE":"TH"}},{"arcs":[[-38,91,-88,-75,-73,-85]],"type":"Polygon","properties":{"Shape_Leng":0.669348945603,"Shape_Area":0.00784290394716,"ADM3_EN":"Tha Kham","ADM3_TH":"ท่าข้าม","ADM3_PCODE":"TH860206","ADM2_EN":"Tha Sae","ADM2_TH":"ท่าแซะ","ADM2_PCODE":"TH8602","ADM1_EN":"Chumphon","ADM1_TH":"ชุมพร","ADM1_PCODE":"TH86","ADM0_EN":"Thailand","ADM0_TH":"ประเทศไทย","ADM0_PCODE":"TH"}},{"arcs":[[-77,-91,-82,92,93,94]],"type":"Polygon","properties":{"Shape_Leng":0.950180077426,"Shape_Area":0.0175254859977,"ADM3_EN":"Hong Charoen","ADM3_TH":"หงษ์เจริญ","ADM3_PCODE":"TH860207","ADM2_EN":"Tha Sae","ADM2_TH":"ท่าแซะ","ADM2_PCODE":"TH8602","ADM1_EN":"Chumphon","ADM1_TH":"ชุมพร","ADM1_PCODE":"TH86","ADM0_EN":"Thailand","ADM0_TH":"ประเทศไทย","ADM0_PCODE":"TH"}},{"arcs":[[-37,-45,95,-89,-92]],"type":"Polygon","properties":{"Shape_Leng":1.05928289269,"Shape_Area":0.0164875106672,"ADM3_EN":"Hin Kaeo","ADM3_TH":"หินแก้ว","ADM3_PCODE":"TH860208","ADM2_EN":"Tha Sae","ADM2_TH":"ท่าแซะ","ADM2_PCODE":"TH8602","ADM1_EN":"Chumphon","ADM1_TH":"ชุมพร","ADM1_PCODE":"TH86","ADM0_EN":"Thailand","ADM0_TH":"ประเทศไทย","ADM0_PCODE":"TH"}},{"arcs":[[-69,-78,-95,96]],"type":"Polygon","properties":{"Shape_Leng":0.275639407697,"Shape_Area":0.00284667300787,"ADM3_EN":"Sap Anan","ADM3_TH":"ทรัพย์อนันต์","ADM3_PCODE":"TH860209","ADM2_EN":"Tha Sae","ADM2_TH":"ท่าแซะ","ADM2_PCODE":"TH8602","ADM1_EN":"Chumphon","ADM1_TH":"ชุมพร","ADM1_PCODE":"TH86","ADM0_EN":"Thailand","ADM0_TH":"ประเทศไทย","ADM0_PCODE":"TH"}},{"arcs":[[-84,97,98]],"type":"Polygon","properties":{"Shape_Leng":0.794408801648,"Shape_Area":0.0150879560141,"ADM3_EN":"Song Phi Nong","ADM3_TH":"สองพี่น้อง","ADM3_PCODE":"TH860210","ADM2_EN":"Tha Sae","ADM2_TH":"ท่าแซะ","ADM2_PCODE":"TH8602","ADM1_EN":"Chumphon","ADM1_TH":"ชุมพร","ADM1_PCODE":"TH86","ADM0_EN":"Thailand","ADM0_TH":"ประเทศไทย","ADM0_PCODE":"TH"}},{"arcs":[[-71,99,100,101,102,-86]],"type":"Polygon","properties":{"Shape_Leng":0.427637934321,"Shape_Area":0.00403294307657,"ADM3_EN":"Bang Son","ADM3_TH":"บางสน","ADM3_PCODE":"TH860301","ADM2_EN":"Pathio","ADM2_TH":"ปะทิว","ADM2_PCODE":"TH8603","ADM1_EN":"Chumphon","ADM1_TH":"ชุมพร","ADM1_PCODE":"TH86","ADM0_EN":"Thailand","ADM0_TH":"ประเทศไทย","ADM0_PCODE":"TH"}},{"arcs":[[-70,-97,-94,103,-100]],"type":"Polygon","properties":{"Shape_Leng":0.412081161326,"Shape_Area":0.00678092738842,"ADM3_EN":"Thale Sap","ADM3_TH":"ทะเลทรัพย์","ADM3_PCODE":"TH860302","ADM2_EN":"Pathio","ADM2_TH":"ปะทิว","ADM2_PCODE":"TH8603","ADM1_EN":"Chumphon","ADM1_TH":"ชุมพร","ADM1_PCODE":"TH86","ADM0_EN":"Thailand","ADM0_TH":"ประเทศไทย","ADM0_PCODE":"TH"}},{"arcs":[[[-25,-34,-87,-103,104]],[[105]]],"type":"MultiPolygon","properties":{"Shape_Leng":0.428665771469,"Shape_Area":0.00506707713499,"ADM3_EN":"Saphli","ADM3_TH":"สะพลี","ADM3_PCODE":"TH860303","ADM2_EN":"Pathio","ADM2_TH":"ปะทิว","ADM2_PCODE":"TH8603","ADM1_EN":"Chumphon","ADM1_TH":"ชุมพร","ADM1_PCODE":"TH86","ADM0_EN":"Thailand","ADM0_TH":"ประเทศไทย","ADM0_PCODE":"TH"}},{"arcs":[[[-81,106,107,108,-101,-104,-93]],[[109]]],"type":"MultiPolygon","properties":{"Shape_Leng":0.756580519583,"Shape_Area":0.0159074477351,"ADM3_EN":"Chum Kho","ADM3_TH":"ชุมโค","ADM3_PCODE":"TH860304","ADM2_EN":"Pathio","ADM2_TH":"ปะทิว","ADM2_PCODE":"TH8603","ADM1_EN":"Chumphon","ADM1_TH":"ชุมพร","ADM1_PCODE":"TH86","ADM0_EN":"Thailand","ADM0_TH":"ประเทศไทย","ADM0_PCODE":"TH"}},{"arcs":[[-80,110,111,-107]],"type":"Polygon","properties":{"Shape_Leng":0.600367884873,"Shape_Area":0.0122829745909,"ADM3_EN":"Don Yang","ADM3_TH":"ดอนยาง","ADM3_PCODE":"TH860305","ADM2_EN":"Pathio","ADM2_TH":"ปะทิว","ADM2_PCODE":"TH8603","ADM1_EN":"Chumphon","ADM1_TH":"ชุมพร","ADM1_PCODE":"TH86","ADM0_EN":"Thailand","ADM0_TH":"ประเทศไทย","ADM0_PCODE":"TH"}},{"arcs":[[[-108,-112,112,113]],[[114]],[[115]]],"type":"MultiPolygon","properties":{"Shape_Leng":0.752691168656,"Shape_Area":0.00771805205314,"ADM3_EN":"Pak Khlong","ADM3_TH":"ปากคลอง","ADM3_PCODE":"TH860306","ADM2_EN":"Pathio","ADM2_TH":"ปะทิว","ADM2_PCODE":"TH8603","ADM1_EN":"Chumphon","ADM1_TH":"ชุมพร","ADM1_PCODE":"TH86","ADM0_EN":"Thailand","ADM0_TH":"ประเทศไทย","ADM0_PCODE":"TH"}},{"arcs":[[-79,-99,116,-113,-111]],"type":"Polygon","properties":{"Shape_Leng":0.813396924722,"Shape_Area":0.0125876467574,"ADM3_EN":"Khao Chai Rat","ADM3_TH":"เขาไชยราช","ADM3_PCODE":"TH860307","ADM2_EN":"Pathio","ADM2_TH":"ปะทิว","ADM2_PCODE":"TH8603","ADM1_EN":"Chumphon","ADM1_TH":"ชุมพร","ADM1_PCODE":"TH86","ADM0_EN":"Thailand","ADM0_TH":"ประเทศไทย","ADM0_PCODE":"TH"}},{"arcs":[[117,118,119,120]],"type":"Polygon","properties":{"Shape_Leng":0.0543851955601,"Shape_Area":0.000102158435506,"ADM3_EN":"Lang Suan","ADM3_TH":"หลังสวน","ADM3_PCODE":"TH860401","ADM2_EN":"Lang Suan","ADM2_TH":"หลังสวน","ADM2_PCODE":"TH8604","ADM1_EN":"Chumphon","ADM1_TH":"ชุมพร","ADM1_PCODE":"TH86","ADM0_EN":"Thailand","ADM0_TH":"ประเทศไทย","ADM0_PCODE":"TH"}},{"arcs":[[-120,121,122,123,124]],"type":"Polygon","properties":{"Shape_Leng":0.176379525866,"Shape_Area":0.000857220763733,"ADM3_EN":"Khan Ngoen","ADM3_TH":"ขันเงิน","ADM3_PCODE":"TH860402","ADM2_EN":"Lang Suan","ADM2_TH":"หลังสวน","ADM2_PCODE":"TH8604","ADM1_EN":"Chumphon","ADM1_TH":"ชุมพร","ADM1_PCODE":"TH86","ADM0_EN":"Thailand","ADM0_TH":"ประเทศไทย","ADM0_PCODE":"TH"}},{"arcs":[[-124,125,126,127]],"type":"Polygon","properties":{"Shape_Leng":0.194095007289,"Shape_Area":0.00140799066587,"ADM3_EN":"Tha Maphla","ADM3_TH":"ท่ามะพลา","ADM3_PCODE":"TH860403","ADM2_EN":"Lang Suan","ADM2_TH":"หลังสวน","ADM2_PCODE":"TH8604","ADM1_EN":"Chumphon","ADM1_TH":"ชุมพร","ADM1_PCODE":"TH86","ADM0_EN":"Thailand","ADM0_TH":"ประเทศไทย","ADM0_PCODE":"TH"}},{"arcs":[[128,129,130,131,132]],"type":"Polygon","properties":{"Shape_Leng":0.656684751813,"Shape_Area":0.00617326158198,"ADM3_EN":"Na Kha","ADM3_TH":"นาขา","ADM3_PCODE":"TH860404","ADM2_EN":"Lang Suan","ADM2_TH":"หลังสวน","ADM2_PCODE":"TH8604","ADM1_EN":"Chumphon","ADM1_TH":"ชุมพร","ADM1_PCODE":"TH86","ADM0_EN":"Thailand","ADM0_TH":"ประเทศไทย","ADM0_PCODE":"TH"}},{"arcs":[[133,134,135,136,137,138]],"type":"Polygon","properties":{"Shape_Leng":0.348952936707,"Shape_Area":0.00509939377785,"ADM3_EN":"Na Phaya","ADM3_TH":"นาพญา","ADM3_PCODE":"TH860405","ADM2_EN":"Lang Suan","ADM2_TH":"หลังสวน","ADM2_PCODE":"TH8604","ADM1_EN":"Chumphon","ADM1_TH":"ชุมพร","ADM1_PCODE":"TH86","ADM0_EN":"Thailand","ADM0_TH":"ประเทศไทย","ADM0_PCODE":"TH"}},{"arcs":[[-123,139,-138,140,141,142,143,144,-126]],"type":"Polygon","properties":{"Shape_Leng":0.572362414986,"Shape_Area":0.00897612440205,"ADM3_EN":"Ban Khuan","ADM3_TH":"บ้านควน","ADM3_PCODE":"TH860406","ADM2_EN":"Lang Suan","ADM2_TH":"หลังสวน","ADM2_PCODE":"TH8604","ADM1_EN":"Chumphon","ADM1_TH":"ชุมพร","ADM1_PCODE":"TH86","ADM0_EN":"Thailand","ADM0_TH":"ประเทศไทย","ADM0_PCODE":"TH"}},{"arcs":[[-134,145,146,147,148]],"type":"Polygon","properties":{"Shape_Leng":0.256371856134,"Shape_Area":0.00251091052471,"ADM3_EN":"Bang Maphrao","ADM3_TH":"บางมะพร้าว","ADM3_PCODE":"TH860407","ADM2_EN":"Lang Suan","ADM2_TH":"หลังสวน","ADM2_PCODE":"TH8604","ADM1_EN":"Chumphon","ADM1_TH":"ชุมพร","ADM1_PCODE":"TH86","ADM0_EN":"Thailand","ADM0_TH":"ประเทศไทย","ADM0_PCODE":"TH"}},{"arcs":[[[-129,149,150,151,152,153]],[[154]]],"type":"MultiPolygon","properties":{"Shape_Leng":0.394593726408,"Shape_Area":0.00420258129975,"ADM3_EN":"Bang Nam Chuet","ADM3_TH":"บางน้ำจืด","ADM3_PCODE":"TH860408","ADM2_EN":"Lang Suan","ADM2_TH":"หลังสวน","ADM2_PCODE":"TH8604","ADM1_EN":"Chumphon","ADM1_TH":"ชุมพร","ADM1_PCODE":"TH86","ADM0_EN":"Thailand","ADM0_TH":"ประเทศไทย","ADM0_PCODE":"TH"}},{"arcs":[[-148,155,-153,156]],"type":"Polygon","properties":{"Shape_Leng":0.107970071353,"Shape_Area":0.00056542992637,"ADM3_EN":"Pak Nam","ADM3_TH":"ปากน้ำ","ADM3_PCODE":"TH860409","ADM2_EN":"Lang Suan","ADM2_TH":"หลังสวน","ADM2_PCODE":"TH8604","ADM1_EN":"Chumphon","ADM1_TH":"ชุมพร","ADM1_PCODE":"TH86","ADM0_EN":"Thailand","ADM0_TH":"ประเทศไทย","ADM0_PCODE":"TH"}},{"arcs":[[-119,157,-146,-139,-140,-122]],"type":"Polygon","properties":{"Shape_Leng":0.177313040517,"Shape_Area":0.000869393953873,"ADM3_EN":"Pho Daeng","ADM3_TH":"พ้อแดง","ADM3_PCODE":"TH860410","ADM2_EN":"Lang Suan","ADM2_TH":"หลังสวน","ADM2_PCODE":"TH8604","ADM1_EN":"Chumphon","ADM1_TH":"ชุมพร","ADM1_PCODE":"TH86","ADM0_EN":"Thailand","ADM0_TH":"ประเทศไทย","ADM0_PCODE":"TH"}},{"arcs":[[-118,158,-130,-154,-156,-147,-158]],"type":"Polygon","properties":{"Shape_Leng":0.18433731249,"Shape_Area":0.00121057903062,"ADM3_EN":"Laem Sai","ADM3_TH":"แหลมทราย","ADM3_PCODE":"TH860411","ADM2_EN":"Lang Suan","ADM2_TH":"หลังสวน","ADM2_PCODE":"TH8604","ADM1_EN":"Chumphon","ADM1_TH":"ชุมพร","ADM1_PCODE":"TH86","ADM0_EN":"Thailand","ADM0_TH":"ประเทศไทย","ADM0_PCODE":"TH"}},{"arcs":[[-121,-125,-128,159,-131,-159]],"type":"Polygon","properties":{"Shape_Leng":0.496319924152,"Shape_Area":0.00629020059469,"ADM3_EN":"Wang Tako","ADM3_TH":"วังตะกอ","ADM3_PCODE":"TH860412","ADM2_EN":"Lang Suan","ADM2_TH":"หลังสวน","ADM2_PCODE":"TH8604","ADM1_EN":"Chumphon","ADM1_TH":"ชุมพร","ADM1_PCODE":"TH86","ADM0_EN":"Thailand","ADM0_TH":"ประเทศไทย","ADM0_PCODE":"TH"}},{"arcs":[[-127,-145,160,161,162,163,-132,-160]],"type":"Polygon","properties":{"Shape_Leng":0.745856767533,"Shape_Area":0.0100070579172,"ADM3_EN":"Hat Yai","ADM3_TH":"หาดยาย","ADM3_PCODE":"TH860413","ADM2_EN":"Lang Suan","ADM2_TH":"หลังสวน","ADM2_PCODE":"TH8604","ADM1_EN":"Chumphon","ADM1_TH":"ชุมพร","ADM1_PCODE":"TH86","ADM0_EN":"Thailand","ADM0_TH":"ประเทศไทย","ADM0_PCODE":"TH"}},{"arcs":[[-136,164,165,166,167,168,-142,169,170,171]],"type":"Polygon","properties":{"Shape_Leng":1.15814538916,"Shape_Area":0.0174490257571,"ADM3_EN":"Lamae","ADM3_TH":"ละแม","ADM3_PCODE":"TH860501","ADM2_EN":"Lamae","ADM2_TH":"ละแม","ADM2_PCODE":"TH8605","ADM1_EN":"Chumphon","ADM1_TH":"ชุมพร","ADM1_PCODE":"TH86","ADM0_EN":"Thailand","ADM0_TH":"ประเทศไทย","ADM0_PCODE":"TH"}},{"arcs":[[-137,-172,172,-170,-141]],"type":"Polygon","properties":{"Shape_Leng":0.672035330262,"Shape_Area":0.00690791612515,"ADM3_EN":"Thung Luang","ADM3_TH":"ทุ่งหลวง","ADM3_PCODE":"TH860502","ADM2_EN":"Lamae","ADM2_TH":"ละแม","ADM2_PCODE":"TH8605","ADM1_EN":"Chumphon","ADM1_TH":"ชุมพร","ADM1_PCODE":"TH86","ADM0_EN":"Thailand","ADM0_TH":"ประเทศไทย","ADM0_PCODE":"TH"}},{"arcs":[[-166,173]],"type":"Polygon","properties":{"Shape_Leng":0.437590878841,"Shape_Area":0.00410291743822,"ADM3_EN":"Suan Taeng","ADM3_TH":"สวนแตง","ADM3_PCODE":"TH860503","ADM2_EN":"Lamae","ADM2_TH":"ละแม","ADM2_PCODE":"TH8605","ADM1_EN":"Chumphon","ADM1_TH":"ชุมพร","ADM1_PCODE":"TH86","ADM0_EN":"Thailand","ADM0_TH":"ประเทศไทย","ADM0_PCODE":"TH"}},{"arcs":[[-171,-173]],"type":"Polygon","properties":{"Shape_Leng":0.32012899676,"Shape_Area":0.00268742509625,"ADM3_EN":"Thung Kha Wat","ADM3_TH":"ทุ่งคาวัด","ADM3_PCODE":"TH860504","ADM2_EN":"Lamae","ADM2_TH":"ละแม","ADM2_PCODE":"TH8605","ADM1_EN":"Chumphon","ADM1_TH":"ชุมพร","ADM1_PCODE":"TH86","ADM0_EN":"Thailand","ADM0_TH":"ประเทศไทย","ADM0_PCODE":"TH"}},{"arcs":[[-168,174,175,176,177]],"type":"Polygon","properties":{"Shape_Leng":0.789146737624,"Shape_Area":0.0287348200289,"ADM3_EN":"Phato","ADM3_TH":"พะโต๊ะ","ADM3_PCODE":"TH860601","ADM2_EN":"Phato","ADM2_TH":"พะโต๊ะ","ADM2_PCODE":"TH8606","ADM1_EN":"Chumphon","ADM1_TH":"ชุมพร","ADM1_PCODE":"TH86","ADM0_EN":"Thailand","ADM0_TH":"ประเทศไทย","ADM0_PCODE":"TH"}},{"arcs":[[-176,178]],"type":"Polygon","properties":{"Shape_Leng":0.750922228253,"Shape_Area":0.0221927092541,"ADM3_EN":"Pak Song","ADM3_TH":"ปากทรง","ADM3_PCODE":"TH860602","ADM2_EN":"Phato","ADM2_TH":"พะโต๊ะ","ADM2_PCODE":"TH8606","ADM1_EN":"Chumphon","ADM1_TH":"ชุมพร","ADM1_PCODE":"TH86","ADM0_EN":"Thailand","ADM0_TH":"ประเทศไทย","ADM0_PCODE":"TH"}},{"arcs":[[-144,179,180,-161]],"type":"Polygon","properties":{"Shape_Leng":0.72490181152,"Shape_Area":0.0118021406447,"ADM3_EN":"Pang Wan","ADM3_TH":"ปังหวาน","ADM3_PCODE":"TH860603","ADM2_EN":"Phato","ADM2_TH":"พะโต๊ะ","ADM2_PCODE":"TH8606","ADM1_EN":"Chumphon","ADM1_TH":"ชุมพร","ADM1_PCODE":"TH86","ADM0_EN":"Thailand","ADM0_TH":"ประเทศไทย","ADM0_PCODE":"TH"}},{"arcs":[[-143,-169,-178,181,-180]],"type":"Polygon","properties":{"Shape_Leng":0.654533071016,"Shape_Area":0.00972965753956,"ADM3_EN":"Phrarak","ADM3_TH":"พระรักษ์","ADM3_PCODE":"TH860604","ADM2_EN":"Phato","ADM2_TH":"พะโต๊ะ","ADM2_PCODE":"TH8606","ADM1_EN":"Chumphon","ADM1_TH":"ชุมพร","ADM1_PCODE":"TH86","ADM0_EN":"Thailand","ADM0_TH":"ประเทศไทย","ADM0_PCODE":"TH"}},{"arcs":[[182,183,184,185,186,187]],"type":"Polygon","properties":{"Shape_Leng":0.354884347529,"Shape_Area":0.0032217177977,"ADM3_EN":"Na Pho","ADM3_TH":"นาโพธิ์","ADM3_PCODE":"TH860701","ADM2_EN":"Sawi","ADM2_TH":"สวี","ADM2_PCODE":"TH8607","ADM1_EN":"Chumphon","ADM1_TH":"ชุมพร","ADM1_PCODE":"TH86","ADM0_EN":"Thailand","ADM0_TH":"ประเทศไทย","ADM0_PCODE":"TH"}},{"arcs":[[-187,188,189,190]],"type":"Polygon","properties":{"Shape_Leng":0.273269649372,"Shape_Area":0.00226965897202,"ADM3_EN":"Sawi","ADM3_TH":"สวี","ADM3_PCODE":"TH860702","ADM2_EN":"Sawi","ADM2_TH":"สวี","ADM2_PCODE":"TH8607","ADM1_EN":"Chumphon","ADM1_TH":"ชุมพร","ADM1_PCODE":"TH86","ADM0_EN":"Thailand","ADM0_TH":"ประเทศไทย","ADM0_PCODE":"TH"}},{"arcs":[[-50,191,192,-189,-186,193,194,195]],"type":"Polygon","properties":{"Shape_Leng":0.810656902726,"Shape_Area":0.0127530371335,"ADM3_EN":"Thung Raya","ADM3_TH":"ทุ่งระยะ","ADM3_PCODE":"TH860703","ADM2_EN":"Sawi","ADM2_TH":"สวี","ADM2_PCODE":"TH8607","ADM1_EN":"Chumphon","ADM1_TH":"ชุมพร","ADM1_PCODE":"TH86","ADM0_EN":"Thailand","ADM0_TH":"ประเทศไทย","ADM0_PCODE":"TH"}},{"arcs":[[[-183,196,197,198,199]],[[200]]],"type":"MultiPolygon","properties":{"Shape_Leng":0.440854764929,"Shape_Area":0.0045977461269,"ADM3_EN":"Tha Hin","ADM3_TH":"ท่าหิน","ADM3_PCODE":"TH860704","ADM2_EN":"Sawi","ADM2_TH":"สวี","ADM2_PCODE":"TH8607","ADM1_EN":"Chumphon","ADM1_TH":"ชุมพร","ADM1_PCODE":"TH86","ADM0_EN":"Thailand","ADM0_TH":"ประเทศไทย","ADM0_PCODE":"TH"}},{"arcs":[[-59,201,202,-197,-188,-191,203]],"type":"Polygon","properties":{"Shape_Leng":0.384919501827,"Shape_Area":0.00180484970615,"ADM3_EN":"Pak Phraek","ADM3_TH":"ปากแพรก","ADM3_PCODE":"TH860705","ADM2_EN":"Sawi","ADM2_TH":"สวี","ADM2_PCODE":"TH8607","ADM1_EN":"Chumphon","ADM1_TH":"ชุมพร","ADM1_PCODE":"TH86","ADM0_EN":"Thailand","ADM0_TH":"ประเทศไทย","ADM0_PCODE":"TH"}},{"arcs":[[[-198,-203,204]],[[205]],[[206]],[[207]],[[208]],[[209]],[[210]],[[211]],[[212]]],"type":"MultiPolygon","properties":{"Shape_Leng":0.499521558772,"Shape_Area":0.00322242044685,"ADM3_EN":"Dan Sawi","ADM3_TH":"ด่านสวี","ADM3_PCODE":"TH860706","ADM2_EN":"Sawi","ADM2_TH":"สวี","ADM2_PCODE":"TH8607","ADM1_EN":"Chumphon","ADM1_TH":"ชุมพร","ADM1_PCODE":"TH86","ADM0_EN":"Thailand","ADM0_TH":"ประเทศไทย","ADM0_PCODE":"TH"}},{"arcs":[[-190,-193,213]],"type":"Polygon","properties":{"Shape_Leng":0.511751320614,"Shape_Area":0.00682955775042,"ADM3_EN":"Khron","ADM3_TH":"ครน","ADM3_PCODE":"TH860707","ADM2_EN":"Sawi","ADM2_TH":"สวี","ADM2_PCODE":"TH8607","ADM1_EN":"Chumphon","ADM1_TH":"ชุมพร","ADM1_PCODE":"TH86","ADM0_EN":"Thailand","ADM0_TH":"ประเทศไทย","ADM0_PCODE":"TH"}},{"arcs":[[-49,-60,-204,-214,-192]],"type":"Polygon","properties":{"Shape_Leng":0.915655665676,"Shape_Area":0.00873292289807,"ADM3_EN":"Wisai Tai","ADM3_TH":"วิสัยใต้","ADM3_PCODE":"TH860708","ADM2_EN":"Sawi","ADM2_TH":"สวี","ADM2_PCODE":"TH8607","ADM1_EN":"Chumphon","ADM1_TH":"ชุมพร","ADM1_PCODE":"TH86","ADM0_EN":"Thailand","ADM0_TH":"ประเทศไทย","ADM0_PCODE":"TH"}},{"arcs":[[-185,214,215,216,217,-194]],"type":"Polygon","properties":{"Shape_Leng":0.724152245915,"Shape_Area":0.0127028677604,"ADM3_EN":"Na Sak","ADM3_TH":"นาสัก","ADM3_PCODE":"TH860709","ADM2_EN":"Sawi","ADM2_TH":"สวี","ADM2_PCODE":"TH8607","ADM1_EN":"Chumphon","ADM1_TH":"ชุมพร","ADM1_PCODE":"TH86","ADM0_EN":"Thailand","ADM0_TH":"ประเทศไทย","ADM0_PCODE":"TH"}},{"arcs":[[-195,-218,218,219]],"type":"Polygon","properties":{"Shape_Leng":0.347648372861,"Shape_Area":0.00375219169004,"ADM3_EN":"Khao Thalu","ADM3_TH":"เขาทะลุ","ADM3_PCODE":"TH860710","ADM2_EN":"Sawi","ADM2_TH":"สวี","ADM2_PCODE":"TH8607","ADM1_EN":"Chumphon","ADM1_TH":"ชุมพร","ADM1_PCODE":"TH86","ADM0_EN":"Thailand","ADM0_TH":"ประเทศไทย","ADM0_PCODE":"TH"}},{"arcs":[[-163,220,-219,-217,221,222]],"type":"Polygon","properties":{"Shape_Leng":0.537477322575,"Shape_Area":0.00894025936495,"ADM3_EN":"Khao Khai","ADM3_TH":"เขาค่าย","ADM3_PCODE":"TH860711","ADM2_EN":"Sawi","ADM2_TH":"สวี","ADM2_PCODE":"TH8607","ADM1_EN":"Chumphon","ADM1_TH":"ชุมพร","ADM1_PCODE":"TH86","ADM0_EN":"Thailand","ADM0_TH":"ประเทศไทย","ADM0_PCODE":"TH"}},{"arcs":[[[-151,223,224,-200,225]],[[226]],[[227]],[[228]]],"type":"MultiPolygon","properties":{"Shape_Leng":0.413775763792,"Shape_Area":0.00302523246172,"ADM3_EN":"Pak Tako","ADM3_TH":"ปากตะโก","ADM3_PCODE":"TH860801","ADM2_EN":"Thung Tako","ADM2_TH":"ทุ่งตะโก","ADM2_PCODE":"TH8608","ADM1_EN":"Chumphon","ADM1_TH":"ชุมพร","ADM1_PCODE":"TH86","ADM0_EN":"Thailand","ADM0_TH":"ประเทศไทย","ADM0_PCODE":"TH"}},{"arcs":[[-184,-225,229,230,-215]],"type":"Polygon","properties":{"Shape_Leng":0.412163533222,"Shape_Area":0.00369960783007,"ADM3_EN":"Thung Takhrai","ADM3_TH":"ทุ่งตะไคร","ADM3_PCODE":"TH860802","ADM2_EN":"Thung Tako","ADM2_TH":"ทุ่งตะโก","ADM2_PCODE":"TH8608","ADM1_EN":"Chumphon","ADM1_TH":"ชุมพร","ADM1_PCODE":"TH86","ADM0_EN":"Thailand","ADM0_TH":"ประเทศไทย","ADM0_PCODE":"TH"}},{"arcs":[[-133,-164,-223,231,-230,-224,-150]],"type":"Polygon","properties":{"Shape_Leng":0.728846587998,"Shape_Area":0.0100524725366,"ADM3_EN":"Tako","ADM3_TH":"ตะโก","ADM3_PCODE":"TH860803","ADM2_EN":"Thung Tako","ADM2_TH":"ทุ่งตะโก","ADM2_PCODE":"TH8608","ADM1_EN":"Chumphon","ADM1_TH":"ชุมพร","ADM1_PCODE":"TH86","ADM0_EN":"Thailand","ADM0_TH":"ประเทศไทย","ADM0_PCODE":"TH"}},{"arcs":[[-216,-231,-232,-222]],"type":"Polygon","properties":{"Shape_Leng":0.591648016998,"Shape_Area":0.00763593309589,"ADM3_EN":"Chong Mai Kaeo","ADM3_TH":"ช่องไม้แก้ว","ADM3_PCODE":"TH860804","ADM2_EN":"Thung Tako","ADM2_TH":"ทุ่งตะโก","ADM2_PCODE":"TH8608","ADM1_EN":"Chumphon","ADM1_TH":"ชุมพร","ADM1_PCODE":"TH86","ADM0_EN":"Thailand","ADM0_TH":"ประเทศไทย","ADM0_PCODE":"TH"}}]}}}