{"type":"Topology","arcs":[[[4844,6072],[288,-140],[109,-5],[5,-54]],[[5246,5873],[6,-53],[-164,-21],[14,-159],[-62,-91]],[[5040,5549],[-10,-14],[-25,13],[-20,3],[-39,18],[-15,1],[-21,19],[-27,48],[-7,30],[35,57],[10,39],[-2,30],[-18,57],[-9,14],[-36,26],[-15,21],[-39,42],[-18,14],[-51,28],[-15,21],[-7,27],[-79,47]],[[4632,6090],[-8,27],[23,6]],[[4647,6123],[60,15],[137,-66]],[[5638,4194],[-41,16],[-95,1],[-51,-7],[-51,-12],[-20,-10],[-43,-11],[-18,-22],[-26,-21],[-42,27],[-33,-30],[-3,-22],[-11,-24],[-62,6],[-17,-28],[-26,-1],[-30,11],[-29,-56],[-40,-106],[-102,-20],[-30,2],[-54,17],[-31,-72],[-30,-3],[-66,-31],[-35,-28]],[[4652,3770],[16,41],[1,32],[27,39],[-2,55],[25,21],[5,52],[5,14],[-12,17],[6,22],[-4,31],[10,2],[13,22],[1,31],[16,22],[-90,-2],[77,179],[31,129],[10,19],[46,-29],[26,35],[-48,29],[101,146],[26,-16],[35,-14],[60,-11],[5,36],[-10,30],[20,13],[34,62],[5,23],[21,37],[30,44],[7,4],[27,34],[6,27],[32,32],[23,45]],[[5233,5023],[31,-24],[56,-51],[32,-14],[55,-17],[44,-4],[51,-24],[18,-15],[49,-54],[27,-11],[50,-11]],[[5646,4798],[-19,-67],[-7,-41],[-13,-38],[0,-89],[29,-33],[-11,-17],[17,-21],[6,-24],[25,1],[6,-40],[-20,-46],[-5,-56],[11,-5],[-30,-46],[-3,-29],[4,-28],[13,-9],[-11,-16]],[[4652,3770],[-29,-46],[-28,-24],[5,-50],[-14,-12],[-4,-21],[-11,-8],[-14,-35],[-4,-45],[-11,-31],[-51,-98],[-2,-28],[-7,-25],[21,-26],[-19,-16],[-4,-28],[43,-42],[-51,-47],[-12,-42],[3,-16]],[[4463,3130],[10,-16],[2,-21],[21,-4],[5,-14],[33,-23],[6,7],[13,-20],[0,-28],[15,-2],[-6,-27],[30,-58],[14,-35],[-2,-7]],[[4604,2882],[-34,15],[-5,18],[-15,15],[-29,-9],[-7,10],[-31,-6],[-20,8],[-57,9],[-64,-7],[-38,-29],[-21,-34],[-23,-23],[-19,-33],[-17,-6],[-29,21],[-14,-12],[-15,10],[-24,-24],[-8,8],[-33,-39],[-42,26],[-36,-14],[-19,-22],[-30,-5],[-35,-1]],[[3939,2758],[13,27],[1,14],[16,17],[-6,18],[8,6],[11,69],[-12,55]],[[3970,2964],[-3,19],[20,25],[-12,45],[-6,8],[39,27],[23,6],[29,-6],[20,25],[21,8],[6,12],[19,6],[-12,17],[-23,11],[-18,-1],[-67,43],[-11,22],[-21,13],[-26,1],[-14,25],[13,31],[-16,13],[8,27],[0,20],[24,27],[7,29],[14,16],[19,38],[-17,17],[2,14],[-28,16],[-25,28],[-23,-12],[-18,6],[-8,17],[-21,17],[-19,5],[-17,-5],[-96,21],[1,14],[-43,-6],[-22,13],[-22,-2],[-9,8],[-27,-18],[-99,7],[-38,13],[-28,34],[-34,47],[-3,11]],[[3409,3716],[19,-7],[39,59],[9,1],[15,-27],[53,29],[51,5],[35,0],[41,23],[38,18],[-3,37],[30,6],[36,21],[31,-9],[19,29],[10,-1],[2,29],[12,-1],[0,15],[16,7],[-9,10],[16,14],[48,4],[5,24],[65,17],[36,-12],[24,-15],[19,33],[-4,40],[44,1],[5,56],[-12,62],[-28,25],[-3,11],[15,20],[6,25],[-11,59],[21,30],[-9,18],[-48,-14],[-19,5],[-1,42],[28,20],[-3,12],[36,28],[26,-6],[7,-8],[18,6],[19,-5],[2,30],[12,25],[25,26],[0,20],[-17,25],[2,13],[-11,14],[-35,18],[30,31],[2,38],[9,60],[35,-6],[11,20],[29,12],[17,13],[2,17],[-10,22]],[[4256,4830],[16,-9],[37,-8],[20,9],[16,36],[17,1],[19,15],[9,18],[31,-15],[16,5],[8,114],[-2,80],[39,21],[46,11],[13,8],[41,9],[58,7],[52,-5],[26,1],[1,-10],[43,0],[1,-10],[69,2],[29,15],[37,6],[-1,154]],[[4897,5285],[2,0],[1,62],[51,-5],[33,7]],[[4984,5349],[34,-68],[-4,-46],[-22,-64],[1,-16],[15,-37],[40,-36],[21,-11],[48,-18],[73,-10],[43,-20]],[[3492,5952],[-29,-13],[-4,-8],[13,-20],[52,-17],[12,-10],[26,-42],[26,-18],[26,-11],[12,7],[10,-17],[21,-13],[72,-14],[16,5],[48,-3]],[[3793,5778],[-3,-23],[6,-23],[-9,-19],[19,-24],[6,-75],[24,-53],[12,-39],[5,-30],[-2,-58],[-5,-71]],[[3846,5363],[-3,-65],[-11,-43],[-23,-48],[-21,-26],[-18,-33],[-11,-37],[-34,17],[-19,37],[-19,19],[-18,-1],[-20,9],[-11,-10],[-42,5],[-4,-20],[26,-32],[5,-17],[6,-65],[-12,-18],[-22,-2],[-14,-20],[-20,-9],[-17,-22],[-11,-45],[-20,-50],[-11,-2],[9,-16],[1,-54],[-13,-35],[-33,-7],[-5,-16],[43,-12],[44,0],[9,-10],[19,9],[17,0],[5,-14]],[[3598,4730],[-42,-5],[-100,-33],[-35,5],[-18,12],[-8,48],[4,32],[14,44],[-8,34],[-40,51],[-14,2],[-63,-17],[-46,9],[-22,32],[-26,9],[7,15],[-46,15],[-19,14],[-9,15]],[[3127,5012],[-3,8],[-29,9],[-21,16],[-20,2],[-47,18],[-18,12],[-36,0],[-9,17],[-14,0],[-23,21],[-18,-12],[-19,8],[-14,-5],[-1,17],[-16,6],[-29,24],[-24,7],[15,17],[-15,2],[-9,29],[14,-2],[-5,13],[22,11],[-10,26],[-20,20],[7,20],[18,13],[-5,25],[22,8],[10,15],[-8,13],[15,12],[-29,19],[-5,-6],[-39,8],[-18,-7],[-20,15],[-9,18],[3,14],[-10,11],[11,7],[-12,21],[-3,27],[-28,18],[-2,29],[-12,4],[1,18],[-29,11],[-17,25],[-8,0],[-20,19],[7,10],[-43,31],[-1,11],[-42,-4],[-13,21],[-13,2],[-2,16],[-12,-4],[-17,12],[-51,1],[-9,-14],[-24,19],[-4,19],[12,9],[5,19],[-25,20],[-32,0],[-8,9],[17,2],[-15,26],[-28,-7],[-13,8],[-12,38],[2,13],[-21,3],[-15,15],[-5,26],[-24,17],[-6,27],[-18,-4],[-25,6],[-19,-22]],[[2137,5958],[-22,15],[-31,50],[-17,9],[1,29],[-7,18],[7,7],[48,-1],[20,-5],[23,-20],[-4,-31],[10,-16],[30,-11],[17,19],[2,15],[24,11],[-3,26],[9,12],[18,5],[9,11],[35,1],[31,22],[24,6],[38,27],[16,-2],[14,15],[65,5],[33,-24],[2,-18],[45,-12],[2,-22],[19,-8],[15,14],[29,10],[4,18],[35,6],[4,18],[28,-2],[14,28],[-9,12],[6,16],[-9,24],[5,11],[47,34],[22,22],[19,33],[17,17],[22,8],[31,-1],[10,-10],[-4,-13],[15,1],[36,40],[11,7],[46,2],[21,21],[7,18]],[[3017,6425],[18,-20],[17,-9],[3,-22],[51,-5],[23,-81],[36,-29],[52,-15],[12,-10],[-2,-60],[18,-34],[53,-16],[13,-19],[-6,-20],[5,-50],[9,-13],[37,-19],[43,15],[31,3],[20,-28],[46,-32],[-4,-9]],[[5040,5549],[38,-7],[32,-21],[4,-12],[-3,-38],[-21,-20],[-52,-18],[-38,-20],[-17,-21],[-5,-23],[6,-20]],[[4897,5285],[-40,3],[-28,15],[-6,-5],[-78,31],[-16,37],[-10,-2],[-42,35],[-25,-2],[-48,19],[-10,-10],[-17,17],[-27,1],[-31,26],[1,13],[-31,17]],[[4489,5480],[27,34],[-4,24],[26,3],[-2,28],[17,-1],[0,27],[12,-1],[8,24],[20,-6],[12,34],[28,9],[19,35],[-42,120],[-15,34],[-9,38],[-35,-9],[-20,1],[-37,13],[-54,26],[-12,12],[-18,-8],[-21,2],[-28,-20],[-24,5],[-23,-4],[-41,-29],[-30,-10],[-40,-3],[-33,19],[-29,2],[-36,-6],[-19,-8],[-24,2],[-48,37],[-63,5],[-17,-16],[-38,-14],[-31,-39],[6,-26],[-21,-12],[-11,-16],[-36,4],[-10,-12]],[[3492,5952],[56,-14],[24,9],[34,0],[1,41],[38,22],[82,40],[18,5],[53,70],[40,30],[30,13],[37,-21],[7,9],[185,0],[122,-2],[79,5],[75,-3],[17,-44],[20,-9],[9,-16],[47,1],[1,9],[69,2],[7,-17],[23,-18],[22,7],[4,13],[27,9],[13,-3]],[[3017,6425],[15,-2],[55,-32],[32,13],[26,1],[12,-10],[13,-31],[43,-16],[7,-13],[34,-13],[14,9],[24,-3],[10,8],[27,0],[29,13],[30,1],[7,-12],[20,-1],[16,-19],[46,-12],[12,-9],[16,10],[19,-5],[13,27],[30,-5],[42,66],[43,94],[28,-9],[56,-1],[27,-12],[74,48],[45,18]],[[3882,6528],[73,32],[173,70],[59,-46],[39,38],[29,21],[4,-5],[24,14],[17,-2],[12,9],[31,6],[19,12],[19,-1],[20,18],[24,2],[30,25]],[[4455,6721],[28,-17],[12,-19],[21,-60],[13,-26],[30,-41],[13,-35],[31,-37],[3,-51],[29,-49],[10,-28],[6,-32],[3,-57],[-4,-57],[5,-35],[-8,-54]],[[3717,7882],[-4,-15],[59,-18],[-8,-17],[14,-9],[20,5],[13,-15],[-4,-11],[16,-33],[28,3],[13,-21],[-26,-27],[-1,-24],[-12,-16],[-26,2],[0,-19],[22,-25],[-10,-2],[13,-18],[16,8],[16,-10],[-9,-11],[28,-15],[4,12],[38,-17],[23,-6],[8,-9],[38,8],[92,-19],[52,7],[26,9],[57,-6],[18,-15],[24,-9],[32,-31],[62,5],[10,-6],[88,10],[20,-1]],[[4467,7526],[35,-13],[31,-20],[8,8],[47,2],[43,12],[14,-41],[46,-5],[30,5],[17,-33]],[[4738,7441],[-32,-44],[21,-17],[69,-48],[35,-34],[2,-16],[-24,-27],[-37,20],[-38,12],[-25,-1],[-14,-48],[-64,4],[-9,-86],[-61,13],[-21,-17],[-19,-5],[-42,-26],[37,-28],[6,-48],[-8,-25],[8,-41],[26,-33],[10,-5],[-14,-38],[-33,-14],[-6,-11],[1,-31],[51,-67],[-25,-16],[-14,0],[-63,-43]],[[4455,6721],[-54,29],[-25,24],[-60,69],[-20,14],[-34,35],[-20,31],[-11,28],[-5,51],[-17,31],[-49,47],[-68,103],[-6,52],[-12,40],[-29,37],[-70,58],[-26,19],[-26,11],[-68,21]],[[3855,7421],[-58,15],[-97,2],[-34,-12],[-84,-38],[-42,-12],[-70,-9],[-56,6]],[[3414,7373],[8,33],[19,46],[24,72],[18,4],[12,65],[10,21],[-6,20],[-13,11],[12,15],[-10,21],[10,0],[-22,34],[-2,16],[16,27],[-7,21],[14,5],[17,41],[23,11],[27,32],[-16,52]],[[3548,7920],[31,22],[21,-15],[17,5],[26,-19],[20,0],[43,-11],[11,-20]],[[4738,7441],[16,-11],[34,7],[8,-9],[44,-20],[7,-17],[21,-10],[1,-30],[19,-34],[19,-22],[4,-24],[18,-33],[24,-24],[15,-5],[8,-39],[-6,-11],[13,-9],[2,-18],[26,-40],[9,-3],[13,-30],[14,-9],[3,-18],[27,-25],[0,-20],[24,-16],[47,-8],[48,3],[16,23],[13,4],[23,-21]],[[5248,6972],[25,-9],[25,5],[11,-18],[57,-43],[20,-5],[53,-40]],[[5439,6862],[41,-27],[28,-9],[27,-17],[57,-49],[31,-37]],[[5623,6723],[-23,4],[-22,-8],[-41,-3],[-26,-11],[-14,1],[-12,-15],[-23,7],[-21,18],[-48,-5],[-28,-11],[-15,1],[-37,-16],[-12,12],[-34,-2],[-15,-29],[-13,-7],[-14,-22],[-16,-99],[-9,-43],[-25,-24],[-25,-16],[-27,8],[-2,-44],[14,-49],[-10,-14],[-29,-13],[-25,-40],[-23,-6],[-20,-20],[-12,-28],[-12,-50],[-30,0],[-62,-72],[-23,-44],[-18,0],[-27,-11]],[[7201,4866],[36,-12],[9,-35],[25,-57],[32,-55],[24,-48]],[[7327,4659],[-130,-7],[-91,3],[-23,-11],[-44,4],[-82,21],[-50,6],[-34,-4],[-78,-24],[-39,-21],[-76,-58],[-68,-44],[-32,-29],[-19,-22],[-65,-42],[-50,-14],[-97,-61]],[[6349,4356],[-21,18],[-3,14],[6,26],[0,56],[-12,22],[-45,39],[-28,53],[-2,22],[-12,17],[-19,7],[-32,32],[-2,25],[5,38],[-27,32],[-20,16],[-47,24],[-44,10]],[[6046,4807],[6,34],[-10,47],[1,20],[-21,29],[10,7],[0,16],[-22,27],[-4,16],[36,20],[17,20],[4,25],[-6,3],[24,40],[27,81],[33,-25],[21,55],[83,-13],[6,4],[78,-27],[4,22],[19,18],[46,-13],[14,16],[37,-23],[20,22],[25,13],[98,34],[6,19],[31,11],[24,77],[23,9],[2,21]],[[6678,5412],[11,-5],[-3,-58],[4,-38],[-9,-79],[12,-36],[18,-21],[80,-2],[57,-25],[26,-36],[18,-15],[28,-12],[23,-17],[47,-54],[17,-10],[29,-2],[21,-15],[27,-54],[22,-29],[40,-28],[22,-7],[33,-3]],[[7086,6401],[-81,-453]],[[7005,5948],[-18,-112],[-13,-99],[-10,-102],[-8,-32],[-79,7],[-92,15],[-10,-1],[-107,13]],[[6668,5637],[-202,25],[-100,14],[-136,21],[14,66],[17,104],[0,25],[21,96],[15,88]],[[6297,6076],[-1,9],[34,188],[64,366]],[[6394,6639],[2,9],[85,-15],[51,-45],[-20,-29],[3,-22],[-4,-30],[-30,-157],[24,-6],[18,9],[25,-14],[21,-20],[39,5],[16,-15],[39,-14],[48,6],[12,12],[30,0],[9,7],[23,-4],[8,-10],[29,7],[5,16],[30,2],[11,10],[18,-3],[15,6],[56,36],[51,2],[20,-4],[17,20],[12,5],[29,-2]],[[5246,5873],[69,6],[136,14],[112,14],[189,26],[166,29],[122,27],[194,44],[27,17],[15,16],[21,10]],[[6668,5637],[-4,-55],[12,-18],[14,-5],[6,-57],[-21,-88],[3,-2]],[[6046,4807],[-31,-8],[-71,-7],[-26,-22],[-34,-8],[-39,7],[-20,23],[-19,12],[-58,-2],[-36,-11],[-66,7]],[[3409,3716],[-10,16],[-24,5],[-16,-6],[-43,13],[20,69],[-16,13],[2,11],[-16,20],[-28,13],[-19,1],[-27,19],[-14,17]],[[3218,3907],[5,10],[58,151],[62,42],[37,28],[18,5],[71,-22],[71,-26],[19,1],[33,32],[51,98],[58,104],[85,148],[34,53],[92,151]],[[3912,4682],[165,266],[185,292],[38,1],[2,-38],[12,-40],[-22,-8],[-13,-17],[5,-26],[16,-27],[-6,-24],[-13,-23],[-30,-1],[-5,-95],[-8,-55],[18,-57]],[[4489,5480],[-11,22],[-74,-2],[-66,7],[-48,-4],[-12,-11],[-3,-49],[-69,-3],[0,-28],[-207,-8],[-153,-41]],[[3912,4682],[-39,6],[-5,-11],[-28,-2],[-29,-27],[-56,-15],[-5,6],[-34,-23],[-35,20],[7,10],[-8,60],[-51,-18],[-24,45],[-7,-3]],[[6349,4356],[-132,-42],[-39,-16]],[[6178,4298],[-53,-29],[-79,-39],[-139,-35],[-107,-23],[-67,-5],[-38,8]],[[5695,4175],[-57,19]],[[5623,6723],[28,-26],[119,-48],[112,-60],[47,1],[32,-16],[37,-12],[8,-42],[40,-26],[1,-7],[31,18],[18,21],[17,-1],[54,12],[10,20],[30,11],[24,20],[21,11],[39,7],[37,22],[66,11]],[[8627,6441],[16,-16]],[[8643,6425],[-20,-63],[-12,-16],[-10,-48],[-3,-96],[57,5],[29,-7],[18,-15],[7,-16],[-20,-98],[4,-45],[31,-53],[24,-17],[21,-36],[60,-42],[37,-32],[18,-31],[4,-44],[8,-47],[7,-102],[27,-85],[20,-16],[64,-43]],[[9014,5478],[-97,-9],[-29,-8],[-17,-12],[-11,-22],[-31,2],[-32,12],[-47,6],[-4,-6],[-36,-1],[-33,18],[-92,16],[-57,0]],[[8528,5474],[-70,-4],[-42,13],[-44,35],[-44,12],[-16,9],[-25,36],[-70,47],[-60,48],[-25,27],[3,28],[45,31],[16,15],[7,19],[4,39],[16,27],[9,32],[39,46],[16,40],[-21,26],[-17,5],[-12,18]],[[8237,6023],[-23,10],[-19,22],[-5,18],[15,20],[48,46],[10,18],[-6,9],[1,23],[12,58],[-54,15],[-54,1],[10,42],[-5,13],[5,30],[-3,36],[-13,18],[-16,8],[-1,14]],[[8139,6424],[19,-9],[21,-32],[14,7],[26,-8],[30,12],[2,17],[19,13],[43,3],[23,-15],[7,-25],[10,-1],[13,21],[20,4],[-5,26],[21,22],[20,12],[20,4],[26,-15],[19,11],[32,-26],[7,12],[25,-4],[34,10],[11,-11],[11,5],[20,-16]],[[8528,5474],[-31,-83],[-22,-38],[-25,-34],[-19,-39],[-27,-64],[-43,-51]],[[8361,5165],[-39,26],[-58,24],[-61,12],[-83,8],[-113,15],[-55,14],[-135,60]],[[7817,5324],[-20,21],[-44,18],[-34,7],[-38,19],[-33,24],[-67,15],[-59,44],[-66,40],[-39,32],[-39,23],[-60,22],[-27,28],[-14,23],[-6,28],[6,68],[-22,39],[-51,47],[19,36],[-4,40],[-19,42],[-1,15]],[[7199,5955],[405,27],[633,41]],[[7005,5948],[24,-4],[170,11]],[[7817,5324],[-31,-21],[-19,-21],[-95,-85],[-21,-23],[-45,-42],[-17,-20],[-19,-35],[-51,-22],[-45,-35],[-43,-54],[-24,-49],[-3,-14],[-15,-16],[-47,4],[-60,-5],[-33,-6],[-48,-14]],[[8643,6425],[10,12],[36,1]],[[8689,6438],[18,-55],[11,-73],[11,-28],[30,-3],[52,7],[26,-11],[56,1],[31,-10],[4,15],[31,-3],[23,5],[42,2],[47,13],[48,0],[10,-4],[1,-33],[-13,-18],[9,-5],[19,-61],[29,0],[40,11],[31,-11],[-5,-35],[2,-24],[9,-28],[240,16],[10,-24],[31,-1],[-1,27],[347,23]],[[9878,6131],[-3,-15],[-38,-47],[-65,-82],[-21,-33],[-56,-55],[-54,-67],[-59,-44],[-14,-17],[-31,-72],[-5,-19],[-1,-51],[-21,-30],[-27,-57],[-2,-80],[5,-95],[6,-49]],[[9492,5318],[-47,33],[-29,8],[-25,-6],[-29,10],[-5,50],[-30,2],[-24,17],[-70,23],[-44,11],[-175,12]],[[7086,6401],[39,1],[14,-13],[23,-2],[16,-27],[34,7],[9,15],[36,10],[31,3],[29,33],[-15,5],[-18,37],[-7,4],[0,47],[31,5],[14,-13],[24,-2],[26,9],[10,-8],[23,4],[10,10],[20,-14],[69,5],[54,-20],[35,-2],[10,-9],[59,-3],[21,-8],[0,-10],[64,-13]],[[7747,6452],[46,-1],[8,-10],[28,0],[-1,-9],[21,-2],[3,10],[30,3],[24,-12],[21,-1],[8,-19],[-4,-14],[8,-21],[14,-8],[7,-19],[53,3],[27,14],[28,36],[1,12],[19,9],[38,-4],[13,5]],[[8361,5165],[19,-19],[12,-20],[22,-11],[25,3],[25,35],[42,15],[61,-1],[41,-26],[36,-35],[3,-47],[-5,-9],[-6,-47],[2,-38],[12,-49],[14,-21],[23,-8],[21,4],[21,12],[11,16],[8,40],[26,20],[15,31],[26,3],[38,-15],[41,-36],[8,-67],[-27,-82],[5,-28]],[[8880,4785],[-134,2],[-77,5],[-171,-6],[-38,16],[-37,1],[-69,-18],[-86,-10],[-24,-12],[-30,-1],[-116,-11],[-80,-5],[-41,-23],[-33,-2],[-41,-14],[-3,8],[-36,0]],[[7864,4715],[-96,-21],[-92,12],[-54,14],[-68,13],[-64,-26],[-17,-16],[-23,-6],[-17,-13],[-23,-7],[-83,-6]],[[9492,5318],[4,-54],[-6,-52],[-13,-40],[-17,-38],[-47,-73],[-29,-79],[8,-48],[19,-35],[20,-25],[57,-51],[8,-17],[2,-59]],[[9498,4747],[-7,-16],[-18,-14],[-41,-46],[-36,-26],[-32,0],[-42,15],[-42,25],[-83,93],[-24,24],[-26,13],[-37,0],[-39,-9],[-30,-18],[-79,-7],[-82,4]],[[3970,2964],[-19,-3],[1,-13],[-29,-12],[1,-13],[-26,-11],[7,-26],[-28,-8],[-23,-18],[-61,-19],[-12,1],[-33,19],[-74,19],[-66,34],[-11,9],[-28,-5],[-44,5],[-4,-13],[-26,-9],[-24,3],[-11,34],[6,25],[-15,17],[-9,-13],[-32,0],[-24,9],[-21,21],[-26,43],[-23,0],[-56,18],[-35,-27],[-8,-27],[7,-16],[-6,-19],[-37,-34],[-13,-6],[-49,6],[-34,-12],[-7,-10],[3,-25],[-12,-12],[-51,5],[-1,9],[-31,18],[-19,3],[-31,-8],[-31,-16],[-29,14],[-42,11],[-13,23],[-26,2],[-2,-35],[-28,-1],[-4,-11],[-23,-16],[-30,-6],[-26,26],[-30,-15],[-21,-27],[-12,0],[-25,-16],[-31,1],[-15,-8],[-29,4],[-4,11],[-38,-1],[-42,17],[-41,-6],[-5,17],[-52,22],[-49,7],[-53,-1],[-41,-19],[-22,-24],[6,-12],[-13,-21],[5,-36],[-23,-13],[-43,-7],[-31,12],[-17,-1],[-13,-12],[-2,-55],[-8,-42],[-31,-12],[-27,-21],[-33,-16],[-10,1],[-23,28],[-33,22],[-6,22],[-17,-4],[-24,-31],[-25,-18],[-19,-35],[-40,-56],[-24,-28],[-34,-16],[-34,-33],[-1,-12],[19,-51],[-19,-17],[-9,-24],[8,-57],[-8,-31],[-14,-11]],[[1629,2269],[-29,32],[-52,49],[-12,3],[-9,17],[-36,19],[-17,-5],[-45,15],[-9,-3],[-28,-36],[-51,-11],[-91,-79],[0,-20],[-34,4],[-5,9],[-41,0],[-21,-8],[-11,-31],[-22,-10],[-44,27],[-11,16],[-17,9],[-59,-10],[-2,-12],[-30,-25],[-46,-12],[-14,-28]],[[893,2179],[-18,14],[-1,27],[24,28],[-9,49],[0,25],[-30,26],[-37,1],[-54,-8],[-12,2],[-19,30],[-2,34],[-19,22],[-8,32],[-58,-6],[-11,51],[-11,8],[3,32],[-18,14],[-28,4],[-37,24],[-43,37],[-18,4],[-65,2],[-30,12],[-47,11],[-18,31],[7,30],[-16,24],[8,48],[-1,20],[14,52],[-9,24],[6,20],[36,10],[11,18],[20,-6],[53,9],[14,6],[18,-5],[14,6],[-2,47],[4,21],[15,12],[5,41],[-2,33],[27,38],[7,60],[-1,40],[35,20],[17,26],[14,6],[9,70],[-12,60]],[[618,3415],[58,-9],[21,19],[17,59],[28,22],[24,1],[24,-17],[37,-2],[44,-21],[11,-12],[20,0],[45,50],[35,4],[24,-18],[19,16],[14,-2],[22,-25],[-2,-18],[20,-8],[17,29],[53,9],[25,-15],[8,12],[28,13],[23,1],[30,-14],[16,2],[-2,23]],[[1277,3514],[3,-7],[56,-36],[20,13],[10,-4],[31,-44],[4,-14],[20,-7],[50,-58],[21,-8],[21,-17],[62,-7],[14,-10],[20,5],[7,19],[18,9],[7,15],[-3,25],[-15,9],[3,18],[76,-9],[29,27],[3,26],[24,25],[19,-3],[23,20],[76,41],[12,11],[38,23],[5,31],[31,6],[17,-22],[31,-6],[8,-11],[-8,-17],[5,-15],[-9,-19],[38,-47],[-2,-27],[21,-23],[46,-9],[25,4],[49,17],[21,-12],[59,-22],[10,4],[15,44],[30,9],[5,10],[34,18],[3,12],[34,39],[28,19],[-8,58],[-20,48],[1,17],[13,30],[-10,28],[10,28],[-17,14],[1,19],[20,30],[29,-2],[1,9],[33,11],[8,26],[18,15],[16,-5],[14,13],[33,-4],[18,24],[35,-4],[5,-10],[17,1],[-4,45],[-18,25],[28,34],[33,-13],[26,8],[11,24],[15,-2],[38,20],[23,-11],[13,3],[27,-25],[17,-9],[16,13],[25,-9],[34,-22],[11,-18],[5,-34],[27,0],[13,-9],[24,-1],[26,-12],[1,-14],[37,7],[22,-12],[9,7],[22,-3],[40,1],[3,6],[34,-2],[21,5]],[[3127,5012],[-40,-21],[0,-17],[10,-14],[-1,-26],[8,-34],[11,-9],[-42,1],[-4,-20],[16,-9],[-9,-66],[-25,-13],[4,-7],[-29,-6],[-6,-23],[-13,-9],[-5,-26],[8,-16],[3,-28],[-12,-10],[3,-14],[-15,-21],[17,-12],[-4,-14],[16,-17],[-17,2],[-34,-26],[-12,7],[-4,-12],[-23,-7],[-24,-35],[-22,1],[-24,-11],[-6,-23],[-20,-8],[-6,-19],[-28,-3],[3,-11],[-19,-8],[-15,-15],[-2,-18],[-17,-12],[-20,0],[-3,-12],[-23,23],[-12,1],[-26,20],[-28,12],[10,9],[-10,14],[6,12],[-15,19],[-14,-3],[8,31],[-49,-16],[-31,13],[-36,31],[-21,10],[-19,0],[-41,-32],[-26,-4],[-40,-18],[-37,12],[-27,-4],[3,-18],[-28,-14],[-17,-17],[-21,1],[-23,15],[-93,12],[-28,-13],[-28,-5],[-18,10],[16,33],[-1,22],[-26,-1],[-6,-22],[-21,5],[5,20],[-8,14],[-20,1],[-30,39],[4,33],[-16,19],[-10,-43],[-4,-36],[-32,-28],[-28,-14],[-18,-15],[-31,-1],[-10,6],[-11,28],[-13,4],[-41,-29],[-13,4],[-6,15],[20,27],[0,17],[-19,6],[-53,-26],[-37,-6],[-26,-29],[1,-18],[15,-17],[2,-25],[-9,-4],[-53,2],[-29,-9],[-22,6],[-22,17],[-40,21],[-27,-21],[-7,-13],[-30,3],[-5,12],[22,26],[6,17],[-9,15],[-18,3],[-21,-16],[2,-53],[-27,-5],[-28,-13],[-16,-19],[7,-21],[38,7],[20,-1],[21,-20],[-26,-8],[-28,-17],[-14,2],[-7,-24],[-17,-11],[-15,16],[-8,-12],[6,-13],[-11,-6],[-48,22],[-3,-6],[14,-23],[3,-19],[-16,-6],[21,-47],[16,-11],[-12,-15],[-58,-6],[-8,-17],[29,-5],[52,-16],[4,-15],[-26,-23],[5,-13],[37,-33],[8,-24],[-14,-35],[10,-5],[54,6],[65,-41],[-6,-24],[-31,-18],[-8,-16],[4,-15],[-27,-24],[15,-26],[-7,-18],[-18,-2],[13,-42],[15,-2],[11,-13],[-6,-16],[-20,-25],[-42,-25],[0,-21],[45,-8],[13,-27],[20,-3],[-17,-28],[-20,7],[-17,-31],[0,-36],[-25,2],[-16,-16],[21,-24],[-10,-19]],[[618,3415],[-4,21],[-15,19],[-27,11],[-13,12],[-11,26],[-6,41],[-30,32],[-32,20],[-9,12],[-4,40],[-34,27],[-24,10],[-37,27],[7,17],[-16,45],[-17,27],[-26,14],[-12,34],[-3,74],[-7,27],[-15,27],[-1,30],[12,37],[-19,27],[-11,40],[-13,14],[5,49],[15,37],[29,14],[21,22],[13,6],[9,27],[16,22],[-23,34],[-8,29],[2,16],[17,22],[9,29],[-11,5],[-1,42],[-7,35],[5,20],[-7,14],[-13,-2],[-31,14],[-13,16],[-23,4],[-12,56],[7,35],[25,47],[-20,17],[-9,17],[-2,36],[14,34],[-14,13],[3,13],[-10,17],[10,53],[-3,10],[-24,22],[-24,53],[-25,11],[-25,4],[-27,-13],[-33,-7],[-11,-8],[-25,2],[-11,13],[-21,7],[-18,22],[0,11],[17,12],[12,32],[-3,33],[7,19],[4,47],[-12,73],[4,29],[7,15],[-3,32],[31,17],[13,26],[23,1],[40,-15]],[[140,5367],[13,13],[37,-8],[10,-19],[50,-1],[21,-11],[11,-28],[12,-13],[44,-5],[11,-35],[16,-15],[28,0],[15,6],[9,-11],[5,-36],[29,15],[27,-3],[-2,-26],[7,-12],[29,-22],[18,-35],[25,-14],[31,0],[26,-18],[35,-7],[80,11],[18,-5],[15,-26],[52,1],[13,-4],[16,8],[-1,9],[22,21],[34,12],[2,20],[12,4],[-4,18],[21,30],[14,6],[-9,16],[5,25],[18,1],[23,22],[35,17],[11,25],[24,-3],[-8,22],[9,26],[22,19],[-19,16],[12,16],[4,26],[-19,-15],[-16,6],[19,32],[-10,5],[-17,-14],[-18,12],[2,11],[-16,-5],[-12,14],[-15,-12],[-6,14],[23,18],[-9,9],[-18,-3],[-12,12],[9,16],[-14,22],[6,34],[31,-5],[29,15],[20,-5],[6,-10],[28,-3],[26,11],[41,1],[24,22],[19,10],[50,2],[19,-4],[-9,29],[38,22],[31,-6],[21,4],[31,18],[9,-1],[34,-28],[-4,-9],[23,-21],[-1,-14],[17,-21],[30,6],[4,27],[13,15],[35,-6],[22,-32],[35,-21],[5,5],[-2,40],[66,25],[-1,11],[25,7],[6,30],[29,6],[8,13],[35,3],[2,16],[12,-1],[23,25],[15,0],[-12,25],[11,15],[14,36],[14,3],[21,31],[46,-46],[7,-1],[16,25],[21,21],[13,36],[26,24],[15,-14],[19,19],[26,-16],[10,12],[26,0],[25,22],[49,19]],[[3939,2758],[-13,-5],[-6,-15],[-28,-22],[6,-37],[-1,-46],[25,-30],[59,-38],[64,-26],[56,-5],[117,3],[25,-12],[12,-83],[17,-36],[5,-20],[-11,-21],[-11,0],[0,-20],[-17,-14],[-25,13],[-10,-10],[-20,7],[-11,-17],[-8,7],[-78,-20],[5,-19],[-11,4],[-14,-20],[8,-7],[-15,-26],[-25,10],[-19,-10],[6,-23],[-10,3],[-12,-17],[-8,13],[-12,-14],[10,-15],[-15,0],[-31,17],[3,-17],[-47,-30],[-36,13],[-9,-16],[-17,-8],[11,-11],[-9,-11],[-22,7],[3,-19],[-34,-17],[14,-7],[-13,-17],[-35,-14],[-38,24],[3,-26],[-21,-18],[4,-19],[-16,-37]],[[3684,1984],[-27,0],[-18,15],[13,9],[-3,40],[-21,25],[-19,-1],[2,-21],[-12,-7],[-4,-19],[-18,3],[-12,-8],[-27,2],[4,-29],[-62,3],[-13,-25],[-22,-3],[-9,-14],[14,-14],[-14,-19],[-15,12],[-38,11],[-47,-26],[-2,16],[-15,-2],[-1,-13],[-15,-4],[-23,7],[-24,-25],[-5,9],[-21,-2],[0,15],[-32,45],[-22,5],[-21,-4],[-5,-13],[-24,-1],[-8,-11],[-16,8],[-24,31],[-43,19],[-14,-30],[-12,0],[-13,21],[-34,33],[-19,7],[-1,-23],[-12,-32],[-50,-14],[-14,-28],[3,-18],[23,-22],[-24,-28],[-31,17],[-3,15],[-15,8],[-9,-13],[-26,-1],[-2,-28],[-11,-39],[-38,-21],[-40,-9],[-16,2],[-25,-7],[-48,2],[-38,-16],[-11,-10],[-18,6],[-14,15],[-19,-14],[-32,-15],[-3,-36],[-13,-11],[-25,10],[-39,-2],[-16,-10],[-22,1],[-15,10],[-17,-21],[-28,3],[6,-29],[-15,-11],[-8,12],[-26,16],[-24,-9],[1,26],[-9,4],[1,48],[-6,5],[-32,-25],[-9,3],[-5,26],[-14,2],[-20,-14],[-37,2],[-17,17],[-28,-6],[-8,35],[-8,16],[6,22],[-8,26],[-13,5],[-17,26],[-34,33],[-1,8],[-23,-10],[-16,25],[4,29],[-24,1],[2,18],[-28,19],[-47,53],[-25,12],[-2,22],[-37,7],[-5,24],[-16,24],[-33,25],[-3,17],[-34,17],[-5,-8],[-41,28],[-7,28]],[[8523,2580],[-23,-35],[-23,-10],[11,-47],[7,-1],[21,-31],[-9,-14],[8,-18],[-41,-43],[-66,-11],[-25,-33],[-41,-15],[-31,-35],[5,-23],[-6,-49],[-21,10],[-28,-20],[-37,-7],[-50,-67],[-13,-13],[-38,-13],[-27,-5]],[[8096,2100],[-9,38],[-19,16],[-32,8],[-29,35],[-26,52],[-19,24],[-26,15],[-9,26],[-3,29],[-7,9]],[[7917,2352],[-49,45],[-55,35],[-30,33],[-15,28],[-6,23],[-5,53],[-8,8],[-66,35],[-25,7],[-38,2],[-20,-5],[-63,-34],[-14,-3],[-33,11]],[[7490,2590],[35,4],[47,17],[49,46],[8,29],[21,11],[26,-4],[14,-12],[34,-11],[53,16],[30,5],[48,-1],[16,6],[26,20],[28,34],[23,38],[40,39],[25,13],[37,0],[20,-5],[39,0],[27,5],[43,18],[71,41],[51,23],[20,13],[29,34]],[[8350,2969],[17,-31],[-22,-15],[17,-28],[-34,-25],[-6,-16],[-33,-1],[1,-21],[-24,-13],[5,-12],[-51,-25],[13,-51],[13,-24],[28,12],[7,-4],[19,-47],[19,-21],[8,-27],[73,-15],[13,-8],[21,16],[2,-9],[22,13],[17,-31],[15,9],[33,-15]],[[8523,2580],[20,-17],[35,-6],[35,41],[20,17],[32,10],[41,34],[16,-16]],[[8722,2643],[-12,-18],[3,-27],[23,-29],[41,-2],[51,14],[38,22],[15,3],[77,1],[12,7],[22,-11],[13,10],[22,-4],[44,24],[62,6],[18,-5],[6,-11],[30,-7],[18,17],[17,-5],[18,-25],[10,2],[6,-17],[21,-20],[14,9],[26,1],[28,-18],[0,-35],[45,-34]],[[9390,2491],[-48,-24],[-16,-19],[7,-8],[-16,-12],[-38,-12],[5,-15],[-18,-9],[-36,-52],[-25,-9],[1,-15],[-20,-11],[11,-16],[-16,-13],[-29,-37],[-16,-15],[2,-35],[-99,-98],[-45,-30],[-25,-8],[5,-28],[-38,-35],[-21,-38],[-18,-9],[15,-41],[-33,-10],[-3,-19],[-17,1],[-27,-14],[-26,12],[-14,-1],[-23,-24],[-40,-13],[-1,8],[-47,-6],[-10,25],[-74,-37],[17,-11],[-5,-16],[-45,-1],[-22,-5],[2,-10],[-19,-2],[4,-28],[-5,-6],[-35,2],[0,-10],[-27,-4],[-8,13],[-22,-10],[-16,11],[-99,-26]],[[8317,1721],[-18,46],[-5,28],[2,39],[10,55],[-10,36],[-32,25],[-68,25],[-67,74],[-33,51]],[[8317,1721],[18,-26],[-51,-23],[-23,3],[-67,-11],[-56,-15],[2,-10],[-16,-10],[-50,-17],[-33,-17],[-2,-28],[0,-142],[4,-14]],[[8043,1411],[-100,38],[-51,26],[-18,15],[-90,87],[-19,11],[-232,111],[-36,15]],[[7497,1714],[23,45],[3,28],[28,34],[-1,25],[6,59],[16,65],[22,74]],[[7594,2044],[68,0],[19,8],[21,19],[31,35],[18,13],[29,44],[21,18],[20,30],[46,87],[50,54]],[[8043,1411],[-2,-10],[20,-42],[-9,-19],[7,-21],[4,-82],[-1,-38],[-87,-103],[-45,-56],[-54,-22],[0,-44],[-16,-31],[-14,-40],[-24,-16],[-38,-16],[-80,-27],[-32,-3]],[[7672,841],[9,48],[6,4],[12,46],[-2,30],[8,3],[-9,50],[-11,-5],[-17,49],[-95,4],[-20,5],[-150,-3],[-63,-4],[-32,10],[-66,51]],[[7242,1129],[-14,103],[-18,38],[2,11],[-35,57],[-4,14],[3,48],[17,29],[3,20],[-10,20],[3,20]],[[7189,1489],[34,-5],[53,-18],[57,-33],[30,-30],[41,-15],[22,7],[0,41],[-6,72],[7,69],[27,76],[12,21],[31,40]],[[7672,841],[-6,-29],[-6,-69],[-12,-37],[7,-9],[14,-48],[-13,-12],[-6,-18],[-31,10],[-17,-11],[-45,11],[-30,11],[-39,40],[-32,0],[-22,-21],[-5,4],[-127,-34],[-10,-54],[18,-32],[8,-30],[27,-43],[-24,-59],[-28,-25],[-27,-1],[-17,-10],[-26,-27],[-24,-31],[-11,-5],[-27,-40],[-33,-25],[-16,-35],[-15,-12],[-12,-96],[-9,-21],[-24,-23],[6,-30],[-49,-9],[-24,12],[-5,27],[-10,4],[-21,32],[-21,12],[-28,36],[-40,24],[-15,4],[-92,7],[-40,11],[-49,-3],[-21,4],[-34,18],[-92,-61],[-26,-19],[-16,-26],[-9,-28],[-40,-7],[-35,-11],[-18,-13],[-46,-18],[-30,-20],[-18,-6],[-14,35],[2,8],[-33,12],[-10,10],[5,22],[23,31],[15,55],[-6,15],[-35,36],[-21,12],[-51,22],[-34,20],[-18,15],[-32,-19],[-42,-8],[-18,19],[-20,-4],[-33,-37],[-13,-44],[-24,29],[1,17],[-14,4],[-11,53],[-18,-6],[-5,11],[-25,9],[1,8],[-30,24],[-40,11],[-25,19],[7,6],[-38,25],[-12,-6],[-24,7],[-37,-10],[-14,57],[-47,26],[-12,0]],[[5577,484],[7,21],[25,24],[-134,46],[-50,23],[-36,32],[-72,79],[-83,42],[-49,32],[-120,99],[-147,109]],[[4918,991],[73,-15],[37,9],[51,-3],[1,9],[31,3],[8,26],[11,-3],[75,-7],[27,-6],[4,7],[43,-14],[54,-9],[6,21],[59,-3],[45,-12],[26,4],[65,-40],[19,6],[-7,44],[18,49],[23,32],[61,28],[38,8],[67,39],[23,-2],[16,15],[27,-3],[5,9],[22,-3],[45,-13],[58,-23],[38,-10],[51,-6],[49,-10],[52,-18],[81,-31],[54,-15],[40,-5],[85,-26],[45,-2],[71,6],[52,2],[79,8],[75,15],[39,1],[72,-4],[52,-9],[56,5],[9,-7],[31,0],[26,12],[55,1],[34,24],[36,17],[49,-1],[12,4],[35,33],[15,1]],[[7189,1489],[-33,-6],[-47,24],[-62,-2],[-41,25],[-11,21],[-44,36],[18,37],[-10,2],[-5,25],[-9,-2],[-1,21],[-30,19],[-15,-10],[-14,4],[-18,18],[-18,28],[-25,7],[6,17],[-20,16],[6,15],[-18,3],[7,11],[-8,14],[13,15],[-17,2],[1,17],[-11,7],[-10,-14],[-8,8],[-51,5],[-24,-8],[-32,23],[-6,17],[12,35]],[[6664,1919],[34,28],[40,46],[19,31],[11,34],[7,5],[11,34],[17,28],[-29,34],[20,19],[34,50],[32,26],[-5,14],[47,13],[2,12],[96,18],[52,28],[45,3]],[[7097,2342],[60,-6],[47,3],[33,7],[3,-40],[9,-2],[8,-30],[22,-10],[4,-26],[18,0],[46,-54],[29,-25],[57,-29],[-1,-11],[52,-22],[16,-19],[33,-7],[33,-2],[24,-8],[4,-17]],[[4918,991],[-4,7],[-45,11],[20,65],[-39,27],[29,66],[-16,69],[-7,17],[-10,59],[3,51],[7,11],[38,-3],[11,7],[39,-2],[3,27],[41,-4],[45,4],[42,22],[50,98],[29,53],[22,33],[43,44]],[[5219,1653],[8,-18],[19,-1],[91,-38],[79,-13],[138,-16],[-9,44],[13,68],[15,31],[81,-35],[29,-24],[18,-9],[41,0],[55,8],[10,48],[9,5],[15,34],[41,19],[18,4],[49,-7],[20,-9],[30,0],[25,10],[19,18],[-3,9],[22,3],[13,9],[1,13],[31,9],[18,23],[34,-8],[19,11],[36,-5],[19,7],[-2,13],[15,-9],[26,10],[2,13],[20,-9],[6,-13],[6,13],[20,-10],[44,7],[-6,27],[13,1],[8,15],[26,16],[-1,11],[19,13],[11,-13],[5,14],[19,12],[-1,12],[44,-21],[1,-16],[11,-7],[21,12],[10,13],[24,6]],[[6564,1953],[10,8],[28,-2],[4,-13],[15,7],[4,-12],[35,-7],[4,-15]],[[6564,1953],[-12,6],[-7,24],[-18,-8],[-1,13],[-20,-2],[-2,20],[-14,-6],[-46,1],[-20,17],[-19,2],[-17,34],[-19,25],[-11,27],[-36,-4],[-80,11],[-23,-15],[-41,-7],[-41,8],[-10,-6],[-38,24],[-13,13],[20,19],[26,17],[-8,42],[17,23],[0,26],[-11,1],[-16,27],[-38,45],[-13,2],[-8,16],[-38,-4],[-5,8],[-19,-7],[-33,7],[-20,12],[-19,-10],[-125,29],[-27,-13],[-8,-12],[-14,8],[-10,-19],[-16,1],[-19,17],[-18,-13],[-25,8],[0,8],[-23,2],[-11,-19],[-26,-14],[-20,3],[-21,25],[-17,7],[-18,-8],[-15,11],[-32,-17],[-29,3],[-12,9],[-7,-8],[-15,11],[-18,-9],[-6,-27],[-16,-17],[-20,-7],[-10,6],[-11,-9],[-40,9],[-21,-5],[11,29]],[[5272,2343],[20,8],[11,40],[41,49],[46,51],[43,51],[47,-3],[10,-36],[16,-13],[34,-8],[14,-11],[18,3],[14,24],[20,-4],[18,-15],[31,4],[14,15],[32,8],[55,-22],[70,22],[36,-7],[35,15],[28,-5],[23,-17],[3,13],[25,3],[21,-12],[21,12],[12,-5],[13,11],[28,-1],[14,18],[14,-7],[13,7],[21,27],[14,-1],[1,41],[9,-4]],[[6157,2594],[8,-13],[24,-6],[0,-8],[33,4],[26,-25],[41,6],[16,-6],[10,-16],[24,3],[5,-10],[12,16],[24,-5],[17,5],[11,15],[28,17],[6,28],[26,8],[5,19],[32,-9],[16,1],[61,-11],[49,-41],[11,-14],[14,-1],[68,9],[24,-3],[34,46],[46,20],[1,18],[15,-15],[28,-13],[26,1],[-2,9],[23,0],[53,-9]],[[6972,2614],[5,-7],[35,9],[6,14],[33,-9],[45,1],[55,-22]],[[7151,2600],[-53,-221],[-1,-37]],[[5577,484],[-23,-6],[-31,10],[-44,-33],[-48,23],[-49,-1],[-5,-11],[-15,14],[-43,-5],[-5,12],[-21,4],[-27,-9],[-39,11],[7,6],[-7,25],[-17,14],[6,36],[-49,6],[9,20],[-31,3],[-4,18],[-15,-2],[-11,14],[-16,1],[-32,24],[-53,1],[-9,-6],[-10,-37],[-46,13],[-22,16],[-5,21],[-36,-15],[-28,3],[-39,-9],[-27,5],[-5,13],[-18,12],[-32,6],[-19,10],[-23,-3],[-36,-21],[-35,-14],[-87,-19],[-45,1],[-17,-14],[8,-34],[30,-56],[-14,-26],[-33,-15],[-10,-11],[9,-10],[2,-24],[-32,2],[-52,-9],[-22,-7],[-47,42],[-20,4],[-29,-13],[-55,8],[-15,-3],[-10,-22],[-27,7],[-55,32],[-27,42],[-53,-15],[-9,17],[-3,36],[-11,2],[-16,18],[0,21],[-24,6],[-10,-21],[-16,-1],[-13,-28],[-30,-1],[-21,-38],[-22,2],[-19,-6],[-28,10],[-37,-6],[-18,26],[-12,8],[-23,-3],[-49,10],[-20,22],[-12,-9],[-35,0],[-26,7],[-53,-3],[-16,-14],[-31,1],[-43,23],[-8,10],[-44,20],[-12,14],[-27,13],[-10,16],[-26,4],[-44,-12],[-30,-18]],[[3225,639],[20,26],[-15,34],[-37,23],[-17,36],[-44,29],[-4,25],[-15,32],[-12,14],[-4,31],[-22,24],[21,61],[14,34],[20,25],[28,6],[16,13],[32,14],[15,-1],[39,14],[34,7],[23,-8],[36,-23],[9,9],[26,-2],[21,21],[38,14],[27,-13],[22,12],[54,13],[48,-11],[55,23],[33,-13],[36,-42],[47,-32],[8,-22],[19,-8],[63,47],[35,6],[17,13],[23,34],[17,4],[10,14],[65,42],[-5,25],[-17,32],[-3,35],[-20,20],[-11,40],[-22,10],[-17,18],[-27,63],[-25,36],[-13,9],[-12,73]],[[3854,1525],[11,-2],[71,5],[36,11],[33,28],[12,25],[-4,17],[13,24],[33,15],[0,18],[54,42],[36,18],[83,14],[49,21],[24,-3],[70,9],[37,0],[127,13]],[[4539,1780],[52,-2],[62,8],[12,15],[75,-5],[18,21],[-4,33],[22,32],[35,-2]],[[4811,1880],[14,-16],[13,-39],[-21,-90],[2,-19],[21,-35],[24,0],[25,14],[5,22],[28,4],[29,-44],[27,25],[37,22],[28,12],[8,12],[87,-37],[43,-21],[20,-25],[18,-12]],[[4811,1880],[16,-1],[49,19],[11,0],[24,16],[5,35],[23,13],[1,34],[25,60],[36,19],[20,-6],[20,7],[-4,20],[10,14],[-6,22],[11,-5],[-12,23],[7,12],[24,-3],[14,9],[-4,33],[26,-2],[48,14],[21,10],[41,39],[-25,7],[3,30],[-6,24],[28,28],[11,5],[44,-13]],[[7151,2600],[42,2],[8,24],[25,-10],[27,4],[12,17],[6,-6],[38,-9],[34,-4],[17,6],[23,31],[27,15],[17,-3],[13,12],[2,-14],[33,-16]],[[7475,2649],[-8,-18],[6,-25],[17,-16]],[[6157,2594],[8,45],[87,3],[29,42],[12,69],[-19,4],[-1,25],[-16,48],[-27,21],[-28,8],[-39,2],[-19,5],[-19,21],[-35,6],[-81,-1],[-50,22]],[[5959,2914],[31,19],[37,35],[90,73],[73,56],[65,41],[20,15],[25,28],[13,23],[25,85],[12,64],[9,30],[26,38],[44,26],[17,35],[0,20],[-13,14],[-50,19],[-4,21]],[[6379,3556],[95,37],[18,-14],[40,14],[53,9],[-4,19],[54,19],[49,28]],[[6684,3668],[25,-19],[19,-5],[57,2],[62,-12],[76,-51],[-1,-15]],[[6922,3568],[-42,-85],[-29,-46],[0,-27],[24,-40],[51,-17],[63,-8]],[[6989,3345],[-3,-14],[24,-27],[0,-13],[14,-25],[3,-24],[-5,-22],[5,-23],[11,-17],[17,-11],[13,-25],[-1,-18],[-24,-54],[-2,-37],[1,-61],[-17,-84],[-8,-72],[-12,-55],[-3,-77],[-22,-57],[-8,-15]],[[6684,3668],[-9,18],[1,17],[29,54],[2,17],[-13,26],[-30,31]],[[6664,3831],[13,30],[30,57],[-12,22],[17,2],[93,39],[0,6],[35,9],[16,-7],[16,10],[13,-4],[24,34],[30,20],[52,15],[77,12],[46,5],[31,18],[52,4]],[[7197,4103],[24,-31],[23,-22],[27,-6],[16,9],[15,-1],[49,-45],[49,-32],[39,-8],[12,13],[30,-11],[26,5]],[[7507,3974],[-40,-34],[16,-19],[22,-9],[-22,-28],[27,-6],[40,-27],[35,-44],[-18,-18],[34,-40],[-18,-20],[-15,-84],[-4,0],[-47,-57],[-92,-49],[-31,-21],[-88,-4],[-73,13],[-95,28],[-19,1],[-9,-29],[-17,0],[-65,-8],[-22,-9],[-30,-3],[3,25],[-28,15],[-29,21]],[[6349,4356],[23,-42],[20,-21],[60,-52],[20,-22],[39,-33],[11,-16],[8,-29],[-1,-43],[17,-50],[3,-26],[-5,-37],[16,-95],[23,-31],[21,-12],[60,-16]],[[6379,3556],[4,16],[-17,14],[8,30],[-22,72],[-24,44],[-11,35],[-17,5],[-10,22],[-28,2],[-27,12],[-24,26],[-6,28],[45,10],[-5,30],[3,19],[-20,19],[4,44],[9,49],[-1,20],[-22,39],[-8,49],[-16,24],[-8,56],[15,9],[-13,45],[-10,23]],[[6989,3345],[30,-5],[26,-17],[26,-42],[18,-12],[34,-12],[30,0],[54,17],[25,3],[37,-3],[13,-8],[24,-29],[9,-20],[22,-88],[14,-24],[37,-49]],[[7388,3056],[83,-61],[42,-10],[47,-34],[7,-13],[7,-41],[15,-61],[27,-66],[0,-38],[-9,-23],[-27,-22],[-29,-10],[-43,-4],[-33,-24]],[[7507,3974],[49,-24],[18,-18],[35,-18],[40,17],[39,5],[77,-9],[79,6]],[[7844,3933],[-32,-16],[10,-31],[-10,-51],[-19,-17],[16,-31],[30,1],[15,-31],[17,-12],[-51,-62],[-2,-16],[15,-6],[-17,-35],[15,-7],[-17,-59],[-12,-19],[-23,10],[-16,-5],[-54,13],[4,-27],[-6,-19],[-48,-20],[9,-6],[-38,-33],[11,-49],[-8,-53],[-10,-37],[37,-30],[-13,-18],[22,-10],[-14,-31],[-8,-7],[15,-14],[-8,-19],[-23,10],[-40,1],[-65,-10],[-45,-13],[-72,-93],[-11,-4],[-10,-21]],[[7844,3933],[21,29],[11,1],[7,-24],[28,-12],[5,-21],[20,5],[13,-9],[18,10],[22,1],[9,-29],[35,-12],[32,18],[32,-17],[58,19]],[[8155,3892],[32,-52],[22,-20],[7,8],[15,-6],[23,8],[8,-9],[28,7],[27,-7],[17,13],[21,-1],[17,-10],[5,-19],[-7,-19],[27,-20],[14,-1],[10,-20],[-2,-14],[37,-26],[41,-11],[-1,-16],[-17,-19],[10,-15],[22,3],[12,-10],[10,-24]],[[8533,3612],[-64,-70],[-38,-44]],[[8431,3498],[-26,-42],[-13,-31],[-13,-54],[-23,-70],[-12,-42],[-3,-55],[18,-40],[-9,-24],[4,-95],[-25,-40],[21,-36]],[[6379,3556],[-7,12],[-30,2],[-13,13],[-49,6],[1,15],[-24,18],[-20,-9],[-22,4],[-7,-25],[-31,-9],[-22,2],[-9,18],[-8,-9],[-29,6],[-25,-10],[-9,-21],[-34,-3],[-182,-9]],[[5859,3557],[2,54],[-7,18],[-48,61],[-38,66],[-8,23],[-146,143],[17,17],[-9,16],[30,37],[36,23],[17,22],[-30,64],[12,4],[-20,44],[15,21],[13,5]],[[4463,3130],[101,45],[87,53],[18,6],[61,9],[78,26],[44,19],[57,51],[86,39],[43,16],[105,14],[32,11],[37,4],[37,10],[86,14],[33,8],[46,16],[86,18],[46,15],[49,11],[78,27],[48,21],[19,-5],[87,8],[32,-9]],[[5959,2914],[-50,-11],[-33,-17],[-32,-10],[-14,-12],[-57,-13],[-14,24],[-24,15],[-92,19],[-54,5],[-89,-9],[-20,-13],[-1,-18],[-16,-8],[3,-9],[-19,-7],[-55,2],[-31,-20],[-31,32],[-5,-10],[-22,0],[-5,-20],[-34,-6],[-13,-10],[-3,-17],[-22,-11],[-49,8],[-7,-16],[-19,10],[-26,2],[-13,12],[-31,11],[2,15],[-12,16],[-26,-18],[-23,-8],[-26,0],[-5,-8],[-69,-21],[-30,7],[3,-7],[-38,19],[-11,-12]],[[4846,2800],[-16,-1],[-18,-14],[-32,7],[-11,15],[-17,-9],[-18,18],[-23,-6],[-24,16],[-24,-7],[-6,15],[-8,-6],[-29,29],[-2,15],[-14,10]],[[7327,4659],[79,-113],[23,-34],[6,-18],[-8,-31],[-29,-78],[-15,-32],[-29,-44],[-15,-8],[-76,-11],[-47,-44],[23,-33],[7,-48],[-49,-62]],[[4467,7526],[8,7],[-11,19],[32,24],[15,2],[99,-6],[40,1],[32,9],[5,10],[-12,18],[-46,47],[-23,78],[7,24],[-12,16],[9,27],[-1,16],[7,34],[11,20],[-5,11],[10,44],[-2,23],[14,10],[-4,28],[44,19],[16,12],[16,28],[14,9],[28,-1],[26,8],[6,25],[-26,35],[-10,21],[8,6]],[[4762,8150],[118,-86],[23,-10],[41,-4],[42,7],[29,-1],[29,-15],[47,-41],[46,-2],[41,-17],[25,-5],[30,-15],[82,-38],[92,-39],[31,-31],[20,4],[25,-7],[40,-2],[9,15],[11,-3],[33,27],[-7,-42],[4,-4],[-6,-62],[16,7],[-16,-56],[-4,-46],[12,-8],[-11,-14],[-1,-20],[-56,-1],[-34,-46],[34,-15],[-13,-18],[7,-47],[-20,-52],[-8,-39],[-25,-41],[-45,-55],[10,-27],[-14,-21],[-21,-42],[-11,-13],[-55,-33],[-23,-46],[-31,-37],[6,-22],[-9,-70],[2,-23],[-9,-22]],[[5941,8087],[-6,-27],[-19,-41],[5,-29],[29,-31]],[[5950,7959],[-112,-25],[-47,-7],[-69,18],[-33,2],[-27,19],[-54,29],[-25,10],[-11,34],[-20,6],[-33,33],[-41,27],[-10,19],[-18,16],[-7,46],[-14,10],[-7,27],[-25,-3],[-9,-12],[-41,-30],[-23,40],[7,30],[30,56],[-9,25],[-64,15],[-39,37],[-5,15],[-27,24],[-2,12],[-26,38],[-41,21],[-5,13],[-21,4],[-1,9],[-39,32],[-23,25],[-71,115],[5,22],[-34,50],[2,18],[-13,25],[3,29],[-15,36]],[[4936,8869],[-15,54],[2,17],[30,23]],[[4953,8963],[10,-13],[26,-16],[28,-31],[28,-3],[20,-13],[20,-31],[29,-2],[16,-7],[29,4],[9,13],[-4,17],[34,10],[48,-10],[47,6],[31,-20],[20,14],[22,1],[5,-16],[23,1],[7,-31],[-11,-14],[44,-27],[44,-12],[27,5],[7,-7],[-2,-29],[9,-30],[14,-17],[17,-6],[8,-18],[13,3],[12,-12],[86,4],[3,-11],[44,-34],[-1,-30],[9,-20],[28,-6],[9,4],[22,-19],[12,-28],[11,-1],[15,-23],[-10,-20],[-18,-11],[11,-15],[2,-21],[-12,-1],[45,-83],[21,-27],[5,-44],[12,-30],[-44,-62],[-3,-45],[26,-19],[19,1],[66,-44]],[[3717,7882],[54,-1],[28,-4],[18,8],[32,-5],[35,15],[2,57],[-4,10],[9,25],[30,34],[2,16],[22,1],[8,20],[15,-9],[11,12],[5,-20],[12,-6],[28,9],[35,3],[12,-5],[9,12],[-8,14],[-16,7],[-6,45],[-15,8],[-11,59],[5,9],[49,-6],[10,6],[48,-3],[28,17],[-6,89],[14,67],[25,34],[16,40],[-17,1],[-12,19],[-22,14],[4,9],[-15,11],[-5,26],[12,4],[11,30],[32,17],[14,-5],[12,20],[-6,22],[-36,25],[-16,33],[-1,21],[-20,30],[30,19],[6,17],[19,4],[0,10],[23,19],[20,41],[13,2],[-4,13],[20,6],[2,11],[19,0],[25,44],[8,43],[8,15],[55,26],[17,-2],[21,11],[19,41],[-22,6],[-33,28],[-32,2],[-15,24],[6,49],[-1,40],[5,15],[-25,32],[-27,15],[6,13],[-6,24],[9,26],[9,55],[24,29],[-18,24],[-17,9],[2,18],[-10,17],[-21,20],[5,28],[8,11],[-29,171]],[[4267,9693],[15,19],[22,10],[16,25],[6,0],[8,27],[15,3],[21,25],[-2,27],[-10,15],[8,21],[22,15],[9,26],[28,17],[7,17],[44,24],[15,1],[3,12],[31,-8],[11,20],[28,2],[19,8],[24,-32],[10,-20],[10,-41],[35,-52],[5,-25],[17,-13],[46,-15],[32,-17],[51,-35],[17,-15],[0,-13],[-13,-19],[7,-40],[-3,-19],[10,-30],[1,-19],[13,-25],[6,-43],[8,-27],[24,-25],[26,-18],[8,-21],[0,-39],[38,-56],[2,-24],[21,-25],[3,-46],[11,-53]],[[4992,9192],[-8,-38],[-26,-12],[-8,-69],[3,-23],[-9,-63],[9,-24]],[[4936,8869],[-21,-25],[-60,-98],[-15,-32],[-3,-29],[15,-53],[-1,-16],[-14,-9],[-21,-28],[-48,-24],[-32,-39],[7,-32],[-14,-35],[12,-16],[11,-34],[22,-20],[-9,-19],[10,-28],[-28,-11],[-26,-28],[-10,-28],[5,-17],[-6,-16],[6,-34],[23,-32],[23,-16]],[[3548,7920],[-27,14],[-25,26],[-6,34],[8,31],[-13,19],[10,7],[9,35],[-7,18],[-16,1],[-14,14],[4,24],[-32,24],[-9,27],[-14,18],[12,7],[-15,20],[10,22],[-2,20],[-12,4],[-1,20],[16,24],[1,14],[-60,14],[-25,-1],[-27,13],[-5,11],[-48,19],[-67,-4],[-43,-19],[-20,1],[-21,-13],[-18,15],[6,21],[-2,25],[-10,11],[1,20],[-8,15],[4,17],[-10,7],[-6,40],[-24,26],[2,24],[-16,21],[-2,13],[-16,4],[-5,13],[-25,8],[-18,-18],[-46,9],[-14,32],[-34,11],[-45,-12],[-18,-10]],[[2805,8656],[-19,15],[-75,12],[-11,10],[-6,26],[2,34],[-4,14],[-22,34],[8,15],[43,30],[27,1],[41,-19],[12,5],[5,24],[30,20],[15,20],[24,-9],[19,5],[18,17],[14,57],[34,59],[10,37],[15,14],[37,-4],[44,-12],[23,-1],[33,13],[38,9],[47,-6],[33,-20],[43,0],[79,-48],[47,-19],[53,-1],[20,16],[34,10],[24,13],[40,0],[28,46],[-6,25],[-25,16],[-7,19],[-11,4],[-9,25],[16,-1],[7,17],[28,28],[-23,17],[-5,27],[9,16],[-1,15],[17,27],[-18,34],[1,29],[-26,3],[-45,18],[2,25],[14,10],[-4,18],[13,25],[-16,18],[-4,23],[25,28],[15,34],[21,15],[42,19],[20,13],[28,0],[26,10],[28,-8],[13,8],[48,10],[47,-1],[19,22],[41,15],[45,57],[12,6],[33,-32],[54,-30],[24,-26],[20,-15],[58,-13],[49,-8],[19,47],[37,21],[28,10]],[[5941,8087],[14,-6],[24,-24],[37,5],[19,15],[36,2],[21,7],[51,30],[12,31],[24,40],[4,46],[27,34],[3,14],[-2,63],[28,43]],[[6239,8387],[36,-1],[22,-24],[50,-21],[4,-26],[11,-23],[21,-5],[7,-20],[105,27],[28,0],[42,7],[11,-3],[11,-21],[-7,-8],[-10,-50],[19,-18],[-6,-26],[43,-11],[20,17],[25,-12],[17,18],[-8,28],[37,25],[49,-31],[57,10],[1,9],[20,16],[12,21],[10,-2],[12,15],[27,9],[19,-1],[28,37],[13,3],[8,45],[14,14],[30,6],[13,-2],[15,10],[2,17],[21,7],[-2,-18],[11,-27],[-9,-22],[-13,-5],[-14,-27],[2,-20],[-7,-18],[6,-11],[40,-10],[27,-20],[-8,-18],[18,-25],[12,-3],[24,11],[17,-1],[6,-27],[13,-21],[17,-57],[-6,-52],[2,-62],[10,-57],[4,-44],[-8,-27]],[[7210,7862],[-13,-4]],[[7197,7858],[-29,-10],[-78,-11],[-112,1],[-59,-4],[-38,-16],[-25,-3],[-48,9],[-15,-2],[-39,11],[-70,12],[-19,6]],[[6665,7851],[-51,-5],[-30,5],[-58,14],[-117,0],[-26,2],[-50,12],[-19,-11],[-27,32],[-28,24],[-33,7],[-27,15],[-49,8],[-34,12],[-46,7],[-76,-10],[-44,-4]],[[5439,6862],[15,38],[0,34],[11,15],[20,4],[17,17],[55,29],[45,10],[33,-2],[13,-11],[48,-10],[33,4],[-1,21],[8,6],[18,48],[18,13],[3,50],[6,35],[35,27],[22,6],[20,15],[11,26],[57,9],[-4,10],[12,13],[8,26],[18,15],[-2,12],[67,7]],[[6025,7329],[6,-8],[49,-24],[27,-18],[-4,-7],[45,-26],[39,-18],[20,-2],[19,9],[10,24],[30,-10],[59,-6],[37,15],[98,-11],[37,-1]],[[6497,7246],[84,-18],[57,-6],[12,-4],[30,21],[63,14],[24,22],[28,39],[59,21],[28,6],[33,-5]],[[6915,7336],[51,-15],[22,-36],[13,-42],[8,-63],[12,-23],[1,-19],[-38,-28],[0,-42],[-5,-8],[-80,-43],[-16,-21],[-9,-24],[-19,-31],[45,-37],[18,-10],[51,-36],[21,-6],[42,-2],[58,-14],[49,-38]],[[7139,6798],[5,-17],[17,-8],[-18,-70],[-3,-44],[-6,-21],[-35,-72],[17,-1],[-30,-164]],[[6665,7851],[-4,-84],[-7,-21],[39,-12],[63,-47],[-17,-62],[-72,-104],[-17,-35],[-13,-45],[-15,-26],[-49,-66],[-52,-51],[-21,-37],[-3,-15]],[[6025,7329],[-2,18],[5,61],[28,9],[9,12],[-3,37],[-8,1],[-5,67],[-12,24],[-4,23],[17,26],[30,15],[16,17],[1,23],[12,4],[-3,19],[14,-1],[3,14],[24,17],[-26,6],[-27,-3],[-20,-13],[-42,20],[-25,-17],[-30,-2],[-22,-9],[-15,11],[-4,41],[3,25],[-7,51],[6,84],[12,50]],[[7197,7858],[-15,-6],[-19,-28],[13,-23],[30,-22],[5,-10],[-7,-35],[-16,-53],[6,-21],[-20,-11],[-30,-1],[-17,-32],[-17,-46],[-57,-20],[-30,-28],[-15,-30],[-10,-60],[-21,-42],[-62,-54]],[[4992,9192],[29,6],[12,16],[16,37],[3,45],[5,11],[20,7],[20,17],[10,48],[10,22],[4,37],[-17,42],[-1,20],[22,43],[43,13],[9,-22],[35,-12],[2,-8],[29,-12],[-2,-23],[32,-21],[57,9],[0,42],[26,-1],[22,9],[6,-31],[10,-21],[2,-30],[11,-27],[-13,3],[18,-23],[-10,-2],[9,-33],[-15,-13],[11,-10],[-3,-31],[-11,-13],[6,-17],[21,-16],[-11,-16],[22,-26],[4,-16],[22,-14],[19,-26],[0,-34],[-19,-8],[8,-26],[-7,-7],[6,-56],[26,-25],[-3,-15],[24,-18],[9,0],[13,-22],[25,-3],[1,-23],[19,-10],[5,-25],[19,-5],[1,-14],[17,1],[17,-9],[7,10],[31,-9],[20,-40],[19,-11],[-8,-33],[10,0],[1,-25],[16,-1],[-1,-12],[14,-8],[0,-14],[17,12],[10,-13],[-11,-10],[10,-8],[9,-28],[16,-14],[6,-20],[10,-10],[24,-5],[10,-27],[28,-22],[-7,-2],[14,-20],[24,-1],[25,-16],[2,9],[29,-8],[7,-32],[42,-31],[15,7],[29,-25],[6,-21],[44,-16],[12,31],[17,-2],[10,9],[39,-5],[45,-32],[3,-22],[8,-4]],[[8520,7666],[-11,-32],[14,-2],[5,-22],[19,-3],[-15,-59],[3,-23],[21,-14],[8,-48],[-2,-19],[6,-39],[15,-16],[16,-40],[23,-3],[1,-24],[26,-35],[8,1],[13,-36],[8,-39],[19,-45],[24,-21],[-8,-54],[16,-29]],[[8729,7064],[-79,-4],[-48,16],[-9,28],[-35,18],[-9,15],[-23,4],[-11,29],[-35,14],[-22,-24],[-21,-3],[-1,-17],[17,-42],[-4,-14],[-52,4],[-11,-30],[-2,-21],[-17,3],[4,-20],[-6,-17]],[[8365,7003],[-109,15],[10,13],[-79,14],[-20,-18],[-12,-32],[-21,-1],[-7,-44],[-42,-3],[-60,9],[-25,0],[-2,-19],[-23,-1],[-11,23],[-18,-2],[-15,8],[-10,18]],[[7921,6983],[7,30],[-9,5],[13,20],[-8,2],[11,39],[-20,3],[-25,-5],[-10,11],[-23,-6],[-30,5],[-9,-8],[-9,11],[-25,3],[1,30],[-34,-5],[-22,2],[-4,16],[29,25],[-13,7],[-27,-23],[-50,5],[-11,35],[4,8]],[[7657,7193],[-8,19],[36,23],[-15,39],[19,21],[13,-10],[72,-17],[-4,31],[4,43],[-17,43],[20,10],[50,33],[6,31],[4,64],[26,0],[4,20],[27,-2],[3,13]],[[7897,7554],[38,-8],[6,-13],[32,14],[69,0],[32,2],[-16,-51],[19,1],[84,20],[28,16],[1,18],[42,20],[-1,7],[46,11],[6,20],[15,0],[5,28],[23,2],[-3,20],[26,5],[2,10],[123,-6],[46,-4]],[[8627,6441],[12,36],[19,38],[-22,16],[-25,30],[-13,4],[7,48],[6,9],[-39,28],[-33,6],[-9,25],[7,21],[-31,2],[-11,66],[-12,7],[-39,2],[-43,56],[0,35],[-8,34],[-5,41],[-9,25],[6,32],[-20,1]],[[8729,7064],[77,-133],[12,-25],[-6,-35],[4,-12],[45,-23],[80,-11],[44,-11],[73,11],[66,17],[52,17],[51,1],[33,7],[45,-25],[18,0],[38,-9],[32,-15],[16,12]],[[9409,6830],[-5,-24],[12,-29],[-9,-47],[-17,2],[-4,-53],[-31,-1],[-10,-21],[-21,-7],[-18,-15],[-17,3],[-48,-16],[-37,6],[-20,-23],[-22,0],[-53,-37],[-17,8],[-22,-7],[-28,15],[2,19],[-29,18],[-14,-60],[9,-45],[-57,-12],[0,-37],[-34,13],[-6,15],[-27,15],[-12,-6],[-27,9],[-9,-8],[-15,9],[-8,-8],[-26,-5],[-35,-23],[0,-9],[-65,-31]],[[7210,7862],[40,-6],[17,-10],[38,-5],[30,5],[19,16],[16,24],[43,1],[39,-22],[26,-1],[60,17],[8,17],[50,17],[13,11],[12,26],[2,20],[14,17],[17,5],[38,-7],[7,15],[-8,37],[-26,36]],[[7665,8075],[46,12],[47,-2],[21,-10],[25,26],[22,-18],[33,-10],[-6,-30],[33,-5],[25,-15],[-7,-59],[21,3],[1,-30],[-9,-26],[-8,-1],[-3,-51],[-36,-23],[-12,3],[-25,-30],[-7,-51],[-11,-16],[-10,-53],[19,5],[49,-14],[75,-2],[2,-17],[52,9],[0,-41],[-16,0],[-4,-25],[-63,-10],[-20,-9],[-21,5],[-6,-25],[25,-11]],[[7657,7193],[-30,1],[-51,-22],[-13,-2],[-29,-35],[-46,-19],[-40,0],[-18,6],[-32,35],[-12,0],[-15,-77],[-24,-87],[1,-69],[51,-2],[1,-11],[38,-12],[-2,-8],[-25,-7],[-28,-1],[12,-39],[-2,-45],[-30,6],[-18,-20],[-44,13],[-5,-20],[-99,16],[-30,8],[-28,-4]],[[7747,6452],[16,46],[21,1],[16,13],[13,49],[12,0],[1,23],[12,34],[-39,6],[7,86],[-21,-8],[-3,15],[13,48],[-43,7],[-3,18],[-33,-19],[-20,-1],[-1,45],[13,2],[28,17],[13,17],[81,38],[49,40],[-8,20],[10,41],[40,-7]],[[9409,6830],[-4,20],[50,-2],[27,-4],[24,19],[9,-6],[37,-3],[28,5],[3,21],[14,11],[-8,25],[10,7],[16,-6],[16,-28],[16,-10],[15,9],[25,1],[-4,-26],[-17,-40],[10,-10],[-15,-8],[-1,-68],[-8,-1],[-3,-44],[28,-14],[-1,-13],[-21,-43],[5,-30],[-10,-34],[10,-67],[-7,-44],[-30,-46],[1,-6],[32,0],[-1,-19],[-10,-66],[46,-10],[34,1],[14,13],[45,-13],[0,-51],[13,-31],[54,-66],[27,-22]],[[7665,8075],[-29,29],[19,26],[27,12],[37,10],[24,48],[25,7],[49,-10],[50,36],[15,-2],[3,-63],[34,-23],[27,-9],[32,9],[29,14],[13,-12],[24,5],[0,47],[17,23],[-1,39],[23,19],[37,59],[17,-26],[15,-34],[34,21],[17,-24],[11,1],[27,-46],[57,11],[37,-65],[-31,-22],[57,-30],[53,-15],[48,37],[34,-64],[9,3],[35,-29],[-18,1],[-32,-15],[2,-11],[-64,-17],[17,-16],[24,0],[11,-17],[-20,-12],[-1,-13],[-35,-10],[63,-61],[6,-10],[-14,-22],[-18,-43],[4,-29],[-2,-51],[6,-23],[19,-19],[18,-8],[14,-15]],[[7864,4715],[-12,-13],[-2,-22],[16,-6],[28,4],[36,-25],[10,1],[1,-24],[9,-17],[-10,-58],[22,-33],[17,-3],[22,-19],[64,-1],[52,-9],[32,2],[147,-5],[123,-41],[70,-11]],[[8489,4435],[-14,-17],[-11,-31],[3,-27],[9,-23],[18,-22],[2,-21],[-7,-25],[-42,-44],[-24,-10],[-49,-2],[-61,15],[-44,-1],[8,-35],[-24,-20],[11,-80],[-46,-50],[-34,-43],[-20,-19],[-9,-88]],[[9498,4747],[23,-25],[20,-58],[19,-44]],[[9560,4620],[-18,-25],[-22,1],[-61,-15],[-57,20]],[[9402,4601],[-152,-6],[-53,2],[-41,-5],[-29,-10],[-76,-43],[-70,-21],[-351,-71],[-70,-9],[-71,-3]],[[9402,4601],[-8,-49],[-60,-36],[-78,-68],[-86,-99],[-75,-73],[-121,-123],[-37,-48]],[[8937,4105],[-21,-36],[-8,-38],[2,-68],[-15,-18],[-24,-11],[-14,-28],[-28,-46],[3,-48],[-7,-21],[-39,-9],[-45,2],[-24,-39],[-19,-23],[-50,-36],[-31,-16],[-65,-42],[-19,-16]],[[4539,1780],[7,19],[1,48],[15,16],[6,36],[14,28],[11,6],[8,21],[-24,24],[35,37],[4,28],[12,18],[26,11],[-3,15],[-31,23],[-22,8],[-10,17],[-23,10],[-20,-10],[-39,3],[8,22],[37,-1],[-8,23],[-16,3],[-1,37],[7,10],[2,44],[-13,24],[21,6],[3,22],[14,18],[-12,16],[-1,29],[16,16],[21,3],[24,28],[29,4],[15,35],[-13,10],[-2,17],[-14,29],[19,-2],[14,20],[25,7],[25,-17],[12,1],[28,-12],[14,15],[-1,11],[20,11],[6,19],[-15,25],[-21,17],[7,14],[-12,17],[33,18],[3,10],[21,2],[21,-13],[17,3],[21,16],[1,19],[-9,12],[-4,26],[8,24],[-10,24]],[[3854,1525],[-9,38],[3,15],[-8,34],[-16,19],[4,24],[-28,18],[9,29],[-5,22],[6,13],[-5,30],[-12,10],[-11,25],[5,26],[-17,25],[9,29],[-23,26],[-16,34],[0,26],[-48,8],[-8,8]],[[3225,639],[-50,-25],[-32,-27],[-47,-31],[-11,-20],[-42,-4],[-20,12],[-21,31],[21,37],[-15,19],[-27,18],[-30,34],[-10,0],[-7,-19],[15,-54],[-1,-15],[-16,-13],[-25,7],[-28,15],[-21,-5],[-7,-24],[5,-52],[10,-19],[-2,-16],[-13,-21],[-25,-11],[-29,1],[-13,9],[-11,30],[-11,5],[-43,6],[-16,-18],[4,-28],[-22,-10],[-19,20],[-11,1],[-11,-31],[28,-13],[-1,-38],[5,-30],[-22,-16],[-10,7],[-6,21],[-24,26],[-42,6],[-26,47],[-18,8],[-27,-1],[-6,8],[1,27],[-8,27],[-15,17],[-30,2],[-2,-46],[-29,10],[-7,13],[-32,23],[-20,25],[-15,9],[-57,16],[-61,34],[-26,11],[-23,20],[-13,19],[-44,18],[-15,14],[-8,25],[-18,17],[-45,26],[-15,64],[-12,9],[-19,-2],[-1,-65],[-10,-8],[-24,13],[-33,9],[0,8],[28,13],[11,16],[-10,14],[-40,-2],[-23,40],[-15,-1],[-16,-13],[-22,-36],[3,-58],[-17,-7],[-8,18],[-29,14],[-21,35],[-31,20],[-14,-26],[19,-3],[11,-20],[-11,-23],[-25,-1],[2,-28],[-8,-29],[-38,-17],[-14,-15],[-10,1],[-35,24],[-14,20],[-42,10],[-13,25],[-18,5],[-5,-12],[16,-32],[1,-42],[-21,0],[-76,-25],[4,-12],[-25,2],[-21,-14],[-27,-30],[-32,-2],[10,-32],[-11,-23],[-28,-14],[-12,-25],[-33,-20],[-18,3],[-25,-9],[-16,-14],[-22,2],[-16,17],[-50,14],[-1,25],[-16,5],[-25,-16],[-55,-57],[-51,-43],[-67,-34],[-26,-29],[-7,-23],[-51,-19],[-14,-26],[-17,-12],[-6,-18],[-13,-6],[-26,9],[-26,22],[-29,-10],[4,46],[18,26],[-5,23],[4,19],[-22,25],[-2,39],[8,26],[-13,38],[8,43],[32,25],[34,51],[27,19],[2,30],[10,23],[-3,13],[-29,36],[-32,20],[-14,74],[-20,10],[-12,19],[-48,2],[-8,18],[-37,5],[-12,12],[-4,18],[7,32],[-10,23],[6,23],[32,3],[23,23],[14,47],[37,16],[8,14],[3,36],[17,23],[-6,15],[6,31],[-14,15],[9,32],[-14,24],[4,29],[-9,30],[-18,12],[-5,43],[-15,19],[9,58],[-2,16],[6,52],[-2,29],[7,16],[1,30],[19,26],[8,39],[-3,70],[17,23],[36,13],[53,25],[29,0],[11,8],[38,8],[26,51],[16,16],[18,6],[26,28],[2,10],[-13,23],[11,46],[28,49],[-1,12],[-18,9],[-11,18],[-1,23],[-46,16],[-9,32]],[[9560,4620],[19,-7],[-1,-12],[18,-15],[0,-41],[14,-6],[6,-15],[19,1],[16,-8],[16,6],[16,-37],[-16,-77],[24,-6],[9,-17],[27,-33],[4,14],[17,-34],[-4,-41],[-15,-49],[-1,-57],[21,-9],[55,-55],[8,-34],[29,-57],[4,-22],[-21,-48],[-1,-26],[-19,-37],[2,-66],[-13,-32],[-43,-31],[4,-34],[49,-72],[5,-12]],[[9808,3651],[-42,-23],[3,-27],[-10,-13],[-7,-30],[3,-17],[-25,-10],[-4,5],[-38,8],[-27,18],[-25,-8],[-2,-10],[-19,1],[-12,16],[-26,19],[-9,15],[0,21],[-55,43],[-32,35],[-43,-16],[-28,-21],[-9,8],[-50,20],[-23,19],[-14,-14],[-45,-17],[-30,27],[-59,61],[-100,65],[-14,12],[-37,51],[-73,56],[11,69],[12,33],[-20,20],[-22,38]],[[9808,3651],[18,-46],[29,-68],[45,-79],[60,-53],[39,-41],[-3,-28],[-20,-16],[5,-19],[-13,0],[-25,-18],[5,-13],[-35,-39],[-42,1],[-88,-49],[-25,-35],[8,-53],[9,-30],[2,-31],[-25,-123],[-26,-41],[-7,-23],[-17,-8],[-6,-20]],[[9696,2819],[-32,7],[0,11],[-44,5],[-4,8],[-36,4],[-23,22],[-19,-2],[0,13],[-14,6],[-11,19],[-11,-3],[-9,19],[-33,22],[9,37],[-24,-5],[-34,12],[4,17],[-32,6],[-18,14],[-16,-4],[-11,30],[10,29],[-20,4],[-23,14],[-27,39],[-23,-8],[-10,10],[-23,-4],[-7,11],[-23,10],[-21,18]],[[9171,3180],[7,13],[35,26],[-5,37],[-15,13],[-29,-4],[-17,30],[14,25],[-2,21],[-43,24],[-5,33],[-12,24],[1,25],[20,22],[-28,25],[-30,-9],[-38,-25],[-33,-2],[-35,-18],[-8,1],[-34,-22],[19,-28],[-13,-10],[-57,-10],[-51,-28],[-36,13],[-14,38],[-28,2],[-39,25],[-31,-9],[-32,-17],[-44,-5],[-17,12],[-12,-2],[-36,9],[-38,17],[-40,10],[-14,62]],[[8722,2643],[6,9],[24,6],[-12,24],[-15,9],[5,17],[27,37],[-16,4],[20,54],[46,20],[21,23],[28,10],[19,17],[3,19],[-22,14],[3,24],[17,25],[26,51],[-9,16],[22,24],[26,5],[40,32],[13,-9],[45,-54],[30,38],[-1,13],[43,30],[29,16],[25,9],[19,-7],[17,4],[-15,18],[-1,22],[-14,17]],[[9696,2819],[9,-1],[-1,-36],[-18,2],[-2,-10],[-33,-16],[-13,-26],[-36,-8],[-14,-33],[-13,4],[-16,-27],[-39,-33],[-9,-1],[2,-52],[7,-1],[-12,-44],[-17,6],[-2,-17],[-49,4],[-5,-19],[-15,3],[5,-31],[-20,-2],[-15,10]],[[140,5367],[-4,16],[6,29],[18,13],[10,25],[25,28],[24,12],[15,31],[55,34],[37,-1],[14,19],[18,2],[15,11],[4,21],[62,42],[10,23],[14,13],[2,31],[38,32],[24,5],[10,18],[31,28],[17,0],[39,15],[5,8],[28,-2],[34,28],[17,6],[27,0],[6,16],[32,9],[9,-16],[19,-11],[13,14],[-8,21],[21,15],[22,-13],[22,-1],[7,38],[7,3],[11,-22],[27,-11],[4,14],[13,6],[23,-16],[43,9],[8,-10],[-20,-3],[6,-18],[21,-15],[19,14],[-9,22],[4,10],[14,-4],[8,11],[-4,23],[16,-5],[14,16],[-25,15],[6,11],[39,5],[-10,17],[5,9],[46,6],[4,38],[9,4],[15,-11],[12,12],[1,36],[19,24],[12,-3],[18,-17],[45,10],[9,21],[13,11],[32,-36],[8,2],[11,46],[33,-9],[26,32],[13,-6],[0,-27],[7,-11],[19,9],[41,32],[12,25],[23,14],[-3,12],[-29,-1],[-18,-13],[-10,3],[3,35],[30,71],[29,19],[19,20],[25,-2],[20,19],[-17,31],[17,14],[32,-8],[41,-2],[23,-9],[11,9],[-27,24],[10,38],[14,13],[20,-12],[29,-6],[21,-33],[1,-16],[14,-11],[36,11],[46,-13],[36,-5],[14,-8],[59,-18],[17,34],[18,16],[73,15],[4,-9],[36,-4],[15,-10],[40,20],[-16,36],[31,15],[0,24],[11,34],[21,4],[25,32],[-1,19],[-24,12],[-6,11],[6,13],[22,15],[5,18],[12,9],[23,3],[23,22],[-3,8],[25,54],[-6,25],[-13,26],[13,23],[0,16],[-13,5],[0,20],[10,14],[-16,16],[3,10],[-42,46],[13,32],[24,10],[-25,17],[6,20],[14,13],[4,17],[14,10],[-22,22],[-19,38],[-28,26],[-13,3],[-7,22],[4,37],[-27,-1],[8,40],[-19,4],[-6,12],[17,37],[-18,26],[11,19],[9,38],[-23,34],[-4,13],[26,8],[22,-7],[-2,10],[15,16],[-14,11],[19,7],[-2,30],[-12,3],[7,25],[-8,34],[23,11],[-19,46],[15,14],[30,4],[34,17],[17,-6],[20,15],[27,4],[4,16],[16,-2],[16,23],[18,-1],[38,-24],[12,5],[6,33],[-3,17],[22,16],[4,15],[-17,20],[-23,37],[5,11],[27,2],[30,9],[47,35],[-3,26],[6,14],[26,17],[-6,37],[-17,21],[-3,27],[8,21],[36,41],[9,36],[31,17],[14,0],[26,21],[5,11],[-2,34],[13,12],[-8,11],[13,9],[-11,24],[20,10],[6,42],[26,24],[9,25],[-8,28],[7,41],[14,21],[-11,43],[1,15],[16,25],[9,55],[1,42]],[[3414,7373],[-64,17],[-19,15],[-22,27],[-15,7],[-14,-39],[-39,-72],[-79,58],[-10,-12],[33,-30],[15,-20],[-3,-14],[-22,-19],[-15,-27],[-7,-47],[-33,-52],[-55,-16],[-3,-29],[-11,-27],[-20,-26],[-1,-32],[11,-70],[-2,-17],[-24,-36],[0,-78],[-23,-30],[-22,-18],[-53,-13],[-54,-25],[-42,-1],[-80,4],[-9,-4],[-12,-25],[18,-66],[30,-58],[33,-27],[26,-36],[20,-7],[11,-23],[29,-14],[54,-16],[4,-16],[37,-15],[35,-19]],[[3855,7421],[-9,-94],[13,-6],[-20,-26],[12,-17],[-16,-31],[20,-16],[32,-1],[23,-16],[-2,-8],[25,-13],[-5,-10],[29,-9],[22,-16],[-7,-18],[-25,-36],[-22,-10],[-23,11],[-5,-15],[-14,-2],[-23,-17],[-10,8],[-29,7],[-50,-18],[-18,-39],[-34,-23],[-31,-50],[17,-25],[-31,24],[-14,-8],[-6,-26],[17,-17],[-12,-1],[-19,-22],[-6,-20],[13,-30],[-5,-45],[15,-4],[-17,-27],[14,-37],[-14,-28],[15,-15],[12,-35],[22,10],[50,7],[24,21],[40,16],[68,-137],[11,-29]]],"transform":{"scale":[0.00010308280488049171,0.00010552338483848367],"translate":[99.01636534700003,15.85530675900003]},"objects":{"Kamphaeng Phet":{"type":"GeometryCollection","geometries":[{"arcs":[[0,1,2,3,4]],"type":"Polygon","properties":{"Shape_Leng":0.214448124137,"Shape_Area":0.0014710781436,"ADM3_EN":"Nai Mueang","ADM3_TH":"ในเมือง","ADM3_PCODE":"TH620101","ADM2_EN":"Mueang Kamphaeng Phet","ADM2_TH":"เมืองกำแพงเพชร","ADM2_PCODE":"TH6201","ADM1_EN":"Kamphaeng Phet","ADM1_TH":"กำแพงเพชร","ADM1_PCODE":"TH62","ADM0_EN":"Thailand","ADM0_TH":"ประเทศไทย","ADM0_PCODE":"TH"}},{"arcs":[[5,6,7,8]],"type":"Polygon","properties":{"Shape_Leng":0.447728594594,"Shape_Area":0.00726720539029,"ADM3_EN":"Trai Trueng","ADM3_TH":"ไตรตรึงษ์","ADM3_PCODE":"TH620102","ADM2_EN":"Mueang Kamphaeng Phet","ADM2_TH":"เมืองกำแพงเพชร","ADM2_PCODE":"TH6201","ADM1_EN":"Kamphaeng Phet","ADM1_TH":"กำแพงเพชร","ADM1_PCODE":"TH62","ADM0_EN":"Thailand","ADM0_TH":"ประเทศไทย","ADM0_PCODE":"TH"}},{"arcs":[[-7,9,10,11,12,13,14,15,16,17]],"type":"Polygon","properties":{"Shape_Leng":1.03495409269,"Shape_Area":0.017610338414,"ADM3_EN":"Ang Thong","ADM3_TH":"อ่างทอง","ADM3_PCODE":"TH620103","ADM2_EN":"Mueang Kamphaeng Phet","ADM2_TH":"เมืองกำแพงเพชร","ADM2_PCODE":"TH6201","ADM1_EN":"Kamphaeng Phet","ADM1_TH":"กำแพงเพชร","ADM1_PCODE":"TH62","ADM0_EN":"Thailand","ADM0_TH":"ประเทศไทย","ADM0_PCODE":"TH"}},{"arcs":[[18,19,20,21,22,23,24]],"type":"Polygon","properties":{"Shape_Leng":0.805940083608,"Shape_Area":0.0152751930301,"ADM3_EN":"Na Bo Kham","ADM3_TH":"นาบ่อคำ","ADM3_PCODE":"TH620104","ADM2_EN":"Mueang Kamphaeng Phet","ADM2_TH":"เมืองกำแพงเพชร","ADM2_PCODE":"TH6201","ADM1_EN":"Kamphaeng Phet","ADM1_TH":"กำแพงเพชร","ADM1_PCODE":"TH62","ADM0_EN":"Thailand","ADM0_TH":"ประเทศไทย","ADM0_PCODE":"TH"}},{"arcs":[[-3,25,-17,26,27,-19,28]],"type":"Polygon","properties":{"Shape_Leng":0.532053386053,"Shape_Area":0.00547373469082,"ADM3_EN":"Nakhon Chum","ADM3_TH":"นครชุม","ADM3_PCODE":"TH620105","ADM2_EN":"Mueang Kamphaeng Phet","ADM2_TH":"เมืองกำแพงเพชร","ADM2_PCODE":"TH6201","ADM1_EN":"Kamphaeng Phet","ADM1_TH":"กำแพงเพชร","ADM1_PCODE":"TH62","ADM0_EN":"Thailand","ADM0_TH":"ประเทศไทย","ADM0_PCODE":"TH"}},{"arcs":[[-4,-29,-25,29,30,31]],"type":"Polygon","properties":{"Shape_Leng":0.486208929517,"Shape_Area":0.0065935142753,"ADM3_EN":"Songtham","ADM3_TH":"ทรงธรรม","ADM3_PCODE":"TH620106","ADM2_EN":"Mueang Kamphaeng Phet","ADM2_TH":"เมืองกำแพงเพชร","ADM2_PCODE":"TH6201","ADM1_EN":"Kamphaeng Phet","ADM1_TH":"กำแพงเพชร","ADM1_PCODE":"TH62","ADM0_EN":"Thailand","ADM0_TH":"ประเทศไทย","ADM0_PCODE":"TH"}},{"arcs":[[32,33,34,35,36,37,38]],"type":"Polygon","properties":{"Shape_Leng":0.548327381798,"Shape_Area":0.00617220262585,"ADM3_EN":"Lan Dokmai","ADM3_TH":"ลานดอกไม้","ADM3_PCODE":"TH620107","ADM2_EN":"Mueang Kamphaeng Phet","ADM2_TH":"เมืองกำแพงเพชร","ADM2_PCODE":"TH6201","ADM1_EN":"Kamphaeng Phet","ADM1_TH":"กำแพงเพชร","ADM1_PCODE":"TH62","ADM0_EN":"Thailand","ADM0_TH":"ประเทศไทย","ADM0_PCODE":"TH"}},{"arcs":[[-5,-32,-35,39,40,41,42]],"type":"Polygon","properties":{"Shape_Leng":0.523000047708,"Shape_Area":0.00769037876752,"ADM3_EN":"Nong Pling","ADM3_TH":"หนองปลิง","ADM3_PCODE":"TH620110","ADM2_EN":"Mueang Kamphaeng Phet","ADM2_TH":"เมืองกำแพงเพชร","ADM2_PCODE":"TH6201","ADM1_EN":"Kamphaeng Phet","ADM1_TH":"กำแพงเพชร","ADM1_PCODE":"TH62","ADM0_EN":"Thailand","ADM0_TH":"ประเทศไทย","ADM0_PCODE":"TH"}},{"arcs":[[43,44,45,46,47]],"type":"Polygon","properties":{"Shape_Leng":0.426659510476,"Shape_Area":0.00714981920322,"ADM3_EN":"Khonthi","ADM3_TH":"คณฑี","ADM3_PCODE":"TH620111","ADM2_EN":"Mueang Kamphaeng Phet","ADM2_TH":"เมืองกำแพงเพชร","ADM2_PCODE":"TH6201","ADM1_EN":"Kamphaeng Phet","ADM1_TH":"กำแพงเพชร","ADM1_PCODE":"TH62","ADM0_EN":"Thailand","ADM0_TH":"ประเทศไทย","ADM0_PCODE":"TH"}},{"arcs":[[48,49,50,51,52]],"type":"Polygon","properties":{"Shape_Leng":0.380718839074,"Shape_Area":0.00595725000322,"ADM3_EN":"Nikhom Thung Pho Thale","ADM3_TH":"นิคมทุ่งโพธิ์ทะเ","ADM3_PCODE":"TH620112","ADM2_EN":"Mueang Kamphaeng Phet","ADM2_TH":"เมืองกำแพงเพชร","ADM2_PCODE":"TH6201","ADM1_EN":"Kamphaeng Phet","ADM1_TH":"กำแพงเพชร","ADM1_PCODE":"TH62","ADM0_EN":"Thailand","ADM0_TH":"ประเทศไทย","ADM0_PCODE":"TH"}},{"arcs":[[-2,53,-51,54,-47,55,-8,-18,-26]],"type":"Polygon","properties":{"Shape_Leng":0.588740863596,"Shape_Area":0.0148402710853,"ADM3_EN":"Thep Nakhon","ADM3_TH":"เทพนคร","ADM3_PCODE":"TH620113","ADM2_EN":"Mueang Kamphaeng Phet","ADM2_TH":"เมืองกำแพงเพชร","ADM2_PCODE":"TH6201","ADM1_EN":"Kamphaeng Phet","ADM1_TH":"กำแพงเพชร","ADM1_PCODE":"TH62","ADM0_EN":"Thailand","ADM0_TH":"ประเทศไทย","ADM0_PCODE":"TH"}},{"arcs":[[-15,56,57,58]],"type":"Polygon","properties":{"Shape_Leng":0.52259135473,"Shape_Area":0.00562304226129,"ADM3_EN":"Wang Thong","ADM3_TH":"วังทอง","ADM3_PCODE":"TH620114","ADM2_EN":"Mueang Kamphaeng Phet","ADM2_TH":"เมืองกำแพงเพชร","ADM2_PCODE":"TH6201","ADM1_EN":"Kamphaeng Phet","ADM1_TH":"กำแพงเพชร","ADM1_PCODE":"TH62","ADM0_EN":"Thailand","ADM0_TH":"ประเทศไทย","ADM0_PCODE":"TH"}},{"arcs":[[-20,-28,59]],"type":"Polygon","properties":{"Shape_Leng":0.280242967676,"Shape_Area":0.00366417851898,"ADM3_EN":"Tha Khun Ram","ADM3_TH":"ท่าขุนราม","ADM3_PCODE":"TH620115","ADM2_EN":"Mueang Kamphaeng Phet","ADM2_TH":"เมืองกำแพงเพชร","ADM2_PCODE":"TH6201","ADM1_EN":"Kamphaeng Phet","ADM1_TH":"กำแพงเพชร","ADM1_PCODE":"TH62","ADM0_EN":"Thailand","ADM0_TH":"ประเทศไทย","ADM0_PCODE":"TH"}},{"arcs":[[-16,-59,60,-21,-60,-27]],"type":"Polygon","properties":{"Shape_Leng":0.542743441642,"Shape_Area":0.0063533406125,"ADM3_EN":"Khlong Mae Lai","ADM3_TH":"คลองแม่ลาย","ADM3_PCODE":"TH620117","ADM2_EN":"Mueang Kamphaeng Phet","ADM2_TH":"เมืองกำแพงเพชร","ADM2_PCODE":"TH6201","ADM1_EN":"Kamphaeng Phet","ADM1_TH":"กำแพงเพชร","ADM1_PCODE":"TH62","ADM0_EN":"Thailand","ADM0_TH":"ประเทศไทย","ADM0_PCODE":"TH"}},{"arcs":[[-9,-56,-46,61,62,63]],"type":"Polygon","properties":{"Shape_Leng":0.258886467428,"Shape_Area":0.00382462840127,"ADM3_EN":"Thammarong","ADM3_TH":"ธำมรงค์","ADM3_PCODE":"TH620118","ADM2_EN":"Mueang Kamphaeng Phet","ADM2_TH":"เมืองกำแพงเพชร","ADM2_PCODE":"TH6201","ADM1_EN":"Kamphaeng Phet","ADM1_TH":"กำแพงเพชร","ADM1_PCODE":"TH62","ADM0_EN":"Thailand","ADM0_TH":"ประเทศไทย","ADM0_PCODE":"TH"}},{"arcs":[[-1,-43,64,-52,-54]],"type":"Polygon","properties":{"Shape_Leng":0.450339275349,"Shape_Area":0.00954895189952,"ADM3_EN":"Sa Kaeo","ADM3_TH":"สระแก้ว","ADM3_PCODE":"TH620119","ADM2_EN":"Mueang Kamphaeng Phet","ADM2_TH":"เมืองกำแพงเพชร","ADM2_PCODE":"TH6201","ADM1_EN":"Kamphaeng Phet","ADM1_TH":"กำแพงเพชร","ADM1_PCODE":"TH62","ADM0_EN":"Thailand","ADM0_TH":"ประเทศไทย","ADM0_PCODE":"TH"}},{"arcs":[[65,66,67,68,69,70]],"type":"Polygon","properties":{"Shape_Leng":0.415678775172,"Shape_Area":0.00579328684183,"ADM3_EN":"Sai Ngam","ADM3_TH":"ไทรงาม","ADM3_PCODE":"TH620201","ADM2_EN":"Sai Ngam","ADM2_TH":"ไทรงาม","ADM2_PCODE":"TH6202","ADM1_EN":"Kamphaeng Phet","ADM1_TH":"กำแพงเพชร","ADM1_PCODE":"TH62","ADM0_EN":"Thailand","ADM0_TH":"ประเทศไทย","ADM0_PCODE":"TH"}},{"arcs":[[-69,71,72,73,74]],"type":"Polygon","properties":{"Shape_Leng":0.400333097763,"Shape_Area":0.00727887009447,"ADM3_EN":"Nong Khla","ADM3_TH":"หนองคล้า","ADM3_PCODE":"TH620202","ADM2_EN":"Sai Ngam","ADM2_TH":"ไทรงาม","ADM2_PCODE":"TH6202","ADM1_EN":"Kamphaeng Phet","ADM1_TH":"กำแพงเพชร","ADM1_PCODE":"TH62","ADM0_EN":"Thailand","ADM0_TH":"ประเทศไทย","ADM0_PCODE":"TH"}},{"arcs":[[-48,-55,-50,75,-74,76]],"type":"Polygon","properties":{"Shape_Leng":0.392883343334,"Shape_Area":0.00704400015048,"ADM3_EN":"Nong Thong","ADM3_TH":"หนองทอง","ADM3_PCODE":"TH620203","ADM2_EN":"Sai Ngam","ADM2_TH":"ไทรงาม","ADM2_PCODE":"TH6202","ADM1_EN":"Kamphaeng Phet","ADM1_TH":"กำแพงเพชร","ADM1_PCODE":"TH62","ADM0_EN":"Thailand","ADM0_TH":"ประเทศไทย","ADM0_PCODE":"TH"}},{"arcs":[[-67,77,78,79,80]],"type":"Polygon","properties":{"Shape_Leng":0.45457514774,"Shape_Area":0.00681589095398,"ADM3_EN":"Nong Mai Kong","ADM3_TH":"หนองไม้กอง","ADM3_PCODE":"TH620204","ADM2_EN":"Sai Ngam","ADM2_TH":"ไทรงาม","ADM2_PCODE":"TH6202","ADM1_EN":"Kamphaeng Phet","ADM1_TH":"กำแพงเพชร","ADM1_PCODE":"TH62","ADM0_EN":"Thailand","ADM0_TH":"ประเทศไทย","ADM0_PCODE":"TH"}},{"arcs":[[-49,81,82,-70,-75,-76]],"type":"Polygon","properties":{"Shape_Leng":0.399437431979,"Shape_Area":0.00579020220746,"ADM3_EN":"Mahachai","ADM3_TH":"มหาชัย","ADM3_PCODE":"TH620205","ADM2_EN":"Sai Ngam","ADM2_TH":"ไทรงาม","ADM2_PCODE":"TH6202","ADM1_EN":"Kamphaeng Phet","ADM1_TH":"กำแพงเพชร","ADM1_PCODE":"TH62","ADM0_EN":"Thailand","ADM0_TH":"ประเทศไทย","ADM0_PCODE":"TH"}},{"arcs":[[-44,-77,-73,83,84,85]],"type":"Polygon","properties":{"Shape_Leng":0.450564112798,"Shape_Area":0.00673856503095,"ADM3_EN":"Phan Thong","ADM3_TH":"พานทอง","ADM3_PCODE":"TH620206","ADM2_EN":"Sai Ngam","ADM2_TH":"ไทรงาม","ADM2_PCODE":"TH6202","ADM1_EN":"Kamphaeng Phet","ADM1_TH":"กำแพงเพชร","ADM1_PCODE":"TH62","ADM0_EN":"Thailand","ADM0_TH":"ประเทศไทย","ADM0_PCODE":"TH"}},{"arcs":[[-68,-81,86,87,-84,-72]],"type":"Polygon","properties":{"Shape_Leng":0.404486138249,"Shape_Area":0.00628657454294,"ADM3_EN":"Nong Mae Taeng","ADM3_TH":"หนองแม่แตง","ADM3_PCODE":"TH620207","ADM2_EN":"Sai Ngam","ADM2_TH":"ไทรงาม","ADM2_PCODE":"TH6202","ADM1_EN":"Kamphaeng Phet","ADM1_TH":"กำแพงเพชร","ADM1_PCODE":"TH62","ADM0_EN":"Thailand","ADM0_TH":"ประเทศไทย","ADM0_PCODE":"TH"}},{"arcs":[[-14,88,89,90,91,92,-57]],"type":"Polygon","properties":{"Shape_Leng":1.30852067416,"Shape_Area":0.0354853071711,"ADM3_EN":"Khlong Nam Lai","ADM3_TH":"คลองน้ำไหล","ADM3_PCODE":"TH620301","ADM2_EN":"Khlong Lan","ADM2_TH":"คลองลาน","ADM2_PCODE":"TH6203","ADM1_EN":"Kamphaeng Phet","ADM1_TH":"กำแพงเพชร","ADM1_PCODE":"TH62","ADM0_EN":"Thailand","ADM0_TH":"ประเทศไทย","ADM0_PCODE":"TH"}},{"arcs":[[-23,93,-92,94,95]],"type":"Polygon","properties":{"Shape_Leng":1.56060499011,"Shape_Area":0.0420396184024,"ADM3_EN":"Pong Nam Ron","ADM3_TH":"โป่งน้ำร้อน","ADM3_PCODE":"TH620302","ADM2_EN":"Khlong Lan","ADM2_TH":"คลองลาน","ADM2_PCODE":"TH6203","ADM1_EN":"Kamphaeng Phet","ADM1_TH":"กำแพงเพชร","ADM1_PCODE":"TH62","ADM0_EN":"Thailand","ADM0_TH":"ประเทศไทย","ADM0_PCODE":"TH"}},{"arcs":[[-13,96,97,-89]],"type":"Polygon","properties":{"Shape_Leng":0.961360503559,"Shape_Area":0.0238262851299,"ADM3_EN":"Khlong Lan Phatthana","ADM3_TH":"คลองลานพัฒนา","ADM3_PCODE":"TH620303","ADM2_EN":"Khlong Lan","ADM2_TH":"คลองลาน","ADM2_PCODE":"TH6203","ADM1_EN":"Kamphaeng Phet","ADM1_TH":"กำแพงเพชร","ADM1_PCODE":"TH62","ADM0_EN":"Thailand","ADM0_TH":"ประเทศไทย","ADM0_PCODE":"TH"}},{"arcs":[[-22,-61,-58,-93,-94]],"type":"Polygon","properties":{"Shape_Leng":1.13697865216,"Shape_Area":0.0222297682914,"ADM3_EN":"Sak Ngam","ADM3_TH":"สักงาม","ADM3_PCODE":"TH620304","ADM2_EN":"Khlong Lan","ADM2_TH":"คลองลาน","ADM2_PCODE":"TH6203","ADM1_EN":"Kamphaeng Phet","ADM1_TH":"กำแพงเพชร","ADM1_PCODE":"TH62","ADM0_EN":"Thailand","ADM0_TH":"ประเทศไทย","ADM0_PCODE":"TH"}},{"arcs":[[98,99,100,101,102]],"type":"Polygon","properties":{"Shape_Leng":0.371135910911,"Shape_Area":0.00391672403428,"ADM3_EN":"Yang Sung","ADM3_TH":"ยางสูง","ADM3_PCODE":"TH620403","ADM2_EN":"Khanu Woralaksaburi","ADM2_TH":"ขาณุวรลักษบุรี","ADM2_PCODE":"TH6204","ADM1_EN":"Kamphaeng Phet","ADM1_TH":"กำแพงเพชร","ADM1_PCODE":"TH62","ADM0_EN":"Thailand","ADM0_TH":"ประเทศไทย","ADM0_PCODE":"TH"}},{"arcs":[[-99,103,104,105,106]],"type":"Polygon","properties":{"Shape_Leng":0.43480687029,"Shape_Area":0.00696723454106,"ADM3_EN":"Pa Phutsa","ADM3_TH":"ป่าพุทรา","ADM3_PCODE":"TH620404","ADM2_EN":"Khanu Woralaksaburi","ADM2_TH":"ขาณุวรลักษบุรี","ADM2_PCODE":"TH6204","ADM1_EN":"Kamphaeng Phet","ADM1_TH":"กำแพงเพชร","ADM1_PCODE":"TH62","ADM0_EN":"Thailand","ADM0_TH":"ประเทศไทย","ADM0_PCODE":"TH"}},{"arcs":[[-100,-107,107,108,109,110]],"type":"Polygon","properties":{"Shape_Leng":0.29652670144,"Shape_Area":0.00435748839893,"ADM3_EN":"Saen To","ADM3_TH":"แสนตอ","ADM3_PCODE":"TH620405","ADM2_EN":"Khanu Woralaksaburi","ADM2_TH":"ขาณุวรลักษบุรี","ADM2_PCODE":"TH6204","ADM1_EN":"Kamphaeng Phet","ADM1_TH":"กำแพงเพชร","ADM1_PCODE":"TH62","ADM0_EN":"Thailand","ADM0_TH":"ประเทศไทย","ADM0_PCODE":"TH"}},{"arcs":[[-109,111,112,113,114]],"type":"Polygon","properties":{"Shape_Leng":0.327536678331,"Shape_Area":0.00464289539482,"ADM3_EN":"Salok Bat","ADM3_TH":"สลกบาตร","ADM3_PCODE":"TH620406","ADM2_EN":"Khanu Woralaksaburi","ADM2_TH":"ขาณุวรลักษบุรี","ADM2_PCODE":"TH6204","ADM1_EN":"Kamphaeng Phet","ADM1_TH":"กำแพงเพชร","ADM1_PCODE":"TH62","ADM0_EN":"Thailand","ADM0_TH":"ประเทศไทย","ADM0_PCODE":"TH"}},{"arcs":[[-113,115,116,117]],"type":"Polygon","properties":{"Shape_Leng":0.828418429846,"Shape_Area":0.0197562053659,"ADM3_EN":"Bo Tham","ADM3_TH":"บ่อถ้ำ","ADM3_PCODE":"TH620407","ADM2_EN":"Khanu Woralaksaburi","ADM2_TH":"ขาณุวรลักษบุรี","ADM2_PCODE":"TH6204","ADM1_EN":"Kamphaeng Phet","ADM1_TH":"กำแพงเพชร","ADM1_PCODE":"TH62","ADM0_EN":"Thailand","ADM0_TH":"ประเทศไทย","ADM0_PCODE":"TH"}},{"arcs":[[-110,-115,118,119,120]],"type":"Polygon","properties":{"Shape_Leng":0.361804721381,"Shape_Area":0.00585270120367,"ADM3_EN":"Don Taeng","ADM3_TH":"ดอนแตง","ADM3_PCODE":"TH620408","ADM2_EN":"Khanu Woralaksaburi","ADM2_TH":"ขาณุวรลักษบุรี","ADM2_PCODE":"TH6204","ADM1_EN":"Kamphaeng Phet","ADM1_TH":"กำแพงเพชร","ADM1_PCODE":"TH62","ADM0_EN":"Thailand","ADM0_TH":"ประเทศไทย","ADM0_PCODE":"TH"}},{"arcs":[[-114,-118,121,122,123,-119]],"type":"Polygon","properties":{"Shape_Leng":0.778904340534,"Shape_Area":0.0161363498913,"ADM3_EN":"Wang Chaphlu","ADM3_TH":"วังชะพลู","ADM3_PCODE":"TH620409","ADM2_EN":"Khanu Woralaksaburi","ADM2_TH":"ขาณุวรลักษบุรี","ADM2_PCODE":"TH6204","ADM1_EN":"Kamphaeng Phet","ADM1_TH":"กำแพงเพชร","ADM1_PCODE":"TH62","ADM0_EN":"Thailand","ADM0_TH":"ประเทศไทย","ADM0_PCODE":"TH"}},{"arcs":[[-120,-124,124,125,126,127,128]],"type":"Polygon","properties":{"Shape_Leng":0.63698274236,"Shape_Area":0.00644356787249,"ADM3_EN":"Khong Phai","ADM3_TH":"โค้งไผ่","ADM3_PCODE":"TH620410","ADM2_EN":"Khanu Woralaksaburi","ADM2_TH":"ขาณุวรลักษบุรี","ADM2_PCODE":"TH6204","ADM1_EN":"Kamphaeng Phet","ADM1_TH":"กำแพงเพชร","ADM1_PCODE":"TH62","ADM0_EN":"Thailand","ADM0_TH":"ประเทศไทย","ADM0_PCODE":"TH"}},{"arcs":[[-117,129,130,131,132,133,-122]],"type":"Polygon","properties":{"Shape_Leng":0.950285731871,"Shape_Area":0.0187393049108,"ADM3_EN":"Pang Makha","ADM3_TH":"ปางมะค่า","ADM3_PCODE":"TH620411","ADM2_EN":"Khanu Woralaksaburi","ADM2_TH":"ขาณุวรลักษบุรี","ADM2_PCODE":"TH6204","ADM1_EN":"Kamphaeng Phet","ADM1_TH":"กำแพงเพชร","ADM1_PCODE":"TH62","ADM0_EN":"Thailand","ADM0_TH":"ประเทศไทย","ADM0_PCODE":"TH"}},{"arcs":[[-123,-134,134,-125]],"type":"Polygon","properties":{"Shape_Leng":0.655390502915,"Shape_Area":0.00905949643623,"ADM3_EN":"Wang Ham Hae","ADM3_TH":"วังหามแห","ADM3_PCODE":"TH620412","ADM2_EN":"Khanu Woralaksaburi","ADM2_TH":"ขาณุวรลักษบุรี","ADM2_PCODE":"TH6204","ADM1_EN":"Kamphaeng Phet","ADM1_TH":"กำแพงเพชร","ADM1_PCODE":"TH62","ADM0_EN":"Thailand","ADM0_TH":"ประเทศไทย","ADM0_PCODE":"TH"}},{"arcs":[[-101,-111,-121,-129,135,136]],"type":"Polygon","properties":{"Shape_Leng":0.261461179369,"Shape_Area":0.00344948677202,"ADM3_EN":"Ko Tan","ADM3_TH":"เกาะตาล","ADM3_PCODE":"TH620413","ADM2_EN":"Khanu Woralaksaburi","ADM2_TH":"ขาณุวรลักษบุรี","ADM2_PCODE":"TH6204","ADM1_EN":"Kamphaeng Phet","ADM1_TH":"กำแพงเพชร","ADM1_PCODE":"TH62","ADM0_EN":"Thailand","ADM0_TH":"ประเทศไทย","ADM0_PCODE":"TH"}},{"arcs":[[-127,137,138,139,140,141,142]],"type":"Polygon","properties":{"Shape_Leng":0.473699551839,"Shape_Area":0.00818104476513,"ADM3_EN":"Khlong Khlung","ADM3_TH":"คลองขลุง","ADM3_PCODE":"TH620501","ADM2_EN":"Khlong Khlung","ADM2_TH":"คลองขลุง","ADM2_PCODE":"TH6205","ADM1_EN":"Kamphaeng Phet","ADM1_TH":"กำแพงเพชร","ADM1_PCODE":"TH62","ADM0_EN":"Thailand","ADM0_TH":"ประเทศไทย","ADM0_PCODE":"TH"}},{"arcs":[[-141,143,144,145,146]],"type":"Polygon","properties":{"Shape_Leng":0.28769525465,"Shape_Area":0.00429093263809,"ADM3_EN":"Tha Makhuea","ADM3_TH":"ท่ามะเขือ","ADM3_PCODE":"TH620502","ADM2_EN":"Khlong Khlung","ADM2_TH":"คลองขลุง","ADM2_PCODE":"TH6205","ADM1_EN":"Kamphaeng Phet","ADM1_TH":"กำแพงเพชร","ADM1_PCODE":"TH62","ADM0_EN":"Thailand","ADM0_TH":"ประเทศไทย","ADM0_PCODE":"TH"}},{"arcs":[[-62,147,-144,-140,148]],"type":"Polygon","properties":{"Shape_Leng":0.241978047555,"Shape_Area":0.00253310335956,"ADM3_EN":"Tha Phutsa","ADM3_TH":"ท่าพุทรา","ADM3_PCODE":"TH620504","ADM2_EN":"Khlong Khlung","ADM2_TH":"คลองขลุง","ADM2_PCODE":"TH6205","ADM1_EN":"Kamphaeng Phet","ADM1_TH":"กำแพงเพชร","ADM1_PCODE":"TH62","ADM0_EN":"Thailand","ADM0_TH":"ประเทศไทย","ADM0_PCODE":"TH"}},{"arcs":[[-128,-143,149,150,-136]],"type":"Polygon","properties":{"Shape_Leng":0.275952819316,"Shape_Area":0.0031824765736,"ADM3_EN":"Mae Lat","ADM3_TH":"แม่ลาด","ADM3_PCODE":"TH620505","ADM2_EN":"Khlong Khlung","ADM2_TH":"คลองขลุง","ADM2_PCODE":"TH6205","ADM1_EN":"Kamphaeng Phet","ADM1_TH":"กำแพงเพชร","ADM1_PCODE":"TH62","ADM0_EN":"Thailand","ADM0_TH":"ประเทศไทย","ADM0_PCODE":"TH"}},{"arcs":[[-142,-147,151,152,-150]],"type":"Polygon","properties":{"Shape_Leng":0.414666031423,"Shape_Area":0.00372211534023,"ADM3_EN":"Wang Yang","ADM3_TH":"วังยาง","ADM3_PCODE":"TH620506","ADM2_EN":"Khlong Khlung","ADM2_TH":"คลองขลุง","ADM2_PCODE":"TH6205","ADM1_EN":"Kamphaeng Phet","ADM1_TH":"กำแพงเพชร","ADM1_PCODE":"TH62","ADM0_EN":"Thailand","ADM0_TH":"ประเทศไทย","ADM0_PCODE":"TH"}},{"arcs":[[-102,-137,-151,-153,153,154,155,156]],"type":"Polygon","properties":{"Shape_Leng":0.519359589709,"Shape_Area":0.00885427920569,"ADM3_EN":"Wang Khaem","ADM3_TH":"วังแขม","ADM3_PCODE":"TH620507","ADM2_EN":"Khlong Khlung","ADM2_TH":"คลองขลุง","ADM2_PCODE":"TH6205","ADM1_EN":"Kamphaeng Phet","ADM1_TH":"กำแพงเพชร","ADM1_PCODE":"TH62","ADM0_EN":"Thailand","ADM0_TH":"ประเทศไทย","ADM0_PCODE":"TH"}},{"arcs":[[-63,-149,157,158]],"type":"Polygon","properties":{"Shape_Leng":0.299048830937,"Shape_Area":0.00375194463693,"ADM3_EN":"Hua Thanon","ADM3_TH":"หัวถนน","ADM3_PCODE":"TH620508","ADM2_EN":"Khlong Khlung","ADM2_TH":"คลองขลุง","ADM2_PCODE":"TH6205","ADM1_EN":"Kamphaeng Phet","ADM1_TH":"กำแพงเพชร","ADM1_PCODE":"TH62","ADM0_EN":"Thailand","ADM0_TH":"ประเทศไทย","ADM0_PCODE":"TH"}},{"arcs":[[-11,159,-158,-139,160,161]],"type":"Polygon","properties":{"Shape_Leng":0.588264503444,"Shape_Area":0.0110534746224,"ADM3_EN":"Wang Sai","ADM3_TH":"วังไทร","ADM3_PCODE":"TH620509","ADM2_EN":"Khlong Khlung","ADM2_TH":"คลองขลุง","ADM2_PCODE":"TH6205","ADM1_EN":"Kamphaeng Phet","ADM1_TH":"กำแพงเพชร","ADM1_PCODE":"TH62","ADM0_EN":"Thailand","ADM0_TH":"ประเทศไทย","ADM0_PCODE":"TH"}},{"arcs":[[-45,162,-145,-148]],"type":"Polygon","properties":{"Shape_Leng":0.329424350247,"Shape_Area":0.00566817453146,"ADM3_EN":"Wang Bua","ADM3_TH":"วังบัว","ADM3_PCODE":"TH620513","ADM2_EN":"Khlong Khlung","ADM2_TH":"คลองขลุง","ADM2_PCODE":"TH6205","ADM1_EN":"Kamphaeng Phet","ADM1_TH":"กำแพงเพชร","ADM1_PCODE":"TH62","ADM0_EN":"Thailand","ADM0_TH":"ประเทศไทย","ADM0_PCODE":"TH"}},{"arcs":[[-6,-64,-159,-160,-10]],"type":"Polygon","properties":{"Shape_Leng":0.455124711376,"Shape_Area":0.00826071096724,"ADM3_EN":"Khlong Sombun","ADM3_TH":"คลองสมบูรณ์","ADM3_PCODE":"TH620516","ADM2_EN":"Khlong Khlung","ADM2_TH":"คลองขลุง","ADM2_PCODE":"TH6205","ADM1_EN":"Kamphaeng Phet","ADM1_TH":"กำแพงเพชร","ADM1_PCODE":"TH62","ADM0_EN":"Thailand","ADM0_TH":"ประเทศไทย","ADM0_PCODE":"TH"}},{"arcs":[[-34,163,164,-40]],"type":"Polygon","properties":{"Shape_Leng":0.470721442945,"Shape_Area":0.00747835919145,"ADM3_EN":"Phran Kratai","ADM3_TH":"พรานกระต่าย","ADM3_PCODE":"TH620601","ADM2_EN":"Phran Kratai","ADM2_TH":"พรานกระต่าย","ADM2_PCODE":"TH6206","ADM1_EN":"Kamphaeng Phet","ADM1_TH":"กำแพงเพชร","ADM1_PCODE":"TH62","ADM0_EN":"Thailand","ADM0_TH":"ประเทศไทย","ADM0_PCODE":"TH"}},{"arcs":[[165,166,167,168]],"type":"Polygon","properties":{"Shape_Leng":0.408971342558,"Shape_Area":0.00534245086375,"ADM3_EN":"Nong Hua Wua","ADM3_TH":"หนองหัววัว","ADM3_PCODE":"TH620602","ADM2_EN":"Phran Kratai","ADM2_TH":"พรานกระต่าย","ADM2_PCODE":"TH6206","ADM1_EN":"Kamphaeng Phet","ADM1_TH":"กำแพงเพชร","ADM1_PCODE":"TH62","ADM0_EN":"Thailand","ADM0_TH":"ประเทศไทย","ADM0_PCODE":"TH"}},{"arcs":[[-33,169,170,171,-168,172,-164]],"type":"Polygon","properties":{"Shape_Leng":0.8708603764,"Shape_Area":0.0161372564903,"ADM3_EN":"Tha Mai","ADM3_TH":"ท่าไม้","ADM3_PCODE":"TH620603","ADM2_EN":"Phran Kratai","ADM2_TH":"พรานกระต่าย","ADM2_PCODE":"TH6206","ADM1_EN":"Kamphaeng Phet","ADM1_TH":"กำแพงเพชร","ADM1_PCODE":"TH62","ADM0_EN":"Thailand","ADM0_TH":"ประเทศไทย","ADM0_PCODE":"TH"}},{"arcs":[[-39,173,174,-170]],"type":"Polygon","properties":{"Shape_Leng":0.837231966235,"Shape_Area":0.0176450104923,"ADM3_EN":"Wang Khuang","ADM3_TH":"วังควง","ADM3_PCODE":"TH620604","ADM2_EN":"Phran Kratai","ADM2_TH":"พรานกระต่าย","ADM2_PCODE":"TH6206","ADM1_EN":"Kamphaeng Phet","ADM1_TH":"กำแพงเพชร","ADM1_PCODE":"TH62","ADM0_EN":"Thailand","ADM0_TH":"ประเทศไทย","ADM0_PCODE":"TH"}},{"arcs":[[-166,175,176,177,178,179]],"type":"Polygon","properties":{"Shape_Leng":0.440188932826,"Shape_Area":0.00502405014563,"ADM3_EN":"Wang Tabaek","ADM3_TH":"วังตะแบก","ADM3_PCODE":"TH620605","ADM2_EN":"Phran Kratai","ADM2_TH":"พรานกระต่าย","ADM2_PCODE":"TH6206","ADM1_EN":"Kamphaeng Phet","ADM1_TH":"กำแพงเพชร","ADM1_PCODE":"TH62","ADM0_EN":"Thailand","ADM0_TH":"ประเทศไทย","ADM0_PCODE":"TH"}},{"arcs":[[-42,180,181,182,183,184,-53,-65]],"type":"Polygon","properties":{"Shape_Leng":0.578049089547,"Shape_Area":0.011684793854,"ADM3_EN":"Khao Khirit","ADM3_TH":"เขาคีริส","ADM3_PCODE":"TH620606","ADM2_EN":"Phran Kratai","ADM2_TH":"พรานกระต่าย","ADM2_PCODE":"TH6206","ADM1_EN":"Kamphaeng Phet","ADM1_TH":"กำแพงเพชร","ADM1_PCODE":"TH62","ADM0_EN":"Thailand","ADM0_TH":"ประเทศไทย","ADM0_PCODE":"TH"}},{"arcs":[[-180,185,-182,186]],"type":"Polygon","properties":{"Shape_Leng":0.32854389293,"Shape_Area":0.00448484520413,"ADM3_EN":"Khui Ban Ong","ADM3_TH":"คุยบ้านโอง","ADM3_PCODE":"TH620607","ADM2_EN":"Phran Kratai","ADM2_TH":"พรานกระต่าย","ADM2_PCODE":"TH6206","ADM1_EN":"Kamphaeng Phet","ADM1_TH":"กำแพงเพชร","ADM1_PCODE":"TH62","ADM0_EN":"Thailand","ADM0_TH":"ประเทศไทย","ADM0_PCODE":"TH"}},{"arcs":[[-179,187,-183,-186]],"type":"Polygon","properties":{"Shape_Leng":0.257738520229,"Shape_Area":0.00254468712745,"ADM3_EN":"Khlong Phikrai","ADM3_TH":"คลองพิไกร","ADM3_PCODE":"TH620608","ADM2_EN":"Phran Kratai","ADM2_TH":"พรานกระต่าย","ADM2_PCODE":"TH6206","ADM1_EN":"Kamphaeng Phet","ADM1_TH":"กำแพงเพชร","ADM1_PCODE":"TH62","ADM0_EN":"Thailand","ADM0_TH":"ประเทศไทย","ADM0_PCODE":"TH"}},{"arcs":[[-41,-165,-173,-167,-187,-181]],"type":"Polygon","properties":{"Shape_Leng":0.733609723882,"Shape_Area":0.00958763822877,"ADM3_EN":"Tham Kratai Thong","ADM3_TH":"ถ้ำกระต่ายทอง","ADM3_PCODE":"TH620609","ADM2_EN":"Phran Kratai","ADM2_TH":"พรานกระต่าย","ADM2_PCODE":"TH6206","ADM1_EN":"Kamphaeng Phet","ADM1_TH":"กำแพงเพชร","ADM1_PCODE":"TH62","ADM0_EN":"Thailand","ADM0_TH":"ประเทศไทย","ADM0_PCODE":"TH"}},{"arcs":[[-169,-172,188,-176]],"type":"Polygon","properties":{"Shape_Leng":0.649654771766,"Shape_Area":0.00512030273034,"ADM3_EN":"Huai Yang","ADM3_TH":"ห้วยยั้ง","ADM3_PCODE":"TH620610","ADM2_EN":"Phran Kratai","ADM2_TH":"พรานกระต่าย","ADM2_PCODE":"TH6206","ADM1_EN":"Kamphaeng Phet","ADM1_TH":"กำแพงเพชร","ADM1_PCODE":"TH62","ADM0_EN":"Thailand","ADM0_TH":"ประเทศไทย","ADM0_PCODE":"TH"}},{"arcs":[[189,190,191,192,193,194]],"type":"Polygon","properties":{"Shape_Leng":0.416836041612,"Shape_Area":0.0050641991179,"ADM3_EN":"Lan Krabue","ADM3_TH":"ลานกระบือ","ADM3_PCODE":"TH620701","ADM2_EN":"Lan Krabue","ADM2_TH":"ลานกระบือ","ADM2_PCODE":"TH6207","ADM1_EN":"Kamphaeng Phet","ADM1_TH":"กำแพงเพชร","ADM1_PCODE":"TH62","ADM0_EN":"Thailand","ADM0_TH":"ประเทศไทย","ADM0_PCODE":"TH"}},{"arcs":[[-66,195,-191,196,197,-78]],"type":"Polygon","properties":{"Shape_Leng":0.368939101696,"Shape_Area":0.00385650411984,"ADM3_EN":"Chong Lom","ADM3_TH":"ช่องลม","ADM3_PCODE":"TH620702","ADM2_EN":"Lan Krabue","ADM2_TH":"ลานกระบือ","ADM2_PCODE":"TH6207","ADM1_EN":"Kamphaeng Phet","ADM1_TH":"กำแพงเพชร","ADM1_PCODE":"TH62","ADM0_EN":"Thailand","ADM0_TH":"ประเทศไทย","ADM0_PCODE":"TH"}},{"arcs":[[-178,198,199,-194,200,-184,-188]],"type":"Polygon","properties":{"Shape_Leng":0.543920955936,"Shape_Area":0.00804512706819,"ADM3_EN":"Nong Luang","ADM3_TH":"หนองหลวง","ADM3_PCODE":"TH620703","ADM2_EN":"Lan Krabue","ADM2_TH":"ลานกระบือ","ADM2_PCODE":"TH6207","ADM1_EN":"Kamphaeng Phet","ADM1_TH":"กำแพงเพชร","ADM1_PCODE":"TH62","ADM0_EN":"Thailand","ADM0_TH":"ประเทศไทย","ADM0_PCODE":"TH"}},{"arcs":[[-71,-83,201,-192,-196]],"type":"Polygon","properties":{"Shape_Leng":0.386640083062,"Shape_Area":0.00443293944789,"ADM3_EN":"Non Phluang","ADM3_TH":"โนนพลวง","ADM3_PCODE":"TH620704","ADM2_EN":"Lan Krabue","ADM2_TH":"ลานกระบือ","ADM2_PCODE":"TH6207","ADM1_EN":"Kamphaeng Phet","ADM1_TH":"กำแพงเพชร","ADM1_PCODE":"TH62","ADM0_EN":"Thailand","ADM0_TH":"ประเทศไทย","ADM0_PCODE":"TH"}},{"arcs":[[-79,-198,202]],"type":"Polygon","properties":{"Shape_Leng":0.448692306489,"Shape_Area":0.00500643483623,"ADM3_EN":"Pracha Suksan","ADM3_TH":"ประชาสุขสันต์","ADM3_PCODE":"TH620705","ADM2_EN":"Lan Krabue","ADM2_TH":"ลานกระบือ","ADM2_PCODE":"TH6207","ADM1_EN":"Kamphaeng Phet","ADM1_TH":"กำแพงเพชร","ADM1_PCODE":"TH62","ADM0_EN":"Thailand","ADM0_TH":"ประเทศไทย","ADM0_PCODE":"TH"}},{"arcs":[[-195,-200,203]],"type":"Polygon","properties":{"Shape_Leng":0.437764362748,"Shape_Area":0.00419304196456,"ADM3_EN":"Bueng Thap Raet","ADM3_TH":"บึงทับแรต","ADM3_PCODE":"TH620706","ADM2_EN":"Lan Krabue","ADM2_TH":"ลานกระบือ","ADM2_PCODE":"TH6207","ADM1_EN":"Kamphaeng Phet","ADM1_TH":"กำแพงเพชร","ADM1_PCODE":"TH62","ADM0_EN":"Thailand","ADM0_TH":"ประเทศไทย","ADM0_PCODE":"TH"}},{"arcs":[[-82,-185,-201,-193,-202]],"type":"Polygon","properties":{"Shape_Leng":0.419336292689,"Shape_Area":0.0041485464015,"ADM3_EN":"Chanthima","ADM3_TH":"จันทิมา","ADM3_PCODE":"TH620707","ADM2_EN":"Lan Krabue","ADM2_TH":"ลานกระบือ","ADM2_PCODE":"TH6207","ADM1_EN":"Kamphaeng Phet","ADM1_TH":"กำแพงเพชร","ADM1_PCODE":"TH62","ADM0_EN":"Thailand","ADM0_TH":"ประเทศไทย","ADM0_PCODE":"TH"}},{"arcs":[[-86,204,205,-154,-152,-146,-163]],"type":"Polygon","properties":{"Shape_Leng":0.42959304369,"Shape_Area":0.00753131010566,"ADM3_EN":"Thung Sai","ADM3_TH":"ทุ่งทราย","ADM3_PCODE":"TH620801","ADM2_EN":"Sai Thong Watthana","ADM2_TH":"ทรายทองวัฒนา","ADM2_PCODE":"TH6208","ADM1_EN":"Kamphaeng Phet","ADM1_TH":"กำแพงเพชร","ADM1_PCODE":"TH62","ADM0_EN":"Thailand","ADM0_TH":"ประเทศไทย","ADM0_PCODE":"TH"}},{"arcs":[[-85,-88,206,207,208,-205]],"type":"Polygon","properties":{"Shape_Leng":0.405245738426,"Shape_Area":0.00435207586575,"ADM3_EN":"Thung Thong","ADM3_TH":"ทุ่งทอง","ADM3_PCODE":"TH620802","ADM2_EN":"Sai Thong Watthana","ADM2_TH":"ทรายทองวัฒนา","ADM2_PCODE":"TH6208","ADM1_EN":"Kamphaeng Phet","ADM1_TH":"กำแพงเพชร","ADM1_PCODE":"TH62","ADM0_EN":"Thailand","ADM0_TH":"ประเทศไทย","ADM0_PCODE":"TH"}},{"arcs":[[-155,-206,-209,209,210]],"type":"Polygon","properties":{"Shape_Leng":0.396689907967,"Shape_Area":0.00587104599033,"ADM3_EN":"Thawon Watthana","ADM3_TH":"ถาวรวัฒนา","ADM3_PCODE":"TH620803","ADM2_EN":"Sai Thong Watthana","ADM2_TH":"ทรายทองวัฒนา","ADM2_PCODE":"TH6208","ADM1_EN":"Kamphaeng Phet","ADM1_TH":"กำแพงเพชร","ADM1_PCODE":"TH62","ADM0_EN":"Thailand","ADM0_TH":"ประเทศไทย","ADM0_PCODE":"TH"}},{"arcs":[[-126,-135,-133,211,-161,-138]],"type":"Polygon","properties":{"Shape_Leng":0.728640866341,"Shape_Area":0.00938178133144,"ADM3_EN":"Pho Thong","ADM3_TH":"โพธิ์ทอง","ADM3_PCODE":"TH620901","ADM2_EN":"Pang Sila Thong","ADM2_TH":"ปางศิลาทอง","ADM2_PCODE":"TH6209","ADM1_EN":"Kamphaeng Phet","ADM1_TH":"กำแพงเพชร","ADM1_PCODE":"TH62","ADM0_EN":"Thailand","ADM0_TH":"ประเทศไทย","ADM0_PCODE":"TH"}},{"arcs":[[-12,-162,-212,-132,212,-97]],"type":"Polygon","properties":{"Shape_Leng":0.676871286648,"Shape_Area":0.0088419815622,"ADM3_EN":"Hin Dat","ADM3_TH":"หินดาต","ADM3_PCODE":"TH620902","ADM2_EN":"Pang Sila Thong","ADM2_TH":"ปางศิลาทอง","ADM2_PCODE":"TH6209","ADM1_EN":"Kamphaeng Phet","ADM1_TH":"กำแพงเพชร","ADM1_PCODE":"TH62","ADM0_EN":"Thailand","ADM0_TH":"ประเทศไทย","ADM0_PCODE":"TH"}},{"arcs":[[-90,-98,-213,-131,213]],"type":"Polygon","properties":{"Shape_Leng":1.47576893328,"Shape_Area":0.0452670170004,"ADM3_EN":"Pang Ta Wai","ADM3_TH":"ปางตาไว","ADM3_PCODE":"TH620903","ADM2_EN":"Pang Sila Thong","ADM2_TH":"ปางศิลาทอง","ADM2_PCODE":"TH6209","ADM1_EN":"Kamphaeng Phet","ADM1_TH":"กำแพงเพชร","ADM1_PCODE":"TH62","ADM0_EN":"Thailand","ADM0_TH":"ประเทศไทย","ADM0_PCODE":"TH"}},{"arcs":[[-208,214,215,-210]],"type":"Polygon","properties":{"Shape_Leng":0.379514746133,"Shape_Area":0.00663763409957,"ADM3_EN":"Bueng Samakkhi","ADM3_TH":"บึงสามัคคี","ADM3_PCODE":"TH621001","ADM2_EN":"Bueng Samakkhi","ADM2_TH":"บึงสามัคคี","ADM2_PCODE":"TH6210","ADM1_EN":"Kamphaeng Phet","ADM1_TH":"กำแพงเพชร","ADM1_PCODE":"TH62","ADM0_EN":"Thailand","ADM0_TH":"ประเทศไทย","ADM0_PCODE":"TH"}},{"arcs":[[-156,-211,-216,216,217,218]],"type":"Polygon","properties":{"Shape_Leng":0.572477568437,"Shape_Area":0.0079521470666,"ADM3_EN":"Wang Cha-On","ADM3_TH":"วังชะโอน","ADM3_PCODE":"TH621002","ADM2_EN":"Bueng Samakkhi","ADM2_TH":"บึงสามัคคี","ADM2_PCODE":"TH6210","ADM1_EN":"Kamphaeng Phet","ADM1_TH":"กำแพงเพชร","ADM1_PCODE":"TH62","ADM0_EN":"Thailand","ADM0_TH":"ประเทศไทย","ADM0_PCODE":"TH"}},{"arcs":[[-105,219,-218,220]],"type":"Polygon","properties":{"Shape_Leng":0.353134526231,"Shape_Area":0.00397826648361,"ADM3_EN":"Rahan","ADM3_TH":"ระหาน","ADM3_PCODE":"TH621003","ADM2_EN":"Bueng Samakkhi","ADM2_TH":"บึงสามัคคี","ADM2_PCODE":"TH6210","ADM1_EN":"Kamphaeng Phet","ADM1_TH":"กำแพงเพชร","ADM1_PCODE":"TH62","ADM0_EN":"Thailand","ADM0_TH":"ประเทศไทย","ADM0_PCODE":"TH"}},{"arcs":[[-103,-157,-219,-220,-104]],"type":"Polygon","properties":{"Shape_Leng":0.415487745296,"Shape_Area":0.00560188085333,"ADM3_EN":"Thep Nimit","ADM3_TH":"เทพนิมิต","ADM3_PCODE":"TH621004","ADM2_EN":"Bueng Samakkhi","ADM2_TH":"บึงสามัคคี","ADM2_PCODE":"TH6210","ADM1_EN":"Kamphaeng Phet","ADM1_TH":"กำแพงเพชร","ADM1_PCODE":"TH62","ADM0_EN":"Thailand","ADM0_TH":"ประเทศไทย","ADM0_PCODE":"TH"}},{"arcs":[[-24,-96,221,-174,-38,222]],"type":"Polygon","properties":{"Shape_Leng":1.71730176317,"Shape_Area":0.0331961492678,"ADM3_EN":"Kosamphi","ADM3_TH":"โกสัมพี","ADM3_PCODE":"TH621101","ADM2_EN":"Kosamphi Nakhon","ADM2_TH":"โกสัมพีนคร","ADM2_PCODE":"TH6211","ADM1_EN":"Kamphaeng Phet","ADM1_TH":"กำแพงเพชร","ADM1_PCODE":"TH62","ADM0_EN":"Thailand","ADM0_TH":"ประเทศไทย","ADM0_PCODE":"TH"}},{"arcs":[[-30,-223,-37,223]],"type":"Polygon","properties":{"Shape_Leng":0.537284251071,"Shape_Area":0.00884480630323,"ADM3_EN":"Phet Chomphu","ADM3_TH":"เพชรชมภู","ADM3_PCODE":"TH621102","ADM2_EN":"Kosamphi Nakhon","ADM2_TH":"โกสัมพีนคร","ADM2_PCODE":"TH6211","ADM1_EN":"Kamphaeng Phet","ADM1_TH":"กำแพงเพชร","ADM1_PCODE":"TH62","ADM0_EN":"Thailand","ADM0_TH":"ประเทศไทย","ADM0_PCODE":"TH"}},{"arcs":[[-31,-224,-36]],"type":"Polygon","properties":{"Shape_Leng":0.349279959904,"Shape_Area":0.003811448313,"ADM3_EN":"Lan Dokmai Tok","ADM3_TH":"ลานดอกไม้ตก","ADM3_PCODE":"TH621103","ADM2_EN":"Kosamphi Nakhon","ADM2_TH":"โกสัมพีนคร","ADM2_PCODE":"TH6211","ADM1_EN":"Kamphaeng Phet","ADM1_TH":"กำแพงเพชร","ADM1_PCODE":"TH62","ADM0_EN":"Thailand","ADM0_TH":"ประเทศไทย","ADM0_PCODE":"TH"}}]}}}