{"type":"Topology","arcs":[[[5103,4974],[-41,-21],[15,-19],[-3,-14]],[[5074,4920],[-21,-7],[-52,7],[-39,-7]],[[4962,4913],[-50,-4]],[[4912,4909],[-42,32],[-38,-5]],[[4832,4936],[-9,8],[23,11],[121,-20],[-6,11]],[[4961,4946],[33,27],[50,18],[35,-2],[24,-15]],[[5074,4920],[31,-13]],[[5105,4907],[-35,-31],[-18,-7],[-79,-5]],[[4973,4864],[4,14],[-15,35]],[[4973,4864],[-79,-5],[-28,-11]],[[4866,4848],[-16,26],[53,24],[9,11]],[[4866,4848],[-55,-22]],[[4811,4826],[-25,19],[-30,-15],[-50,15],[-4,17],[-29,-1]],[[4673,4861],[13,15]],[[4686,4876],[20,21],[42,11],[50,-3],[21,8],[13,23]],[[5105,4907],[31,-6],[45,-35],[27,-3],[34,-24],[28,2],[32,-18],[31,-2],[13,-14],[50,-25],[31,4],[33,23],[121,-15],[27,15],[55,20],[0,18],[26,28],[36,11],[6,19],[46,38],[16,5],[34,42],[43,18],[54,2],[31,-16],[37,-8]],[[5992,4986],[19,-28],[38,-18],[11,-19],[-28,-26],[2,-19],[-36,-13],[-23,-20],[12,-8],[-9,-24],[32,-31],[0,-20]],[[6010,4760],[-75,-22],[-50,-19],[-122,-31],[-39,-41],[-108,-83],[-41,-7]],[[5575,4557],[-13,18],[-44,16],[-15,14],[-39,9],[-29,22],[-31,-28],[1,-23],[-14,-11],[-22,12],[-34,3],[-61,-22],[-20,-2],[-83,16],[-20,-19],[-66,52]],[[5085,4614],[-274,212]],[[5085,4614],[-67,5],[-54,15],[-40,-7],[-25,6],[7,49],[-65,-21],[9,-25],[-47,11],[-9,-15],[-72,-6],[-8,-23],[25,-13],[-29,-2],[13,-20],[31,-1],[7,-19],[-38,-5],[-45,24],[-66,14],[-35,-23],[-21,40],[-91,10],[-32,-27]],[[4433,4581],[-89,22]],[[4344,4603],[19,27],[-32,34],[2,8],[47,-9],[27,6],[13,19],[45,19],[94,18],[10,11],[-3,26],[42,12],[22,26],[63,13],[-3,18],[-20,13],[3,17]],[[5575,4557],[-94,-27],[-32,-26],[-32,-14],[-88,-15],[-59,-1],[-49,-31],[-7,-24],[-88,8],[-48,-14],[-26,5],[-27,-9]],[[5025,4409],[-24,0],[-28,11],[-25,-7],[-65,-2],[-79,3],[-41,-22],[-24,14],[-38,-2],[-52,8],[-19,32],[-40,-11],[-108,-11],[-27,2],[-60,25]],[[4395,4449],[26,55],[0,25],[12,52]],[[4344,4603],[-39,11],[-41,24]],[[4264,4638],[-2,46],[-20,11],[-4,42],[-20,30],[-2,20]],[[4216,4787],[38,24],[-38,16],[61,70],[16,9],[-23,8],[32,36],[53,29]],[[4355,4979],[331,-103]],[[6738,6324],[32,-13],[-1,-29],[-16,-24],[-2,-21],[-61,-39],[9,-23],[44,-33],[63,-3],[42,-11],[8,-13],[-1,-48],[48,-5],[27,-25],[69,6],[43,-10],[43,0],[39,-6],[-4,-38],[37,-30],[9,-28],[-22,-44],[-53,-17],[-63,-10],[-15,-10],[-31,-45],[-10,-24],[-17,-8],[-1,-18],[-23,-15],[-18,-28],[-24,-6],[-73,-61],[-11,-16],[-40,-18],[-63,-7],[-39,2],[-26,-7]],[[6637,5599],[-44,-9],[-71,0],[-68,-9],[-240,17],[-75,-12],[-42,-14],[16,-20],[-47,23],[-8,11],[-26,-6]],[[6032,5580],[-61,26],[-28,30],[6,17],[-18,52],[26,16],[50,12],[23,17],[-27,8],[39,53],[2,29],[-49,12],[-22,18],[-26,2],[-19,19],[-64,13],[-7,6]],[[5857,5910],[14,10],[-13,35],[24,47]],[[5882,6002],[63,11],[7,13],[50,19],[29,2],[29,36],[27,15],[-7,35],[-19,11],[20,6],[19,27],[15,40],[48,22],[47,-3],[3,38],[66,24],[81,-5],[49,42],[30,12],[65,5],[111,-15],[24,-10],[99,-3]],[[6637,5599],[-2,-35],[37,-12],[5,-22],[-46,-32],[-3,-9],[-50,1],[-28,-16],[0,-11],[-26,-9],[-6,-12],[-48,-33],[-49,-6],[3,-16],[-30,-17],[-17,-33],[-15,-9],[-16,-31],[-25,-12],[-7,-26],[-22,-27],[10,-12],[-19,-23],[29,-18],[-17,-9],[-43,-4],[-26,-17],[0,-20]],[[6226,5129],[-56,2],[-44,-43],[1,-23],[-30,-15],[-31,-5],[33,-17],[10,-18],[-20,-8],[-42,5],[-40,-13]],[[6007,4994],[-5,20],[-24,15],[-12,26],[-23,17],[-3,17],[-37,15],[-23,27],[-21,13],[-25,49],[-15,4],[-21,29],[3,14],[-84,57]],[[5717,5297],[14,9],[-32,16],[10,18],[-12,27]],[[5697,5367],[9,7],[30,-14],[41,5],[36,19],[-3,16],[52,24],[-19,25],[8,31],[-7,21],[66,12],[-17,26],[26,8],[30,28],[32,-16],[45,1],[6,20]],[[5103,4974],[79,3],[8,8],[-36,13],[7,18],[38,33],[1,24],[23,6],[12,17],[31,16],[17,46]],[[5283,5158],[53,7],[14,38],[23,1],[34,-20],[14,14],[106,28],[23,38],[71,9],[32,26],[64,-2]],[[6007,4994],[-15,-8]],[[5283,5158],[6,11],[-53,1],[-27,9],[-16,26],[24,14],[32,-10],[-5,35],[-43,37],[-6,28],[-31,31],[-8,21]],[[5156,5361],[26,-2],[21,15],[22,-10],[63,-4],[21,13],[40,6],[36,-3],[61,-43],[7,-16],[30,-20],[60,36],[-22,13],[36,3],[18,-6],[65,18],[28,18]],[[5668,5379],[29,-12]],[[4985,5679],[-17,-54],[-28,-37],[-34,-22],[-43,-15],[-1,-24],[-23,-19],[-32,-6],[-30,-14],[6,-12],[-35,-13],[-3,-29],[-21,-11],[10,-17],[-9,-33],[2,-35],[38,-26]],[[4765,5312],[-80,13],[-36,3],[4,19],[-49,36],[-47,20],[-29,-33],[-46,-21],[-41,-26],[-60,-23],[-32,12]],[[4349,5312],[-35,10],[-27,26],[-140,3],[-8,-11],[-38,24],[-33,6],[-47,32]],[[4021,5402],[-51,36],[-27,30],[-13,50],[-50,54],[-101,26],[-40,23],[-28,8],[-1,14],[-43,14],[-52,35],[2,18],[-14,33],[-61,21],[-20,26],[-37,21],[-96,0]],[[3389,5811],[49,22],[39,5],[32,12],[34,3],[-15,17],[5,32],[-17,13],[11,24],[-21,30],[15,43],[32,7],[45,38]],[[3598,6057],[29,-6],[18,-26],[53,-23],[18,-29],[30,-14],[-42,-11],[4,-13],[24,-8],[133,8],[58,7],[72,-35],[33,-29],[49,-18],[19,-21],[41,-8],[44,-15],[99,-21],[136,-17],[60,-10],[71,-1],[63,-18],[67,7],[29,-25],[35,-10],[15,-20],[28,-12],[34,10],[38,2],[75,-13],[34,1],[20,-10]],[[4765,5312],[-24,-18],[5,-13],[-26,-26],[9,-65],[41,-25],[26,-1],[19,-37],[59,0],[-13,-24],[15,-38],[9,-6]],[[4885,5059],[-33,-5],[-41,3],[-35,-31],[-67,-21],[-20,15],[-2,43],[-16,22],[-42,-1],[-46,-16],[-44,-23],[-36,-7],[-52,4]],[[4451,5042],[17,47],[-5,15],[-67,5],[-31,25],[15,15],[-21,19],[-3,40],[-12,4],[20,18],[-22,30],[16,30],[-21,6],[12,16]],[[3598,6057],[-8,36],[19,16],[-19,19],[3,20],[45,49],[44,3],[40,-11],[35,17],[42,4]],[[3799,6210],[95,15],[22,-2],[45,-15],[74,-14],[81,-2],[70,-16],[28,-22],[49,0],[-3,-44],[25,-32],[35,-11],[44,-1],[21,12],[35,-11],[13,17],[40,9],[23,-8],[-9,-17],[48,-9],[21,-29],[71,-20],[24,-33],[191,-7],[18,-4],[57,24],[58,2],[1,-13]],[[4976,5979],[0,-13],[39,-20],[-21,-30],[14,-11],[29,-48],[-2,-21]],[[5035,5836],[0,-14],[-42,-40],[4,-24],[16,-20],[-23,-31],[-5,-28]],[[4355,4979],[-116,36]],[[4239,5015],[38,27],[36,18],[79,-28],[66,-15],[-7,25]],[[4885,5059],[32,-41],[15,-6],[29,-66]],[[4985,5679],[64,-14],[39,-25],[-7,-6],[21,-31],[-4,-11],[40,4],[15,-7],[20,-29],[-6,-25],[-31,-13],[-4,-32],[-25,-29],[7,-31],[37,-34],[-21,-21],[26,-14]],[[5035,5836],[108,-29],[27,3],[35,-6],[30,10],[35,36],[30,13],[56,3],[69,-6],[98,7],[24,9],[40,0]],[[5587,5876],[3,-20],[-51,-19],[0,-48],[-12,-34],[-24,-32],[41,-15],[45,-46],[7,-43],[53,-63],[19,-13],[-46,-42],[-58,-29],[-40,-39],[44,-16],[29,-18],[71,-20]],[[5587,5876],[26,30],[43,22],[58,-18],[82,14],[24,-11],[37,-3]],[[6738,6324],[32,32],[30,10],[63,8],[70,-12],[31,8],[24,-3],[44,34],[35,0],[19,11],[29,1],[67,-30],[41,3],[30,-24],[24,-2],[21,-15],[22,4],[59,-6],[43,-21],[28,-3]],[[7450,6319],[-40,-38],[5,-20],[-11,-23],[0,-49],[-17,-15],[-56,-27],[20,-22],[30,1],[69,-37],[89,-14],[20,-13],[1,-33],[21,-23],[11,-26],[-19,-38],[-25,-32],[18,-7],[10,-24],[-34,-38],[2,-18],[36,-16],[38,-30],[36,-6]],[[7654,5771],[-27,-23],[-19,-31],[11,-12],[-34,-34]],[[7585,5671],[-27,-21],[-153,-88],[-18,-23],[-31,-12],[-2,-11]],[[7354,5516],[-9,-12],[-78,-22],[-15,-12],[-46,-13],[-31,2],[-93,-21],[-47,8],[-19,-9],[8,-17],[39,-35],[-7,-35],[-77,-27],[-26,0],[15,-34],[-12,-9],[-87,-1],[-26,38],[-25,6],[-14,-15],[2,-29],[-18,-14],[8,-25],[-56,-32],[-20,-38],[-17,-6],[0,-19],[-47,-14],[-18,-14],[19,-50],[-24,-1],[-132,20],[-87,34],[-47,-4],[-19,8],[-53,-5],[-69,10]],[[7585,5671],[29,-10],[3,-23],[-13,-30],[24,-27],[-7,-37],[21,-4],[3,-21],[-10,-29],[56,-14],[16,-36],[-3,-19],[-17,-16],[-6,-56],[-27,-19],[46,-7],[37,2],[5,19],[28,-7],[35,8],[79,-1],[8,-62],[24,-24],[31,-12],[22,-31],[59,-24],[32,2],[16,-28],[22,-3],[56,-48],[44,-5],[20,6],[11,-23],[45,-9],[12,-17],[67,-35],[21,-2],[28,-21]],[[8402,5008],[-47,-30],[-11,-27],[-49,-39],[-17,-27],[-28,-10],[-9,-16],[-87,-4],[-42,10],[-78,4],[-23,-15],[-50,-7],[-68,9]],[[7893,4856],[32,30],[-4,27],[-27,23],[-22,6],[-55,-2],[-108,22],[-81,-12],[-69,-22],[-36,-18],[-38,-44],[-36,-19],[-85,-1],[-125,-30]],[[7239,4816],[-20,2],[6,31],[-18,14],[-33,8],[3,43],[-30,18],[-18,38],[7,29],[19,10],[55,12],[-31,11],[-19,17],[-35,14],[8,30],[23,32],[56,22],[117,26],[7,61],[38,29],[-20,35],[13,35],[-6,37],[-12,14],[-3,62],[-42,24],[42,20],[8,26]],[[7654,5771],[32,20],[47,6],[42,-2],[55,42],[34,30],[40,20],[4,18],[44,21],[4,25],[27,19],[30,-6],[10,9],[101,13],[17,-8],[4,34],[24,10],[17,38],[-14,7],[60,-9],[21,18],[47,12],[28,-7],[30,4],[66,49],[134,-13],[40,7],[7,-13],[66,13],[12,-28],[29,-10],[63,16],[13,-9],[28,5]],[[8816,6102],[8,-7],[84,-12],[21,9],[55,-17],[45,0],[68,-7],[131,-8],[5,-15],[30,-10],[19,-18],[101,-22]],[[9383,5995],[0,-10],[58,-11],[-8,-20],[-23,-17],[5,-22],[-16,-11],[-1,-39],[-11,-24],[-89,-56],[-1,-10],[-70,-63],[-51,2],[42,-21],[-33,-48],[-31,-32],[-52,0],[-71,-7],[41,-13],[30,-24],[-62,-67],[-16,-33],[19,-17],[-43,-24],[-1,-12],[-38,-3],[-59,-26],[-16,-25],[-84,-4],[-73,14],[-7,-6],[30,-12],[-33,-31],[-49,3],[-37,-29],[-45,-58],[6,-37],[-72,-9],[-17,-11],[-12,-30],[6,-18],[-16,-17],[10,-16],[-21,-31],[-44,-33],[-26,-29]],[[7239,4816],[-48,-11],[-78,-7],[-108,0],[-47,-15],[-85,9],[-101,-2],[-45,4],[-54,-3],[-61,-31],[-27,-20],[-55,-5],[-50,8],[-137,-5],[-285,27],[-48,-5]],[[7893,4856],[-48,18],[-8,-23],[16,-14],[-19,-10],[-35,-48],[-16,-4],[14,-19],[-16,-13],[-30,6],[-16,-5],[-36,-47],[-39,-20],[-4,-18],[-41,6],[-58,0],[-14,-13],[-78,-37],[-40,-37],[-29,-15],[-1,-24],[-15,-20],[-2,-27],[-56,-26]],[[7322,4466],[-74,-2],[-26,7],[-61,44],[-57,15],[-14,14],[-27,-7],[-46,5],[-20,-3],[-18,12],[-47,13],[-92,2],[8,28],[-22,37],[-71,14],[-89,8],[-63,-30],[-85,-4],[-56,-43],[-65,15],[-8,-8],[-30,22],[-28,-10],[-75,-12],[-51,10],[-99,-13],[-43,16],[-35,4],[-54,52]],[[5974,4652],[-2,8],[30,25],[8,75]],[[4264,4638],[6,-27],[-60,-23],[-44,-26],[16,-7],[-18,-15],[-46,-1],[-27,10]],[[4091,4549],[-46,-6],[-94,34],[-42,5],[-28,-4],[-42,6]],[[3839,4584],[-16,20],[42,-3],[70,10],[-50,18],[-2,25],[-26,7],[-6,12]],[[3851,4673],[34,24],[38,10],[-23,21],[27,23],[-32,25],[-85,36]],[[3810,4812],[73,-9],[78,1],[28,-9],[43,-3],[39,-19],[42,-2],[33,15],[11,-4],[59,5]],[[4043,4302],[-1,-9],[-42,-18],[-8,-24],[-18,-8]],[[3974,4243],[-60,-16],[-29,-19],[-50,-7],[-35,-27],[0,-14],[-39,-15],[3,-26],[-18,-26],[-39,-23],[-14,-30],[43,-16],[-8,-25],[25,-10],[-6,-15],[-25,-13],[-35,1],[-41,-16],[-20,9],[-5,16],[-35,5],[-27,-52],[26,-15],[53,10],[70,-37],[5,-23],[-18,-21],[-58,-23],[2,-11],[32,-5],[32,10],[21,-5],[-11,-19],[19,-6],[-7,-23],[-38,2],[-31,-7],[-42,-33],[-41,-7],[-34,-23],[14,-26],[-22,-11],[-12,-33],[0,-31],[39,-30],[39,-13],[-35,-14],[-49,21],[-40,-8],[-10,-36]],[[3463,3507],[-71,-10],[-33,18],[-63,-7],[-47,-16]],[[3249,3492],[-44,4],[-41,17]],[[3164,3513],[30,36],[-5,10],[39,17],[36,25]],[[3264,3601],[3,29],[-51,17],[-18,24],[7,14],[32,9],[20,25],[31,4],[-19,29],[14,28],[32,16],[-18,18],[-45,-14],[-63,5],[-14,11],[7,17],[25,9],[8,43],[67,1],[29,45],[79,34],[-25,29],[-50,19],[12,56],[-58,59],[-36,16],[0,12],[-25,14],[35,12],[-3,12],[-42,0],[-16,14],[2,23],[-17,17]],[[3167,4248],[54,-5],[35,-15],[15,-33],[38,-20],[11,11],[69,6],[75,25],[55,-4],[59,11]],[[3578,4224],[27,26],[28,43],[24,-15],[45,3],[13,-7],[18,13]],[[3733,4287],[28,4],[76,36],[16,3],[66,-16],[47,2],[77,-14]],[[3839,4584],[-7,-4],[-60,-72],[-43,-8],[-101,-57],[-30,-38],[-53,-21],[16,-10],[-10,-13],[-41,-16],[-24,-19],[-44,-7],[-3,-8],[58,-9],[42,-27],[6,-26],[33,-25]],[[3167,4248],[-33,6],[-63,-21],[-58,50],[-11,19],[-49,9]],[[2953,4311],[-11,1],[-136,45],[-53,15],[-37,17],[-9,22],[-1,38]],[[2706,4449],[12,18],[45,34],[9,19],[37,21],[40,-5],[63,0],[8,13],[68,12],[22,20],[90,41],[49,30]],[[3149,4652],[9,-27],[17,-10],[-5,-18],[-24,-18],[42,-35],[47,-9],[19,6],[31,-11],[35,17],[57,1],[45,8],[30,-2],[45,10],[24,36],[-15,5],[16,22],[65,19],[63,0],[54,11],[20,-8],[54,20],[73,4]],[[4043,4302],[13,16],[51,10]],[[4107,4328],[29,-11],[27,6],[28,35],[27,45],[25,2],[48,-24],[43,14],[42,2]],[[4376,4397],[-5,-43],[58,-67],[-31,-19],[-12,-18],[-3,-42],[38,-35]],[[4421,4173],[-61,-21],[-43,-2],[-107,-14],[-33,-7],[-54,1],[-73,36],[-51,43],[-4,20],[-21,14]],[[4395,4449],[-19,-52]],[[4107,4328],[5,34],[23,3],[27,17],[-25,25],[13,29],[-1,21],[-23,22],[20,9],[17,23],[37,14],[40,28],[34,13],[28,20],[42,17]],[[4091,4549],[-1,-36],[-27,-51],[-20,-8],[-197,-44],[-17,-11],[-54,-18],[-11,-13],[18,-15],[-33,-35],[13,-12],[-29,-19]],[[4421,4173],[25,0],[1,-52],[-41,-51],[34,-26],[-4,-22]],[[4436,4022],[1,-27],[11,-5]],[[4448,3990],[50,-28],[-17,-22],[-9,-32],[-31,-29],[-2,-22],[-39,-11],[-28,-29],[31,-12],[-9,-11],[40,-15],[-24,-38],[30,-12],[37,-2],[38,9]],[[4515,3736],[5,-36],[-39,-2],[-31,-17],[-3,-29],[-68,-15],[-31,-14]],[[4348,3623],[-29,-2],[-93,9],[-26,-4],[-77,17],[-56,-12],[-57,23],[-20,2],[-124,-6],[-36,-5],[-17,-54],[6,-25],[-90,-15],[-49,-13],[-158,-25],[-59,-6]],[[3149,4652],[31,10],[63,29],[46,32],[39,40]],[[3328,4763],[-28,54],[11,12],[-28,20],[-40,-1],[31,25],[-2,39],[37,0],[129,7]],[[3438,4919],[78,7],[65,10],[39,-22],[37,-7],[1,-10],[38,-4],[37,-12]],[[3733,4881],[16,-38],[33,-22],[28,-9]],[[3264,3601],[-29,-4],[-62,12],[-50,23],[-67,-3],[-6,4]],[[3050,3633],[-17,14],[-38,4],[-20,27],[-42,14],[-9,13],[10,17],[-33,26],[21,22],[-42,18],[-12,-3],[-45,14],[-38,26],[-68,21],[-28,3],[-51,19],[-64,16],[5,9],[-54,13],[-60,6],[-13,32]],[[2452,3944],[121,11],[121,-4],[101,27],[19,11],[12,21],[-28,15],[20,11],[-12,11],[57,27],[61,16],[17,15],[-21,23],[39,15],[14,13],[40,9],[-18,16],[-19,-1],[-25,20],[-23,3],[8,21],[28,16],[-15,13],[12,15],[-19,17],[11,26]],[[2452,3944],[-78,13],[-29,17],[-24,0],[-10,18],[-22,7],[-86,-8],[-34,13],[-27,20],[-68,30],[-27,23],[-10,30],[18,9],[47,-8],[-2,72],[-64,37],[16,28],[-29,20],[22,22],[-10,25],[-58,1],[-18,5],[36,13],[14,27],[-36,16],[-28,2],[-50,31],[-9,26],[-35,29],[-62,-2],[-26,12],[-11,19],[-46,30],[-129,27],[-37,-13],[-56,16],[-49,5],[-57,-8],[-71,6],[-60,10],[-51,4]],[[1196,4568],[7,35],[-19,14],[-2,26],[-37,17],[-13,17],[1,21],[-16,4],[9,24],[-20,7],[36,22],[52,18],[3,16],[21,-4],[46,7],[36,-5],[80,6],[21,20],[31,7],[64,2],[29,-9],[57,-7],[41,4],[3,38],[58,9],[32,-7],[33,-27],[72,-33],[42,7],[28,18],[-9,82],[-14,29],[51,12]],[[1919,4938],[13,-26],[36,-7],[35,-17],[28,-32],[43,-8],[30,-14],[5,-26],[30,-11],[-14,-27],[20,-4],[31,-25],[64,-24],[0,-15],[-22,-26],[28,-12],[6,-27],[29,-14],[16,-32],[80,-16],[36,-54],[24,-13],[39,-2],[18,-19],[59,-14],[34,-2],[51,-19],[68,-3]],[[3164,3513],[-46,-2],[-12,14],[-61,18],[-33,-4],[-19,-12],[-21,-29],[-29,-18],[-57,-10],[-40,0],[-66,-8],[-56,-18],[-51,-11],[-30,3],[-35,-10],[-49,-34],[25,-22],[49,-31],[11,-26],[27,-31],[-4,-34],[-12,-36],[27,-9],[-35,-12],[-28,-28],[-2,-39],[13,-27],[22,-20]],[[2652,3077],[-5,-16],[-58,-4],[-44,5],[-40,-8],[-22,-26],[-45,-25],[-12,-13],[8,-29]],[[2434,2961],[-31,5],[-34,31],[-39,20],[-66,21],[8,40],[-36,11],[-36,22],[-45,7],[-36,28],[15,44],[-69,-1],[-49,15],[-51,6],[-57,0],[-33,-14],[-44,3],[26,32],[8,36],[25,15],[-6,33],[9,24],[-18,19],[-61,4],[-40,-7],[-49,32],[-6,34],[25,26],[-14,29],[44,41],[-50,45],[3,18],[45,6],[-19,51],[-46,20],[-11,32],[7,12],[-33,7],[-38,27],[4,51],[-68,50]],[[1568,3836],[29,5],[51,-10],[42,15],[56,-6],[40,-13],[56,-4],[72,0],[70,-6],[50,13],[48,6],[56,-2],[64,-40],[35,-4],[51,-30],[14,2],[44,-20],[39,-10],[185,-7],[47,-9],[74,-2],[40,4],[0,-12],[32,-3],[18,15],[29,-33],[-13,-14],[51,-11],[2,-13],[30,-15],[38,2],[31,-9],[63,-1],[38,9]],[[1568,3836],[-38,31],[8,35],[-5,25],[17,43],[-9,46],[-31,10],[0,26],[18,16],[-33,12],[2,45],[-15,29],[-2,37],[7,24],[-11,29],[-35,23],[-8,30],[-35,11],[-23,22],[8,22],[36,20],[-1,11],[-37,25],[-11,19],[-42,25],[-14,26],[-49,14],[-15,25],[-54,51]],[[8869,7222],[18,-43],[-16,-21],[15,-46],[-41,-26],[103,-75],[36,-10],[24,-19],[93,-18],[20,-24],[-27,-20],[-25,-7],[-10,-28]],[[9059,6885],[-13,28],[-42,-1],[-19,23],[18,21],[-27,8],[-31,-14],[-24,5],[-24,-13],[-16,4],[-6,20],[-37,18],[-32,1],[9,13],[-48,32]],[[8767,7030],[8,17],[-28,51],[21,15],[28,5],[26,32],[15,45],[-3,31]],[[8834,7226],[35,-4]],[[9059,6885],[-16,-31],[16,-19],[-25,-9],[6,-16],[-35,-12],[-24,3],[-7,15],[-58,-12],[8,16],[-41,19],[-46,12]],[[8837,6851],[-13,29],[-79,-1],[-40,-16],[-60,-7],[-20,26],[-20,0],[-17,18],[-26,-2],[-27,-14],[-6,38]],[[8529,6922],[10,41],[18,17],[-37,28],[20,62]],[[8540,7070],[46,-12],[6,-18],[20,0],[37,-17],[118,7]],[[8837,6851],[-13,-13],[-3,-29],[-25,0],[-144,-29],[-15,-43],[-25,0],[-5,-15]],[[8607,6722],[-11,-12],[-76,2],[-62,27],[-9,20],[-74,-19],[-29,10],[-46,-3],[28,-33],[0,-14],[-27,6],[-38,31],[-27,10],[-42,33],[-20,6],[-63,-9],[-29,-11],[-9,16],[-71,-33],[-42,16],[-26,0],[-23,19],[-49,-14],[-55,-6],[-74,-31],[-16,21],[-6,65],[-10,12],[-63,-34],[-35,-33],[1,-10],[-92,-39],[-20,-1]],[[7492,6714],[15,29],[10,47],[-36,38],[37,5],[35,32],[20,6],[48,0],[-43,5],[-26,20],[-13,25],[-3,34],[-20,6],[-8,18],[20,14],[-6,54],[34,7],[46,-5],[56,0],[-12,-11],[43,-12],[33,4],[28,12],[88,13],[63,-3],[38,-11],[3,-11],[107,-25],[86,-26],[72,19],[23,2],[51,-17],[58,-4],[55,-26],[9,-13],[32,-8],[16,-19],[26,10],[52,-1]],[[9321,7614],[-32,-21],[-22,-1],[-19,-25],[-30,-7],[12,-36],[-31,-31],[-22,-6],[-3,-14],[-94,-18],[-54,-22],[-34,8],[-27,-4],[-28,-16],[-44,0],[-37,-9],[-16,8],[15,11],[-4,35],[-46,6],[-11,-20],[-46,-14],[-39,12],[-101,-4],[-74,6],[-26,16],[-65,11],[-33,-5],[-44,9],[-13,19],[8,15],[-32,22],[-35,-2],[-37,51],[-59,20],[-12,19],[-34,13],[-87,4],[-14,29],[-19,-4],[-33,-24],[-26,-3],[-34,6],[-14,17],[-33,5],[-37,29],[-8,-11],[-45,-11],[-27,2],[-35,-11],[-27,18],[-67,-17],[-37,0],[-50,-9],[-31,3],[-27,14],[-18,28],[-156,-55],[-40,8]],[[7287,7658],[4,20],[-43,5],[-17,27],[-27,2],[-49,-9],[-15,18],[-21,1],[-27,18],[-3,17],[-50,12],[-13,23],[24,3],[60,-9],[27,9],[27,28],[-48,39],[-21,5],[-44,25],[-18,36],[-21,18],[24,57]],[[7036,8003],[25,13],[1,45],[-19,57],[-23,15],[5,12],[45,20],[38,9],[3,13],[-53,40],[-17,6],[-10,41],[-16,10],[-12,26],[8,21],[51,-1],[39,19],[-4,13],[22,20],[49,19]],[[7168,8401],[74,-24],[7,-16],[50,2],[52,-11],[29,14],[55,9],[48,0],[19,19],[42,-10],[-11,-22],[22,-17],[3,-18],[63,-33],[30,-4],[-27,-31],[40,-28],[-14,-20],[5,-25],[-38,-18],[12,-20],[30,-8],[38,-23],[46,13],[26,-8],[56,1],[14,-10],[128,-17],[47,17],[32,-2],[14,-28],[45,-27],[19,7],[47,-12],[28,-1],[15,-13],[35,0],[16,21],[14,-1],[23,-23],[43,-12],[51,-7],[6,-20],[26,-19],[32,-12],[17,-20],[29,-15],[6,-22],[48,-56],[46,-20],[9,-15],[92,-29],[15,-19],[40,-9],[31,-16],[30,7],[17,-11],[58,-19],[60,-38],[45,11],[54,-14],[27,-22],[36,-16],[50,-2],[38,10],[48,21],[30,-20],[16,-30],[19,-6]],[[8834,7226],[-33,2],[-26,-15],[-29,-32],[-2,-16],[-38,-14],[-7,-15],[-88,-2],[-32,32],[-30,4],[-14,20],[-21,3],[-37,32],[-36,17],[-53,47],[7,19],[-34,17],[-62,-12],[-61,-1],[-17,14],[-59,17],[-12,11],[-80,17],[-11,17],[-48,14],[-12,30],[-22,7],[-47,1],[-75,12],[-40,12],[-9,15],[-54,22],[-28,27],[-33,2],[-18,-27],[-42,-28],[-43,18],[-24,18],[-43,2],[-54,18],[-36,3],[-44,19]],[[7387,7553],[2,22],[-59,12],[-44,-1],[-6,42],[10,4],[-3,26]],[[9321,7614],[14,-1],[26,-23],[38,4],[39,-22],[41,-3],[47,-60]],[[9526,7509],[-95,-52],[9,-8],[-17,-16],[-1,-33],[-30,-15],[-22,12],[-30,-21],[-13,-35],[-60,10],[-25,19],[-51,-26],[-107,-34],[-26,-18],[-67,-7],[-40,-12],[-7,-26],[8,-20],[-13,-10],[-70,5]],[[8540,7070],[-21,14],[-5,41],[-20,18],[-49,15],[-53,8],[-81,-1],[13,-19],[-8,-45],[-41,53],[-32,-2],[-48,-53],[-15,-5],[-55,23],[-34,4],[-47,29],[-45,17],[-34,-13],[-58,20],[-2,13],[-31,17],[-4,28],[-25,20],[-61,8],[-31,25],[-14,28],[-26,20],[-37,13],[-29,22],[-55,12],[-36,1],[-61,20],[-23,14],[-54,0]],[[7418,7415],[3,27],[-15,23],[-29,13],[-15,34],[25,41]],[[7492,6714],[-13,-1]],[[7479,6713],[-42,10],[-44,1],[-10,32],[-39,21],[-63,-12],[-51,20],[-32,-2],[0,12]],[[7198,6795],[-9,26],[12,19],[-6,34],[-13,12],[16,16]],[[7198,6902],[-9,20],[26,24],[59,1],[11,26],[26,0],[8,19],[27,23],[-3,39],[13,22],[-20,17],[30,12],[-1,42],[-32,46],[32,24],[41,16],[16,17],[-20,23],[-10,26],[10,8],[-12,67],[28,41]],[[9526,7509],[25,-6],[-4,-37],[-24,-28],[19,-10],[-8,-27],[-29,-9],[-21,-25],[-7,-26],[41,-9],[-7,-31],[6,-14],[24,-6],[66,17],[33,21],[53,11],[59,-29],[47,-31],[42,-1],[60,-29],[19,-14],[-5,-19],[44,-8],[40,-49],[-26,-25],[-22,-2],[-44,-22],[13,-35],[-3,-15],[-60,-15],[-11,-27],[-54,-18],[12,-23],[-1,-43],[-32,-13],[-10,-19],[17,-27],[24,-8],[-10,-34],[21,-19],[1,-29],[35,-4],[10,-26],[0,-29],[-31,-7]],[[9828,6710],[-54,3],[-18,-7],[-46,0],[-59,7],[-48,20],[-14,27],[-47,28],[7,36],[-24,16],[-20,-8],[-18,8],[-14,-22],[-22,1],[-28,15],[-23,0],[-71,25],[4,14],[-54,-6],[-8,6],[-52,-5],[-27,8],[-5,19],[-23,3],[-43,-8],[-46,6],[-16,-11]],[[7450,6319],[38,5],[23,24],[-5,36],[9,18],[75,37],[11,15],[-17,24],[31,16],[8,28],[33,17],[21,22],[1,20],[-60,3],[-51,25],[-34,25],[-29,10],[-28,52],[3,17]],[[8607,6722],[61,-35],[25,-25],[24,-13],[13,-20],[37,-16],[25,1],[12,14],[34,-6],[28,10],[24,-24],[-30,-21],[-1,-41],[40,-17],[-1,-9],[-49,-15],[-25,-26],[-41,-75],[7,-47],[52,-31],[4,-20],[-22,-19],[-5,-32],[-15,-24],[13,-36],[-22,-21],[32,-60],[-11,-12]],[[9828,6710],[-1,-16],[38,-27],[-3,-19],[19,-22],[-19,-21],[-29,-14],[9,-23],[0,-31],[-22,-13],[-10,-39],[-23,-30],[0,-21],[48,-35],[7,-26],[34,-5],[14,-15],[29,-5],[39,-34],[-63,-46],[-32,-15],[7,-28],[16,-11],[-5,-18],[-37,-15],[-6,-25],[27,-33],[-32,-4],[-68,34],[-18,15],[-44,12],[-62,-37],[-23,-8],[-72,-2],[-53,-7],[-56,-15],[-5,-34],[-28,-35],[8,-14],[-13,-27],[-16,-6]],[[7198,6795],[-46,5],[-117,-24],[-6,-24],[-61,-6],[-16,-16],[-46,-8],[-18,-31],[-36,-39],[-72,0],[-19,6],[-42,-2],[-44,4],[-28,-6],[-55,6],[-4,11],[-58,13],[-45,6],[-68,18],[-31,-5],[-21,7],[-37,-9],[-1,-10],[-58,-22],[-16,-16],[-9,-39],[6,-9],[-54,-17]],[[6196,6588],[-20,-1],[-103,7],[-146,37],[-24,11],[-35,-4],[-27,-11],[-124,-9],[-32,4],[-10,12],[-27,-5],[-35,12],[-43,7],[-16,-6],[-46,9],[-26,-2],[-3,20]],[[5479,6669],[52,31],[1,8],[-33,18],[6,28],[-14,19],[34,14],[-16,14],[-7,34],[14,12],[1,29],[55,-2],[36,6],[31,29],[54,15],[17,-2]],[[5710,6922],[9,-16],[57,-19],[1,-27],[15,-12],[36,-3],[20,37],[73,-17],[29,21],[51,-11],[17,-21],[29,-1],[9,15],[28,-12],[30,4],[56,-26],[36,4],[37,-5],[-7,-25],[20,10],[13,-12],[48,2],[6,-14],[24,9],[66,-22],[18,9],[52,-8],[15,10],[51,-3],[62,-12],[16,6],[29,-5],[21,10],[-3,33],[17,-4],[19,13],[-3,16],[39,-7],[30,9],[38,-12],[29,10],[6,-13],[49,7],[50,0],[37,14],[15,17],[43,7],[54,20],[63,-2],[38,6]],[[4976,5979],[23,5],[35,32],[1,24],[13,3],[-17,23],[12,18],[36,30],[4,48],[9,38],[18,17],[7,30],[-33,25],[-12,38],[11,32],[36,33]],[[5119,6375],[-10,7],[36,23],[2,49],[28,15],[-37,60],[-27,31],[9,35],[19,39],[17,15],[-3,28]],[[5153,6677],[98,-13],[15,8],[24,-6],[86,-2],[68,9],[35,-4]],[[6196,6588],[11,-16],[-41,8],[-33,-4],[-16,-15],[-20,0],[-18,13],[-71,-3],[-24,-17],[2,-61],[-15,-22],[-72,-11],[-23,-30],[-62,-24],[-7,-34],[17,-18],[-15,-21],[-6,-50],[-23,-39],[8,-21],[18,-12],[-45,-42],[-2,-36],[-16,-9],[83,-18],[22,-10],[-8,-22],[48,0],[16,-13],[-22,-19],[0,-40]],[[5710,6922],[-46,26],[19,29],[-7,19],[0,61]],[[5676,7057],[50,9],[74,36],[3,17],[-28,73],[8,17],[47,37],[56,22],[15,26],[-3,56],[-14,68],[59,44],[29,15],[13,25],[-7,11]],[[5978,7513],[24,21],[70,0],[18,-16],[108,-8],[21,4],[18,-15],[22,5],[108,-12],[17,5],[79,-7],[26,-10],[56,-5],[32,-12],[50,-3],[46,-11],[44,-35],[53,-10],[52,17],[32,2],[31,21],[76,8],[15,13],[24,2],[11,16],[65,1],[41,12],[88,5],[35,17],[26,2],[62,24],[32,-6],[27,15]],[[5676,7057],[-73,12],[-51,-19],[-31,3],[-65,21],[-92,8],[-47,17],[-23,-9]],[[5294,7090],[8,17],[-17,13],[30,22],[68,4],[-33,18],[-6,16],[-64,15],[-13,10],[43,69],[-63,22],[2,26],[-24,18],[66,50],[-29,33],[10,21],[-24,26],[10,37],[31,20]],[[5289,7527],[32,13],[11,17],[21,9],[3,14],[48,21],[11,25],[-21,13],[-8,31],[8,14],[-4,28],[13,15],[-6,35],[20,17],[37,8],[14,17],[-26,15],[6,30],[-9,16],[16,14]],[[5455,7879],[50,-8],[21,3],[28,-21],[17,-25],[56,-9],[24,-20],[32,-10],[5,-62],[-10,-5],[-63,8],[-48,-4],[3,-29],[21,-35],[90,-5],[98,4],[107,-7]],[[5886,7654],[-1,-29],[9,-15],[-26,-5],[-7,-26],[70,-51],[47,-15]],[[5886,7654],[23,12],[8,45],[-27,15],[66,39],[61,-7],[26,23],[54,16],[45,44],[-31,2],[39,15],[-39,4],[33,41]],[[6144,7903],[45,15],[31,-16],[37,1],[40,17],[-13,12],[48,40],[-10,34],[18,-2],[73,10],[55,-4],[75,17],[71,21],[24,-12],[18,-22],[85,9],[55,15],[61,-11],[150,-14],[29,-10]],[[5153,6677],[21,80],[32,31],[7,16],[-24,9],[45,45],[7,18],[-12,7],[-3,30],[12,10]],[[5238,6923],[-10,35],[15,17],[-10,11],[26,48],[35,32],[0,24]],[[6619,9348],[-11,-41],[9,-9],[-19,-35],[28,-24],[-20,-20],[17,-21],[30,-8],[11,-15],[10,-43],[25,-19],[6,-32],[-12,-14],[41,-20],[7,-23]],[[6741,9024],[-100,-16],[-68,-25],[-94,4],[-65,-9],[-65,1],[-43,7],[-115,5],[-74,18]],[[6117,9009],[-59,-9],[-280,8],[-111,-14],[-39,23],[-40,9],[-29,-4],[-15,15],[-26,4],[-51,-17],[-59,-8],[-35,2],[-65,26]],[[5308,9044],[22,14],[9,56],[29,13],[-9,25],[16,25],[-21,22],[18,41],[-8,4],[32,30],[53,-1],[24,36],[-14,17],[2,20],[27,32],[4,16]],[[5492,9394],[77,-1],[23,-21],[53,-32],[69,-23],[5,-11],[-23,-31],[14,-5],[72,10],[91,3],[41,8],[59,3],[131,1],[106,5],[49,-27],[31,1],[46,17],[33,19],[67,26],[183,12]],[[6117,9009],[-38,-21],[-42,-6],[-25,-26],[-60,-20],[10,-48],[-23,-11],[18,-19],[-3,-11],[27,-15],[-24,-13],[-5,-36],[1,-52],[-37,-24],[15,-17],[-14,-18],[26,-7],[-3,-23],[17,-13],[-27,-12],[41,-15],[2,-13]],[[5973,8589],[-29,0],[-109,28],[-64,6],[-162,5],[-84,-8],[-27,9],[-56,0],[2,28],[-40,9]],[[5404,8666],[9,27],[39,10],[10,45],[-5,11],[-45,4],[-38,55],[-29,16],[-64,10],[-12,8],[45,23],[6,52],[23,47],[0,29],[-35,41]],[[5973,8589],[-9,-7],[3,-71],[-20,-16],[14,-13],[41,-6],[-18,-29],[14,-30],[-51,-20],[23,-18],[-29,-19],[-16,6]],[[5925,8366],[-65,14],[-28,-4],[-48,11],[-45,1],[-28,-7],[-79,-9],[-78,-21],[-36,-15],[-41,-30],[-25,3],[-9,25],[-26,15],[-45,1]],[[5372,8350],[-27,28],[-43,5],[-48,-9],[-22,10],[-48,8],[-11,22],[18,7],[-10,38]],[[5181,8459],[24,-3],[12,17],[39,22],[24,4],[-5,22],[-20,27],[33,23],[-15,26],[36,28],[24,4],[71,37]],[[5455,7879],[24,27],[-18,19],[14,23],[-47,13],[-44,2],[-28,29],[7,37],[-31,41],[-26,9],[-26,22],[7,33],[-18,12],[11,11],[-5,22],[-17,13],[-28,3],[5,10],[-23,8],[-7,16],[44,21],[10,42],[52,35],[49,9],[12,14]],[[5925,8366],[-7,-31],[48,16],[40,-6],[42,-18],[44,-10],[56,3],[45,8],[31,22],[98,17]],[[6322,8367],[0,-46],[-9,-36],[-31,-16],[-16,-22],[-8,-34],[-13,-12],[8,-20],[-4,-41],[5,-54],[16,-18],[-2,-27],[-16,-14],[-29,-7],[-13,-34],[-44,-10],[-15,-63],[-7,-10]],[[6322,8367],[16,38],[-33,12],[-5,11],[32,16],[13,29],[-13,27],[7,10],[73,28],[0,11],[-42,34],[-39,12],[-65,2],[-34,12]],[[6232,8609],[16,39],[52,49],[37,24],[65,52],[10,15],[12,45],[-26,14],[7,12],[58,12],[96,33],[56,7],[43,-7],[79,-4],[53,-21]],[[6790,8879],[30,-2],[29,-15],[7,-15],[40,-18],[20,-27],[-2,-23],[13,-23],[63,-23],[56,-13],[9,-26],[-14,-30],[3,-17],[20,-15],[16,-49],[23,-35],[-15,-24],[19,-32],[30,-29],[39,-8],[-8,-54]],[[6741,9024],[18,-16],[-3,-26],[34,-23],[18,-26],[-1,-24],[-17,-30]],[[6232,8609],[-64,18],[-77,14],[-51,-22],[-36,-22],[-31,-8]],[[5492,9394],[39,22],[18,23],[43,-4],[8,20],[-20,22],[5,14],[36,31],[-25,22],[20,16],[-30,24],[33,27],[6,29],[-55,27],[-10,10],[38,7],[25,20],[-7,26],[-36,20],[0,36],[9,20],[-10,52],[4,14],[-29,13],[-70,54],[-6,36],[22,24],[34,-17],[56,-20],[63,-16],[89,0],[41,-17],[41,-2],[40,-21],[39,-6],[13,-17],[88,-11],[33,-18],[11,9],[45,-10],[7,11],[49,6],[34,-16],[78,-1],[40,13],[76,15],[60,-2],[-3,-20],[16,-18],[94,-5],[-12,-45],[-20,-48],[26,-30],[38,-11],[15,-24],[48,-9],[8,-65],[-15,-10],[-22,-39],[-15,-6],[-10,-27],[-20,-27],[4,-21],[27,-13],[7,-59],[20,-43],[-4,-11]],[[2833,2125],[21,-14],[58,-16],[1,-31],[41,-25],[-3,-13],[-24,-6],[-42,-23],[42,-22],[16,0],[38,-22],[116,-38],[20,-12],[18,-50],[61,-35],[16,-15],[36,-4],[32,-20],[28,0]],[[3308,1779],[8,-8],[-13,-30],[-42,-18],[-26,-28],[-15,-41],[-52,-36]],[[3168,1618],[-41,27],[-43,3],[-28,14],[-10,26],[-22,9],[11,19],[-77,25],[-17,14],[-32,-9],[-21,8],[-43,-5],[-52,18],[-67,7],[-58,-4],[20,-14],[-10,-12],[-41,-19],[-15,-31],[-39,-12],[-29,0],[-60,56],[4,20],[-22,15],[22,16],[-52,126]],[[2446,1915],[16,9],[16,50],[47,57]],[[2525,2031],[74,-5],[30,9],[24,27],[-21,15],[-11,41],[73,37],[67,-24],[72,-6]],[[2867,1408],[-24,-27],[13,-11],[-2,-24],[-50,-28],[-5,-18],[73,-11],[46,-15],[61,-6],[64,-22],[37,-26],[9,-28],[-54,-28],[-31,-3],[-39,-34],[-12,-44],[-36,-4],[-31,-14],[-9,-18],[15,-22],[65,-2],[23,-10],[1,-28],[-15,-10],[3,-66]],[[2969,909],[-36,-10],[-57,-7],[-36,1],[-47,11],[-24,-4],[-66,-42],[-24,-23]],[[2679,835],[-26,53],[5,29],[-27,26],[-4,33],[-12,11],[-78,14],[-35,15],[-25,21],[8,30],[-8,8],[-96,26],[-55,-2],[-6,11],[30,33],[23,52],[-53,28],[2,19],[22,21],[2,49],[21,16],[-80,18],[-39,33]],[[2248,1379],[87,4],[17,9],[-28,17],[16,23],[53,23],[23,23],[-20,16]],[[2396,1494],[-1,27],[45,-6],[45,-21],[19,10],[56,-7],[59,-18],[30,1],[27,11],[56,-12],[84,2],[21,5],[36,-18],[-6,-60]],[[2833,2125],[5,15],[27,13],[-9,21],[-37,-12],[-56,33],[-13,14],[24,7],[36,-12],[40,14],[42,0],[40,14],[42,1],[67,-8],[53,14],[8,39],[58,36],[16,29],[57,32],[-18,32],[11,39],[70,30],[46,6],[10,32],[-8,4],[58,26],[27,35],[22,5]],[[3451,2584],[30,0],[32,-15],[8,-19],[44,-20],[33,16],[79,10],[23,10],[47,4],[42,-3],[27,-16],[38,-5],[42,21],[16,0]],[[3912,2567],[53,-49],[49,-24],[6,-27],[-14,-25],[15,-18],[-17,-9],[6,-19],[-24,-10],[1,-32],[23,-17],[49,-4],[-8,-28],[-42,-19],[17,-13],[-2,-26],[62,-28],[-16,-40]],[[4070,2179],[-31,-25],[-61,-26],[-87,-30],[-25,-18],[-42,-16],[-5,-11],[-69,-29],[-43,-28],[-23,-34],[17,-11],[-22,-15],[-34,0],[-93,19],[-46,-7],[-45,-18],[-37,-46],[16,-42],[-29,-24],[-74,-21],[-29,-18]],[[4070,2179],[99,31],[24,13],[24,-1],[25,17],[47,12],[61,30],[68,-1],[13,-7],[80,-4],[55,7],[55,29],[19,32],[-22,9],[8,17],[48,23],[14,16],[28,5],[37,-5],[16,-16],[40,-18],[-16,-31],[-24,-24],[-6,-35],[12,-56],[-19,-4],[-19,-31],[23,-27],[16,-5],[8,-27],[-36,-18],[-8,-29],[-44,-23],[-29,-5],[-47,-22],[-41,0],[-12,-37],[-13,-9],[19,-64],[-23,-32],[8,-23],[22,-6],[-10,-17],[45,-23],[-16,-5],[10,-40],[-38,1],[-58,20],[-8,28],[-124,0],[-34,-19],[-21,-20],[4,-28],[24,-10],[-18,-5],[-40,-36],[5,-24],[-24,-16],[18,-17],[71,-10],[47,4],[7,-14],[41,-14],[-34,-40],[-7,-25],[16,-35],[47,-38],[6,-22]],[[4489,1455],[-38,-1],[-98,-16],[-60,4],[-36,-15],[-49,4],[-25,9],[-84,-2],[-37,15],[-54,-1],[-11,-7],[-41,5],[-58,-2],[1,21],[-54,6],[8,19],[-34,9],[-53,-29],[-88,-22],[-49,-17],[-41,-4],[-13,-8],[-87,-17],[-50,-1],[-57,-7],[-21,11],[-34,43],[-18,68],[-48,20],[-28,43],[-32,23],[-32,12]],[[2867,1408],[27,11],[4,14],[49,23],[-1,34],[16,43],[31,36],[34,-1],[64,30],[77,20]],[[4489,1455],[-65,-29],[-64,-5],[-17,-8],[11,-11],[-18,-15],[-13,-34],[22,-17],[-26,-29],[10,-32],[-27,-39],[-42,-1],[-27,-11],[-9,-19],[6,-20],[60,-38],[29,-10],[-29,-29],[23,-11],[29,-27],[42,1],[53,-34],[21,-7],[41,2],[5,-39],[-15,-21],[-63,-9],[-15,-30],[-20,-12],[8,-37],[21,-47],[14,-8],[74,2],[24,-38],[24,-4],[10,-15],[43,-15],[15,-18],[98,-2],[20,-13],[-2,-39],[21,-10],[7,-40],[21,-27],[4,-65],[-38,-21],[-66,-31],[-36,-25],[-20,13],[-15,-11],[11,-15],[-22,-36],[-19,-5],[-4,-21],[8,-28],[-5,-33],[13,-16],[-4,-24],[17,-13],[8,-38],[-18,-32],[-41,-4],[-37,10],[-23,-3],[35,-46],[-11,-16],[-31,-14],[-2,-29],[-31,-5],[-32,17],[-23,1],[-33,-23],[-50,-2],[16,-26],[-7,-11],[-46,5],[-26,-4],[-84,7],[-31,-36],[-11,-23],[-17,-7],[-80,7],[-75,16],[-22,40],[-11,8],[13,38],[-26,3],[-63,53],[-15,32],[-57,28],[-24,2],[-47,21],[-20,16],[4,11],[-26,7],[-53,-8],[-28,7],[-23,-5],[-26,15],[-94,3],[-43,11],[-46,64],[-6,25],[25,7],[-28,18],[1,24],[-24,15],[-9,20],[-51,0],[-6,37],[-24,13],[-51,41],[9,24],[0,43],[-54,14],[-5,32],[6,42],[18,48],[16,22],[-40,85],[-43,17],[-37,8],[-44,-1],[-40,6]],[[2446,1915],[-70,-39],[-39,5],[-37,14],[-85,-10],[-22,-14],[-50,-53],[12,-26],[-22,-21],[-28,-2],[-29,-19],[1,-31],[38,-49],[-20,-24]],[[2095,1646],[-27,4]],[[2068,1650],[-113,17],[-77,24],[-30,30],[-53,7],[-63,26],[-48,12],[-21,-1],[-35,19],[-21,1],[-32,-18],[-24,4],[3,13],[-24,11],[5,16],[-65,4],[-25,20],[-42,-2],[-42,7]],[[1361,1840],[43,46],[37,16],[-5,13],[28,38],[-10,14],[17,13],[-10,36],[-11,5],[-6,40],[12,34],[29,17],[-22,48],[16,5],[10,38],[32,6],[49,18],[43,-1],[51,24],[3,11],[-35,18],[11,36],[-18,16],[11,25],[-7,15],[22,40],[50,14],[97,-5]],[[1798,2420],[68,-28],[48,-39],[-26,-23],[3,-12],[40,-24],[-4,-28],[14,-29],[20,-10],[48,-6],[61,4],[45,-14],[12,-11],[78,-13],[51,-22],[44,-9],[14,-10],[36,-1],[68,-30],[5,-14],[38,-16],[40,-43],[24,-11]],[[2652,3077],[32,15],[23,1],[51,-39],[31,-35],[-15,-34],[25,-44],[-6,-17],[13,-18],[32,-18],[49,-6],[39,-24],[44,-9],[2,-11],[37,-17],[66,-19],[10,-13],[55,-15],[8,-21]],[[3148,2753],[23,-31],[32,-16],[31,-28],[85,-30],[58,-4],[19,-9],[64,-13],[-9,-38]],[[1798,2420],[20,18],[-16,15],[47,23],[13,30],[-2,36],[26,9],[30,-7],[41,1],[14,14],[-34,9],[26,19],[-62,28],[2,32],[-35,0],[-24,7],[-7,49],[-46,41],[54,16],[52,2],[51,12],[43,-14],[60,22],[62,-17],[30,-18],[59,1],[43,-25],[35,8],[25,-4],[59,7],[-2,19],[-34,3],[26,30],[-28,8],[-15,22],[-27,8],[-5,15],[-40,44],[33,15],[45,3],[32,-5],[60,-1],[28,19],[5,30],[-8,17]],[[2396,1494],[-50,30],[-22,24],[-25,13],[-13,22],[-32,18],[-87,36],[-72,9]],[[1340,1836],[-33,-15],[25,-7],[-84,-34],[-25,-17],[-47,-17],[9,-68],[-50,-8],[-31,1],[-16,-31],[29,-14],[0,-30],[36,-20],[2,-20],[36,-40],[36,-10],[24,-17],[39,-17],[59,-35],[53,-9],[45,-20],[99,-25]],[[1546,1383],[-71,-24],[38,-23],[49,4],[23,7],[44,-1],[6,-24],[51,-41],[119,-3],[49,-38],[60,0],[49,4],[74,-6],[35,7],[36,-3],[-1,18],[17,16],[45,4]],[[2169,1280],[5,-5],[-30,-41],[-24,-8],[52,-27],[-2,-11],[-41,-19],[-50,-4],[-57,-18],[-37,1],[9,-28],[79,-3],[-11,-25],[-61,0],[9,-29],[21,-9],[4,-46],[36,-29],[-64,-18],[-99,-17],[-4,-10],[45,-19],[37,-26],[-71,-6],[-49,-8],[-27,6],[-18,-9],[14,-36],[105,-12],[-18,-14],[-62,-3],[-4,-21],[13,-30],[2,-36],[-9,-17]],[[1862,703],[-30,-7],[-39,26],[-55,25],[-76,29],[-22,-1],[-57,-16],[0,13],[-45,-5],[-38,8],[-11,24],[-65,25],[-32,5],[-53,-15],[-9,11],[-35,9],[14,13],[-7,15],[-38,10],[-24,18],[-18,38],[-86,1],[-72,15],[-10,8],[19,29],[-27,10],[-29,27],[-18,27],[-35,11],[-22,27],[-47,16],[9,14],[-17,16],[-18,-2],[-11,21],[-54,37],[-54,-14],[-38,0],[-51,9],[-29,-16],[-23,38],[-16,13],[-28,-15],[-39,-11],[-68,11],[5,16],[-52,-1],[12,40],[-26,8],[-24,31],[28,14],[-28,19],[12,36],[-50,25],[19,30],[5,29],[-23,20],[-75,14],[-40,34],[-10,30],[2,36],[-16,26],[9,26],[24,21],[-5,20],[21,29],[-73,15],[-111,17],[-6,56],[-56,16],[15,17],[-8,13],[29,43],[-29,26],[55,11],[46,19],[17,26],[26,7],[31,-5],[24,40],[34,-6],[79,-31],[60,14],[87,-13],[16,15],[34,12],[50,-5],[37,-20],[59,-6],[75,8],[29,8],[117,-42],[15,9],[52,4],[27,-22],[30,-12],[31,-33],[43,-1],[30,-32],[84,-2],[62,-9],[17,11],[66,-15]],[[2068,1650],[-122,-60],[-63,-37],[-174,-87],[-57,-34],[-106,-49]],[[1340,1836],[21,4]],[[2248,1379],[-126,3],[-36,-11],[8,-21],[40,-7],[-18,-24],[3,-13],[24,-22],[26,-4]],[[2679,835],[-48,-33],[24,-29],[-25,-27],[-23,-11],[-61,-19],[-6,-17],[-66,-34],[-82,-15],[-34,-61],[-74,-15],[-38,3],[-9,13],[-30,10],[-67,77],[-39,26],[-57,3],[-70,18],[-36,-4],[-35,12],[-24,-27],[-17,-2]],[[5974,4652],[-80,-27],[2,-32],[56,-47],[10,-23],[-2,-26],[-42,-38],[-12,-34],[-43,-41],[-57,-62]],[[5806,4322],[-69,-48]],[[5737,4274],[-8,-7],[6,-34],[-30,-7],[-20,-18],[-27,3],[-45,-21],[-28,-7],[-6,-23],[11,-10],[-18,-20]],[[5572,4130],[-42,8],[-25,16],[-53,18],[13,21],[-30,26],[-45,-9],[-84,20],[34,19],[2,10],[-27,8],[-77,9],[-28,-15],[-40,21],[-24,-14],[-88,24],[-15,17],[-33,11]],[[5010,4320],[39,39],[18,6],[-42,44]],[[5572,4130],[-57,-38],[-8,-53],[-19,-41],[-47,-23]],[[5441,3975],[-18,-8],[-33,1],[-55,-13],[-28,9],[-40,-1],[-56,21],[-24,4],[-32,17],[7,13],[-14,16],[3,20],[-14,21]],[[5137,4075],[-12,15],[-39,17],[-54,16],[-68,55],[-21,12],[-110,18],[-37,26]],[[4796,4234],[51,9],[15,-3],[46,17],[23,17],[0,38],[43,2],[14,-11],[22,17]],[[4436,4022],[39,17],[11,19],[71,38],[36,0],[23,27],[46,18],[17,17],[33,14],[-4,42],[45,-3],[43,23]],[[5137,4075],[-14,-15],[-53,-3],[-45,9],[-7,13],[-64,-8],[-18,-15],[-35,10],[13,27],[-32,2],[-8,-11],[-55,-32],[-61,7],[-39,21],[-46,-2],[-12,-11],[-45,-13],[-42,-42]],[[4574,4012],[-126,-22]],[[5441,3975],[57,-21],[13,-11],[91,-24],[41,-3],[80,-17],[49,-19],[15,-16],[31,-8],[40,-40]],[[5858,3816],[-44,-33],[-61,-19],[-22,2],[-74,-16],[-3,-8],[34,-30],[-4,-21],[27,-18],[0,-22],[26,-16],[-118,-42],[-31,-22],[-34,0],[-37,-14]],[[5517,3557],[-22,16],[-16,32],[-16,11],[-5,21],[-26,35],[-38,16]],[[5394,3688],[-46,48],[-37,10],[-12,37],[-19,5],[-1,32],[-35,50],[-19,3],[-35,25],[-31,6],[-2,19],[-45,13],[-162,-7],[-139,-17],[-46,4],[-63,18],[-64,39],[-32,2],[-21,34],[-11,3]],[[5394,3688],[-83,-19],[-28,-17],[-77,13],[-13,8],[-48,8],[-20,11],[-49,-1],[-27,22],[-46,3],[-12,10],[-41,12],[-62,8],[-107,8],[-34,-19],[-45,-12],[-61,0],[11,19],[-83,4],[-54,-10]],[[5806,4322],[217,-82],[71,-14],[51,-2],[29,12],[36,-22],[-14,-8],[25,-30],[44,0],[39,-11],[86,2],[45,-9],[48,-18],[24,-4],[50,-22],[43,-12],[27,7],[70,-15],[48,-26],[139,3]],[[6884,4071],[-27,-50],[-61,-35],[-32,-54],[-23,-8],[-2,-16],[-28,7],[-56,-13],[-39,7],[-30,-15],[-60,-3],[-31,-15],[19,-28]],[[6514,3848],[-113,2],[-40,-3],[-71,40],[2,32],[-56,17],[-20,19],[-2,28],[-16,11],[-44,14],[-30,31],[-60,30],[-27,23],[-25,37],[-68,67],[-61,5],[-54,11],[-39,16],[-53,46]],[[7322,4466],[-16,-10],[-13,-28],[-21,-5],[-21,-23],[-34,-17],[-15,-18],[-31,-19],[-12,-20],[-106,-66],[-40,-36],[19,-17],[-15,-28],[61,-30],[-17,-13],[-40,-2],[-66,-39],[-58,-12],[-13,-12]],[[6514,3848],[-2,-6],[-58,-17],[-32,-27],[-64,-9],[-28,-9],[-75,-3],[-68,51],[-7,20],[-66,-5],[-57,25],[-28,5],[-30,-7],[-28,-29],[-42,-26],[-40,-3],[-31,8]],[[5517,3557],[-31,-10],[-17,-17],[-3,-39],[-25,-17],[-76,-12],[-12,5],[-33,-11],[-37,-35],[-42,-2],[-82,-22],[-9,-22],[-77,-39],[-44,-3],[-42,-26],[-24,-28],[-2,-17],[-104,-35],[-18,3]],[[4839,3230],[-38,9],[-22,-4],[-28,20],[-55,14],[-2,15],[-59,25],[-44,7],[-82,3],[-3,15],[-118,35],[-50,-3],[-22,5]],[[4316,3371],[-12,60],[25,16],[-10,8],[-46,1],[-77,15],[12,34],[34,1],[7,9],[54,-4],[38,18],[-7,16],[29,35],[-10,19],[15,23],[-20,1]],[[3148,2753],[7,14],[-11,35],[22,8],[0,16],[73,-4],[13,13],[-8,24],[46,-7],[24,23],[-20,22],[-33,3],[-18,33],[44,-8],[57,7],[7,19],[52,2],[66,66],[11,28],[30,9],[42,-27],[30,5],[15,21],[-11,26],[25,40],[32,2],[11,11],[-34,27],[5,10]],[[3625,3171],[18,22],[-8,23],[15,8],[17,-13],[27,15],[-4,-14],[20,-7],[61,15],[46,-2],[10,8],[70,9],[32,13],[27,21],[35,9]],[[3991,3278],[1,-18],[-13,-54],[-53,-128],[-7,-37],[9,-26],[37,-5],[-2,-11],[40,-2],[39,-24],[29,-10],[53,-6],[61,-49],[20,-29],[98,-20]],[[4303,2859],[-29,-28],[-1,-22],[-33,-17],[-32,0],[-23,-20],[-71,-18],[7,-31],[-57,-59],[-9,-21],[-46,-21],[-26,-18],[-44,-11],[-27,-26]],[[4839,3230],[9,-16],[-44,-57],[-18,-9],[6,-15],[-23,-23],[-43,-4],[-1,-16],[-46,-29],[-47,0],[-42,-20],[-32,-39],[-27,-6],[-21,-21],[-36,0],[-72,-28],[-5,-19],[-40,-13],[-22,-34],[-19,1],[-13,-23]],[[3991,3278],[165,47],[144,44],[16,2]],[[3625,3171],[-10,10],[10,23],[-16,4],[-19,23],[-66,26],[-23,25],[-30,13],[-51,2],[-19,18],[-1,22],[-55,6],[-41,19],[-9,39],[-32,15],[0,26],[13,24],[-21,6],[-6,20]],[[3673,5322],[39,-35],[-17,-44],[68,-10],[99,-46],[47,-27],[4,-8],[41,-11],[51,-34],[34,1],[85,-58]],[[4124,5050],[-23,-19],[13,-36],[-33,-58],[-122,9],[-118,18]],[[3841,4964],[2,10],[-40,35],[-21,0],[-29,16],[-3,25],[-22,30],[-32,17],[-32,1],[-32,9],[-18,32],[38,24],[-15,21],[-25,9],[19,49],[-79,24],[-70,53],[4,23],[15,3],[-4,29]],[[3497,5374],[20,-2],[50,-25],[24,-24],[42,-26],[40,25]],[[4239,5015],[-115,35]],[[3673,5322],[44,-14],[8,-16],[27,-10],[50,-2],[19,-16],[61,-1],[24,-17],[41,-12],[67,2],[35,-15],[27,33],[-1,14],[-31,33],[4,15],[-16,17],[-12,44],[1,25]],[[1919,4938],[3,14],[29,-4],[11,17],[-16,28],[10,9],[70,10],[117,-4],[43,10],[-11,33],[13,6],[5,26],[29,7],[23,20],[-3,20],[46,0],[12,7],[19,35],[-5,44],[19,10],[-26,9],[-5,33],[9,18],[28,-1]],[[2339,5285],[38,-51],[64,-53],[74,-46],[6,-12],[27,-2],[3,-21],[35,-17],[1,-8],[55,-48],[33,-34],[48,-23],[30,-2],[34,-18],[45,-5],[40,-20],[58,0],[9,-11],[-4,-29],[52,-58],[28,-10],[38,-26],[83,-5],[87,-37],[27,5],[15,-8],[63,17]],[[3733,4881],[15,69],[52,-4],[41,18]],[[3438,4919],[-25,14],[-38,8],[-62,21],[-62,37],[-55,27],[-104,25],[-61,-3],[-36,8],[-55,23],[-62,13],[6,27],[-43,34],[-9,21],[-19,4],[-30,30],[-7,31],[-20,13],[-17,30],[-58,9],[-30,31],[-45,12],[-42,-10],[-13,24],[48,25],[1,10],[-45,22],[-24,23]],[[2531,5428],[19,16],[-7,19],[15,29],[29,17],[58,9],[39,15],[52,1],[20,23],[35,19],[28,25],[50,15],[8,15],[-18,24],[13,7],[1,36],[16,7],[-4,23],[31,37],[30,8],[24,23],[47,20],[4,20],[42,0],[42,-8],[34,4],[75,19],[37,-13],[2,-19],[100,-18],[36,10]],[[3389,5811],[14,-20],[-9,-44],[-31,-37],[-35,-22],[55,-14],[36,-30],[-1,-41],[-14,-24],[20,-13],[5,-31],[-20,-28],[11,-25],[-5,-54],[84,-38],[-2,-16]],[[2339,5285],[104,49],[42,14],[6,15],[-15,16],[18,13],[-1,22],[38,14]],[[5238,6923],[-61,11],[-24,-3],[-56,7],[-32,39],[-2,15],[-141,2],[-179,63],[-93,-12],[-22,-9],[-43,4],[-66,-47],[-59,-19],[0,-13],[-31,-19],[-64,9],[-16,-7],[-62,3],[-34,14],[-47,-5],[-41,3],[-63,17],[-60,5],[-27,-6],[-71,22]],[[3944,6997],[-1,27],[-16,25],[-25,20],[6,25],[33,21],[-6,19],[-33,14],[-18,52],[-39,12],[1,20],[-17,11],[1,42],[-35,27],[17,24],[-36,33],[16,26],[0,22]],[[3792,7417],[29,-9],[15,-32],[-7,-17],[71,-10],[37,-18],[12,-19],[32,-3],[62,-43],[71,-12],[70,39],[63,25],[-4,10],[-68,19],[30,23],[45,19],[36,34],[33,13],[32,-1],[55,-14],[24,-17],[64,-14],[40,-5],[17,-22],[71,-33],[32,-21],[38,-5],[64,-22],[19,-17],[48,-16],[28,-26],[34,1],[10,-10],[71,-35],[12,-21],[29,-19],[17,-24],[54,-9],[53,2],[16,-14],[28,-3],[19,-14],[11,12],[44,-3],[16,22],[29,-18]],[[5119,6375],[-84,19],[-9,-16],[-49,-12],[-200,-17],[-9,-4],[-57,20],[-24,1],[-26,25],[-32,18],[-93,21],[-44,-9],[-69,24],[-51,-7],[-58,1],[6,25],[-36,21],[21,40],[43,33],[-42,0],[-44,19],[-109,-28],[-23,-15],[-70,-2],[6,20],[-44,8],[-57,33],[-38,-8],[-108,22],[-43,-19],[-18,-29]],[[3758,6559],[-16,4],[-56,37],[-50,15],[11,13],[-18,13],[-7,21],[-34,23],[78,41],[-25,37],[67,19],[9,16],[-21,26],[32,12],[10,19],[21,10],[-5,27],[12,29],[36,4],[61,43],[41,7],[40,22]],[[3799,6210],[-26,14],[13,31],[-26,18],[31,7],[36,24],[15,30],[-33,28],[-40,7],[-7,13],[-43,-7],[-57,-1],[-76,18],[31,36],[-31,3],[13,19],[-12,27],[29,25],[17,29],[38,2],[38,-6],[49,32]],[[3792,7417],[6,7],[59,12],[23,10],[84,24],[51,27],[58,48],[-15,14],[46,29],[-42,19],[8,36],[-27,21],[11,14],[-17,12],[4,19],[-19,12],[-29,36],[59,57],[14,44],[-20,36],[-74,36],[22,39],[-12,26],[15,14],[-5,23],[14,20],[33,19],[55,11],[16,16],[89,13],[16,10],[132,3],[15,14],[39,12],[62,-3],[8,8]],[[4471,8155],[11,-37],[27,-4],[25,-16],[2,-17],[20,-17],[44,-7],[-10,-10],[31,-12],[25,0],[21,-21],[59,-16],[16,-33],[36,-9],[8,-11],[-13,-22],[-61,-16],[-40,-22],[-9,-28],[77,-52],[-20,-10],[-17,-31],[22,-24],[-30,-40],[7,-25],[49,-26],[8,-22],[21,-11],[102,-13],[24,-14],[45,15],[29,-6],[36,-36],[75,-22],[44,-18],[58,2],[44,11],[52,-8]],[[4471,8155],[24,28],[29,9],[5,13],[35,14],[35,24],[36,7],[31,20],[23,0],[29,29],[29,12],[26,21],[12,28],[19,11],[36,63],[69,11],[17,16],[42,-12],[43,16],[45,-6],[41,1],[28,13],[22,-20],[34,6]]],"transform":{"scale":[0.00012460695489548897,0.00022123835623562546],"translate":[98.88004921000004,17.205495378000023]},"objects":{"Lampang":{"type":"GeometryCollection","geometries":[{"arcs":[[0,1,2,3,4,5]],"type":"Polygon","properties":{"Shape_Leng":0.100079931378,"Shape_Area":0.000282322451114,"ADM3_EN":"Wiang Nuea","ADM3_TH":"เวียงเหนือ","ADM3_PCODE":"TH520101","ADM2_EN":"Mueang Lampang","ADM2_TH":"เมืองลำปาง","ADM2_PCODE":"TH5201","ADM1_EN":"Lampang","ADM1_TH":"ลำปาง","ADM1_PCODE":"TH52","ADM0_EN":"Thailand","ADM0_TH":"ประเทศไทย","ADM0_PCODE":"TH"}},{"arcs":[[-2,6,7,8]],"type":"Polygon","properties":{"Shape_Leng":0.0529395732322,"Shape_Area":0.000154640516961,"ADM3_EN":"Hua Wiang","ADM3_TH":"หัวเวียง","ADM3_PCODE":"TH520102","ADM2_EN":"Mueang Lampang","ADM2_TH":"เมืองลำปาง","ADM2_PCODE":"TH5201","ADM1_EN":"Lampang","ADM1_TH":"ลำปาง","ADM1_PCODE":"TH52","ADM0_EN":"Thailand","ADM0_TH":"ประเทศไทย","ADM0_PCODE":"TH"}},{"arcs":[[-3,-9,9,10]],"type":"Polygon","properties":{"Shape_Leng":0.04920651262,"Shape_Area":0.000130983959963,"ADM3_EN":"Suan Dok","ADM3_TH":"สวนดอก","ADM3_PCODE":"TH520103","ADM2_EN":"Mueang Lampang","ADM2_TH":"เมืองลำปาง","ADM2_PCODE":"TH5201","ADM1_EN":"Lampang","ADM1_TH":"ลำปาง","ADM1_PCODE":"TH52","ADM0_EN":"Thailand","ADM0_TH":"ประเทศไทย","ADM0_PCODE":"TH"}},{"arcs":[[-4,-11,11,12,13,14]],"type":"Polygon","properties":{"Shape_Leng":0.0952641882121,"Shape_Area":0.000390619737662,"ADM3_EN":"Sop Tui","ADM3_TH":"สบตุ๋ย","ADM3_PCODE":"TH520104","ADM2_EN":"Mueang Lampang","ADM2_TH":"เมืองลำปาง","ADM2_PCODE":"TH5201","ADM1_EN":"Lampang","ADM1_TH":"ลำปาง","ADM1_PCODE":"TH52","ADM0_EN":"Thailand","ADM0_TH":"ประเทศไทย","ADM0_PCODE":"TH"}},{"arcs":[[-8,15,16,17,18,19,-12,-10]],"type":"Polygon","properties":{"Shape_Leng":0.496793673876,"Shape_Area":0.00742328620638,"ADM3_EN":"Phrabat","ADM3_TH":"พระบาท","ADM3_PCODE":"TH520105","ADM2_EN":"Mueang Lampang","ADM2_TH":"เมืองลำปาง","ADM2_PCODE":"TH5201","ADM1_EN":"Lampang","ADM1_TH":"ลำปาง","ADM1_PCODE":"TH52","ADM0_EN":"Thailand","ADM0_TH":"ประเทศไทย","ADM0_PCODE":"TH"}},{"arcs":[[-13,-20,20,21,22]],"type":"Polygon","properties":{"Shape_Leng":0.35484223387,"Shape_Area":0.00276453357222,"ADM3_EN":"Chomphu","ADM3_TH":"ชมพู","ADM3_PCODE":"TH520106","ADM2_EN":"Mueang Lampang","ADM2_TH":"เมืองลำปาง","ADM2_PCODE":"TH5201","ADM1_EN":"Lampang","ADM1_TH":"ลำปาง","ADM1_PCODE":"TH52","ADM0_EN":"Thailand","ADM0_TH":"ประเทศไทย","ADM0_PCODE":"TH"}},{"arcs":[[-19,23,24,25,-21]],"type":"Polygon","properties":{"Shape_Leng":0.478016674048,"Shape_Area":0.00504025345841,"ADM3_EN":"Kluai Phae","ADM3_TH":"กล้วยแพะ","ADM3_PCODE":"TH520107","ADM2_EN":"Mueang Lampang","ADM2_TH":"เมืองลำปาง","ADM2_PCODE":"TH5201","ADM1_EN":"Lampang","ADM1_TH":"ลำปาง","ADM1_PCODE":"TH52","ADM0_EN":"Thailand","ADM0_TH":"ประเทศไทย","ADM0_PCODE":"TH"}},{"arcs":[[-14,-23,26,27,28,29]],"type":"Polygon","properties":{"Shape_Leng":0.25162111717,"Shape_Area":0.00275781712099,"ADM3_EN":"Pong Saen Thong","ADM3_TH":"ปงแสนทอง","ADM3_PCODE":"TH520108","ADM2_EN":"Mueang Lampang","ADM2_TH":"เมืองลำปาง","ADM2_PCODE":"TH5201","ADM1_EN":"Lampang","ADM1_TH":"ลำปาง","ADM1_PCODE":"TH52","ADM0_EN":"Thailand","ADM0_TH":"ประเทศไทย","ADM0_PCODE":"TH"}},{"arcs":[[30,31,32,33,34]],"type":"Polygon","properties":{"Shape_Leng":0.639591709621,"Shape_Area":0.0180907190184,"ADM3_EN":"Ban Laeng","ADM3_TH":"บ้านแลง","ADM3_PCODE":"TH520109","ADM2_EN":"Mueang Lampang","ADM2_TH":"เมืองลำปาง","ADM2_PCODE":"TH5201","ADM1_EN":"Lampang","ADM1_TH":"ลำปาง","ADM1_PCODE":"TH52","ADM0_EN":"Thailand","ADM0_TH":"ประเทศไทย","ADM0_PCODE":"TH"}},{"arcs":[[-32,35,36,37,38,39]],"type":"Polygon","properties":{"Shape_Leng":0.503010366067,"Shape_Area":0.00825746226905,"ADM3_EN":"Ban Sadet","ADM3_TH":"บ้านเสด็จ","ADM3_PCODE":"TH520110","ADM2_EN":"Mueang Lampang","ADM2_TH":"เมืองลำปาง","ADM2_PCODE":"TH5201","ADM1_EN":"Lampang","ADM1_TH":"ลำปาง","ADM1_PCODE":"TH52","ADM0_EN":"Thailand","ADM0_TH":"ประเทศไทย","ADM0_PCODE":"TH"}},{"arcs":[[-1,40,41,-38,42,-16,-7]],"type":"Polygon","properties":{"Shape_Leng":0.418847852527,"Shape_Area":0.00736094998994,"ADM3_EN":"Phichai","ADM3_TH":"พิชัย","ADM3_PCODE":"TH520111","ADM2_EN":"Mueang Lampang","ADM2_TH":"เมืองลำปาง","ADM2_PCODE":"TH5201","ADM1_EN":"Lampang","ADM1_TH":"ลำปาง","ADM1_PCODE":"TH52","ADM0_EN":"Thailand","ADM0_TH":"ประเทศไทย","ADM0_PCODE":"TH"}},{"arcs":[[-39,-42,43,44,45]],"type":"Polygon","properties":{"Shape_Leng":0.291943097143,"Shape_Area":0.00184688277762,"ADM3_EN":"Thung Fai","ADM3_TH":"ทุ่งฝาย","ADM3_PCODE":"TH520112","ADM2_EN":"Mueang Lampang","ADM2_TH":"เมืองลำปาง","ADM2_PCODE":"TH5201","ADM1_EN":"Lampang","ADM1_TH":"ลำปาง","ADM1_PCODE":"TH52","ADM0_EN":"Thailand","ADM0_TH":"ประเทศไทย","ADM0_PCODE":"TH"}},{"arcs":[[46,47,48,49,50,51]],"type":"Polygon","properties":{"Shape_Leng":0.685427013631,"Shape_Area":0.0148439841152,"ADM3_EN":"Ban Ueam","ADM3_TH":"บ้านเอื้อม","ADM3_PCODE":"TH520113","ADM2_EN":"Mueang Lampang","ADM2_TH":"เมืองลำปาง","ADM2_PCODE":"TH5201","ADM1_EN":"Lampang","ADM1_TH":"ลำปาง","ADM1_PCODE":"TH52","ADM0_EN":"Thailand","ADM0_TH":"ประเทศไทย","ADM0_PCODE":"TH"}},{"arcs":[[-48,52,53,54]],"type":"Polygon","properties":{"Shape_Leng":0.315387516076,"Shape_Area":0.00328507703553,"ADM3_EN":"Ban Pao","ADM3_TH":"บ้านเป้า","ADM3_PCODE":"TH520114","ADM2_EN":"Mueang Lampang","ADM2_TH":"เมืองลำปาง","ADM2_PCODE":"TH5201","ADM1_EN":"Lampang","ADM1_TH":"ลำปาง","ADM1_PCODE":"TH52","ADM0_EN":"Thailand","ADM0_TH":"ประเทศไทย","ADM0_PCODE":"TH"}},{"arcs":[[-52,55,56,57,58]],"type":"Polygon","properties":{"Shape_Leng":0.574918196031,"Shape_Area":0.0109355113525,"ADM3_EN":"Ban Kha","ADM3_TH":"บ้านค่า","ADM3_PCODE":"TH520115","ADM2_EN":"Mueang Lampang","ADM2_TH":"เมืองลำปาง","ADM2_PCODE":"TH5201","ADM1_EN":"Lampang","ADM1_TH":"ลำปาง","ADM1_PCODE":"TH52","ADM0_EN":"Thailand","ADM0_TH":"ประเทศไทย","ADM0_PCODE":"TH"}},{"arcs":[[-5,-15,-30,59,60,-54,61]],"type":"Polygon","properties":{"Shape_Leng":0.262143339184,"Shape_Area":0.00207019792565,"ADM3_EN":"Bo Haeo","ADM3_TH":"บ่อแฮ้ว","ADM3_PCODE":"TH520116","ADM2_EN":"Mueang Lampang","ADM2_TH":"เมืองลำปาง","ADM2_PCODE":"TH5201","ADM1_EN":"Lampang","ADM1_TH":"ลำปาง","ADM1_PCODE":"TH52","ADM0_EN":"Thailand","ADM0_TH":"ประเทศไทย","ADM0_PCODE":"TH"}},{"arcs":[[-6,-62,-53,-47,62,-44,-41]],"type":"Polygon","properties":{"Shape_Leng":0.483273883287,"Shape_Area":0.00673770820592,"ADM3_EN":"Ton Thong Chai","ADM3_TH":"ต้นธงชัย","ADM3_PCODE":"TH520117","ADM2_EN":"Mueang Lampang","ADM2_TH":"เมืองลำปาง","ADM2_PCODE":"TH5201","ADM1_EN":"Lampang","ADM1_TH":"ลำปาง","ADM1_PCODE":"TH52","ADM0_EN":"Thailand","ADM0_TH":"ประเทศไทย","ADM0_PCODE":"TH"}},{"arcs":[[-45,-63,-59,63,64]],"type":"Polygon","properties":{"Shape_Leng":0.483634765937,"Shape_Area":0.0067817703206,"ADM3_EN":"Nikhom Phatthana","ADM3_TH":"นิคมพัฒนา","ADM3_PCODE":"TH520118","ADM2_EN":"Mueang Lampang","ADM2_TH":"เมืองลำปาง","ADM2_PCODE":"TH5201","ADM1_EN":"Lampang","ADM1_TH":"ลำปาง","ADM1_PCODE":"TH52","ADM0_EN":"Thailand","ADM0_TH":"ประเทศไทย","ADM0_PCODE":"TH"}},{"arcs":[[-33,-40,-46,-65,65]],"type":"Polygon","properties":{"Shape_Leng":0.392766063217,"Shape_Area":0.00534173171353,"ADM3_EN":"Bunnak Phatthana","ADM3_TH":"บุญนาคพัฒนา","ADM3_PCODE":"TH520119","ADM2_EN":"Mueang Lampang","ADM2_TH":"เมืองลำปาง","ADM2_PCODE":"TH5201","ADM1_EN":"Lampang","ADM1_TH":"ลำปาง","ADM1_PCODE":"TH52","ADM0_EN":"Thailand","ADM0_TH":"ประเทศไทย","ADM0_PCODE":"TH"}},{"arcs":[[-31,66,67,68,69,70,-36]],"type":"Polygon","properties":{"Shape_Leng":0.986496251765,"Shape_Area":0.0209861157972,"ADM3_EN":"Ban Dong","ADM3_TH":"บ้านดง","ADM3_PCODE":"TH520201","ADM2_EN":"Mae Mo","ADM2_TH":"แม่เมาะ","ADM2_PCODE":"TH5202","ADM1_EN":"Lampang","ADM1_TH":"ลำปาง","ADM1_PCODE":"TH52","ADM0_EN":"Thailand","ADM0_TH":"ประเทศไทย","ADM0_PCODE":"TH"}},{"arcs":[[-70,71,72,73,74]],"type":"Polygon","properties":{"Shape_Leng":0.715748300458,"Shape_Area":0.0138137095468,"ADM3_EN":"Na Sak","ADM3_TH":"นาสัก","ADM3_PCODE":"TH520202","ADM2_EN":"Mae Mo","ADM2_TH":"แม่เมาะ","ADM2_PCODE":"TH5202","ADM1_EN":"Lampang","ADM1_TH":"ลำปาง","ADM1_PCODE":"TH52","ADM0_EN":"Thailand","ADM0_TH":"ประเทศไทย","ADM0_PCODE":"TH"}},{"arcs":[[-69,75,76,77,-72]],"type":"Polygon","properties":{"Shape_Leng":0.969879841769,"Shape_Area":0.0334112931754,"ADM3_EN":"Chang Nuea","ADM3_TH":"จางเหนือ","ADM3_PCODE":"TH520203","ADM2_EN":"Mae Mo","ADM2_TH":"แม่เมาะ","ADM2_PCODE":"TH5202","ADM1_EN":"Lampang","ADM1_TH":"ลำปาง","ADM1_PCODE":"TH52","ADM0_EN":"Thailand","ADM0_TH":"ประเทศไทย","ADM0_PCODE":"TH"}},{"arcs":[[-17,-43,-37,-71,-75,78]],"type":"Polygon","properties":{"Shape_Leng":0.735156778091,"Shape_Area":0.0148386166041,"ADM3_EN":"Mae Mo","ADM3_TH":"แม่เมาะ","ADM3_PCODE":"TH520204","ADM2_EN":"Mae Mo","ADM2_TH":"แม่เมาะ","ADM2_PCODE":"TH5202","ADM1_EN":"Lampang","ADM1_TH":"ลำปาง","ADM1_PCODE":"TH52","ADM0_EN":"Thailand","ADM0_TH":"ประเทศไทย","ADM0_PCODE":"TH"}},{"arcs":[[-74,79,80,81,-79]],"type":"Polygon","properties":{"Shape_Leng":0.675481900831,"Shape_Area":0.0110467766552,"ADM3_EN":"Sop Pat","ADM3_TH":"สบป้าด","ADM3_PCODE":"TH520205","ADM2_EN":"Mae Mo","ADM2_TH":"แม่เมาะ","ADM2_PCODE":"TH5202","ADM1_EN":"Lampang","ADM1_TH":"ลำปาง","ADM1_PCODE":"TH52","ADM0_EN":"Thailand","ADM0_TH":"ประเทศไทย","ADM0_PCODE":"TH"}},{"arcs":[[-28,82,83,84,85,86]],"type":"Polygon","properties":{"Shape_Leng":0.274695349916,"Shape_Area":0.00226182066123,"ADM3_EN":"Lampang Luang","ADM3_TH":"ลำปางหลวง","ADM3_PCODE":"TH520301","ADM2_EN":"Ko Kha","ADM2_TH":"เกาะคา","ADM2_PCODE":"TH5203","ADM1_EN":"Lampang","ADM1_TH":"ลำปาง","ADM1_PCODE":"TH52","ADM0_EN":"Thailand","ADM0_TH":"ประเทศไทย","ADM0_PCODE":"TH"}},{"arcs":[[87,88,89,90,91,92,93,94,95]],"type":"Polygon","properties":{"Shape_Leng":0.753688671352,"Shape_Area":0.00863404978857,"ADM3_EN":"Na Kaeo","ADM3_TH":"นาแก้ว","ADM3_PCODE":"TH520302","ADM2_EN":"Ko Kha","ADM2_TH":"เกาะคา","ADM2_PCODE":"TH5203","ADM1_EN":"Lampang","ADM1_TH":"ลำปาง","ADM1_PCODE":"TH52","ADM0_EN":"Thailand","ADM0_TH":"ประเทศไทย","ADM0_PCODE":"TH"}},{"arcs":[[-85,96,-94,97,98,99,100]],"type":"Polygon","properties":{"Shape_Leng":0.532029400425,"Shape_Area":0.00817588189709,"ADM3_EN":"Lai Hin","ADM3_TH":"ไหล่หิน","ADM3_PCODE":"TH520303","ADM2_EN":"Ko Kha","ADM2_TH":"เกาะคา","ADM2_PCODE":"TH5203","ADM1_EN":"Lampang","ADM1_TH":"ลำปาง","ADM1_PCODE":"TH52","ADM0_EN":"Thailand","ADM0_TH":"ประเทศไทย","ADM0_PCODE":"TH"}},{"arcs":[[-88,101,102,103,104]],"type":"Polygon","properties":{"Shape_Leng":0.211737039138,"Shape_Area":0.0022443045609,"ADM3_EN":"Wang Phrao","ADM3_TH":"วังพร้าว","ADM3_PCODE":"TH520304","ADM2_EN":"Ko Kha","ADM2_TH":"เกาะคา","ADM2_PCODE":"TH5203","ADM1_EN":"Lampang","ADM1_TH":"ลำปาง","ADM1_PCODE":"TH52","ADM0_EN":"Thailand","ADM0_TH":"ประเทศไทย","ADM0_PCODE":"TH"}},{"arcs":[[-22,-26,105,-103,106]],"type":"Polygon","properties":{"Shape_Leng":0.192110133402,"Shape_Area":0.00136231878429,"ADM3_EN":"Sala","ADM3_TH":"ศาลา","ADM3_PCODE":"TH520305","ADM2_EN":"Ko Kha","ADM2_TH":"เกาะคา","ADM2_PCODE":"TH5203","ADM1_EN":"Lampang","ADM1_TH":"ลำปาง","ADM1_PCODE":"TH52","ADM0_EN":"Thailand","ADM0_TH":"ประเทศไทย","ADM0_PCODE":"TH"}},{"arcs":[[-84,107,-95,-97]],"type":"Polygon","properties":{"Shape_Leng":0.285279286759,"Shape_Area":0.00239773374593,"ADM3_EN":"Ko Kha","ADM3_TH":"เกาะคา","ADM3_PCODE":"TH520306","ADM2_EN":"Ko Kha","ADM2_TH":"เกาะคา","ADM2_PCODE":"TH5203","ADM1_EN":"Lampang","ADM1_TH":"ลำปาง","ADM1_PCODE":"TH52","ADM0_EN":"Thailand","ADM0_TH":"ประเทศไทย","ADM0_PCODE":"TH"}},{"arcs":[[-89,-105,108,109,110,111,112]],"type":"Polygon","properties":{"Shape_Leng":0.681090802311,"Shape_Area":0.0120893245625,"ADM3_EN":"Na Saeng","ADM3_TH":"นาแส่ง","ADM3_PCODE":"TH520307","ADM2_EN":"Ko Kha","ADM2_TH":"เกาะคา","ADM2_PCODE":"TH5203","ADM1_EN":"Lampang","ADM1_TH":"ลำปาง","ADM1_PCODE":"TH52","ADM0_EN":"Thailand","ADM0_TH":"ประเทศไทย","ADM0_PCODE":"TH"}},{"arcs":[[-27,-107,-102,-96,-108,-83]],"type":"Polygon","properties":{"Shape_Leng":0.286248150599,"Shape_Area":0.00153999733018,"ADM3_EN":"Tha Pha","ADM3_TH":"ท่าผา","ADM3_PCODE":"TH520308","ADM2_EN":"Ko Kha","ADM2_TH":"เกาะคา","ADM2_PCODE":"TH5203","ADM1_EN":"Lampang","ADM1_TH":"ลำปาง","ADM1_PCODE":"TH52","ADM0_EN":"Thailand","ADM0_TH":"ประเทศไทย","ADM0_PCODE":"TH"}},{"arcs":[[-86,-101,113,114,115,116]],"type":"Polygon","properties":{"Shape_Leng":0.351467129994,"Shape_Area":0.00503817870252,"ADM3_EN":"Mai Phatthana","ADM3_TH":"ใหม่พัฒนา","ADM3_PCODE":"TH520309","ADM2_EN":"Ko Kha","ADM2_TH":"เกาะคา","ADM2_PCODE":"TH5203","ADM1_EN":"Lampang","ADM1_TH":"ลำปาง","ADM1_PCODE":"TH52","ADM0_EN":"Thailand","ADM0_TH":"ประเทศไทย","ADM0_PCODE":"TH"}},{"arcs":[[-93,117,118,119,-98]],"type":"Polygon","properties":{"Shape_Leng":0.574438955705,"Shape_Area":0.00752418699157,"ADM3_EN":"Thung Ngam","ADM3_TH":"ทุ่งงาม","ADM3_PCODE":"TH520401","ADM2_EN":"Soem Ngam","ADM2_TH":"เสริมงาม","ADM2_PCODE":"TH5204","ADM1_EN":"Lampang","ADM1_TH":"ลำปาง","ADM1_PCODE":"TH52","ADM0_EN":"Thailand","ADM0_TH":"ประเทศไทย","ADM0_PCODE":"TH"}},{"arcs":[[-99,-120,120,121,122]],"type":"Polygon","properties":{"Shape_Leng":0.872014264911,"Shape_Area":0.0212501069579,"ADM3_EN":"Soem Khwa","ADM3_TH":"เสริมขวา","ADM3_PCODE":"TH520402","ADM2_EN":"Soem Ngam","ADM2_TH":"เสริมงาม","ADM2_PCODE":"TH5204","ADM1_EN":"Lampang","ADM1_TH":"ลำปาง","ADM1_PCODE":"TH52","ADM0_EN":"Thailand","ADM0_TH":"ประเทศไทย","ADM0_PCODE":"TH"}},{"arcs":[[-92,123,124,125,126,-118]],"type":"Polygon","properties":{"Shape_Leng":0.822111711074,"Shape_Area":0.0190181290651,"ADM3_EN":"Soem Sai","ADM3_TH":"เสริมซ้าย","ADM3_PCODE":"TH520403","ADM2_EN":"Soem Ngam","ADM2_TH":"เสริมงาม","ADM2_PCODE":"TH5204","ADM1_EN":"Lampang","ADM1_TH":"ลำปาง","ADM1_PCODE":"TH52","ADM0_EN":"Thailand","ADM0_TH":"ประเทศไทย","ADM0_PCODE":"TH"}},{"arcs":[[-119,-127,127,-121]],"type":"Polygon","properties":{"Shape_Leng":0.841962975473,"Shape_Area":0.015184666041,"ADM3_EN":"Soem Klang","ADM3_TH":"เสริมกลาง","ADM3_PCODE":"TH520404","ADM2_EN":"Soem Ngam","ADM2_TH":"เสริมงาม","ADM2_PCODE":"TH5204","ADM1_EN":"Lampang","ADM1_TH":"ลำปาง","ADM1_PCODE":"TH52","ADM0_EN":"Thailand","ADM0_TH":"ประเทศไทย","ADM0_PCODE":"TH"}},{"arcs":[[128,129,130,131]],"type":"Polygon","properties":{"Shape_Leng":0.230452870848,"Shape_Area":0.000960841933151,"ADM3_EN":"Luang Nuea","ADM3_TH":"หลวงเหนือ","ADM3_PCODE":"TH520501","ADM2_EN":"Ngao","ADM2_TH":"งาว","ADM2_PCODE":"TH5205","ADM1_EN":"Lampang","ADM1_TH":"ลำปาง","ADM1_PCODE":"TH52","ADM0_EN":"Thailand","ADM0_TH":"ประเทศไทย","ADM0_PCODE":"TH"}},{"arcs":[[-130,132,133,134,135]],"type":"Polygon","properties":{"Shape_Leng":0.28038317549,"Shape_Area":0.00202121135869,"ADM3_EN":"Luang Tai","ADM3_TH":"หลวงใต้","ADM3_PCODE":"TH520502","ADM2_EN":"Ngao","ADM2_TH":"งาว","ADM2_PCODE":"TH5205","ADM1_EN":"Lampang","ADM1_TH":"ลำปาง","ADM1_PCODE":"TH52","ADM0_EN":"Thailand","ADM0_TH":"ประเทศไทย","ADM0_PCODE":"TH"}},{"arcs":[[-134,136,137,138]],"type":"Polygon","properties":{"Shape_Leng":0.62726980225,"Shape_Area":0.00773800579252,"ADM3_EN":"Ban Pong","ADM3_TH":"บ้านโป่ง","ADM3_PCODE":"TH520503","ADM2_EN":"Ngao","ADM2_TH":"งาว","ADM2_PCODE":"TH5205","ADM1_EN":"Lampang","ADM1_TH":"ลำปาง","ADM1_PCODE":"TH52","ADM0_EN":"Thailand","ADM0_TH":"ประเทศไทย","ADM0_PCODE":"TH"}},{"arcs":[[139,140,141,142]],"type":"Polygon","properties":{"Shape_Leng":1.05438587449,"Shape_Area":0.0275503685711,"ADM3_EN":"Ban Rong","ADM3_TH":"บ้านร้อง","ADM3_PCODE":"TH520504","ADM2_EN":"Ngao","ADM2_TH":"งาว","ADM2_PCODE":"TH5205","ADM1_EN":"Lampang","ADM1_TH":"ลำปาง","ADM1_PCODE":"TH52","ADM0_EN":"Thailand","ADM0_TH":"ประเทศไทย","ADM0_PCODE":"TH"}},{"arcs":[[-132,143,144,-140,145,146]],"type":"Polygon","properties":{"Shape_Leng":0.90100362336,"Shape_Area":0.0124957373501,"ADM3_EN":"Pong Tao","ADM3_TH":"ปงเตา","ADM3_PCODE":"TH520505","ADM2_EN":"Ngao","ADM2_TH":"งาว","ADM2_PCODE":"TH5205","ADM1_EN":"Lampang","ADM1_TH":"ลำปาง","ADM1_PCODE":"TH52","ADM0_EN":"Thailand","ADM0_TH":"ประเทศไทย","ADM0_PCODE":"TH"}},{"arcs":[[-131,-136,147,148,-144]],"type":"Polygon","properties":{"Shape_Leng":0.644150592993,"Shape_Area":0.00653696191354,"ADM3_EN":"Na Kae","ADM3_TH":"นาแก","ADM3_PCODE":"TH520506","ADM2_EN":"Ngao","ADM2_TH":"งาว","ADM2_PCODE":"TH5205","ADM1_EN":"Lampang","ADM1_TH":"ลำปาง","ADM1_PCODE":"TH52","ADM0_EN":"Thailand","ADM0_TH":"ประเทศไทย","ADM0_PCODE":"TH"}},{"arcs":[[-135,-139,149,150,151,152,-148]],"type":"Polygon","properties":{"Shape_Leng":0.764895287493,"Shape_Area":0.00939405650731,"ADM3_EN":"Ban On","ADM3_TH":"บ้านอ้อน","ADM3_PCODE":"TH520507","ADM2_EN":"Ngao","ADM2_TH":"งาว","ADM2_PCODE":"TH5205","ADM1_EN":"Lampang","ADM1_TH":"ลำปาง","ADM1_PCODE":"TH52","ADM0_EN":"Thailand","ADM0_TH":"ประเทศไทย","ADM0_PCODE":"TH"}},{"arcs":[[-129,-147,153,154]],"type":"Polygon","properties":{"Shape_Leng":0.723365845631,"Shape_Area":0.0130679682427,"ADM3_EN":"Ban Haeng","ADM3_TH":"บ้านแหง","ADM3_PCODE":"TH520508","ADM2_EN":"Ngao","ADM2_TH":"งาว","ADM2_PCODE":"TH5205","ADM1_EN":"Lampang","ADM1_TH":"ลำปาง","ADM1_PCODE":"TH52","ADM0_EN":"Thailand","ADM0_TH":"ประเทศไทย","ADM0_PCODE":"TH"}},{"arcs":[[-68,155,-150,-138,156,-76]],"type":"Polygon","properties":{"Shape_Leng":0.942896135941,"Shape_Area":0.0270522224139,"ADM3_EN":"Ban Huat","ADM3_TH":"บ้านหวด","ADM3_PCODE":"TH520509","ADM2_EN":"Ngao","ADM2_TH":"งาว","ADM2_PCODE":"TH5205","ADM1_EN":"Lampang","ADM1_TH":"ลำปาง","ADM1_PCODE":"TH52","ADM0_EN":"Thailand","ADM0_TH":"ประเทศไทย","ADM0_PCODE":"TH"}},{"arcs":[[-77,-157,-137,-133,-155,157]],"type":"Polygon","properties":{"Shape_Leng":0.858266088422,"Shape_Area":0.021171889404,"ADM3_EN":"Mae Tip","ADM3_TH":"แม่ตีบ","ADM3_PCODE":"TH520510","ADM2_EN":"Ngao","ADM2_TH":"งาว","ADM2_PCODE":"TH5205","ADM1_EN":"Lampang","ADM1_TH":"ลำปาง","ADM1_PCODE":"TH52","ADM0_EN":"Thailand","ADM0_TH":"ประเทศไทย","ADM0_PCODE":"TH"}},{"arcs":[[-152,158,159,160,161]],"type":"Polygon","properties":{"Shape_Leng":0.701284101667,"Shape_Area":0.00840251931767,"ADM3_EN":"Chae Hom","ADM3_TH":"แจ้ห่ม","ADM3_PCODE":"TH520601","ADM2_EN":"Chae Hom","ADM2_TH":"แจ้ห่ม","ADM2_PCODE":"TH5206","ADM1_EN":"Lampang","ADM1_TH":"ลำปาง","ADM1_PCODE":"TH52","ADM0_EN":"Thailand","ADM0_TH":"ประเทศไทย","ADM0_PCODE":"TH"}},{"arcs":[[-34,-66,-64,-58,162,163,164,-160,165]],"type":"Polygon","properties":{"Shape_Leng":0.715328266045,"Shape_Area":0.0169194787551,"ADM3_EN":"Ban Sa","ADM3_TH":"บ้านสา","ADM3_PCODE":"TH520602","ADM2_EN":"Chae Hom","ADM2_TH":"แจ้ห่ม","ADM2_PCODE":"TH5206","ADM1_EN":"Lampang","ADM1_TH":"ลำปาง","ADM1_PCODE":"TH52","ADM0_EN":"Thailand","ADM0_TH":"ประเทศไทย","ADM0_PCODE":"TH"}},{"arcs":[[-149,-153,-162,166,167,168]],"type":"Polygon","properties":{"Shape_Leng":0.851041523456,"Shape_Area":0.0274461507292,"ADM3_EN":"Pong Don","ADM3_TH":"ปงดอน","ADM3_PCODE":"TH520603","ADM2_EN":"Chae Hom","ADM2_TH":"แจ้ห่ม","ADM2_PCODE":"TH5206","ADM1_EN":"Lampang","ADM1_TH":"ลำปาง","ADM1_PCODE":"TH52","ADM0_EN":"Thailand","ADM0_TH":"ประเทศไทย","ADM0_PCODE":"TH"}},{"arcs":[[-168,169,170,171,172,173]],"type":"Polygon","properties":{"Shape_Leng":0.564283529266,"Shape_Area":0.0103807710126,"ADM3_EN":"Mae Suk","ADM3_TH":"แม่สุก","ADM3_PCODE":"TH520604","ADM2_EN":"Chae Hom","ADM2_TH":"แจ้ห่ม","ADM2_PCODE":"TH5206","ADM1_EN":"Lampang","ADM1_TH":"ลำปาง","ADM1_PCODE":"TH52","ADM0_EN":"Thailand","ADM0_TH":"ประเทศไทย","ADM0_PCODE":"TH"}},{"arcs":[[-35,-166,-159,-151,-156,-67]],"type":"Polygon","properties":{"Shape_Leng":0.820024351762,"Shape_Area":0.0182635964635,"ADM3_EN":"Mueang Mai","ADM3_TH":"เมืองมาย","ADM3_PCODE":"TH520605","ADM2_EN":"Chae Hom","ADM2_TH":"แจ้ห่ม","ADM2_PCODE":"TH5206","ADM1_EN":"Lampang","ADM1_TH":"ลำปาง","ADM1_PCODE":"TH52","ADM0_EN":"Thailand","ADM0_TH":"ประเทศไทย","ADM0_PCODE":"TH"}},{"arcs":[[-141,-145,-169,-174,174,175]],"type":"Polygon","properties":{"Shape_Leng":0.679193795574,"Shape_Area":0.0167487757284,"ADM3_EN":"Thung Phueng","ADM3_TH":"ทุ่งผึ้ง","ADM3_PCODE":"TH520606","ADM2_EN":"Chae Hom","ADM2_TH":"แจ้ห่ม","ADM2_PCODE":"TH5206","ADM1_EN":"Lampang","ADM1_TH":"ลำปาง","ADM1_PCODE":"TH52","ADM0_EN":"Thailand","ADM0_TH":"ประเทศไทย","ADM0_PCODE":"TH"}},{"arcs":[[-161,-165,176,177,-170,-167]],"type":"Polygon","properties":{"Shape_Leng":0.325484191955,"Shape_Area":0.00408113010465,"ADM3_EN":"Wichet Nakhon","ADM3_TH":"วิเชตนคร","ADM3_PCODE":"TH520607","ADM2_EN":"Chae Hom","ADM2_TH":"แจ้ห่ม","ADM2_PCODE":"TH5206","ADM1_EN":"Lampang","ADM1_TH":"ลำปาง","ADM1_PCODE":"TH52","ADM0_EN":"Thailand","ADM0_TH":"ประเทศไทย","ADM0_PCODE":"TH"}},{"arcs":[[178,179,180,181,182]],"type":"Polygon","properties":{"Shape_Leng":0.542717602063,"Shape_Area":0.0111730685103,"ADM3_EN":"Thung Hua","ADM3_TH":"ทุ่งฮั้ว","ADM3_PCODE":"TH520701","ADM2_EN":"Wang Nuea","ADM2_TH":"วังเหนือ","ADM2_PCODE":"TH5207","ADM1_EN":"Lampang","ADM1_TH":"ลำปาง","ADM1_PCODE":"TH52","ADM0_EN":"Thailand","ADM0_TH":"ประเทศไทย","ADM0_PCODE":"TH"}},{"arcs":[[-181,183,184,185]],"type":"Polygon","properties":{"Shape_Leng":0.432512537115,"Shape_Area":0.00637860958132,"ADM3_EN":"Wang Nuea","ADM3_TH":"วังเหนือ","ADM3_PCODE":"TH520702","ADM2_EN":"Wang Nuea","ADM2_TH":"วังเหนือ","ADM2_PCODE":"TH5207","ADM1_EN":"Lampang","ADM1_TH":"ลำปาง","ADM1_PCODE":"TH52","ADM0_EN":"Thailand","ADM0_TH":"ประเทศไทย","ADM0_PCODE":"TH"}},{"arcs":[[-185,186,187,188,189]],"type":"Polygon","properties":{"Shape_Leng":0.357034847004,"Shape_Area":0.00523430060528,"ADM3_EN":"Wang Tai","ADM3_TH":"วังใต้","ADM3_PCODE":"TH520703","ADM2_EN":"Wang Nuea","ADM2_TH":"วังเหนือ","ADM2_PCODE":"TH5207","ADM1_EN":"Lampang","ADM1_TH":"ลำปาง","ADM1_PCODE":"TH52","ADM0_EN":"Thailand","ADM0_TH":"ประเทศไทย","ADM0_PCODE":"TH"}},{"arcs":[[-173,190,-188,191,192,-175]],"type":"Polygon","properties":{"Shape_Leng":0.637994088523,"Shape_Area":0.0143987004715,"ADM3_EN":"Rong Kho","ADM3_TH":"ร่องเคาะ","ADM3_PCODE":"TH520704","ADM2_EN":"Wang Nuea","ADM2_TH":"วังเหนือ","ADM2_PCODE":"TH5207","ADM1_EN":"Lampang","ADM1_TH":"ลำปาง","ADM1_PCODE":"TH52","ADM0_EN":"Thailand","ADM0_TH":"ประเทศไทย","ADM0_PCODE":"TH"}},{"arcs":[[-142,-176,-193,193,194,195]],"type":"Polygon","properties":{"Shape_Leng":0.728534112557,"Shape_Area":0.0177915884922,"ADM3_EN":"Wang Thong","ADM3_TH":"วังทอง","ADM3_PCODE":"TH520705","ADM2_EN":"Wang Nuea","ADM2_TH":"วังเหนือ","ADM2_PCODE":"TH5207","ADM1_EN":"Lampang","ADM1_TH":"ลำปาง","ADM1_PCODE":"TH52","ADM0_EN":"Thailand","ADM0_TH":"ประเทศไทย","ADM0_PCODE":"TH"}},{"arcs":[[-180,196,-195,197,-184]],"type":"Polygon","properties":{"Shape_Leng":0.400579890278,"Shape_Area":0.0052726780679,"ADM3_EN":"Wang Sai","ADM3_TH":"วังซ้าย","ADM3_PCODE":"TH520706","ADM2_EN":"Wang Nuea","ADM2_TH":"วังเหนือ","ADM2_PCODE":"TH5207","ADM1_EN":"Lampang","ADM1_TH":"ลำปาง","ADM1_PCODE":"TH52","ADM0_EN":"Thailand","ADM0_TH":"ประเทศไทย","ADM0_PCODE":"TH"}},{"arcs":[[-183,198]],"type":"Polygon","properties":{"Shape_Leng":0.633107202659,"Shape_Area":0.0161610998175,"ADM3_EN":"Wang Kaeo","ADM3_TH":"วังแก้ว","ADM3_PCODE":"TH520707","ADM2_EN":"Wang Nuea","ADM2_TH":"วังเหนือ","ADM2_PCODE":"TH5207","ADM1_EN":"Lampang","ADM1_TH":"ลำปาง","ADM1_PCODE":"TH52","ADM0_EN":"Thailand","ADM0_TH":"ประเทศไทย","ADM0_PCODE":"TH"}},{"arcs":[[-187,-198,-194,-192]],"type":"Polygon","properties":{"Shape_Leng":0.26249540782,"Shape_Area":0.00288573463302,"ADM3_EN":"Wang Sai Kham","ADM3_TH":"วังทรายคำ","ADM3_PCODE":"TH520708","ADM2_EN":"Wang Nuea","ADM2_TH":"วังเหนือ","ADM2_PCODE":"TH5207","ADM1_EN":"Lampang","ADM1_TH":"ลำปาง","ADM1_PCODE":"TH52","ADM0_EN":"Thailand","ADM0_TH":"ประเทศไทย","ADM0_PCODE":"TH"}},{"arcs":[[199,200,201,202,203]],"type":"Polygon","properties":{"Shape_Leng":0.440426685089,"Shape_Area":0.00634641191604,"ADM3_EN":"Lom Raet","ADM3_TH":"ล้อมแรด","ADM3_PCODE":"TH520801","ADM2_EN":"Thoen","ADM2_TH":"เถิน","ADM2_PCODE":"TH5208","ADM1_EN":"Lampang","ADM1_TH":"ลำปาง","ADM1_PCODE":"TH52","ADM0_EN":"Thailand","ADM0_TH":"ประเทศไทย","ADM0_PCODE":"TH"}},{"arcs":[[204,205,206,207,208]],"type":"Polygon","properties":{"Shape_Leng":0.512213276767,"Shape_Area":0.00860543025131,"ADM3_EN":"Mae Wa","ADM3_TH":"แม่วะ","ADM3_PCODE":"TH520802","ADM2_EN":"Thoen","ADM2_TH":"เถิน","ADM2_PCODE":"TH5208","ADM1_EN":"Lampang","ADM1_TH":"ลำปาง","ADM1_PCODE":"TH52","ADM0_EN":"Thailand","ADM0_TH":"ประเทศไทย","ADM0_PCODE":"TH"}},{"arcs":[[-200,209,210,211,212]],"type":"Polygon","properties":{"Shape_Leng":0.647618711695,"Shape_Area":0.0161969684417,"ADM3_EN":"Mae Pa","ADM3_TH":"แม่ปะ","ADM3_PCODE":"TH520803","ADM2_EN":"Thoen","ADM2_TH":"เถิน","ADM2_PCODE":"TH5208","ADM1_EN":"Lampang","ADM1_TH":"ลำปาง","ADM1_PCODE":"TH52","ADM0_EN":"Thailand","ADM0_TH":"ประเทศไทย","ADM0_PCODE":"TH"}},{"arcs":[[-201,-213,213,214]],"type":"Polygon","properties":{"Shape_Leng":0.865050020735,"Shape_Area":0.0229356148229,"ADM3_EN":"Mae Mok","ADM3_TH":"แม่มอก","ADM3_PCODE":"TH520804","ADM2_EN":"Thoen","ADM2_TH":"เถิน","ADM2_PCODE":"TH5208","ADM1_EN":"Lampang","ADM1_TH":"ลำปาง","ADM1_PCODE":"TH52","ADM0_EN":"Thailand","ADM0_TH":"ประเทศไทย","ADM0_PCODE":"TH"}},{"arcs":[[-205,215,-215,216]],"type":"Polygon","properties":{"Shape_Leng":1.26749927403,"Shape_Area":0.0507014735278,"ADM3_EN":"Wiang Mok","ADM3_TH":"เวียงมอก","ADM3_PCODE":"TH520805","ADM2_EN":"Thoen","ADM2_TH":"เถิน","ADM2_PCODE":"TH5208","ADM1_EN":"Lampang","ADM1_TH":"ลำปาง","ADM1_PCODE":"TH52","ADM0_EN":"Thailand","ADM0_TH":"ประเทศไทย","ADM0_PCODE":"TH"}},{"arcs":[[-203,217,218,219,220,221]],"type":"Polygon","properties":{"Shape_Leng":0.579723901549,"Shape_Area":0.0131721269546,"ADM3_EN":"Na Pong","ADM3_TH":"นาโป่ง","ADM3_PCODE":"TH520806","ADM2_EN":"Thoen","ADM2_TH":"เถิน","ADM2_PCODE":"TH5208","ADM1_EN":"Lampang","ADM1_TH":"ลำปาง","ADM1_PCODE":"TH52","ADM0_EN":"Thailand","ADM0_TH":"ประเทศไทย","ADM0_PCODE":"TH"}},{"arcs":[[-125,222,223,-210,-204,-222,224]],"type":"Polygon","properties":{"Shape_Leng":0.901736955118,"Shape_Area":0.0264838814924,"ADM3_EN":"Mae Thot","ADM3_TH":"แม่ถอด","ADM3_PCODE":"TH520807","ADM2_EN":"Thoen","ADM2_TH":"เถิน","ADM2_PCODE":"TH5208","ADM1_EN":"Lampang","ADM1_TH":"ลำปาง","ADM1_PCODE":"TH52","ADM0_EN":"Thailand","ADM0_TH":"ประเทศไทย","ADM0_PCODE":"TH"}},{"arcs":[[-202,-216,-209,225,-218]],"type":"Polygon","properties":{"Shape_Leng":0.494998482508,"Shape_Area":0.00715457516552,"ADM3_EN":"Thoen Buri","ADM3_TH":"เถินบุรี","ADM3_PCODE":"TH520808","ADM2_EN":"Thoen","ADM2_TH":"เถิน","ADM2_PCODE":"TH5208","ADM1_EN":"Lampang","ADM1_TH":"ลำปาง","ADM1_PCODE":"TH52","ADM0_EN":"Thailand","ADM0_TH":"ประเทศไทย","ADM0_PCODE":"TH"}},{"arcs":[[226,227,228,229]],"type":"Polygon","properties":{"Shape_Leng":1.23940339924,"Shape_Area":0.0343994199007,"ADM3_EN":"Mae Phrik","ADM3_TH":"แม่พริก","ADM3_PCODE":"TH520901","ADM2_EN":"Mae Phrik","ADM2_TH":"แม่พริก","ADM2_PCODE":"TH5209","ADM1_EN":"Lampang","ADM1_TH":"ลำปาง","ADM1_PCODE":"TH52","ADM0_EN":"Thailand","ADM0_TH":"ประเทศไทย","ADM0_PCODE":"TH"}},{"arcs":[[-220,230,-227,231]],"type":"Polygon","properties":{"Shape_Leng":0.362711233036,"Shape_Area":0.00682807971597,"ADM3_EN":"Pha Pang","ADM3_TH":"ผาปัง","ADM3_PCODE":"TH520902","ADM2_EN":"Mae Phrik","ADM2_TH":"แม่พริก","ADM2_PCODE":"TH5209","ADM1_EN":"Lampang","ADM1_TH":"ลำปาง","ADM1_PCODE":"TH52","ADM0_EN":"Thailand","ADM0_TH":"ประเทศไทย","ADM0_PCODE":"TH"}},{"arcs":[[-208,232,-228,-231,-219,-226]],"type":"Polygon","properties":{"Shape_Leng":0.365517741423,"Shape_Area":0.00554304452267,"ADM3_EN":"Mae Pu","ADM3_TH":"แม่ปุ","ADM3_PCODE":"TH520903","ADM2_EN":"Mae Phrik","ADM2_TH":"แม่พริก","ADM2_PCODE":"TH5209","ADM1_EN":"Lampang","ADM1_TH":"ลำปาง","ADM1_PCODE":"TH52","ADM0_EN":"Thailand","ADM0_TH":"ประเทศไทย","ADM0_PCODE":"TH"}},{"arcs":[[-207,233,-229,-233]],"type":"Polygon","properties":{"Shape_Leng":0.62529238428,"Shape_Area":0.00967808202809,"ADM3_EN":"Phrabat Wang Tuang","ADM3_TH":"พระบาทวังตวง","ADM3_PCODE":"TH520904","ADM2_EN":"Mae Phrik","ADM2_TH":"แม่พริก","ADM2_PCODE":"TH5209","ADM1_EN":"Lampang","ADM1_TH":"ลำปาง","ADM1_PCODE":"TH52","ADM0_EN":"Thailand","ADM0_TH":"ประเทศไทย","ADM0_PCODE":"TH"}},{"arcs":[[-18,-82,234,235,236,237,238,-24]],"type":"Polygon","properties":{"Shape_Leng":0.473327138661,"Shape_Area":0.0073425522916,"ADM3_EN":"Mae Tha","ADM3_TH":"แม่ทะ","ADM3_PCODE":"TH521001","ADM2_EN":"Mae Tha","ADM2_TH":"แม่ทะ","ADM2_PCODE":"TH5210","ADM1_EN":"Lampang","ADM1_TH":"ลำปาง","ADM1_PCODE":"TH52","ADM0_EN":"Thailand","ADM0_TH":"ประเทศไทย","ADM0_PCODE":"TH"}},{"arcs":[[-238,239,240,241,242]],"type":"Polygon","properties":{"Shape_Leng":0.327134862878,"Shape_Area":0.00378388669398,"ADM3_EN":"Na Khrua","ADM3_TH":"นาครัว","ADM3_PCODE":"TH521002","ADM2_EN":"Mae Tha","ADM2_TH":"แม่ทะ","ADM2_PCODE":"TH5210","ADM1_EN":"Lampang","ADM1_TH":"ลำปาง","ADM1_PCODE":"TH52","ADM0_EN":"Thailand","ADM0_TH":"ประเทศไทย","ADM0_PCODE":"TH"}},{"arcs":[[-110,243,-242,244,245]],"type":"Polygon","properties":{"Shape_Leng":0.275956001623,"Shape_Area":0.0017778662616,"ADM3_EN":"Pa Tan","ADM3_TH":"ป่าตัน","ADM3_PCODE":"TH521003","ADM2_EN":"Mae Tha","ADM2_TH":"แม่ทะ","ADM2_PCODE":"TH5210","ADM1_EN":"Lampang","ADM1_TH":"ลำปาง","ADM1_PCODE":"TH52","ADM0_EN":"Thailand","ADM0_TH":"ประเทศไทย","ADM0_PCODE":"TH"}},{"arcs":[[-241,246,247,248,249,-245]],"type":"Polygon","properties":{"Shape_Leng":0.523855171069,"Shape_Area":0.00632982134277,"ADM3_EN":"Ban Kio","ADM3_TH":"บ้านกิ่ว","ADM3_PCODE":"TH521004","ADM2_EN":"Mae Tha","ADM2_TH":"แม่ทะ","ADM2_PCODE":"TH5210","ADM1_EN":"Lampang","ADM1_TH":"ลำปาง","ADM1_PCODE":"TH52","ADM0_EN":"Thailand","ADM0_TH":"ประเทศไทย","ADM0_PCODE":"TH"}},{"arcs":[[-111,-246,-250,250]],"type":"Polygon","properties":{"Shape_Leng":0.389276599432,"Shape_Area":0.0052309604564,"ADM3_EN":"Ban Bom","ADM3_TH":"บ้านบอม","ADM3_PCODE":"TH521005","ADM2_EN":"Mae Tha","ADM2_TH":"แม่ทะ","ADM2_PCODE":"TH5210","ADM1_EN":"Lampang","ADM1_TH":"ลำปาง","ADM1_PCODE":"TH52","ADM0_EN":"Thailand","ADM0_TH":"ประเทศไทย","ADM0_PCODE":"TH"}},{"arcs":[[-25,-239,-243,-244,-109,-104,-106]],"type":"Polygon","properties":{"Shape_Leng":0.370859453858,"Shape_Area":0.00414252393726,"ADM3_EN":"Nam Cho","ADM3_TH":"น้ำโจ้","ADM3_PCODE":"TH521006","ADM2_EN":"Mae Tha","ADM2_TH":"แม่ทะ","ADM2_PCODE":"TH5210","ADM1_EN":"Lampang","ADM1_TH":"ลำปาง","ADM1_PCODE":"TH52","ADM0_EN":"Thailand","ADM0_TH":"ประเทศไทย","ADM0_PCODE":"TH"}},{"arcs":[[-236,251,252,253]],"type":"Polygon","properties":{"Shape_Leng":0.421470767001,"Shape_Area":0.00558732622974,"ADM3_EN":"Don Fai","ADM3_TH":"ดอนไฟ","ADM3_PCODE":"TH521007","ADM2_EN":"Mae Tha","ADM2_TH":"แม่ทะ","ADM2_PCODE":"TH5210","ADM1_EN":"Lampang","ADM1_TH":"ลำปาง","ADM1_PCODE":"TH52","ADM0_EN":"Thailand","ADM0_TH":"ประเทศไทย","ADM0_PCODE":"TH"}},{"arcs":[[-81,254,-252,-235]],"type":"Polygon","properties":{"Shape_Leng":0.602951256767,"Shape_Area":0.015273493454,"ADM3_EN":"Hua Suea","ADM3_TH":"หัวเสือ","ADM3_PCODE":"TH521008","ADM2_EN":"Mae Tha","ADM2_TH":"แม่ทะ","ADM2_PCODE":"TH5210","ADM1_EN":"Lampang","ADM1_TH":"ลำปาง","ADM1_PCODE":"TH52","ADM0_EN":"Thailand","ADM0_TH":"ประเทศไทย","ADM0_PCODE":"TH"}},{"arcs":[[-237,-254,255,-247,-240]],"type":"Polygon","properties":{"Shape_Leng":0.41487629125,"Shape_Area":0.00614342243852,"ADM3_EN":"Wang Ngoen","ADM3_TH":"วังเงิน","ADM3_PCODE":"TH521010","ADM2_EN":"Mae Tha","ADM2_TH":"แม่ทะ","ADM2_PCODE":"TH5210","ADM1_EN":"Lampang","ADM1_TH":"ลำปาง","ADM1_PCODE":"TH52","ADM0_EN":"Thailand","ADM0_TH":"ประเทศไทย","ADM0_PCODE":"TH"}},{"arcs":[[-112,-251,-249,256,257,258]],"type":"Polygon","properties":{"Shape_Leng":0.507332834768,"Shape_Area":0.0114649636429,"ADM3_EN":"San Don Kaeo","ADM3_TH":"สันดอนแก้ว","ADM3_PCODE":"TH521011","ADM2_EN":"Mae Tha","ADM2_TH":"แม่ทะ","ADM2_PCODE":"TH5210","ADM1_EN":"Lampang","ADM1_TH":"ลำปาง","ADM1_PCODE":"TH52","ADM0_EN":"Thailand","ADM0_TH":"ประเทศไทย","ADM0_PCODE":"TH"}},{"arcs":[[-211,-224,259,260,261,262]],"type":"Polygon","properties":{"Shape_Leng":0.60857212803,"Shape_Area":0.0123217190428,"ADM3_EN":"Sop Prap","ADM3_TH":"สบปราบ","ADM3_PCODE":"TH521101","ADM2_EN":"Sop Prap","ADM2_TH":"สบปราบ","ADM2_PCODE":"TH5211","ADM1_EN":"Lampang","ADM1_TH":"ลำปาง","ADM1_PCODE":"TH52","ADM0_EN":"Thailand","ADM0_TH":"ประเทศไทย","ADM0_PCODE":"TH"}},{"arcs":[[-258,263,-262,264]],"type":"Polygon","properties":{"Shape_Leng":0.380518627479,"Shape_Area":0.00798102319565,"ADM3_EN":"Samai","ADM3_TH":"สมัย","ADM3_PCODE":"TH521102","ADM2_EN":"Sop Prap","ADM2_TH":"สบปราบ","ADM2_PCODE":"TH5211","ADM1_EN":"Lampang","ADM1_TH":"ลำปาง","ADM1_PCODE":"TH52","ADM0_EN":"Thailand","ADM0_TH":"ประเทศไทย","ADM0_PCODE":"TH"}},{"arcs":[[-90,-113,-259,-265,-261,265]],"type":"Polygon","properties":{"Shape_Leng":0.496564997548,"Shape_Area":0.00850586151056,"ADM3_EN":"Mae Kua","ADM3_TH":"แม่กัวะ","ADM3_PCODE":"TH521103","ADM2_EN":"Sop Prap","ADM2_TH":"สบปราบ","ADM2_PCODE":"TH5211","ADM1_EN":"Lampang","ADM1_TH":"ลำปาง","ADM1_PCODE":"TH52","ADM0_EN":"Thailand","ADM0_TH":"ประเทศไทย","ADM0_PCODE":"TH"}},{"arcs":[[-91,-266,-260,-223,-124]],"type":"Polygon","properties":{"Shape_Leng":0.590695697218,"Shape_Area":0.0133605629449,"ADM3_EN":"Na Yang","ADM3_TH":"นายาง","ADM3_PCODE":"TH521104","ADM2_EN":"Sop Prap","ADM2_TH":"สบปราบ","ADM2_PCODE":"TH5211","ADM1_EN":"Lampang","ADM1_TH":"ลำปาง","ADM1_PCODE":"TH52","ADM0_EN":"Thailand","ADM0_TH":"ประเทศไทย","ADM0_PCODE":"TH"}},{"arcs":[[266,267,268,269]],"type":"Polygon","properties":{"Shape_Leng":0.315240679185,"Shape_Area":0.00279639874917,"ADM3_EN":"Hang Chat","ADM3_TH":"ห้างฉัตร","ADM3_PCODE":"TH521201","ADM2_EN":"Hang Chat","ADM2_TH":"ห้างฉัตร","ADM2_PCODE":"TH5212","ADM1_EN":"Lampang","ADM1_TH":"ลำปาง","ADM1_PCODE":"TH52","ADM0_EN":"Thailand","ADM0_TH":"ประเทศไทย","ADM0_PCODE":"TH"}},{"arcs":[[-49,-55,-61,270,-267,271]],"type":"Polygon","properties":{"Shape_Leng":0.400300116758,"Shape_Area":0.00359237961671,"ADM3_EN":"Nong Lom","ADM3_TH":"หนองหล่ม","ADM3_PCODE":"TH521202","ADM2_EN":"Hang Chat","ADM2_TH":"ห้างฉัตร","ADM2_PCODE":"TH5212","ADM1_EN":"Lampang","ADM1_TH":"ลำปาง","ADM1_PCODE":"TH52","ADM0_EN":"Thailand","ADM0_TH":"ประเทศไทย","ADM0_PCODE":"TH"}},{"arcs":[[-100,-123,272,273,-114]],"type":"Polygon","properties":{"Shape_Leng":0.630961956867,"Shape_Area":0.0138631398008,"ADM3_EN":"Mueang Yao","ADM3_TH":"เมืองยาว","ADM3_PCODE":"TH521203","ADM2_EN":"Hang Chat","ADM2_TH":"ห้างฉัตร","ADM2_PCODE":"TH5212","ADM1_EN":"Lampang","ADM1_TH":"ลำปาง","ADM1_PCODE":"TH52","ADM0_EN":"Thailand","ADM0_TH":"ประเทศไทย","ADM0_PCODE":"TH"}},{"arcs":[[-29,-87,-117,274,-268,-271,-60]],"type":"Polygon","properties":{"Shape_Leng":0.255845110457,"Shape_Area":0.0026059727057,"ADM3_EN":"Pong Yang Khok","ADM3_TH":"ปงยางคก","ADM3_PCODE":"TH521204","ADM2_EN":"Hang Chat","ADM2_TH":"ห้างฉัตร","ADM2_PCODE":"TH5212","ADM1_EN":"Lampang","ADM1_TH":"ลำปาง","ADM1_PCODE":"TH52","ADM0_EN":"Thailand","ADM0_TH":"ประเทศไทย","ADM0_PCODE":"TH"}},{"arcs":[[-116,275,276,277,-269,-275]],"type":"Polygon","properties":{"Shape_Leng":0.692989863078,"Shape_Area":0.0172193502507,"ADM3_EN":"Wiang Tan","ADM3_TH":"เวียงตาล","ADM3_PCODE":"TH521205","ADM2_EN":"Hang Chat","ADM2_TH":"ห้างฉัตร","ADM2_PCODE":"TH5212","ADM1_EN":"Lampang","ADM1_TH":"ลำปาง","ADM1_PCODE":"TH52","ADM0_EN":"Thailand","ADM0_TH":"ประเทศไทย","ADM0_PCODE":"TH"}},{"arcs":[[-115,-274,278,-276]],"type":"Polygon","properties":{"Shape_Leng":0.512758129614,"Shape_Area":0.00623113295763,"ADM3_EN":"Mae San","ADM3_TH":"แม่สัน","ADM3_PCODE":"TH521206","ADM2_EN":"Hang Chat","ADM2_TH":"ห้างฉัตร","ADM2_PCODE":"TH5212","ADM1_EN":"Lampang","ADM1_TH":"ลำปาง","ADM1_PCODE":"TH52","ADM0_EN":"Thailand","ADM0_TH":"ประเทศไทย","ADM0_PCODE":"TH"}},{"arcs":[[-50,-272,-270,-278]],"type":"Polygon","properties":{"Shape_Leng":0.393070838206,"Shape_Area":0.00584314166022,"ADM3_EN":"Wo Kaeo","ADM3_TH":"วอแก้ว","ADM3_PCODE":"TH521207","ADM2_EN":"Hang Chat","ADM2_TH":"ห้างฉัตร","ADM2_PCODE":"TH5212","ADM1_EN":"Lampang","ADM1_TH":"ลำปาง","ADM1_PCODE":"TH52","ADM0_EN":"Thailand","ADM0_TH":"ประเทศไทย","ADM0_PCODE":"TH"}},{"arcs":[[-178,279,280,281]],"type":"Polygon","properties":{"Shape_Leng":0.649934882941,"Shape_Area":0.0111340047301,"ADM3_EN":"Mueang Pan","ADM3_TH":"เมืองปาน","ADM3_PCODE":"TH521301","ADM2_EN":"Mueang Pan","ADM2_TH":"เมืองปาน","ADM2_PCODE":"TH5213","ADM1_EN":"Lampang","ADM1_TH":"ลำปาง","ADM1_PCODE":"TH52","ADM0_EN":"Thailand","ADM0_TH":"ประเทศไทย","ADM0_PCODE":"TH"}},{"arcs":[[-164,282,283,-280,-177]],"type":"Polygon","properties":{"Shape_Leng":0.722056931439,"Shape_Area":0.0210095050022,"ADM3_EN":"Ban Kho","ADM3_TH":"บ้านขอ","ADM3_PCODE":"TH521302","ADM2_EN":"Mueang Pan","ADM2_TH":"เมืองปาน","ADM2_PCODE":"TH5213","ADM1_EN":"Lampang","ADM1_TH":"ลำปาง","ADM1_PCODE":"TH52","ADM0_EN":"Thailand","ADM0_TH":"ประเทศไทย","ADM0_PCODE":"TH"}},{"arcs":[[-57,284,-283,-163]],"type":"Polygon","properties":{"Shape_Leng":0.694779849549,"Shape_Area":0.0143267417319,"ADM3_EN":"Thung Khwao","ADM3_TH":"ทุ่งกว๋าว","ADM3_PCODE":"TH521303","ADM2_EN":"Mueang Pan","ADM2_TH":"เมืองปาน","ADM2_PCODE":"TH5213","ADM1_EN":"Lampang","ADM1_TH":"ลำปาง","ADM1_PCODE":"TH52","ADM0_EN":"Thailand","ADM0_TH":"ประเทศไทย","ADM0_PCODE":"TH"}},{"arcs":[[-171,-282,285,286]],"type":"Polygon","properties":{"Shape_Leng":0.927918739208,"Shape_Area":0.0211743109047,"ADM3_EN":"Chae Son","ADM3_TH":"แจ้ซ้อน","ADM3_PCODE":"TH521304","ADM2_EN":"Mueang Pan","ADM2_TH":"เมืองปาน","ADM2_PCODE":"TH5213","ADM1_EN":"Lampang","ADM1_TH":"ลำปาง","ADM1_PCODE":"TH52","ADM0_EN":"Thailand","ADM0_TH":"ประเทศไทย","ADM0_PCODE":"TH"}},{"arcs":[[-172,-287,287,-189,-191]],"type":"Polygon","properties":{"Shape_Leng":0.658563672276,"Shape_Area":0.0161642113846,"ADM3_EN":"Hua Mueang","ADM3_TH":"หัวเมือง","ADM3_PCODE":"TH521305","ADM2_EN":"Mueang Pan","ADM2_TH":"เมืองปาน","ADM2_PCODE":"TH5213","ADM1_EN":"Lampang","ADM1_TH":"ลำปาง","ADM1_PCODE":"TH52","ADM0_EN":"Thailand","ADM0_TH":"ประเทศไทย","ADM0_PCODE":"TH"}}]}}}