{"type":"Topology","arcs":[[[4739,7690],[28,-1],[14,-18],[64,0],[28,-26],[-7,-16],[-43,-8],[-62,-34],[-31,-36],[-31,4],[7,71],[-5,32],[38,32]],[[5168,6741],[57,18],[72,2],[16,-27],[-13,-21],[16,-23],[-6,-62],[4,-35],[39,-41],[19,-8],[23,-32],[-45,-36],[-6,-15],[55,-23],[-16,-26],[17,-9],[54,0],[49,-15],[27,16],[46,8],[197,-20],[70,-20],[28,0],[75,86],[52,15],[57,-11],[64,26],[38,8],[60,-32],[84,-25],[29,-17],[97,-19]],[[6427,6403],[-6,-19],[20,-17],[-2,-41],[-55,-42],[-73,-33],[9,-15],[-9,-29],[-43,-36],[11,-25],[60,-62],[-8,-65],[-47,-42],[-69,-9]],[[6215,5968],[-53,-3],[-65,-12],[-69,11],[-121,15],[-30,-14],[-72,-9],[-30,9],[-102,6],[-32,18],[-48,0],[-39,10],[-32,19],[-44,-16],[-17,15],[24,29],[-14,8],[-13,49],[-25,25],[-56,-6],[-27,-18],[32,-38],[-85,-16],[-50,17],[-37,-53],[-41,-10],[-33,29],[-48,-2],[-29,12],[-57,-12],[-10,-12],[-47,0]],[[4945,6019],[-84,-6],[-17,-7],[-39,9],[-66,33],[-14,28],[-40,24],[25,39],[60,22],[1,41],[-12,12],[16,36],[-16,16],[18,11],[-23,25],[-82,-19],[-90,45],[-67,11],[-70,-2],[-22,18],[-66,-11],[-75,10],[-28,11],[2,14],[-53,56],[13,39],[-37,0],[-18,23],[-47,15],[-50,-2],[-11,17],[-43,5],[-28,-8],[-64,22],[-72,2],[-101,37],[1,22],[-35,71]],[[3711,6678],[54,8],[15,31],[-10,26],[24,29],[5,26],[-25,38],[5,13],[-28,32],[27,40],[40,6]],[[3818,6927],[54,-8],[94,-27],[85,-7],[45,-12],[56,22],[115,2],[24,16],[52,13],[66,-5],[71,-25],[87,4],[48,-5],[21,11],[56,-1],[57,-8],[34,-13],[15,-57],[21,-11],[53,1],[-11,-41],[88,2],[66,-34],[13,-26],[7,-57],[11,-15],[40,-11],[21,5],[26,73],[35,28]],[[3818,6927],[11,15],[-19,25],[9,24],[-26,15],[10,18],[-18,18],[42,42],[-47,65],[8,19],[46,17],[1,55],[-26,31],[2,14],[-50,14],[-77,11],[11,21],[-19,19],[-53,0],[-41,36],[-19,31],[-133,46],[-67,6],[-4,13],[20,31],[24,5],[11,37],[43,2],[40,26],[38,-7],[4,-16],[30,-19],[49,23],[40,-12],[26,3],[43,37],[65,2],[25,-7],[-6,35],[-16,14]],[[3795,7636],[59,-1],[74,-44],[9,-21],[66,-29],[29,-4],[117,17],[55,-27],[62,4],[27,-19],[72,6],[61,-3],[1,28],[38,24],[32,-15],[66,7],[34,-8],[67,16],[2,-33],[35,-31],[47,-4],[41,13],[40,25],[28,44],[24,-4],[42,-47],[66,-41],[9,-29],[27,-15],[45,-1],[52,-14],[61,4],[95,-2]],[[5278,7432],[48,-46],[-39,-56],[-18,-7],[-101,5],[2,-14],[-49,-30],[26,-16],[46,-8],[-3,-26],[-21,-13],[15,-34],[-3,-41],[47,-49],[36,-48],[-69,-47],[12,-14],[-9,-39],[-24,-7],[-12,-27],[-39,-26],[5,-23],[-15,-49],[31,-19],[-1,-41],[25,-16]],[[3795,7636],[-43,-2],[-43,12],[-1,36],[-37,25],[14,34],[-26,24],[-45,6],[-36,17],[-8,17],[23,14],[-36,13],[-5,13],[-75,31],[-4,16],[30,34],[-11,38],[44,21],[-30,17],[17,23],[-92,44],[-36,-1],[-15,17],[15,23],[122,8],[26,29],[44,5],[19,26],[56,25],[35,35],[0,36],[47,39],[27,8],[15,25],[45,19],[0,11],[46,25],[52,10],[19,20],[-4,25],[25,22],[68,7],[21,20],[-11,29],[106,18]],[[4153,8550],[0,-40],[66,-3],[52,-19],[13,-46],[-4,-32],[40,-9],[12,-31],[-48,-50],[-105,-47],[-49,-12],[-15,-20],[35,-47],[-24,-16],[23,-29],[114,7],[97,21],[96,-3],[67,-18],[64,-33],[25,-30],[48,8],[101,29],[74,10],[23,40]],[[4858,8180],[94,-3],[20,-31],[42,-29],[55,-22],[49,0],[26,-8],[-23,-35],[1,-53],[17,-22],[-15,-32],[10,-12],[59,-14],[11,-10]],[[5204,7909],[0,-16],[-36,-21],[70,-64],[-22,-32],[7,-28],[56,1],[62,-41],[2,-74],[-31,-55],[-46,-46],[-2,-28],[18,-49],[-4,-24]],[[4153,8550],[8,7],[-59,25],[-31,-2],[-25,42],[-31,2],[-1,32],[-31,18],[-67,19],[-6,79],[28,49],[31,20],[-27,37],[30,28],[79,6],[40,13],[88,-20],[92,8],[50,24],[96,10],[36,18],[56,7],[68,29],[79,-19],[56,-1]],[[4712,8981],[13,-26],[-1,-61],[23,-33],[17,-7],[37,-46],[15,-48],[-22,-21],[39,-86],[-3,-41],[16,-39],[49,-3],[76,-39],[-17,-62],[32,-24],[-45,-94],[9,-20],[-15,-56],[-17,-20],[-47,-21],[-19,-44],[6,-10]],[[4712,8981],[-2,20],[110,17],[13,19],[-17,32],[18,19],[-27,31],[19,23],[-18,21],[17,10],[39,-4],[16,21],[86,-4],[53,-12],[28,5],[80,0],[0,14],[35,-10],[60,1]],[[5222,9184],[41,0],[20,-26],[29,-11],[32,16],[10,-12],[70,-20],[11,-27],[45,-25],[-14,-37],[33,-24],[1,-34],[58,-31],[-6,-19],[65,-10],[2,-15],[-30,-27],[42,0],[6,-14],[-31,-6],[20,-70],[39,-21],[43,-5],[51,-51],[61,3],[37,-10],[31,5]],[[5888,8713],[55,-20],[-19,-19],[18,-22],[37,-6],[-31,-18],[38,-19],[-21,-20],[7,-19],[-24,-1],[-24,-54],[9,-58],[33,-15],[-22,-29],[-53,-43],[32,-29],[22,-110],[-15,-43],[-56,-27],[2,-68],[21,-23],[-21,-23]],[[5876,8047],[-45,0],[-50,-30],[-40,-3],[-52,-15],[-22,-35],[-66,-7],[-44,-17],[-36,10],[-46,-6],[-25,9],[-69,-1],[-55,-22],[-31,13],[-27,-22],[-64,-12]],[[5876,8047],[158,-50],[42,-4],[27,-14],[103,-26]],[[6206,7953],[-33,-30],[0,-38],[-33,-12],[-16,-61],[-54,-2],[-26,-12],[-21,-25],[-53,-11],[2,-38],[11,-13],[3,-43],[22,-58],[23,-34],[16,-48],[-58,-38],[5,-31],[30,-5],[65,16],[84,12],[49,-23],[69,-13],[-8,-31],[-25,-18],[5,-19],[40,-33],[17,-56],[-15,-43],[-57,-46],[-13,-30],[37,-7],[33,-28],[62,-24],[18,-14],[3,-29],[74,-26],[48,-10],[47,4],[43,-35],[48,-13],[47,-28],[30,-3],[46,18],[55,-12],[50,-1]],[[6876,6962],[-3,-36],[-14,-36],[24,-18],[-2,-19],[-24,-13],[53,-22],[9,-24],[26,-15],[-16,-28],[-53,-10],[-43,-19],[-5,-32],[-43,-22],[-42,-7],[-10,-40],[-59,-38],[-32,-36],[-31,-5],[-21,-56],[-114,-45],[0,-37],[-49,-1]],[[4945,6019],[-55,-102],[-55,-34],[-19,-47],[-3,-31],[47,-8],[28,-15],[40,-7],[49,-21],[39,-33],[-7,-15],[-97,-53],[-51,-69],[-21,-68],[8,-24],[80,-19],[50,4],[50,-11],[20,-20],[5,-33],[-11,-28]],[[5042,5385],[-17,-39],[10,-23],[-19,-17],[-37,-6]],[[4979,5300],[-77,-27],[-77,-21],[-56,-2],[-36,17],[-113,-25],[-83,-7],[-46,1],[-37,18]],[[4454,5254],[-4,71],[-14,29],[-38,53],[-130,60],[-59,17],[-100,10],[-11,29],[-50,14],[15,35],[-21,40],[-29,13],[-23,27],[12,18],[-23,22],[-42,18],[-23,44],[-37,3],[-30,-11],[-62,16],[-37,-20],[-69,23],[-46,4],[-38,15],[-78,11],[-15,23],[-64,8],[-69,19],[-18,16],[-59,-3],[-47,21],[13,37],[-36,58],[-41,11],[-22,28],[-29,7],[7,19],[-35,36],[32,51],[-30,27],[-83,12]],[[3021,6165],[-27,15],[15,34],[-11,117],[24,25],[-13,32],[11,31],[-23,24],[62,6],[27,-14],[34,14],[52,-13],[36,3],[49,29],[13,45],[-27,33],[-25,12],[32,33],[94,15],[24,-15],[57,4],[34,15],[5,17],[50,24],[38,3],[18,18],[141,6]],[[4454,5254],[-79,-19],[-59,-27],[-43,-3],[-87,15],[-40,65],[-35,-6],[-1,-39],[-12,-12],[-10,-59],[-35,-23],[4,-39],[-22,-29],[-24,-60],[-37,-5],[-50,-47]],[[3924,4966],[-5,14],[-59,29],[-84,17],[-59,49],[-45,12],[-88,8],[-84,-3],[-41,13],[-62,10],[-62,-4],[-86,2],[-42,30]],[[3207,5143],[-12,26],[-51,11],[-18,41],[11,47],[-35,26],[-7,37],[32,45],[-42,8],[-34,39],[0,18],[-27,23],[5,13],[47,17],[19,45],[-32,26],[14,34],[-40,19],[-13,30],[14,68],[-29,20],[-49,-7],[-85,7],[-54,32],[-12,16],[-41,13],[-15,-9],[-49,30],[-6,28],[-58,25],[12,19],[-11,25],[-57,8],[-57,16],[-22,-7],[-39,37],[36,22],[-21,28],[53,-5],[81,26],[31,-18],[41,13],[36,26],[58,2],[2,18],[-21,22],[35,0],[51,13],[45,-8],[32,32],[37,-9],[59,34]],[[4979,5300],[-75,-68],[-6,-35],[2,-54],[25,-23],[47,-19],[13,-23],[97,-20],[32,-29],[-9,-22],[23,-44],[-9,-10],[-59,-8],[-29,-13],[4,-21],[56,-13],[84,-43],[81,-9],[83,28],[31,-10],[43,16],[69,-34],[59,-51],[2,-36]],[[5543,4759],[-47,-20],[-85,-30],[-121,-4],[-90,-11],[-159,-34],[-77,-47],[-50,-20],[-7,-15],[-59,-28],[-62,-8],[-28,-42]],[[4758,4500],[-61,32],[-62,-9],[-36,10],[-38,-5],[-18,-42],[-65,0],[-73,32],[-21,1],[-35,-23],[-85,5]],[[4264,4501],[2,32],[-65,3],[-8,17],[25,7],[-33,31],[-15,31],[-33,10],[-10,19],[-28,-5],[-22,13],[3,25],[22,19],[-19,20],[17,22],[-11,19],[24,32],[-17,18],[26,16],[-15,19],[-26,-14],[-77,9],[-20,27],[-23,-2],[-7,26],[29,8],[-41,47],[-28,-3],[10,19]],[[5042,5385],[82,0],[83,20],[116,-8],[77,-30],[38,-5],[101,-29],[42,-3],[53,-15],[39,-19],[34,-5]],[[5707,5291],[-5,-29],[28,-31],[39,-6],[66,23],[107,-14],[8,-14],[-29,-23],[16,-16],[-14,-14],[17,-16],[-44,-23],[-57,-13],[-5,-27],[-100,-32],[65,-13],[-5,-16],[19,-22],[-6,-41],[34,-24],[-57,-42],[26,-24],[28,-49],[-19,-51]],[[5819,4774],[-94,-14],[-48,-20],[-45,0],[-21,24],[-41,3],[-27,-8]],[[4264,4501],[-15,-17],[-24,-1],[-48,-20],[-56,6],[-45,31],[-21,-16],[-28,6],[-43,29],[-107,-7],[-48,-32],[-90,-23],[-20,-28],[-104,16],[-21,-20],[-107,-8],[-90,-12],[-27,-18],[-99,30]],[[3271,4417],[-8,26],[27,25],[-2,40],[-35,16],[15,27],[-30,22],[30,20],[-20,27],[20,8],[9,48],[-31,34],[-6,29],[34,17],[6,20],[-14,13],[23,42],[-14,29],[-45,35],[-6,22],[-58,20],[-23,36],[1,45],[-24,31],[12,19],[33,12],[14,36],[-7,16],[35,11]],[[6215,5968],[16,-35],[-2,-28],[-17,-20],[-45,0],[-48,-33],[-105,1],[-45,-20],[-38,-47],[-67,-22],[-18,-29],[-46,-8],[-56,-60],[-19,-4],[-31,-50],[-5,-42],[-31,-33],[-20,-39],[9,-18],[-21,-62],[45,-51],[21,-11],[-17,-17],[2,-35],[30,-14]],[[8357,7993],[39,-33],[-19,-6],[9,-30],[22,0]],[[8408,7924],[23,-23],[-17,-8],[-31,-58]],[[8383,7835],[-36,7],[-42,-5],[-52,-18],[-67,0],[-60,32],[-95,77],[-28,-1],[-66,-16],[-24,15]],[[7913,7926],[69,26],[28,30],[63,14],[40,17],[25,-9],[58,17],[48,-6],[22,-20],[39,-8],[52,6]],[[8357,7993],[51,21],[-4,36],[33,26],[-4,19],[-55,34],[-10,28],[-23,19],[38,13],[11,30],[34,35],[-66,63],[-37,7],[-70,-19],[-27,1],[-15,28],[22,33],[-34,25],[-77,22],[-1,14],[-47,21],[-15,26],[8,26],[28,5],[-5,35],[37,22],[20,38],[93,-24],[72,2],[34,-6],[11,-22],[25,6],[-1,17],[41,2],[-17,61],[-66,2],[-28,16],[-18,41],[22,35],[41,5],[55,17],[1,22],[-43,39],[-5,35],[24,39],[-24,29],[23,18],[24,50],[-39,16],[-56,64],[22,21],[-56,18],[-88,45],[-69,59],[74,48],[-39,38],[81,48],[-6,22],[11,31],[25,15],[0,29]],[[8273,9439],[23,13],[46,3],[40,-15],[47,0],[53,15],[52,4],[20,-20],[41,-11],[15,-24],[-8,-29],[20,-12],[-10,-51],[14,-43],[70,-7],[6,-14],[48,-19],[8,-21],[82,-26],[19,-22],[106,-31],[35,3],[5,-30],[40,-28],[54,3],[47,-15],[-5,-19],[-29,-24],[32,-16],[-17,-28],[1,-35],[33,-30],[-5,-43],[30,-25],[-24,-21],[19,-12],[108,-29],[27,1],[26,-15],[-15,-10],[-14,-68],[28,-27],[-15,-20],[38,-54],[42,22],[26,-5],[52,-26],[33,-36],[21,-7],[29,-33],[-20,-27],[33,-18],[-1,-25],[24,-13],[-34,-41],[-32,4],[7,-35],[-10,-22],[-32,-12],[-18,-37],[13,-49],[-12,-12],[10,-53],[27,-6],[23,-22],[29,-9],[-13,-16],[-63,-25],[-45,10],[-25,-8],[-26,-32],[-2,-24],[16,-6],[-2,-26]],[[9414,7998],[-123,-20],[-50,9],[-31,-14],[-64,10],[-34,-4],[-159,13],[-52,-2],[-72,16],[-34,0],[-50,12],[-29,-21],[-55,2],[-69,-25],[-7,-17],[-36,-16],[-59,-7],[-40,7],[-42,-17]],[[7913,7926],[-57,-12],[-144,-62],[-110,8],[-28,12],[-20,24],[11,13],[-31,14],[-82,8],[-50,43],[-83,20],[-63,7],[-13,22],[-28,-6],[-53,12],[-28,25]],[[7134,8054],[37,1],[40,37],[37,-1],[33,13],[32,-7],[0,-17],[46,-17],[96,-4],[106,12],[50,14],[-143,54],[-24,15],[-28,38],[22,42],[-2,18],[21,29],[-1,22]],[[7456,8303],[6,27],[58,52],[7,24],[52,13],[47,32],[7,67],[-8,51],[-22,38],[9,8],[-5,49],[-9,12],[9,36],[49,58],[95,35],[36,3],[-13,30],[19,33],[34,9],[39,22],[12,26],[49,38],[4,15],[-46,64],[14,17],[-48,107],[19,16],[-14,45],[-60,11],[-65,29],[-114,26],[-64,36],[37,37],[-45,0],[-152,37],[-17,9]],[[7376,9415],[66,25],[46,24],[30,-1],[75,-22],[37,20],[46,-1],[15,-16],[44,8],[72,-12],[37,-18],[55,37],[54,15],[27,-3],[28,18],[101,-20],[14,-21],[62,-10],[38,14],[50,-13]],[[9414,7998],[50,-60],[81,6],[32,-24],[-11,-38],[-34,0],[3,-52],[23,-14],[-38,-34],[10,-22],[59,-44],[24,-6],[4,-43],[-26,-27],[17,-9],[-48,-47],[44,-28],[37,-15],[-43,-16],[-10,-25],[-49,-14],[-15,-25],[2,-22],[-16,-19],[35,-34],[2,-18],[36,-19],[9,-43],[-22,-6],[-58,-38],[-77,-19],[-49,7],[-19,-16]],[[9367,7234],[-81,0],[-63,12],[-60,23],[-9,12],[6,35],[-32,34],[-46,22],[-53,-6],[-49,-16],[-133,-25],[-48,-15],[-36,13],[-55,35],[-59,24],[-24,-6],[-11,19],[-36,1],[-30,-12],[-47,7]],[[8501,7391],[-33,36],[-37,11],[23,9],[-10,38],[-41,4],[-25,-9],[6,34],[25,18],[-20,19],[27,9],[-12,11],[23,15],[66,-9],[-13,-21],[34,-6],[35,24],[-14,27],[57,43],[-11,14],[-57,14],[4,21],[-60,16],[-18,30],[15,37],[-27,10],[12,16],[-55,5],[-12,28]],[[8501,7391],[-65,0],[-62,-10],[-67,10],[-41,24],[-44,-5],[-71,20],[-86,-3],[-41,10],[-32,-2],[-52,63],[-84,36],[-78,24],[-40,18],[-91,7],[-49,-7],[-41,-15],[-76,0],[-39,-8],[-33,8],[-78,31],[-101,9],[-53,22],[-61,16],[-42,-7],[-33,-15],[-47,-2],[-75,-37],[-51,-11],[-61,-4],[-44,4],[-59,-26],[-35,31],[11,60],[-13,31],[-43,23],[-40,10],[-42,43],[-11,33],[10,13],[-36,37],[-58,25],[-52,8],[-71,33],[-69,17],[-41,28],[-8,20]],[[6206,7953],[12,20],[60,9],[110,26],[74,-15],[42,-15],[44,2],[5,15],[36,10],[104,57],[63,-2],[45,-32],[55,-17],[29,5],[39,31],[25,-10],[46,12],[27,-9],[112,14]],[[8501,7391],[3,-48],[20,-20],[-17,-26],[38,-36],[47,-5],[63,-16],[24,-61],[103,-43],[26,15],[70,21],[41,19],[46,-15],[-23,-8],[-3,-33],[47,-31],[7,-51],[33,-25],[-83,-32],[-19,-14],[7,-31],[-34,-29],[-54,-15],[1,-33],[-87,-37],[-34,-29],[-74,-2],[-30,18],[-44,12],[-48,-25],[-53,11],[-134,-30],[-60,-31],[-47,0],[-177,-20],[-30,-8],[-20,-24],[11,-27],[-80,-26],[-71,3],[-19,-9]],[[7847,6650],[-33,13],[-46,0],[-50,9],[-17,33],[11,27],[-40,28],[-17,50],[-15,7],[9,27],[41,16],[-58,31],[-22,23],[17,39],[-85,-6],[-38,25],[-38,1],[-48,-14],[-109,11],[-52,1],[-62,-13],[-125,14],[-21,-17],[-33,25],[-73,15],[-18,-20],[-49,-13]],[[9367,7234],[3,-33],[54,-16],[16,-28],[53,-46],[44,2],[86,-18],[46,-19],[-8,-25],[56,-18],[56,-2],[5,-50],[118,-14],[7,-26],[-21,-42],[25,-26],[19,-53],[0,-40],[29,-18],[-15,-22],[35,-18],[24,-26],[-21,-67],[-20,-19],[-41,-8],[-5,-34],[-91,-4],[-21,-11],[-24,15],[-42,-9],[-39,-46],[-59,-10],[-83,-48],[-53,19],[-47,5],[-86,-10],[-25,-10],[0,-21],[-39,-10],[-41,4],[-20,-26],[-35,-18],[-48,-11],[-92,-4],[-35,5],[-75,30],[-75,15],[-101,9],[-41,11],[-92,11],[-29,-9],[-131,27],[-71,-5],[-43,12],[-68,-27],[-53,-61],[-18,-10],[-106,37],[-48,6],[-8,36],[-29,7],[-23,44],[-36,5],[-41,22],[-15,-12],[-64,39],[18,36],[-36,49]],[[4847,2829],[0,-30],[43,-32],[-5,-25],[-53,-3],[-79,-30],[-7,-38],[29,-93],[2,-61]],[[4777,2517],[-118,-45],[-15,-21],[-77,-18],[-67,-35],[-26,-3],[9,17]],[[4483,2412],[-2,28],[-63,0],[15,31],[-62,1],[-49,-10],[-13,-16],[-35,-8],[-33,-28],[-54,2],[-43,25],[-22,43],[-26,18],[-25,61],[-40,27],[-49,15],[-58,42],[-131,33],[-31,13],[-99,17],[-36,24],[-102,30],[-38,21],[11,21],[83,24],[30,51],[-1,22],[-20,19],[-7,45],[-146,119],[-37,41]],[[3400,3123],[-2,33],[-35,56],[37,31],[37,47],[4,53],[36,44]],[[3477,3387],[75,-41],[28,-28],[54,-33],[24,-6],[57,5],[85,-30],[65,-3],[39,-10],[19,-24],[45,-8],[72,-89],[66,-20],[27,-22],[59,-17],[29,-24],[47,-19],[45,-55],[79,-3],[72,27],[39,26],[27,6],[51,-22],[59,-36],[50,-57],[53,-21],[23,-28],[32,-16],[49,-10]],[[4777,2517],[82,-8],[52,9],[7,13],[54,-11],[50,-30],[41,1],[18,-13],[46,4]],[[5127,2482],[-1,-53],[-40,-42],[-69,-37],[-3,-32],[-38,-28],[23,-17],[-2,-57],[-80,-35],[-34,-39],[-57,-13],[-35,-16]],[[4791,2113],[-66,8],[-65,-36],[-74,-15],[-44,-3],[-5,-24],[-27,-13]],[[4510,2030],[-32,6],[10,11],[-18,44],[30,10],[22,20],[-41,5],[30,14],[2,27],[21,19],[-44,10],[-17,33],[29,9],[7,23],[-28,12],[13,21],[-4,28],[-28,19],[-8,59]],[[4454,2400],[29,12]],[[4454,2400],[-42,5],[-17,-8],[-53,1],[-39,-26],[-24,-57],[-24,-10],[-104,23],[-44,-5],[-15,-13],[-95,-9],[-89,16],[-85,-2],[-21,13],[-17,-15],[-50,-20],[-22,-46],[-35,-24],[-88,-24],[-45,-22],[-7,-28],[-34,-22],[-46,-7],[-99,15],[-41,0],[-16,11],[-48,7],[-60,27],[-34,-9],[-73,25],[-87,-21],[-32,-23],[-27,2],[-54,24],[-26,25],[-72,-13],[-33,1],[-81,-31],[-9,-25],[-35,-25]],[[2631,2110],[-77,84],[1,100],[-11,42],[8,39],[-17,36],[-47,29],[-79,17],[-55,26],[-63,65],[-116,68],[-99,73],[-49,77],[0,23],[19,28],[82,42],[92,57],[39,38],[0,30],[-98,102],[-45,36],[-68,20],[-58,25],[-89,22],[-74,4],[-54,27],[-68,-9],[-54,11],[-62,-20],[-30,-59],[-34,-46],[-16,-56],[-40,-61],[-58,-39],[-60,-22],[-101,-29],[-31,0],[-68,43],[-31,33],[-43,33],[-109,46],[-67,43],[-71,85],[-41,15],[-24,46],[0,44],[-15,36],[17,27],[50,50],[13,59],[-42,29],[-38,40],[-44,14],[-47,-3],[-33,15],[-14,30],[-28,25],[-13,61],[-30,31],[-86,37],[-35,41],[-36,71],[-24,84],[-30,58],[-24,26],[-78,56],[-79,19],[-73,35],[-17,26],[-32,18],[-21,41],[-6,45],[1,65],[64,37],[44,33],[21,34],[23,-27],[-3,-77],[-9,-34],[2,-35],[16,-10],[140,-1],[85,9],[30,19],[48,4],[26,-40],[42,-21],[41,0],[24,-18],[40,-14],[11,-30],[0,-40],[14,-32],[49,-16],[5,-64],[49,-18],[6,-33],[81,-8],[32,27],[38,-11],[34,8],[24,26],[68,15],[12,15],[19,-11],[48,7],[25,-20],[34,-46],[44,-13],[42,0],[46,22],[46,-14],[49,7],[42,-23],[24,7],[22,36],[-6,16],[38,65],[-1,38],[43,20],[67,-16],[37,-24],[33,13],[2,16],[34,31],[54,-11],[50,4],[21,19],[41,-10],[73,2],[27,35],[54,9],[38,-13],[4,-16]],[[2108,4142],[-7,-23],[9,-50],[32,-43],[49,-8],[52,-21],[8,-28],[-16,-17],[47,-3],[86,-42],[46,-6],[5,-12],[99,-44],[51,-5],[79,-29],[25,-29],[-18,-12],[32,-7],[13,-66],[-43,-6],[18,-33],[-51,-14],[-68,-9],[-118,-27],[-94,-10],[-34,-19],[8,-34],[-13,-47],[3,-30],[34,-63],[-6,-15],[-56,-43],[18,-91],[49,-71],[46,-26],[16,-20],[-6,-20],[47,-48],[-28,-40],[20,-24],[-18,-28],[69,-20],[83,2],[-1,-16],[127,-28],[24,-13],[16,14],[39,4],[-2,19],[40,24],[34,3],[39,-9],[69,13],[61,-1],[132,36],[89,74],[60,31],[97,11]],[[5127,2482],[79,22],[32,34],[11,36],[-16,23],[-37,18],[27,15],[75,13],[17,14],[52,9],[130,55],[79,0],[57,-26],[33,4],[20,-31],[-5,-13],[47,-3],[64,21],[183,-39],[32,2],[47,20],[31,-1],[82,42]],[[6167,2697],[61,-12],[57,13],[31,-20],[-21,-34],[-6,-40],[35,-12],[39,-44],[-20,-19],[-52,-26],[-4,-68],[-54,0],[-23,-28],[46,-65]],[[6256,2342],[-15,11],[-25,-15],[-85,8],[-66,16],[-64,-4],[-43,21],[-106,12],[-22,36],[-49,23],[-34,-3],[-43,-22],[-1,-49],[49,-31],[45,-16],[59,-49],[20,-26],[76,-33],[4,-78],[9,-11],[0,-44],[-36,-13],[-22,9],[-18,-18],[22,-12],[-77,-6],[-3,-21],[-32,7],[-42,-4],[-39,-14],[16,-14],[-34,-4],[19,-39],[-9,-24],[36,0],[0,-19],[-42,-4],[-24,-20]],[[5680,1892],[16,-24],[-5,-37],[-71,-12],[-27,-14],[27,-4],[19,-51],[-46,-12],[-22,-25],[-16,-42],[-62,-5],[-36,-26]],[[5457,1640],[-72,29],[-18,26],[-60,13],[-106,30],[-55,12],[-57,43],[9,34],[-31,28],[-64,8],[-9,23],[-94,42],[-20,31],[-31,17],[-42,7],[9,36],[29,23],[-1,22],[-28,36],[-25,13]],[[4510,2030],[-11,-15],[-32,-4],[-39,-23],[28,-21],[-22,-32],[4,-17],[-17,-29],[33,-33],[2,-23],[-46,-9],[-22,-23],[-60,-9],[-21,-10],[10,-17],[81,-19],[1,-34],[-51,-1]],[[4348,1711],[-48,15],[-71,-6],[-53,4],[-33,11],[-57,-7],[-63,4],[-57,14],[-122,-31],[-38,2],[-20,-10],[-83,-22],[-16,-11]],[[3687,1674],[-36,22],[-27,44],[-126,5],[-33,12],[-33,-2],[-46,-29],[-21,-3],[-56,12],[-56,25],[-128,5],[-122,21],[-55,-17],[-23,-35],[-43,3]],[[2882,1737],[24,25],[-11,21],[-42,29],[-62,71],[-8,43],[-65,43],[-55,-5],[-32,-21],[-41,12],[-18,56],[29,16],[35,3],[15,42],[-20,38]],[[2108,4142],[26,21],[-61,49],[-1,31],[73,19],[25,0],[50,-31],[49,18],[30,32],[41,6],[7,28],[41,4],[15,-9],[75,-4],[27,-7],[19,16],[70,-7],[77,-25],[64,-2],[60,12],[47,-2],[52,8],[28,49],[49,10],[50,-32],[54,-3],[62,-11],[24,7],[87,1]],[[3248,4320],[20,-24],[-33,-63],[15,-37],[88,-50],[41,-7],[2,-47],[-34,-41],[8,-28],[-13,-20],[15,-38]],[[3357,3965],[11,-23],[-29,-38],[6,-28],[-8,-44],[47,-69],[-13,-14],[35,-41],[119,-4],[-37,-70],[4,-28],[-31,-27],[56,-7],[32,-16],[5,-22],[-21,-30],[26,-34],[-40,-14],[-36,-42],[-6,-27]],[[4847,2829],[63,22],[5,28],[32,37],[42,9],[63,-17],[65,17],[-1,43],[86,11],[83,5],[21,24],[19,-6],[46,28],[48,9],[11,14]],[[5430,3053],[39,41],[-3,8],[54,50],[22,48],[28,20],[47,17],[105,18],[17,-4],[36,-41],[-14,-37],[54,-38],[57,-11],[16,-12],[87,-17],[188,9],[66,30],[6,24],[39,43],[31,45],[15,9]],[[6320,3255],[45,1],[104,-45],[19,0],[25,-29],[15,14],[31,-49],[10,-40],[33,-16],[-3,-35],[-37,-29],[-2,-23],[-72,-29],[-54,-2],[-25,8],[-55,-13],[-59,-7],[-36,8],[-39,-4],[-29,15],[-61,-8],[-55,-15],[-9,-48],[-11,-7],[12,-51],[43,-27],[-4,-20],[-26,-33],[21,-10],[36,-49],[30,-15]],[[3357,3965],[25,22],[64,27],[30,2],[37,20],[35,4],[123,-3],[37,12],[110,-15],[28,-29],[68,-21],[70,-62],[49,-33],[0,-52],[17,-12],[28,4],[30,-32],[38,8],[41,-27],[80,-11],[18,-11],[-33,-19],[73,-23],[72,-7],[32,10],[49,34],[64,-11]],[[4542,3740],[75,25],[88,-11],[9,-12],[-23,-15],[98,-27],[20,-14],[-11,-29],[22,-8],[123,-18],[66,-6],[51,2],[42,10],[24,25],[40,69],[0,27],[15,16],[66,33],[68,54],[39,41],[-2,26],[39,-25],[123,-53]],[[5514,3850],[-6,-28],[12,-19],[23,1],[41,-34],[-19,-47],[-39,-14],[-19,-21],[24,-26],[-1,-70],[-14,-25]],[[5516,3567],[-50,-53],[-17,-33],[-42,-39],[-44,-9],[18,-19],[-26,-39],[-89,-59]],[[5266,3316],[-30,-6],[-47,12],[-115,-7],[-107,-24],[-124,22],[-59,-9],[-67,3],[-70,-27],[8,-34],[-2,-47],[-55,-28],[-82,1],[-98,28],[-126,-14],[-26,-12],[-14,12],[-65,25],[-7,25],[-26,27],[-23,8],[-51,62],[-26,2],[-33,-21],[-75,8],[-38,-1],[-21,12],[-101,3],[-47,-8],[-75,-4],[-109,49],[-78,14]],[[4758,4500],[8,-18],[-6,-39]],[[4760,4443],[-55,6],[-75,-13],[-16,-15],[-26,1],[-30,-28],[22,-14],[1,-58],[-46,-14],[-33,-29],[-21,-2],[-31,-31],[-31,-15],[31,-9],[135,1],[-35,-10],[-5,-27],[57,-14],[50,-58],[-35,-10],[42,-21],[31,-40],[9,-27],[-29,0],[-30,-16],[-76,-2],[-27,18],[-44,6],[18,-15],[-14,-35],[-27,-37],[61,-41],[20,-3],[11,-39],[-20,-53],[-23,-28],[23,-31]],[[3248,4320],[-9,18],[15,22],[-19,7],[26,16],[10,34]],[[5266,3316],[56,-44],[-27,-42],[77,-2],[24,-16],[0,-45],[-16,-63],[19,-31],[31,-20]],[[5819,4774],[40,-9],[20,-26],[-27,-23],[-29,-72]],[[5823,4644],[-32,-16],[-59,-5],[-38,-48]],[[5694,4575],[-8,-35],[-49,-32],[-25,-29],[-57,-25],[-6,-44],[22,-27],[-68,-23],[-61,-55],[-23,-8],[-32,-33],[-35,-9],[0,-13],[-38,-6],[23,-38],[-31,-7],[-5,-17]],[[5301,4174],[0,-10],[-59,-1],[23,-15],[-14,-21],[-33,-8],[-40,8],[-22,-11],[-64,17],[-36,-21],[-63,1],[-127,37],[-20,-9],[-4,27],[31,4],[-33,17],[40,20],[-58,15],[36,40],[10,36],[-17,32],[-32,3],[58,15],[-35,11],[19,14],[-22,28],[-62,22],[-17,18]],[[5516,3567],[75,6],[54,13]],[[5645,3586],[13,-4],[66,18],[65,-13],[17,-22],[31,-2],[27,-18],[51,1],[67,-16],[6,-15],[-31,-39],[32,-4],[22,-32],[41,-2],[25,-33],[8,-32],[30,-16],[14,-25],[36,-15],[81,-13],[40,-16],[34,-33]],[[5514,3850],[11,40],[14,6],[20,43],[-18,17],[-69,22],[-13,20],[-48,32],[20,14],[-19,35],[27,9],[-23,33],[22,9],[-10,24],[-43,5],[-22,19],[-37,5],[-25,-9]],[[5694,4575],[46,-17],[38,-44],[8,-65],[62,-16],[31,-16],[-2,-27],[84,-28],[28,1],[14,-49],[28,-40],[-91,-32],[-40,-4],[-26,7],[-3,-29],[42,-34],[33,-45],[33,5],[45,-11],[60,-1],[37,-15],[58,-2],[61,20],[25,0],[88,20]],[[6353,4153],[-33,-55],[-1,-21],[-56,-2],[-2,-12],[-40,-22],[-24,-23],[-65,6],[-27,-18],[-82,-21],[-25,-21],[-45,9],[-19,-15],[-8,-44],[-48,-24],[-21,-38],[2,-20],[-25,-23],[-13,-41],[-44,-5],[-55,-25],[-72,-25],[-8,-30],[-25,-26],[-33,-17],[34,-39],[27,-15]],[[5823,4644],[42,-17],[51,-47],[29,-3],[82,11],[30,-3],[55,16],[92,-30],[36,-27],[62,-4],[43,10],[71,-14],[-13,-19],[19,-12],[-12,-38],[77,-9],[53,2],[88,-6],[8,-10],[9,-65],[43,-16],[43,4],[25,-7],[24,-30],[27,-13],[23,-27],[-13,-28],[-30,-8],[-1,-32],[-50,-10],[-14,-25],[-25,2],[-27,-29],[-33,-5],[-41,-21],[-36,18],[-65,-5],[-65,36],[-78,-7],[1,-23]],[[4348,1711],[15,-58],[41,-6],[-9,-17],[27,-33],[30,-11],[3,-23],[-18,-9],[-7,-43],[24,-12]],[[4454,1499],[46,-18],[16,-31],[-39,-10],[19,-11],[41,1],[-8,-41],[34,-1],[27,-12],[-16,-18],[15,-23],[-15,-28],[33,-36],[5,-30],[-11,-12],[-70,2],[-7,-11],[43,-11],[28,12],[28,-9],[49,-36],[39,-18],[-10,-30],[18,-29],[16,-48]],[[4735,1051],[-55,-10],[-12,-15],[-73,-9],[-143,-3],[-59,2],[-53,-21],[-3,-18],[-27,-31],[0,-14],[-42,-16],[-18,-38],[49,-37],[-1,-24],[-29,-26],[-57,-24],[-67,-13],[-62,-27],[-43,0],[-42,-29],[-31,7],[-9,-21],[-119,-32],[-43,6],[-53,-2],[-55,8],[-66,22],[-33,-6]],[[3589,680],[-21,42],[11,12],[-30,43],[-33,0],[5,16],[-44,21],[-46,49],[25,18],[-4,25],[-21,3],[-35,60],[31,10],[20,42],[18,11],[-16,28],[25,15],[40,-11],[60,6],[22,21],[10,27],[25,12],[50,4],[14,29],[29,4],[-1,27],[24,-1],[17,36],[-32,21],[-32,3],[1,23],[52,31],[36,-1],[23,17],[-4,20],[26,11],[-2,24],[-52,39],[-126,63],[-39,37],[-1,44],[50,29],[10,35],[-33,21],[24,23],[22,5]],[[5457,1640],[2,-37],[-14,-23],[13,-8],[0,-38],[12,-32],[27,-27],[-1,-33]],[[5496,1442],[-42,5],[-33,-12],[-2,-13],[-47,-18],[-27,9],[-57,-9],[-72,-28],[-27,-6],[7,-15],[-34,-9],[21,-27],[-53,-22],[-11,29],[-40,-18]],[[5079,1308],[-53,6],[-43,-23],[-13,6],[-92,-26],[17,55],[-20,13],[2,28],[27,21],[-3,37],[39,26],[-33,26],[-116,-13],[-29,31],[-81,-1],[-30,15],[-48,-6],[-46,9],[-43,-13],[-60,0]],[[5680,1892],[48,-10],[42,-26],[22,-32],[88,-9],[18,-11],[41,1],[15,-10],[54,-6],[75,31],[3,32],[19,21],[54,15],[15,16],[-4,27],[62,48],[-2,11],[59,15],[54,26],[-5,51],[39,28],[6,17],[49,8],[14,12],[61,7]],[[6507,2154],[27,-4],[35,-24],[-10,-43],[39,-11],[53,-5],[98,22],[-8,16],[37,15],[24,-30],[-36,-15],[106,-5],[-11,-41],[51,-14],[29,9],[39,45],[24,-10],[95,7],[-7,-18],[38,8],[45,-10],[34,11],[21,-32],[-19,-42],[-25,-9],[-9,-30],[-76,-55],[-56,7],[-25,-13],[-6,-19],[-32,-28],[-29,-51],[-74,-26],[-25,-39],[33,-37],[16,-50],[-86,-31],[-43,-2],[-18,22],[-6,-20],[-55,0],[-57,-22],[-30,4],[-21,15],[-12,-17],[-31,3],[-22,-15],[-49,12],[-8,-16],[-34,6],[-25,-10],[-14,-25],[-70,14],[-52,-18],[-34,-45],[-33,3],[-20,-17],[8,-25],[-22,3],[-15,-47],[12,-11],[-50,-24],[-23,25],[-49,6],[-10,18],[-30,-10],[-41,19],[-81,15],[-82,28],[-29,24],[-33,-4],[-33,7],[-76,-32],[-47,6],[-86,-30]],[[5079,1308],[25,-14],[-8,-25],[11,-17],[-23,-25],[13,-39],[40,-9],[37,-24],[50,0],[19,-43],[24,-15],[48,-8],[74,-25],[16,12],[29,-16],[43,-48],[31,4],[44,-25],[-4,-37],[25,-30],[-7,-20],[50,-52],[34,-27],[25,-6],[2,-22],[47,-18],[131,-60],[28,18],[75,5],[25,-9],[48,-1],[22,-33],[47,-39],[43,-19],[-54,-70],[-37,-7],[34,-50],[70,-13],[8,-54],[26,-21],[-30,-29],[-2,-56],[12,-53],[-51,-42],[12,-25],[-54,-40],[-9,-20],[-26,-6],[-16,-23],[-41,-9],[-2,-16],[-60,-23],[-30,-4],[-22,-22],[-25,8],[-26,-24],[-30,1],[-49,-41],[-55,-2],[-53,20],[-59,30],[-49,10],[-19,-9],[-20,41],[-31,27],[-43,20],[-38,-13],[4,25],[-32,25],[-22,4],[22,19],[-31,30],[13,10],[-24,34],[-52,27],[-3,41],[-33,-8],[-23,6],[10,26],[25,20],[-49,26],[-10,27],[-37,3],[-9,30],[52,-15],[10,9],[-46,42],[-24,3],[15,35],[-33,5],[-20,28],[22,24],[-32,31],[-64,2],[-13,13],[21,15],[-21,20],[-27,-9],[-24,9],[44,12],[-26,13],[-12,24],[-29,7],[6,17],[-16,22],[43,12],[-87,22],[11,17],[-13,27],[-32,-3],[23,41],[19,0],[9,36],[-54,39],[-34,-1],[-1,19],[-24,23],[49,28],[-31,21],[-27,-14],[-22,6]],[[6256,2342],[46,-27],[-40,-33],[22,-36],[0,-33],[37,-12],[26,4],[127,-15],[-2,-19],[35,-17]],[[3589,680],[-54,-21],[-86,-16],[-73,37],[-88,-27],[-59,-3],[-30,-9],[-23,11],[-49,-4],[-49,36],[-29,-1],[-61,37],[-12,14],[-75,13],[-41,39],[17,36],[-11,13],[-72,0],[-46,-15],[-32,20],[-58,63],[14,16],[-12,26],[-44,35],[-36,37],[-22,36],[-32,21],[-15,55],[63,85],[37,30],[11,31],[-7,17],[11,30],[36,27],[58,29],[34,28],[66,23],[97,8],[38,11],[42,29],[12,85],[-11,49],[-53,61],[-56,45],[-7,20]],[[5888,8713],[37,27],[26,-3],[59,-29],[66,3],[33,8],[51,-2],[31,-10],[45,0],[19,-22],[74,-6],[36,-16],[87,11],[25,-6],[82,14],[8,28],[93,43],[37,9],[61,4],[33,-5],[43,7],[-3,24],[76,34],[6,33],[15,9]],[[6928,8868],[6,-33],[48,-6],[-14,-12],[-52,-5],[59,-10],[-29,-19],[-2,-22],[-47,-33],[12,-18],[38,-14],[18,-21],[68,-41],[20,9],[30,-9],[29,-53],[30,-16],[9,-22],[40,-11],[52,-35],[26,-30],[-18,-11],[13,-31],[93,-92],[45,15],[42,-13],[12,-32]],[[5888,8713],[-15,23],[21,0],[15,41],[26,-4],[46,21],[40,-6],[7,56],[50,48],[43,1],[1,21],[19,14],[38,-5],[41,43],[-4,39],[37,25],[6,52],[38,11],[-41,58],[21,47],[22,24],[32,64],[50,9],[-5,56],[-39,24],[13,20],[-4,39],[-20,-1],[24,28],[31,20],[13,30],[103,75],[53,13],[18,19]],[[6568,9618],[72,-8],[41,-25],[38,1],[21,14],[35,-10],[7,-36],[25,-9],[29,-30],[-9,-24],[-38,-18],[-1,-14],[39,-43],[43,-17],[45,-36],[40,11],[52,-2],[47,22],[63,0],[30,-7]],[[7147,9387],[-8,-34],[-30,-7],[-33,-31],[1,-17],[-62,-27],[-47,-13],[-6,-28],[12,-11],[-1,-50],[38,-48],[44,-11],[21,-17],[-17,-17],[-53,-7],[-24,-19],[-25,-57],[35,-16],[-11,-57],[-22,-34],[-31,-18]],[[7147,9387],[71,14],[34,-15],[32,4],[33,21],[59,4]],[[5222,9184],[2,17],[50,11],[27,-4],[13,27],[42,21],[-15,57],[-72,22],[-12,18],[20,14],[-41,49],[22,19],[-5,18],[28,18],[-43,29],[-24,33],[9,20],[-14,18],[52,16],[-18,41],[33,36],[6,30],[-12,23],[23,24],[13,31],[-32,31],[11,32],[-15,14],[17,51],[33,28],[-43,17],[21,14],[52,8],[42,32],[25,-14],[22,-31],[37,-7],[32,4],[19,24],[48,-3],[75,5],[27,-27],[-19,-59],[50,-3],[80,-87],[66,10],[28,-2],[15,25],[57,2],[55,28],[44,11],[33,-26],[46,-11],[36,-26],[50,-15],[48,11],[72,-29],[46,-32],[43,-5],[-6,-40],[75,-58],[30,4],[42,-30]]],"transform":{"scale":[0.00013084435363536507,0.00021784493669367263],"translate":[97.34347794000006,17.636971256000038]},"objects":{"Mae Hong Son":{"type":"GeometryCollection","geometries":[{"arcs":[[0]],"type":"Polygon","properties":{"Shape_Leng":0.0946105299877,"Shape_Area":0.000385135534328,"ADM3_EN":"Chong Kham","ADM3_TH":"จองคำ","ADM3_PCODE":"TH580101","ADM2_EN":"Mueang Mae Hong Son","ADM2_TH":"เมืองแม่ฮ่องสอน","ADM2_PCODE":"TH5801","ADM1_EN":"Mae Hong Son","ADM1_TH":"แม่ฮ่องสอน","ADM1_PCODE":"TH58","ADM0_EN":"Thailand","ADM0_TH":"ประเทศไทย","ADM0_PCODE":"TH"}},{"arcs":[[1,2,3,4,5,6]],"type":"Polygon","properties":{"Shape_Leng":1.2550882982,"Shape_Area":0.0382688592143,"ADM3_EN":"Huai Pong","ADM3_TH":"ห้วยโป่ง","ADM3_PCODE":"TH580102","ADM2_EN":"Mueang Mae Hong Son","ADM2_TH":"เมืองแม่ฮ่องสอน","ADM2_PCODE":"TH5801","ADM1_EN":"Mae Hong Son","ADM1_TH":"แม่ฮ่องสอน","ADM1_PCODE":"TH58","ADM0_EN":"Thailand","ADM0_TH":"ประเทศไทย","ADM0_PCODE":"TH"}},{"arcs":[[-7,7,8,9]],"type":"Polygon","properties":{"Shape_Leng":0.994963234357,"Shape_Area":0.0289260488061,"ADM3_EN":"Pha Bong","ADM3_TH":"ผาบ่อง","ADM3_PCODE":"TH580103","ADM2_EN":"Mueang Mae Hong Son","ADM2_TH":"เมืองแม่ฮ่องสอน","ADM2_PCODE":"TH5801","ADM1_EN":"Mae Hong Son","ADM1_TH":"แม่ฮ่องสอน","ADM1_PCODE":"TH58","ADM0_EN":"Thailand","ADM0_TH":"ประเทศไทย","ADM0_PCODE":"TH"}},{"arcs":[[-9,10,11,12,13],[-1]],"type":"Polygon","properties":{"Shape_Leng":1.13507578203,"Shape_Area":0.0328372888574,"ADM3_EN":"Pang Mu","ADM3_TH":"ปางหมู","ADM3_PCODE":"TH580104","ADM2_EN":"Mueang Mae Hong Son","ADM2_TH":"เมืองแม่ฮ่องสอน","ADM2_PCODE":"TH5801","ADM1_EN":"Mae Hong Son","ADM1_TH":"แม่ฮ่องสอน","ADM1_PCODE":"TH58","ADM0_EN":"Thailand","ADM0_TH":"ประเทศไทย","ADM0_PCODE":"TH"}},{"arcs":[[-12,14,15]],"type":"Polygon","properties":{"Shape_Leng":0.650004376792,"Shape_Area":0.0174368945833,"ADM3_EN":"Mok Champae","ADM3_TH":"หมอกจำแป่","ADM3_PCODE":"TH580105","ADM2_EN":"Mueang Mae Hong Son","ADM2_TH":"เมืองแม่ฮ่องสอน","ADM2_PCODE":"TH5801","ADM1_EN":"Mae Hong Son","ADM1_TH":"แม่ฮ่องสอน","ADM1_PCODE":"TH58","ADM0_EN":"Thailand","ADM0_TH":"ประเทศไทย","ADM0_PCODE":"TH"}},{"arcs":[[-13,-16,16,17,18,19]],"type":"Polygon","properties":{"Shape_Leng":0.94441511729,"Shape_Area":0.0308051704395,"ADM3_EN":"Huai Pha","ADM3_TH":"ห้วยผา","ADM3_PCODE":"TH580106","ADM2_EN":"Mueang Mae Hong Son","ADM2_TH":"เมืองแม่ฮ่องสอน","ADM2_PCODE":"TH5801","ADM1_EN":"Mae Hong Son","ADM1_TH":"แม่ฮ่องสอน","ADM1_PCODE":"TH58","ADM0_EN":"Thailand","ADM0_TH":"ประเทศไทย","ADM0_PCODE":"TH"}},{"arcs":[[-2,-10,-14,-20,20,21,22]],"type":"Polygon","properties":{"Shape_Leng":1.28880659639,"Shape_Area":0.0508725097011,"ADM3_EN":"Huai Pu Ling","ADM3_TH":"ห้วยปูลิง","ADM3_PCODE":"TH580109","ADM2_EN":"Mueang Mae Hong Son","ADM2_TH":"เมืองแม่ฮ่องสอน","ADM2_PCODE":"TH5801","ADM1_EN":"Mae Hong Son","ADM1_TH":"แม่ฮ่องสอน","ADM1_PCODE":"TH58","ADM0_EN":"Thailand","ADM0_TH":"ประเทศไทย","ADM0_PCODE":"TH"}},{"arcs":[[-5,23,24,25,26,27]],"type":"Polygon","properties":{"Shape_Leng":1.13854079805,"Shape_Area":0.0453208083029,"ADM3_EN":"Khun Yuam","ADM3_TH":"ขุนยวม","ADM3_PCODE":"TH580201","ADM2_EN":"Khun Yuam","ADM2_TH":"ขุนยวม","ADM2_PCODE":"TH5802","ADM1_EN":"Mae Hong Son","ADM1_TH":"แม่ฮ่องสอน","ADM1_PCODE":"TH58","ADM0_EN":"Thailand","ADM0_TH":"ประเทศไทย","ADM0_PCODE":"TH"}},{"arcs":[[-27,28,29,30]],"type":"Polygon","properties":{"Shape_Leng":0.982468854147,"Shape_Area":0.0277224049143,"ADM3_EN":"Mae Ngao","ADM3_TH":"แม่เงา","ADM3_PCODE":"TH580202","ADM2_EN":"Khun Yuam","ADM2_TH":"ขุนยวม","ADM2_PCODE":"TH5802","ADM1_EN":"Mae Hong Son","ADM1_TH":"แม่ฮ่องสอน","ADM1_PCODE":"TH58","ADM0_EN":"Thailand","ADM0_TH":"ประเทศไทย","ADM0_PCODE":"TH"}},{"arcs":[[-26,31,32,33,34,-29]],"type":"Polygon","properties":{"Shape_Leng":0.824509156629,"Shape_Area":0.0215982432479,"ADM3_EN":"Mueang Pon","ADM3_TH":"เมืองปอน","ADM3_PCODE":"TH580203","ADM2_EN":"Khun Yuam","ADM2_TH":"ขุนยวม","ADM2_PCODE":"TH5802","ADM1_EN":"Mae Hong Son","ADM1_TH":"แม่ฮ่องสอน","ADM1_PCODE":"TH58","ADM0_EN":"Thailand","ADM0_TH":"ประเทศไทย","ADM0_PCODE":"TH"}},{"arcs":[[-25,35,36,37,-32]],"type":"Polygon","properties":{"Shape_Leng":0.552829687902,"Shape_Area":0.0123816195303,"ADM3_EN":"Mae Yuam Noi","ADM3_TH":"แม่ยวมน้อย","ADM3_PCODE":"TH580204","ADM2_EN":"Khun Yuam","ADM2_TH":"ขุนยวม","ADM2_PCODE":"TH5802","ADM1_EN":"Mae Hong Son","ADM1_TH":"แม่ฮ่องสอน","ADM1_PCODE":"TH58","ADM0_EN":"Thailand","ADM0_TH":"ประเทศไทย","ADM0_PCODE":"TH"}},{"arcs":[[-30,-35,38,39]],"type":"Polygon","properties":{"Shape_Leng":0.668895108835,"Shape_Area":0.0149986249862,"ADM3_EN":"Mae Ki","ADM3_TH":"แม่กิ๊","ADM3_PCODE":"TH580205","ADM2_EN":"Khun Yuam","ADM2_TH":"ขุนยวม","ADM2_PCODE":"TH5802","ADM1_EN":"Mae Hong Son","ADM1_TH":"แม่ฮ่องสอน","ADM1_PCODE":"TH58","ADM0_EN":"Thailand","ADM0_TH":"ประเทศไทย","ADM0_PCODE":"TH"}},{"arcs":[[-4,40,-36,-24]],"type":"Polygon","properties":{"Shape_Leng":0.727814144861,"Shape_Area":0.017063320145,"ADM3_EN":"Mae U Kho","ADM3_TH":"แม่อูคอ","ADM3_PCODE":"TH580206","ADM2_EN":"Khun Yuam","ADM2_TH":"ขุนยวม","ADM2_PCODE":"TH5802","ADM1_EN":"Mae Hong Son","ADM1_TH":"แม่ฮ่องสอน","ADM1_PCODE":"TH58","ADM0_EN":"Thailand","ADM0_TH":"ประเทศไทย","ADM0_PCODE":"TH"}},{"arcs":[[41,42,43,44]],"type":"Polygon","properties":{"Shape_Leng":0.210349083554,"Shape_Area":0.00174201925652,"ADM3_EN":"Wiang Tai","ADM3_TH":"เวียงใต้","ADM3_PCODE":"TH580301","ADM2_EN":"Pai","ADM2_TH":"ปาย","ADM2_PCODE":"TH5803","ADM1_EN":"Mae Hong Son","ADM1_TH":"แม่ฮ่องสอน","ADM1_PCODE":"TH58","ADM0_EN":"Thailand","ADM0_TH":"ประเทศไทย","ADM0_PCODE":"TH"}},{"arcs":[[-42,45,46,47]],"type":"Polygon","properties":{"Shape_Leng":1.2063851523,"Shape_Area":0.0386801664358,"ADM3_EN":"Wiang Nuea","ADM3_TH":"เวียงเหนือ","ADM3_PCODE":"TH580302","ADM2_EN":"Pai","ADM2_TH":"ปาย","ADM2_PCODE":"TH5803","ADM1_EN":"Mae Hong Son","ADM1_TH":"แม่ฮ่องสอน","ADM1_PCODE":"TH58","ADM0_EN":"Thailand","ADM0_TH":"ประเทศไทย","ADM0_PCODE":"TH"}},{"arcs":[[-45,48,49,50,51,-46]],"type":"Polygon","properties":{"Shape_Leng":1.34850745556,"Shape_Area":0.0292148668481,"ADM3_EN":"Mae Na Toeng","ADM3_TH":"แม่นาเติง","ADM3_PCODE":"TH580303","ADM2_EN":"Pai","ADM2_TH":"ปาย","ADM2_PCODE":"TH5803","ADM1_EN":"Mae Hong Son","ADM1_TH":"แม่ฮ่องสอน","ADM1_PCODE":"TH58","ADM0_EN":"Thailand","ADM0_TH":"ประเทศไทย","ADM0_PCODE":"TH"}},{"arcs":[[-43,-48,52,53,54]],"type":"Polygon","properties":{"Shape_Leng":0.800429682504,"Shape_Area":0.0209066022291,"ADM3_EN":"Mae Hi","ADM3_TH":"แม่ฮี้","ADM3_PCODE":"TH580304","ADM2_EN":"Pai","ADM2_TH":"ปาย","ADM2_PCODE":"TH5803","ADM1_EN":"Mae Hong Son","ADM1_TH":"แม่ฮ่องสอน","ADM1_PCODE":"TH58","ADM0_EN":"Thailand","ADM0_TH":"ประเทศไทย","ADM0_PCODE":"TH"}},{"arcs":[[-44,-55,55,56,-49]],"type":"Polygon","properties":{"Shape_Leng":0.997937408744,"Shape_Area":0.0233172337694,"ADM3_EN":"Thung Yao","ADM3_TH":"ทุ่งยาว","ADM3_PCODE":"TH580305","ADM2_EN":"Pai","ADM2_TH":"ปาย","ADM2_PCODE":"TH5803","ADM1_EN":"Mae Hong Son","ADM1_TH":"แม่ฮ่องสอน","ADM1_PCODE":"TH58","ADM0_EN":"Thailand","ADM0_TH":"ประเทศไทย","ADM0_PCODE":"TH"}},{"arcs":[[-22,-56,57,58]],"type":"Polygon","properties":{"Shape_Leng":1.33002336647,"Shape_Area":0.0509440082877,"ADM3_EN":"Mueang Paeng","ADM3_TH":"เมืองแปง","ADM3_PCODE":"TH580306","ADM2_EN":"Pai","ADM2_TH":"ปาย","ADM2_PCODE":"TH5803","ADM1_EN":"Mae Hong Son","ADM1_TH":"แม่ฮ่องสอน","ADM1_PCODE":"TH58","ADM0_EN":"Thailand","ADM0_TH":"ประเทศไทย","ADM0_PCODE":"TH"}},{"arcs":[[-54,59,-58]],"type":"Polygon","properties":{"Shape_Leng":1.08863156798,"Shape_Area":0.0319307424844,"ADM3_EN":"Pong Sa","ADM3_TH":"โป่งสา","ADM3_PCODE":"TH580307","ADM2_EN":"Pai","ADM2_TH":"ปาย","ADM2_PCODE":"TH5803","ADM1_EN":"Mae Hong Son","ADM1_TH":"แม่ฮ่องสอน","ADM1_PCODE":"TH58","ADM0_EN":"Thailand","ADM0_TH":"ประเทศไทย","ADM0_PCODE":"TH"}},{"arcs":[[60,61,62,63,64]],"type":"Polygon","properties":{"Shape_Leng":0.739408093771,"Shape_Area":0.020760866139,"ADM3_EN":"Ban Kat","ADM3_TH":"บ้านกาศ","ADM3_PCODE":"TH580401","ADM2_EN":"Mae Sariang","ADM2_TH":"แม่สะเรียง","ADM2_PCODE":"TH5804","ADM1_EN":"Mae Hong Son","ADM1_TH":"แม่ฮ่องสอน","ADM1_PCODE":"TH58","ADM0_EN":"Thailand","ADM0_TH":"ประเทศไทย","ADM0_PCODE":"TH"}},{"arcs":[[-62,65,66,67,68,69]],"type":"Polygon","properties":{"Shape_Leng":0.381544072369,"Shape_Area":0.00574237500177,"ADM3_EN":"Mae Sariang","ADM3_TH":"แม่สะเรียง","ADM3_PCODE":"TH580402","ADM2_EN":"Mae Sariang","ADM2_TH":"แม่สะเรียง","ADM2_PCODE":"TH5804","ADM1_EN":"Mae Hong Son","ADM1_TH":"แม่ฮ่องสอน","ADM1_PCODE":"TH58","ADM0_EN":"Thailand","ADM0_TH":"ประเทศไทย","ADM0_PCODE":"TH"}},{"arcs":[[-63,-70,70,71,72]],"type":"Polygon","properties":{"Shape_Leng":2.47541487865,"Shape_Area":0.089432569471,"ADM3_EN":"Mae Khong","ADM3_TH":"แม่คง","ADM3_PCODE":"TH580403","ADM2_EN":"Mae Sariang","ADM2_TH":"แม่สะเรียง","ADM2_PCODE":"TH5804","ADM1_EN":"Mae Hong Son","ADM1_TH":"แม่ฮ่องสอน","ADM1_PCODE":"TH58","ADM0_EN":"Thailand","ADM0_TH":"ประเทศไทย","ADM0_PCODE":"TH"}},{"arcs":[[-67,73,74,75,76,77]],"type":"Polygon","properties":{"Shape_Leng":0.987340969819,"Shape_Area":0.0251061687455,"ADM3_EN":"Mae Ho","ADM3_TH":"แม่เหาะ","ADM3_PCODE":"TH580404","ADM2_EN":"Mae Sariang","ADM2_TH":"แม่สะเรียง","ADM2_PCODE":"TH5804","ADM1_EN":"Mae Hong Son","ADM1_TH":"แม่ฮ่องสอน","ADM1_PCODE":"TH58","ADM0_EN":"Thailand","ADM0_TH":"ประเทศไทย","ADM0_PCODE":"TH"}},{"arcs":[[-69,78,79,80,81,-71]],"type":"Polygon","properties":{"Shape_Leng":0.899541476987,"Shape_Area":0.0247638384054,"ADM3_EN":"Mae Yuam","ADM3_TH":"แม่ยวม","ADM3_PCODE":"TH580405","ADM2_EN":"Mae Sariang","ADM2_TH":"แม่สะเรียง","ADM2_PCODE":"TH5804","ADM1_EN":"Mae Hong Son","ADM1_TH":"แม่ฮ่องสอน","ADM1_PCODE":"TH58","ADM0_EN":"Thailand","ADM0_TH":"ประเทศไทย","ADM0_PCODE":"TH"}},{"arcs":[[-64,-73,82,83,84]],"type":"Polygon","properties":{"Shape_Leng":1.1108442436,"Shape_Area":0.0393859556767,"ADM3_EN":"Sao Hin","ADM3_TH":"เสาหิน","ADM3_PCODE":"TH580406","ADM2_EN":"Mae Sariang","ADM2_TH":"แม่สะเรียง","ADM2_PCODE":"TH5804","ADM1_EN":"Mae Hong Son","ADM1_TH":"แม่ฮ่องสอน","ADM1_PCODE":"TH58","ADM0_EN":"Thailand","ADM0_TH":"ประเทศไทย","ADM0_PCODE":"TH"}},{"arcs":[[-61,85,86,87,-74,-66]],"type":"Polygon","properties":{"Shape_Leng":0.924368697006,"Shape_Area":0.0190583353737,"ADM3_EN":"Pa Pae","ADM3_TH":"ป่าแป๋","ADM3_PCODE":"TH580408","ADM2_EN":"Mae Sariang","ADM2_TH":"แม่สะเรียง","ADM2_PCODE":"TH5804","ADM1_EN":"Mae Hong Son","ADM1_TH":"แม่ฮ่องสอน","ADM1_PCODE":"TH58","ADM0_EN":"Thailand","ADM0_TH":"ประเทศไทย","ADM0_PCODE":"TH"}},{"arcs":[[-85,88,89,90,91,92]],"type":"Polygon","properties":{"Shape_Leng":1.05831793431,"Shape_Area":0.0309297215913,"ADM3_EN":"Mae La Noi","ADM3_TH":"แม่ลาน้อย","ADM3_PCODE":"TH580501","ADM2_EN":"Mae La Noi","ADM2_TH":"แม่ลาน้อย","ADM2_PCODE":"TH5805","ADM1_EN":"Mae Hong Son","ADM1_TH":"แม่ฮ่องสอน","ADM1_PCODE":"TH58","ADM0_EN":"Thailand","ADM0_TH":"ประเทศไทย","ADM0_PCODE":"TH"}},{"arcs":[[-34,93,94,-89,-84,95,-39]],"type":"Polygon","properties":{"Shape_Leng":0.905174679637,"Shape_Area":0.020799211332,"ADM3_EN":"Mae La Luang","ADM3_TH":"แม่ลาหลวง","ADM3_PCODE":"TH580502","ADM2_EN":"Mae La Noi","ADM2_TH":"แม่ลาน้อย","ADM2_PCODE":"TH5805","ADM1_EN":"Mae Hong Son","ADM1_TH":"แม่ฮ่องสอน","ADM1_PCODE":"TH58","ADM0_EN":"Thailand","ADM0_TH":"ประเทศไทย","ADM0_PCODE":"TH"}},{"arcs":[[-65,-93,96,-86]],"type":"Polygon","properties":{"Shape_Leng":0.76336764956,"Shape_Area":0.0124175430141,"ADM3_EN":"Tha Pha Pum","ADM3_TH":"ท่าผาปุ้ม","ADM3_PCODE":"TH580503","ADM2_EN":"Mae La Noi","ADM2_TH":"แม่ลาน้อย","ADM2_PCODE":"TH5805","ADM1_EN":"Mae Hong Son","ADM1_TH":"แม่ฮ่องสอน","ADM1_PCODE":"TH58","ADM0_EN":"Thailand","ADM0_TH":"ประเทศไทย","ADM0_PCODE":"TH"}},{"arcs":[[-33,-38,97,98,99,100,-94]],"type":"Polygon","properties":{"Shape_Leng":0.596412868399,"Shape_Area":0.0117413754032,"ADM3_EN":"Mae Tho","ADM3_TH":"แม่โถ","ADM3_PCODE":"TH580504","ADM2_EN":"Mae La Noi","ADM2_TH":"แม่ลาน้อย","ADM2_PCODE":"TH5805","ADM1_EN":"Mae Hong Son","ADM1_TH":"แม่ฮ่องสอน","ADM1_PCODE":"TH58","ADM0_EN":"Thailand","ADM0_TH":"ประเทศไทย","ADM0_PCODE":"TH"}},{"arcs":[[-87,-97,-92,101,102]],"type":"Polygon","properties":{"Shape_Leng":0.518245677537,"Shape_Area":0.00911624080078,"ADM3_EN":"Huai Hom","ADM3_TH":"ห้วยห้อม","ADM3_PCODE":"TH580505","ADM2_EN":"Mae La Noi","ADM2_TH":"แม่ลาน้อย","ADM2_PCODE":"TH5805","ADM1_EN":"Mae Hong Son","ADM1_TH":"แม่ฮ่องสอน","ADM1_PCODE":"TH58","ADM0_EN":"Thailand","ADM0_TH":"ประเทศไทย","ADM0_PCODE":"TH"}},{"arcs":[[-91,103,-100,104,105,-102]],"type":"Polygon","properties":{"Shape_Leng":0.77911713109,"Shape_Area":0.0110974292515,"ADM3_EN":"Mae Na Chang","ADM3_TH":"แม่นาจาง","ADM3_PCODE":"TH580506","ADM2_EN":"Mae La Noi","ADM2_TH":"แม่ลาน้อย","ADM2_PCODE":"TH5805","ADM1_EN":"Mae Hong Son","ADM1_TH":"แม่ฮ่องสอน","ADM1_PCODE":"TH58","ADM0_EN":"Thailand","ADM0_TH":"ประเทศไทย","ADM0_PCODE":"TH"}},{"arcs":[[-90,-95,-101,-104]],"type":"Polygon","properties":{"Shape_Leng":0.84964836191,"Shape_Area":0.0128519948981,"ADM3_EN":"Santi Khiri","ADM3_TH":"สันติคีรี","ADM3_PCODE":"TH580507","ADM2_EN":"Mae La Noi","ADM2_TH":"แม่ลาน้อย","ADM2_PCODE":"TH5805","ADM1_EN":"Mae Hong Son","ADM1_TH":"แม่ฮ่องสอน","ADM1_PCODE":"TH58","ADM0_EN":"Thailand","ADM0_TH":"ประเทศไทย","ADM0_PCODE":"TH"}},{"arcs":[[-99,106,-105]],"type":"Polygon","properties":{"Shape_Leng":0.5439535,"Shape_Area":0.00953154790773,"ADM3_EN":"Khun Mae La Noi","ADM3_TH":"ขุนแม่ลาน้อย","ADM3_PCODE":"TH580508","ADM2_EN":"Mae La Noi","ADM2_TH":"แม่ลาน้อย","ADM2_PCODE":"TH5805","ADM1_EN":"Mae Hong Son","ADM1_TH":"แม่ฮ่องสอน","ADM1_PCODE":"TH58","ADM0_EN":"Thailand","ADM0_TH":"ประเทศไทย","ADM0_PCODE":"TH"}},{"arcs":[[-80,107,108,109,110]],"type":"Polygon","properties":{"Shape_Leng":0.877189031724,"Shape_Area":0.0247097084908,"ADM3_EN":"Sop Moei","ADM3_TH":"สบเมย","ADM3_PCODE":"TH580601","ADM2_EN":"Sop Moei","ADM2_TH":"สบเมย","ADM2_PCODE":"TH5806","ADM1_EN":"Mae Hong Son","ADM1_TH":"แม่ฮ่องสอน","ADM1_PCODE":"TH58","ADM0_EN":"Thailand","ADM0_TH":"ประเทศไทย","ADM0_PCODE":"TH"}},{"arcs":[[-68,-78,111,112,113,-108,-79]],"type":"Polygon","properties":{"Shape_Leng":0.680236665556,"Shape_Area":0.0145519058259,"ADM3_EN":"Mae Khatuan","ADM3_TH":"แม่คะตวน","ADM3_PCODE":"TH580602","ADM2_EN":"Sop Moei","ADM2_TH":"สบเมย","ADM2_PCODE":"TH5806","ADM1_EN":"Mae Hong Son","ADM1_TH":"แม่ฮ่องสอน","ADM1_PCODE":"TH58","ADM0_EN":"Thailand","ADM0_TH":"ประเทศไทย","ADM0_PCODE":"TH"}},{"arcs":[[-77,114,115,-112]],"type":"Polygon","properties":{"Shape_Leng":0.963734244813,"Shape_Area":0.0190586214111,"ADM3_EN":"Kong Koi","ADM3_TH":"กองก๋อย","ADM3_PCODE":"TH580603","ADM2_EN":"Sop Moei","ADM2_TH":"สบเมย","ADM2_PCODE":"TH5806","ADM1_EN":"Mae Hong Son","ADM1_TH":"แม่ฮ่องสอน","ADM1_PCODE":"TH58","ADM0_EN":"Thailand","ADM0_TH":"ประเทศไทย","ADM0_PCODE":"TH"}},{"arcs":[[-109,-114,116]],"type":"Polygon","properties":{"Shape_Leng":1.18559234547,"Shape_Area":0.0299428439282,"ADM3_EN":"Mae Suat","ADM3_TH":"แม่สวด","ADM3_PCODE":"TH580604","ADM2_EN":"Sop Moei","ADM2_TH":"สบเมย","ADM2_PCODE":"TH5806","ADM1_EN":"Mae Hong Son","ADM1_TH":"แม่ฮ่องสอน","ADM1_PCODE":"TH58","ADM0_EN":"Thailand","ADM0_TH":"ประเทศไทย","ADM0_PCODE":"TH"}},{"arcs":[[-76,117,-115]],"type":"Polygon","properties":{"Shape_Leng":0.560112023181,"Shape_Area":0.00732107253694,"ADM3_EN":"Pa Pong","ADM3_TH":"ป่าโปง","ADM3_PCODE":"TH580605","ADM2_EN":"Sop Moei","ADM2_TH":"สบเมย","ADM2_PCODE":"TH5806","ADM1_EN":"Mae Hong Son","ADM1_TH":"แม่ฮ่องสอน","ADM1_PCODE":"TH58","ADM0_EN":"Thailand","ADM0_TH":"ประเทศไทย","ADM0_PCODE":"TH"}},{"arcs":[[-81,-111,118]],"type":"Polygon","properties":{"Shape_Leng":0.883808749055,"Shape_Area":0.0263015790333,"ADM3_EN":"Mae Sam Laep","ADM3_TH":"แม่สามแลบ","ADM3_PCODE":"TH580606","ADM2_EN":"Sop Moei","ADM2_TH":"สบเมย","ADM2_PCODE":"TH5806","ADM1_EN":"Mae Hong Son","ADM1_TH":"แม่ฮ่องสอน","ADM1_PCODE":"TH58","ADM0_EN":"Thailand","ADM0_TH":"ประเทศไทย","ADM0_PCODE":"TH"}},{"arcs":[[-19,119,120,-50,-57,-21]],"type":"Polygon","properties":{"Shape_Leng":0.99523408612,"Shape_Area":0.0273278194721,"ADM3_EN":"Sop Pong","ADM3_TH":"สบป่อง","ADM3_PCODE":"TH580701","ADM2_EN":"Pang Mapha","ADM2_TH":"ปางมะผ้า","ADM2_PCODE":"TH5807","ADM1_EN":"Mae Hong Son","ADM1_TH":"แม่ฮ่องสอน","ADM1_PCODE":"TH58","ADM0_EN":"Thailand","ADM0_TH":"ประเทศไทย","ADM0_PCODE":"TH"}},{"arcs":[[-120,121,122,123]],"type":"Polygon","properties":{"Shape_Leng":0.816487450264,"Shape_Area":0.0174400210033,"ADM3_EN":"Pang Mapha","ADM3_TH":"ปางมะผ้า","ADM3_PCODE":"TH580702","ADM2_EN":"Pang Mapha","ADM2_TH":"ปางมะผ้า","ADM2_PCODE":"TH5807","ADM1_EN":"Mae Hong Son","ADM1_TH":"แม่ฮ่องสอน","ADM1_PCODE":"TH58","ADM0_EN":"Thailand","ADM0_TH":"ประเทศไทย","ADM0_PCODE":"TH"}},{"arcs":[[-51,-121,-124,124]],"type":"Polygon","properties":{"Shape_Leng":0.768435473326,"Shape_Area":0.0198909932852,"ADM3_EN":"Tham Lot","ADM3_TH":"ถ้ำลอด","ADM3_PCODE":"TH580703","ADM2_EN":"Pang Mapha","ADM2_TH":"ปางมะผ้า","ADM2_PCODE":"TH5807","ADM1_EN":"Mae Hong Son","ADM1_TH":"แม่ฮ่องสอน","ADM1_PCODE":"TH58","ADM0_EN":"Thailand","ADM0_TH":"ประเทศไทย","ADM0_PCODE":"TH"}},{"arcs":[[-18,125,-122]],"type":"Polygon","properties":{"Shape_Leng":1.01918040173,"Shape_Area":0.0300501814814,"ADM3_EN":"Na Pu Pom","ADM3_TH":"นาปู่ป้อม","ADM3_PCODE":"TH580704","ADM2_EN":"Pang Mapha","ADM2_TH":"ปางมะผ้า","ADM2_PCODE":"TH5807","ADM1_EN":"Mae Hong Son","ADM1_TH":"แม่ฮ่องสอน","ADM1_PCODE":"TH58","ADM0_EN":"Thailand","ADM0_TH":"ประเทศไทย","ADM0_PCODE":"TH"}}]}}}