{"type":"Topology","arcs":[[[7345,5547],[-10,-81],[-20,-124],[-11,-150],[15,-163],[12,-76]],[[7331,4953],[-110,-25],[7,-43],[-44,-11],[-73,-28],[13,-31],[-25,-12],[-7,-55]],[[7092,4748],[-25,-31],[0,-17],[-17,5]],[[7050,4705],[-18,9],[-59,-44],[-28,-8],[17,-30],[-24,-19],[-26,7],[-21,-25],[-37,10],[-2,12],[-46,19],[-28,3],[3,19],[-118,261],[4,24],[-67,21],[-46,-22],[-23,-67],[-40,-28],[-55,22],[-53,-5],[-30,-25],[-20,0],[-9,-33],[-22,-44],[-12,-8],[-105,11],[-79,20],[-44,22],[-66,75]],[[5996,4882],[-1,9],[35,56],[15,10],[21,58],[-24,29],[20,44],[10,75],[-12,42],[5,26],[-14,46],[1,35],[-18,27],[49,67],[13,41],[18,28],[-6,48],[43,31],[21,-34],[23,-1],[5,51],[15,-20],[8,9],[23,-22],[6,16],[33,-8],[-2,-40],[14,-1],[18,29],[14,-28],[16,10],[0,-23],[30,13],[-8,26],[30,5],[1,33],[20,37],[20,-8],[16,-22],[5,35],[24,-7],[1,52],[11,16],[-14,55],[-27,13],[-15,22],[-25,17],[11,20],[-26,18],[0,18],[24,85]],[[6423,5920],[40,-41],[51,-93],[66,-44],[19,-43],[21,-16],[46,-57],[16,23],[36,-1],[6,-30],[13,-17],[24,-7],[27,37],[45,-33],[17,-24],[42,-12],[18,-21],[35,16],[32,7],[15,-11],[38,-5],[107,2],[208,-3]],[[7331,4953],[39,-89],[23,-89],[13,-31],[67,-80],[49,-83],[40,-54]],[[7562,4527],[-164,-152],[-93,145],[-58,94],[-155,134]],[[6091,6609],[-37,-10],[-21,-22],[-25,-3],[-21,-20],[-8,-24],[-17,-11],[3,-88],[26,-67],[-4,-18],[-28,-29],[-13,-55],[8,-15],[-25,-14],[11,-33],[-4,-18],[29,-57],[-3,-42],[-41,-21],[-9,-17],[-32,-9],[-7,-46],[-21,-16],[-47,-8],[-14,-22],[-19,-6],[1,-50]],[[5773,5888],[-27,-3],[-32,10],[-46,-7],[-27,-11],[-25,-26],[-33,-14],[-41,-31],[-137,-119],[-10,4],[-21,-46],[-11,1],[-67,-61],[-29,-50],[-29,-16],[-6,-18],[13,-16],[-6,-58],[-13,-15],[0,-41],[40,-97],[-9,-45],[-36,-59],[-13,-49],[-12,-17],[-11,-55],[-21,-14],[-32,-55]],[[5132,4980],[-17,7],[-32,-41],[0,-15],[-20,-17],[-38,-5],[-26,8],[-5,20],[-24,4],[-7,14],[-30,19],[-27,54]],[[4906,5028],[-4,37],[-15,10],[-11,51],[18,5],[-3,20],[14,30],[-14,19]],[[4891,5200],[10,37],[12,-3],[-6,45],[38,113],[-7,18],[22,98],[13,11],[-5,28],[7,34],[-17,12],[-2,37],[31,77],[16,-3],[14,21],[19,5],[8,36],[-10,17],[-27,-2],[-24,19],[-15,36],[-14,11],[-53,15],[-32,48],[-18,13],[-16,48],[-18,26],[1,58],[6,11],[-17,28]],[[4807,6094],[17,30],[14,71],[5,59],[39,-8],[-3,45],[31,14],[93,59],[21,19],[-8,15],[32,44],[-8,23],[6,38],[34,38],[21,-11],[15,13],[3,61],[34,102]],[[5153,6706],[21,37],[65,18],[20,-1],[34,16],[38,38],[16,8],[50,62],[17,9],[198,64],[50,18],[68,14],[32,-7],[26,-26],[29,-8],[23,-29],[38,-19],[61,-10],[41,-95],[-13,-22],[10,-30],[-3,-40],[23,-15],[29,-43],[47,-20],[18,-16]],[[6423,5920],[0,43],[23,26],[38,-1],[15,13],[6,28],[13,9],[17,52],[1,35],[-11,25],[-18,13],[-28,3],[-8,23],[-1,44],[42,32],[9,32],[13,15],[-11,25],[1,48],[-16,43],[-1,33],[15,44],[-7,11],[-49,-5],[-34,-17],[-15,33],[-34,38],[-36,-5],[-17,23],[33,106]],[[6363,6689],[18,6],[1,36],[26,-6],[31,16],[28,-10],[25,-20],[56,-4],[40,16],[-65,103],[175,7],[24,-39],[102,2],[33,-7]],[[6857,6789],[5,-354],[19,-20],[23,1],[25,-31],[12,7],[32,-16],[17,31],[25,1],[4,-33],[33,-31],[19,26],[11,1],[31,-86],[14,-26],[56,2],[19,-30],[8,-64],[57,-54],[40,3],[33,12],[58,-19]],[[7398,6109],[-17,-128],[1,-86],[-4,-116],[-14,-133],[-19,-99]],[[5996,4882],[-40,-85],[-12,-39],[-45,-30],[-13,-21],[1,-32],[19,-21],[-15,-26],[-8,-38],[-17,-8],[-16,-53],[-22,-34],[5,-16]],[[5833,4479],[-28,-3],[-33,22],[-19,-6],[-11,25],[-33,20],[-21,1],[-45,37],[-82,-6],[-31,9],[-11,23],[-28,11],[-50,42],[-3,35],[-21,15],[-3,32],[17,47],[-10,21],[-22,13],[13,18],[-20,30],[-8,31],[-16,24]],[[5368,4920],[18,17],[-11,19],[17,17],[15,62],[16,16],[21,1],[35,45],[-7,26],[-17,16],[31,17],[11,24],[21,12],[2,21],[25,37],[32,-15],[12,49],[47,10],[4,18],[42,18],[45,68],[-7,38],[7,36],[-18,19],[-5,31],[16,7],[-9,32],[-15,-6],[-19,41],[-13,-3],[-1,22],[36,53],[4,27],[40,37],[25,48],[1,22],[19,14],[3,32],[-18,40]],[[6091,6609],[43,67],[28,-1],[25,20],[57,25],[22,3],[14,16],[46,20],[30,-44],[7,-26]],[[4891,5200],[-42,27],[-10,22],[5,28],[-11,17],[8,44],[-5,68],[13,35],[-15,41],[6,26],[-59,-3],[-58,26],[-9,61],[23,31],[30,14],[-8,26],[-22,3],[-7,26],[-31,40],[-43,5],[-19,26],[-38,8],[-10,25],[-21,2]],[[4568,5798],[0,18],[-18,-2],[-13,31],[-50,27],[-17,46],[-22,100],[-22,1],[-21,17],[-45,-2],[-14,27],[-19,12],[-25,49],[-19,71],[-30,19]],[[4253,6212],[42,177],[2,28],[-12,17],[-2,29]],[[4283,6463],[11,12],[45,2],[12,17],[18,-18],[21,15],[32,-16],[62,-4],[-2,-37],[12,-23],[11,10],[31,-87],[47,1],[13,-8],[21,21],[25,-16],[33,5],[8,-35],[-2,-58],[15,6],[34,-17],[13,-26],[-16,-51],[17,-48],[63,-14]],[[5132,4980],[18,-26],[31,3],[25,-12],[37,-6],[18,23],[24,-7],[59,-48],[24,13]],[[5833,4479],[5,-63],[-27,-36],[3,-34],[-13,-57],[0,-51],[-5,-13],[6,-44],[-16,-36],[-5,-78],[33,-152],[16,-24],[16,-6],[21,-66],[1,-50]],[[5868,3769],[-10,-8],[-56,21],[-30,108],[-2,27],[-21,-14],[-7,-53],[-15,-36],[-8,-44],[-25,-38],[-23,9],[-40,-11],[-20,18],[-33,-41],[-50,-125],[-14,-9],[-14,-48],[-28,-38],[-12,-30],[-30,-34],[8,-25],[-21,-57],[69,-25],[-8,-35],[13,-35],[1,-78],[-17,-61],[7,-35],[-15,-13]],[[5467,3059],[-31,17],[0,18],[25,-4],[8,18],[-32,10],[-7,52],[-17,36],[-9,46],[-38,3],[-17,41],[-31,-51],[-12,30],[-17,11],[-38,-4],[-19,-24],[-24,31],[-42,14]],[[5166,3303],[-3,36],[-21,18],[-29,-15],[-20,3],[-13,45],[-20,1],[-37,-24],[-26,-7],[-20,23],[5,35],[-11,11],[-45,16],[-16,56],[-16,21],[-30,-34],[-17,11],[18,34],[4,47],[-18,23],[-41,-16],[-24,10],[-46,-12],[-51,9],[-33,-17],[-13,5],[-10,55],[-22,10],[-24,-12],[-22,29],[-32,23],[-37,17],[-27,-40],[-24,-8]],[[4445,3656],[-10,9],[3,26],[16,17],[3,24],[-72,35],[5,45],[-18,55],[-29,1],[-3,28],[-34,23],[-45,15],[-38,43],[-36,-1],[6,17],[-29,-2],[-6,-17],[-22,0]],[[4136,3974],[-14,7],[-1,37],[-16,25],[8,47],[17,-4],[-5,27],[8,31],[-27,20],[-24,66],[-13,4],[-3,25],[-48,18],[2,21],[17,39],[1,48],[-6,25],[-6,75],[-10,36],[18,41],[29,19],[52,58],[5,34],[1,97]],[[4121,4770],[-7,40],[44,72],[27,1],[89,-27],[45,-5],[14,-20],[80,-46],[9,-22]],[[4422,4763],[33,-16],[67,35],[59,0],[22,-12],[29,-33],[36,-6],[42,-56],[46,2],[17,-30],[19,5],[3,26],[-13,38],[21,40],[-10,43],[2,49],[46,48],[10,34],[-5,17],[33,20],[18,26],[9,35]],[[7562,4527],[84,-111],[84,-99],[49,-51],[200,-164],[34,-25],[77,-46],[86,-46],[71,-47],[120,-58],[26,-24],[56,-34],[48,-45],[23,-29],[76,-134],[47,-103],[51,-136]],[[8694,3375],[-75,-29],[-53,2]],[[8566,3348],[-42,5],[-57,19],[-85,45],[-57,41],[-42,-35],[-34,58],[-48,-36],[-50,24],[-38,-10],[-4,-27],[-24,-78],[0,-41],[-25,-16],[-56,16],[-46,-14],[-25,15],[-21,-4],[-31,10],[-47,-5],[-27,26]],[[7807,3341],[-59,12],[-33,27],[-47,3],[-60,19],[-45,41],[-44,8],[-31,30],[-7,65],[-37,62],[-32,17],[-44,-25],[-58,-42]],[[7310,3558],[34,55],[10,53],[-48,70],[-14,47],[-25,43],[-59,65],[-9,38],[11,35],[10,61],[17,52],[-12,46],[-6,80],[-22,50],[7,44],[-15,64],[-32,63],[-18,87],[-34,39],[-16,33],[10,20],[-43,22],[-6,80]],[[5153,6706],[-8,44],[-12,21],[22,33],[-32,63],[8,24],[-19,0],[-14,-19],[-26,9],[-11,-14],[-38,25],[-4,127],[-5,68],[-1,75],[18,18],[7,31],[21,21],[14,45],[32,23],[-4,20],[30,28],[9,28],[20,5],[14,29],[-12,66],[31,37],[27,-13],[15,14]],[[5235,7514],[35,-11],[19,-29],[18,14],[-23,23],[13,66],[12,17],[53,-21],[5,24],[-16,40],[13,19],[38,-13],[9,50],[14,9],[11,39],[5,45],[52,30],[42,74],[38,20]],[[5573,7910],[28,15],[5,47],[39,10],[23,19],[13,24]],[[5681,8025],[30,-2],[52,-24],[37,6],[17,-11],[10,-42],[12,-21],[23,-13],[53,-13],[47,-20],[22,-1],[22,21],[19,47],[26,17],[63,-3],[38,-25],[1,38],[21,20],[28,5],[51,-48],[66,-5],[13,18],[13,58],[-6,67],[6,11],[2,71],[-6,17],[11,27],[3,41],[11,19],[20,8],[18,29],[22,14],[21,31],[33,20],[11,28]],[[6491,8410],[26,-4],[3,-34],[32,2],[11,-31],[25,-4],[7,47],[-7,27],[45,25],[24,6],[12,15],[14,-30],[53,18],[47,-1],[7,-19],[58,-42]],[[6848,8385],[36,1],[12,24],[16,-1],[51,-37],[20,-34],[27,-12]],[[7010,8326],[13,-29],[-10,-46],[16,-51],[47,-1],[10,-21],[-5,-30],[41,-50],[-8,-63],[-29,-19],[-11,14],[-1,-33],[-18,-20],[0,-52],[8,-10],[-20,-37],[-38,10],[-58,-57],[-16,-39],[14,-26],[-21,-65],[-30,-66]],[[6894,7635],[21,-25],[65,-28],[8,-26],[23,-27],[-164,-1],[5,-341],[179,-4],[-4,-60],[45,-2]],[[7072,7121],[1,-91],[-37,4],[-18,-47],[1,-17],[-32,-9],[-7,-22]],[[6980,6939],[6,-61],[21,-31],[3,-33],[-23,-37],[-9,22],[-54,25],[-35,-11],[-33,19],[1,-43]],[[7310,3558],[-21,-62],[-65,-51],[-21,-25],[-65,-55],[-36,-16],[-22,21],[-42,-16],[-41,5],[-29,40],[-29,6],[-47,-12],[-13,16],[-30,8],[-49,-20],[-36,9],[-38,32],[-17,1],[-34,40],[-20,52],[0,31],[-21,38],[-29,6],[-32,-25],[-58,-35],[-53,6],[-54,18],[-9,20],[-16,-8],[3,37],[-11,6],[-23,-24],[-12,-25],[-43,-32],[-1,-49],[7,-21],[-6,-36],[11,-7],[4,-44],[-32,-36],[-19,-50],[-13,-58]],[[6248,3243],[-17,12],[-18,65],[-30,5],[-2,84],[-60,51],[-8,14],[-19,69],[-21,23],[6,13],[-21,34],[-56,22],[-12,-4],[-42,128],[-30,20],[-50,-10]],[[7807,3341],[-9,-36],[4,-32],[-17,-22],[-12,-37],[1,-51],[29,-52]],[[7803,3111],[-33,-7],[-17,-28],[-34,18],[-44,-3],[-11,-22],[-39,-30],[-1,-66],[-17,-62],[-30,-80],[-6,-57],[5,-84],[20,-38],[19,-74],[-7,-64],[8,-17],[-8,-23],[-20,-15],[-10,-25],[7,-37],[3,-60],[10,-48],[-9,-20],[-17,4],[-11,-44],[-14,6],[0,42],[-20,2],[-27,61],[-32,2],[-15,30],[-19,0],[-10,-58],[7,-31],[-22,-49],[7,-46],[-19,-8],[9,-16],[-21,-18],[-2,-40],[-15,-17],[1,-51],[-6,-26],[-14,-6],[-14,-33],[8,-13],[-17,-33],[4,-51],[-73,-96],[-8,6],[-40,-50]],[[7209,1736],[-12,-20],[-31,0],[-38,-26],[-47,15],[-5,-17],[-48,-30],[1,-21],[-26,-41],[-24,-8],[-28,-28],[1,-28],[-18,-13],[-13,-55],[-19,-32],[-26,-21],[-16,-1],[-37,17],[-40,59],[-11,3],[-36,-25],[-67,-67],[-23,-17],[-16,-42],[-6,-38],[-17,-20],[-19,4],[-17,-34],[-21,-11],[-15,-37],[-29,-23]],[[6506,1179],[-1,38],[-14,26],[1,23],[-16,31],[1,20],[-19,25],[-13,36],[-2,47],[7,64],[-12,41],[-4,105],[4,37],[-59,82],[-10,21],[-2,46],[17,82],[22,76],[-9,32],[-32,30],[-127,59],[-61,13],[-73,-33]],[[6104,2080],[-2,9],[5,107],[13,40],[51,78],[79,11],[24,7],[15,31],[-17,44],[-9,46],[1,58],[10,25]],[[6274,2536],[21,-1],[1,27],[0,195],[22,13],[31,38],[-6,43],[-27,27],[-8,25],[-8,91],[-7,14],[-4,64],[-22,40],[-40,23],[-19,40],[36,52],[4,16]],[[4283,6463],[15,54],[14,29],[23,28],[7,23],[-7,40],[13,18],[33,18],[18,19],[9,35],[-1,50],[13,8],[13,40],[0,69],[-50,68],[-12,2],[-49,-40],[-36,-9],[-7,41],[25,17],[-4,22],[30,53],[16,-1],[19,21],[-3,19],[25,34],[22,61],[-7,38],[-24,28],[-66,32],[-32,-8],[-31,12],[-56,45]],[[4193,7329],[23,19],[35,59],[109,78],[56,59],[40,20],[68,22],[46,3],[47,17],[56,8],[20,9],[45,35],[64,17],[-2,-9],[41,-27],[44,-6],[82,12],[20,-19],[11,-94],[22,-2],[31,51],[21,-1],[26,-37],[37,-12],[68,10],[32,-27]],[[5272,2745],[199,-318],[14,4],[58,-47],[-17,-28],[-2,-23],[34,-51],[-39,-5],[0,-30],[47,-49],[-5,-8],[-36,11],[-11,-38],[-3,-49],[20,-21],[-8,-22],[15,-32],[59,-55],[17,-39],[62,13],[30,-12],[62,-52],[62,-17],[47,-31],[24,-29]],[[5901,1817],[-4,-138],[-12,-35],[-23,-30],[-29,-22],[-6,-22],[20,-50],[41,-55],[-25,-34],[-88,-6],[-153,-23],[-75,5],[-50,-6],[-55,-26],[-21,-17]],[[5421,1358],[-2,27],[-18,41],[-42,67],[-39,125],[-28,61],[-6,28],[2,47],[-6,9],[-43,1],[-36,8],[-35,30],[-16,26]],[[5152,1828],[14,82],[-6,22],[11,44],[14,3],[30,86],[14,13],[-8,41],[-23,2],[-23,21],[0,12],[-55,23],[-2,35],[-17,30],[-44,13],[-44,6],[-19,16],[-11,49],[-17,17],[-25,7],[-3,22],[15,68],[-2,42],[12,33],[-7,18],[14,40],[-16,6],[-8,22],[-34,48],[-28,-29],[-42,69]],[[4842,2689],[44,23],[2,15],[31,14],[32,1],[18,13],[26,-2],[14,17],[35,-9],[11,17],[31,-8],[31,9],[22,-34],[12,9],[40,-20],[7,-25],[33,-3],[41,39]],[[5467,3059],[13,-42],[-23,-22],[-2,-14],[24,-42],[28,-13],[28,-30],[27,-14],[19,-37],[3,21],[22,7],[25,-19],[-23,-6],[-1,-21],[24,-24],[10,22],[32,-7],[19,-55],[-19,-44],[47,-19],[13,-11],[12,14],[33,5],[3,-28],[22,1],[-5,-23],[46,-15],[-6,-36],[27,-40],[24,1],[26,-20],[-14,-37],[0,-33],[-22,-7],[21,-24],[42,21],[49,-43],[24,-14],[-1,29],[11,9],[-8,47],[26,17],[19,1],[37,-19],[2,68],[-14,25],[14,54],[24,7],[7,-11],[-12,-41],[50,-8],[19,-16],[26,8],[25,-36],[34,-9]],[[6104,2080],[-55,-44],[-70,-46],[-23,-33],[-3,-70],[-6,-17],[-46,-53]],[[5272,2745],[-123,199],[16,16],[-24,53],[-22,107],[-12,42],[4,39],[20,15],[-3,34],[38,53]],[[4842,2689],[-45,-30],[-42,-13],[-74,-10],[-2,-13],[-40,-32],[-5,-19],[-23,-19],[-9,-28],[-26,1],[-20,-12],[-13,-39],[-278,79],[3,22]],[[4268,2576],[20,94],[-1,37],[8,79],[15,67],[18,8],[8,54],[3,71],[9,80],[47,42],[5,10],[-5,133],[-4,27],[8,39],[-4,59],[-20,34],[23,91],[16,51],[-5,47]],[[4409,3599],[16,43],[20,14]],[[6506,1179],[3,-51],[16,-58],[18,-31],[36,-25],[24,-33],[7,-47],[-53,-97],[-29,-24]],[[6528,813],[-7,-11],[-23,-73],[-11,-85],[10,-9],[-27,-73],[-27,-23],[-15,5],[-32,-30],[-49,-60],[-41,-34],[-32,-16],[-121,-44],[-33,5],[-34,24],[-83,28],[-25,16],[-16,22],[-14,47],[-20,28],[-67,14],[-30,29],[11,14],[-5,156],[-33,42],[-49,-14],[-75,-50],[-31,10],[-55,69],[-39,94],[-4,84],[-19,42],[-59,22],[-51,-4],[-31,25],[-36,-20],[-13,45],[29,62],[4,28],[-10,61],[16,16],[1,74],[10,15],[29,14]],[[5152,1828],[-13,14],[-40,-14],[-35,-22],[-41,6],[-38,-18],[-20,1],[-22,21],[-43,-8],[-50,17],[-17,26],[-11,37],[-5,111],[-29,27],[-19,35],[-3,27],[7,21],[-56,37],[-66,18],[-120,9],[-93,48],[-80,-10],[-37,-20],[-54,-20],[-57,21]],[[4210,2192],[4,30],[-1,124],[5,55],[-5,68],[16,23],[9,94],[30,-10]],[[4210,2192],[-94,7],[-70,10],[-143,31],[-46,-25],[-63,3],[-42,18],[-41,6],[-80,-7]],[[3631,2235],[-12,69],[1,22],[34,41],[16,42],[44,68],[7,32],[-4,71],[46,61],[21,84],[51,94],[15,96],[17,34],[21,74],[51,43],[11,28],[9,-17],[23,-1],[12,32],[-2,52],[23,31],[55,46],[136,84],[32,13],[25,25]],[[4263,3359],[4,43],[-4,54],[8,27],[46,84],[15,10],[77,22]],[[9052,2221],[66,-69],[48,-27],[18,-3],[100,19],[87,-29],[60,-42],[31,-37],[20,-54],[0,-24],[21,-67],[13,-23],[119,-150],[35,-66],[68,-119],[30,-45],[46,-44],[113,-76],[72,-64],[-20,-15],[-41,-14],[8,-19],[-13,-24],[-3,19],[-112,84],[-27,41],[-29,-30],[-13,-31],[4,-29]],[[9753,1283],[-27,-31],[-18,16],[-29,-47],[-28,-23],[-4,21],[-62,16],[-7,34],[-9,-6],[-23,19],[-63,36],[-40,-30],[-22,-31],[-16,-36],[-20,-13],[-7,-33],[-40,0],[-5,-15],[-62,15],[-34,-27],[-26,-92],[-46,-41],[-34,-16],[-15,-34],[-18,-4],[-62,21],[-25,19],[-13,26],[-38,8],[-32,25],[-28,56]],[[8900,1116],[13,40],[2,36],[-8,31],[16,40],[-14,41],[-6,63],[6,17],[26,25],[40,139],[-4,49],[15,113],[-7,44],[0,49],[15,25],[-10,40],[11,125],[4,74],[6,51],[-18,14],[-37,95]],[[8950,2227],[63,3],[39,-9]],[[8694,3375],[39,-160],[3,-38],[-22,-110],[0,-63],[28,-74],[46,-65],[32,-90],[15,-23],[62,-72],[62,-100],[19,-70],[-7,-67],[3,-57],[17,-62],[15,-17],[46,-86]],[[8950,2227],[-12,-10],[-30,-55],[-21,10],[23,29],[-8,20],[-28,20],[-20,-11],[-24,22],[-43,-2],[-22,5],[-54,61],[-107,35],[-12,-7],[10,-36]],[[8602,2308],[-33,-13],[-32,25],[-13,67],[1,24],[-11,33],[-32,18],[1,46],[22,8],[8,35],[7,103],[-10,50],[-26,48],[-39,81]],[[8445,2833],[59,32],[31,32],[36,50],[-186,305],[61,22],[33,44],[87,30]],[[7209,1736],[17,-35],[-4,-27],[-52,-60],[-56,-39],[-74,-133],[-12,-36],[8,-33],[38,-20],[19,2],[48,-52],[13,-33],[27,-22],[12,-47],[23,-16],[42,-14],[39,-33],[25,1],[78,61],[48,-3],[26,-26],[30,-51],[32,18],[0,25],[15,3],[18,46],[38,1],[31,28],[18,-2],[20,22],[29,62],[24,10],[18,37],[9,-12],[21,34],[-9,16],[37,37],[20,33],[69,36]],[[7894,1514],[7,-84],[34,-22],[7,-80],[26,-31],[16,-4],[6,-30],[-10,-4],[3,-31],[-19,-23],[-2,-69],[-13,-27],[-26,-14],[-7,-33],[23,-19],[-9,-30],[27,-66],[27,-14],[9,-18],[65,-31],[22,57],[27,-7],[16,7],[23,-8],[28,7],[16,21],[49,15],[26,0],[9,11],[48,14],[14,-11]],[[8336,990],[-27,-73],[-31,-6],[-32,-31],[-42,-61],[-27,-4],[-17,-58],[-11,4],[-13,-43],[-32,12],[-8,-30],[-16,3],[-32,-30],[-8,-19],[-47,-7],[-29,-18],[-6,-32],[-22,-44],[1,-41],[-22,-25],[-8,-46],[-27,-18],[-3,-26],[-25,-18],[-24,-42],[-29,-118],[-16,-46]],[[7783,173],[-35,-13],[-89,-5],[-42,40],[-48,21],[-18,-7],[-25,-33],[-24,8],[-19,34],[-24,26],[-15,2],[-47,-15],[-49,1],[-126,12],[-26,8],[-63,1],[-20,6],[-20,38],[-42,41],[-18,10],[-21,-26],[-26,-18],[-38,30],[-29,48],[-56,20],[-17,21],[-1,44],[9,32],[-2,36],[-23,38],[-29,4],[-67,-21],[-135,73],[-34,57],[-2,27],[-19,43],[-15,57]],[[7803,3111],[19,-24],[28,1],[35,-20],[42,-32],[3,-39],[12,-15],[50,2],[38,-64],[23,-23],[-1,-32],[16,-38],[101,-21],[74,-3],[71,-12],[30,1],[101,41]],[[8602,2308],[4,-29],[-6,-30],[10,-29],[-5,-30],[7,-16],[0,-70],[-10,-57],[-24,-49],[-88,-127],[-36,-40],[-59,51],[-18,-50],[-46,13],[-27,0],[-13,-27],[2,-22],[-16,-31],[-7,-46],[-24,-45],[-38,-42],[-14,-2],[-11,-28],[-39,32],[-12,-18],[-47,-15],[-36,-35],[-19,-11],[-80,-20],[-56,-21]],[[9753,1283],[23,-31],[20,-10],[-5,-44],[-39,-25],[-1,-10],[-39,-28],[-32,1],[7,-33],[-20,-3],[-9,-37],[-19,-13],[-19,3],[-13,-23],[-88,-38],[-34,-50],[-50,-2],[-17,15],[-41,0],[-33,30],[-33,-12],[-34,2],[-7,-28],[-28,-54],[3,-34],[-16,3],[-24,-29],[-46,-18],[-4,12],[-23,-17],[-6,-24],[-30,-24],[-6,-16],[-22,6],[-47,-46],[-47,-15],[-17,-75],[31,-55],[-20,-4],[2,-15],[-35,-47],[6,-30],[-9,-21],[5,-53],[-11,-17],[-40,-23],[-16,-19],[-21,2],[-35,-12],[-45,7],[-20,-8],[-13,-30],[-32,-2],[-7,-25],[-15,1],[-46,-38],[-27,-1],[-44,18],[-37,-4],[-37,8],[-32,-29],[-45,-11],[-35,27],[-3,13],[-38,24],[-22,-2],[-22,-41],[-27,-114],[-11,-30],[-33,-49],[-38,-32],[-23,-4],[-43,20],[-49,4],[-43,36],[-29,89],[-14,16],[-74,31],[-32,4],[-70,-16],[-25,-11]],[[8336,990],[55,8],[124,7],[44,-1],[60,6],[99,-34],[29,6],[56,26],[29,32],[37,11],[18,25],[13,40]],[[5278,9439],[52,-61],[25,-72],[-7,-43],[6,-48],[-10,-70],[-7,-78],[-11,-6],[-16,-41],[57,-41],[-9,-21],[4,-48],[-5,-73],[0,-318],[-11,-27],[-26,-39],[-26,-50],[-73,-57],[-10,-48],[-13,-30],[-21,-81],[-3,-45],[-25,-42]],[[5149,8100],[-68,44],[-50,26],[-75,1],[-14,5],[-95,68],[-80,52],[-149,116],[-28,6],[-32,59],[-22,18],[-29,-2],[-24,9],[-62,43],[-91,91],[-37,31],[-16,26]],[[4277,8693],[-24,47],[-24,8],[-22,21],[-83,57],[-14,0],[-12,24],[-21,12],[-15,80],[1,65],[-69,44],[-29,-10],[-27,16],[-83,23],[-12,14],[-10,62],[18,40],[40,74],[7,29],[-1,65],[18,75],[-11,26],[12,24],[-3,30],[9,25],[-17,11],[2,32],[-11,4],[-9,48],[-38,55],[5,14],[-54,33],[-46,60]],[[3754,9801],[31,5],[38,-9],[22,-12],[43,-38],[49,-28],[8,-58],[27,-23],[45,-25],[44,-61],[26,-30],[7,-43],[-57,-18],[-28,-28],[-62,-44],[-4,-13],[5,-71],[29,1],[42,47],[17,-12],[-9,-21],[0,-66],[-18,-5],[-27,-42],[26,-3],[-15,-31],[20,0],[21,26],[13,-20],[-2,-32],[21,-38],[20,-3],[10,13],[0,38],[-13,48],[6,20],[-10,25],[28,30],[18,37],[46,-20],[3,-11],[-27,-32],[28,-115],[-7,-66],[-36,-85],[5,-22],[32,-27],[37,-8],[9,19],[-19,46],[2,52],[18,22],[-4,22],[17,-9],[24,16],[-3,65],[16,37],[6,48],[-6,14],[-41,43],[8,39],[24,13],[29,0],[64,-54],[24,-43],[16,-59],[-1,-45],[-17,-65],[42,15],[14,-23],[-7,40],[31,-30],[20,23],[5,-16],[19,-1],[-12,69],[-24,56],[-15,9],[-60,116],[-61,32],[-1,11],[28,31],[27,7],[55,-44],[43,-59],[65,-65],[9,-4],[74,4],[57,10],[49,-1],[55,-32],[18,2],[47,61],[19,10],[29,-9],[20,6],[24,27],[57,3],[29,77],[28,11],[38,-4],[49,29],[76,-34],[38,-1],[21,21]],[[5573,7910],[-61,3],[-36,22],[-169,75],[-69,37],[-89,53]],[[5278,9439],[18,35],[38,0],[17,-26],[34,-25],[38,-2],[43,-27],[27,7],[22,23],[17,1],[53,-15],[38,10],[39,-2],[57,23],[29,5]],[[5748,9446],[5,-89],[12,-36],[-12,-14],[-11,-68],[8,-70],[-6,-29],[41,-65],[-5,-39],[17,-25],[15,-66],[-9,-18],[12,-67],[-3,-24],[-25,-70],[-13,-10],[-10,-43],[10,-71],[-1,-38],[11,-27],[-3,-21],[-35,-14],[-12,-14],[-7,-73],[-6,-15],[-25,-13],[-7,-32],[11,-34],[-22,-62],[-2,-62],[13,-67],[14,-20],[4,-48],[-26,-77]],[[2486,9041],[-8,-44],[14,-42],[32,-51],[26,-26],[-32,-46],[-18,7],[-13,-18],[-50,-20],[14,-60],[22,-37],[-27,-80],[-5,-136],[-27,-156],[-5,-73],[2,-102],[-29,-37],[-21,-60],[17,-77],[-14,-32]],[[2364,7951],[-40,-19],[-80,-70],[-16,-45],[-55,-38]],[[2173,7779],[0,-45],[-41,-9],[-20,-22],[29,-27],[36,6],[8,-24],[-13,-15],[-42,-13],[6,-48],[20,-11],[7,-28],[-4,-37],[-19,-17],[-15,4],[-5,23],[-24,-9],[-15,-60],[13,-40],[-37,-89],[-31,-33],[-4,-30],[6,-40],[-8,-36],[-16,-2],[-9,22],[-19,10],[-54,-19],[0,39],[-9,4],[-39,-35],[5,-18],[-26,-4],[7,-52],[-4,-31],[-12,-10],[-18,-47],[-12,-13],[0,-29],[-33,-54]],[[1781,6940],[-21,-1],[-7,21],[-20,-26],[10,-51],[-10,-15],[-23,9],[-31,-20],[0,-22],[-16,-13],[-31,8],[-15,-13],[-17,-38],[-22,-7],[-6,-15],[-33,-23],[-5,-35],[-46,-42],[-12,-30],[-1,-31],[-13,2],[-43,-20]],[[1419,6578],[-14,16],[-34,3],[-65,48],[-38,55],[-22,17],[-141,36],[-42,21],[-25,27],[-27,44],[-7,35],[6,52],[28,30],[46,64],[19,47],[-14,31],[-29,-10],[-39,1],[-70,26],[-28,-9],[-24,33],[-21,50],[15,108],[-2,41],[-41,55],[-20,42],[-31,35],[-72,64],[-47,98],[-10,38],[-6,82],[6,46],[62,108],[68,41],[4,25],[-46,76],[-29,13],[-9,52],[-14,10],[-74,-28],[-43,-35],[-52,-22],[-47,7],[-26,35],[-4,24],[-35,57],[-69,78],[-38,48],[-48,81],[-32,93],[-5,30],[7,164],[-29,6],[-61,-21],[-56,22],[-16,25],[-40,41],[-38,78],[40,68],[19,10],[38,-5],[102,-2],[59,39],[62,51],[55,27],[5,23],[0,123],[-4,74],[11,23],[121,26],[44,34],[39,62],[2,15],[-18,39],[-6,96],[-11,17],[-15,71],[-1,27],[13,60],[41,51],[17,4],[23,-22],[53,-13],[55,11],[65,-3],[80,14],[59,0],[50,14],[37,-8],[47,-25],[14,-1],[76,28],[35,-5],[20,-22],[-4,-41],[15,-16],[29,6],[11,-20],[58,-34],[33,-35],[36,14],[17,-25],[30,9],[50,-22],[19,-20],[7,59],[41,88],[12,38],[37,61],[37,28],[68,9],[40,-18],[38,22],[25,-7],[25,7],[24,-11],[15,12],[23,82],[15,29],[32,43],[44,28],[-12,-136],[17,-66],[-6,-35],[5,-52],[-28,-64],[-12,-39],[5,-56],[-11,-37],[32,-7],[57,20],[29,-2],[22,-29],[1,-30],[14,-32],[27,-22],[22,2],[11,-11],[38,1],[10,-9],[29,5],[34,-21],[8,-24],[-15,-48],[51,3],[20,-16],[11,13],[30,-4],[-2,-23],[23,-86],[28,-43],[7,-29],[19,-22],[2,-28],[16,-31]],[[4193,7329],[-63,-19],[-47,-30],[-20,-35],[-59,-56],[-23,-9],[-48,2],[-30,-10],[-34,-50],[-19,-42],[4,-27],[-19,-44],[-17,-4],[-15,-54],[-64,-32]],[[3739,6919],[8,39],[-4,16],[-31,21],[14,31],[23,7],[21,115],[-3,32],[-18,16],[6,33],[56,39],[-12,38],[31,63],[-20,23],[4,31],[30,13],[-2,44],[-22,40],[-8,48],[18,53],[42,38],[54,42],[24,27],[38,61],[10,35],[17,26],[41,37],[9,19],[65,75],[12,23],[1,44],[36,29],[22,-4],[15,59],[55,38],[17,27],[14,0],[31,-31],[2,43],[17,32],[-1,22],[25,46],[2,47],[-24,14],[11,30],[29,0],[-8,31],[-21,32],[-4,21],[-19,31],[-34,6],[-30,120],[-1,52]],[[5748,9446],[19,-8],[46,-2],[31,-26],[53,-17],[0,-15],[18,-21],[21,8],[26,24],[48,7],[48,-5],[20,-14],[25,14],[40,1],[2,-44],[9,-16],[1,-36],[11,-57],[35,-31],[29,-74],[13,-47],[-1,-38],[-12,-51],[4,-49],[-9,-70],[16,-70],[50,-26],[2,-39],[31,-38],[14,-6],[-10,-29],[15,10],[18,-29],[-2,-40],[16,-9],[27,12],[36,-24],[-16,-28],[24,-19],[5,-24],[13,-4],[20,-36],[-7,-18],[18,-11],[-4,-41]],[[3739,6919],[-34,-20],[-12,3],[-6,40],[-37,161],[22,30],[30,70],[0,37],[-89,145],[-37,13],[-74,66],[-40,60]],[[3462,7524],[-24,26],[3,40],[-12,38],[-38,84],[-16,66],[-26,28],[-61,-9],[-55,17],[-49,-20],[-99,-17],[-46,20],[-28,-4],[-25,-33],[-27,-25],[-51,1],[-32,-15],[-10,-34],[-43,-16],[-31,2],[-48,56],[-13,53],[-62,111],[-12,44],[-23,44],[-29,17],[-53,-63],[-16,0],[-48,19],[-17,-3],[-30,-35],[-47,27],[-30,8]],[[2486,9041],[17,19],[31,15],[53,66],[-12,34],[8,48],[13,16],[1,26],[25,32],[18,68],[28,33],[16,42],[42,10],[21,28],[-3,74],[80,26],[50,-13],[31,11],[119,14],[63,31],[27,7],[43,-1],[37,-14],[33,-24],[1,-74],[-12,-37],[-1,-44],[48,-26],[30,-3],[82,21],[54,-16],[10,-17],[-1,-67],[15,-6],[18,-39],[32,-41],[19,-36],[1,-17],[23,-45],[25,-20],[21,-64],[18,-16],[34,-1],[30,8],[18,-7],[42,51],[2,48],[-33,60],[-37,40],[-12,28],[-10,55],[-29,72],[-5,47],[4,69],[36,52],[1,67],[31,27],[15,71],[14,121],[43,-49]],[[4121,4770],[-109,62]],[[4012,4832],[25,88],[17,41],[-8,26],[7,20],[-6,50],[6,16],[-6,45],[11,33],[-15,62],[-57,121],[-4,58],[-8,20],[4,54],[-22,33],[-10,52],[33,21],[-68,28],[-15,-10],[-40,8],[-5,20],[-3,161],[-12,60]],[[3836,5839],[93,11],[27,-51],[15,-1],[9,-29],[30,38],[17,-8],[68,11],[81,-18],[32,9],[46,-53],[45,-47],[-4,-37],[43,-19],[30,-1],[11,-35],[40,-36],[35,-5]],[[4454,5568],[-2,-139],[-29,-26],[-24,-10],[-6,-53],[16,-30],[-23,-15],[-3,-37],[9,-14],[-4,-52],[32,-27],[-5,-25],[11,-35],[-10,-47],[5,-43],[17,-42],[30,-43],[4,-18],[-34,-40],[-2,-25],[-15,-24],[1,-60]],[[1781,6940],[16,-15],[45,-62],[107,-133],[118,-111],[70,-49],[150,-82],[44,-14],[44,-35],[12,-47],[15,-12],[38,-53],[8,-52],[33,-36],[40,9],[27,-9],[41,-72],[14,-63],[-6,-43],[31,-12],[73,-69],[72,-62],[102,-71],[24,-28],[65,-43],[73,-33],[73,-23],[34,-18]],[[3144,5702],[-18,-8],[-21,-48],[10,-46],[-11,-20],[20,-25],[-15,-16],[3,-25],[21,-53],[23,0],[33,-21],[-15,-34],[14,-15],[-11,-28],[36,-8],[-15,-16],[-2,-30],[10,-21],[-7,-35],[27,-2],[-8,-28],[19,-18],[-3,-21],[29,-40],[27,-6],[11,-14],[18,5],[5,-22],[38,-15],[-1,-29],[82,-7],[18,-37],[19,8],[-1,-24],[14,-39],[24,6],[54,-15],[-4,-26],[31,-3],[31,-17],[15,-26],[4,-33],[49,-19]],[[3697,4831],[-58,-71],[-81,-65],[-39,-18],[-28,-57],[-33,-90],[-26,-20],[-96,1],[-53,-29],[-33,-12],[-28,-32],[-29,-65]],[[3193,4373],[-25,10],[6,48],[-15,2],[-20,78],[-62,-26],[-53,-30],[-32,-2],[-41,22],[-59,50],[-21,24],[-30,21],[-53,63],[-50,21],[-27,34],[-18,71],[-26,28],[-25,10],[-35,0]],[[2607,4797],[-35,48],[-34,22],[-90,18],[-26,-4],[-39,-42],[-29,3],[-20,-10],[-16,-27],[-29,33],[-40,21],[-46,9],[-41,-21],[-47,16],[-56,-17],[-28,9],[-55,65],[-67,53],[-117,22],[-50,-6],[-81,-44]],[[1661,4945],[25,59],[28,45],[2,24],[-30,46],[-74,44],[6,51],[-72,40],[-46,2],[-10,8],[12,41],[-10,49],[-16,13],[12,20],[8,36],[-16,17],[14,18],[4,31],[-26,58],[-51,37],[-42,13],[-67,45],[-26,54],[-20,17],[-61,-14],[-20,4],[-7,24],[6,29],[-29,86],[-21,33],[52,99],[20,71],[6,42],[-4,28],[-18,48],[-37,72],[20,34],[33,-14],[27,13],[22,73],[17,39],[39,52],[49,1],[15,19],[-11,39],[15,59],[15,18],[25,10]],[[4568,5798],[-28,-65],[-38,-60],[-48,-105]],[[3836,5839],[41,39],[82,96],[17,62]],[[3976,6036],[19,57],[82,9],[23,33]],[[4100,6135],[49,49],[20,12],[84,16]],[[3462,7524],[-11,-10],[15,-85],[17,-5],[0,-56],[11,-15],[-7,-35],[30,-13],[20,-52],[-11,-7],[3,-30],[-17,-28],[15,-41],[-5,-41],[18,2],[2,-21],[18,-15],[5,-62],[24,-24],[-8,-37],[22,-28],[1,-70],[25,-15],[12,-31],[16,-13],[-10,-22],[10,-20],[20,-11],[32,-49],[12,-77],[40,-45],[17,-11],[23,-46],[7,-31],[35,-5],[42,-37],[-1,-42],[36,-16],[29,-27],[30,-13],[0,-14],[26,-41],[22,0],[39,-33],[10,-31],[14,-10],[-8,-28],[15,-21],[3,-27]],[[3976,6036],[-27,12],[-27,50],[-58,30],[-51,1],[-51,38],[-20,34],[-39,24],[-29,1],[-13,32],[-32,24],[-28,7],[-73,29],[-53,33],[-51,74],[-20,19],[-37,51],[-66,45],[-26,2],[-45,20],[-75,68],[-37,38],[-40,65],[-73,75],[-12,21],[-60,37],[3,25],[-10,35],[0,35],[-47,-9],[5,28],[-114,50],[-95,54],[-70,50],[-104,97],[-51,58],[-56,76],[-53,64],[-45,74],[-111,239],[-12,37]],[[3836,5839],[-56,-44],[-85,-60],[-93,-45],[-38,-7],[-49,31],[-32,3],[-12,23],[-29,7],[-41,-14],[-72,1],[-134,-37],[-51,5]],[[4136,3974],[-76,-96],[-20,-21],[-36,-18],[-42,2],[-72,42],[-43,9],[-25,-7],[-128,33],[-32,1],[-61,20],[-74,1],[-28,33],[-12,54],[-20,60],[-20,26]],[[3447,4113],[-15,19],[-57,56]],[[3375,4188],[-24,27],[-5,37],[14,65],[-100,19],[-40,13],[-27,24]],[[3697,4831],[32,17],[61,9],[18,14],[18,-16],[21,-1],[82,23],[45,-28],[38,-17]],[[6894,7635],[140,4],[48,20],[13,28],[39,22],[78,-39],[18,-47],[73,1],[30,7],[9,-48],[1,-50],[36,1],[-7,62],[17,-3],[61,23],[27,-32],[2,-50],[99,3]],[[7578,7537],[-4,-101],[6,-70],[24,-123],[28,-67],[5,-76],[-12,-91],[-13,-56]],[[7612,6953],[-85,5],[-28,-5],[3,27],[-26,27],[-14,30],[2,18],[19,1],[-14,28],[-100,0],[-12,31],[-42,-8],[-81,-46],[-19,1],[-78,48],[-65,11]],[[7010,8326],[103,35],[76,281]],[[7189,8642],[22,0],[-7,-17],[20,1],[7,-22],[16,8],[10,-14],[29,4],[56,-19],[12,-158],[26,-140],[22,-96],[41,-168],[48,-111],[55,-100],[31,-104],[6,-48],[-5,-121]],[[6980,6939],[59,11],[124,-50],[21,-22],[-16,-62],[-3,-44],[14,-29],[3,-32],[15,-21],[1,-33],[10,-45],[17,-7],[152,-10],[35,-15],[23,-31],[76,-45]],[[7511,6504],[-9,-59],[-24,-50],[-45,-81],[-18,-74],[-11,-64],[-6,-67]],[[7612,6953],[-60,-227],[-29,-82],[-12,-140]],[[6848,8385],[9,24],[-3,256],[-2,1],[-1,172],[2,15],[27,8],[53,33],[51,-3],[30,14],[65,13],[19,14],[17,-10],[-4,-65],[21,-23],[-2,-20],[26,-71],[12,-60],[-1,-39],[22,-2]],[[3447,4113],[-34,-36],[-33,-46],[-25,-48],[-12,-46],[63,-50],[1,-18],[22,-8],[2,-16],[29,-16],[-2,-37],[-18,9],[-5,-45],[-13,-15],[-45,-14],[-20,-15],[-12,-29],[6,-52],[-11,-12],[0,-26],[-27,-42],[-44,-91],[-52,-88]],[[3217,3372],[-44,24],[-37,47],[-74,80],[-23,37],[-4,75],[-12,30],[-39,42],[-43,31],[-59,63]],[[2882,3801],[25,46],[44,21],[34,10],[30,-1],[-4,43],[5,41]],[[3016,3961],[16,-4],[33,10],[1,46],[23,-18],[23,16],[10,44],[36,14],[57,11],[83,33],[77,75]],[[2607,4797],[22,-56],[2,-132],[3,-41],[49,-40],[10,-27],[31,-24],[0,-21],[40,-45],[12,-30],[23,-12],[20,8],[30,-10],[55,-36],[45,-19],[26,-31],[-17,-24],[18,-42],[-2,-56],[21,-49],[30,-23],[0,-106],[-18,-2],[9,-18]],[[2882,3801],[-45,4],[-33,-12],[-19,-28],[-51,-33],[-42,-9],[-39,-22]],[[2653,3701],[-22,53],[-32,57],[-47,53],[-50,51],[-23,47],[-46,22],[-18,-16],[-17,-60],[-6,-107],[-14,-35],[-4,-55],[-18,-45],[-38,-30],[-76,-53],[-19,-23],[-19,-39],[-24,-25],[-24,-11],[-34,-3],[-61,7],[-16,-5],[-39,-35],[-24,-7],[-39,36],[-13,-8],[-84,-99],[-12,79],[19,116],[2,137],[-2,28],[-15,37],[-32,44],[-48,47],[-28,35],[-29,22],[10,32],[-3,63],[13,65],[56,46],[22,33],[2,28],[54,61],[-5,43],[9,36],[-12,30],[12,25],[-9,78],[5,24],[0,65],[10,9],[10,58],[-28,59],[-34,-9],[-27,56],[-25,11],[-48,5],[-31,20],[-7,15],[-14,176]],[[4263,3359],[-117,103],[-25,7],[-22,-12],[-27,-29],[-36,13],[-31,44],[-1,24],[9,52],[-59,17],[-35,48],[-56,16],[-19,-5],[-40,-32],[-33,-8],[-40,-1],[-14,-13],[-36,-61],[-28,-24],[-80,-18],[-69,-41],[-43,-13],[-90,16],[-60,-14],[-31,-42],[-27,-15],[-36,1]],[[3217,3372],[-20,-59],[2,-64],[16,-55],[4,-34],[-5,-32],[-26,-89],[-34,-79],[-53,-97],[-21,10],[-21,-14],[-18,-30],[-3,-59],[-33,-42],[-1,-44],[-27,-75],[-29,-96],[-46,-63],[-21,-17],[-76,-41]],[[2805,2392],[-26,50],[-21,70],[-8,85],[-20,34],[0,117],[-34,136],[8,85],[20,69],[-4,76],[7,65],[20,78],[-7,45],[-19,38],[-35,55],[-8,59],[7,67],[-16,71],[-16,109]],[[3631,2235],[-75,32],[-19,-12],[-25,11],[-17,-4],[-22,-22],[-75,-36],[-43,-27],[-92,-23],[-74,-69],[-90,-88],[-29,-38],[-12,-48],[-21,-4],[-14,17],[11,20],[-9,11],[-26,-8],[-40,29],[-32,2],[-26,34],[-4,-9],[-74,39],[-14,21],[2,40],[9,8],[17,56],[-17,64],[4,88],[-7,50],[-12,23]]],"transform":{"scale":[0.00009087079127912821,0.00007217422502250318],"translate":[104.07010685000006,16.185264647000054]},"objects":{"Mukdahan":{"type":"GeometryCollection","geometries":[{"arcs":[[0,1,2,3,4,5]],"type":"Polygon","properties":{"Shape_Leng":0.484924625806,"Shape_Area":0.0065769055735,"ADM3_EN":"Mukdahan","ADM3_TH":"มุกดาหาร","ADM3_PCODE":"TH490101","ADM2_EN":"Mueang Mukdahan","ADM2_TH":"เมืองมุกดาหาร","ADM2_PCODE":"TH4901","ADM1_EN":"Mukdahan","ADM1_TH":"มุกดาหาร","ADM1_PCODE":"TH49","ADM0_EN":"Thailand","ADM0_TH":"ประเทศไทย","ADM0_PCODE":"TH"}},{"arcs":[[-2,6,7]],"type":"Polygon","properties":{"Shape_Leng":0.129301637549,"Shape_Area":0.000809082103167,"ADM3_EN":"Si Bun Rueang","ADM3_TH":"ศรีบุญเรือง","ADM3_PCODE":"TH490102","ADM2_EN":"Mueang Mukdahan","ADM2_TH":"เมืองมุกดาหาร","ADM2_PCODE":"TH4901","ADM1_EN":"Mukdahan","ADM1_TH":"มุกดาหาร","ADM1_PCODE":"TH49","ADM0_EN":"Thailand","ADM0_TH":"ประเทศไทย","ADM0_PCODE":"TH"}},{"arcs":[[8,9,10,11,12,13,14]],"type":"Polygon","properties":{"Shape_Leng":0.514613037777,"Shape_Area":0.00855682201566,"ADM3_EN":"Ban Khok","ADM3_TH":"บ้านโคก","ADM3_PCODE":"TH490103","ADM2_EN":"Mueang Mukdahan","ADM2_TH":"เมืองมุกดาหาร","ADM2_PCODE":"TH4901","ADM1_EN":"Mukdahan","ADM1_TH":"มุกดาหาร","ADM1_PCODE":"TH49","ADM0_EN":"Thailand","ADM0_TH":"ประเทศไทย","ADM0_PCODE":"TH"}},{"arcs":[[-6,15,16,17,18]],"type":"Polygon","properties":{"Shape_Leng":0.390337312844,"Shape_Area":0.00533111107731,"ADM3_EN":"Bang Sai Yai","ADM3_TH":"บางทรายใหญ่","ADM3_PCODE":"TH490104","ADM2_EN":"Mueang Mukdahan","ADM2_TH":"เมืองมุกดาหาร","ADM2_PCODE":"TH4901","ADM1_EN":"Mukdahan","ADM1_TH":"มุกดาหาร","ADM1_PCODE":"TH49","ADM0_EN":"Thailand","ADM0_TH":"ประเทศไทย","ADM0_PCODE":"TH"}},{"arcs":[[-5,19,20,21,-9,22,-16]],"type":"Polygon","properties":{"Shape_Leng":0.592301089013,"Shape_Area":0.00765088847407,"ADM3_EN":"Phon Sai","ADM3_TH":"โพนทราย","ADM3_PCODE":"TH490105","ADM2_EN":"Mueang Mukdahan","ADM2_TH":"เมืองมุกดาหาร","ADM2_PCODE":"TH4901","ADM1_EN":"Mukdahan","ADM1_TH":"มุกดาหาร","ADM1_PCODE":"TH49","ADM0_EN":"Thailand","ADM0_TH":"ประเทศไทย","ADM0_PCODE":"TH"}},{"arcs":[[-13,23,24,25,26]],"type":"Polygon","properties":{"Shape_Leng":0.32300891068,"Shape_Area":0.00240017924959,"ADM3_EN":"Phueng Daet","ADM3_TH":"ผึ่งแดด","ADM3_PCODE":"TH490106","ADM2_EN":"Mueang Mukdahan","ADM2_TH":"เมืองมุกดาหาร","ADM2_PCODE":"TH4901","ADM1_EN":"Mukdahan","ADM1_TH":"มุกดาหาร","ADM1_PCODE":"TH49","ADM0_EN":"Thailand","ADM0_TH":"ประเทศไทย","ADM0_PCODE":"TH"}},{"arcs":[[-11,27,-21,28,29,30,31,32,33,34,35]],"type":"Polygon","properties":{"Shape_Leng":0.686735834028,"Shape_Area":0.0135403727466,"ADM3_EN":"Na Sok","ADM3_TH":"นาโสก","ADM3_PCODE":"TH490107","ADM2_EN":"Mueang Mukdahan","ADM2_TH":"เมืองมุกดาหาร","ADM2_PCODE":"TH4901","ADM1_EN":"Mukdahan","ADM1_TH":"มุกดาหาร","ADM1_PCODE":"TH49","ADM0_EN":"Thailand","ADM0_TH":"ประเทศไทย","ADM0_PCODE":"TH"}},{"arcs":[[-3,-8,36,37,38,39,40]],"type":"Polygon","properties":{"Shape_Leng":0.457105472069,"Shape_Area":0.00687722545216,"ADM3_EN":"Na Si Nuan","ADM3_TH":"นาสีนวน","ADM3_PCODE":"TH490108","ADM2_EN":"Mueang Mukdahan","ADM2_TH":"เมืองมุกดาหาร","ADM2_PCODE":"TH4901","ADM1_EN":"Mukdahan","ADM1_TH":"มุกดาหาร","ADM1_PCODE":"TH49","ADM0_EN":"Thailand","ADM0_TH":"ประเทศไทย","ADM0_PCODE":"TH"}},{"arcs":[[-15,41,42,43,44,45,46,47,48,49,50,-17,-23]],"type":"Polygon","properties":{"Shape_Leng":0.791943435578,"Shape_Area":0.0150679113294,"ADM3_EN":"Kham Pa Lai","ADM3_TH":"คำป่าหลาย","ADM3_PCODE":"TH490109","ADM2_EN":"Mueang Mukdahan","ADM2_TH":"เมืองมุกดาหาร","ADM2_PCODE":"TH4901","ADM1_EN":"Mukdahan","ADM1_TH":"มุกดาหาร","ADM1_PCODE":"TH49","ADM0_EN":"Thailand","ADM0_TH":"ประเทศไทย","ADM0_PCODE":"TH"}},{"arcs":[[-4,-41,51,52,-29,-20]],"type":"Polygon","properties":{"Shape_Leng":0.542984168139,"Shape_Area":0.01160653187,"ADM3_EN":"Kham A Huan","ADM3_TH":"คำอาฮวน","ADM3_PCODE":"TH490110","ADM2_EN":"Mueang Mukdahan","ADM2_TH":"เมืองมุกดาหาร","ADM2_PCODE":"TH4901","ADM1_EN":"Mukdahan","ADM1_TH":"มุกดาหาร","ADM1_PCODE":"TH49","ADM0_EN":"Thailand","ADM0_TH":"ประเทศไทย","ADM0_PCODE":"TH"}},{"arcs":[[-40,53,54,55,56,57,58,-52]],"type":"Polygon","properties":{"Shape_Leng":0.712022671876,"Shape_Area":0.0158428539965,"ADM3_EN":"Dong Yen","ADM3_TH":"ดงเย็น","ADM3_PCODE":"TH490111","ADM2_EN":"Mueang Mukdahan","ADM2_TH":"เมืองมุกดาหาร","ADM2_PCODE":"TH4901","ADM1_EN":"Mukdahan","ADM1_TH":"มุกดาหาร","ADM1_PCODE":"TH49","ADM0_EN":"Thailand","ADM0_TH":"ประเทศไทย","ADM0_PCODE":"TH"}},{"arcs":[[-14,-27,59,60,-42]],"type":"Polygon","properties":{"Shape_Leng":0.45857231558,"Shape_Area":0.00620858838151,"ADM3_EN":"Dong Mon","ADM3_TH":"ดงมอน","ADM3_PCODE":"TH490112","ADM2_EN":"Mueang Mukdahan","ADM2_TH":"เมืองมุกดาหาร","ADM2_PCODE":"TH4901","ADM1_EN":"Mukdahan","ADM1_TH":"มุกดาหาร","ADM1_PCODE":"TH49","ADM0_EN":"Thailand","ADM0_TH":"ประเทศไทย","ADM0_PCODE":"TH"}},{"arcs":[[-10,-22,-28]],"type":"Polygon","properties":{"Shape_Leng":0.252686953008,"Shape_Area":0.00203621575438,"ADM3_EN":"Kut Khae","ADM3_TH":"กุดแข้","ADM3_PCODE":"TH490113","ADM2_EN":"Mueang Mukdahan","ADM2_TH":"เมืองมุกดาหาร","ADM2_PCODE":"TH4901","ADM1_EN":"Mukdahan","ADM1_TH":"มุกดาหาร","ADM1_PCODE":"TH49","ADM0_EN":"Thailand","ADM0_TH":"ประเทศไทย","ADM0_PCODE":"TH"}},{"arcs":[[61,62,63,64,65]],"type":"Polygon","properties":{"Shape_Leng":0.398075386076,"Shape_Area":0.00438933925375,"ADM3_EN":"Nikhom Kham Soi","ADM3_TH":"นิคมคำสร้อย","ADM3_PCODE":"TH490201","ADM2_EN":"Nikhom Kham Soi","ADM2_TH":"นิคมคำสร้อย","ADM2_PCODE":"TH4902","ADM1_EN":"Mukdahan","ADM1_TH":"มุกดาหาร","ADM1_PCODE":"TH49","ADM0_EN":"Thailand","ADM0_TH":"ประเทศไทย","ADM0_PCODE":"TH"}},{"arcs":[[-31,66,-58,67,-62,68]],"type":"Polygon","properties":{"Shape_Leng":0.463748951562,"Shape_Area":0.00436211916922,"ADM3_EN":"Na Kok","ADM3_TH":"นากอก","ADM3_PCODE":"TH490202","ADM2_EN":"Nikhom Kham Soi","ADM2_TH":"นิคมคำสร้อย","ADM2_PCODE":"TH4902","ADM1_EN":"Mukdahan","ADM1_TH":"มุกดาหาร","ADM1_PCODE":"TH49","ADM0_EN":"Thailand","ADM0_TH":"ประเทศไทย","ADM0_PCODE":"TH"}},{"arcs":[[-30,-53,-59,-67]],"type":"Polygon","properties":{"Shape_Leng":0.40065732579,"Shape_Area":0.00526088781889,"ADM3_EN":"Nong Waeng","ADM3_TH":"หนองแวง","ADM3_PCODE":"TH490203","ADM2_EN":"Nikhom Kham Soi","ADM2_TH":"นิคมคำสร้อย","ADM2_PCODE":"TH4902","ADM1_EN":"Mukdahan","ADM1_TH":"มุกดาหาร","ADM1_PCODE":"TH49","ADM0_EN":"Thailand","ADM0_TH":"ประเทศไทย","ADM0_PCODE":"TH"}},{"arcs":[[-32,-69,-66,69,70,71]],"type":"Polygon","properties":{"Shape_Leng":0.347900388207,"Shape_Area":0.00481548260285,"ADM3_EN":"Kok Daeng","ADM3_TH":"กกแดง","ADM3_PCODE":"TH490204","ADM2_EN":"Nikhom Kham Soi","ADM2_TH":"นิคมคำสร้อย","ADM2_PCODE":"TH4902","ADM1_EN":"Mukdahan","ADM1_TH":"มุกดาหาร","ADM1_PCODE":"TH49","ADM0_EN":"Thailand","ADM0_TH":"ประเทศไทย","ADM0_PCODE":"TH"}},{"arcs":[[-57,72,73,-63,-68]],"type":"Polygon","properties":{"Shape_Leng":0.424858216013,"Shape_Area":0.00804888756059,"ADM3_EN":"Na Udom","ADM3_TH":"นาอุดม","ADM3_PCODE":"TH490205","ADM2_EN":"Nikhom Kham Soi","ADM2_TH":"นิคมคำสร้อย","ADM2_PCODE":"TH4902","ADM1_EN":"Mukdahan","ADM1_TH":"มุกดาหาร","ADM1_PCODE":"TH49","ADM0_EN":"Thailand","ADM0_TH":"ประเทศไทย","ADM0_PCODE":"TH"}},{"arcs":[[-65,74,75,-70]],"type":"Polygon","properties":{"Shape_Leng":0.309824260787,"Shape_Area":0.00291108038762,"ADM3_EN":"Chok Chai","ADM3_TH":"โชคชัย","ADM3_PCODE":"TH490206","ADM2_EN":"Nikhom Kham Soi","ADM2_TH":"นิคมคำสร้อย","ADM2_PCODE":"TH4902","ADM1_EN":"Mukdahan","ADM1_TH":"มุกดาหาร","ADM1_PCODE":"TH49","ADM0_EN":"Thailand","ADM0_TH":"ประเทศไทย","ADM0_PCODE":"TH"}},{"arcs":[[-71,-76,76,77,78]],"type":"Polygon","properties":{"Shape_Leng":0.305161303083,"Shape_Area":0.00363947473716,"ADM3_EN":"Rom Klao","ADM3_TH":"ร่มเกล้า","ADM3_PCODE":"TH490207","ADM2_EN":"Nikhom Kham Soi","ADM2_TH":"นิคมคำสร้อย","ADM2_PCODE":"TH4902","ADM1_EN":"Mukdahan","ADM1_TH":"มุกดาหาร","ADM1_PCODE":"TH49","ADM0_EN":"Thailand","ADM0_TH":"ประเทศไทย","ADM0_PCODE":"TH"}},{"arcs":[[79,80,81,82]],"type":"Polygon","properties":{"Shape_Leng":0.37254693762,"Shape_Area":0.00454848188995,"ADM3_EN":"Don Tan","ADM3_TH":"ดอนตาล","ADM3_PCODE":"TH490301","ADM2_EN":"Don Tan","ADM2_TH":"ดอนตาล","ADM2_PCODE":"TH4903","ADM1_EN":"Mukdahan","ADM1_TH":"มุกดาหาร","ADM1_PCODE":"TH49","ADM0_EN":"Thailand","ADM0_TH":"ประเทศไทย","ADM0_PCODE":"TH"}},{"arcs":[[-38,83,-83,84,85,86]],"type":"Polygon","properties":{"Shape_Leng":0.275395285691,"Shape_Area":0.0024118875923,"ADM3_EN":"Pho Sai","ADM3_TH":"โพธิ์ไทร","ADM3_PCODE":"TH490302","ADM2_EN":"Don Tan","ADM2_TH":"ดอนตาล","ADM2_PCODE":"TH4903","ADM1_EN":"Mukdahan","ADM1_TH":"มุกดาหาร","ADM1_PCODE":"TH49","ADM0_EN":"Thailand","ADM0_TH":"ประเทศไทย","ADM0_PCODE":"TH"}},{"arcs":[[-56,87,88,89,90,-73]],"type":"Polygon","properties":{"Shape_Leng":0.647618881022,"Shape_Area":0.00971393005084,"ADM3_EN":"Pa Rai","ADM3_TH":"ป่าไร่","ADM3_PCODE":"TH490303","ADM2_EN":"Don Tan","ADM2_TH":"ดอนตาล","ADM2_PCODE":"TH4903","ADM1_EN":"Mukdahan","ADM1_TH":"มุกดาหาร","ADM1_PCODE":"TH49","ADM0_EN":"Thailand","ADM0_TH":"ประเทศไทย","ADM0_PCODE":"TH"}},{"arcs":[[-55,91,-86,92,-88]],"type":"Polygon","properties":{"Shape_Leng":0.558131605564,"Shape_Area":0.0109162184984,"ADM3_EN":"Lao Mi","ADM3_TH":"เหล่าหมี","ADM3_PCODE":"TH490304","ADM2_EN":"Don Tan","ADM2_TH":"ดอนตาล","ADM2_PCODE":"TH4903","ADM1_EN":"Mukdahan","ADM1_TH":"มุกดาหาร","ADM1_PCODE":"TH49","ADM0_EN":"Thailand","ADM0_TH":"ประเทศไทย","ADM0_PCODE":"TH"}},{"arcs":[[-81,93,-90,94]],"type":"Polygon","properties":{"Shape_Leng":0.591957436905,"Shape_Area":0.00616050506029,"ADM3_EN":"Ban Bak","ADM3_TH":"บ้านบาก","ADM3_PCODE":"TH490305","ADM2_EN":"Don Tan","ADM2_TH":"ดอนตาล","ADM2_PCODE":"TH4903","ADM1_EN":"Mukdahan","ADM1_TH":"มุกดาหาร","ADM1_PCODE":"TH49","ADM0_EN":"Thailand","ADM0_TH":"ประเทศไทย","ADM0_PCODE":"TH"}},{"arcs":[[-82,-95,-89,-93,-85]],"type":"Polygon","properties":{"Shape_Leng":0.40809837789,"Shape_Area":0.00625751208375,"ADM3_EN":"Na Sameng","ADM3_TH":"นาสะเม็ง","ADM3_PCODE":"TH490306","ADM2_EN":"Don Tan","ADM2_TH":"ดอนตาล","ADM2_PCODE":"TH4903","ADM1_EN":"Mukdahan","ADM1_TH":"มุกดาหาร","ADM1_PCODE":"TH49","ADM0_EN":"Thailand","ADM0_TH":"ประเทศไทย","ADM0_PCODE":"TH"}},{"arcs":[[-39,-87,-92,-54]],"type":"Polygon","properties":{"Shape_Leng":0.240283969354,"Shape_Area":0.00224583690927,"ADM3_EN":"Ban Kaeng","ADM3_TH":"บ้านแก้ง","ADM3_PCODE":"TH490307","ADM2_EN":"Don Tan","ADM2_TH":"ดอนตาล","ADM2_PCODE":"TH4903","ADM1_EN":"Mukdahan","ADM1_TH":"มุกดาหาร","ADM1_PCODE":"TH49","ADM0_EN":"Thailand","ADM0_TH":"ประเทศไทย","ADM0_PCODE":"TH"}},{"arcs":[[95,96,97,98]],"type":"Polygon","properties":{"Shape_Leng":0.70913408571,"Shape_Area":0.00802201133576,"ADM3_EN":"Dong Luang","ADM3_TH":"ดงหลวง","ADM3_PCODE":"TH490401","ADM2_EN":"Dong Luang","ADM2_TH":"ดงหลวง","ADM2_PCODE":"TH4904","ADM1_EN":"Mukdahan","ADM1_TH":"มุกดาหาร","ADM1_PCODE":"TH49","ADM0_EN":"Thailand","ADM0_TH":"ประเทศไทย","ADM0_PCODE":"TH"}},{"arcs":[[-44,99,-96,100,101]],"type":"Polygon","properties":{"Shape_Leng":0.334547098401,"Shape_Area":0.00420042452426,"ADM3_EN":"Nong Bua","ADM3_TH":"หนองบัว","ADM3_PCODE":"TH490402","ADM2_EN":"Dong Luang","ADM2_TH":"ดงหลวง","ADM2_PCODE":"TH4904","ADM1_EN":"Mukdahan","ADM1_TH":"มุกดาหาร","ADM1_PCODE":"TH49","ADM0_EN":"Thailand","ADM0_TH":"ประเทศไทย","ADM0_PCODE":"TH"}},{"arcs":[[102,103,104,105,106]],"type":"Polygon","properties":{"Shape_Leng":0.964487602322,"Shape_Area":0.0321849840297,"ADM3_EN":"Kok Tum","ADM3_TH":"กกตูม","ADM3_PCODE":"TH490403","ADM2_EN":"Dong Luang","ADM2_TH":"ดงหลวง","ADM2_PCODE":"TH4904","ADM1_EN":"Mukdahan","ADM1_TH":"มุกดาหาร","ADM1_PCODE":"TH49","ADM0_EN":"Thailand","ADM0_TH":"ประเทศไทย","ADM0_PCODE":"TH"}},{"arcs":[[-43,-61,107,108,-97,-100]],"type":"Polygon","properties":{"Shape_Leng":0.55258974156,"Shape_Area":0.00720210511968,"ADM3_EN":"Nong Khaen","ADM3_TH":"หนองแคน","ADM3_PCODE":"TH490404","ADM2_EN":"Dong Luang","ADM2_TH":"ดงหลวง","ADM2_PCODE":"TH4904","ADM1_EN":"Mukdahan","ADM1_TH":"มุกดาหาร","ADM1_PCODE":"TH49","ADM0_EN":"Thailand","ADM0_TH":"ประเทศไทย","ADM0_PCODE":"TH"}},{"arcs":[[-45,-102,109]],"type":"Polygon","properties":{"Shape_Leng":0.378930022432,"Shape_Area":0.00534853546811,"ADM3_EN":"Chanot Noi","ADM3_TH":"ชะโนดน้อย","ADM3_PCODE":"TH490405","ADM2_EN":"Dong Luang","ADM2_TH":"ดงหลวง","ADM2_PCODE":"TH4904","ADM1_EN":"Mukdahan","ADM1_TH":"มุกดาหาร","ADM1_PCODE":"TH49","ADM0_EN":"Thailand","ADM0_TH":"ประเทศไทย","ADM0_PCODE":"TH"}},{"arcs":[[-98,-109,110,111,-103,112]],"type":"Polygon","properties":{"Shape_Leng":0.847807987203,"Shape_Area":0.0196455566962,"ADM3_EN":"Phang Daeng","ADM3_TH":"พังแดง","ADM3_PCODE":"TH490406","ADM2_EN":"Dong Luang","ADM2_TH":"ดงหลวง","ADM2_PCODE":"TH4904","ADM1_EN":"Mukdahan","ADM1_TH":"มุกดาหาร","ADM1_PCODE":"TH49","ADM0_EN":"Thailand","ADM0_TH":"ประเทศไทย","ADM0_PCODE":"TH"}},{"arcs":[[-35,113,114,115,116]],"type":"Polygon","properties":{"Shape_Leng":0.283689282158,"Shape_Area":0.00268795624908,"ADM3_EN":"Ban Song","ADM3_TH":"บ้านซ่ง","ADM3_PCODE":"TH490503","ADM2_EN":"Khamcha-I","ADM2_TH":"คำชะอี","ADM2_PCODE":"TH4905","ADM1_EN":"Mukdahan","ADM1_TH":"มุกดาหาร","ADM1_PCODE":"TH49","ADM0_EN":"Thailand","ADM0_TH":"ประเทศไทย","ADM0_PCODE":"TH"}},{"arcs":[[-106,117,118,119,120,121,122]],"type":"Polygon","properties":{"Shape_Leng":0.768026507665,"Shape_Area":0.0200232645189,"ADM3_EN":"Khamcha-I","ADM3_TH":"คำชะอี","ADM3_PCODE":"TH490504","ADM2_EN":"Khamcha-I","ADM2_TH":"คำชะอี","ADM2_PCODE":"TH4905","ADM1_EN":"Mukdahan","ADM1_TH":"มุกดาหาร","ADM1_PCODE":"TH49","ADM0_EN":"Thailand","ADM0_TH":"ประเทศไทย","ADM0_PCODE":"TH"}},{"arcs":[[-25,123,-116,124,125,126]],"type":"Polygon","properties":{"Shape_Leng":0.191193167553,"Shape_Area":0.00143197388194,"ADM3_EN":"Nong Ian","ADM3_TH":"หนองเอี่ยน","ADM3_PCODE":"TH490505","ADM2_EN":"Khamcha-I","ADM2_TH":"คำชะอี","ADM2_PCODE":"TH4905","ADM1_EN":"Mukdahan","ADM1_TH":"มุกดาหาร","ADM1_PCODE":"TH49","ADM0_EN":"Thailand","ADM0_TH":"ประเทศไทย","ADM0_PCODE":"TH"}},{"arcs":[[-104,-112,127,-126,128]],"type":"Polygon","properties":{"Shape_Leng":0.546900189452,"Shape_Area":0.00892364989299,"ADM3_EN":"Ban Kho","ADM3_TH":"บ้านค้อ","ADM3_PCODE":"TH490506","ADM2_EN":"Khamcha-I","ADM2_TH":"คำชะอี","ADM2_PCODE":"TH4905","ADM1_EN":"Mukdahan","ADM1_TH":"มุกดาหาร","ADM1_PCODE":"TH49","ADM0_EN":"Thailand","ADM0_TH":"ประเทศไทย","ADM0_PCODE":"TH"}},{"arcs":[[-105,-129,-125,129,-118]],"type":"Polygon","properties":{"Shape_Leng":0.585322026814,"Shape_Area":0.0111888154306,"ADM3_EN":"Ban Lao","ADM3_TH":"บ้านเหล่า","ADM3_PCODE":"TH490507","ADM2_EN":"Khamcha-I","ADM2_TH":"คำชะอี","ADM2_PCODE":"TH4905","ADM1_EN":"Mukdahan","ADM1_TH":"มุกดาหาร","ADM1_PCODE":"TH49","ADM0_EN":"Thailand","ADM0_TH":"ประเทศไทย","ADM0_PCODE":"TH"}},{"arcs":[[-26,-127,-128,-111,-108,-60]],"type":"Polygon","properties":{"Shape_Leng":0.411012867111,"Shape_Area":0.00412888330862,"ADM3_EN":"Phon Ngam","ADM3_TH":"โพนงาม","ADM3_PCODE":"TH490508","ADM2_EN":"Khamcha-I","ADM2_TH":"คำชะอี","ADM2_PCODE":"TH4905","ADM1_EN":"Mukdahan","ADM1_TH":"มุกดาหาร","ADM1_PCODE":"TH49","ADM0_EN":"Thailand","ADM0_TH":"ประเทศไทย","ADM0_PCODE":"TH"}},{"arcs":[[-12,-36,-117,-124,-24]],"type":"Polygon","properties":{"Shape_Leng":0.262095747325,"Shape_Area":0.00255937440109,"ADM3_EN":"Lao Sang Tho","ADM3_TH":"เหล่าสร้างถ่อ","ADM3_PCODE":"TH490511","ADM2_EN":"Khamcha-I","ADM2_TH":"คำชะอี","ADM2_PCODE":"TH4905","ADM1_EN":"Mukdahan","ADM1_TH":"มุกดาหาร","ADM1_PCODE":"TH49","ADM0_EN":"Thailand","ADM0_TH":"ประเทศไทย","ADM0_PCODE":"TH"}},{"arcs":[[-34,130,131,132,-120,133,-114]],"type":"Polygon","properties":{"Shape_Leng":0.294941442436,"Shape_Area":0.00401211455648,"ADM3_EN":"Kham Bok","ADM3_TH":"คำบก","ADM3_PCODE":"TH490512","ADM2_EN":"Khamcha-I","ADM2_TH":"คำชะอี","ADM2_PCODE":"TH4905","ADM1_EN":"Mukdahan","ADM1_TH":"มุกดาหาร","ADM1_PCODE":"TH49","ADM0_EN":"Thailand","ADM0_TH":"ประเทศไทย","ADM0_PCODE":"TH"}},{"arcs":[[-115,-134,-119,-130]],"type":"Polygon","properties":{"Shape_Leng":0.318762372425,"Shape_Area":0.00412575346777,"ADM3_EN":"Nam Thiang","ADM3_TH":"น้ำเที่ยง","ADM3_PCODE":"TH490514","ADM2_EN":"Khamcha-I","ADM2_TH":"คำชะอี","ADM2_PCODE":"TH4905","ADM1_EN":"Mukdahan","ADM1_TH":"มุกดาหาร","ADM1_PCODE":"TH49","ADM0_EN":"Thailand","ADM0_TH":"ประเทศไทย","ADM0_PCODE":"TH"}},{"arcs":[[-49,134,135,136]],"type":"Polygon","properties":{"Shape_Leng":0.272530073374,"Shape_Area":0.00252192437095,"ADM3_EN":"Wan Yai","ADM3_TH":"หว้านใหญ่","ADM3_PCODE":"TH490601","ADM2_EN":"Wan Yai","ADM2_TH":"หว้านใหญ่","ADM2_PCODE":"TH4906","ADM1_EN":"Mukdahan","ADM1_TH":"มุกดาหาร","ADM1_PCODE":"TH49","ADM0_EN":"Thailand","ADM0_TH":"ประเทศไทย","ADM0_PCODE":"TH"}},{"arcs":[[-48,137,138,-135]],"type":"Polygon","properties":{"Shape_Leng":0.304890294478,"Shape_Area":0.00252241037415,"ADM3_EN":"Pong Kham","ADM3_TH":"ป่งขาม","ADM3_PCODE":"TH490602","ADM2_EN":"Wan Yai","ADM2_TH":"หว้านใหญ่","ADM2_PCODE":"TH4906","ADM1_EN":"Mukdahan","ADM1_TH":"มุกดาหาร","ADM1_PCODE":"TH49","ADM0_EN":"Thailand","ADM0_TH":"ประเทศไทย","ADM0_PCODE":"TH"}},{"arcs":[[-18,-51,139,140]],"type":"Polygon","properties":{"Shape_Leng":0.230655748077,"Shape_Area":0.0019110975935,"ADM3_EN":"Bang Sai Noi","ADM3_TH":"บางทรายน้อย","ADM3_PCODE":"TH490603","ADM2_EN":"Wan Yai","ADM2_TH":"หว้านใหญ่","ADM2_PCODE":"TH4906","ADM1_EN":"Mukdahan","ADM1_TH":"มุกดาหาร","ADM1_PCODE":"TH49","ADM0_EN":"Thailand","ADM0_TH":"ประเทศไทย","ADM0_PCODE":"TH"}},{"arcs":[[-50,-137,141,-140]],"type":"Polygon","properties":{"Shape_Leng":0.189697771735,"Shape_Area":0.00136193728019,"ADM3_EN":"Chanot","ADM3_TH":"ชะโนด","ADM3_PCODE":"TH490604","ADM2_EN":"Wan Yai","ADM2_TH":"หว้านใหญ่","ADM2_PCODE":"TH4906","ADM1_EN":"Mukdahan","ADM1_TH":"มุกดาหาร","ADM1_PCODE":"TH49","ADM0_EN":"Thailand","ADM0_TH":"ประเทศไทย","ADM0_PCODE":"TH"}},{"arcs":[[-47,142,-138]],"type":"Polygon","properties":{"Shape_Leng":0.138949816981,"Shape_Area":0.00102822957125,"ADM3_EN":"Dong Mu","ADM3_TH":"ดงหมู","ADM3_PCODE":"TH490605","ADM2_EN":"Wan Yai","ADM2_TH":"หว้านใหญ่","ADM2_PCODE":"TH4906","ADM1_EN":"Mukdahan","ADM1_TH":"มุกดาหาร","ADM1_PCODE":"TH49","ADM0_EN":"Thailand","ADM0_TH":"ประเทศไทย","ADM0_PCODE":"TH"}},{"arcs":[[-132,143,144,145,146]],"type":"Polygon","properties":{"Shape_Leng":0.197142843178,"Shape_Area":0.00154644864829,"ADM3_EN":"Nong Sung","ADM3_TH":"หนองสูง","ADM3_PCODE":"TH490701","ADM2_EN":"Nong Sung","ADM2_TH":"หนองสูง","ADM2_PCODE":"TH4907","ADM1_EN":"Mukdahan","ADM1_TH":"มุกดาหาร","ADM1_PCODE":"TH49","ADM0_EN":"Thailand","ADM0_TH":"ประเทศไทย","ADM0_PCODE":"TH"}},{"arcs":[[-122,147,-146,148,149]],"type":"Polygon","properties":{"Shape_Leng":0.480920631158,"Shape_Area":0.0083843553819,"ADM3_EN":"Non Yang","ADM3_TH":"โนนยาง","ADM3_PCODE":"TH490702","ADM2_EN":"Nong Sung","ADM2_TH":"หนองสูง","ADM2_PCODE":"TH4907","ADM1_EN":"Mukdahan","ADM1_TH":"มุกดาหาร","ADM1_PCODE":"TH49","ADM0_EN":"Thailand","ADM0_TH":"ประเทศไทย","ADM0_PCODE":"TH"}},{"arcs":[[-33,-72,-79,150,-144,-131]],"type":"Polygon","properties":{"Shape_Leng":0.354775085004,"Shape_Area":0.00291324333194,"ADM3_EN":"Phu Wong","ADM3_TH":"ภูวง","ADM3_PCODE":"TH490703","ADM2_EN":"Nong Sung","ADM2_TH":"หนองสูง","ADM2_PCODE":"TH4907","ADM1_EN":"Mukdahan","ADM1_TH":"มุกดาหาร","ADM1_PCODE":"TH49","ADM0_EN":"Thailand","ADM0_TH":"ประเทศไทย","ADM0_PCODE":"TH"}},{"arcs":[[-145,151,152,-149]],"type":"Polygon","properties":{"Shape_Leng":0.258006320851,"Shape_Area":0.00324855201294,"ADM3_EN":"Ban Pao","ADM3_TH":"บ้านเป้า","ADM3_PCODE":"TH490704","ADM2_EN":"Nong Sung","ADM2_TH":"หนองสูง","ADM2_PCODE":"TH4907","ADM1_EN":"Mukdahan","ADM1_TH":"มุกดาหาร","ADM1_PCODE":"TH49","ADM0_EN":"Thailand","ADM0_TH":"ประเทศไทย","ADM0_PCODE":"TH"}},{"arcs":[[-78,153,-152,-151]],"type":"Polygon","properties":{"Shape_Leng":0.441409960917,"Shape_Area":0.0074357866963,"ADM3_EN":"Nong Sung Tai","ADM3_TH":"หนองสูงใต้","ADM3_PCODE":"TH490705","ADM2_EN":"Nong Sung","ADM2_TH":"หนองสูง","ADM2_PCODE":"TH4907","ADM1_EN":"Mukdahan","ADM1_TH":"มุกดาหาร","ADM1_PCODE":"TH49","ADM0_EN":"Thailand","ADM0_TH":"ประเทศไทย","ADM0_PCODE":"TH"}},{"arcs":[[-121,-133,-147,-148]],"type":"Polygon","properties":{"Shape_Leng":0.233432759877,"Shape_Area":0.00133317865896,"ADM3_EN":"Nong Sung Nuea","ADM3_TH":"หนองสูงเหนือ","ADM3_PCODE":"TH490706","ADM2_EN":"Nong Sung","ADM2_TH":"หนองสูง","ADM2_PCODE":"TH4907","ADM1_EN":"Mukdahan","ADM1_TH":"มุกดาหาร","ADM1_PCODE":"TH49","ADM0_EN":"Thailand","ADM0_TH":"ประเทศไทย","ADM0_PCODE":"TH"}}]}}}