{"type":"Topology","arcs":[[[5094,3269],[-49,-32],[-7,-40]],[[5038,3197],[-70,-10],[-55,29],[-12,-31],[-76,-3],[-30,-27],[-134,-12]],[[4661,3143],[-319,-67],[-34,225],[121,4]],[[4429,3305],[208,7]],[[4637,3312],[454,15],[3,-58]],[[4475,2418],[-64,-36],[96,-122],[-9,-56],[16,-117],[77,-5],[67,-53]],[[4658,2029],[-54,-93],[-23,-83],[-100,-81],[-100,-27],[52,-197],[-135,-25],[-9,-118],[40,-5],[17,-147],[50,-75],[-20,-12],[52,-55],[-240,-253]],[[4188,858],[-143,58],[16,52],[-50,45],[4,180],[-25,330],[2,119],[26,56],[85,23],[-11,71],[43,4],[-33,190],[-129,-80]],[[3973,1906],[-19,61],[43,167],[-43,131],[14,33],[-43,103],[-5,120],[-67,91],[-7,65],[-66,57],[-52,13]],[[3728,2747],[62,66],[314,16],[-6,97],[88,4]],[[4186,2930],[44,-135],[127,-80],[43,-54],[-2,-48],[40,-23],[-19,-46],[41,-57],[15,-69]],[[5094,3269],[99,39]],[[5193,3308],[194,-5],[-24,-155],[118,3],[-38,-137],[-55,-58],[-35,-217]],[[5353,2739],[-143,69],[-38,-4],[-26,62],[-55,21],[-53,-19]],[[5038,2868],[10,134],[-10,195]],[[5193,3308],[-14,58],[66,2],[2,39],[58,-2]],[[5305,3405],[39,7]],[[5344,3412],[89,-28],[94,-6],[42,19],[-7,-121],[332,-169],[55,-14]],[[5949,3093],[-30,-87]],[[5919,3006],[-109,-180],[-63,-70],[-35,-120],[-64,21]],[[5648,2657],[-129,60],[-166,22]],[[4906,4750],[-57,-55],[8,-49],[-48,-95],[-56,-55],[61,-46],[108,-25],[33,27],[48,-29],[-38,-20],[10,-47],[-47,-7],[-109,-95],[-39,36],[-13,-58],[-128,62],[-33,-47],[-91,-64]],[[4515,4183],[-113,6],[-219,-21]],[[4183,4168],[44,61],[-15,60],[34,28],[-11,49],[-51,20],[10,59]],[[4194,4445],[11,65],[122,5],[0,90],[38,74],[-53,13],[-113,91],[50,110],[36,40],[87,-52],[52,69],[72,-41],[118,19],[34,66]],[[4648,4994],[83,-104],[71,-62],[162,-12],[-58,-66]],[[4906,4750],[100,-21]],[[5006,4729],[22,-116],[125,-36],[220,-155],[19,-59]],[[5392,4363],[-60,-44],[-13,-62]],[[5319,4257],[-56,-4],[-14,-115],[61,-80],[-26,-47],[23,-104],[-102,31],[-57,62],[-33,-83],[57,-163],[-73,-102]],[[5099,3652],[-91,52],[-92,73],[-37,50],[-109,-42],[-48,36]],[[4722,3821],[-96,73],[-122,205],[11,84]],[[4661,3143],[13,-62],[-43,-96],[-9,-71],[30,-135],[11,-112],[39,-55],[65,-32]],[[4767,2580],[-55,-19],[-13,-64],[-58,-44],[-93,1],[-73,-36]],[[4186,2930],[33,3],[46,241],[-24,125],[50,33],[-50,45]],[[4241,3377],[-20,86],[20,39]],[[4241,3502],[96,-46],[12,-60],[80,-91]],[[4658,2029],[118,-36],[24,13],[82,-63],[49,71],[48,34],[18,92],[61,67],[83,62],[80,-23],[42,38],[83,-43],[25,-42],[61,41]],[[5432,2240],[-1,-71],[48,-74],[1,-94],[36,-45],[-26,-42],[20,-83],[-21,-104],[27,-96]],[[5516,1631],[15,-136],[-50,-13],[123,-433]],[[5604,1049],[-74,-15],[-124,-62],[-160,-18],[-28,20],[-176,-43],[-108,-6],[-86,-92]],[[4848,833],[-131,34],[-100,-16],[-100,15],[-29,37],[-109,-9],[-39,-84],[-125,-11],[-27,59]],[[4767,2580],[102,115],[34,69],[65,32],[70,72]],[[5648,2657],[-79,-117]],[[5569,2540],[-19,-79],[-24,1],[-16,-90],[-78,-132]],[[4637,3312],[7,136],[25,65],[30,296],[23,12]],[[5099,3652],[156,-94],[-1,-47],[51,-106]],[[4241,3502],[-77,45],[-61,-67],[-74,76],[49,34]],[[4078,3590],[42,-11],[70,26],[32,38],[-37,71],[25,84],[-35,54],[-50,-18],[-16,114],[-71,69],[78,88]],[[4116,4105],[67,63]],[[4078,3590],[-341,205],[-75,59],[-132,145],[-75,193],[16,64]],[[3471,4256],[196,-14],[27,-12],[41,-106],[118,-19],[108,29],[44,-41],[111,12]],[[4241,3377],[-40,7],[-98,-69],[-3,-24],[-470,-15]],[[3630,3276],[-55,37],[3,70],[-23,174],[30,74],[-51,184],[-91,-10],[-45,28],[22,42],[-23,35],[-135,60],[-36,-76],[-84,63],[-128,204],[56,-3],[5,118],[65,31],[-13,23],[42,63]],[[3169,4393],[48,-73],[60,-47],[69,6],[125,-23]],[[5344,3412],[9,85],[49,58],[3,99],[25,158],[-8,42],[52,115],[78,75],[54,9],[129,-46],[42,115]],[[5777,4122],[35,-5],[40,-103],[49,-33],[166,-213],[2,-54],[-50,-138]],[[6019,3576],[-44,-70],[-49,-177],[-1,-68],[24,-168]],[[5319,4257],[47,-48],[91,-14],[320,9]],[[5777,4204],[0,-82]],[[3546,2898],[-7,-28],[76,-46],[-63,-25],[-25,-56]],[[3527,2743],[-6,-98],[17,-37],[-7,-152],[-22,-133],[-59,-47],[63,-209],[-87,-39]],[[3426,2028],[-129,44],[-122,24],[-35,66],[-45,-2],[-28,54],[84,47],[8,51],[-146,50],[-53,67],[2,46],[60,43],[-11,58],[140,83],[-62,155],[-96,56]],[[2993,2870],[-38,71],[35,60],[-13,44],[-75,47],[-64,9],[21,79],[-9,71]],[[2850,3251],[316,10],[42,-238],[67,-31],[11,76],[46,42],[67,8],[28,-80],[123,-109],[-4,-31]],[[3973,1906],[-48,-63],[-118,-35],[-40,6],[-77,-72],[-21,14],[-97,-66],[-81,74]],[[3491,1764],[22,35],[-31,150],[-56,79]],[[3527,2743],[201,4]],[[3630,3276],[-22,-33],[97,-51],[-10,-52],[-67,25],[-11,-46],[171,-6],[-39,-74],[-26,-132],[-177,-9]],[[2850,3251],[-44,38],[49,34],[-16,126],[-111,71]],[[2728,3520],[-59,251],[-120,217],[48,198],[-94,31],[61,73],[-4,81],[-78,55],[-5,106]],[[2477,4532],[63,29],[52,61],[32,-3],[9,59],[67,30],[61,-50],[66,-14],[24,-53],[141,-101],[56,-19],[138,-6]],[[3186,4465],[-17,-72]],[[3491,1764],[-137,-94],[9,-50],[-114,-21],[-160,-51],[-43,-45]],[[3046,1503],[-47,63],[-37,96],[-137,216],[-16,234],[-18,44],[77,136],[-63,204],[-135,6]],[[2670,2502],[21,41],[-2,117],[21,10],[-21,88],[82,20],[145,10],[57,31],[20,51]],[[3046,1503],[-255,-132],[-43,9],[-24,68],[-39,-13],[-11,147],[-35,25],[-64,-11],[-18,104],[-111,112],[15,113],[-41,77],[-54,274],[131,5],[145,79],[-4,75],[32,67]],[[3186,4465],[32,184],[54,38],[117,7],[-140,79],[-97,76],[-74,107],[78,124],[78,21]],[[3234,5101],[121,-28],[40,-89],[65,21],[76,-65],[52,-7],[36,-41],[113,-78],[75,-83],[14,-46],[95,26],[94,-126],[-72,-53],[126,-34],[125,-53]],[[2477,4532],[-110,14],[-179,108],[-89,79]],[[2099,4733],[79,193],[-107,13],[-111,53],[121,85],[27,42],[11,159],[38,100]],[[2157,5378],[25,94],[65,-36],[-8,-29],[62,-12],[88,58]],[[2389,5453],[65,29],[29,64],[78,45],[111,-11],[104,-104],[18,-58],[89,-20],[42,34],[84,155]],[[3009,5587],[-13,-125],[59,-49],[19,-49],[134,-98],[25,-62],[1,-103]],[[2728,3520],[-53,-58],[-47,10],[-54,-46],[-127,-14],[-125,74],[45,63],[-18,76],[-144,45],[-57,-15],[-113,56],[-136,-45],[-85,75],[-90,-90],[7,-28],[-73,11],[226,561],[-139,215],[45,127],[33,14],[36,80],[47,51],[103,28],[73,-21],[17,44]],[[3618,5562],[-102,4],[-69,25],[16,93],[-191,24],[-36,97]],[[3236,5805],[-6,109],[66,-46],[46,6],[-31,234],[59,17],[13,102],[-52,0],[31,70],[-131,18],[-26,-82],[-22,31],[-74,16],[11,65],[-48,44],[54,32],[-12,163]],[[3114,6584],[154,92],[66,-79],[9,-38],[50,-1],[-18,66],[60,61],[53,2],[33,-64],[77,-64]],[[3598,6559],[-33,-45],[14,-52],[-74,-117],[3,-45],[-50,-3],[13,-122],[137,-184],[33,-225],[-23,-204]],[[3265,9270],[22,-357],[-82,-31],[9,-52],[79,-31],[14,-230]],[[3307,8569],[-64,-38],[-42,29],[-53,-51],[-82,-25],[4,-40],[-103,-30],[4,-70],[-38,-8],[9,-45],[-105,-5],[-13,-36],[-101,-71]],[[2723,8179],[-86,-9],[-77,48],[-83,27],[-163,-60],[-165,-152]],[[2149,8033],[-42,-1],[-45,94],[-160,139],[-409,62]],[[1493,8327],[40,47],[627,664],[82,-80],[56,39],[104,22],[-6,81],[77,11],[1,50],[122,4],[121,-49],[36,16],[114,-36],[129,54],[-85,42],[-24,33],[28,44],[113,27],[36,32],[40,-68],[161,10]],[[2149,8033],[43,-25],[-6,-38]],[[2186,7970],[-43,-14],[94,-191],[-176,-292],[-94,53],[108,-139],[-26,-35],[-163,120],[-49,-85],[-53,-54],[1,-105],[36,-17],[-7,-90],[-37,-36],[-10,-63]],[[1767,7022],[-79,20],[-62,-208],[-12,-70],[42,-15],[-29,-79],[-31,-9],[-1,-99],[-26,-129],[58,1],[64,-34]],[[1691,6400],[27,-23],[7,-73],[-44,-30],[-29,-129],[-255,-380],[197,-228]],[[1594,5537],[-123,93],[-110,58],[-60,-12],[-84,113],[-46,111],[-130,31],[-79,57],[-51,4],[-86,-32],[-64,-4],[-155,213],[-48,145],[-72,-5],[-114,146],[-41,76],[0,44],[-43,20],[71,89],[22,106]],[[381,6790],[100,-41],[181,2],[171,-14],[48,-97],[-31,-57],[83,-106],[75,-47],[186,16],[-15,81],[30,115],[-65,42],[-21,77],[-73,64],[-16,50],[-89,57],[-70,14],[-10,149],[90,9],[27,37],[9,240],[109,14],[35,43],[70,274],[70,207],[-220,112]],[[1055,8031],[299,306],[139,-10]],[[3009,5587],[14,49],[39,-48],[38,38],[67,20],[-24,23],[-2,77],[49,-26],[-17,82],[63,3]],[[3618,5562],[93,-7],[163,-73],[5,70]],[[3879,5552],[76,-60],[31,2],[63,-75],[20,90],[44,-12],[72,-61],[48,27],[2,-48],[44,12],[42,-51],[57,35],[45,-13],[12,-63],[91,36],[21,-44],[94,44],[-11,-80],[31,2]],[[4661,5293],[-46,-57],[25,-96],[-26,-86],[33,-5],[1,-55]],[[2389,5453],[144,360],[-165,78],[-69,124],[3,44],[81,23],[43,-24],[21,105],[103,-50],[80,64],[62,336]],[[2692,6513],[108,7],[1,50],[48,-37],[92,-10],[52,34],[121,27]],[[2723,8179],[-2,-90],[94,23],[33,-29],[44,23],[124,18],[62,39],[123,3],[109,-41],[7,-26],[85,-21],[146,26],[56,25],[141,-53],[54,17],[113,-10],[72,-49],[50,68],[50,11],[64,87],[89,-40],[33,36],[144,-65],[123,-31],[74,82],[-2,148],[94,-5]],[[4703,8325],[-5,-181],[23,-61],[49,-18],[5,-76]],[[4775,7989],[-84,-30],[26,-200],[-8,-114],[-170,-44],[34,-105]],[[4573,7496],[-120,43],[-33,-20],[-171,34],[-31,-95],[-101,-37],[18,76],[-92,4],[-129,-78],[-45,16],[-45,-52],[13,-70],[-183,3],[-22,-51],[-59,1],[-8,-74]],[[3565,7196],[-54,40],[-121,28],[-21,319],[-80,11],[-125,-10],[-51,35],[-101,14],[-149,-47]],[[2863,7586],[-43,198],[-103,2],[1,100],[-243,3],[6,94],[-295,-13]],[[2863,7586],[-35,-188],[-108,11],[-5,-262]],[[2715,7147],[-136,-9],[-61,70],[-177,-32],[-184,5],[-10,-93],[50,-53],[47,1],[69,42],[61,-112],[-36,-36],[-8,-100],[-121,-47],[-110,-15],[-37,17],[-47,89],[-149,26],[-8,44],[-91,78]],[[4573,7496],[53,-174],[-10,-39],[61,-43],[103,2]],[[4780,7242],[-26,-129],[-28,-59],[-40,-21],[22,-141],[46,-17]],[[4754,6875],[40,-87],[-27,-51],[-49,-23],[20,-86],[-20,-50],[38,-69],[-67,0],[10,44],[-48,9],[-6,-112],[79,-6],[-156,-37]],[[4568,6407],[-86,-32],[-13,64],[92,113],[3,87],[-45,4],[-79,-42],[-31,25],[-75,-43],[-50,0],[-16,39],[-124,15],[-10,70],[-74,29],[-17,-64],[-65,5],[-128,-18],[-51,116]],[[3799,6775],[-80,72],[67,30],[-67,19],[-39,-25],[-79,76],[8,102],[-59,-5],[15,152]],[[3307,8569],[80,3],[72,58],[112,-25],[70,7],[21,61],[45,-16],[45,90],[74,15],[171,-44],[9,42],[125,-6],[343,-44],[46,16],[230,-12]],[[4750,8714],[10,-136],[59,-24],[39,-51],[-39,-116],[-54,37],[-62,-99]],[[2157,5378],[-104,46],[-96,15],[-139,45],[-147,12],[-77,41]],[[1691,6400],[11,58],[40,34],[59,-28],[63,11],[29,43],[124,-4],[9,51],[88,-2],[59,19],[113,-1],[64,38],[43,-5],[76,-120],[100,56],[123,-37]],[[3265,9270],[136,-14],[104,60],[76,15],[45,-39],[144,57],[73,57],[-5,-42],[98,56],[142,0],[41,66],[35,-5],[146,46],[186,-34],[43,-104],[234,-17]],[[4763,9372],[7,-49],[-21,-162],[17,-81],[-11,-95],[52,-11],[19,-131],[-76,-12],[0,-117]],[[3114,6584],[22,48],[-12,54],[-65,-1],[-4,97],[-339,38],[-1,327]],[[3799,6775],[-76,-42],[-43,-117],[69,-43],[-27,-82],[-43,51],[-81,17]],[[381,6790],[3,42],[46,28],[-39,38],[15,102],[32,48],[-20,50],[46,22],[-29,89],[99,46],[-18,63],[91,23],[15,91],[44,2],[-14,110],[16,48],[-28,28],[-137,52],[-130,98],[-121,2],[-33,21],[-69,-11],[-94,48],[-56,8],[71,128],[81,27],[38,76],[51,-9],[154,58],[173,-58],[71,4],[83,45],[46,1],[267,-95],[20,16]],[[4568,6407],[-30,-39]],[[4538,6368],[-50,-52],[-203,11],[-34,-67],[4,-105],[-78,-24],[-44,53],[-60,22],[-60,-27],[-3,-71],[-91,6],[8,-84],[-35,-114],[-92,-25],[-15,-92],[47,-53],[87,52],[-1,-73],[68,-26],[22,-78],[-6,-65],[-108,34],[-15,-38]],[[7401,2623],[-21,-50],[43,-66],[-103,-131],[-112,-187]],[[7208,2189],[-33,18],[26,94]],[[7201,2301],[35,114],[-64,45],[-29,201],[113,48],[-234,233]],[[7022,2942],[92,-8]],[[7114,2934],[33,-61],[146,-131],[108,-119]],[[7201,2301],[-78,-12],[-53,128],[-32,131],[-98,96],[26,41],[-76,113],[-18,57],[26,12],[-11,92]],[[6887,2959],[135,-17]],[[6887,2959],[-128,16]],[[6759,2975],[9,52],[-35,155],[-71,86],[-14,63]],[[6648,3331],[101,-51],[76,42],[84,4]],[[6909,3326],[8,-2]],[[6917,3324],[60,-93],[61,-54],[69,-19],[5,-92]],[[7112,3066],[-6,-101]],[[7106,2965],[8,-31]],[[7208,2189],[-28,-124],[13,-10],[-58,-186],[-184,-14]],[[6951,1855],[-53,64],[-35,303],[-56,171],[-8,161],[9,51],[-38,48],[15,70],[-62,117],[28,3],[8,132]],[[6951,1855],[10,-55]],[[6961,1800],[-22,-33],[-226,-43],[-98,6]],[[6615,1730],[-46,1],[19,151],[45,230],[48,317],[39,38],[7,77],[-98,41],[-69,74]],[[6560,2659],[63,54],[43,144],[-32,22]],[[6634,2879],[17,59],[-42,10],[8,44],[142,-17]],[[6615,1730],[-2,-66]],[[6613,1664],[-153,7]],[[6460,1671],[-19,32],[-117,89]],[[6324,1792],[-2,94],[49,59],[-94,140]],[[6277,2085],[156,190],[84,165],[14,195],[29,24]],[[7401,2623],[70,-60],[83,-41],[66,-3],[174,46],[85,58]],[[7879,2623],[-26,-84],[-70,-87],[-295,-283]],[[7488,2169],[-35,-69],[-235,-222],[-116,-135],[-48,-25],[-93,82]],[[6277,2085],[-79,107],[-223,100],[11,68],[-53,90],[-77,53]],[[5856,2503],[34,68],[101,-9],[104,164],[86,-26],[49,74]],[[6230,2774],[32,-1],[7,97],[72,5],[6,42],[153,-3],[134,-35]],[[5919,3006],[91,-77],[30,31],[50,-19],[27,-160],[113,-7]],[[5856,2503],[-41,-74],[-69,54],[-85,10],[-18,42],[-74,5]],[[6324,1792],[-174,8],[-193,43],[-17,-86],[-166,18],[-8,-43],[-87,-23],[-36,-61],[-127,-17]],[[6460,1671],[-23,-127],[6,-120],[-21,-105],[-43,-81],[-94,32],[-64,-90],[-69,56],[-70,-14],[-26,-95],[-177,-29],[-124,-8],[-151,-41]],[[6019,3576],[137,-45],[35,12],[44,-66],[123,43],[33,48],[47,-21],[74,-123],[136,-93]],[[5777,4204],[87,5],[27,48],[125,24],[23,55],[32,-22],[56,31],[-15,84],[55,26],[-9,104],[109,70]],[[6267,4629],[39,-69],[276,-265],[65,-76],[54,-147],[63,-37],[-9,-156],[26,-241],[17,-18],[62,-252],[49,-42]],[[6267,4629],[116,22],[107,73]],[[6490,4724],[77,-114],[89,-9],[143,-181],[98,-65],[32,-79],[55,9],[88,-102],[-16,-11],[52,-95],[-3,-38],[39,-164],[40,-79],[-16,-38],[43,-125]],[[7211,3633],[-114,-127],[1,-61],[-43,-43],[-87,-36],[-51,-42]],[[7211,3633],[93,59]],[[7304,3692],[28,-35]],[[7332,3657],[102,-48],[95,-15],[95,-107],[22,-89],[-40,-78],[24,-38],[-15,-75],[15,-165]],[[7630,3042],[-172,9],[-59,22],[-67,118],[-71,1],[-75,-41],[-74,-85]],[[7332,3657],[449,24],[18,-8]],[[7799,3673],[1,-73],[39,-160],[-15,-373]],[[7824,3067],[-34,-31],[-160,6]],[[7304,3692],[52,50],[-6,151],[33,-1],[49,104],[-29,55],[21,43]],[[7424,4094],[99,-35],[135,0],[108,41],[192,50],[83,-1],[255,56],[136,47]],[[8432,4252],[42,-166],[-19,-328],[-646,-88],[-10,3]],[[7424,4094],[-39,35],[-59,-31],[-36,62],[21,45],[111,100],[83,-44],[48,64],[72,-4],[27,60]],[[7652,4381],[19,82],[81,-14],[6,23]],[[7758,4472],[104,63],[27,-23],[182,-14],[180,0],[50,-42],[75,5],[-6,-55],[40,1],[15,-50],[121,-5],[35,-33]],[[8581,4319],[12,-39]],[[8593,4280],[-131,-5],[-30,-23]],[[6490,4724],[30,30],[-49,42],[14,25],[85,14],[32,65]],[[6602,4900],[1,-43],[97,-19],[103,-49],[142,-37],[38,-30],[85,-18],[107,-97],[71,18],[105,-60],[11,-61],[41,-40],[146,-82],[103,-1]],[[6602,4900],[110,34],[30,83],[96,45],[48,-14],[33,47],[-22,70]],[[6897,5165],[39,-47],[82,-2],[183,-93],[132,25],[27,-77]],[[7360,4971],[20,-68],[29,-10],[75,-112],[88,-71],[11,-48],[54,9],[57,-69],[25,-94],[39,-36]],[[7360,4971],[120,-65],[77,-6],[28,-69],[55,15],[97,-20],[88,23],[88,-19],[100,-98],[74,65],[236,48],[118,-9]],[[8441,4836],[4,-15]],[[8445,4821],[21,-101],[115,-401]],[[8593,4280],[66,-220],[-45,-466],[-12,-193]],[[8602,3401],[-351,-15],[-60,-102],[-3,-63],[36,-49],[-122,-59],[14,-55],[-42,-13]],[[8074,3045],[-250,22]],[[8074,3045],[4,-90]],[[8078,2955],[-290,-29],[19,-47],[-396,9],[-80,32],[-13,57],[-212,-12]],[[8078,2955],[-15,-59],[78,-22],[45,15],[56,62],[70,-7],[-25,-65]],[[8287,2879],[-32,-22],[-60,-105],[-70,-66],[-48,-8],[-126,47],[-35,-17],[-37,-85]],[[4754,6875],[71,45],[50,-9],[9,90],[147,-17],[-6,-111],[219,-89],[-18,-65],[6,-76],[-56,-220],[23,-46],[89,-32],[59,-71],[36,29],[76,-19]],[[5459,6284],[49,-22],[-1,-73],[-43,-120],[48,-43],[28,-84],[52,54],[72,-41],[76,6],[28,-46],[36,30],[50,-8],[44,-76]],[[5898,5861],[-67,-85],[-114,-59]],[[5717,5717],[-8,30],[-74,-21],[-125,4],[-77,25],[-54,43],[-91,-27],[-12,-37],[-128,-11],[-75,-31],[-59,10],[-1,31],[-111,-3]],[[4902,5730],[23,154],[-57,35],[-12,76],[15,47],[-27,30],[-45,-15],[-35,116],[-120,34],[-106,161]],[[4661,5293],[56,9],[55,87],[1,169],[-40,35],[45,20],[41,118],[83,-1]],[[5717,5717],[65,-246],[-126,-90],[15,-30],[-31,-83]],[[5640,5268],[-76,-18],[-17,-53],[-88,8],[17,-21],[-5,-119],[-72,-53],[-78,-88],[-102,-2],[1,-83],[-29,2],[29,-102],[-16,-51],[-198,41]],[[5898,5861],[128,-41]],[[6026,5820],[252,-169],[159,-126],[136,-123]],[[6573,5402],[19,-57],[84,-49],[89,3],[11,-59],[99,-10],[14,-33]],[[6889,5197],[-109,-33],[-202,43],[-148,11],[-41,-104],[-75,-8],[-13,51],[-92,57],[-26,-35],[3,-111],[-77,-27]],[[6109,5041],[-413,-36],[-31,109],[-60,44],[43,58],[-8,52]],[[6267,4629],[-51,11],[-78,-82],[-178,45],[-13,49],[54,22],[22,41],[1,121],[-79,37],[9,28]],[[5954,4901],[4,38],[68,-7],[63,22],[20,87]],[[6889,5197],[8,-32]],[[5392,4363],[96,80],[115,-11],[46,123],[-24,54],[11,84],[81,108],[119,82],[118,18]],[[4780,7242],[226,55],[32,124],[195,-42],[4,36],[72,16],[36,172],[161,-73],[225,-90]],[[5731,7440],[-30,-154],[-44,-25],[-5,-176],[-51,-116],[28,-110],[-9,-30],[-86,2],[-20,-60],[-125,-90],[-19,-73],[30,-6],[-16,-65],[40,-61],[7,-141],[28,-51]],[[7414,6738],[-45,-161],[-68,-139],[-5,-48],[-54,13],[-8,-69],[-29,-5]],[[7205,6329],[-35,67],[-225,99],[-136,29],[-287,108],[-174,-11]],[[6348,6621],[-53,9],[-5,40],[-124,42],[-107,104],[-66,5],[19,56],[21,187],[22,-1],[4,133],[32,102]],[[6091,7298],[207,-70],[265,-71],[51,25],[57,-21],[16,-37],[96,-49],[70,75],[18,-17],[172,69],[122,72],[81,30],[158,24],[-12,53],[124,3],[156,46],[40,25]],[[7712,7455],[-11,-216],[-18,-86],[-56,-89],[-33,0],[-11,-70],[-37,15],[-48,-109],[8,-28],[-92,-134]],[[6026,5820],[2,31],[-66,77],[64,113],[137,135],[-54,106],[65,45],[29,66],[94,72],[51,156]],[[7205,6329],[-111,-28],[1,-27],[-78,-11],[-26,-102],[9,-226]],[[7000,5935],[-11,-14]],[[6989,5921],[-40,-185],[-29,-4],[-14,-69],[-61,8],[-7,-32],[-142,-89],[13,-27],[-87,-34],[-49,-87]],[[4763,9372],[81,0],[53,44],[65,3],[11,-39],[69,33],[154,-22],[115,19],[172,-5],[91,13],[34,-22],[88,12],[223,-36],[141,7],[-7,-130],[55,20],[17,50],[84,46],[69,14],[232,-14],[116,33],[-23,74],[158,18],[27,58],[69,4],[15,39]],[[6872,9591],[68,-28],[67,-89],[48,0],[-2,-37],[131,8],[-5,-153]],[[7179,9292],[-171,-59],[0,-50],[-127,-57],[4,-24],[-98,-133],[-452,-24],[-199,25],[-124,-52],[-70,-49],[8,-24],[-120,-120],[-48,-26],[-30,-59],[-95,-24],[2,-55],[-90,-33],[-47,-83]],[[5522,8445],[-94,-107],[21,-43],[-35,-25],[39,-140],[-35,-55],[49,-84],[-117,-88],[-44,-50],[-74,75],[-67,-12],[-164,11],[-24,52],[-60,-25],[-135,0],[-7,35]],[[7712,7455],[23,385],[-15,170]],[[7720,8010],[271,61],[217,32],[54,-30],[97,-10],[136,-51],[120,-17],[113,-112]],[[8728,7883],[-130,-122],[92,-446],[82,-116],[69,-123],[-137,-9],[-14,-87],[-94,-163],[47,-42],[-61,-68],[43,-59],[-60,-58]],[[8565,6590],[-62,-48]],[[8503,6542],[-383,244],[-294,36],[-218,-79],[-75,-12],[-119,7]],[[6989,5921],[44,-57],[45,-12],[-11,-40],[93,-15],[30,-168],[-20,-99],[176,56],[205,-23],[63,100],[80,-36],[180,-116]],[[7874,5511],[-74,-116],[77,4],[98,-60],[100,-25],[19,-37],[162,-98],[36,68],[100,-43],[-7,-97],[56,-271]],[[6091,7298],[-135,56]],[[5956,7354],[91,250],[23,42],[75,56],[-39,149],[68,105]],[[6174,7956],[95,-69]],[[6269,7887],[81,-20],[8,-54],[155,41],[32,-21],[148,17],[79,34],[62,70],[-12,67],[178,31],[95,57],[30,38],[158,19],[249,-52],[62,-132],[126,28]],[[7179,9292],[5,-82],[-62,-89],[113,-104],[32,-49]],[[7267,8968],[-70,-51],[-207,-115],[-48,-73],[19,-19],[-78,-94],[-16,11],[-154,-155],[-65,-49],[-47,-84],[-27,-93],[-68,-146],[-115,-43],[-80,-92],[-42,-78]],[[6174,7956],[6,12],[-94,129],[-106,81],[-118,33],[-100,82],[-56,-45],[-50,40],[-79,25],[-10,115],[-45,17]],[[7267,8968],[94,-86],[-25,-125],[40,-51],[238,-238],[28,2],[-2,-105],[239,41],[7,53],[186,30],[168,72],[291,25],[5,-38],[98,9],[211,-20]],[[8845,8537],[-5,-313],[-16,-96],[-36,-102],[-39,-32],[6,-78],[-27,-33]],[[5731,7440],[225,-86]],[[7179,9292],[91,-10],[48,-35],[136,-50],[48,33],[169,-65],[54,155],[166,-65],[23,66],[100,-32],[61,171],[103,-2],[4,38],[200,-25],[202,9],[168,-35],[60,8],[42,-35],[84,-21]],[[8938,9397],[-47,-408],[44,33],[37,-495],[-127,10]],[[6872,9591],[18,59],[261,54],[-7,31],[265,100],[-11,109],[264,55],[573,-95],[454,-36],[291,-40],[-42,-431]],[[8503,6542],[30,-60],[-80,-71],[-102,-160]],[[8351,6251],[-462,-123],[-586,-183],[-303,-10]],[[7874,5511],[105,163],[55,-29],[134,204],[-21,153],[204,249]],[[8565,6590],[107,-88],[31,-86],[85,-116],[235,-218],[226,-149],[-214,-305],[-279,-287],[-133,-216],[149,-88],[55,-56],[188,-390]],[[9015,4591],[-108,-39],[-53,170],[-62,106],[-83,-36],[-12,31],[-85,-8],[-8,-22],[-159,28]],[[8494,1408],[63,0],[-1,-111],[44,0]],[[8600,1297],[26,-64],[-44,-75],[-34,-13],[-33,54],[-44,15],[-67,-20],[29,-38],[-102,-91]],[[8331,1065],[-46,50],[-165,-130],[-84,76],[-81,47]],[[7955,1108],[-48,16]],[[7907,1124],[6,111],[35,41],[-19,83],[117,-12]],[[8046,1347],[71,14],[59,63],[75,9],[-3,-30],[89,-87],[65,63],[92,29]],[[8754,2884],[-33,-125],[-35,-199],[28,-99],[70,-39],[6,-65],[-137,27],[4,-112],[-24,-163]],[[8633,2109],[-136,-72]],[[8497,2037],[-9,25],[-94,9],[-4,-44],[-85,14]],[[8305,2041],[16,52],[-22,51],[44,62],[3,154],[39,86],[2,52],[39,64],[-66,-9],[1,107],[45,116],[160,112]],[[8566,2888],[40,22],[47,-45],[82,-5],[19,24]],[[8287,2879],[123,-19],[71,52],[85,-24]],[[8305,2041],[-178,32],[-22,27],[-144,-30],[4,45],[-196,-46],[-29,-71],[-61,-18],[-23,68],[-34,4]],[[7622,2052],[20,65],[-154,52]],[[9502,2635],[17,-64],[-59,-7],[12,-320],[8,-9],[255,9],[30,-91],[39,-3]],[[9804,2150],[-11,-78],[-71,-4],[-61,-52],[-77,-28],[22,-85],[-149,-57]],[[9457,1846],[-42,69],[-6,78],[-129,59],[-38,-6],[-88,85],[-133,-26],[-65,17]],[[8956,2122],[22,108],[-47,144],[53,64],[84,-6],[53,44],[199,115],[19,20],[163,24]],[[8754,2884],[46,-16],[48,31],[44,-14]],[[8892,2885],[5,-43],[168,-75],[175,-24],[113,24],[-6,-81],[152,48],[3,-99]],[[8956,2122],[-42,-126],[-31,-47],[-174,126],[-76,34]],[[7907,1124],[-41,-16],[-16,-135],[-52,-74],[-72,-17],[-144,19],[-41,19],[-23,72],[33,170],[-44,190]],[[7507,1352],[44,60],[-59,63],[33,24],[161,29],[3,83]],[[7689,1611],[63,0],[125,-34],[14,-41],[38,14],[20,-43],[76,-66],[21,-94]],[[7955,1108],[-29,-111],[29,-16],[-76,-287],[39,-40],[-84,-47]],[[7834,607],[-225,6],[-50,59],[-124,-122],[-134,-37],[-39,-43],[-98,-2],[-140,283]],[[7024,751],[43,19],[17,91],[-31,73],[10,65],[-34,43],[2,72],[-61,16],[-34,148],[-60,3],[-12,69],[-38,43]],[[6826,1393],[75,9],[-9,42],[113,10],[156,-39],[47,-31],[125,64],[20,-69],[83,25],[25,-51],[46,-1]],[[8494,1408],[-13,64],[18,69],[-26,20],[-56,-30],[-33,38]],[[8384,1569],[101,66],[-28,31],[-7,102],[35,28],[18,93],[-43,86],[37,62]],[[9457,1846],[-70,-8],[-18,-66],[44,-34],[24,32],[41,-79],[-45,-30],[10,-60],[-99,-31],[-9,-82],[21,-59],[-71,9],[27,-97]],[[9312,1341],[48,-96],[-114,-18],[-21,67],[-45,-19],[-28,34],[-60,-15],[-20,-51],[-102,-19],[-2,-42]],[[8968,1182],[-113,24],[-22,-28],[-79,-10],[-90,141],[-64,-12]],[[8384,1569],[-74,-42],[-27,86],[-95,117],[-77,28],[-141,-39],[2,40],[-108,26],[-40,-23],[-129,-21],[-89,16],[-54,34]],[[7552,1791],[45,71],[-6,75],[31,115]],[[9804,2150],[54,0]],[[9858,2150],[56,-66],[-5,-80],[50,-39],[-8,-105],[48,-261],[-45,-8],[31,-71],[-38,-26],[19,-101],[-94,-33],[-10,-29],[-117,-45],[-3,28],[-69,40],[-84,-16],[-8,55],[-123,-25],[-5,58],[-44,-13],[12,-80],[-109,8]],[[7552,1791],[23,-39],[23,-136],[91,-5]],[[6826,1393],[-134,-51],[-46,14],[0,73],[-33,235]],[[5604,1049],[-8,-34],[161,5],[-7,-87],[21,0],[34,-183],[10,0],[33,-167],[14,-19]],[[5862,564],[46,-113],[-38,-11],[40,-103],[-114,-14],[82,-236],[-194,-42],[-117,-45],[-60,11],[-52,43],[-94,-33],[-28,51],[-128,-44],[-47,122],[-137,6],[-21,32],[-101,-3],[-4,23],[-192,0],[50,84],[12,164],[75,106],[23,219],[-15,52]],[[7024,751],[-91,-18],[-39,-112],[-173,-64],[-44,-37],[-137,73],[-5,68],[-274,-22],[-186,-26],[-213,-49]],[[8331,1065],[37,-47],[-45,-117],[48,-22],[72,-135],[79,-75]],[[8522,669],[6,-41],[-38,-55],[-44,21],[-240,-114],[-53,98],[-262,-134],[-8,78],[-49,85]],[[8968,1182],[38,-2],[19,-67],[-35,-9],[-18,-196],[44,-4],[16,-53],[-87,-28],[-79,0],[-23,-87],[-119,-91],[-49,-5],[-116,43],[-37,-14]],[[8892,2885],[37,65],[-8,60],[43,169],[30,179],[1,78]],[[8995,3436],[318,36],[225,33]],[[9538,3505],[331,-693],[8,-97],[49,-171],[4,-51],[-38,3],[-18,-72],[-16,-274]],[[9015,4591],[523,-1086]],[[8995,3436],[-192,-22],[-201,-13]]],"transform":{"scale":[0.000052343719671965376,0.000052942199719973784],"translate":[99.81410096500008,13.649253140000042]},"objects":{"Nakhon Pathom":{"type":"GeometryCollection","geometries":[{"arcs":[[0,1,2,3,4]],"type":"Polygon","properties":{"Shape_Leng":0.103536621421,"Shape_Area":0.000351817119726,"ADM3_EN":"Phra Pathom Chedi","ADM3_TH":"พระปฐมเจดีย์","ADM3_PCODE":"TH730101","ADM2_EN":"Mueang Nakhon Pathom","ADM2_TH":"เมืองนครปฐม","ADM2_PCODE":"TH7301","ADM1_EN":"Nakhon Pathom","ADM1_TH":"นครปฐม","ADM1_PCODE":"TH73","ADM0_EN":"Thailand","ADM0_TH":"ประเทศไทย","ADM0_PCODE":"TH"}},{"arcs":[[5,6,7,8,9,10]],"type":"Polygon","properties":{"Shape_Leng":0.32286248418,"Shape_Area":0.00240472545238,"ADM3_EN":"Bang Khaem","ADM3_TH":"บางแขม","ADM3_PCODE":"TH730102","ADM2_EN":"Mueang Nakhon Pathom","ADM2_TH":"เมืองนครปฐม","ADM2_PCODE":"TH7301","ADM1_EN":"Nakhon Pathom","ADM1_TH":"นครปฐม","ADM1_PCODE":"TH73","ADM0_EN":"Thailand","ADM0_TH":"ประเทศไทย","ADM0_PCODE":"TH"}},{"arcs":[[-1,11,12,13,14]],"type":"Polygon","properties":{"Shape_Leng":0.0993901683596,"Shape_Area":0.000481573692904,"ADM3_EN":"Phra Prathon","ADM3_TH":"พระประโทน","ADM3_PCODE":"TH730103","ADM2_EN":"Mueang Nakhon Pathom","ADM2_TH":"เมืองนครปฐม","ADM2_PCODE":"TH7301","ADM1_EN":"Nakhon Pathom","ADM1_TH":"นครปฐม","ADM1_PCODE":"TH73","ADM0_EN":"Thailand","ADM0_TH":"ประเทศไทย","ADM0_PCODE":"TH"}},{"arcs":[[-13,15,16,17,18,19,20]],"type":"Polygon","properties":{"Shape_Leng":0.15406732938,"Shape_Area":0.000773259816349,"ADM3_EN":"Thammasala","ADM3_TH":"ธรรมศาลา","ADM3_PCODE":"TH730104","ADM2_EN":"Mueang Nakhon Pathom","ADM2_TH":"เมืองนครปฐม","ADM2_PCODE":"TH7301","ADM1_EN":"Nakhon Pathom","ADM1_TH":"นครปฐม","ADM1_PCODE":"TH73","ADM0_EN":"Thailand","ADM0_TH":"ประเทศไทย","ADM0_PCODE":"TH"}},{"arcs":[[21,22,23,24,25]],"type":"Polygon","properties":{"Shape_Leng":0.205581158214,"Shape_Area":0.00117511547043,"ADM3_EN":"Ta Kong","ADM3_TH":"ตาก้อง","ADM3_PCODE":"TH730105","ADM2_EN":"Mueang Nakhon Pathom","ADM2_TH":"เมืองนครปฐม","ADM2_PCODE":"TH7301","ADM1_EN":"Nakhon Pathom","ADM1_TH":"นครปฐม","ADM1_PCODE":"TH73","ADM0_EN":"Thailand","ADM0_TH":"ประเทศไทย","ADM0_PCODE":"TH"}},{"arcs":[[-22,26,27,28,29,30,31]],"type":"Polygon","properties":{"Shape_Leng":0.226383820117,"Shape_Area":0.00136670786621,"ADM3_EN":"Map Khae","ADM3_TH":"มาบแค","ADM3_PCODE":"TH730106","ADM2_EN":"Mueang Nakhon Pathom","ADM2_TH":"เมืองนครปฐม","ADM2_PCODE":"TH7301","ADM1_EN":"Nakhon Pathom","ADM1_TH":"นครปฐม","ADM1_PCODE":"TH73","ADM0_EN":"Thailand","ADM0_TH":"ประเทศไทย","ADM0_PCODE":"TH"}},{"arcs":[[-3,32,33,-11,34,35,36]],"type":"Polygon","properties":{"Shape_Leng":0.179255502584,"Shape_Area":0.000739189318297,"ADM3_EN":"Sanam Chan","ADM3_TH":"สนามจันทร์","ADM3_PCODE":"TH730107","ADM2_EN":"Mueang Nakhon Pathom","ADM2_TH":"เมืองนครปฐม","ADM2_PCODE":"TH7301","ADM1_EN":"Nakhon Pathom","ADM1_TH":"นครปฐม","ADM1_PCODE":"TH73","ADM0_EN":"Thailand","ADM0_TH":"ประเทศไทย","ADM0_PCODE":"TH"}},{"arcs":[[-7,37,38,39,40,41]],"type":"Polygon","properties":{"Shape_Leng":0.310880021615,"Shape_Area":0.00370165548562,"ADM3_EN":"Don Yai Hom","ADM3_TH":"ดอนยายหอม","ADM3_PCODE":"TH730108","ADM2_EN":"Mueang Nakhon Pathom","ADM2_TH":"เมืองนครปฐม","ADM2_PCODE":"TH7301","ADM1_EN":"Nakhon Pathom","ADM1_TH":"นครปฐม","ADM1_PCODE":"TH73","ADM0_EN":"Thailand","ADM0_TH":"ประเทศไทย","ADM0_PCODE":"TH"}},{"arcs":[[-6,-34,42,-14,-21,43,44,-38]],"type":"Polygon","properties":{"Shape_Leng":0.194726005502,"Shape_Area":0.001631164966,"ADM3_EN":"Thanon Khat","ADM3_TH":"ถนนขาด","ADM3_PCODE":"TH730109","ADM2_EN":"Mueang Nakhon Pathom","ADM2_TH":"เมืองนครปฐม","ADM2_PCODE":"TH7301","ADM1_EN":"Nakhon Pathom","ADM1_TH":"นครปฐม","ADM1_PCODE":"TH73","ADM0_EN":"Thailand","ADM0_TH":"ประเทศไทย","ADM0_PCODE":"TH"}},{"arcs":[[-5,45,-31,46,-16,-12]],"type":"Polygon","properties":{"Shape_Leng":0.119730051731,"Shape_Area":0.000663445248784,"ADM3_EN":"Bo Phlap","ADM3_TH":"บ่อพลับ","ADM3_PCODE":"TH730110","ADM2_EN":"Mueang Nakhon Pathom","ADM2_TH":"เมืองนครปฐม","ADM2_PCODE":"TH7301","ADM1_EN":"Nakhon Pathom","ADM1_TH":"นครปฐม","ADM1_PCODE":"TH73","ADM0_EN":"Thailand","ADM0_TH":"ประเทศไทย","ADM0_PCODE":"TH"}},{"arcs":[[-4,-37,47,48,49,-23,-32,-46]],"type":"Polygon","properties":{"Shape_Leng":0.166894594767,"Shape_Area":0.00108128492912,"ADM3_EN":"Nakhon Pathom","ADM3_TH":"นครปฐม","ADM3_PCODE":"TH730111","ADM2_EN":"Mueang Nakhon Pathom","ADM2_TH":"เมืองนครปฐม","ADM2_PCODE":"TH7301","ADM1_EN":"Nakhon Pathom","ADM1_TH":"นครปฐม","ADM1_PCODE":"TH73","ADM0_EN":"Thailand","ADM0_TH":"ประเทศไทย","ADM0_PCODE":"TH"}},{"arcs":[[-49,50,51]],"type":"Polygon","properties":{"Shape_Leng":0.134844152897,"Shape_Area":0.000710755458525,"ADM3_EN":"Wang Taku","ADM3_TH":"วังตะกู","ADM3_PCODE":"TH730112","ADM2_EN":"Mueang Nakhon Pathom","ADM2_TH":"เมืองนครปฐม","ADM2_PCODE":"TH7301","ADM1_EN":"Nakhon Pathom","ADM1_TH":"นครปฐม","ADM1_PCODE":"TH73","ADM0_EN":"Thailand","ADM0_TH":"ประเทศไทย","ADM0_PCODE":"TH"}},{"arcs":[[-36,52,53,54,-51,-48]],"type":"Polygon","properties":{"Shape_Leng":0.229270422363,"Shape_Area":0.00120517203545,"ADM3_EN":"Nong Pak Long","ADM3_TH":"หนองปากโลง","ADM3_PCODE":"TH730113","ADM2_EN":"Mueang Nakhon Pathom","ADM2_TH":"เมืองนครปฐม","ADM2_PCODE":"TH7301","ADM1_EN":"Nakhon Pathom","ADM1_TH":"นครปฐม","ADM1_PCODE":"TH73","ADM0_EN":"Thailand","ADM0_TH":"ประเทศไทย","ADM0_PCODE":"TH"}},{"arcs":[[-18,55,56,57]],"type":"Polygon","properties":{"Shape_Leng":0.163214049046,"Shape_Area":0.00125612695875,"ADM3_EN":"Sam Khwai Phueak","ADM3_TH":"สามควายเผือก","ADM3_PCODE":"TH730114","ADM2_EN":"Mueang Nakhon Pathom","ADM2_TH":"เมืองนครปฐม","ADM2_PCODE":"TH7301","ADM1_EN":"Nakhon Pathom","ADM1_TH":"นครปฐม","ADM1_PCODE":"TH73","ADM0_EN":"Thailand","ADM0_TH":"ประเทศไทย","ADM0_PCODE":"TH"}},{"arcs":[[-17,-47,-30,58,59,-56]],"type":"Polygon","properties":{"Shape_Leng":0.166062843632,"Shape_Area":0.000627277381382,"ADM3_EN":"Thung Noi","ADM3_TH":"ทุ่งน้อย","ADM3_PCODE":"TH730115","ADM2_EN":"Mueang Nakhon Pathom","ADM2_TH":"เมืองนครปฐม","ADM2_PCODE":"TH7301","ADM1_EN":"Nakhon Pathom","ADM1_TH":"นครปฐม","ADM1_PCODE":"TH73","ADM0_EN":"Thailand","ADM0_TH":"ประเทศไทย","ADM0_PCODE":"TH"}},{"arcs":[[60,61,62,63,64]],"type":"Polygon","properties":{"Shape_Leng":0.232576158179,"Shape_Area":0.00144388032177,"ADM3_EN":"Nong Din Daeng","ADM3_TH":"หนองดินแดง","ADM3_PCODE":"TH730116","ADM2_EN":"Mueang Nakhon Pathom","ADM2_TH":"เมืองนครปฐม","ADM2_PCODE":"TH7301","ADM1_EN":"Nakhon Pathom","ADM1_TH":"นครปฐม","ADM1_PCODE":"TH73","ADM0_EN":"Thailand","ADM0_TH":"ประเทศไทย","ADM0_PCODE":"TH"}},{"arcs":[[-9,65,66,-62,67]],"type":"Polygon","properties":{"Shape_Leng":0.156889095458,"Shape_Area":0.00115343896355,"ADM3_EN":"Wang Yen","ADM3_TH":"วังเย็น","ADM3_PCODE":"TH730117","ADM2_EN":"Mueang Nakhon Pathom","ADM2_TH":"เมืองนครปฐม","ADM2_PCODE":"TH7301","ADM1_EN":"Nakhon Pathom","ADM1_TH":"นครปฐม","ADM1_PCODE":"TH73","ADM0_EN":"Thailand","ADM0_TH":"ประเทศไทย","ADM0_PCODE":"TH"}},{"arcs":[[-54,68,-65,69,70,71,72]],"type":"Polygon","properties":{"Shape_Leng":0.350701914868,"Shape_Area":0.00291674937014,"ADM3_EN":"Phrong Maduea","ADM3_TH":"โพรงมะเดื่อ","ADM3_PCODE":"TH730118","ADM2_EN":"Mueang Nakhon Pathom","ADM2_TH":"เมืองนครปฐม","ADM2_PCODE":"TH7301","ADM1_EN":"Nakhon Pathom","ADM1_TH":"นครปฐม","ADM1_PCODE":"TH73","ADM0_EN":"Thailand","ADM0_TH":"ประเทศไทย","ADM0_PCODE":"TH"}},{"arcs":[[-10,-68,-61,-69,-53,-35]],"type":"Polygon","properties":{"Shape_Leng":0.171085513265,"Shape_Area":0.000760581032945,"ADM3_EN":"Lam Phaya","ADM3_TH":"ลำพยา","ADM3_PCODE":"TH730119","ADM2_EN":"Mueang Nakhon Pathom","ADM2_TH":"เมืองนครปฐม","ADM2_PCODE":"TH7301","ADM1_EN":"Nakhon Pathom","ADM1_TH":"นครปฐม","ADM1_PCODE":"TH73","ADM0_EN":"Thailand","ADM0_TH":"ประเทศไทย","ADM0_PCODE":"TH"}},{"arcs":[[-63,-67,73,74,75]],"type":"Polygon","properties":{"Shape_Leng":0.22948927472,"Shape_Area":0.00140485497659,"ADM3_EN":"Sa Kathiam","ADM3_TH":"สระกะเทียม","ADM3_PCODE":"TH730120","ADM2_EN":"Mueang Nakhon Pathom","ADM2_TH":"เมืองนครปฐม","ADM2_PCODE":"TH7301","ADM1_EN":"Nakhon Pathom","ADM1_TH":"นครปฐม","ADM1_PCODE":"TH73","ADM0_EN":"Thailand","ADM0_TH":"ประเทศไทย","ADM0_PCODE":"TH"}},{"arcs":[[-75,76]],"type":"Polygon","properties":{"Shape_Leng":0.170109051001,"Shape_Area":0.00105658652304,"ADM3_EN":"Suan Pan","ADM3_TH":"สวนป่าน","ADM3_PCODE":"TH730121","ADM2_EN":"Mueang Nakhon Pathom","ADM2_TH":"เมืองนครปฐม","ADM2_PCODE":"TH7301","ADM1_EN":"Nakhon Pathom","ADM1_TH":"นครปฐม","ADM1_PCODE":"TH73","ADM0_EN":"Thailand","ADM0_TH":"ประเทศไทย","ADM0_PCODE":"TH"}},{"arcs":[[-2,-15,-43,-33]],"type":"Polygon","properties":{"Shape_Leng":0.0982983550859,"Shape_Area":0.000519062118315,"ADM3_EN":"Huai Chorakhe","ADM3_TH":"ห้วยจรเข้","ADM3_PCODE":"TH730122","ADM2_EN":"Mueang Nakhon Pathom","ADM2_TH":"เมืองนครปฐม","ADM2_PCODE":"TH7301","ADM1_EN":"Nakhon Pathom","ADM1_TH":"นครปฐม","ADM1_PCODE":"TH73","ADM0_EN":"Thailand","ADM0_TH":"ประเทศไทย","ADM0_PCODE":"TH"}},{"arcs":[[-24,-50,-52,-55,-73,77,78]],"type":"Polygon","properties":{"Shape_Leng":0.220630216423,"Shape_Area":0.00174484119761,"ADM3_EN":"Thap Luang","ADM3_TH":"ทัพหลวง","ADM3_PCODE":"TH730123","ADM2_EN":"Mueang Nakhon Pathom","ADM2_TH":"เมืองนครปฐม","ADM2_PCODE":"TH7301","ADM1_EN":"Nakhon Pathom","ADM1_TH":"นครปฐม","ADM1_PCODE":"TH73","ADM0_EN":"Thailand","ADM0_TH":"ประเทศไทย","ADM0_PCODE":"TH"}},{"arcs":[[-72,79,80,81,82,83,-78]],"type":"Polygon","properties":{"Shape_Leng":0.275575094385,"Shape_Area":0.00265654850496,"ADM3_EN":"Nong Ngu Lueam","ADM3_TH":"หนองงูเหลือม","ADM3_PCODE":"TH730124","ADM2_EN":"Mueang Nakhon Pathom","ADM2_TH":"เมืองนครปฐม","ADM2_PCODE":"TH7301","ADM1_EN":"Nakhon Pathom","ADM1_TH":"นครปฐม","ADM1_PCODE":"TH73","ADM0_EN":"Thailand","ADM0_TH":"ประเทศไทย","ADM0_PCODE":"TH"}},{"arcs":[[-71,84,-80]],"type":"Polygon","properties":{"Shape_Leng":0.251394127644,"Shape_Area":0.00229019332043,"ADM3_EN":"Ban Yang","ADM3_TH":"บ้านยาง","ADM3_PCODE":"TH730125","ADM2_EN":"Mueang Nakhon Pathom","ADM2_TH":"เมืองนครปฐม","ADM2_PCODE":"TH7301","ADM1_EN":"Nakhon Pathom","ADM1_TH":"นครปฐม","ADM1_PCODE":"TH73","ADM0_EN":"Thailand","ADM0_TH":"ประเทศไทย","ADM0_PCODE":"TH"}},{"arcs":[[85,86,87,88]],"type":"Polygon","properties":{"Shape_Leng":0.220969910508,"Shape_Area":0.00091280987414,"ADM3_EN":"Thung Kraphang Hom","ADM3_TH":"ทุ่งกระพังโหม","ADM3_PCODE":"TH730201","ADM2_EN":"Kamphaeng Saen","ADM2_TH":"กำแพงแสน","ADM2_PCODE":"TH7302","ADM1_EN":"Nakhon Pathom","ADM1_TH":"นครปฐม","ADM1_PCODE":"TH73","ADM0_EN":"Thailand","ADM0_TH":"ประเทศไทย","ADM0_PCODE":"TH"}},{"arcs":[[89,90,91,92,93]],"type":"Polygon","properties":{"Shape_Leng":0.309321039528,"Shape_Area":0.00350169128788,"ADM3_EN":"Kratip","ADM3_TH":"กระตีบ","ADM3_PCODE":"TH730202","ADM2_EN":"Kamphaeng Saen","ADM2_TH":"กำแพงแสน","ADM2_PCODE":"TH7302","ADM1_EN":"Nakhon Pathom","ADM1_TH":"นครปฐม","ADM1_PCODE":"TH73","ADM0_EN":"Thailand","ADM0_TH":"ประเทศไทย","ADM0_PCODE":"TH"}},{"arcs":[[-93,94,95,96,97,98,99,100]],"type":"Polygon","properties":{"Shape_Leng":0.553686454977,"Shape_Area":0.0061069118183,"ADM3_EN":"Thung Luk Nok","ADM3_TH":"ทุ่งลูกนก","ADM3_PCODE":"TH730203","ADM2_EN":"Kamphaeng Saen","ADM2_TH":"กำแพงแสน","ADM2_PCODE":"TH7302","ADM1_EN":"Nakhon Pathom","ADM1_TH":"นครปฐม","ADM1_PCODE":"TH73","ADM0_EN":"Thailand","ADM0_TH":"ประเทศไทย","ADM0_PCODE":"TH"}},{"arcs":[[-25,-79,-84,101,-86,102,103,104]],"type":"Polygon","properties":{"Shape_Leng":0.348333150919,"Shape_Area":0.0029184443768,"ADM3_EN":"Huai Khwang","ADM3_TH":"ห้วยขวาง","ADM3_PCODE":"TH730204","ADM2_EN":"Kamphaeng Saen","ADM2_TH":"กำแพงแสน","ADM2_PCODE":"TH7302","ADM1_EN":"Nakhon Pathom","ADM1_TH":"นครปฐม","ADM1_PCODE":"TH73","ADM0_EN":"Thailand","ADM0_TH":"ประเทศไทย","ADM0_PCODE":"TH"}},{"arcs":[[-83,105,106,-87,-102]],"type":"Polygon","properties":{"Shape_Leng":0.27866005768,"Shape_Area":0.00198008122039,"ADM3_EN":"Thung Khwang","ADM3_TH":"ทุ่งขวาง","ADM3_PCODE":"TH730205","ADM2_EN":"Kamphaeng Saen","ADM2_TH":"กำแพงแสน","ADM2_PCODE":"TH7302","ADM1_EN":"Nakhon Pathom","ADM1_TH":"นครปฐม","ADM1_PCODE":"TH73","ADM0_EN":"Thailand","ADM0_TH":"ประเทศไทย","ADM0_PCODE":"TH"}},{"arcs":[[-92,107,108,109,110,111,112,-95]],"type":"Polygon","properties":{"Shape_Leng":0.426511174926,"Shape_Area":0.00386573257099,"ADM3_EN":"Sa Si Mum","ADM3_TH":"สระสี่มุม","ADM3_PCODE":"TH730206","ADM2_EN":"Kamphaeng Saen","ADM2_TH":"กำแพงแสน","ADM2_PCODE":"TH7302","ADM1_EN":"Nakhon Pathom","ADM1_TH":"นครปฐม","ADM1_PCODE":"TH73","ADM0_EN":"Thailand","ADM0_TH":"ประเทศไทย","ADM0_PCODE":"TH"}},{"arcs":[[-96,-113,113,114]],"type":"Polygon","properties":{"Shape_Leng":0.273694782579,"Shape_Area":0.00200946760226,"ADM3_EN":"Thung Bua","ADM3_TH":"ทุ่งบัว","ADM3_PCODE":"TH730207","ADM2_EN":"Kamphaeng Saen","ADM2_TH":"กำแพงแสน","ADM2_PCODE":"TH7302","ADM1_EN":"Nakhon Pathom","ADM1_TH":"นครปฐม","ADM1_PCODE":"TH73","ADM0_EN":"Thailand","ADM0_TH":"ประเทศไทย","ADM0_PCODE":"TH"}},{"arcs":[[-111,115,116,117,118,119]],"type":"Polygon","properties":{"Shape_Leng":0.308669452851,"Shape_Area":0.00246016816712,"ADM3_EN":"Don Khoi","ADM3_TH":"ดอนข่อย","ADM3_PCODE":"TH730208","ADM2_EN":"Kamphaeng Saen","ADM2_TH":"กำแพงแสน","ADM2_PCODE":"TH7302","ADM1_EN":"Nakhon Pathom","ADM1_TH":"นครปฐม","ADM1_PCODE":"TH73","ADM0_EN":"Thailand","ADM0_TH":"ประเทศไทย","ADM0_PCODE":"TH"}},{"arcs":[[-91,120,121,-108]],"type":"Polygon","properties":{"Shape_Leng":0.302984718722,"Shape_Area":0.00272572284943,"ADM3_EN":"Sa Phatthana","ADM3_TH":"สระพัฒนา","ADM3_PCODE":"TH730209","ADM2_EN":"Kamphaeng Saen","ADM2_TH":"กำแพงแสน","ADM2_PCODE":"TH7302","ADM1_EN":"Nakhon Pathom","ADM1_TH":"นครปฐม","ADM1_PCODE":"TH73","ADM0_EN":"Thailand","ADM0_TH":"ประเทศไทย","ADM0_PCODE":"TH"}},{"arcs":[[-82,122,-98,123,-106]],"type":"Polygon","properties":{"Shape_Leng":0.261144780587,"Shape_Area":0.00278873582463,"ADM3_EN":"Huai Mon Thong","ADM3_TH":"ห้วยหมอนทอง","ADM3_PCODE":"TH730210","ADM2_EN":"Kamphaeng Saen","ADM2_TH":"กำแพงแสน","ADM2_PCODE":"TH7302","ADM1_EN":"Nakhon Pathom","ADM1_TH":"นครปฐม","ADM1_PCODE":"TH73","ADM0_EN":"Thailand","ADM0_TH":"ประเทศไทย","ADM0_PCODE":"TH"}},{"arcs":[[-90,124,125,-121]],"type":"Polygon","properties":{"Shape_Leng":0.270797302951,"Shape_Area":0.00288088531758,"ADM3_EN":"Huai Muang","ADM3_TH":"ห้วยม่วง","ADM3_PCODE":"TH730211","ADM2_EN":"Kamphaeng Saen","ADM2_TH":"กำแพงแสน","ADM2_PCODE":"TH7302","ADM1_EN":"Nakhon Pathom","ADM1_TH":"นครปฐม","ADM1_PCODE":"TH73","ADM0_EN":"Thailand","ADM0_TH":"ประเทศไทย","ADM0_PCODE":"TH"}},{"arcs":[[-88,126,-114,-112,-120,127]],"type":"Polygon","properties":{"Shape_Leng":0.248751188803,"Shape_Area":0.00203565342425,"ADM3_EN":"Kamphaeng Saen","ADM3_TH":"กำแพงแสน","ADM3_PCODE":"TH730212","ADM2_EN":"Kamphaeng Saen","ADM2_TH":"กำแพงแสน","ADM2_PCODE":"TH7302","ADM1_EN":"Nakhon Pathom","ADM1_TH":"นครปฐม","ADM1_PCODE":"TH73","ADM0_EN":"Thailand","ADM0_TH":"ประเทศไทย","ADM0_PCODE":"TH"}},{"arcs":[[-97,-115,-127,-107,-124]],"type":"Polygon","properties":{"Shape_Leng":0.299453420576,"Shape_Area":0.00170366123828,"ADM3_EN":"Rang Phikun","ADM3_TH":"รางพิกุล","ADM3_PCODE":"TH730213","ADM2_EN":"Kamphaeng Saen","ADM2_TH":"กำแพงแสน","ADM2_PCODE":"TH7302","ADM1_EN":"Nakhon Pathom","ADM1_TH":"นครปฐม","ADM1_PCODE":"TH73","ADM0_EN":"Thailand","ADM0_TH":"ประเทศไทย","ADM0_PCODE":"TH"}},{"arcs":[[-100,128]],"type":"Polygon","properties":{"Shape_Leng":0.338069820313,"Shape_Area":0.00272376556243,"ADM3_EN":"Nong Krathum","ADM3_TH":"หนองกระทุ่ม","ADM3_PCODE":"TH730214","ADM2_EN":"Kamphaeng Saen","ADM2_TH":"กำแพงแสน","ADM2_PCODE":"TH7302","ADM1_EN":"Nakhon Pathom","ADM1_TH":"นครปฐม","ADM1_PCODE":"TH73","ADM0_EN":"Thailand","ADM0_TH":"ประเทศไทย","ADM0_PCODE":"TH"}},{"arcs":[[-89,-128,-119,129,130,-103]],"type":"Polygon","properties":{"Shape_Leng":0.296332621819,"Shape_Area":0.00173551981319,"ADM3_EN":"Wang Nam Khiao","ADM3_TH":"วังน้ำเขียว","ADM3_PCODE":"TH730215","ADM2_EN":"Kamphaeng Saen","ADM2_TH":"กำแพงแสน","ADM2_PCODE":"TH7302","ADM1_EN":"Nakhon Pathom","ADM1_TH":"นครปฐม","ADM1_PCODE":"TH73","ADM0_EN":"Thailand","ADM0_TH":"ประเทศไทย","ADM0_PCODE":"TH"}},{"arcs":[[131,132,133,134,135]],"type":"Polygon","properties":{"Shape_Leng":0.109735992767,"Shape_Area":0.000260338284016,"ADM3_EN":"Nakhon Chai Si","ADM3_TH":"นครชัยศรี","ADM3_PCODE":"TH730301","ADM2_EN":"Nakhon Chai Si","ADM2_TH":"นครชัยศรี","ADM2_PCODE":"TH7303","ADM1_EN":"Nakhon Pathom","ADM1_TH":"นครปฐม","ADM1_PCODE":"TH73","ADM0_EN":"Thailand","ADM0_TH":"ประเทศไทย","ADM0_PCODE":"TH"}},{"arcs":[[-134,136,137]],"type":"Polygon","properties":{"Shape_Leng":0.100323360724,"Shape_Area":0.000324923450731,"ADM3_EN":"Bang Krabao","ADM3_TH":"บางกระเบา","ADM3_PCODE":"TH730302","ADM2_EN":"Nakhon Chai Si","ADM2_TH":"นครชัยศรี","ADM2_PCODE":"TH7303","ADM1_EN":"Nakhon Pathom","ADM1_TH":"นครปฐม","ADM1_PCODE":"TH73","ADM0_EN":"Thailand","ADM0_TH":"ประเทศไทย","ADM0_PCODE":"TH"}},{"arcs":[[-135,-138,138,139,140,141,142,143,144]],"type":"Polygon","properties":{"Shape_Leng":0.0844079825446,"Shape_Area":0.000318563884492,"ADM3_EN":"Wat Khae","ADM3_TH":"วัดแค","ADM3_PCODE":"TH730303","ADM2_EN":"Nakhon Chai Si","ADM2_TH":"นครชัยศรี","ADM2_PCODE":"TH7303","ADM1_EN":"Nakhon Pathom","ADM1_TH":"นครปฐม","ADM1_PCODE":"TH73","ADM0_EN":"Thailand","ADM0_TH":"ประเทศไทย","ADM0_PCODE":"TH"}},{"arcs":[[-133,145,146,-139,-137]],"type":"Polygon","properties":{"Shape_Leng":0.157453197175,"Shape_Area":0.000731483766016,"ADM3_EN":"Tha Tamnak","ADM3_TH":"ท่าตำหนัก","ADM3_PCODE":"TH730304","ADM2_EN":"Nakhon Chai Si","ADM2_TH":"นครชัยศรี","ADM2_PCODE":"TH7303","ADM1_EN":"Nakhon Pathom","ADM1_TH":"นครปฐม","ADM1_PCODE":"TH73","ADM0_EN":"Thailand","ADM0_TH":"ประเทศไทย","ADM0_PCODE":"TH"}},{"arcs":[[-147,147,148,149,150,151]],"type":"Polygon","properties":{"Shape_Leng":0.184744613117,"Shape_Area":0.000682699393825,"ADM3_EN":"Bang Kaeo","ADM3_TH":"บางแก้ว","ADM3_PCODE":"TH730305","ADM2_EN":"Nakhon Chai Si","ADM2_TH":"นครชัยศรี","ADM2_PCODE":"TH7303","ADM1_EN":"Nakhon Pathom","ADM1_TH":"นครปฐม","ADM1_PCODE":"TH73","ADM0_EN":"Thailand","ADM0_TH":"ประเทศไทย","ADM0_PCODE":"TH"}},{"arcs":[[-150,152,153,154,155,156]],"type":"Polygon","properties":{"Shape_Leng":0.135713409962,"Shape_Area":0.000613643472075,"ADM3_EN":"Tha Krachap","ADM3_TH":"ท่ากระชับ","ADM3_PCODE":"TH730306","ADM2_EN":"Nakhon Chai Si","ADM2_TH":"นครชัยศรี","ADM2_PCODE":"TH7303","ADM1_EN":"Nakhon Pathom","ADM1_TH":"นครปฐม","ADM1_PCODE":"TH73","ADM0_EN":"Thailand","ADM0_TH":"ประเทศไทย","ADM0_PCODE":"TH"}},{"arcs":[[-132,157,158,159,-148,-146]],"type":"Polygon","properties":{"Shape_Leng":0.160539936222,"Shape_Area":0.000619909663938,"ADM3_EN":"Khun Kaeo","ADM3_TH":"ขุนแก้ว","ADM3_PCODE":"TH730307","ADM2_EN":"Nakhon Chai Si","ADM2_TH":"นครชัยศรี","ADM2_PCODE":"TH7303","ADM1_EN":"Nakhon Pathom","ADM1_TH":"นครปฐม","ADM1_PCODE":"TH73","ADM0_EN":"Thailand","ADM0_TH":"ประเทศไทย","ADM0_PCODE":"TH"}},{"arcs":[[-151,-157,160,161,162]],"type":"Polygon","properties":{"Shape_Leng":0.147496454702,"Shape_Area":0.000956900649997,"ADM3_EN":"Tha Phraya","ADM3_TH":"ท่าพระยา","ADM3_PCODE":"TH730308","ADM2_EN":"Nakhon Chai Si","ADM2_TH":"นครชัยศรี","ADM2_PCODE":"TH7303","ADM1_EN":"Nakhon Pathom","ADM1_TH":"นครปฐม","ADM1_PCODE":"TH73","ADM0_EN":"Thailand","ADM0_TH":"ประเทศไทย","ADM0_PCODE":"TH"}},{"arcs":[[-20,163,-162,164,-44]],"type":"Polygon","properties":{"Shape_Leng":0.113952207966,"Shape_Area":0.000431470604133,"ADM3_EN":"Phaniat","ADM3_TH":"พะเนียด","ADM3_PCODE":"TH730309","ADM2_EN":"Nakhon Chai Si","ADM2_TH":"นครชัยศรี","ADM2_PCODE":"TH7303","ADM1_EN":"Nakhon Pathom","ADM1_TH":"นครปฐม","ADM1_PCODE":"TH73","ADM0_EN":"Thailand","ADM0_TH":"ประเทศไทย","ADM0_PCODE":"TH"}},{"arcs":[[-39,-45,-165,-161,-156,165]],"type":"Polygon","properties":{"Shape_Leng":0.183119909329,"Shape_Area":0.00141645930944,"ADM3_EN":"Bang Rakam","ADM3_TH":"บางระกำ","ADM3_PCODE":"TH730310","ADM2_EN":"Nakhon Chai Si","ADM2_TH":"นครชัยศรี","ADM2_PCODE":"TH7303","ADM1_EN":"Nakhon Pathom","ADM1_TH":"นครปฐม","ADM1_PCODE":"TH73","ADM0_EN":"Thailand","ADM0_TH":"ประเทศไทย","ADM0_PCODE":"TH"}},{"arcs":[[-40,-166,-155,166]],"type":"Polygon","properties":{"Shape_Leng":0.174650382873,"Shape_Area":0.00152780117435,"ADM3_EN":"Khok Phra Chedi","ADM3_TH":"โคกพระเจดีย์","ADM3_PCODE":"TH730311","ADM2_EN":"Nakhon Chai Si","ADM2_TH":"นครชัยศรี","ADM2_PCODE":"TH7303","ADM1_EN":"Nakhon Pathom","ADM1_TH":"นครปฐม","ADM1_PCODE":"TH73","ADM0_EN":"Thailand","ADM0_TH":"ประเทศไทย","ADM0_PCODE":"TH"}},{"arcs":[[-19,-58,167,-140,-152,-163,-164]],"type":"Polygon","properties":{"Shape_Leng":0.1720960075,"Shape_Area":0.00126544061378,"ADM3_EN":"Sisa Thong","ADM3_TH":"ศรีษะทอง","ADM3_PCODE":"TH730312","ADM2_EN":"Nakhon Chai Si","ADM2_TH":"นครชัยศรี","ADM2_PCODE":"TH7303","ADM1_EN":"Nakhon Pathom","ADM1_TH":"นครปฐม","ADM1_PCODE":"TH73","ADM0_EN":"Thailand","ADM0_TH":"ประเทศไทย","ADM0_PCODE":"TH"}},{"arcs":[[-57,-60,168,169,-141,-168]],"type":"Polygon","properties":{"Shape_Leng":0.228733456703,"Shape_Area":0.00210885088746,"ADM3_EN":"Laem Bua","ADM3_TH":"แหลมบัว","ADM3_PCODE":"TH730313","ADM2_EN":"Nakhon Chai Si","ADM2_TH":"นครชัยศรี","ADM2_PCODE":"TH7303","ADM1_EN":"Nakhon Pathom","ADM1_TH":"นครปฐม","ADM1_PCODE":"TH73","ADM0_EN":"Thailand","ADM0_TH":"ประเทศไทย","ADM0_PCODE":"TH"}},{"arcs":[[-142,-170,170,171,172]],"type":"Polygon","properties":{"Shape_Leng":0.201803049445,"Shape_Area":0.00130071971548,"ADM3_EN":"Si Mahapho","ADM3_TH":"ศรีมหาโพธิ์","ADM3_PCODE":"TH730314","ADM2_EN":"Nakhon Chai Si","ADM2_TH":"นครชัยศรี","ADM2_PCODE":"TH7303","ADM1_EN":"Nakhon Pathom","ADM1_TH":"นครปฐม","ADM1_PCODE":"TH73","ADM0_EN":"Thailand","ADM0_TH":"ประเทศไทย","ADM0_PCODE":"TH"}},{"arcs":[[-143,-173,173,174,175,176]],"type":"Polygon","properties":{"Shape_Leng":0.135402433349,"Shape_Area":0.000814967222811,"ADM3_EN":"Sampathuan","ADM3_TH":"สัมปทวน","ADM3_PCODE":"TH730315","ADM2_EN":"Nakhon Chai Si","ADM2_TH":"นครชัยศรี","ADM2_PCODE":"TH7303","ADM1_EN":"Nakhon Pathom","ADM1_TH":"นครปฐม","ADM1_PCODE":"TH73","ADM0_EN":"Thailand","ADM0_TH":"ประเทศไทย","ADM0_PCODE":"TH"}},{"arcs":[[-176,177,178,179]],"type":"Polygon","properties":{"Shape_Leng":0.115072948129,"Shape_Area":0.000410560344364,"ADM3_EN":"Wat Samrong","ADM3_TH":"วัดสำโรง","ADM3_PCODE":"TH730316","ADM2_EN":"Nakhon Chai Si","ADM2_TH":"นครชัยศรี","ADM2_PCODE":"TH7303","ADM1_EN":"Nakhon Pathom","ADM1_TH":"นครปฐม","ADM1_PCODE":"TH73","ADM0_EN":"Thailand","ADM0_TH":"ประเทศไทย","ADM0_PCODE":"TH"}},{"arcs":[[-175,180,181,182,-178]],"type":"Polygon","properties":{"Shape_Leng":0.17361617879,"Shape_Area":0.00132482291266,"ADM3_EN":"Don Faek","ADM3_TH":"ดอนแฝก","ADM3_PCODE":"TH730317","ADM2_EN":"Nakhon Chai Si","ADM2_TH":"นครชัยศรี","ADM2_PCODE":"TH7303","ADM1_EN":"Nakhon Pathom","ADM1_TH":"นครปฐม","ADM1_PCODE":"TH73","ADM0_EN":"Thailand","ADM0_TH":"ประเทศไทย","ADM0_PCODE":"TH"}},{"arcs":[[-182,183,184,185,186,187]],"type":"Polygon","properties":{"Shape_Leng":0.175267458541,"Shape_Area":0.00093623733495,"ADM3_EN":"Huai Phlu","ADM3_TH":"ห้วยพลู","ADM3_PCODE":"TH730318","ADM2_EN":"Nakhon Chai Si","ADM2_TH":"นครชัยศรี","ADM2_PCODE":"TH7303","ADM1_EN":"Nakhon Pathom","ADM1_TH":"นครปฐม","ADM1_PCODE":"TH73","ADM0_EN":"Thailand","ADM0_TH":"ประเทศไทย","ADM0_PCODE":"TH"}},{"arcs":[[-172,188,189,-184,-181,-174]],"type":"Polygon","properties":{"Shape_Leng":0.244213789009,"Shape_Area":0.00132426076264,"ADM3_EN":"Wat Lamut","ADM3_TH":"วัดละมุด","ADM3_PCODE":"TH730319","ADM2_EN":"Nakhon Chai Si","ADM2_TH":"นครชัยศรี","ADM2_PCODE":"TH7303","ADM1_EN":"Nakhon Pathom","ADM1_TH":"นครปฐม","ADM1_PCODE":"TH73","ADM0_EN":"Thailand","ADM0_TH":"ประเทศไทย","ADM0_PCODE":"TH"}},{"arcs":[[-185,-190,190,191,192]],"type":"Polygon","properties":{"Shape_Leng":0.177443196174,"Shape_Area":0.000992877644356,"ADM3_EN":"Bang Phra","ADM3_TH":"บางพระ","ADM3_PCODE":"TH730320","ADM2_EN":"Nakhon Chai Si","ADM2_TH":"นครชัยศรี","ADM2_PCODE":"TH7303","ADM1_EN":"Nakhon Pathom","ADM1_TH":"นครปฐม","ADM1_PCODE":"TH73","ADM0_EN":"Thailand","ADM0_TH":"ประเทศไทย","ADM0_PCODE":"TH"}},{"arcs":[[-186,-193,193,194,195]],"type":"Polygon","properties":{"Shape_Leng":0.194958546596,"Shape_Area":0.00088593702301,"ADM3_EN":"Bang Kaeo Fa","ADM3_TH":"บางแก้วฟ้า","ADM3_PCODE":"TH730321","ADM2_EN":"Nakhon Chai Si","ADM2_TH":"นครชัยศรี","ADM2_PCODE":"TH7303","ADM1_EN":"Nakhon Pathom","ADM1_TH":"นครปฐม","ADM1_PCODE":"TH73","ADM0_EN":"Thailand","ADM0_TH":"ประเทศไทย","ADM0_PCODE":"TH"}},{"arcs":[[-179,-183,-188,196,197,198]],"type":"Polygon","properties":{"Shape_Leng":0.212666792658,"Shape_Area":0.00131697674583,"ADM3_EN":"Lan Tak Fa","ADM3_TH":"ลานตากฟ้า","ADM3_PCODE":"TH730322","ADM2_EN":"Nakhon Chai Si","ADM2_TH":"นครชัยศรี","ADM2_PCODE":"TH7303","ADM1_EN":"Nakhon Pathom","ADM1_TH":"นครปฐม","ADM1_PCODE":"TH73","ADM0_EN":"Thailand","ADM0_TH":"ประเทศไทย","ADM0_PCODE":"TH"}},{"arcs":[[-144,-177,-180,-199,199,200]],"type":"Polygon","properties":{"Shape_Leng":0.126303060827,"Shape_Area":0.000424411918757,"ADM3_EN":"Ngio Rai","ADM3_TH":"งิ้วราย","ADM3_PCODE":"TH730323","ADM2_EN":"Nakhon Chai Si","ADM2_TH":"นครชัยศรี","ADM2_PCODE":"TH7303","ADM1_EN":"Nakhon Pathom","ADM1_TH":"นครปฐม","ADM1_PCODE":"TH73","ADM0_EN":"Thailand","ADM0_TH":"ประเทศไทย","ADM0_PCODE":"TH"}},{"arcs":[[-136,-145,-201,201,202,-158]],"type":"Polygon","properties":{"Shape_Leng":0.164259265937,"Shape_Area":0.000818857682696,"ADM3_EN":"Thaiyawat","ADM3_TH":"ไทยาวาส","ADM3_PCODE":"TH730324","ADM2_EN":"Nakhon Chai Si","ADM2_TH":"นครชัยศรี","ADM2_PCODE":"TH7303","ADM1_EN":"Nakhon Pathom","ADM1_TH":"นครปฐม","ADM1_PCODE":"TH73","ADM0_EN":"Thailand","ADM0_TH":"ประเทศไทย","ADM0_PCODE":"TH"}},{"arcs":[[-118,203,204,205,206,207,-130]],"type":"Polygon","properties":{"Shape_Leng":0.306809080491,"Shape_Area":0.00214877241929,"ADM3_EN":"Sam Ngam","ADM3_TH":"สามง่าม","ADM3_PCODE":"TH730401","ADM2_EN":"Don Tum","ADM2_TH":"ดอนตูม","ADM2_PCODE":"TH7304","ADM1_EN":"Nakhon Pathom","ADM1_TH":"นครปฐม","ADM1_PCODE":"TH73","ADM0_EN":"Thailand","ADM0_TH":"ประเทศไทย","ADM0_PCODE":"TH"}},{"arcs":[[-26,-105,208,-207,209,210,-27]],"type":"Polygon","properties":{"Shape_Leng":0.231882698722,"Shape_Area":0.00223120368217,"ADM3_EN":"Huai Phra","ADM3_TH":"ห้วยพระ","ADM3_PCODE":"TH730402","ADM2_EN":"Don Tum","ADM2_TH":"ดอนตูม","ADM2_PCODE":"TH7304","ADM1_EN":"Nakhon Pathom","ADM1_TH":"นครปฐม","ADM1_PCODE":"TH73","ADM0_EN":"Thailand","ADM0_TH":"ประเทศไทย","ADM0_PCODE":"TH"}},{"arcs":[[-104,-131,-208,-209]],"type":"Polygon","properties":{"Shape_Leng":0.262921833084,"Shape_Area":0.00211408431828,"ADM3_EN":"Lam Hoei","ADM3_TH":"ลำเหย","ADM3_PCODE":"TH730403","ADM2_EN":"Don Tum","ADM2_TH":"ดอนตูม","ADM2_PCODE":"TH7304","ADM1_EN":"Nakhon Pathom","ADM1_TH":"นครปฐม","ADM1_PCODE":"TH73","ADM0_EN":"Thailand","ADM0_TH":"ประเทศไทย","ADM0_PCODE":"TH"}},{"arcs":[[-206,211,212,213,214,215,-210]],"type":"Polygon","properties":{"Shape_Leng":0.213163360993,"Shape_Area":0.00153526901661,"ADM3_EN":"Don Phutsa","ADM3_TH":"ดอนพุทรา","ADM3_PCODE":"TH730404","ADM2_EN":"Don Tum","ADM2_TH":"ดอนตูม","ADM2_PCODE":"TH7304","ADM1_EN":"Nakhon Pathom","ADM1_TH":"นครปฐม","ADM1_PCODE":"TH73","ADM0_EN":"Thailand","ADM0_TH":"ประเทศไทย","ADM0_PCODE":"TH"}},{"arcs":[[-171,216,217,-215,218,-191,-189]],"type":"Polygon","properties":{"Shape_Leng":0.177735231305,"Shape_Area":0.000927208550159,"ADM3_EN":"Ban Luang","ADM3_TH":"บ้านหลวง","ADM3_PCODE":"TH730405","ADM2_EN":"Don Tum","ADM2_TH":"ดอนตูม","ADM2_PCODE":"TH7304","ADM1_EN":"Nakhon Pathom","ADM1_TH":"นครปฐม","ADM1_PCODE":"TH73","ADM0_EN":"Thailand","ADM0_TH":"ประเทศไทย","ADM0_PCODE":"TH"}},{"arcs":[[-29,219,-217,-169,-59]],"type":"Polygon","properties":{"Shape_Leng":0.172667765504,"Shape_Area":0.000912480984293,"ADM3_EN":"Don Ruak","ADM3_TH":"ดอนรวก","ADM3_PCODE":"TH730406","ADM2_EN":"Don Tum","ADM2_TH":"ดอนตูม","ADM2_PCODE":"TH7304","ADM1_EN":"Nakhon Pathom","ADM1_TH":"นครปฐม","ADM1_PCODE":"TH73","ADM0_EN":"Thailand","ADM0_TH":"ประเทศไทย","ADM0_PCODE":"TH"}},{"arcs":[[-28,-211,-216,-218,-220]],"type":"Polygon","properties":{"Shape_Leng":0.198671469149,"Shape_Area":0.00100338670136,"ADM3_EN":"Huai Duan","ADM3_TH":"ห้วยด้วน","ADM3_PCODE":"TH730407","ADM2_EN":"Don Tum","ADM2_TH":"ดอนตูม","ADM2_PCODE":"TH7304","ADM1_EN":"Nakhon Pathom","ADM1_TH":"นครปฐม","ADM1_PCODE":"TH73","ADM0_EN":"Thailand","ADM0_TH":"ประเทศไทย","ADM0_PCODE":"TH"}},{"arcs":[[-117,220,221,-204]],"type":"Polygon","properties":{"Shape_Leng":0.253824077992,"Shape_Area":0.00170270207702,"ADM3_EN":"Lam Luk Bua","ADM3_TH":"ลำลูกบัว","ADM3_PCODE":"TH730408","ADM2_EN":"Don Tum","ADM2_TH":"ดอนตูม","ADM2_PCODE":"TH7304","ADM1_EN":"Nakhon Pathom","ADM1_TH":"นครปฐม","ADM1_PCODE":"TH73","ADM0_EN":"Thailand","ADM0_TH":"ประเทศไทย","ADM0_PCODE":"TH"}},{"arcs":[[222,223,224,225,226]],"type":"Polygon","properties":{"Shape_Leng":0.289664603328,"Shape_Area":0.00281668357684,"ADM3_EN":"Bang Len","ADM3_TH":"บางเลน","ADM3_PCODE":"TH730501","ADM2_EN":"Bang Len","ADM2_TH":"บางเลน","ADM2_PCODE":"TH7305","ADM1_EN":"Nakhon Pathom","ADM1_TH":"นครปฐม","ADM1_PCODE":"TH73","ADM0_EN":"Thailand","ADM0_TH":"ประเทศไทย","ADM0_PCODE":"TH"}},{"arcs":[[-213,227,-224,228,229,230]],"type":"Polygon","properties":{"Shape_Leng":0.222820319099,"Shape_Area":0.00241396195858,"ADM3_EN":"Bang Pla","ADM3_TH":"บางปลา","ADM3_PCODE":"TH730502","ADM2_EN":"Bang Len","ADM2_TH":"บางเลน","ADM2_PCODE":"TH7305","ADM1_EN":"Nakhon Pathom","ADM1_TH":"นครปฐม","ADM1_PCODE":"TH73","ADM0_EN":"Thailand","ADM0_TH":"ประเทศไทย","ADM0_PCODE":"TH"}},{"arcs":[[-109,-122,-126,231,232,233,234]],"type":"Polygon","properties":{"Shape_Leng":0.465100203,"Shape_Area":0.00524165549822,"ADM3_EN":"Bang Luang","ADM3_TH":"บางหลวง","ADM3_PCODE":"TH730503","ADM2_EN":"Bang Len","ADM2_TH":"บางเลน","ADM2_PCODE":"TH7305","ADM1_EN":"Nakhon Pathom","ADM1_TH":"นครปฐม","ADM1_PCODE":"TH73","ADM0_EN":"Thailand","ADM0_TH":"ประเทศไทย","ADM0_PCODE":"TH"}},{"arcs":[[-227,235,236,237,238,239]],"type":"Polygon","properties":{"Shape_Leng":0.288253204865,"Shape_Area":0.00372473394945,"ADM3_EN":"Bang Phasi","ADM3_TH":"บางภาษี","ADM3_PCODE":"TH730504","ADM2_EN":"Bang Len","ADM2_TH":"บางเลน","ADM2_PCODE":"TH7305","ADM1_EN":"Nakhon Pathom","ADM1_TH":"นครปฐม","ADM1_PCODE":"TH73","ADM0_EN":"Thailand","ADM0_TH":"ประเทศไทย","ADM0_PCODE":"TH"}},{"arcs":[[-192,-219,-214,-231,240,241,-194]],"type":"Polygon","properties":{"Shape_Leng":0.316423854381,"Shape_Area":0.00276478538637,"ADM3_EN":"Bang Rakam","ADM3_TH":"บางระกำ","ADM3_PCODE":"TH730505","ADM2_EN":"Bang Len","ADM2_TH":"บางเลน","ADM2_PCODE":"TH7305","ADM1_EN":"Nakhon Pathom","ADM1_TH":"นครปฐม","ADM1_PCODE":"TH73","ADM0_EN":"Thailand","ADM0_TH":"ประเทศไทย","ADM0_PCODE":"TH"}},{"arcs":[[-226,242,243,244,245,-236]],"type":"Polygon","properties":{"Shape_Leng":0.276214447642,"Shape_Area":0.00341611283252,"ADM3_EN":"Bang Sai Pa","ADM3_TH":"บางไทรป่า","ADM3_PCODE":"TH730506","ADM2_EN":"Bang Len","ADM2_TH":"บางเลน","ADM2_PCODE":"TH7305","ADM1_EN":"Nakhon Pathom","ADM1_TH":"นครปฐม","ADM1_PCODE":"TH73","ADM0_EN":"Thailand","ADM0_TH":"ประเทศไทย","ADM0_PCODE":"TH"}},{"arcs":[[-234,246,247,-245,248]],"type":"Polygon","properties":{"Shape_Leng":0.287492139337,"Shape_Area":0.00276816960385,"ADM3_EN":"Hin Mun","ADM3_TH":"หินมูล","ADM3_PCODE":"TH730507","ADM2_EN":"Bang Len","ADM2_TH":"บางเลน","ADM2_PCODE":"TH7305","ADM1_EN":"Nakhon Pathom","ADM1_TH":"นครปฐม","ADM1_PCODE":"TH73","ADM0_EN":"Thailand","ADM0_TH":"ประเทศไทย","ADM0_PCODE":"TH"}},{"arcs":[[-237,-246,-248,249,250]],"type":"Polygon","properties":{"Shape_Leng":0.391457958416,"Shape_Area":0.00360468955791,"ADM3_EN":"Sai Ngam","ADM3_TH":"ไทรงาม","ADM3_PCODE":"TH730508","ADM2_EN":"Bang Len","ADM2_TH":"บางเลน","ADM2_PCODE":"TH7305","ADM1_EN":"Nakhon Pathom","ADM1_TH":"นครปฐม","ADM1_PCODE":"TH73","ADM0_EN":"Thailand","ADM0_TH":"ประเทศไทย","ADM0_PCODE":"TH"}},{"arcs":[[-205,-222,251,-243,-225,-228,-212]],"type":"Polygon","properties":{"Shape_Leng":0.267309366355,"Shape_Area":0.0023802051303,"ADM3_EN":"Don Tum","ADM3_TH":"ดอนตูม","ADM3_PCODE":"TH730509","ADM2_EN":"Bang Len","ADM2_TH":"บางเลน","ADM2_PCODE":"TH7305","ADM1_EN":"Nakhon Pathom","ADM1_TH":"นครปฐม","ADM1_PCODE":"TH73","ADM0_EN":"Thailand","ADM0_TH":"ประเทศไทย","ADM0_PCODE":"TH"}},{"arcs":[[-247,252,253,-250]],"type":"Polygon","properties":{"Shape_Leng":0.308020912897,"Shape_Area":0.00387454750743,"ADM3_EN":"Nin Phet","ADM3_TH":"นิลเพชร","ADM3_PCODE":"TH730510","ADM2_EN":"Bang Len","ADM2_TH":"บางเลน","ADM2_PCODE":"TH7305","ADM1_EN":"Nakhon Pathom","ADM1_TH":"นครปฐม","ADM1_PCODE":"TH73","ADM0_EN":"Thailand","ADM0_TH":"ประเทศไทย","ADM0_PCODE":"TH"}},{"arcs":[[-233,254,-253]],"type":"Polygon","properties":{"Shape_Leng":0.296057172824,"Shape_Area":0.00282928512406,"ADM3_EN":"Bua Pak Tha","ADM3_TH":"บัวปากท่า","ADM3_PCODE":"TH730511","ADM2_EN":"Bang Len","ADM2_TH":"บางเลน","ADM2_PCODE":"TH7305","ADM1_EN":"Nakhon Pathom","ADM1_TH":"นครปฐม","ADM1_PCODE":"TH73","ADM0_EN":"Thailand","ADM0_TH":"ประเทศไทย","ADM0_PCODE":"TH"}},{"arcs":[[-223,-240,255,256,-229]],"type":"Polygon","properties":{"Shape_Leng":0.212958451309,"Shape_Area":0.00226993365575,"ADM3_EN":"Khlong Nok Krathung","ADM3_TH":"คลองนกกระทุง","ADM3_PCODE":"TH730512","ADM2_EN":"Bang Len","ADM2_TH":"บางเลน","ADM2_PCODE":"TH7305","ADM1_EN":"Nakhon Pathom","ADM1_TH":"นครปฐม","ADM1_PCODE":"TH73","ADM0_EN":"Thailand","ADM0_TH":"ประเทศไทย","ADM0_PCODE":"TH"}},{"arcs":[[-195,-242,257,-256,-239,258,259]],"type":"Polygon","properties":{"Shape_Leng":0.328008840464,"Shape_Area":0.00331518267811,"ADM3_EN":"Nara Phirom","ADM3_TH":"นราภิรมย์","ADM3_PCODE":"TH730513","ADM2_EN":"Bang Len","ADM2_TH":"บางเลน","ADM2_PCODE":"TH7305","ADM1_EN":"Nakhon Pathom","ADM1_TH":"นครปฐม","ADM1_PCODE":"TH73","ADM0_EN":"Thailand","ADM0_TH":"ประเทศไทย","ADM0_PCODE":"TH"}},{"arcs":[[-230,-257,-258,-241]],"type":"Polygon","properties":{"Shape_Leng":0.198956317895,"Shape_Area":0.0013357103897,"ADM3_EN":"Lam Phaya","ADM3_TH":"ลำพญา","ADM3_PCODE":"TH730514","ADM2_EN":"Bang Len","ADM2_TH":"บางเลน","ADM2_PCODE":"TH7305","ADM1_EN":"Nakhon Pathom","ADM1_TH":"นครปฐม","ADM1_PCODE":"TH73","ADM0_EN":"Thailand","ADM0_TH":"ประเทศไทย","ADM0_PCODE":"TH"}},{"arcs":[[-110,-235,-249,-244,-252,-221,-116]],"type":"Polygon","properties":{"Shape_Leng":0.314687293147,"Shape_Area":0.00273385947188,"ADM3_EN":"Phai Hu Chang","ADM3_TH":"ไผ่หูช้าง","ADM3_PCODE":"TH730515","ADM2_EN":"Bang Len","ADM2_TH":"บางเลน","ADM2_PCODE":"TH7305","ADM1_EN":"Nakhon Pathom","ADM1_TH":"นครปฐม","ADM1_PCODE":"TH73","ADM0_EN":"Thailand","ADM0_TH":"ประเทศไทย","ADM0_PCODE":"TH"}},{"arcs":[[260,261,262,263,264,265]],"type":"Polygon","properties":{"Shape_Leng":0.12401037244,"Shape_Area":0.000513593732715,"ADM3_EN":"Tha Kham","ADM3_TH":"ท่าข้าม","ADM3_PCODE":"TH730601","ADM2_EN":"Sam Phran","ADM2_TH":"สามพราน","ADM2_PCODE":"TH7306","ADM1_EN":"Nakhon Pathom","ADM1_TH":"นครปฐม","ADM1_PCODE":"TH73","ADM0_EN":"Thailand","ADM0_TH":"ประเทศไทย","ADM0_PCODE":"TH"}},{"arcs":[[266,267,268,269,270]],"type":"Polygon","properties":{"Shape_Leng":0.152884390176,"Shape_Area":0.000729239386565,"ADM3_EN":"Song Khanong","ADM3_TH":"ทรงคนอง","ADM3_PCODE":"TH730602","ADM2_EN":"Sam Phran","ADM2_TH":"สามพราน","ADM2_PCODE":"TH7306","ADM1_EN":"Nakhon Pathom","ADM1_TH":"นครปฐม","ADM1_PCODE":"TH73","ADM0_EN":"Thailand","ADM0_TH":"ประเทศไทย","ADM0_PCODE":"TH"}},{"arcs":[[-159,-203,271,-270,272,273]],"type":"Polygon","properties":{"Shape_Leng":0.199951496628,"Shape_Area":0.00123709297252,"ADM3_EN":"Hom Kret","ADM3_TH":"หอมเกร็ด","ADM3_PCODE":"TH730603","ADM2_EN":"Sam Phran","ADM2_TH":"สามพราน","ADM2_PCODE":"TH7306","ADM1_EN":"Nakhon Pathom","ADM1_TH":"นครปฐม","ADM1_PCODE":"TH73","ADM0_EN":"Thailand","ADM0_TH":"ประเทศไทย","ADM0_PCODE":"TH"}},{"arcs":[[274,275,276,277]],"type":"Polygon","properties":{"Shape_Leng":0.175059791714,"Shape_Area":0.000894012523345,"ADM3_EN":"Bang Krathuek","ADM3_TH":"บางกระทึก","ADM3_PCODE":"TH730604","ADM2_EN":"Sam Phran","ADM2_TH":"สามพราน","ADM2_PCODE":"TH7306","ADM1_EN":"Nakhon Pathom","ADM1_TH":"นครปฐม","ADM1_PCODE":"TH73","ADM0_EN":"Thailand","ADM0_TH":"ประเทศไทย","ADM0_PCODE":"TH"}},{"arcs":[[-267,278,279,-278,280]],"type":"Polygon","properties":{"Shape_Leng":0.19578290475,"Shape_Area":0.000940028101567,"ADM3_EN":"Bang Toei","ADM3_TH":"บางเตย","ADM3_PCODE":"TH730605","ADM2_EN":"Sam Phran","ADM2_TH":"สามพราน","ADM2_PCODE":"TH7306","ADM1_EN":"Nakhon Pathom","ADM1_TH":"นครปฐม","ADM1_PCODE":"TH73","ADM0_EN":"Thailand","ADM0_TH":"ประเทศไทย","ADM0_PCODE":"TH"}},{"arcs":[[-265,281,282,283]],"type":"Polygon","properties":{"Shape_Leng":0.125374453645,"Shape_Area":0.000719633561711,"ADM3_EN":"Sam Phran","ADM3_TH":"สามพราน","ADM3_PCODE":"TH730606","ADM2_EN":"Sam Phran","ADM2_TH":"สามพราน","ADM2_PCODE":"TH7306","ADM1_EN":"Nakhon Pathom","ADM1_TH":"นครปฐม","ADM1_PCODE":"TH73","ADM0_EN":"Thailand","ADM0_TH":"ประเทศไทย","ADM0_PCODE":"TH"}},{"arcs":[[-264,284,285,286,287,-282]],"type":"Polygon","properties":{"Shape_Leng":0.240696770193,"Shape_Area":0.00160700381908,"ADM3_EN":"Bang Chang","ADM3_TH":"บางช้าง","ADM3_PCODE":"TH730607","ADM2_EN":"Sam Phran","ADM2_TH":"สามพราน","ADM2_PCODE":"TH7306","ADM1_EN":"Nakhon Pathom","ADM1_TH":"นครปฐม","ADM1_PCODE":"TH73","ADM0_EN":"Thailand","ADM0_TH":"ประเทศไทย","ADM0_PCODE":"TH"}},{"arcs":[[-261,288,289,-268,-281,-277,290,291,292]],"type":"Polygon","properties":{"Shape_Leng":0.264783305262,"Shape_Area":0.00203900323965,"ADM3_EN":"Rai Khing","ADM3_TH":"ไร่ขิง","ADM3_PCODE":"TH730608","ADM2_EN":"Sam Phran","ADM2_TH":"สามพราน","ADM2_PCODE":"TH7306","ADM1_EN":"Nakhon Pathom","ADM1_TH":"นครปฐม","ADM1_PCODE":"TH73","ADM0_EN":"Thailand","ADM0_TH":"ประเทศไทย","ADM0_PCODE":"TH"}},{"arcs":[[-269,-290,293,294,-273]],"type":"Polygon","properties":{"Shape_Leng":0.16986925151,"Shape_Area":0.000873857925397,"ADM3_EN":"Tha Talat","ADM3_TH":"ท่าตลาด","ADM3_PCODE":"TH730609","ADM2_EN":"Sam Phran","ADM2_TH":"สามพราน","ADM2_PCODE":"TH7306","ADM1_EN":"Nakhon Pathom","ADM1_TH":"นครปฐม","ADM1_PCODE":"TH73","ADM0_EN":"Thailand","ADM0_TH":"ประเทศไทย","ADM0_PCODE":"TH"}},{"arcs":[[-276,295,296,-291]],"type":"Polygon","properties":{"Shape_Leng":0.198304155663,"Shape_Area":0.00103510629978,"ADM3_EN":"Krathum Lom","ADM3_TH":"กระทุ่มล้ม","ADM3_PCODE":"TH730610","ADM2_EN":"Sam Phran","ADM2_TH":"สามพราน","ADM2_PCODE":"TH7306","ADM1_EN":"Nakhon Pathom","ADM1_TH":"นครปฐม","ADM1_PCODE":"TH73","ADM0_EN":"Thailand","ADM0_TH":"ประเทศไทย","ADM0_PCODE":"TH"}},{"arcs":[[-149,-160,-274,-295,297,-283,-288,298,-153]],"type":"Polygon","properties":{"Shape_Leng":0.207780392793,"Shape_Area":0.00125663763076,"ADM3_EN":"Khlong Mai","ADM3_TH":"คลองใหม่","ADM3_PCODE":"TH730611","ADM2_EN":"Sam Phran","ADM2_TH":"สามพราน","ADM2_PCODE":"TH7306","ADM1_EN":"Nakhon Pathom","ADM1_TH":"นครปฐม","ADM1_PCODE":"TH73","ADM0_EN":"Thailand","ADM0_TH":"ประเทศไทย","ADM0_PCODE":"TH"}},{"arcs":[[-41,299,300]],"type":"Polygon","properties":{"Shape_Leng":0.226474433529,"Shape_Area":0.00249899609037,"ADM3_EN":"Talat Chinda","ADM3_TH":"ตลาดจินดา","ADM3_PCODE":"TH730612","ADM2_EN":"Sam Phran","ADM2_TH":"สามพราน","ADM2_PCODE":"TH7306","ADM1_EN":"Nakhon Pathom","ADM1_TH":"นครปฐม","ADM1_PCODE":"TH73","ADM0_EN":"Thailand","ADM0_TH":"ประเทศไทย","ADM0_PCODE":"TH"}},{"arcs":[[-154,-299,-287,301,-300,-167]],"type":"Polygon","properties":{"Shape_Leng":0.268713567524,"Shape_Area":0.00238502870996,"ADM3_EN":"Khlong Chinda","ADM3_TH":"คลองจินดา","ADM3_PCODE":"TH730613","ADM2_EN":"Sam Phran","ADM2_TH":"สามพราน","ADM2_PCODE":"TH7306","ADM1_EN":"Nakhon Pathom","ADM1_TH":"นครปฐม","ADM1_PCODE":"TH73","ADM0_EN":"Thailand","ADM0_TH":"ประเทศไทย","ADM0_PCODE":"TH"}},{"arcs":[[-266,-284,-298,-294,-289]],"type":"Polygon","properties":{"Shape_Leng":0.148789167825,"Shape_Area":0.000569565526398,"ADM3_EN":"Yai Cha","ADM3_TH":"ยายชา","ADM3_PCODE":"TH730614","ADM2_EN":"Sam Phran","ADM2_TH":"สามพราน","ADM2_PCODE":"TH7306","ADM1_EN":"Nakhon Pathom","ADM1_TH":"นครปฐม","ADM1_PCODE":"TH73","ADM0_EN":"Thailand","ADM0_TH":"ประเทศไทย","ADM0_PCODE":"TH"}},{"arcs":[[-263,302,303,-285]],"type":"Polygon","properties":{"Shape_Leng":0.142632733129,"Shape_Area":0.000766219341069,"ADM3_EN":"Ban Mai","ADM3_TH":"บ้านใหม่","ADM3_PCODE":"TH730615","ADM2_EN":"Sam Phran","ADM2_TH":"สามพราน","ADM2_PCODE":"TH7306","ADM1_EN":"Nakhon Pathom","ADM1_TH":"นครปฐม","ADM1_PCODE":"TH73","ADM0_EN":"Thailand","ADM0_TH":"ประเทศไทย","ADM0_PCODE":"TH"}},{"arcs":[[-262,-293,304,-303]],"type":"Polygon","properties":{"Shape_Leng":0.149397734225,"Shape_Area":0.000833624421903,"ADM3_EN":"Om Yai","ADM3_TH":"อ้อมใหญ่","ADM3_PCODE":"TH730616","ADM2_EN":"Sam Phran","ADM2_TH":"สามพราน","ADM2_PCODE":"TH7306","ADM1_EN":"Nakhon Pathom","ADM1_TH":"นครปฐม","ADM1_PCODE":"TH73","ADM0_EN":"Thailand","ADM0_TH":"ประเทศไทย","ADM0_PCODE":"TH"}},{"arcs":[[-275,-280,305,306,307,-296]],"type":"Polygon","properties":{"Shape_Leng":0.233925858954,"Shape_Area":0.00214551760894,"ADM3_EN":"Sala Ya","ADM3_TH":"ศาลายา","ADM3_PCODE":"TH730701","ADM2_EN":"Phutthamonthon","ADM2_TH":"พุทธมณฑล","ADM2_PCODE":"TH7307","ADM1_EN":"Nakhon Pathom","ADM1_TH":"นครปฐม","ADM1_PCODE":"TH73","ADM0_EN":"Thailand","ADM0_TH":"ประเทศไทย","ADM0_PCODE":"TH"}},{"arcs":[[-187,-196,-260,308,-307,309,-197]],"type":"Polygon","properties":{"Shape_Leng":0.233311281954,"Shape_Area":0.00238946086915,"ADM3_EN":"Khlong Yong","ADM3_TH":"คลองโยง","ADM3_PCODE":"TH730702","ADM2_EN":"Phutthamonthon","ADM2_TH":"พุทธมณฑล","ADM2_PCODE":"TH7307","ADM1_EN":"Nakhon Pathom","ADM1_TH":"นครปฐม","ADM1_PCODE":"TH73","ADM0_EN":"Thailand","ADM0_TH":"ประเทศไทย","ADM0_PCODE":"TH"}},{"arcs":[[-198,-310,-306,-279,-271,-272,-202,-200]],"type":"Polygon","properties":{"Shape_Leng":0.168711287664,"Shape_Area":0.00114158097919,"ADM3_EN":"Mahasawat","ADM3_TH":"มหาสวัสดิ์","ADM3_PCODE":"TH730703","ADM2_EN":"Phutthamonthon","ADM2_TH":"พุทธมณฑล","ADM2_PCODE":"TH7307","ADM1_EN":"Nakhon Pathom","ADM1_TH":"นครปฐม","ADM1_PCODE":"TH73","ADM0_EN":"Thailand","ADM0_TH":"ประเทศไทย","ADM0_PCODE":"TH"}}]}}}