{"type":"Topology","arcs":[[[6989,4680],[8,-14],[73,-85],[8,-13],[13,-32],[30,-40],[6,-17],[17,-26],[40,-52],[44,-49],[60,-48],[12,-13],[32,-41],[17,-19],[19,-14],[11,-14]],[[7379,4203],[-13,-17],[-23,-37],[-16,-20],[-22,-14],[-24,-7],[-30,-17],[-21,-5],[-42,-22],[-39,1],[-24,4],[-23,-5],[-14,6],[-13,-1],[-31,-10],[-45,-2],[-18,-14],[-46,-10],[-14,12],[-41,1],[-32,5],[-16,-9],[-4,5],[-24,1],[-20,-4],[-6,4],[-18,-1],[-53,-13],[-10,-14],[-28,4],[-16,-21],[-24,-2],[-11,2],[-39,-10],[-12,1]],[[6567,3994],[-19,-8],[-26,2],[-26,-3],[-64,-5],[-30,4],[-41,-2],[-39,1],[-52,10],[-32,-2],[-50,5],[-27,7],[-36,2],[-139,-49],[-132,-24],[-62,-17],[-21,-2],[-41,-8],[-17,-5],[-50,-5],[-14,5],[-27,-19],[-11,-10],[-44,2],[-16,-17],[-14,-6],[-15,-11],[-15,-2]],[[5507,3837],[266,329],[8,20],[19,15],[0,6],[12,8],[23,44]],[[5835,4259],[108,70],[26,6],[4,7],[15,10],[11,-2],[-1,8],[16,0],[5,-10],[11,11],[14,0],[-2,12],[13,5],[1,-13],[9,-5],[1,11],[13,4],[23,-1],[15,5],[-3,-12],[17,3],[1,-9],[12,-2],[-8,-8],[14,-3],[27,11],[-8,17],[7,2],[11,-8],[14,6],[13,19],[18,2],[9,-6],[19,0],[6,7],[16,-5],[53,-6],[7,2],[-9,15],[-2,11],[16,13],[9,-4],[11,6],[-8,13],[13,0],[7,7],[15,4],[16,-6],[17,-2],[7,9],[15,0],[8,14],[-11,7],[9,7],[-2,13],[12,10],[6,11],[-18,0],[-2,10],[-13,-3],[-3,10],[-14,7],[12,5],[-7,12],[-22,-7],[-9,5],[-18,16]],[[6377,4570],[17,16],[48,15],[16,19],[-15,16],[-1,32],[19,11],[1,25],[5,16],[21,5],[68,-3],[6,30],[114,-17],[49,-6],[23,6],[124,-27],[117,-28]],[[6529,5526],[-27,-15],[-16,-12],[-29,-41],[-39,-78],[-12,-45],[-10,-79],[0,-21],[9,-15],[-12,-22],[-25,-10],[-9,-31],[-15,-29],[-10,-13],[-8,-26],[-4,-41]],[[6322,5048],[-13,-28],[-28,-11],[-31,-14],[-67,-37],[-30,-1],[-22,-29],[-13,-30],[-31,10],[-5,-10],[-4,-24],[-29,-4],[-23,14],[-22,19],[-27,-4],[-24,7],[-17,23],[-13,9],[-85,67],[-30,36],[-16,-5],[-42,-1],[-42,10],[-14,7],[-29,24],[-14,19],[-35,32],[-2,22],[-18,14],[-15,6],[-12,31],[2,21],[14,28],[-40,14],[3,7],[-20,2],[-12,-5],[-35,16],[-36,6]],[[5445,5289],[12,12],[-4,22],[-9,13],[-87,80],[-27,32],[-42,50],[-43,37],[-70,95]],[[5175,5630],[29,-7],[78,-30],[14,3],[42,2],[27,-9],[16,1],[22,-5],[24,-14],[16,16],[25,7],[17,-2],[41,-14],[36,-4],[142,19],[76,-6],[66,-20],[96,6],[47,10],[26,-18],[10,12],[11,2],[21,-9],[24,1],[6,5],[15,-2],[18,6],[4,-3],[15,5],[25,-6],[19,24],[23,-11],[13,-2],[40,4],[18,-12],[16,3],[29,-1],[14,-4],[29,-13],[33,-13],[48,-9],[32,-9],[51,-7]],[[5835,4259],[0,15],[-4,14],[-11,10],[-1,15],[-9,3],[-11,17],[6,22],[11,-6],[13,2],[9,12],[26,11],[-16,15],[14,9],[-2,5],[-17,12],[5,-13],[-20,-10],[-12,8],[1,12],[-8,8],[-3,15],[-17,-9],[-5,13],[8,20],[-14,-6],[-6,6],[-20,7],[13,11],[-17,1],[-2,9],[-37,-9],[-10,4],[-14,15],[-18,-7],[-15,10],[1,9],[-14,-1],[-16,-15],[-18,0],[-16,4],[1,9],[-26,-2],[4,9],[-29,1],[1,6],[15,0],[-19,6],[8,5],[-3,16],[6,1],[12,-20],[13,13],[-1,12],[-7,7],[17,16],[-1,17],[-7,13],[-7,4],[-9,-13],[-8,2],[-23,-5],[4,-10],[-10,-11],[0,13],[-29,-2],[0,7],[-14,-4],[-15,4],[9,14],[-10,8],[0,-10],[-19,-3]],[[5442,4600],[-9,13],[-2,27],[-5,9],[5,4],[3,24],[40,13],[13,13],[-4,8],[12,21],[-53,7],[-16,6],[-21,-4],[-2,8],[-13,8],[-4,11],[-56,9],[-13,5],[-15,13],[-17,9],[-5,15],[1,21],[-42,13],[-37,17],[-42,26]],[[5160,4896],[-67,24],[1,12],[54,38],[11,35],[7,16],[51,36],[42,32],[11,12],[29,4],[26,42],[138,87],[-6,7],[3,12],[-11,9],[-4,27]],[[6322,5048],[8,-51],[0,-103],[-14,-47],[2,-25],[5,-25],[16,-41],[2,-14],[-12,-24],[2,-32],[26,-7],[13,1],[-1,-10],[13,-14],[-3,-10],[-17,-10],[5,-19],[9,-3],[-4,-12],[5,-32]],[[5442,4600],[-19,-29],[-14,0],[-7,-21],[-8,-15],[-26,5],[-45,-11],[-33,-3],[-54,6],[-32,-31],[-24,-20],[-31,-21],[-36,-17],[-54,-15],[-22,-13],[-27,-28],[-31,-20],[-25,-12]],[[4954,4355],[-14,0],[-44,13],[-39,8],[-55,24],[-15,10],[-14,17],[-102,66],[-75,31],[-68,35],[-47,19],[-47,36],[-63,23],[-78,39],[-7,7],[-49,38],[-36,24],[-26,8],[-27,4],[-55,23],[-41,12],[-39,19],[-27,4],[-53,16],[-14,14]],[[3919,4845],[10,11],[32,4],[-3,10],[26,1],[13,12],[4,-4],[21,2],[26,-16],[17,8],[7,10],[10,-6],[11,8],[10,-8],[24,10],[7,10],[6,-3],[8,8],[-4,10],[23,12],[-7,10],[18,0],[9,11],[17,-2],[5,14],[2,30],[18,5],[16,17],[24,4],[12,-6],[-1,-6],[12,4],[19,-14],[16,5],[22,13]],[[4349,5009],[23,5],[1,8],[-10,4],[3,9],[18,4],[22,-1],[5,-6],[17,0],[14,7],[19,-17],[-1,-20],[14,-2],[-15,-6],[14,-3],[24,14],[18,-9],[19,-3],[15,-14],[-7,-8],[6,-5],[15,5],[9,11],[12,-5],[2,-10],[20,-1],[-7,-21],[12,-6],[-12,-2],[15,-11],[9,4],[-3,13],[21,7],[1,10],[28,-14],[40,7],[5,-5],[3,-26],[21,10],[4,9],[12,-9],[37,4],[3,-7],[-6,-12],[23,-7],[-9,-11],[36,-11],[5,-13],[14,-3],[-3,-10],[18,4],[22,-9],[17,1],[2,-14],[9,1],[10,8],[5,-11],[5,8],[14,2],[6,-10],[12,9],[2,-10],[28,-2],[0,-7],[10,2],[15,-24],[-9,-5],[5,-7],[16,1],[-5,7],[10,1],[6,10],[8,-6],[6,-21],[10,1],[-2,7],[31,12],[-12,15],[7,6],[15,-4],[3,16],[12,-1],[2,8],[14,7],[0,9],[13,30]],[[6464,3107],[-26,-1],[6,-10],[-18,3],[-1,-15],[-24,1],[-28,-13],[-3,-9],[12,-1],[2,-7],[-8,-17],[4,-6],[16,4],[7,-10],[16,1],[7,-11],[4,-37],[9,2],[5,-10],[25,8],[9,8],[19,-12],[9,-13],[0,-23],[9,-16],[-7,-15],[-24,-2],[-9,8],[-14,-2],[-1,-10],[7,-24],[-15,-15],[-16,-12],[2,-4],[25,-9],[-9,-12],[16,-12],[11,0],[1,-17],[99,-113],[114,-40]],[[6695,2644],[-24,-22],[-15,-9],[-33,-42],[-11,-7],[-34,-28],[-21,-26],[-13,-21],[-36,-31],[-8,-20],[-9,-10],[-15,-9],[-17,-18],[-5,-19],[-9,-15],[-7,-20],[-17,-42],[2,-38],[-6,-30],[-12,-17],[-54,-53],[-17,-22],[-28,-44],[-12,-26]],[[6294,2075],[-101,37],[-150,84],[-505,315],[-315,197],[-195,63],[-26,6]],[[5002,2777],[-17,18],[5,21],[10,-1],[5,22],[-8,12],[-20,6],[10,33],[-4,17],[7,17],[5,20]],[[4995,2942],[-82,135],[45,107],[55,58]],[[5013,3242],[78,14],[79,-4],[203,6],[45,-2],[126,0],[67,5],[560,45],[299,-11],[9,-3],[21,5],[9,-2],[20,5],[16,15],[4,-4],[16,7]],[[6565,3318],[15,-5],[-11,-4],[-4,-9],[11,-7],[13,6],[4,-7],[-11,-7],[-20,-3],[-11,9],[-12,-1],[-7,-17],[24,3],[-7,-13],[-17,3],[5,-14],[-7,-5],[1,-23],[15,2],[-7,-14],[14,-9],[-16,-9],[-29,6],[-2,-15],[-12,4],[3,11],[-15,-3],[-7,-7],[19,-12],[-18,-18],[12,-11],[-6,-12],[-13,-2],[-5,-10],[-13,-8],[13,-10]],[[7379,4203],[51,-60],[13,-17],[48,-59],[19,-33],[12,-25],[11,-33],[13,-26],[6,-20],[8,-37],[18,-56],[16,-38],[51,-107],[17,-46],[21,-41]],[[7683,3605],[-294,-201],[-73,-30],[-179,-50],[-34,-13],[-88,-39],[-15,-12],[-27,2],[1,-7],[-52,7],[-6,-21],[-14,1],[-30,-4],[-6,-31],[-26,-2],[0,-9],[-18,2],[-17,-4],[-19,-24],[-17,-13],[-17,2],[-16,-9],[-26,-10],[-19,-21],[-212,-21],[-6,9],[-9,0]],[[6565,3318],[-8,25],[-15,70],[2,232],[-18,35],[-5,29],[10,69],[0,49],[-4,9],[6,6],[0,44],[6,33],[8,23],[14,21],[6,31]],[[7683,3605],[24,-39],[37,-44],[28,-30],[137,-128],[37,-44],[60,-73],[45,-42],[27,-19],[64,-42],[51,-20],[11,-5],[26,-22],[15,-9],[108,-49],[22,-16],[25,-26],[62,-34],[29,-12],[47,-16],[31,-14]],[[8569,2921],[-87,-91],[-80,-23],[-126,-90],[-190,-77],[-5,-18],[-27,2]],[[8054,2624],[-5,22],[2,10],[-20,9],[-25,24],[-19,-7],[-24,11],[-17,-9],[-9,2],[-33,-11],[-12,10],[-15,-4],[-1,-7],[-15,-8],[-20,0],[-46,-14],[-11,-1],[0,-19],[-18,-1],[-15,-5],[0,-16],[-12,1],[-70,-10],[1,-1],[-41,-6],[-2,4],[-36,-10],[3,-8],[-15,-1],[0,-24],[-32,-3],[-11,-9],[-16,-26],[-24,4],[-21,-18],[-44,-27],[-63,87],[-14,21],[-26,24],[-22,39],[-17,19],[-33,25],[-16,19],[-39,31],[-8,4],[-63,25],[-10,-3],[-66,16],[-37,4]],[[7017,2787],[-13,-2],[-21,-11],[-52,-9],[-31,0],[-15,-5],[-97,-58],[-22,-17],[-40,-26],[-31,-15]],[[5013,3242],[-13,27],[3,22],[5,6],[-12,23],[2,12],[-5,9],[13,34],[-4,1],[7,16],[-10,6],[13,9],[6,31]],[[5018,3438],[37,-4],[35,23],[31,27],[41,18],[21,15],[52,26],[11,9],[23,40],[6,30],[-3,10],[11,43],[-20,52],[12,24],[12,11],[-4,11],[60,-8],[41,22],[32,-3],[24,6],[32,-1],[12,18],[23,30]],[[4954,4355],[-22,-31],[-15,-38],[-3,-12],[-17,-46],[-2,-71],[50,-13],[-27,-4],[-7,5],[-16,-3],[-5,6],[-26,-6],[-22,-36],[-11,5],[-13,-7],[-3,-11],[-15,-8],[-7,-10],[13,-9],[1,-8],[-9,-13],[6,-19],[22,-8],[9,-8],[-6,-20],[-15,-8],[5,-7],[-1,-18],[-10,-8],[-4,-15],[-11,-1],[0,-8],[42,-11],[31,-29],[2,-25],[6,-28],[-2,-35],[-12,-27],[-14,-13]],[[4846,3757],[-6,6],[-35,2],[-16,-9],[-26,2],[-24,15],[-27,10],[-38,-4],[2,10],[-34,2],[4,25],[8,28],[-46,7],[-6,-5],[-42,-8],[-41,23],[-20,-6],[-28,-14],[-37,7],[-23,9],[-33,6],[-47,-2],[-17,-7],[-60,-1],[2,7],[-13,17],[-30,20],[-13,14],[-36,-3],[-41,-2],[-30,9],[-17,3]],[[4076,3918],[12,12],[0,21],[-13,19],[-26,28],[-14,29],[-77,39],[-50,5]],[[3908,4071],[-63,7],[-44,23],[-73,32],[-5,9],[14,18],[3,26],[10,9],[-19,32],[0,11],[-12,20],[9,22],[24,14],[33,-9],[7,28],[9,7],[1,22],[8,39],[13,31],[48,80],[2,9],[-12,17],[-8,5],[-5,18],[-35,15]],[[3813,4556],[3,25],[-11,12],[-29,38],[-30,14],[-25,8],[-24,14],[73,51],[12,13],[-2,6],[10,12],[22,6],[3,11],[29,14],[4,15],[-8,11],[9,12],[0,7],[11,-1],[3,8],[36,12],[20,1]],[[6529,5526],[28,-42],[64,-110],[36,-50],[33,-29],[26,-28],[34,-49],[40,-50],[14,-24],[21,-29],[25,-21],[18,-22],[3,-11],[15,-17],[-1,-91],[-4,-24],[8,-41],[13,-39],[21,-35],[17,-37],[16,-24],[14,-38],[19,-35]],[[5175,5630],[-42,87],[-58,161],[-107,172],[-8,7],[-71,32],[-7,4],[-14,21],[-6,15]],[[4862,6129],[31,14],[7,23],[20,7]],[[4920,6173],[24,1],[10,-4],[1,10],[19,19],[8,2],[13,-4],[0,15],[12,6],[-1,11],[13,10],[-7,9],[19,-1],[14,26],[27,21],[9,-5],[-5,11],[15,12],[-6,5],[22,20],[-9,4],[13,3],[-18,3],[8,22],[7,6],[2,12],[11,-3],[2,29],[12,7],[-13,7],[9,4],[-15,10],[10,10],[-14,16],[-3,18],[-9,19],[2,9],[-9,7],[10,8],[-4,4],[12,13],[-12,4],[4,10],[15,12],[11,14],[-11,7],[15,8],[13,1],[16,-26],[14,-19],[-9,-19],[9,-13],[25,-13],[39,-30],[1,-8],[11,-10],[4,-12],[22,-4],[10,-11],[24,-9],[-2,-8],[12,-13],[21,3],[7,-12],[19,-11],[26,4],[10,-9],[5,-13],[17,3],[10,-12],[4,-12],[9,0],[20,-29],[28,1],[15,-3],[9,-10],[17,-5],[14,-27],[8,0],[17,-10],[14,-3],[10,9],[18,4],[20,-11],[48,276],[20,118],[21,-5],[15,2],[16,-12],[24,4],[32,-16],[13,-1],[10,6],[37,-8],[23,-9],[-1,-5],[17,-6],[34,5],[47,25],[22,-5],[23,6],[22,-4],[21,-11],[7,-11],[22,-55],[29,-14],[35,6],[19,8],[14,-7],[18,-3],[73,15]],[[6301,6562],[36,-41],[36,-35],[19,-26],[21,-45],[31,-92],[75,-116],[19,-53],[1,-19],[18,-59],[16,-37],[12,-20],[1,-35],[-2,-25],[0,-37],[-10,-63],[0,-20],[-7,-48],[4,-37],[-8,-33],[1,-23],[-10,-27],[-6,-65],[-10,-40],[0,-20]],[[6538,5546],[-9,-20]],[[6538,5546],[15,-8],[37,8],[73,18],[60,9],[59,13],[44,5],[37,7],[30,-2],[161,-24],[43,-10],[20,0],[10,9],[19,-1],[12,-5],[14,0],[2,-7],[20,-3],[17,-7],[24,2],[10,4],[18,-8],[18,-20],[65,-37],[58,-37],[31,-17],[24,-2],[4,5],[15,-2],[15,5],[18,15],[38,2],[37,10],[43,-7],[23,-15],[19,-5],[30,13],[18,0],[44,-20],[43,-9],[77,17],[60,19],[34,16],[21,4],[22,-1],[35,-10],[50,7],[13,10],[18,-1],[13,-9],[20,-18],[27,-11],[85,-42],[37,-7],[45,4],[47,-2],[28,4],[44,10],[26,-3],[45,-9],[-20,-17],[-9,-20],[5,-11],[29,2],[38,-6],[54,8],[30,6],[32,-8],[47,10],[16,-9],[-1,-10],[13,-3],[-10,-5],[3,-7],[-19,-3],[5,-15],[-14,-2],[-4,-11],[-11,-6],[7,-14],[-11,-1],[-2,-12],[9,-4],[-7,-16],[10,-11],[-21,-20],[8,-4],[-12,-6],[-13,-20],[-15,4],[9,-9],[-14,-3],[1,-8],[-21,3],[-9,-22],[-15,-7],[12,-17],[-5,-8],[6,-7],[-6,-13],[-11,2],[-21,-4],[-12,-6],[-14,3],[-21,-2],[-25,-13],[-7,-15],[-21,-18],[-7,-20],[-11,-11],[-22,9],[-16,-3],[-29,25],[-12,-8],[-9,-22],[-14,-12],[-413,-77],[-6,0],[-19,13],[-18,19],[-26,2],[-22,-16],[-40,-4],[-27,-18],[-66,-2],[-28,4],[-38,1],[-36,15],[-32,0],[-48,11],[-19,9],[-61,18],[-17,0],[-29,-6],[-21,-11],[-30,-27],[-19,-29],[-16,-14],[-39,-13],[-17,-9],[-12,-13],[-7,-23],[-5,-50],[1,-22],[16,-24],[-32,-17],[-31,-5],[-7,5],[-25,-6],[-31,-11],[-26,-15],[-20,-2],[-12,12],[-40,-1],[-63,-26],[-26,6]],[[4349,5009],[-1,14],[-18,-6],[-12,6],[9,8],[-9,7],[-20,1],[-7,6],[-1,11],[-9,-1],[-15,23],[-12,7],[-18,25],[14,5],[-3,8],[11,16],[-9,2],[2,11],[-10,8],[-5,-5],[-9,5],[-16,-7],[-9,11],[8,6],[-10,4],[-2,20],[12,15],[7,-3],[19,4],[-14,43],[-9,6],[-3,-8],[-10,-1],[-5,13],[-9,-3],[-8,8],[-16,3],[-18,8],[14,6],[-10,7],[26,2],[-4,11],[16,20],[-7,7],[14,15],[16,37],[-4,15],[4,4],[-8,16],[-27,19],[-8,12],[-14,-3],[1,12],[-11,26],[-10,-1],[0,14],[-16,0],[4,14],[-12,5],[1,12],[-11,16],[-10,1],[-7,10],[-25,-1],[-2,11],[-18,5],[4,11],[-13,8],[2,6]],[[4029,5596],[-12,7],[-7,21],[-16,11],[-32,10],[-30,32],[1,16],[-8,13],[-8,6],[-6,14],[-10,9],[6,12],[-6,8],[5,13],[-10,6],[-7,12],[-47,26],[-4,22],[-9,15],[-31,26],[-26,12],[-14,-3],[-29,-14],[-12,-1],[-8,6],[-8,37],[-20,40],[-4,18],[-19,19],[-10,37],[13,26],[17,4],[-5,9],[10,13],[18,3],[10,7],[7,26],[17,16],[-14,17],[-9,16],[-33,35]],[[3679,6198],[-1,6],[10,11],[18,7],[37,-6],[10,-10],[14,2],[15,-12],[28,1],[13,-19],[31,-20],[0,-39],[44,-26],[222,-209],[1,-5],[21,3],[21,-6],[29,2],[23,-12],[24,2],[64,-6],[13,-6],[18,-26],[18,-2],[22,8],[12,30],[15,5],[24,20],[21,24],[19,5],[31,-3],[48,9],[11,8],[28,12],[11,-1],[17,12],[12,0],[22,10],[0,5],[14,-4],[3,11],[17,2],[8,10],[22,-4],[17,4],[11,-3],[2,10],[8,-1],[7,9],[-8,21],[10,3],[-4,15],[7,6],[21,-3],[13,8],[-4,4],[16,11],[5,28],[-9,2],[5,14],[10,9],[5,-4],[24,4],[17,5]],[[6294,2075],[-4,-36],[-9,-30],[-6,-31],[-14,-22],[-8,-39],[-12,-30],[-9,-14],[-7,-21],[-1,-53],[-16,-29],[-18,-37],[-16,-58],[1,-28],[-34,-27],[-25,-17],[-23,-23],[-32,2],[-14,6],[-12,15],[-19,12],[2,9],[-20,23],[-31,32],[-18,10],[-107,20],[-10,-5],[-19,-2],[-2,-16],[-14,0],[-14,-8]],[[5783,1678],[-9,-6],[-11,13],[-10,-8],[-18,5],[-37,-11],[-18,2],[-21,18],[-25,2],[-37,15],[61,115],[-14,67],[11,36],[-3,6],[-22,21],[-19,13],[-19,7],[-15,-2],[-39,-32],[-24,-11],[-22,0],[-15,5],[-40,-2],[-5,-8],[-30,-11],[-24,2],[-35,27],[-34,3],[-22,11],[-13,18],[-10,19],[-12,38],[-70,60],[-44,9],[-50,-7],[-39,-22],[-29,-22],[-15,-28]],[[5005,2020],[-56,-11]],[[4949,2009],[-56,30],[-20,15],[-9,15],[4,20],[-7,14],[12,43],[8,20],[-8,60],[5,63],[19,26],[0,10],[-27,37],[-13,23],[1,19],[32,43],[22,40],[0,18],[7,8],[0,20],[6,8],[16,9],[6,16],[-9,9],[-1,13],[-13,8],[-7,21],[-18,8],[43,45],[24,21],[-15,-1],[-3,16],[10,17],[7,-1],[11,27],[5,-1],[13,20],[9,1],[-1,8]],[[5018,3438],[-27,4],[-10,4],[-3,13],[-18,10],[-6,0],[7,33],[-27,11],[13,32],[5,37],[-1,11],[-17,33],[-3,23],[-31,9],[10,21],[-11,6],[-15,14],[-12,19],[-36,28],[10,11]],[[4029,5596],[-79,-40],[-176,-85],[-29,-2],[-37,2],[-18,5],[-29,-5],[-14,4],[-23,-9],[-12,-8],[-2,-12],[8,-8],[-15,-10],[-29,17],[-7,15],[-9,3],[-12,19],[0,31],[-6,9],[-11,1],[-40,-13],[-60,-10],[-2,-6],[-22,0],[-26,5],[-21,-2],[-10,-4],[-3,10],[-24,-1],[-6,14],[-4,19],[-19,3],[18,17],[-10,10],[-27,-1],[-9,7],[-20,3],[-15,16],[-6,-6],[-15,5],[-7,12],[11,3],[-1,8],[-9,3],[-16,-8],[1,27],[-16,19],[-9,-3],[-11,11],[-13,-3],[-15,1],[-20,16],[-6,13],[1,13],[-11,1],[-12,-18],[-11,1],[-21,-9],[-25,-5],[-7,-8],[-49,-6]],[[2962,5657],[-24,2],[-16,6],[-32,25],[-2,17],[6,8],[-14,20],[32,82],[-188,52],[10,16],[11,-2],[13,12],[-5,5],[1,25],[-10,5],[3,10],[-10,24],[-15,2],[-4,11],[-11,-4],[-2,8],[-14,-1],[-5,8],[-18,14],[-1,13],[-18,-2],[-34,21],[-27,23],[-36,19],[-18,6],[-11,8],[-6,24],[-11,21],[6,19],[-3,4],[9,20],[15,7]],[[2533,6185],[46,-15],[38,-6],[36,2],[19,-8],[16,-15],[4,-14],[18,-26],[19,2],[16,-4],[41,-14],[20,1],[21,-18],[38,20],[20,4],[17,-10],[7,-14],[12,-1],[28,11],[17,-6],[4,6],[11,-7],[7,6],[11,-6],[10,6],[10,-6],[11,7],[1,-7],[16,0],[7,10],[-19,19],[5,27],[27,3],[22,0],[43,9],[-12,26],[-1,12],[16,29],[1,15],[6,14],[-1,25],[25,15],[12,15],[29,-15],[32,-11],[11,16],[20,20]],[[3270,6302],[13,-10],[22,6],[3,-10],[-11,1],[0,-8],[21,-17],[21,2],[2,-10],[29,-3],[7,4],[19,-3],[11,-6],[12,1],[37,-16],[17,-12],[7,5],[18,-8],[4,7],[25,-6],[14,7],[18,-9],[-1,-7],[20,-5],[10,-18],[15,-1],[11,7],[16,2],[11,13],[16,-1],[12,-9],[10,0]],[[2962,5657],[-1,-21],[8,-65],[5,-64]],[[2974,5507],[-108,32],[-15,-2],[-10,-12],[-1,-11],[-38,-9],[-10,0],[-15,-12],[-15,4],[-16,-3],[1,11],[-17,-2],[-1,-19],[-5,-3],[-15,6],[-22,0],[-12,-4],[-7,5],[-20,2],[-10,-3],[-13,2],[-8,9],[-12,-6],[-20,2],[-18,-17],[-12,-1],[-30,13],[-32,-1],[-8,-5],[-20,2],[-16,-16],[-11,-2],[-21,3],[-14,-8],[-28,1],[-110,-6],[-8,-18],[-6,1]],[[2251,5440],[-5,1],[35,271],[5,26],[-17,-9],[-6,2],[13,9],[-5,7],[-15,3],[2,-10],[-10,5],[-17,-10],[-17,4],[-8,-11],[-8,9],[-8,-5],[-5,8],[-25,5],[-1,15],[-25,3],[-10,16],[-25,3],[-12,-10],[2,18],[-5,3],[-16,-9],[-17,2],[-12,12],[1,-9],[-13,2],[-11,-7],[2,-8],[-16,-3],[8,7],[-3,8],[-14,0],[-4,9],[16,6],[-7,16],[-10,-2],[2,-9],[-21,-3],[6,10],[-6,12],[15,11],[13,-5],[7,14],[-6,9],[-12,33],[-19,19],[-12,30],[-9,39],[15,2],[-1,5],[-162,97],[0,11],[10,5],[33,-4],[11,14],[18,0],[25,12],[36,26],[13,6],[1,6],[-9,15],[-13,3],[-6,16],[-10,1],[-3,19],[4,10],[-7,4],[2,17],[-6,1],[3,13],[-5,9]],[[1895,6265],[6,15],[-8,12],[3,17],[9,13],[-1,10],[8,23],[15,9],[0,24],[8,13],[2,16],[27,-9],[40,25],[23,-5],[13,5],[21,3],[2,12],[10,12],[14,4],[27,2],[43,12]],[[2157,6478],[31,-2],[60,4],[14,-6],[66,-65],[19,-35],[1,-31],[-10,-21],[-20,-23],[0,-24],[14,-11],[46,-25],[25,-11],[36,8],[49,30],[20,-3],[12,-17],[13,-29],[0,-32]],[[3270,6302],[-29,9],[-15,-2],[-2,11],[-17,3],[0,15],[-14,4],[-14,-1],[-11,18],[-18,21],[-9,21],[-14,6],[-18,20],[-10,2],[5,10],[-9,6],[-27,4],[-13,16],[-30,17],[-14,13],[-19,58],[-23,38],[-57,43],[-18,28],[-73,122],[-168,147]],[[2653,6931],[21,26],[12,2],[48,-5],[40,2],[31,9],[20,3],[15,10],[19,5],[42,1],[50,-3],[32,15],[38,35],[21,20],[15,25],[12,13],[35,2],[22,-16],[13,-18],[60,-51],[25,-38],[25,-23],[22,-16],[12,-14],[25,-21],[15,-6],[29,-3],[31,-13],[36,0],[9,2],[28,-5],[-2,-7],[24,11],[36,-8],[11,-15],[5,6],[14,-14],[10,-3],[9,-26],[16,-11],[0,-6],[-10,-3],[19,-11],[-3,-12],[12,-4],[-2,-6],[9,-15],[9,0],[30,-18],[2,-20],[24,3],[17,-22],[12,-4],[18,4],[-2,-10],[11,-5],[2,-11],[18,-1],[-5,-13],[11,-14],[34,-17],[-5,-8],[15,-13],[19,-6],[21,0],[-2,6],[21,1],[8,34],[29,20],[10,18],[24,31],[97,61],[7,19],[6,34],[7,28],[20,28],[13,-8]],[[4075,6862],[427,-128],[6,-7],[21,-5],[-7,-12],[8,-19],[29,-32],[14,-4],[29,-16],[26,-10],[-9,-11],[21,-9],[0,-5],[15,-16],[-19,-10],[-28,-11],[3,-31],[-20,-2],[-2,-23],[4,-15],[23,-16],[3,-25],[7,-22],[15,-18],[29,-9],[32,-23],[5,-36],[19,-18],[11,-24],[5,-24],[8,-6],[23,-41],[10,-9],[56,-12],[79,-26],[2,-14]],[[3813,4556],[-18,-20],[-28,-5],[-16,0],[-31,3],[-15,-3],[-20,-10],[-65,-4],[-105,-26],[-38,2],[-22,9],[-24,19],[-59,29],[-25,10],[-24,2],[-26,-1],[-33,-7],[-37,23],[-11,-33],[-23,-31],[-22,7],[-11,10],[-5,12],[-17,6],[-8,8],[-16,6],[-9,16],[-34,12],[5,9],[-35,11],[-59,15],[-11,0],[-28,17],[-29,22],[-33,1],[-18,16],[-39,13],[-11,6],[-28,2],[1,5],[-16,6],[-4,12],[-14,9],[-21,-9],[-18,14]],[[2713,4739],[8,7],[15,-1],[17,6],[19,-2],[6,6],[-5,16],[-14,5],[-2,8],[-13,0],[-3,6],[-12,2],[-6,7],[-1,21],[-27,5],[-26,12],[-2,9],[-31,24],[-5,32],[2,50],[-7,48],[4,37],[6,36],[20,30],[18,58],[24,55],[21,27],[12,5],[35,7],[9,6],[20,-1],[34,16],[24,16],[12,2],[7,8],[16,5],[17,-2],[21,3],[7,21],[7,8],[25,17],[10,1],[2,8],[29,17],[6,16],[23,-2],[19,9],[14,16],[-35,39],[2,5],[-42,20],[-13,12],[-6,12]],[[4075,6862],[19,195]],[[4094,7057],[37,-5],[22,8],[182,9],[36,-9],[25,-17],[89,-65],[1,-7],[-10,-9],[0,-11],[29,-5],[21,9],[17,2],[27,-2],[10,-3],[43,-26],[104,7],[11,6],[3,11],[12,-4],[-5,8],[1,15],[7,13],[12,-2],[5,8],[15,6],[2,16],[-17,15],[12,22],[-17,1],[10,12],[1,20],[-5,11],[20,0],[-11,27],[12,2],[-2,10],[19,7],[1,10],[-9,-6],[-9,10],[-1,21]],[[4794,7172],[68,0],[69,17],[41,15],[57,36],[75,53],[20,17],[46,46],[5,-8],[21,-4],[8,-7],[2,-25],[6,2],[8,-10],[6,4],[24,-2],[-6,-15],[13,-4],[14,4],[-1,6],[20,-1],[10,-17],[3,3],[22,-10],[26,-6],[17,-19],[15,0],[15,-17],[-12,0],[4,-8],[-8,-15],[6,-2],[-1,-13],[-10,1],[-5,-6],[-13,-2],[7,-6],[-14,2],[-13,-5],[1,-13],[9,-20],[9,-7],[-9,-7],[15,0],[-8,-7],[16,-7],[0,-5],[15,-2],[0,-10],[33,-2],[12,-5],[13,3],[19,-12],[19,-3],[2,-8],[14,-17],[14,-2],[1,-11],[40,-7],[0,-9],[19,-15],[14,4],[2,-7],[30,-11],[13,9],[16,-2],[10,5],[13,-8],[19,-7],[15,10],[23,-8],[5,3],[244,-15]],[[5977,6983],[105,-147],[219,-274]],[[3908,4071],[-2,-3],[-35,-13],[-36,-23],[-8,-11],[-16,-9],[-11,-14],[5,-8],[-12,-9],[-27,-13],[-24,3],[-14,-5],[-12,7],[-25,-11],[-8,-17],[-11,0],[-12,-24],[-4,-17],[-49,-14],[-1,-11],[-11,-8],[-18,2],[0,19],[-14,5],[-8,-3],[-10,11],[-20,6],[3,16],[12,-4],[7,5],[-9,27],[-7,8],[4,7],[-13,0],[0,9],[16,0],[4,17],[-6,4],[-5,17],[-9,-4],[-12,5],[-9,27],[-21,-15],[-7,9],[7,2],[-15,9],[2,5],[-26,33],[-11,-1],[-30,16],[5,8],[-10,0],[-2,9],[-17,-5],[-23,10],[-19,-8],[-18,1],[-5,5],[-20,0],[8,-5],[-22,-5],[-9,9],[-16,4],[-18,-6],[-20,9],[-4,15],[-15,8],[-13,-3],[-21,8],[-18,0],[3,-6],[-22,0],[-12,7],[-17,-8],[-18,3],[-22,-7],[-22,12],[-6,-8],[-25,18],[9,5],[-4,9],[-22,9],[2,10],[-14,10],[-12,2],[-25,-4],[-8,9],[6,16],[-21,-2],[-13,7],[16,7],[-27,14],[-37,38],[-23,-6],[-23,8],[-20,-6],[-6,-6],[-37,-12],[-7,3],[-21,-6],[-18,-14],[-21,3],[-12,-9],[-2,12],[-29,0],[-28,10],[-20,4],[5,7],[-8,12],[-24,2],[-26,-4],[-1,10],[-10,9],[-18,1],[-27,6],[-23,18],[-13,4],[-21,13],[-38,-3],[1,14],[-12,-2],[-6,5],[-28,5],[-37,22],[-9,-7],[-21,-1],[-16,-7],[-12,9],[-19,-10],[3,-4],[-24,-10],[-6,-11],[-34,-5],[-23,2],[-1,4],[-19,11],[2,10],[-6,18],[-16,8],[-14,1],[-3,11],[-18,3],[-5,12],[-8,-1],[-14,11],[2,5],[-11,8]],[[2027,4455],[116,70],[222,16],[68,-2],[19,4],[16,11],[133,48],[7,4],[6,21],[4,39],[17,23],[7,20],[21,18],[15,9],[14,-5],[21,8]],[[2027,4455],[1,37],[-10,28],[-16,0],[-6,8],[-38,13],[-15,3],[-2,11],[-13,9],[-7,-2],[-10,14],[0,12],[-13,10],[-2,13],[-13,1],[-6,7],[-25,8],[-11,17],[12,3],[12,25],[-4,4],[11,20],[-7,0],[1,19],[-7,14],[-8,5],[-24,-2],[6,13],[-2,10],[-36,16],[-23,29],[-1,17],[-11,7],[-5,17],[-1,22],[-13,16],[-9,23],[4,11],[16,15],[23,29],[3,13],[-13,14],[-122,36],[-9,16],[-7,21],[-15,20],[-3,25],[4,24],[-11,38],[-11,11],[-6,19],[8,8]],[[1593,5202],[25,-9],[31,-3],[30,2],[33,6],[27,-2],[12,5],[13,-1],[11,15],[22,12],[27,8],[28,12],[5,9],[11,5],[15,17],[8,-4],[27,11],[41,24],[26,19],[90,29],[74,26],[64,24],[39,18],[-1,15]],[[2653,6931],[-28,15],[-57,27],[-61,13],[-41,14],[-37,22],[-24,18],[-12,18],[-25,27],[-21,16],[-24,25],[-22,29],[-22,22],[-75,61],[-16,11],[-27,22],[-18,18],[-16,33],[-20,76],[-7,16],[-16,29]],[[2084,7443],[7,22],[-13,1],[4,7],[22,5],[10,11],[-17,5],[-5,-4],[-19,6],[-1,10],[-11,12],[-10,-7],[-8,5],[7,19],[-8,16],[-20,7],[0,24],[-5,12],[-12,-2],[0,9],[-18,19],[-32,-4],[-10,2],[-1,-7],[11,2],[-7,-14],[6,-5],[-4,-13],[-12,-5],[-22,0],[-14,-7],[3,-5],[-18,-4],[9,11],[-12,5],[-4,-5],[-16,17],[-12,5],[-9,30],[-12,8],[-5,17],[-21,10],[-10,-5],[-4,-10],[-24,-1],[-7,9],[21,10],[24,24],[7,16],[8,5],[39,5],[44,21],[34,3],[30,8],[30,-1],[9,6],[31,29],[31,8],[6,20],[28,16],[6,8],[5,22],[1,37]],[[2114,7888],[10,0],[34,-14],[20,-2],[14,-21],[-5,-12],[12,-14],[27,10],[8,-8],[30,-2],[8,5],[17,-5],[-2,-12],[30,2],[7,-3],[-8,-10],[10,-10],[13,2],[31,-6],[30,-24],[24,-4],[-4,9],[23,5],[39,-7],[18,3],[14,11],[3,24],[16,8],[5,14],[7,6],[59,17],[14,3],[62,4],[101,-15],[20,-7],[22,-11],[11,-10],[40,-16],[72,-38],[41,-31],[16,-17],[29,-18],[19,-15],[14,-15],[43,-28],[9,-21],[41,5],[39,-15],[18,3],[87,-12],[24,-11],[19,13],[33,73]],[[3378,7671],[42,-136],[11,-8],[41,-12],[84,-28],[94,-37],[62,-31],[23,-13],[-1,-22],[-5,-8],[-2,-17],[-13,-18],[-11,-25],[4,-4],[136,-17],[3,-15],[28,-2],[40,-27],[33,-4],[2,-6],[17,-1],[-2,-9],[-16,-2],[11,-4],[-20,-28],[23,-12],[64,-96],[27,-13],[11,-9],[30,-10]],[[2157,6478],[-11,13],[-163,62],[-26,3],[-2,10],[21,18],[18,7],[21,22],[-3,12],[10,46],[-14,48],[5,17],[27,11],[17,2],[16,22],[-18,6],[-12,16],[-21,7],[0,5],[-25,1],[-9,12],[-20,6],[6,7],[-38,17],[-1,9],[-19,17],[-17,2],[-50,42],[5,7],[-7,11],[-14,6],[-16,19],[-30,12],[-14,34],[-19,9],[-7,21],[-6,5],[-12,28],[1,16],[-9,29],[-24,14],[-3,18],[4,9],[-17,5],[-6,18],[5,9],[-19,18],[-12,18],[119,109]],[[1768,7333],[9,14],[21,14],[16,5],[21,13],[7,8],[13,0],[3,-9],[10,1],[23,15],[-24,8],[3,4],[17,-5],[13,10],[18,9],[2,11],[12,2],[12,-7],[-2,-13],[17,6],[-2,-14],[9,-7],[27,-13],[14,6],[-5,7],[8,4],[-13,12],[14,5],[24,-1],[-10,7],[20,17],[24,7],[15,-6]],[[8874,1530],[-1,-8],[-12,-8],[5,-8],[-9,-14],[-1,-21],[-10,-10],[-7,4],[-14,-4],[13,-3],[3,-26],[13,-7],[-15,-16],[15,-13],[12,1],[-7,-9],[14,-16],[-5,-14],[-15,-6],[-3,-8],[-15,-7],[5,-22],[7,-6],[-13,-14],[-13,6],[-1,12],[-32,-1],[-20,-14],[-1,-10],[-10,0],[-4,-15],[13,-7],[8,-10],[-33,-25],[-12,1],[-24,-12],[-1,-10],[-19,-11],[-6,-26],[-16,-15],[-16,0],[-21,-7],[6,-11],[-14,-15],[-3,-11],[5,-15],[-12,-5],[-1,-7],[-14,-1],[-13,-17],[-2,-11],[-1,-29],[4,-31],[27,-117],[45,-153]],[[8653,728],[-195,4],[-51,-8],[-36,-18],[-19,-5],[-6,-10],[-12,0],[-3,-8],[-25,6],[-4,-3],[-44,-4],[-25,6],[0,23],[-23,4],[-15,10]],[[8195,725],[15,25],[1,9],[-31,25],[2,25],[7,16],[-48,16],[-24,12],[-307,111],[-46,12],[-23,31],[-10,19],[-1,15],[-16,11],[0,9],[-16,12],[-3,28],[12,7],[3,28],[-8,17],[-13,2]],[[7689,1155],[39,57],[23,-4],[3,13],[14,2],[90,-42],[31,7],[23,0],[97,19],[8,19],[12,3],[24,2],[7,6],[12,32],[10,11],[26,6],[12,7],[6,16],[26,16],[67,7],[40,65],[41,38],[73,69],[112,15],[25,2],[4,4]],[[8514,1525],[30,2],[26,11],[31,4],[45,-3],[52,2],[13,2],[23,-28],[101,19],[39,-4]],[[8054,2624],[-4,-18],[19,-2],[19,-12],[-4,-16],[3,-13],[13,-13],[-3,-13],[16,-3],[-2,-8],[16,-4],[14,-9],[20,-2],[18,5],[-1,7],[19,-3],[7,-6],[15,0],[2,-8],[23,-12],[6,2],[9,-15],[11,1],[7,-17],[10,-4],[13,3],[19,-15],[2,-11],[17,-1],[21,-18],[0,-8],[12,-3],[4,-13],[8,-4],[3,-23],[12,4],[-7,-10],[7,-16],[-2,-9],[25,-11],[17,-2],[-2,-12],[17,-1],[9,-17],[16,-8],[25,7],[5,-5],[15,4],[16,-3],[13,-35],[38,-30],[7,-16],[17,-2],[29,-14],[19,0],[9,-13],[-4,-16],[10,-1],[8,-25],[21,-3],[3,-14],[10,-7],[-1,-7],[15,0],[12,-21],[-11,-5],[3,-14],[6,1],[14,-13],[-10,-5],[12,-12],[-11,-1],[12,-12]],[[8760,2024],[-338,144],[-207,-2],[-1,-44],[2,-15],[1,-49],[11,-160]],[[8228,1898],[-28,-1],[-19,11],[-24,5],[-4,-5],[-17,11],[8,11],[-15,17],[-20,3],[-5,16],[-18,-6],[-34,8],[-2,9],[-24,5],[-11,14],[-16,-2],[-15,3],[5,8],[-15,3],[0,8],[-13,3],[-5,14],[-9,5],[1,21],[-5,6],[-25,0],[-29,5],[-12,-8],[-27,-9],[-11,-7],[-30,-6],[-19,2],[-31,-1],[-23,-9],[-11,3],[-31,-3],[-20,-7],[-35,0],[-13,30],[-21,32],[-35,49],[-9,18],[-36,54],[-25,34],[-21,18],[-27,13],[-47,12],[-138,1],[-36,7],[-52,18],[-18,11],[-17,15],[-12,18]],[[7132,2355],[-84,174],[-31,258]],[[8195,725],[-44,-7],[-25,-7],[-35,8],[-21,1],[-18,-44],[-9,1],[-34,-45],[-47,-41],[-22,-14],[-16,-80],[27,-3],[26,-358]],[[7977,136],[-103,34],[-83,28],[-81,30],[-76,26],[-91,42],[-72,29],[-91,21],[-50,1],[-51,-7],[-61,-13],[-62,-18],[-34,-6],[-53,-4],[-40,6],[-38,14],[-66,34],[-30,23],[-24,15],[-23,6],[-26,-1],[-24,-9],[-11,-8]],[[6787,379],[93,109],[57,126],[38,71],[6,23],[-4,22],[-19,41],[-7,46],[-13,13],[-27,13],[-38,28],[2,16],[-9,2],[3,18],[17,11],[2,17],[-15,12],[-3,18],[-6,6],[13,18],[-23,26],[11,17],[11,3],[6,11],[-8,6],[9,13],[30,13],[6,7],[-2,10],[9,1],[12,13],[3,18],[11,6],[9,14],[20,8],[26,7],[4,12],[38,24],[-4,9],[10,15],[17,1],[2,6],[14,0],[10,9],[0,15],[-6,7],[7,11],[24,12],[-27,80]],[[7096,1363],[66,35],[35,14],[48,23],[64,26],[35,12],[79,23],[29,3],[13,6]],[[7465,1505],[9,-28],[0,-45],[6,-20],[21,-3],[9,-16],[49,5],[4,-19],[18,-2],[32,2],[8,-2],[25,-151],[-5,-6],[1,-15],[16,-15],[5,-13],[26,-22]],[[8514,1525],[8,87],[6,45],[5,16],[-8,9],[-13,1],[-17,8],[-17,1],[-17,8],[-14,-4],[-33,19],[-12,10],[-8,-1],[-23,15],[-12,18],[-30,-7],[-27,15],[2,19],[-6,11],[-10,2],[2,7],[-13,11],[1,6],[-12,11],[-16,1],[6,7],[-16,7],[10,7],[0,25],[-11,16],[-11,3]],[[8760,2024],[17,23],[7,1],[10,13],[28,7],[25,-2],[12,4],[10,21],[11,9],[28,9],[13,-12],[6,11],[33,7],[12,14],[12,3],[21,10],[1,9],[11,0],[13,13],[38,12],[22,4],[20,18],[2,16],[14,1],[10,19],[16,17],[15,36],[9,9],[2,9],[58,-1],[42,8],[21,1],[40,-4],[3,14],[-5,24],[-14,23],[54,34],[33,18],[14,1],[8,-5],[29,11],[87,54]],[[9548,2483],[51,-17],[35,-3],[33,-7],[77,-6],[35,-7],[42,-20],[43,-17],[10,-28],[27,-57],[26,-50],[44,-81],[16,-23],[12,-26],[-2,-22],[-1,-44],[-14,-28],[-16,-70],[-36,-44],[-17,-27],[-11,-28]],[[9902,1878],[-29,1],[-67,18],[-26,3],[-15,-3],[-25,-11],[-20,1],[-14,-7],[-23,6],[-10,-4],[-22,8],[-2,-6],[-19,-9],[-18,-5],[-8,-7],[-21,-9],[-29,1],[-25,6],[-3,-7],[-26,-14],[-18,5],[-12,-4],[-9,-27],[-44,-14],[-43,-18],[-23,6],[-22,2],[-19,-13],[-19,-5],[-18,7],[-4,-5],[-22,-14],[-1,-17],[-7,-3],[-29,0],[-4,12],[-22,-8],[-29,2],[-33,11],[-17,-16],[-23,-4],[-5,-14],[-20,-1],[-17,-12],[-17,4],[-28,-6],[-4,-12],[-16,0],[-10,-7],[-11,1],[3,-8],[-36,-8],[-7,3],[-18,-8],[-8,-20],[-20,-4],[0,-6],[-18,-13],[-6,-14],[2,-11],[8,-12],[11,1],[4,-24],[16,-9],[-13,-6],[10,-2],[-1,-8],[-10,-5],[3,-6]],[[9902,1878],[-28,-70],[-33,-55],[-40,-74],[-12,-14],[-28,-37],[-14,-13],[-47,-65],[-18,-29],[-24,-32],[-19,-16],[-15,-33],[-30,-40],[-16,-32],[-23,-19],[-5,-10],[-53,-61],[-23,-32],[-18,-31],[-29,-42],[-15,-33],[-29,-48],[-21,-52],[-21,-38],[-16,-21],[-14,-27],[-8,-6],[-34,-79],[-14,-34],[-23,-32],[-12,-27],[-24,-47],[-17,-28],[-12,-28],[-34,-70],[-7,-32],[-23,-53],[-11,-53],[-17,-47],[-5,-59],[-2,-33],[-10,-43],[-11,-37],[-3,-37],[-4,-12],[-1,-36],[16,-39],[27,-40],[-64,-64],[-25,-13],[-14,-4],[-37,-1],[-129,14]],[[8813,14],[-8,326],[-9,384],[-143,4]],[[6787,379],[-10,-32],[-8,-63],[-8,-31],[-13,-22],[-34,-34],[-10,-6],[-26,-6],[-29,3],[-15,16],[-13,23],[-9,9],[-22,9],[-21,4],[-16,0],[-15,-15],[0,-23],[12,-30],[-4,-16],[-26,-26],[-30,-14],[-16,2],[-5,15],[-25,32],[-33,10],[-3,23],[-7,3],[-22,-4],[-29,6],[-3,16],[-8,10],[-26,-8],[-31,19],[-37,-12],[-20,1],[-16,11],[9,34],[13,61],[-2,8],[-15,8],[-12,-10],[-29,0],[-32,-6],[-22,6],[-11,-6],[-18,-21],[-23,8],[6,12],[-1,10],[-12,25],[-2,51],[13,41]],[[6071,470],[-2,8],[7,18],[-3,33],[-21,54],[-25,40],[-34,64],[-45,61],[-95,130]],[[5853,878],[137,140],[7,4],[8,-4],[4,7],[12,-2],[6,24],[35,18],[-2,24],[15,13],[24,7],[38,-6],[81,41],[25,-43],[17,-18],[32,-24],[21,-18],[17,-6],[5,-15],[32,-8],[19,-2],[43,3],[19,4],[65,20],[18,7],[72,40],[20,24],[43,33],[48,29],[26,13],[45,13],[33,13],[39,12],[53,13],[78,49],[38,27],[18,19],[17,16],[35,18]],[[8813,14],[-118,20],[-115,17],[-106,12],[-117,11],[-88,11],[-125,16],[-96,17],[-71,18]],[[7132,2355],[87,-578],[37,-100],[209,-172]],[[5853,878],[-15,19],[-37,38],[3,19],[-12,11],[7,10],[-33,4],[-6,-7],[-8,12],[17,6],[-5,9],[-34,1],[-3,11],[-18,15],[-14,6],[-3,20],[-20,3],[-3,6],[3,20]],[[5672,1081],[8,8],[16,1],[2,6],[-14,6],[-1,9],[14,-1],[6,6],[-22,10],[-22,-3],[-2,-7],[-20,8],[-77,6],[-23,5],[-2,13],[16,15],[3,8],[21,-1],[-1,18],[-9,7],[5,14],[25,0],[15,9],[-12,7],[9,9],[17,5],[-19,15],[11,4],[16,-9],[3,13],[-7,11],[2,32],[26,4],[3,8],[-13,0],[4,19],[-11,2],[-16,14],[3,6],[46,1],[3,4],[-11,13],[-14,3],[13,7],[7,-6],[11,4],[5,14],[10,2],[1,8],[-21,-4],[0,18],[7,6],[8,20],[-5,7],[-12,-15],[-20,4],[-18,9],[4,12],[-9,8],[11,9],[22,7],[11,-1],[-1,11],[-11,2],[-2,20],[12,3],[8,-5],[26,-2],[11,14],[23,9],[-13,5],[-13,21],[15,1],[0,-7],[10,0],[9,-6],[3,26],[7,-5],[10,5],[-1,8],[-28,22],[7,6],[-8,8],[12,6],[2,8],[15,17],[13,-5],[6,7],[-4,21]],[[8569,2921],[96,-41],[90,-26],[27,-6],[58,-18],[36,-13],[104,-39],[14,-2],[69,-32],[165,-83],[41,-26],[83,-51],[20,-13],[64,-34],[112,-54]],[[4949,2009],[-54,-12],[-56,10],[-1,-5],[-66,-14],[-5,-24],[-17,-20],[-16,4],[2,4],[-29,2],[-31,-3],[-11,-10],[-25,5],[-19,-33],[-33,15],[-23,15],[-51,-14],[-6,-5],[-30,-11],[-12,-8],[-47,7],[-40,-18],[-23,-24],[-32,0],[-35,4],[-21,-5],[-4,-12],[-14,-6],[-34,1],[-8,-10],[-1,-17],[-4,-3],[-19,5],[-12,-3],[-21,4],[14,14],[-17,7],[-20,0],[-13,16],[7,15],[-6,3],[-2,17]],[[4114,1900],[-18,8],[-1,6],[12,7],[-6,13],[8,7],[-7,4],[11,8],[-9,7],[-4,24],[8,7],[5,29],[6,-2],[10,10],[-5,5],[2,15],[-20,3],[6,12],[0,14],[-19,26],[10,3],[20,30],[17,13],[-4,8],[5,7],[-11,5],[10,8],[-7,17],[4,3],[-8,14],[-16,2],[3,17],[-17,7],[-2,6],[12,9],[5,16],[-26,-1],[-14,11],[8,4],[3,14],[-14,-3],[-8,4],[7,23],[11,14],[-18,4],[6,7],[-10,11],[17,2],[-8,23],[-10,-3],[4,9],[-13,2],[8,13],[-17,10],[12,0],[3,7],[-14,17],[4,9],[-10,-5],[-9,11],[8,35],[14,2],[7,11],[-11,7],[12,5],[-13,11],[-1,15],[-16,4],[-2,-10],[-12,4],[2,9],[-19,-5],[-15,0],[-24,21],[15,2],[-11,14],[12,10],[-16,2],[6,12],[-19,6],[13,5],[-11,9],[-9,-2],[-9,9],[4,7],[-16,8],[-6,-14],[-10,15],[5,8],[10,-3],[7,9],[-12,0],[0,18],[-12,7],[-19,-3],[14,8],[-7,5],[14,8]],[[3899,2700],[225,24],[22,16],[33,5],[3,15],[17,1],[20,14],[41,8],[1,12]],[[4261,2795],[14,-1],[1,15],[23,7],[35,0],[185,71],[21,8],[11,0],[1,8],[22,15],[43,-1],[32,-12],[32,12],[314,25]],[[5005,2020],[-123,-277],[-18,-37],[-13,-18],[-2,-31],[-4,-14],[-13,-24],[-26,-41],[-19,-16],[-24,-41],[-16,-24]],[[4747,1497],[-70,-108],[-11,-10],[-28,-18],[-12,-2],[-12,-12],[-68,-37],[-35,-15]],[[4511,1295],[-19,8],[-40,-22],[-25,4],[-39,-5],[2,14],[-9,8],[-24,-10],[-14,1],[-54,20],[-27,6],[-13,5],[-24,1],[-20,-10],[-24,-1],[-27,4],[-32,1],[-45,-9],[-37,-9],[-44,15],[-15,12],[-12,1],[-18,-9],[-14,11],[-15,4],[-20,-4],[-2,-9]],[[3900,1322],[-24,2],[-15,7],[-10,-4],[-2,-9],[-8,8],[-15,5],[-10,-11],[-9,-2],[-12,10],[-15,-7],[-4,14],[15,13],[-20,8],[-17,3],[-25,10],[-14,16],[-23,-3],[-14,2],[8,11],[-2,6],[-13,3],[-8,10],[-15,1],[4,10],[58,0],[44,7],[-7,16],[-6,4],[-6,-8],[-16,0],[-2,10],[17,6],[-15,14],[-13,-8],[-5,14],[3,8],[-29,1],[-1,12],[16,7],[1,10],[-17,15],[-25,2],[-7,5],[-29,4],[-15,11],[18,11],[-5,5],[-28,-10],[-10,11],[-25,-1],[-9,-5],[-10,6],[5,18],[17,10],[11,19],[-14,-1],[-13,16],[-17,-3],[1,24],[12,7],[-7,19],[2,10],[11,11],[18,6],[-8,17],[0,13],[10,11],[12,5],[-6,7],[-36,16],[18,9],[15,-1],[7,11],[-11,12],[-25,-2],[-2,12],[10,7],[5,26],[-32,37],[-6,13],[-14,7],[-4,15],[-12,12],[-4,18],[0,28],[14,-2],[-3,17],[-16,9],[8,26],[9,11],[19,10],[-10,15],[-30,-1],[-3,16],[-14,13],[0,5]],[[3446,2100],[13,9],[8,15],[-6,12],[-2,26],[-5,16],[15,7]],[[3469,2185],[46,-26],[-4,16],[17,12],[26,-2],[38,5],[64,-11],[44,-5],[39,4],[-1,-13],[15,-15],[11,-22],[-18,-33],[-9,-30],[-18,-24],[-2,-12],[28,-21],[7,-9],[21,-55],[56,-2],[8,-7],[19,-8],[16,-15],[17,-5],[22,16],[30,-15],[30,5],[37,0],[-2,-5],[23,-5],[7,-9],[13,0],[-4,-9],[24,1],[1,7],[22,-2],[1,5],[18,-2],[3,6]],[[5672,1081],[-28,4],[-27,0],[-37,-7],[-22,-2],[-27,5],[-12,10],[-18,5],[-25,21],[-98,86],[-87,97],[-169,169],[7,7],[-21,15],[-65,18],[-13,-15],[-96,1],[0,-9],[-82,10],[-105,1]],[[3899,2700],[-76,-23],[-306,-118],[0,-16]],[[3517,2543],[-23,-2],[-16,17],[-22,6],[2,23],[-15,18],[-14,10],[-3,17],[-23,4],[-25,14],[11,6],[7,16],[-1,15],[6,4],[-10,16],[-11,4],[-10,13],[-1,10],[-12,7],[2,12],[-6,11],[-27,11],[-16,2],[-21,-1],[-119,412]],[[3170,3188],[29,6],[91,69],[180,118],[14,8],[-8,12],[-11,-2],[-4,12],[-5,-13],[-26,24],[0,12],[14,-2],[4,8],[-15,0],[12,7],[3,20],[18,12],[20,5],[14,-1],[1,14],[-15,5],[-2,19],[8,8],[-12,8],[11,23],[9,6],[-3,8],[396,117]],[[3893,3691],[7,-40],[-1,-11],[12,-22],[1,-36],[-6,-18],[-1,-26],[10,-25],[13,-16],[16,-32],[8,-25],[15,-6],[14,-10],[10,-15],[-6,-23],[27,-2],[76,-177],[94,-161],[64,-203],[7,-3],[-6,-33],[15,-2],[-1,-10]],[[3900,1322],[12,-16],[1,-9],[-13,-2],[-56,6],[-3,-11],[13,-12],[-3,-7],[-20,-8],[8,-15],[4,-19],[-21,-18],[19,-22],[3,-12],[-2,-14],[-18,-6],[-13,15],[-11,4],[-13,18],[-13,-1],[-12,-8],[3,-10],[21,-17],[6,-16],[-9,-3],[-20,7],[-11,-1],[-1,-13],[-7,-10],[-25,10],[-4,9],[12,12],[-19,13],[-28,8],[-5,-1],[-25,8],[-13,-1],[-21,-9],[-2,-15],[18,-10],[-15,-25],[-19,-3],[-6,17],[-9,5],[-20,-2],[-9,-5],[-26,-4],[-2,-9],[18,-11],[-7,-12],[-13,-2],[-15,4],[-24,-19],[0,-12],[19,-3],[9,-9],[-9,-5],[-25,-2],[-11,4],[-22,-4],[-11,-31],[-14,-7],[-22,-3],[-17,2],[-15,-4],[-30,-16],[-5,-9],[2,-15],[-7,-6],[-18,3],[-12,9],[-38,0],[-10,-5],[-31,4],[-26,15],[-39,-5],[-15,-6],[-13,-18],[-12,-2],[-30,0],[-16,-4],[-11,-8],[-27,6],[-29,-1],[-15,-5],[-18,-13],[-10,0],[-20,19],[-8,16],[-12,10],[9,19],[-4,24],[-16,20],[-19,6],[-10,8],[-11,19],[-20,16],[-19,-3],[-9,-15],[-17,-10],[-10,-20],[-7,-8],[-23,-15],[-18,0],[-12,-6],[-13,1],[-26,13],[-23,4],[-3,9],[13,10],[3,18],[-15,7],[-24,-7],[-11,1],[-12,9],[-18,3],[-11,-3],[-38,6],[-13,6],[-12,-2],[-9,15],[13,14],[-4,25],[-16,42],[-10,6],[-37,4],[-21,-11],[-38,7],[-24,-7],[-25,3],[-15,-1],[-14,-9],[13,-32],[-12,-8],[-29,6],[-15,8],[2,14],[-5,14],[-10,1],[-12,-7],[-26,-8],[-27,-4],[-15,2],[-14,10],[-22,30],[-17,1],[-17,8],[-12,2],[-17,-5],[-18,-15],[-25,-11],[-11,7],[-18,29],[-12,7],[-43,47],[-30,-9],[-22,-1],[-3,-6],[-20,0],[-9,15],[4,11],[-1,21],[-18,0],[-18,18],[3,11],[-19,10],[-38,5],[-13,5],[-19,14],[-28,-8],[-34,-5],[-9,-38],[-5,-6],[-28,-3],[-15,-16],[8,-25],[10,-12],[-4,-16],[13,-3],[11,-12],[-5,-11],[-24,-6],[-32,4],[-49,16],[-53,4],[-36,10],[-15,25],[-12,9],[-24,9],[-14,-3],[-29,-17],[-56,-25],[-15,-2],[-26,2],[-12,-4],[-17,11],[-6,34],[-12,2],[-2,28],[-5,8],[-26,9],[-29,17],[-3,12],[-88,36],[-35,13]],[[1057,1400],[7,2],[360,72],[243,69],[62,30],[205,32],[58,-7],[2,-5],[27,0],[17,8],[20,-8],[36,-21],[27,2],[23,-2],[23,-6],[32,-1],[27,-9],[42,-11],[33,-4],[73,-16],[11,12],[9,-7],[13,2],[49,-11],[3,5],[15,-3],[30,3],[14,17],[30,-16],[13,21],[10,30],[23,-1],[30,7],[38,-8],[31,25],[14,-3],[128,57],[121,57],[94,52],[22,16],[18,23],[24,34],[10,21],[8,29],[13,25],[18,23],[18,27],[19,20],[18,14],[70,19],[69,38],[33,15],[56,32]],[[1057,1400],[-33,7],[-41,15],[-24,17],[-14,23],[-7,22],[-10,57],[-10,25],[-36,34],[-54,77],[-26,55],[-8,15],[-34,38],[-17,24],[-23,64],[-10,16],[-18,20],[-9,17],[-2,15],[25,12],[29,25],[39,20],[68,21],[4,7],[26,1],[14,8],[2,7],[18,4],[11,-2],[28,16],[-2,6],[26,11],[18,13],[3,6],[30,-5],[35,5],[16,-1],[21,5],[10,9],[8,0],[10,-17],[11,-1],[32,-13],[-6,-5],[13,-9],[21,-7],[35,-3],[11,7],[11,-1],[4,9],[12,-1],[10,15],[28,-5],[-2,10],[22,2],[1,7],[12,-2],[16,15],[-5,4],[5,12],[-5,15],[18,13],[1,11],[18,0],[30,6],[15,7],[18,16],[17,-4],[22,8],[19,-4],[15,5],[18,17],[-9,5],[26,23],[1,10],[12,0],[12,7],[-7,4],[33,10],[92,26],[190,80],[120,25],[31,6],[29,28],[61,40],[46,38],[130,99],[23,13],[1,10],[12,26],[28,0],[2,8],[11,12],[15,8],[0,23],[35,27],[15,6],[11,-9],[9,1],[4,-14],[13,1],[7,15]],[[2490,2744],[24,10],[9,12],[2,19],[57,13],[31,-6],[33,-14],[19,3],[11,19],[18,11],[8,14],[21,-15],[13,1],[36,20],[11,-1],[29,-20],[51,-16],[20,5],[14,-3],[24,11],[11,2],[12,-9],[20,-4],[-2,-11],[-13,-13],[23,-5],[9,-7],[-4,-11],[15,-16],[0,-6],[-17,-6],[-13,-16],[5,-22],[9,-6],[49,2],[17,-8],[1,-13],[-7,-21],[5,-6],[-1,-21],[-10,-5],[3,-21],[17,-17],[3,-19],[58,-4],[9,8],[13,-1],[15,-16],[30,6],[14,-5],[6,-15],[31,1],[11,15],[13,3],[7,-6],[5,-16],[15,-11],[20,1],[23,-11],[4,-9],[-9,-6],[-5,-15],[9,-13],[8,11],[19,2],[12,-19],[-14,-8],[-26,-8],[7,-8],[40,-2],[11,-5],[2,-17],[10,-19],[10,-3],[9,8],[35,3]],[[3445,2389],[7,-4],[-11,-26],[-25,3],[-6,-17],[13,-14],[20,-4],[16,-9],[11,-14],[-20,-23],[-6,-13],[0,-19],[-5,-16],[3,-5],[25,-10],[3,-6],[-7,-10],[6,-17]],[[3517,2543],[20,-24],[8,-17],[-6,-7],[8,-4],[-4,-12],[-6,0],[-21,-18],[-12,3],[-29,-8],[-8,-20],[13,-11],[13,-5],[-6,-8],[-21,-5],[-6,-11],[-15,-7]],[[2490,2744],[-9,11],[-10,3],[-1,25],[-20,10],[-2,16],[-11,14],[-18,-2],[-4,5],[12,5],[-12,2],[-10,11],[-22,7],[-3,-7],[9,-11],[-23,-9],[-11,2],[-9,-8],[-30,17],[-20,4],[10,4],[-4,10],[-16,2],[-11,7],[-18,-4],[-37,0],[-24,5],[2,9],[-18,3],[-9,6],[-2,-11],[-11,0],[-3,16],[-27,-2],[1,9],[-10,3],[7,8],[-11,1],[-6,17],[-26,-3],[-22,7],[-7,11],[-2,18],[12,2],[-10,9],[11,7],[-26,11],[-8,8],[6,4],[-11,5],[6,10],[-12,2],[-6,39],[-14,-10],[-12,5],[-5,16],[16,1],[-12,8],[-9,21],[7,10],[-16,-4],[-20,5]],[[1949,3104],[4,10],[-5,17],[-9,5],[-5,12],[-8,-1],[-28,17],[-24,33],[0,13],[11,9],[-20,19],[18,14],[6,26],[-3,37],[5,16],[-9,4],[3,35],[-8,17],[0,16],[-5,11],[-43,27],[-11,19],[-3,15],[-9,12],[-3,13],[-9,6],[11,4],[2,8],[-21,18],[-1,17],[-11,7],[10,7],[-13,13],[-5,10],[29,14],[-12,12],[27,24],[11,-2],[19,11],[10,0],[6,12],[-6,15],[2,14],[-5,7],[7,16],[-1,15],[15,2],[8,11],[19,-3],[11,18]],[[1906,3756],[25,-3],[26,-14],[101,-47],[28,-15],[88,-44],[77,-41],[18,-25],[37,-36],[33,-25],[23,-14],[34,50],[1,28],[7,22],[19,20],[22,32],[20,0],[6,4],[27,-6],[27,-13],[11,-8],[2,-11],[13,4],[9,-7],[20,-1],[13,-4],[14,7],[20,-13],[19,-7],[20,-1],[13,-31],[18,-20],[27,-9],[13,-10],[-5,-11],[7,-10],[23,-13],[9,5],[25,-23],[8,9],[8,-5],[4,-19],[8,-5],[18,-4],[32,-16],[14,0],[5,-9],[-7,-15],[18,-30],[-6,-13],[7,-11],[-7,-5],[-2,-12],[20,-6],[-4,-11],[16,-11],[19,-2],[12,-10],[5,-14],[14,-11],[9,-2],[5,7],[17,-5],[21,1],[8,-19],[15,-5],[2,-6],[-8,-15],[2,-8],[14,-11],[13,-2],[0,-7],[30,-4],[3,-14],[7,-2],[24,8],[30,6]],[[4076,3918],[-47,-18],[-41,-30],[-8,2],[9,-38],[1,-24],[11,-41],[-40,-12],[1,-16],[-13,-7],[-22,-5],[-28,-2],[-11,-16],[5,-20]],[[1906,3756],[4,5],[17,-2],[0,-4],[15,11],[19,-7],[10,8],[10,1],[8,15],[21,5],[4,22],[13,21],[9,-6],[2,13],[-5,13],[7,10],[-10,15],[-8,3],[-2,13],[11,19],[18,5],[-3,10],[11,3],[1,16],[10,-3],[9,17],[-8,10],[5,9],[-2,13],[10,3],[-3,7],[11,1],[7,15],[15,8],[3,15],[-8,22],[6,19],[-12,12],[-17,8],[1,5],[-19,-3],[-5,3],[-35,-10],[-8,9],[-20,6],[-4,11],[-11,6],[-9,15],[-36,13],[-9,9],[-22,4],[-13,11],[-61,11],[-19,17],[-26,7],[-5,21],[-12,4],[-18,24],[-21,10],[-12,26],[-14,14],[-19,14],[-13,18],[-14,7]],[[1660,4353],[23,24],[8,17],[-2,35]],[[1689,4429],[33,-15],[32,-9],[16,-13],[46,-1],[50,4],[25,4],[32,10],[44,24],[60,22]],[[1949,3104],[-17,-2],[-19,10],[-16,-3],[-17,12],[2,6],[-23,9],[-30,1],[9,10],[-34,7],[-21,-7],[1,15],[-12,1],[11,5],[4,13],[-15,-2],[-11,12],[-9,-4],[-31,24],[9,22],[-13,-2],[2,11],[13,-1],[3,9],[-10,2],[7,6],[-15,2],[16,5],[7,25],[-22,-2],[-9,7],[10,4],[2,9],[11,-8],[-6,11],[14,3],[-6,5],[18,3],[-7,8],[13,2],[13,15],[-4,8],[9,2],[-11,15],[-7,18],[-19,12],[-23,-5],[8,17],[-28,17],[18,0],[-9,14],[6,3],[5,19],[-11,-3],[-5,13],[-14,3],[16,9],[-1,13],[-10,7],[4,19],[-6,6],[2,11],[13,1],[-8,5],[9,13],[-1,12],[-20,-12],[-11,4],[-17,24],[-26,-1],[-1,8],[-42,-6],[-16,20],[-7,30],[6,2],[-2,20],[-16,10],[-6,17],[-9,9],[-16,-6],[-9,6],[0,13],[-6,7],[-8,-3],[6,-9],[-15,-3],[3,7],[-27,-7],[-10,-12],[-21,9],[-9,-6],[-18,-2],[1,17],[-9,4],[-14,-8],[-17,-1],[-4,-19],[-22,-9],[-13,8],[11,9],[-14,-3],[-17,4],[-4,-4],[-23,27],[-21,7],[-14,1],[-3,13],[-18,10],[8,11],[-18,4],[4,9],[-16,3],[7,17],[-26,-13],[-4,5],[-17,0],[-4,-8],[-16,6],[1,8],[-17,1],[-17,18],[5,5],[-7,8],[-18,-1],[1,12],[-6,3],[9,10],[-9,4],[-4,-8],[-23,8],[-25,4],[-9,-8],[-3,14],[-14,-1],[-3,13],[5,15],[-22,19],[4,17],[-17,3],[-18,-2],[2,7],[-16,4],[-19,12],[-26,-10],[-9,-18],[-15,7],[-2,7],[-17,-2],[-3,9],[-18,7],[9,9],[-11,-1],[-12,10],[-9,-3],[4,18],[-16,-3],[10,11],[-8,1],[2,17],[-18,10],[-2,15],[8,3],[-8,12],[-9,1],[-6,10],[14,4],[-20,5],[-12,19],[19,15],[24,13],[9,3],[20,-6],[25,6],[6,18],[-2,8],[8,18],[15,18],[-4,25],[4,7],[19,-2],[6,7],[-4,28],[1,17],[-14,11],[-8,21]],[[874,4295],[7,5],[89,33],[69,9],[14,-12],[68,-40],[25,-10],[22,-18],[24,-12],[44,-10],[46,-4],[67,16],[38,7],[94,5],[30,39],[7,20],[63,11],[24,6],[14,11],[18,5],[23,-3]],[[6071,470],[-5,8],[-36,9],[-15,11],[-17,-2],[-9,-8],[2,-12],[-10,-6],[-29,0],[-26,8],[-16,-1],[0,-23],[-3,-11],[-18,-9],[-5,-17],[-14,4],[-16,13],[-24,12],[-23,23],[-20,15],[-54,0],[-49,15],[-14,-2],[-21,-11],[-2,-9],[9,-12],[13,-3],[30,-1],[6,-3],[1,-16],[-10,-13],[-10,-4],[-34,-4],[-16,8],[-3,12],[-19,10],[-25,-3],[-17,4],[-34,18],[-24,23],[-17,6],[-46,-13],[-20,13],[-31,44],[-22,10],[-24,1],[-1,7],[13,13],[-2,7],[-12,4],[-15,19],[-25,25],[-26,11],[-17,-7],[5,-29],[-9,-16],[15,-19],[-42,-64],[-15,-9],[-32,2],[-9,4],[-17,16],[-9,41],[-30,3],[-14,8],[16,40],[-4,13],[-19,15],[-25,7],[4,12],[22,12],[36,14],[2,11],[-17,17],[-15,6],[-26,-3],[-11,5],[-13,14],[-19,2],[-27,9],[-6,17],[-15,13],[-8,18],[-22,-3],[-20,16],[-19,3],[-15,-9],[-10,12],[8,6],[25,7],[34,5],[44,-1],[11,4],[2,12],[-9,15],[-6,25],[-5,15],[-14,11],[-24,-1],[-31,-14],[-32,0],[-14,-12],[-10,2],[-17,13],[-37,7],[-22,-7],[10,35],[20,11],[31,8],[0,9],[-7,5],[-18,3],[0,7],[28,15],[46,20],[5,8],[-2,14],[-37,0],[-54,8],[-23,6],[-17,8],[-17,2],[-9,-5],[-14,-16],[-13,0],[-27,23],[4,16],[-28,12],[-7,21],[-8,11],[-29,3],[-33,10],[-7,11],[-5,34],[27,14],[16,3],[20,-1],[17,12],[-12,16],[-23,1],[-38,11],[-14,0],[-18,-10],[-15,-13],[-18,-8],[-12,16],[-19,5],[-23,-6],[-24,-2],[-13,2],[-4,8],[7,17],[1,16],[44,4],[14,14],[5,19]],[[5042,8770],[-17,14],[-33,15],[-3,15],[-15,-9],[-6,8],[-14,-1],[0,8],[12,-5],[4,21],[-14,2],[-8,13],[-10,3],[-1,9],[-12,0],[-1,11],[-21,15],[1,8],[-12,-7],[-19,2],[-19,-3],[-1,-8],[9,1],[2,-13],[-8,4],[-16,-6],[-14,16],[-29,-8],[-15,1],[-14,-6],[-4,-9],[10,-22],[-18,-7],[-17,4],[-27,0],[-15,5],[-7,-15],[-12,4],[13,17],[-10,3],[-15,19],[-15,-9],[-12,2],[-15,-4],[-3,-15],[-18,-2],[-8,7],[-14,-5],[0,7],[-13,-5],[-8,-12],[-21,0],[-11,10],[-15,-10],[-9,10],[8,5],[-14,11],[6,10],[-14,-1],[-2,6],[-18,10],[-6,-12],[-11,-5],[-19,2],[-23,23],[-18,-2],[-9,7],[10,12],[-7,4],[-21,-12],[2,-13],[-14,6]],[[4354,8894],[-9,-7],[-16,1],[-13,-11],[9,-6],[-9,-18],[-7,0],[5,15],[-10,2],[-5,-7],[-20,9],[13,-13],[-14,-11],[-17,3],[0,-9],[14,0],[-2,-19],[-10,-3],[0,-9],[-32,-24],[-16,-27],[-15,-8],[5,-7],[-14,-1],[-23,-16],[-9,-2],[6,-9],[-13,4],[-6,-6],[-25,4],[3,-21],[-14,4],[-1,-9],[10,-3],[-10,-6],[-11,9],[4,-14],[-10,-5],[10,-5],[-14,-15],[-15,5],[3,-9],[14,-6],[-17,-8],[-7,4],[-13,-5],[-4,-14],[-10,-2],[-5,-9],[-16,-2],[-13,5],[-10,-10],[-21,8],[-16,-4],[-2,21],[6,6],[-17,13],[-21,-8],[1,-11],[-7,4],[-4,-8],[-17,4],[-13,-4]],[[3884,8624],[-7,-9],[-11,-2],[-2,12],[-12,-1],[4,-14],[-8,7],[-3,-9],[-12,-3],[-7,8],[-2,-15],[-12,-6],[18,220],[69,58],[-1,9],[17,0],[7,9],[24,12],[-6,4],[15,4],[-1,10],[-10,6],[3,7],[21,-3],[83,69]],[[4051,8997],[46,49],[48,10],[13,8],[24,8],[8,13],[9,0],[5,9],[16,-1],[-5,26],[2,8],[17,5],[28,-2],[8,6],[17,1],[-23,35],[-45,58],[-21,23],[-20,31],[-10,25],[-2,23],[9,15],[-3,16],[-8,16],[-31,13],[13,22],[0,21],[7,4],[-22,55],[16,2],[20,16],[-14,18],[0,11],[20,32],[-12,16],[-5,35],[-31,55]],[[4125,9679],[-38,74],[-19,24],[-12,25],[-11,17],[-19,38],[-8,46],[1,30],[8,38],[28,-1],[25,11],[23,-1],[46,-8],[15,5],[2,-13],[19,-1],[17,-7],[14,5],[6,-8],[15,-2],[19,-18],[17,4],[15,-11],[8,9],[11,-3],[12,27],[11,16],[-1,9],[13,9],[11,-3],[10,9],[16,-2],[-3,-7],[22,0],[0,-15],[16,-6],[11,-19],[18,4],[30,-11],[1,-7],[32,-2],[15,-21],[12,-3],[1,-8],[19,3],[10,-19],[26,2],[-11,-11],[4,-13],[-9,-2],[-8,7],[4,-20],[10,3],[0,-14],[12,-26],[13,-6],[31,5],[186,47],[2,-25],[3,-67],[-1,-29],[5,-83],[5,-27],[-4,-38],[5,-47],[0,-24],[8,-31],[18,-41],[21,-70],[12,-46],[11,-65],[-1,-46],[3,-43],[13,-100],[8,-44],[1,-33],[4,-21],[14,-53],[11,-22],[43,-65],[40,-68]],[[2114,7888],[-5,8]],[[2109,7896],[15,3],[36,-4],[15,-11],[16,1],[15,6],[24,25],[-3,12],[7,8],[20,-1],[9,-10],[32,25],[12,12],[10,1],[13,9],[22,25],[17,3],[14,-11],[31,-10],[9,1],[14,10],[8,-1],[7,9],[11,0],[-4,25],[-13,19],[-16,9],[-28,8],[-13,6],[-12,17],[-3,12],[11,2],[14,-8],[15,-3],[9,-6],[23,16],[9,12],[12,-5],[30,5],[6,17],[-8,8],[1,16],[-3,17],[10,11],[26,7],[26,1],[14,14],[10,-13],[17,-3],[22,2],[15,11],[10,13],[18,4],[-4,18],[8,18],[-2,9],[-11,10],[2,15],[7,7],[6,30],[5,10],[31,25],[29,8],[1,17],[10,44],[-4,17],[11,22],[10,1],[33,14],[8,14],[3,15],[30,16],[20,21],[6,15],[23,27],[23,45],[-14,12],[-6,31],[-12,33],[-1,13],[5,15],[15,6]],[[2893,8740],[41,1],[18,15],[13,-1],[9,-13],[91,3],[159,74],[9,0],[9,12],[49,-9],[7,30],[-5,14],[11,18],[8,-3],[26,17],[20,-16],[367,172],[13,-1],[18,-22],[20,-9],[32,12],[20,0],[11,-12],[0,-9],[12,-10],[17,0],[-6,-7],[16,-1],[141,12],[14,-1],[18,-9]],[[3884,8624],[48,-48],[15,-12],[3,-22],[5,-8],[-1,-14],[4,-3],[0,-47],[9,-25],[9,0],[-5,-12],[21,0],[8,-13],[-29,-13],[-8,4],[3,-11],[-12,-7],[10,-4],[-8,-10],[-1,-13],[15,-13],[-19,-7],[-2,-17],[-6,-11],[-14,-1],[7,-11],[-8,-14],[-32,7],[-31,-7],[-24,1],[-4,-8],[9,-6],[7,-20],[-12,-8],[-14,8],[-5,-7],[11,-22],[-17,3],[-1,-11],[10,0],[-11,-15],[-8,-2]],[[3806,8205],[-23,2],[-1,-7],[12,2],[-12,-10],[-20,2],[-1,-9],[9,-8],[-26,-2],[5,-7],[-9,-3],[10,-5],[-10,-9],[10,-4],[-17,-15],[9,0],[-4,-9],[-23,-26],[1,-12],[-13,5],[-1,-5],[10,-11],[-19,-4],[-2,6],[-16,-3],[8,-13],[-13,4],[10,-15],[-12,-5],[-12,2],[4,-9],[-11,-5],[11,-9],[26,-1],[20,-7],[-10,-6],[0,-14],[-12,-8],[-5,8],[-12,-7],[2,-6],[11,2],[8,-6],[-2,-10],[-14,-8],[-18,-1],[-6,6],[-11,-7],[-3,11],[-24,-5],[-131,-50],[-268,-18],[-12,-41],[5,-133],[5,-11],[13,-8],[36,-12],[11,3],[28,-2],[24,-21],[14,2],[11,-4],[29,4],[3,-2]],[[3806,8205],[8,-5],[63,-6],[80,2],[49,-8],[32,3],[52,0],[72,-4],[30,1],[17,9],[13,1],[39,-5],[33,-7],[35,4],[40,12]],[[4369,8202],[151,-153],[112,11]],[[4632,8060],[-4,-14],[14,0],[2,-7],[19,-5],[-14,-7],[2,-6],[13,-3],[10,-14],[-13,-1],[-8,11],[-6,-9],[3,-12],[12,-15],[14,-2],[10,-15],[11,1],[-1,-10],[-21,-11],[-5,-9],[6,-13],[-9,0],[-1,-9],[-9,2],[-9,-8],[11,-9],[-19,-11],[12,-12],[-14,-1],[4,-11],[14,4],[12,-4],[3,-11],[7,-2],[-17,-7],[15,-8],[2,-12],[13,-14],[-7,-7],[-13,0],[-4,-20],[4,-7],[-12,0],[0,-7],[-10,-8],[11,-15],[15,8],[1,-8],[12,4],[12,-6],[-12,-12],[4,-17],[-5,-11],[34,-2],[2,-25],[-13,-7],[0,-12],[29,-25],[-11,-1],[4,-14],[-3,-9],[7,-21],[-4,-5],[15,-5],[4,-8],[-11,-7],[10,-1],[13,-15],[-17,-3],[15,-5],[11,4],[-2,-11],[21,-6],[-13,-6],[21,-10],[7,-11],[-8,-9],[5,-5],[-12,-11],[2,-9],[-11,-6],[0,-12],[14,1],[0,-10],[-11,-3],[0,6],[-21,-9],[15,-18],[-9,4],[-21,-5],[12,-15],[-31,-29],[1,-19],[-13,-3],[5,-21],[15,5],[3,-16],[10,0],[0,-22],[-14,-14],[1,-14],[13,-14],[-7,-12],[23,-4],[2,9],[8,-5],[-13,-15],[7,-5],[16,-1],[6,-20],[9,-8],[-8,-14]],[[4632,8060],[-6,10],[19,0],[12,9],[-3,6],[21,7],[8,12],[-13,16],[15,9],[9,-1],[4,13],[-4,12],[8,7],[4,12],[-4,10],[10,10],[28,-2],[11,-8],[24,-3],[19,4],[-2,-16],[14,5],[4,-4],[35,0],[10,-11],[0,-9],[25,3],[5,-9],[23,1],[6,7],[7,-4],[19,1],[17,-16],[15,-3],[35,5],[15,-3],[-5,-4],[13,-8],[9,-22],[10,-2],[14,8],[7,17],[32,-8],[22,8],[20,-1],[7,15],[10,3],[3,18],[-2,10],[79,79]],[[5241,8243],[11,-22],[20,-24],[36,-23],[19,-17],[15,-19],[80,-51],[1,-12],[23,-10],[9,-32],[10,-17],[16,-4],[12,-19],[-4,-12],[6,-4],[23,3],[-10,-18],[-2,-11],[7,-10],[25,-14],[12,-12],[29,-55],[6,-23],[13,-28],[18,-49],[17,-37],[45,-86],[13,-27],[36,-64],[17,-29],[-2,-14],[11,-41],[24,-67],[4,-3],[196,-409]],[[2893,8740],[-37,18],[-36,39],[-9,22],[-15,22],[-9,20],[-23,25],[-43,18],[-22,13],[-38,38],[-48,42],[-8,57],[-93,13],[-40,4],[-13,8],[-23,1],[-8,4],[-16,23],[-18,32],[-19,43],[-23,5],[0,12],[-8,7],[2,10],[-8,7],[-4,12],[-14,-1],[-4,10],[-11,2],[-2,19],[-15,10],[20,14],[-4,28],[-9,-3],[-15,19],[-19,5],[-9,15],[1,13],[-11,11],[-10,22],[8,12],[15,12],[-1,9],[9,9],[-5,13],[22,3],[3,16],[-8,10],[10,-1],[13,27],[-6,8],[11,6],[-4,12],[11,2],[5,10],[-8,1],[-13,10],[-2,13],[15,3],[-14,17]],[[2293,9591],[6,7],[-5,10],[11,13],[10,1],[0,9],[-9,1],[12,11],[10,-2],[16,17],[5,10],[7,-6],[10,9],[15,1],[-6,9],[12,-3],[26,12],[-2,17],[-9,-2],[3,10],[37,4],[8,6],[26,6],[22,2],[27,8],[23,-2],[14,-17],[8,1],[-1,-12],[24,0],[6,6],[27,-18],[1,-6],[21,-6],[12,6],[14,-1],[20,-9],[10,7],[18,-20],[37,-17],[16,2],[24,-12],[126,-20],[14,-3],[28,4],[72,2],[79,-27],[25,-1],[23,6],[73,14],[11,-3],[21,-13],[28,-5],[31,-9],[16,1],[-2,-5],[16,-9],[15,4],[7,8],[12,-7],[33,-10],[36,-14],[24,-2],[32,8],[28,0],[3,5],[55,-8],[14,6],[29,-2],[65,-10],[63,-4],[124,49],[72,17],[78,45],[46,11],[12,0],[17,8]],[[4354,8894],[13,-33],[10,0],[23,-15],[-1,-4],[19,-8],[-9,-22],[21,-23],[10,-3],[39,-52],[7,-28],[25,-28],[2,-22],[-16,-52],[2,-25],[6,-36],[-1,-19],[14,-40],[-45,-152],[-85,-114],[-19,-16]],[[2109,7896],[-12,-11],[-35,37],[-15,23],[14,18],[7,17],[-8,15],[2,16],[12,2],[22,-2],[43,-11],[58,4],[8,6],[-2,27],[2,24],[9,31],[6,10],[20,9],[8,8],[2,32],[16,59],[5,28],[-4,25],[-6,4],[-28,3],[-13,5],[-12,20],[-21,28],[-19,30],[-2,18],[11,16],[23,20],[6,15],[2,20],[-8,49],[-11,25],[-32,40],[-70,47],[-32,19],[-48,21],[-39,14],[-2,6],[12,13],[1,13],[-5,15],[-9,9],[-28,18],[-21,19],[-2,12],[1,29],[-3,22],[-16,51],[-26,55],[-49,73],[-13,44],[-20,24],[-1,21],[-28,25],[-35,18],[-24,27],[-9,-1],[-24,-11],[-7,1],[-23,23],[-42,61],[-27,44],[-20,23],[-40,12],[-10,9],[-20,26],[-22,33],[40,-3],[18,32],[12,3],[16,-3],[11,9],[13,2],[8,15],[-2,13],[20,4],[15,13],[21,2],[16,16],[23,1],[14,18],[35,6],[-1,6],[34,-3],[-1,4],[16,5],[19,-11],[-13,-18],[5,-7],[-12,-6],[-1,-8],[29,3],[24,-17],[4,-15],[14,-5],[13,-14],[33,3],[11,-12],[17,-7],[2,-7],[33,2],[17,-9],[-7,-11],[26,-18],[16,7],[5,-6],[18,4],[4,8],[13,-3],[9,10],[18,-2],[33,11],[3,-5],[22,8],[0,7],[10,-1],[5,19],[10,6],[-9,7],[13,5],[3,8],[22,2],[-1,9],[-13,5],[16,10],[-10,4],[15,13],[-20,12],[-2,18],[23,7],[9,-5],[17,8],[15,-3],[11,12],[8,-3],[26,21],[-9,3],[-11,15],[11,1],[-1,11],[12,0],[-2,7],[17,-3],[9,10]],[[5042,8770],[7,-76],[9,-38],[-2,-18],[-12,-49],[1,-19],[-12,-35],[-4,-17],[2,-21],[-4,-16],[2,-16],[33,-38],[30,-26],[29,-22],[30,-19],[63,-67],[27,-50]],[[1689,4429],[-9,47],[-4,6],[10,36],[-9,91],[-50,169],[-115,333],[-2,13],[-11,19],[1,25],[-5,19],[-15,18],[-6,17],[-49,29],[-54,27],[-243,-3],[-161,67],[-18,4],[-51,-3],[-29,18],[-10,2],[-10,40],[-14,30],[-22,25],[-2,29],[-15,14],[-18,11],[0,11],[15,22],[24,22],[24,28],[12,26],[4,20],[13,1],[28,22],[31,15],[15,4],[13,9],[52,20],[50,24],[5,16],[2,49],[4,17],[26,50],[0,38],[32,47],[20,46],[1,10],[16,14],[11,25],[-2,8],[-14,9],[-7,12],[-18,8],[-1,26],[-10,-5],[-13,5],[-14,29],[17,18],[11,26],[-26,3],[-22,-5],[-28,-3],[-22,-8],[-20,11],[-30,4],[-10,16],[-14,2],[-10,20],[-21,6],[-9,17],[2,43],[6,22],[-17,8],[-2,11],[12,7],[19,1],[0,8],[27,12],[6,11],[-4,4],[10,11],[16,7],[28,6],[63,-2],[13,22],[-1,24]],[[1091,6442],[21,-9],[1,-10],[-10,-3],[13,-7],[-7,-10],[11,0],[11,-6],[21,14],[8,-8],[17,-5],[11,-11],[-5,-9],[-20,6],[1,-17],[-8,-16],[18,1],[-16,-14],[17,0],[9,8],[0,-21],[25,2],[0,-12],[14,10],[5,-10],[11,-4],[3,-10],[-12,2],[5,-9],[16,5],[-7,-21],[22,4],[1,-7],[-11,-7],[15,-8],[16,1],[-27,-12],[14,-9],[11,0],[-16,-11],[16,-8],[4,-11],[10,-6],[0,-7],[13,-6],[15,6],[2,8],[17,-3],[11,-7],[5,7],[10,-9],[0,-9],[15,-8],[8,3],[18,-12],[11,-21],[10,3],[12,-8],[21,5],[-4,-11],[11,-4],[-27,-1],[2,-15],[-10,-8],[10,-4],[-8,-6],[14,-8],[2,-13],[-14,-7],[11,-1],[0,-10],[16,10],[6,-2],[-19,-19],[2,-15],[15,-9],[6,-19],[14,-2],[-5,11],[11,1],[1,-18],[18,1],[-2,11],[17,-12]],[[1534,5996],[11,-12],[-15,-17],[-10,2],[1,-12],[17,-18],[-9,-6],[2,-13],[11,-3],[-12,-8],[8,-5],[-10,-4],[15,-3],[-19,-8],[10,-10],[25,-7],[1,-8],[12,1],[9,-8],[10,3],[11,-10],[10,5],[16,-4],[-18,-5],[16,-10],[13,0],[22,-6],[-15,-10],[-8,-15],[-1,-19],[14,-36],[17,-21],[20,-76],[14,-9],[47,-11],[31,-12],[20,2],[14,-4],[1,-17],[18,-15],[-17,-6],[-33,-26],[-6,-13],[3,-6],[-10,-9],[9,-9],[-5,-16],[-12,-10],[11,-26],[8,-7],[0,-10],[-9,-3],[-3,-14],[19,-26],[14,-7],[4,-18],[-1,-13],[-13,-22],[-2,-16],[-23,-9],[-16,0],[-19,-23],[-26,4],[-10,-2],[-26,-20],[-16,-5],[-6,6],[-20,-12],[1,-25],[-14,-26],[-13,-6],[-9,-10]],[[1895,6265],[-22,4],[-63,21],[-26,0],[-20,7],[-23,-13],[-23,-19],[2,-6],[-10,-17],[5,-13],[-6,-11],[-30,-5],[-17,-9],[-1,-6],[-20,-4],[-8,-14],[-23,-4],[2,-22],[-10,0],[1,-9],[-12,-14],[3,-6],[-20,-9],[-13,-11],[0,-5],[-21,-14],[7,-7],[-4,-12],[-11,2],[-3,-9],[18,-8],[1,-28],[9,-19],[-10,-15],[-13,6]],[[1091,6442],[9,15],[-21,-1],[4,9],[-7,10],[-4,-8],[-10,10],[-14,-10],[-8,14],[-9,-7],[-27,5],[-10,-5],[-30,2],[-8,-3],[-25,2],[-5,8],[-15,-2],[-10,-14],[-37,5],[-14,8],[-20,1],[-17,8],[-20,0],[-26,-14],[-24,6],[-14,-1],[-30,7],[-20,0],[-15,-9],[-5,11],[-11,6],[-11,-4],[-7,14],[13,6],[-48,6],[-39,10],[-35,14]],[[521,6541],[-34,29],[-52,58],[-14,13],[-16,8],[-25,2],[-2,12],[-13,17]],[[365,6680],[16,5],[66,6],[16,-4],[44,6],[31,1],[24,5],[25,15],[34,-5],[91,51],[7,-10],[-11,-13],[13,-5],[2,-6],[-12,-10],[3,-6],[23,-4],[19,28],[19,3],[17,7],[-2,15],[12,9],[18,3],[10,12],[6,16],[19,22],[17,9],[14,21],[14,13],[22,32],[14,10],[10,17],[13,29],[13,10],[13,27],[22,10],[32,30],[13,20],[15,14],[6,19],[-24,47],[-8,28],[6,39],[21,89],[81,46],[26,13],[44,18],[26,15],[58,22],[30,16],[41,12],[19,12],[31,29],[16,23]],[[1440,7491],[17,-1],[15,12],[13,23],[12,8],[15,1],[26,-26],[16,-6],[22,-2],[6,-20],[13,-9],[-1,-5],[24,-10],[17,-10],[1,-6],[20,-10],[30,-6],[12,-13],[18,0],[20,-5],[5,-7],[17,-45],[10,-21]],[[874,4295],[-37,28],[-13,7],[-30,8],[-38,37],[-72,121],[9,38],[17,35],[11,42],[-87,44],[-9,6],[-1,13],[-16,13],[2,8],[-9,1],[4,20],[9,3],[4,13],[43,40],[-1,14],[8,12],[13,1],[17,13],[2,12],[12,-3],[6,6],[8,-6],[16,1],[11,9],[-9,3],[3,8],[23,4],[-1,15],[17,6],[11,-2],[11,5],[-8,-12],[-1,-15],[36,-20],[1,-23],[218,-114],[39,-40],[16,-9],[19,-16],[58,-39],[13,-6],[18,-16],[23,-50],[9,1],[30,-6],[8,1],[27,-4],[15,-8],[4,-10],[12,-6],[2,-8],[29,-6],[-3,-8],[9,-4],[14,-26],[16,0],[14,-15],[2,-12],[13,-7],[1,-9],[10,-11],[-2,-12],[9,-7],[-6,-10],[8,-4],[-9,-5],[3,-10],[12,-6],[2,-15],[51,44],[94,30],[36,25],[-10,133],[-12,37],[0,25],[-24,113],[-27,34],[-12,5],[0,7],[-14,2],[-8,6],[-18,2],[-17,12],[-12,39],[-129,358],[-100,-7],[-3,-3],[-26,15],[10,8],[-4,9],[-9,-7],[-6,4],[-3,15],[10,9],[-9,-1],[-5,-16],[-11,-2],[-18,5],[-2,-18],[-9,13],[-21,16],[-15,0],[-2,10],[-17,19],[-20,-5],[-14,-10],[-13,6],[-9,-2],[-1,-12],[5,-8],[-25,-8],[-18,-9],[-2,10],[-16,-4],[1,14],[-16,3],[-4,10],[-10,1],[-9,10],[-11,-5],[-8,15],[-14,2],[7,6],[4,15],[-9,-3],[-4,17],[-17,-1],[1,8],[-10,1],[17,14],[-9,0],[-11,25],[-9,-1],[-12,-13],[-31,8],[-6,5],[-19,-4],[-6,8],[-11,-3],[-13,7],[-5,-8],[-8,4],[-13,-11],[-24,9],[-1,11],[11,14],[-21,15],[-3,13],[-23,22],[-21,27],[-25,40],[-13,3],[-8,12],[-2,20],[-8,22],[-22,-4],[-13,6],[-51,-10],[-17,-8],[-11,-10],[-29,-1],[-43,-4],[-3,31],[-11,11],[3,7],[19,14],[9,12],[1,27],[-32,-9],[-27,16],[-25,1],[-23,8],[3,25],[6,5],[-68,26],[8,22],[-20,7],[-7,8],[-59,44],[-75,43],[-124,111],[3,13],[18,23],[8,38],[31,-2],[-8,31],[-6,37],[15,17],[30,24],[4,15],[22,6],[18,0],[42,-8],[67,-3],[152,7],[101,59],[26,16],[-1,16],[6,30],[-19,28],[-13,9],[-8,13],[-12,9],[-20,30],[-19,45],[-4,46],[0,23],[19,2],[36,16],[9,12],[6,41],[-5,22],[-7,14]],[[365,6680],[-21,-2],[-20,8],[-19,17],[-18,20],[-45,34],[-2,20],[-54,28],[-19,12],[-47,36],[-11,11],[-28,34],[-16,11],[-35,15],[-14,10],[-15,15],[-1,25],[8,12],[23,6],[2,7],[19,8],[21,3],[5,9],[21,12],[16,-5],[20,14],[23,3],[4,16],[-20,24],[23,20],[-6,23],[-13,2],[-24,12],[3,17],[-1,18],[-21,5],[4,24],[-7,9],[-6,23],[-14,14],[16,4],[2,10],[9,-1],[8,29],[16,1],[0,16],[-14,1],[-12,11],[-2,18],[7,12],[-5,5],[7,14],[-8,14],[6,13],[-27,15],[12,2],[1,16],[24,14],[14,0],[11,10],[7,16],[42,4],[6,8],[11,-1],[28,-26],[12,-17],[12,4],[12,22],[48,3],[1,-8],[23,4],[2,-6],[21,-9],[23,-2],[7,5],[16,-1],[63,13],[16,-5],[23,3],[9,9],[20,0],[13,-4],[19,3],[2,-7],[21,3],[18,-8],[11,10],[36,1],[17,-9],[10,3],[17,-4],[3,-7],[36,2],[1,-6],[14,-8],[25,-3],[26,5],[19,-7],[18,-10],[43,-2],[12,6],[8,-3],[7,6],[6,-6],[-6,-9],[20,-20],[23,-3],[-3,-17],[25,-15],[30,-2],[64,25],[38,4],[24,14],[33,14],[50,15],[77,23],[49,12],[25,0],[16,21],[14,11],[16,5],[16,-12]]],"transform":{"scale":[0.00006975229082908237,0.00009201926232622959],"translate":[101.98169946000007,16.772022966000065]},"objects":{"Nong Bua Lam Phu":{"type":"GeometryCollection","geometries":[{"arcs":[[0,1,2,3,4,5]],"type":"Polygon","properties":{"Shape_Leng":0.39978988647,"Shape_Area":0.00514888421722,"ADM3_EN":"Nong Bua","ADM3_TH":"หนองบัว","ADM3_PCODE":"TH390101","ADM2_EN":"Mueang Nong Bua Lam Phu","ADM2_TH":"เมืองหนองบัวลำภู","ADM2_PCODE":"TH3901","ADM1_EN":"Nong Bua Lam Phu","ADM1_TH":"หนองบัวลำภู","ADM1_PCODE":"TH39","ADM0_EN":"Thailand","ADM0_TH":"ประเทศไทย","ADM0_PCODE":"TH"}},{"arcs":[[6,7,8,9]],"type":"Polygon","properties":{"Shape_Leng":0.286794963215,"Shape_Area":0.00358766917277,"ADM3_EN":"Nong Phai Sun","ADM3_TH":"หนองภัยศูนย์","ADM3_PCODE":"TH390102","ADM2_EN":"Mueang Nong Bua Lam Phu","ADM2_TH":"เมืองหนองบัวลำภู","ADM2_PCODE":"TH3901","ADM1_EN":"Nong Bua Lam Phu","ADM1_TH":"หนองบัวลำภู","ADM1_PCODE":"TH39","ADM0_EN":"Thailand","ADM0_TH":"ประเทศไทย","ADM0_PCODE":"TH"}},{"arcs":[[-5,10,11,12,-8,13]],"type":"Polygon","properties":{"Shape_Leng":0.442462037414,"Shape_Area":0.00415923469879,"ADM3_EN":"Pho Chai","ADM3_TH":"โพธิ์ชัย","ADM3_PCODE":"TH390103","ADM2_EN":"Mueang Nong Bua Lam Phu","ADM2_TH":"เมืองหนองบัวลำภู","ADM2_PCODE":"TH3901","ADM1_EN":"Nong Bua Lam Phu","ADM1_TH":"หนองบัวลำภู","ADM1_PCODE":"TH39","ADM0_EN":"Thailand","ADM0_TH":"ประเทศไทย","ADM0_PCODE":"TH"}},{"arcs":[[-12,14,15,16,17]],"type":"Polygon","properties":{"Shape_Leng":0.362462857971,"Shape_Area":0.00329615167978,"ADM3_EN":"Nong Sawan","ADM3_TH":"หนองสวรรค์","ADM3_PCODE":"TH390104","ADM2_EN":"Mueang Nong Bua Lam Phu","ADM2_TH":"เมืองหนองบัวลำภู","ADM2_PCODE":"TH3901","ADM1_EN":"Nong Bua Lam Phu","ADM1_TH":"หนองบัวลำภู","ADM1_PCODE":"TH39","ADM0_EN":"Thailand","ADM0_TH":"ประเทศไทย","ADM0_PCODE":"TH"}},{"arcs":[[18,19,20,21,22,23,24]],"type":"Polygon","properties":{"Shape_Leng":0.459596810958,"Shape_Area":0.00848672782757,"ADM3_EN":"Hua Na","ADM3_TH":"หัวนา","ADM3_PCODE":"TH390105","ADM2_EN":"Mueang Nong Bua Lam Phu","ADM2_TH":"เมืองหนองบัวลำภู","ADM2_PCODE":"TH3901","ADM1_EN":"Nong Bua Lam Phu","ADM1_TH":"หนองบัวลำภู","ADM1_PCODE":"TH39","ADM0_EN":"Thailand","ADM0_TH":"ประเทศไทย","ADM0_PCODE":"TH"}},{"arcs":[[-2,25,26,-25,27]],"type":"Polygon","properties":{"Shape_Leng":0.344931331807,"Shape_Area":0.00525144495939,"ADM3_EN":"Ban Kham","ADM3_TH":"บ้านขาม","ADM3_PCODE":"TH390106","ADM2_EN":"Mueang Nong Bua Lam Phu","ADM2_TH":"เมืองหนองบัวลำภู","ADM2_PCODE":"TH3901","ADM1_EN":"Nong Bua Lam Phu","ADM1_TH":"หนองบัวลำภู","ADM1_PCODE":"TH39","ADM0_EN":"Thailand","ADM0_TH":"ประเทศไทย","ADM0_PCODE":"TH"}},{"arcs":[[-19,-27,28,29,30,31]],"type":"Polygon","properties":{"Shape_Leng":0.454290633564,"Shape_Area":0.00770651794864,"ADM3_EN":"Na Mafueang","ADM3_TH":"นามะเฟือง","ADM3_PCODE":"TH390107","ADM2_EN":"Mueang Nong Bua Lam Phu","ADM2_TH":"เมืองหนองบัวลำภู","ADM2_PCODE":"TH3901","ADM1_EN":"Nong Bua Lam Phu","ADM1_TH":"หนองบัวลำภู","ADM1_PCODE":"TH39","ADM0_EN":"Thailand","ADM0_TH":"ประเทศไทย","ADM0_PCODE":"TH"}},{"arcs":[[-3,-28,-24,32,33]],"type":"Polygon","properties":{"Shape_Leng":0.335114394196,"Shape_Area":0.00560313766905,"ADM3_EN":"Ban Phrao","ADM3_TH":"บ้านพร้าว","ADM3_PCODE":"TH390108","ADM2_EN":"Mueang Nong Bua Lam Phu","ADM2_TH":"เมืองหนองบัวลำภู","ADM2_PCODE":"TH3901","ADM1_EN":"Nong Bua Lam Phu","ADM1_TH":"หนองบัวลำภู","ADM1_PCODE":"TH39","ADM0_EN":"Thailand","ADM0_TH":"ประเทศไทย","ADM0_PCODE":"TH"}},{"arcs":[[-16,34,35,36,37,38]],"type":"Polygon","properties":{"Shape_Leng":0.358856320647,"Shape_Area":0.00518874288793,"ADM3_EN":"Non Khamin","ADM3_TH":"โนนขมิ้น","ADM3_PCODE":"TH390109","ADM2_EN":"Mueang Nong Bua Lam Phu","ADM2_TH":"เมืองหนองบัวลำภู","ADM2_PCODE":"TH3901","ADM1_EN":"Nong Bua Lam Phu","ADM1_TH":"หนองบัวลำภู","ADM1_PCODE":"TH39","ADM0_EN":"Thailand","ADM0_TH":"ประเทศไทย","ADM0_PCODE":"TH"}},{"arcs":[[-6,-14,-7,39]],"type":"Polygon","properties":{"Shape_Leng":0.243283346348,"Shape_Area":0.00219625016408,"ADM3_EN":"Lam Phu","ADM3_TH":"ลำภู","ADM3_PCODE":"TH390110","ADM2_EN":"Mueang Nong Bua Lam Phu","ADM2_TH":"เมืองหนองบัวลำภู","ADM2_PCODE":"TH3901","ADM1_EN":"Nong Bua Lam Phu","ADM1_TH":"หนองบัวลำภู","ADM1_PCODE":"TH39","ADM0_EN":"Thailand","ADM0_TH":"ประเทศไทย","ADM0_PCODE":"TH"}},{"arcs":[[-10,40,41,42,43,44]],"type":"Polygon","properties":{"Shape_Leng":0.496395920939,"Shape_Area":0.00870917832066,"ADM3_EN":"Kut Chik","ADM3_TH":"กุดจิก","ADM3_PCODE":"TH390111","ADM2_EN":"Mueang Nong Bua Lam Phu","ADM2_TH":"เมืองหนองบัวลำภู","ADM2_PCODE":"TH3901","ADM1_EN":"Nong Bua Lam Phu","ADM1_TH":"หนองบัวลำภู","ADM1_PCODE":"TH39","ADM0_EN":"Thailand","ADM0_TH":"ประเทศไทย","ADM0_PCODE":"TH"}},{"arcs":[[-40,-45,45]],"type":"Polygon","properties":{"Shape_Leng":0.456769215302,"Shape_Area":0.00706910200035,"ADM3_EN":"Non Than","ADM3_TH":"โนนทัน","ADM3_PCODE":"TH390112","ADM2_EN":"Mueang Nong Bua Lam Phu","ADM2_TH":"เมืองหนองบัวลำภู","ADM2_PCODE":"TH3901","ADM1_EN":"Nong Bua Lam Phu","ADM1_TH":"หนองบัวลำภู","ADM1_PCODE":"TH39","ADM0_EN":"Thailand","ADM0_TH":"ประเทศไทย","ADM0_PCODE":"TH"}},{"arcs":[[-9,-13,-18,46,47,48,-41]],"type":"Polygon","properties":{"Shape_Leng":0.582021013111,"Shape_Area":0.00799249121899,"ADM3_EN":"Na Kham Hai","ADM3_TH":"นาคำไฮ","ADM3_PCODE":"TH390113","ADM2_EN":"Mueang Nong Bua Lam Phu","ADM2_TH":"เมืองหนองบัวลำภู","ADM2_PCODE":"TH3901","ADM1_EN":"Nong Bua Lam Phu","ADM1_TH":"หนองบัวลำภู","ADM1_PCODE":"TH39","ADM0_EN":"Thailand","ADM0_TH":"ประเทศไทย","ADM0_PCODE":"TH"}},{"arcs":[[-21,49,50,51,52]],"type":"Polygon","properties":{"Shape_Leng":0.377268376783,"Shape_Area":0.00542780455346,"ADM3_EN":"Pa Mai Ngam","ADM3_TH":"ป่าไม้งาม","ADM3_PCODE":"TH390114","ADM2_EN":"Mueang Nong Bua Lam Phu","ADM2_TH":"เมืองหนองบัวลำภู","ADM2_PCODE":"TH3901","ADM1_EN":"Nong Bua Lam Phu","ADM1_TH":"หนองบัวลำภู","ADM1_PCODE":"TH39","ADM0_EN":"Thailand","ADM0_TH":"ประเทศไทย","ADM0_PCODE":"TH"}},{"arcs":[[-4,-34,53,-35,-15,-11]],"type":"Polygon","properties":{"Shape_Leng":0.370181925136,"Shape_Area":0.00449229435935,"ADM3_EN":"Nong Wa","ADM3_TH":"หนองหว้า","ADM3_PCODE":"TH390115","ADM2_EN":"Mueang Nong Bua Lam Phu","ADM2_TH":"เมืองหนองบัวลำภู","ADM2_PCODE":"TH3901","ADM1_EN":"Nong Bua Lam Phu","ADM1_TH":"หนองบัวลำภู","ADM1_PCODE":"TH39","ADM0_EN":"Thailand","ADM0_TH":"ประเทศไทย","ADM0_PCODE":"TH"}},{"arcs":[[-48,54,55,56,57]],"type":"Polygon","properties":{"Shape_Leng":0.407481588716,"Shape_Area":0.00421776955114,"ADM3_EN":"Na Klang","ADM3_TH":"นากลาง","ADM3_PCODE":"TH390201","ADM2_EN":"Na Klang","ADM2_TH":"นากลาง","ADM2_PCODE":"TH3902","ADM1_EN":"Nong Bua Lam Phu","ADM1_TH":"หนองบัวลำภู","ADM1_PCODE":"TH39","ADM0_EN":"Thailand","ADM0_TH":"ประเทศไทย","ADM0_PCODE":"TH"}},{"arcs":[[-56,58,59,60,61,62]],"type":"Polygon","properties":{"Shape_Leng":0.38355275709,"Shape_Area":0.00401533894559,"ADM3_EN":"Dan Chang","ADM3_TH":"ด่านช้าง","ADM3_PCODE":"TH390202","ADM2_EN":"Na Klang","ADM2_TH":"นากลาง","ADM2_PCODE":"TH3902","ADM1_EN":"Nong Bua Lam Phu","ADM1_TH":"หนองบัวลำภู","ADM1_PCODE":"TH39","ADM0_EN":"Thailand","ADM0_TH":"ประเทศไทย","ADM0_PCODE":"TH"}},{"arcs":[[-42,-49,-58,63,64,65]],"type":"Polygon","properties":{"Shape_Leng":0.544437741435,"Shape_Area":0.00817842715219,"ADM3_EN":"Kut Din Chi","ADM3_TH":"กุดดินจี่","ADM3_PCODE":"TH390205","ADM2_EN":"Na Klang","ADM2_TH":"นากลาง","ADM2_PCODE":"TH3902","ADM1_EN":"Nong Bua Lam Phu","ADM1_TH":"หนองบัวลำภู","ADM1_PCODE":"TH39","ADM0_EN":"Thailand","ADM0_TH":"ประเทศไทย","ADM0_PCODE":"TH"}},{"arcs":[[-17,-39,66,67,-59,-55,-47]],"type":"Polygon","properties":{"Shape_Leng":0.546624320497,"Shape_Area":0.00817490751703,"ADM3_EN":"Fang Daeng","ADM3_TH":"ฝั่งแดง","ADM3_PCODE":"TH390206","ADM2_EN":"Na Klang","ADM2_TH":"นากลาง","ADM2_PCODE":"TH3902","ADM1_EN":"Nong Bua Lam Phu","ADM1_TH":"หนองบัวลำภู","ADM1_PCODE":"TH39","ADM0_EN":"Thailand","ADM0_TH":"ประเทศไทย","ADM0_PCODE":"TH"}},{"arcs":[[-43,-66,68,69,70,71]],"type":"Polygon","properties":{"Shape_Leng":0.649089530541,"Shape_Area":0.00744515811094,"ADM3_EN":"Kao Kloi","ADM3_TH":"เก่ากลอย","ADM3_PCODE":"TH390207","ADM2_EN":"Na Klang","ADM2_TH":"นากลาง","ADM2_PCODE":"TH3902","ADM1_EN":"Nong Bua Lam Phu","ADM1_TH":"หนองบัวลำภู","ADM1_PCODE":"TH39","ADM0_EN":"Thailand","ADM0_TH":"ประเทศไทย","ADM0_PCODE":"TH"}},{"arcs":[[-38,72,73,-67]],"type":"Polygon","properties":{"Shape_Leng":0.451928273496,"Shape_Area":0.00421977863152,"ADM3_EN":"Non Mueang","ADM3_TH":"โนนเมือง","ADM3_PCODE":"TH390209","ADM2_EN":"Na Klang","ADM2_TH":"นากลาง","ADM2_PCODE":"TH3902","ADM1_EN":"Nong Bua Lam Phu","ADM1_TH":"หนองบัวลำภู","ADM1_PCODE":"TH39","ADM0_EN":"Thailand","ADM0_TH":"ประเทศไทย","ADM0_PCODE":"TH"}},{"arcs":[[-60,-68,-74,74,75]],"type":"Polygon","properties":{"Shape_Leng":0.384695923633,"Shape_Area":0.00543191550103,"ADM3_EN":"Uthai Sawan","ADM3_TH":"อุทัยสวรรค์","ADM3_PCODE":"TH390210","ADM2_EN":"Na Klang","ADM2_TH":"นากลาง","ADM2_PCODE":"TH3902","ADM1_EN":"Nong Bua Lam Phu","ADM1_TH":"หนองบัวลำภู","ADM1_PCODE":"TH39","ADM0_EN":"Thailand","ADM0_TH":"ประเทศไทย","ADM0_PCODE":"TH"}},{"arcs":[[-65,76,77,78,79,-69]],"type":"Polygon","properties":{"Shape_Leng":0.566302294095,"Shape_Area":0.00904536073071,"ADM3_EN":"Dong Sawan","ADM3_TH":"ดงสวรรค์","ADM3_PCODE":"TH390211","ADM2_EN":"Na Klang","ADM2_TH":"นากลาง","ADM2_PCODE":"TH3902","ADM1_EN":"Nong Bua Lam Phu","ADM1_TH":"หนองบัวลำภู","ADM1_PCODE":"TH39","ADM0_EN":"Thailand","ADM0_TH":"ประเทศไทย","ADM0_PCODE":"TH"}},{"arcs":[[-57,-63,80,81,-77,-64]],"type":"Polygon","properties":{"Shape_Leng":0.441989374464,"Shape_Area":0.0059750031381,"ADM3_EN":"Kut Hae","ADM3_TH":"กุดแห่","ADM3_PCODE":"TH390213","ADM2_EN":"Na Klang","ADM2_TH":"นากลาง","ADM2_PCODE":"TH3902","ADM1_EN":"Nong Bua Lam Phu","ADM1_TH":"หนองบัวลำภู","ADM1_PCODE":"TH39","ADM0_EN":"Thailand","ADM0_TH":"ประเทศไทย","ADM0_PCODE":"TH"}},{"arcs":[[82,83,84,85,86]],"type":"Polygon","properties":{"Shape_Leng":0.309255968541,"Shape_Area":0.00348013385058,"ADM3_EN":"Non Sang","ADM3_TH":"โนนสัง","ADM3_PCODE":"TH390301","ADM2_EN":"Non Sang","ADM2_TH":"โนนสัง","ADM2_PCODE":"TH3903","ADM1_EN":"Nong Bua Lam Phu","ADM1_TH":"หนองบัวลำภู","ADM1_PCODE":"TH39","ADM0_EN":"Thailand","ADM0_TH":"ประเทศไทย","ADM0_PCODE":"TH"}},{"arcs":[[-31,87,88,89,90]],"type":"Polygon","properties":{"Shape_Leng":0.439771944403,"Shape_Area":0.00427252152561,"ADM3_EN":"Ban Thin","ADM3_TH":"บ้านถิ่น","ADM3_PCODE":"TH390302","ADM2_EN":"Non Sang","ADM2_TH":"โนนสัง","ADM2_PCODE":"TH3903","ADM1_EN":"Nong Bua Lam Phu","ADM1_TH":"หนองบัวลำภู","ADM1_PCODE":"TH39","ADM0_EN":"Thailand","ADM0_TH":"ประเทศไทย","ADM0_PCODE":"TH"}},{"arcs":[[-85,91,92,93,94,95]],"type":"Polygon","properties":{"Shape_Leng":0.414090340752,"Shape_Area":0.00683229263452,"ADM3_EN":"Nong Ruea","ADM3_TH":"หนองเรือ","ADM3_PCODE":"TH390303","ADM2_EN":"Non Sang","ADM2_TH":"โนนสัง","ADM2_PCODE":"TH3903","ADM1_EN":"Nong Bua Lam Phu","ADM1_TH":"หนองบัวลำภู","ADM1_PCODE":"TH39","ADM0_EN":"Thailand","ADM0_TH":"ประเทศไทย","ADM0_PCODE":"TH"}},{"arcs":[[-87,96,-89,97,98,99]],"type":"Polygon","properties":{"Shape_Leng":0.426612643411,"Shape_Area":0.00570144101832,"ADM3_EN":"Kut Du","ADM3_TH":"กุดดู่","ADM3_PCODE":"TH390304","ADM2_EN":"Non Sang","ADM2_TH":"โนนสัง","ADM2_PCODE":"TH3903","ADM1_EN":"Nong Bua Lam Phu","ADM1_TH":"หนองบัวลำภู","ADM1_PCODE":"TH39","ADM0_EN":"Thailand","ADM0_TH":"ประเทศไทย","ADM0_PCODE":"TH"}},{"arcs":[[-83,-100,100,101]],"type":"Polygon","properties":{"Shape_Leng":0.497090909695,"Shape_Area":0.00659411852984,"ADM3_EN":"Ban Kho","ADM3_TH":"บ้านค้อ","ADM3_PCODE":"TH390305","ADM2_EN":"Non Sang","ADM2_TH":"โนนสัง","ADM2_PCODE":"TH3903","ADM1_EN":"Nong Bua Lam Phu","ADM1_TH":"หนองบัวลำภู","ADM1_PCODE":"TH39","ADM0_EN":"Thailand","ADM0_TH":"ประเทศไทย","ADM0_PCODE":"TH"}},{"arcs":[[-94,102,103,104]],"type":"Polygon","properties":{"Shape_Leng":0.390270705659,"Shape_Area":0.00506751914777,"ADM3_EN":"Non Mueang","ADM3_TH":"โนนเมือง","ADM3_PCODE":"TH390306","ADM2_EN":"Non Sang","ADM2_TH":"โนนสัง","ADM2_PCODE":"TH3903","ADM1_EN":"Nong Bua Lam Phu","ADM1_TH":"หนองบัวลำภู","ADM1_PCODE":"TH39","ADM0_EN":"Thailand","ADM0_TH":"ประเทศไทย","ADM0_PCODE":"TH"}},{"arcs":[[-84,-102,105,-92]],"type":"Polygon","properties":{"Shape_Leng":0.240128349688,"Shape_Area":0.0034443358849,"ADM3_EN":"Khok Yai","ADM3_TH":"โคกใหญ่","ADM3_PCODE":"TH390307","ADM2_EN":"Non Sang","ADM2_TH":"โนนสัง","ADM2_PCODE":"TH3903","ADM1_EN":"Nong Bua Lam Phu","ADM1_TH":"หนองบัวลำภู","ADM1_PCODE":"TH39","ADM0_EN":"Thailand","ADM0_TH":"ประเทศไทย","ADM0_PCODE":"TH"}},{"arcs":[[-20,-32,-91,106,-95,-105,107,108,-50]],"type":"Polygon","properties":{"Shape_Leng":0.593644126416,"Shape_Area":0.0107146289377,"ADM3_EN":"Khok Muang","ADM3_TH":"โคกม่วง","ADM3_PCODE":"TH390308","ADM2_EN":"Non Sang","ADM2_TH":"โนนสัง","ADM2_PCODE":"TH3903","ADM1_EN":"Nong Bua Lam Phu","ADM1_TH":"หนองบัวลำภู","ADM1_PCODE":"TH39","ADM0_EN":"Thailand","ADM0_TH":"ประเทศไทย","ADM0_PCODE":"TH"}},{"arcs":[[-86,-96,-107,-90,-97]],"type":"Polygon","properties":{"Shape_Leng":0.374390686702,"Shape_Area":0.00550405344042,"ADM3_EN":"Nikhom Phatthana","ADM3_TH":"นิคมพัฒนา","ADM3_PCODE":"TH390309","ADM2_EN":"Non Sang","ADM2_TH":"โนนสัง","ADM2_PCODE":"TH3903","ADM1_EN":"Nong Bua Lam Phu","ADM1_TH":"หนองบัวลำภู","ADM1_PCODE":"TH39","ADM0_EN":"Thailand","ADM0_TH":"ประเทศไทย","ADM0_PCODE":"TH"}},{"arcs":[[-30,109,-98,-88]],"type":"Polygon","properties":{"Shape_Leng":0.325835561592,"Shape_Area":0.00416448780902,"ADM3_EN":"Pang Ku","ADM3_TH":"ปางกู่","ADM3_PCODE":"TH390310","ADM2_EN":"Non Sang","ADM2_TH":"โนนสัง","ADM2_PCODE":"TH3903","ADM1_EN":"Nong Bua Lam Phu","ADM1_TH":"หนองบัวลำภู","ADM1_PCODE":"TH39","ADM0_EN":"Thailand","ADM0_TH":"ประเทศไทย","ADM0_PCODE":"TH"}},{"arcs":[[-22,-53,110,111,112,113]],"type":"Polygon","properties":{"Shape_Leng":0.426733615386,"Shape_Area":0.00518073323875,"ADM3_EN":"Mueang Mai","ADM3_TH":"เมืองใหม่","ADM3_PCODE":"TH390401","ADM2_EN":"Si Bun Rueang","ADM2_TH":"ศรีบุญเรือง","ADM2_PCODE":"TH3904","ADM1_EN":"Nong Bua Lam Phu","ADM1_TH":"หนองบัวลำภู","ADM1_PCODE":"TH39","ADM0_EN":"Thailand","ADM0_TH":"ประเทศไทย","ADM0_PCODE":"TH"}},{"arcs":[[-52,114,115,116,117,118,119,-111]],"type":"Polygon","properties":{"Shape_Leng":0.447657834257,"Shape_Area":0.0051622587459,"ADM3_EN":"Si Bun Rueang","ADM3_TH":"ศรีบุญเรือง","ADM3_PCODE":"TH390402","ADM2_EN":"Si Bun Rueang","ADM2_TH":"ศรีบุญเรือง","ADM2_PCODE":"TH3904","ADM1_EN":"Nong Bua Lam Phu","ADM1_TH":"หนองบัวลำภู","ADM1_PCODE":"TH39","ADM0_EN":"Thailand","ADM0_TH":"ประเทศไทย","ADM0_PCODE":"TH"}},{"arcs":[[-51,-109,120,-115]],"type":"Polygon","properties":{"Shape_Leng":0.360500211471,"Shape_Area":0.00342865813628,"ADM3_EN":"Nong Bua Tai","ADM3_TH":"หนองบัวใต้","ADM3_PCODE":"TH390403","ADM2_EN":"Si Bun Rueang","ADM2_TH":"ศรีบุญเรือง","ADM2_PCODE":"TH3904","ADM1_EN":"Nong Bua Lam Phu","ADM1_TH":"หนองบัวลำภู","ADM1_PCODE":"TH39","ADM0_EN":"Thailand","ADM0_TH":"ประเทศไทย","ADM0_PCODE":"TH"}},{"arcs":[[-113,121,122,123,124]],"type":"Polygon","properties":{"Shape_Leng":0.322317129025,"Shape_Area":0.00482613999607,"ADM3_EN":"Kut Sathian","ADM3_TH":"กุดสะเทียน","ADM3_PCODE":"TH390404","ADM2_EN":"Si Bun Rueang","ADM2_TH":"ศรีบุญเรือง","ADM2_PCODE":"TH3904","ADM1_EN":"Nong Bua Lam Phu","ADM1_TH":"หนองบัวลำภู","ADM1_PCODE":"TH39","ADM0_EN":"Thailand","ADM0_TH":"ประเทศไทย","ADM0_PCODE":"TH"}},{"arcs":[[-118,125,126]],"type":"Polygon","properties":{"Shape_Leng":0.692554002087,"Shape_Area":0.0083091768244,"ADM3_EN":"Na Kok","ADM3_TH":"นากอก","ADM3_PCODE":"TH390405","ADM2_EN":"Si Bun Rueang","ADM2_TH":"ศรีบุญเรือง","ADM2_PCODE":"TH3904","ADM1_EN":"Nong Bua Lam Phu","ADM1_TH":"หนองบัวลำภู","ADM1_PCODE":"TH39","ADM0_EN":"Thailand","ADM0_TH":"ประเทศไทย","ADM0_PCODE":"TH"}},{"arcs":[[-119,-127,127,128,129]],"type":"Polygon","properties":{"Shape_Leng":0.604230505878,"Shape_Area":0.0139774587725,"ADM3_EN":"Non Sa-At","ADM3_TH":"โนนสะอาด","ADM3_PCODE":"TH390406","ADM2_EN":"Si Bun Rueang","ADM2_TH":"ศรีบุญเรือง","ADM2_PCODE":"TH3904","ADM1_EN":"Nong Bua Lam Phu","ADM1_TH":"หนองบัวลำภู","ADM1_PCODE":"TH39","ADM0_EN":"Thailand","ADM0_TH":"ประเทศไทย","ADM0_PCODE":"TH"}},{"arcs":[[-123,130,-129,131,132,133]],"type":"Polygon","properties":{"Shape_Leng":0.556734913511,"Shape_Area":0.00660488334294,"ADM3_EN":"Yang Lo","ADM3_TH":"ยางหล่อ","ADM3_PCODE":"TH390407","ADM2_EN":"Si Bun Rueang","ADM2_TH":"ศรีบุญเรือง","ADM2_PCODE":"TH3904","ADM1_EN":"Nong Bua Lam Phu","ADM1_TH":"หนองบัวลำภู","ADM1_PCODE":"TH39","ADM0_EN":"Thailand","ADM0_TH":"ประเทศไทย","ADM0_PCODE":"TH"}},{"arcs":[[-37,134,-124,-134,135,136,137,-73]],"type":"Polygon","properties":{"Shape_Leng":0.675727373485,"Shape_Area":0.00909492674478,"ADM3_EN":"Non Muang","ADM3_TH":"โนนม่วง","ADM3_PCODE":"TH390408","ADM2_EN":"Si Bun Rueang","ADM2_TH":"ศรีบุญเรือง","ADM2_PCODE":"TH3904","ADM1_EN":"Nong Bua Lam Phu","ADM1_TH":"หนองบัวลำภู","ADM1_PCODE":"TH39","ADM0_EN":"Thailand","ADM0_TH":"ประเทศไทย","ADM0_PCODE":"TH"}},{"arcs":[[-133,138,139,-136]],"type":"Polygon","properties":{"Shape_Leng":0.536347362155,"Shape_Area":0.00446837558701,"ADM3_EN":"Nong Kung Kaeo","ADM3_TH":"หนองกุงแก้ว","ADM3_PCODE":"TH390409","ADM2_EN":"Si Bun Rueang","ADM2_TH":"ศรีบุญเรือง","ADM2_PCODE":"TH3904","ADM1_EN":"Nong Bua Lam Phu","ADM1_TH":"หนองบัวลำภู","ADM1_PCODE":"TH39","ADM0_EN":"Thailand","ADM0_TH":"ประเทศไทย","ADM0_PCODE":"TH"}},{"arcs":[[-23,-114,-125,-135,-36,-54,-33]],"type":"Polygon","properties":{"Shape_Leng":0.335492346252,"Shape_Area":0.00560189731771,"ADM3_EN":"Nong Kae","ADM3_TH":"หนองแก","ADM3_PCODE":"TH390410","ADM2_EN":"Si Bun Rueang","ADM2_TH":"ศรีบุญเรือง","ADM2_PCODE":"TH3904","ADM1_EN":"Nong Bua Lam Phu","ADM1_TH":"หนองบัวลำภู","ADM1_PCODE":"TH39","ADM0_EN":"Thailand","ADM0_TH":"ประเทศไทย","ADM0_PCODE":"TH"}},{"arcs":[[-104,140,-116,-121,-108]],"type":"Polygon","properties":{"Shape_Leng":0.463870430398,"Shape_Area":0.00525343678882,"ADM3_EN":"Sai Thong","ADM3_TH":"ทรายทอง","ADM3_PCODE":"TH390411","ADM2_EN":"Si Bun Rueang","ADM2_TH":"ศรีบุญเรือง","ADM2_PCODE":"TH3904","ADM1_EN":"Nong Bua Lam Phu","ADM1_TH":"หนองบัวลำภู","ADM1_PCODE":"TH39","ADM0_EN":"Thailand","ADM0_TH":"ประเทศไทย","ADM0_PCODE":"TH"}},{"arcs":[[-112,-120,-130,-131,-122]],"type":"Polygon","properties":{"Shape_Leng":0.313712928379,"Shape_Area":0.00226455576361,"ADM3_EN":"Han Na Ngam","ADM3_TH":"หันนางาม","ADM3_PCODE":"TH390412","ADM2_EN":"Si Bun Rueang","ADM2_TH":"ศรีบุญเรือง","ADM2_PCODE":"TH3904","ADM1_EN":"Nong Bua Lam Phu","ADM1_TH":"หนองบัวลำภู","ADM1_PCODE":"TH39","ADM0_EN":"Thailand","ADM0_TH":"ประเทศไทย","ADM0_PCODE":"TH"}},{"arcs":[[141,142,143,144,145]],"type":"Polygon","properties":{"Shape_Leng":0.565561679781,"Shape_Area":0.00567126426665,"ADM3_EN":"Na Si","ADM3_TH":"นาสี","ADM3_PCODE":"TH390501","ADM2_EN":"Suwannakhuha","ADM2_TH":"สุวรรณคูหา","ADM2_PCODE":"TH3905","ADM1_EN":"Nong Bua Lam Phu","ADM1_TH":"หนองบัวลำภู","ADM1_PCODE":"TH39","ADM0_EN":"Thailand","ADM0_TH":"ประเทศไทย","ADM0_PCODE":"TH"}},{"arcs":[[-79,146,147,148,-144,149,150]],"type":"Polygon","properties":{"Shape_Leng":0.626880025404,"Shape_Area":0.00820765469863,"ADM3_EN":"Ban Khok","ADM3_TH":"บ้านโคก","ADM3_PCODE":"TH390502","ADM2_EN":"Suwannakhuha","ADM2_TH":"สุวรรณคูหา","ADM2_PCODE":"TH3905","ADM1_EN":"Nong Bua Lam Phu","ADM1_TH":"หนองบัวลำภู","ADM1_PCODE":"TH39","ADM0_EN":"Thailand","ADM0_TH":"ประเทศไทย","ADM0_PCODE":"TH"}},{"arcs":[[-70,-80,-151,151,152,153]],"type":"Polygon","properties":{"Shape_Leng":0.554619401471,"Shape_Area":0.00817307100853,"ADM3_EN":"Na Di","ADM3_TH":"นาดี","ADM3_PCODE":"TH390503","ADM2_EN":"Suwannakhuha","ADM2_TH":"สุวรรณคูหา","ADM2_PCODE":"TH3905","ADM1_EN":"Nong Bua Lam Phu","ADM1_TH":"หนองบัวลำภู","ADM1_PCODE":"TH39","ADM0_EN":"Thailand","ADM0_TH":"ประเทศไทย","ADM0_PCODE":"TH"}},{"arcs":[[-71,-154,154,155]],"type":"Polygon","properties":{"Shape_Leng":0.549758938726,"Shape_Area":0.00617510239589,"ADM3_EN":"Na Dan","ADM3_TH":"นาด่าน","ADM3_PCODE":"TH390504","ADM2_EN":"Suwannakhuha","ADM2_TH":"สุวรรณคูหา","ADM2_PCODE":"TH3905","ADM1_EN":"Nong Bua Lam Phu","ADM1_TH":"หนองบัวลำภู","ADM1_PCODE":"TH39","ADM0_EN":"Thailand","ADM0_TH":"ประเทศไทย","ADM0_PCODE":"TH"}},{"arcs":[[-145,-149,156,157]],"type":"Polygon","properties":{"Shape_Leng":0.476192103745,"Shape_Area":0.00824230492356,"ADM3_EN":"Dong Mafai","ADM3_TH":"ดงมะไฟ","ADM3_PCODE":"TH390505","ADM2_EN":"Suwannakhuha","ADM2_TH":"สุวรรณคูหา","ADM2_PCODE":"TH3905","ADM1_EN":"Nong Bua Lam Phu","ADM1_TH":"หนองบัวลำภู","ADM1_PCODE":"TH39","ADM0_EN":"Thailand","ADM0_TH":"ประเทศไทย","ADM0_PCODE":"TH"}},{"arcs":[[-143,158,-152,-150]],"type":"Polygon","properties":{"Shape_Leng":0.27262979074,"Shape_Area":0.00196770811939,"ADM3_EN":"Suwannakhuha","ADM3_TH":"สุวรรณคูหา","ADM3_PCODE":"TH390506","ADM2_EN":"Suwannakhuha","ADM2_TH":"สุวรรณคูหา","ADM2_PCODE":"TH3905","ADM1_EN":"Nong Bua Lam Phu","ADM1_TH":"หนองบัวลำภู","ADM1_PCODE":"TH39","ADM0_EN":"Thailand","ADM0_TH":"ประเทศไทย","ADM0_PCODE":"TH"}},{"arcs":[[-148,159,-157]],"type":"Polygon","properties":{"Shape_Leng":0.565893437544,"Shape_Area":0.0062448235353,"ADM3_EN":"Bunthan","ADM3_TH":"บุญทัน","ADM3_PCODE":"TH390507","ADM2_EN":"Suwannakhuha","ADM2_TH":"สุวรรณคูหา","ADM2_PCODE":"TH3905","ADM1_EN":"Nong Bua Lam Phu","ADM1_TH":"หนองบัวลำภู","ADM1_PCODE":"TH39","ADM0_EN":"Thailand","ADM0_TH":"ประเทศไทย","ADM0_PCODE":"TH"}},{"arcs":[[-142,160,-155,-153,-159]],"type":"Polygon","properties":{"Shape_Leng":0.340669576413,"Shape_Area":0.00298259187937,"ADM3_EN":"Kut Phueng","ADM3_TH":"กุดผึ้ง","ADM3_PCODE":"TH390508","ADM2_EN":"Suwannakhuha","ADM2_TH":"สุวรรณคูหา","ADM2_PCODE":"TH3905","ADM1_EN":"Nong Bua Lam Phu","ADM1_TH":"หนองบัวลำภู","ADM1_PCODE":"TH39","ADM0_EN":"Thailand","ADM0_TH":"ประเทศไทย","ADM0_PCODE":"TH"}},{"arcs":[[-75,-138,161,162,163]],"type":"Polygon","properties":{"Shape_Leng":0.635088888324,"Shape_Area":0.00524622453614,"ADM3_EN":"Na Lao","ADM3_TH":"นาเหล่า","ADM3_PCODE":"TH390601","ADM2_EN":"Na Wang","ADM2_TH":"นาวัง","ADM2_PCODE":"TH3906","ADM1_EN":"Nong Bua Lam Phu","ADM1_TH":"หนองบัวลำภู","ADM1_PCODE":"TH39","ADM0_EN":"Thailand","ADM0_TH":"ประเทศไทย","ADM0_PCODE":"TH"}},{"arcs":[[-62,164,-163,165,166,167,168,-81]],"type":"Polygon","properties":{"Shape_Leng":0.581064021429,"Shape_Area":0.00743731351466,"ADM3_EN":"Na Kae","ADM3_TH":"นาแก","ADM3_PCODE":"TH390602","ADM2_EN":"Na Wang","ADM2_TH":"นาวัง","ADM2_PCODE":"TH3906","ADM1_EN":"Nong Bua Lam Phu","ADM1_TH":"หนองบัวลำภู","ADM1_PCODE":"TH39","ADM0_EN":"Thailand","ADM0_TH":"ประเทศไทย","ADM0_PCODE":"TH"}},{"arcs":[[-137,-140,169,-166,-162]],"type":"Polygon","properties":{"Shape_Leng":0.934634902144,"Shape_Area":0.00702024760704,"ADM3_EN":"Wang Thong","ADM3_TH":"วังทอง","ADM3_PCODE":"TH390603","ADM2_EN":"Na Wang","ADM2_TH":"นาวัง","ADM2_PCODE":"TH3906","ADM1_EN":"Nong Bua Lam Phu","ADM1_TH":"หนองบัวลำภู","ADM1_PCODE":"TH39","ADM0_EN":"Thailand","ADM0_TH":"ประเทศไทย","ADM0_PCODE":"TH"}},{"arcs":[[-168,170]],"type":"Polygon","properties":{"Shape_Leng":0.360409013783,"Shape_Area":0.00423609748854,"ADM3_EN":"Wang Pla Pom","ADM3_TH":"วังปลาป้อม","ADM3_PCODE":"TH390604","ADM2_EN":"Na Wang","ADM2_TH":"นาวัง","ADM2_PCODE":"TH3906","ADM1_EN":"Nong Bua Lam Phu","ADM1_TH":"หนองบัวลำภู","ADM1_PCODE":"TH39","ADM0_EN":"Thailand","ADM0_TH":"ประเทศไทย","ADM0_PCODE":"TH"}},{"arcs":[[-61,-76,-164,-165]],"type":"Polygon","properties":{"Shape_Leng":0.379153728414,"Shape_Area":0.00262357029844,"ADM3_EN":"Thep Khiri","ADM3_TH":"เทพคีรี","ADM3_PCODE":"TH390605","ADM2_EN":"Na Wang","ADM2_TH":"นาวัง","ADM2_PCODE":"TH3906","ADM1_EN":"Nong Bua Lam Phu","ADM1_TH":"หนองบัวลำภู","ADM1_PCODE":"TH39","ADM0_EN":"Thailand","ADM0_TH":"ประเทศไทย","ADM0_PCODE":"TH"}}]}}}