{"type":"Topology","arcs":[[[5221,4128],[-24,-24],[-32,-40],[-18,-18],[-87,-74]],[[5060,3972],[-37,-24],[-21,-19],[-30,94],[-10,43]],[[4962,4066],[54,32],[53,22],[22,21],[57,43],[41,43],[31,45],[22,45],[23,53]],[[5265,4370],[6,-83],[6,-44],[-56,-115]],[[5060,3972],[46,-176],[4,-20]],[[5110,3776],[-63,-54],[-13,50],[-47,-153],[-21,86],[-8,-15],[-9,7],[-7,-34],[-22,-44],[-9,4]],[[4911,3623],[14,45],[-17,15],[-6,30],[-6,8],[-6,24],[-1,24],[-10,8],[7,14],[3,25],[-8,15],[-3,24],[-14,-4],[-5,20],[0,31],[-15,1],[-11,43],[10,20],[5,54]],[[4848,4020],[73,25],[41,21]],[[5221,4128],[37,0]],[[5258,4128],[4,-28],[23,-96],[23,-54],[-4,-5],[16,-40],[18,-56],[-1,-41],[3,-29],[-2,-20],[34,3],[1,-20],[11,0],[0,-68],[9,-56],[27,-3],[1,-24],[9,-40],[11,-31],[9,-32],[18,-43],[15,-2],[5,-22],[-11,-16],[0,-50],[-7,-52],[6,-33],[-7,-67],[25,-13],[27,-22],[-4,-23],[-15,7],[-12,-39]],[[5490,3113],[-7,5],[2,-18],[-13,-4],[-4,-33],[-16,-19],[-16,-1],[-7,-30],[-2,15],[-15,-17],[-16,29],[-17,-45],[-17,-10],[-36,-36],[-26,-20],[-5,-21],[-8,-7],[-24,6],[-21,-16],[-19,-21],[-20,46]],[[5203,2916],[-20,182],[-30,255],[-23,215],[12,4],[-9,37],[-8,6],[-15,161]],[[4911,3623],[-7,-53]],[[4904,3570],[-25,10],[-16,-8],[-5,-30],[-21,5],[-30,1],[-8,-18],[-9,-57],[-21,-27],[-39,27],[-3,10],[-20,9],[-44,-5],[-13,3],[-62,-38]],[[4588,3452],[-4,9],[-10,58],[1,72],[5,53],[23,93],[22,64],[42,90],[21,28],[39,43],[48,31],[31,15],[42,12]],[[4746,2539],[-16,-21],[-26,-4],[-20,-27],[-35,-32],[-5,-12],[-2,-31],[-29,-45],[24,-23],[12,2],[0,-11],[-18,-37],[1,-36],[-9,-15],[-15,1],[-14,26],[-10,10],[-1,28],[-13,1],[-1,20],[-8,30],[-11,-3],[-11,-30],[-4,-26],[-15,-10],[-6,-16],[-4,-47],[-14,-22]],[[4496,2209],[4,78],[-3,44],[-5,135],[-11,125],[-26,66],[-28,44],[-5,22],[-10,-2],[-4,34],[-10,32],[-3,-18],[-8,13],[1,18],[-6,15]],[[4382,2815],[14,10],[3,13],[-15,17],[7,24],[8,4],[24,-4],[14,28],[2,32],[7,3],[13,-12],[25,-9],[9,-8],[22,-4],[23,14],[6,34]],[[4544,2957],[35,-6],[14,2],[31,15],[25,18]],[[4649,2986],[13,-54],[4,-90],[-10,-66],[-5,-67],[1,-36],[11,-55],[11,-24],[43,11],[0,-13],[13,-21],[16,-32]],[[5258,4128],[18,0],[14,11],[36,43],[16,-35],[8,-43],[2,-25],[-14,-30],[13,-53],[9,-20],[21,34],[21,1],[61,64],[-3,60],[8,25],[16,32],[18,2],[15,14],[91,-2],[63,-3],[-12,-55],[51,-5],[8,-29],[30,-41],[18,-53],[24,-14],[-3,-24],[14,-7],[13,3],[-1,17],[19,1],[14,-17],[25,21],[4,24],[30,16],[24,-7],[19,13],[20,-1],[10,8],[14,-19]],[[5992,4034],[-2,-29],[5,-12],[-10,-26],[5,-26],[19,12],[-2,-12],[22,-19],[-1,-14],[-13,-5],[15,-17],[-12,-30],[11,-5],[4,-43],[-26,-24],[12,1],[7,-36],[1,-45],[-16,9],[-1,-27],[-7,-13],[-5,9],[7,18],[-11,11],[-11,-4],[0,-26],[-6,9],[-11,-8],[4,-30],[6,14],[6,-39],[-20,-3],[22,-24],[-17,-9],[-3,-16],[8,-18],[7,12],[17,-17],[-8,-20],[-9,-1],[-6,-17],[-10,-2],[1,19],[-13,-2],[3,-18],[-14,11],[-11,-12],[-5,-28],[-17,20],[-1,-43],[-8,25],[-5,-35],[-7,16],[-9,-5],[2,-26],[-2,-26],[-15,5],[6,20],[-17,24],[-4,-16],[-18,-20],[-17,-8],[-1,-11],[13,-16],[6,-29],[31,-58],[1,-24],[-29,-31],[-10,-4],[-16,22],[-30,-16],[-14,-14],[-15,-30],[6,-25],[26,19],[6,-23],[-26,-26],[-3,-12],[17,-22],[7,-34],[-14,-26],[-18,39],[-3,0],[-11,-38],[-13,12],[-17,2],[-14,27],[-13,-5],[4,-26],[10,-34],[12,-4],[19,8],[11,-55],[20,-9],[20,21],[17,6],[9,-16],[5,-24],[-7,-6],[-1,-26]],[[5797,2925],[-11,5],[-18,-12],[-6,20],[-18,-2],[-51,22],[-9,13],[-11,31],[-4,72],[-14,13],[-5,20],[-31,-39],[-1,12],[-16,-13],[-24,-6],[-20,5],[0,13],[-17,-8],[-12,-21],[-23,46],[-16,17]],[[5265,4370],[28,93],[4,28],[15,83],[7,47],[28,93],[23,52],[41,49],[32,28],[44,15],[55,-4],[47,6]],[[5589,4860],[4,-26],[-3,-31],[9,-58],[13,-11],[-3,-15],[12,-14],[6,-21],[7,-3],[8,-42],[5,3],[5,-31],[124,40],[17,11],[24,41],[18,13],[6,-22],[6,4],[21,-5],[11,6],[0,-22],[18,4],[3,-16],[29,13],[0,-24],[6,-8],[-2,-23],[4,-27],[0,-33]],[[5937,4563],[4,-38],[-21,-3],[-2,-8],[20,-44],[9,26],[14,-3],[4,-24],[6,-11],[31,15],[18,3],[18,27],[9,2],[3,-25],[14,-38],[16,-4],[3,-18],[9,-11],[3,-18],[18,-27],[1,-34],[-11,-19],[7,-22],[-2,-10]],[[6108,4279],[-7,1],[-9,-23],[4,-12],[-5,-26],[-8,12],[-17,6],[-20,-4],[4,-37],[-10,5],[-8,-16],[-18,-19],[3,-24],[-16,-5],[3,-40],[4,-12],[0,-41],[-9,8],[-7,-18]],[[5589,4860],[36,30],[33,35],[35,46],[53,89],[89,157],[34,50]],[[5869,5267],[9,-41],[1,-16],[32,-94],[20,-64],[34,-42],[31,-27],[10,-42],[6,-7],[11,9],[27,-65],[10,-18],[17,-6]],[[6077,4854],[-34,-7],[8,-38],[-6,-26],[13,-31],[14,-7],[3,-14],[-5,-23],[-7,-55],[-16,-28],[-15,-41],[-22,-13],[-9,11],[-9,-34],[-11,-5],[3,-20],[-4,-9],[-5,18],[-18,-22],[0,17],[-8,11],[4,22],[-16,3]],[[7031,5388],[-10,-39],[-14,-3],[-9,11],[-15,45],[-13,-7],[0,-36],[-12,-10],[-22,30],[-15,1],[-2,-34],[-18,-3],[-5,13],[-3,30],[-13,-13],[4,-42],[-15,-10]],[[6869,5321],[-11,-11],[-6,-20],[-9,18],[-11,-4],[-3,-16],[6,-15],[-25,-14],[-12,23],[-15,2],[-10,-7],[2,18],[17,0],[2,20],[-11,23],[-12,1],[-16,-17],[-9,1],[7,-47],[-9,-38],[-10,-21],[-24,-14],[-11,12],[-9,30],[-13,-23],[-12,2]],[[6665,5224],[-9,4],[-17,-13],[-20,1],[-28,-42],[-9,-3],[-28,14],[-24,-32],[-18,-3],[-4,20],[-22,22],[10,30],[5,29],[-7,1],[-12,-16],[-8,18],[1,21],[-6,22],[13,26],[-1,11],[-20,-5],[3,-27],[-10,-45],[-14,2],[-27,13],[-13,31],[-13,-16],[19,-57],[11,-7],[-2,-25],[-20,-38],[-8,17],[-15,-14],[7,-25],[-10,-10],[-23,11],[-7,-10],[4,-11],[0,-35],[-10,-13],[-17,10],[-8,-4],[-17,-55],[-6,1],[-4,22],[-12,9]],[[6269,5053],[-7,45],[11,6],[10,22],[1,24],[-5,22],[-24,-11],[-23,46],[-2,11],[-17,-1],[0,29],[10,43],[6,38],[0,63],[-17,63]],[[6212,5453],[57,40],[56,68],[61,63],[46,46],[69,61],[74,40],[49,11],[41,4],[39,-7],[38,-20],[71,-53],[85,-81],[25,-29],[37,-55],[19,-36],[11,-33],[21,-48],[20,-36]],[[5797,2925],[-6,-32],[9,-14],[-8,-11],[6,-10],[-16,-2],[-11,-28],[0,-17],[25,-10],[-11,-16],[4,-12],[15,7],[14,-22],[20,-22],[20,-33],[1,-20],[-12,-22],[-25,23],[-15,-2],[9,-26],[2,-39],[9,-19],[12,-9],[15,9],[12,-15],[-4,-21],[10,0],[6,13],[7,-10],[-4,-31],[-7,-18],[2,-56],[-26,31],[-6,-22],[8,-32],[10,16],[4,-36],[-12,-21],[-7,14],[1,-23],[-15,-1],[-12,-27]],[[5821,2359],[-16,16],[-9,-20],[-21,21],[-6,0],[-3,-21],[-13,-30],[-8,-31],[-1,-18],[10,-10],[-5,-19],[-8,1],[-12,-45],[5,-19],[-8,-29],[-7,-46],[-29,-12],[-12,-30],[-10,5],[-15,24],[-11,27],[-23,11],[-14,-16],[-7,2],[-15,-24],[-4,8],[-19,2],[-18,-30],[-22,7],[-23,-23],[-6,26],[-22,44],[-6,34],[-18,13],[-26,10],[-23,-13],[-33,-11],[-11,3],[-24,-8],[-34,7],[-11,-1],[3,-38],[-22,-9],[-2,-10],[-18,-9],[-28,-4],[-13,7],[-14,-14]],[[5189,2087],[-21,17],[-28,32],[-41,11],[-2,19],[-25,6],[-11,-12],[-9,45],[-8,14],[2,13],[-25,17],[2,51],[-5,10],[-25,3],[-1,16],[-10,1],[-4,18]],[[4978,2348],[-2,16],[-1,64],[45,15],[7,51],[12,-4],[3,21],[-8,29],[5,54]],[[5039,2594],[9,13],[7,42],[6,50],[-5,53],[7,34]],[[5063,2786],[12,-12],[17,10],[29,61],[9,-9],[20,41],[42,22],[0,11],[11,6]],[[5821,2359],[19,-31],[-9,-15],[-1,-25],[5,4],[13,-20],[-2,-30],[7,-2],[4,-29],[-1,-23],[-7,-11],[-20,7],[0,-13],[-11,-12],[-4,-26],[-12,5],[0,-24],[-9,3],[6,-35],[14,10],[0,-33],[38,-48],[-19,-23],[8,-15],[0,-31],[4,-12],[-6,-12],[10,-4],[7,-25],[-10,-4],[-10,-21],[-7,7],[-21,-62],[-11,-29],[-18,-19],[-19,-34],[-5,13],[-3,-18],[-10,15],[6,-27],[-7,9],[-11,-6],[8,-38],[-2,-20],[8,-7],[-3,-20],[8,-17],[-6,-27],[7,-15],[-6,-37],[2,-10],[-13,-21],[-2,-35],[-20,-36],[3,-27],[-9,-10],[-25,-14],[-5,-13],[-31,-3],[2,-23],[-13,6],[-16,-17],[-9,-19],[-14,3],[-3,-11],[-21,-4],[-7,-16],[-28,6],[-3,-13],[-10,11],[-10,-2],[-5,-15],[-34,26],[-8,0]],[[5464,1295],[-5,12],[21,34],[-9,7],[3,16],[14,24],[-6,25],[10,18],[-12,38],[-34,41],[-55,42],[6,41],[-21,16],[3,44],[5,14],[-3,35],[1,28],[-11,1],[-2,12],[-23,-9],[-3,-11],[-15,-11],[-12,129],[-30,9],[-18,1],[-44,-11],[-4,44],[6,28],[-6,20],[-9,5],[-4,34],[-13,6],[4,15],[-2,55],[-6,12],[-1,28]],[[4746,2539],[10,-4],[6,-25],[17,-4],[-3,-46],[13,-41],[12,-24],[-4,-24],[54,18],[0,45],[-14,13],[1,15],[28,84],[10,41],[4,50],[20,-9],[15,4],[-1,15],[30,-16],[4,-18],[-4,-24],[14,-9],[6,-33],[22,2],[-1,11],[17,-1],[4,30],[9,-11],[13,-1],[11,17]],[[4978,2348],[-28,4],[-12,23],[-9,2],[13,-29],[-30,-134],[-2,-45],[-9,-12],[-1,-20],[10,-8],[2,-33],[11,-15],[5,-37],[5,-5],[-8,-56],[-16,-13],[-40,-2],[-24,-9],[-61,-11],[-24,-14],[4,-31],[22,-72],[4,-30],[5,-3],[3,-42],[10,-87],[7,-35],[3,-62],[-6,-31],[2,-35],[-3,-30]],[[4811,1476],[-30,18],[-26,8],[-35,3],[-31,6],[-26,17],[-27,1],[-14,6],[-13,-7],[-11,13],[-1,48],[-18,50],[-27,-1],[-40,4],[-32,12],[-10,12],[-20,-23],[-15,18],[-19,-10],[2,-34],[-7,7],[-15,-21],[2,-16],[-9,-12]],[[4389,1575],[8,55],[26,128],[14,118],[13,77]],[[4450,1953],[31,171],[5,49],[10,36]],[[5063,2786],[8,55],[-8,25],[1,25],[10,1],[-5,31],[-13,13],[4,36],[-6,21],[-10,-2],[-4,12],[-20,11],[-16,-1],[-11,64],[3,59],[-54,45],[-2,6],[1,91],[-5,13]],[[4936,3291],[-53,111],[0,29],[17,89],[4,50]],[[4649,2986],[22,25],[26,46],[15,37],[9,38],[4,65],[-3,21],[-13,30]],[[4709,3248],[49,19],[-5,15],[11,7],[26,-14],[18,-1],[4,22],[17,4],[6,-20],[-7,-1],[4,-22],[21,5],[9,24],[19,6],[14,-26],[8,-2],[33,27]],[[4709,3248],[-12,26],[-54,91],[-30,40],[-25,47]],[[5869,5267],[30,37],[32,35],[43,19],[52,28],[100,18],[35,18],[51,31]],[[6269,5053],[-8,-15],[6,-50],[7,-8],[20,6],[11,-8],[-6,-14],[-11,1],[-13,-11],[2,-27],[15,13],[14,-6],[4,-30],[-11,-20],[-8,-26],[-33,18],[0,-29],[-5,-51],[-15,-26],[-18,18],[-5,41],[-15,25],[-13,-7],[-3,-38],[-9,-10],[-11,3],[-24,-41],[-20,-16],[-15,-37],[-14,18],[6,26],[16,4],[5,40],[11,17],[0,11],[-17,-1],[-9,12],[-11,28],[-15,-9]],[[3949,3616],[2,-44],[7,-55],[0,-22],[-6,-53]],[[3952,3442],[-4,-97],[4,-27],[27,-69],[20,-59],[36,-73]],[[4035,3117],[-17,-24],[-7,12],[-14,-26],[-1,17],[-10,-12],[-1,10],[-14,4],[-25,-13],[-22,6],[-15,-35],[1,-12],[-16,17],[-23,-21],[-21,10],[-32,-29],[-24,-46],[-5,-37],[-15,-50],[-17,-24],[-17,-31],[-21,-16],[-18,2],[0,-17],[-8,-31],[-83,11]],[[3610,2782],[-2,18],[13,26],[1,14],[-8,24],[12,26],[-3,197],[-1,83]],[[3622,3170],[-1,20],[-9,88],[-2,90],[-3,40],[-13,48],[13,-3],[14,49],[12,37],[14,30],[25,37],[22,19],[29,2],[41,-22],[23,1],[39,34],[36,43],[-26,57],[-9,60],[9,41]],[[3836,3841],[12,-2],[4,-11],[-2,-21],[-13,-12],[-1,-12],[19,-59],[8,-32],[34,-27],[24,-30],[28,-19]],[[3622,3170],[-26,-23],[-70,-55],[-41,-47],[-36,-45],[-9,-15],[-57,-127],[-39,-68]],[[3344,2790],[-13,30],[-18,13],[-26,60],[-19,-27],[-8,33],[-37,98],[-8,53],[2,23],[-3,51],[-16,36],[-17,-25],[-8,50],[-16,-9],[-18,26],[-25,16],[-10,0],[-29,-51],[-6,47],[8,41],[-2,18],[-13,35],[-7,10],[10,27],[11,18],[-13,21]],[[3063,3384],[2,22],[-12,21],[7,17],[10,0],[0,31],[-10,9],[4,14],[18,-7],[-6,15],[-4,37],[13,5],[24,-12],[5,25],[10,-25],[11,-8],[7,19],[5,-14],[9,23],[-6,10],[15,2],[-18,14],[2,11],[-19,22],[8,11],[2,-12],[34,26],[-9,12],[10,6],[14,35],[-13,30],[22,-1],[5,-30],[14,20],[-13,13],[3,23],[23,2],[-1,30],[20,-19],[-9,-31],[7,-15],[10,-3],[6,37],[-5,45],[11,17],[-15,2],[-1,14],[15,-1],[3,30],[16,-7],[-7,21],[15,17],[-11,12],[4,6]],[[3288,3905],[9,0],[24,-26],[19,20],[5,-7],[-7,-19],[11,-5],[3,12],[15,11],[0,-27],[27,-13],[7,-21],[17,9],[9,23],[20,13],[-3,22],[-16,24],[1,13],[11,-2],[17,8],[11,21],[23,-3],[13,27],[-22,78],[-8,12],[-10,60],[5,37]],[[3469,4172],[17,-9],[-3,-16],[4,-50],[18,-15],[13,15],[25,42],[-15,40],[6,30],[8,-1],[8,-23],[17,-15],[7,19],[13,12],[15,4],[19,-12],[17,-32],[2,-60],[-1,-43],[-11,-37],[6,-11],[11,5],[16,42],[9,7],[20,-11],[10,12],[14,-22],[20,-11],[18,-2],[17,-27],[11,-9],[11,27],[15,7],[2,11],[-13,30],[-17,19],[-7,18],[5,27],[10,-2],[11,-24],[9,8],[1,42],[12,13],[8,-8],[5,-27],[19,-14],[6,-25],[-12,-23],[-2,-51],[-7,-54],[-20,-101],[-2,-38],[6,-2],[16,14]],[[3469,4172],[13,57],[7,13],[49,72],[56,70],[39,40],[39,34],[17,26],[13,9],[23,5],[14,11],[20,6],[45,21],[22,4],[70,38]],[[3896,4578],[46,30],[33,25],[26,-14],[31,-7],[49,-22],[35,2]],[[4116,4592],[-1,-57],[-6,-145],[-8,-83],[-15,-73],[-9,-41],[-26,-135],[-13,-51],[-33,-116],[-17,-50],[-23,-96],[-11,-62],[-5,-67]],[[3344,2790],[20,-32],[5,-16],[0,-33],[-17,-37],[-11,-6],[-20,0],[-4,-25],[8,-16],[-5,-21],[-8,4],[-12,-54],[1,-18],[24,-112],[1,-48],[7,-9],[5,-29]],[[3338,2338],[-43,-35],[-10,-1],[-15,12],[-14,23],[-20,-11],[-8,-16],[-6,-31],[-12,0],[-4,18],[-13,-4],[-38,4],[-17,-6],[-33,6]],[[3105,2297],[-9,40],[-12,7],[-1,40],[19,26],[12,72],[5,63],[3,20],[13,26],[2,20],[11,23],[-1,29],[14,4],[-3,37],[25,14],[-6,40],[-27,44],[-45,39],[-45,58],[-28,29],[-16,26],[-41,50],[-19,17],[-19,10],[-27,41],[-56,83],[-7,25]],[[2847,3180],[14,12],[16,-11],[7,22],[-12,-2],[-6,30],[11,-7],[16,3],[11,17],[2,34],[10,2],[2,18],[15,10],[-11,16],[21,14],[-8,9],[15,15]],[[2950,3362],[15,-21],[9,8],[8,-21],[-10,-5],[3,-27],[16,5],[17,27],[9,-1],[2,15],[19,-23],[22,43],[-11,1],[2,18],[12,3]],[[4035,3117],[12,-30],[17,-9],[-6,-20],[3,-17],[-4,-15],[8,-10],[6,20],[6,-9],[-2,-23],[7,-5],[5,-32],[11,-11],[-4,-39]],[[4094,2917],[-18,-33],[-15,-66],[-11,-27],[-5,-40],[12,-54],[-6,-53],[-12,-42],[-8,-55],[-2,-81],[-3,-11],[6,-43],[-1,-19],[-11,-40],[4,-26],[10,-37],[-9,-26],[6,-40],[7,-9],[-1,-24],[-7,-21],[-9,-8],[-26,-4],[-9,-15]],[[3986,2143],[-6,-23],[-1,-26],[-19,-34],[-54,-109],[-42,-50],[-16,-11],[-26,5],[-26,-1]],[[3796,1894],[-5,23],[7,25],[-6,29],[2,11],[-9,29],[10,10],[7,22],[-3,15],[19,13],[-5,7],[7,14],[-2,17],[8,7],[1,20],[9,8],[3,26],[-6,3],[-5,31],[4,24],[-10,-2],[-6,-19],[-19,-5],[-11,17],[-27,22],[-16,5],[-16,26],[-32,33],[-15,26],[1,125],[-2,68],[-22,12],[-26,4],[-16,-24],[-23,-61],[-8,-15],[-32,18],[6,35],[8,8],[3,40],[9,24],[3,23],[-5,29],[9,22],[19,90],[6,53]],[[4450,1953],[-19,-49],[-31,-44],[-53,-92],[2,-18],[-13,-6],[-12,5],[-25,-28],[-11,1],[-5,-11],[-16,8],[-103,205],[-18,33],[-8,36],[-14,2],[-24,-9],[-17,5],[-23,-6],[-2,30],[-10,21],[-23,24],[-11,36],[-8,-2],[-7,38],[-13,11]],[[4094,2917],[9,-16],[8,6],[13,-11],[-5,-7],[18,-5],[12,-11],[-2,-25],[14,0],[0,-15],[12,15],[14,-3],[1,14],[17,4],[-1,17],[21,33],[-2,16],[8,4],[2,26],[11,16],[-12,15],[8,17],[6,-15],[6,5],[20,-5],[7,-8],[33,-114],[11,-20],[30,-33],[19,-7],[10,5]],[[3796,1894],[-9,-9],[-6,-25],[4,-23],[15,-17],[-3,-15],[14,-21],[7,-40],[0,-16]],[[3818,1728],[-26,26],[-40,69],[-47,71],[-52,83],[-20,37],[-59,83],[-15,30],[-2,13],[4,50],[-13,70],[-20,50],[-14,24],[-32,33],[-31,14],[-38,-6],[-18,-8],[-33,-7],[-24,-22]],[[3105,2297],[-9,-33],[-9,0],[-18,-22],[-21,-5],[-7,5],[-15,26],[0,12],[-13,15],[-22,15],[-9,19],[-4,-16],[-31,29],[-15,2],[-8,13],[5,36],[-5,29],[3,15],[-25,58],[-17,-11],[1,-20],[-13,3],[-5,-27],[-9,5],[-5,-12],[-17,8],[-12,39],[3,29],[-12,39],[-2,43],[11,4],[5,12],[-6,16],[5,26],[9,-15],[7,35],[11,-2],[-5,12],[-14,0],[1,18],[-12,1],[3,-11],[-9,-7],[0,14],[-11,8],[3,8],[-21,15],[2,13],[-10,23],[10,2],[-4,17],[0,30],[-10,1],[-7,12],[-6,-20],[1,-19],[-12,11],[3,24],[-4,22],[9,-3],[1,17],[8,0],[12,29],[-20,0],[9,30],[-7,18],[9,14],[10,-9],[0,30],[8,20],[-7,25],[-13,4],[7,16],[15,18],[22,-8],[2,15],[-14,12],[6,14],[11,3],[-7,21],[16,0],[1,18],[-10,6],[3,14],[14,-15],[0,30],[6,18]],[[2845,3178],[2,2]],[[3952,3442],[30,-48],[21,-12],[46,-17],[31,-1],[43,-15],[45,1],[54,7],[45,2],[37,-22],[27,-29],[27,-41],[36,-62],[20,-53],[21,-45],[8,-25],[47,-83],[19,-20],[35,-22]],[[4389,1575],[-25,-91],[-9,-54],[-3,-27],[-6,-165],[-5,-47],[-7,-33],[-20,-65],[-14,-22],[-22,-19],[-41,-48],[-28,11],[-16,38],[-13,48],[-42,125],[-11,27],[-13,15],[-13,-7]],[[4101,1261],[-9,17],[-14,51],[-13,34],[-18,34],[-18,17],[-22,9],[-33,31],[-44,51],[-31,46],[-12,31],[-13,20],[-2,20],[-9,11],[-2,16],[-26,24],[4,37],[-8,-1],[-13,19]],[[8476,7266],[13,-54],[13,-20],[43,-99],[0,-26],[6,-9],[1,-24],[16,-22],[8,-45],[-7,-29],[-15,-17],[-14,-5],[-11,-19],[1,-20],[-9,11],[5,-34],[-6,3],[-5,-18],[-9,-8],[-4,-16],[-12,-16],[-5,-36],[2,-24],[-7,-13],[-5,16],[-15,-9],[-9,13],[-10,-58],[-6,-19],[-8,8],[-10,-15]],[[8417,6662],[-15,8],[-19,-19],[-10,14],[-2,-15],[-9,-3],[-3,-34],[-16,-24],[-15,-1],[-7,-16],[8,-22],[-5,-13],[-16,-11],[-10,-60],[-1,-19],[-11,-39],[7,2],[7,-16],[-10,-7],[9,-45],[10,4],[6,-13],[14,-2],[-7,-23],[-10,-12],[4,-9],[-11,-8],[-3,-33],[-10,2],[-2,-16],[12,-9],[-9,-12],[-8,-24],[-1,-37],[8,5],[-1,-31],[-5,-7],[13,-5],[-1,-23],[9,-4],[2,-20],[-11,12],[0,-20],[-12,-1],[10,-25],[5,-28],[-4,-14],[-12,4],[6,-30],[5,4],[-3,-23],[-7,-9],[1,-19],[-6,-4],[-12,-31],[4,-19],[-6,-24],[12,-3],[-13,-22],[-6,-22],[2,-16],[16,-26],[5,-23],[13,-10],[1,-41],[3,-16],[19,-22],[20,-8],[21,-27],[21,-15]],[[8381,5587],[-54,11],[-25,8],[-54,4],[-22,-2],[-24,-10],[-47,-15],[-29,-11],[-20,-4],[-43,17],[-52,10],[-23,1],[-40,12],[-40,27],[-32,13],[-24,25],[-22,9],[-13,26],[-17,19],[-13,-2],[-11,-13],[-38,-30],[-12,-24],[-12,0],[-11,12],[-22,56],[-11,22],[-37,111],[-7,-7]],[[7626,5852],[-9,23],[-15,13],[-7,-2],[-8,-24],[1,-29],[-5,-17],[-8,-3],[-8,12],[-2,25],[-16,29],[0,23],[20,11],[-1,12],[-24,35],[-47,10],[-14,19]],[[7483,5989],[14,35],[18,57],[23,107],[7,43],[10,130],[-1,64],[-9,60],[-19,97],[-23,81],[-12,65],[-1,36],[9,86],[21,137]],[[7520,6987],[59,-38],[30,-15],[11,-122],[-1,-34],[21,-22],[28,-35],[-3,-40],[41,-31],[33,-20],[4,2],[20,49],[16,20],[5,21],[6,1],[8,30],[15,-16],[5,20],[13,-3],[23,32],[19,10],[21,45],[28,-10],[23,-19],[11,-1],[3,-12],[15,10],[7,-14],[18,2],[22,-18],[9,-15],[1,-21],[11,3],[0,-19],[21,4],[-5,121],[1,49],[4,23],[-3,28],[19,28],[34,37],[33,31],[15,29],[10,39],[-13,13],[-8,-35],[-10,8],[1,14],[9,20],[-10,12],[6,13],[-7,19],[-15,22],[0,14],[-10,20],[0,20],[-8,9],[1,35],[-6,10],[-28,-13],[-7,23],[7,15],[15,-5],[5,19],[-25,26],[4,9],[12,-9],[0,25],[-10,5],[-4,43]],[[8070,7448],[3,12],[12,8],[11,-35],[4,30],[16,12],[-8,6],[21,25],[4,-23],[9,9],[1,-14],[9,3],[-10,31],[19,14],[3,-18],[9,14],[2,-24],[11,-15],[4,13],[25,-4],[-2,15],[16,11],[8,-21],[3,13],[12,-1],[15,24],[23,-1],[11,24],[16,3],[2,-17],[17,9],[-2,-36],[13,-2],[-5,-13],[13,-2],[1,13],[9,-13],[0,15],[11,-15],[4,-16],[5,18],[5,-20],[40,-29],[0,-10],[18,-21],[6,-20],[-3,-21],[7,-72],[17,-16],[1,-25]],[[7031,5388],[29,-35],[16,-13],[38,-15],[15,3],[29,24],[42,42],[22,15],[37,46],[15,27],[41,82],[19,33],[38,88],[40,106],[38,105],[15,48],[18,45]],[[7626,5852],[-1,-20],[8,-21],[17,-21],[-2,-20],[-13,-17],[-7,-2],[-17,39],[-9,-7],[-8,-24],[-9,-4],[-10,17],[-16,15],[-8,-7],[-11,-41],[-47,-27],[-10,-11],[-2,-14],[7,-52],[-15,-8],[-27,22],[-16,-1],[-2,-16],[10,-53],[20,-42],[4,-48],[5,-17],[9,-1],[24,30],[7,-12],[0,-33],[-37,-16],[-20,18],[-11,1],[-18,-10],[-2,-16],[11,-27],[4,-24],[-11,-38],[-4,-42],[8,-31],[0,-44],[-3,-13],[-20,-28],[-5,-84],[2,-51],[14,-24],[15,2],[4,31],[-6,27],[5,29],[20,19],[13,-6],[9,-28],[9,-53],[-12,-26],[-22,-15],[-9,-22],[-10,-63],[0,-20],[19,-27],[10,11],[9,44],[18,19],[21,1],[19,-18],[25,-46],[11,-41]],[[7563,4845],[-5,-38],[-9,-21],[-10,4],[-5,32],[3,30],[-5,26],[-7,12],[-13,2],[-21,-12],[-16,-4],[-4,-12],[-3,-70],[-3,-35],[0,-101]],[[7465,4658],[-13,-11],[-8,6],[-4,-21],[-11,6],[-42,-4],[-10,27],[-33,41],[-4,22],[-11,0],[-97,-33],[-12,1],[-32,16],[-62,-22],[-18,7],[-28,2],[-17,10],[-29,44],[-10,43],[-11,20],[-6,-40],[-11,25],[-12,-9],[-13,13],[-17,-26],[0,-19]],[[6954,4756],[-33,12],[-9,-14],[-30,20],[-15,31],[-5,28],[1,41],[16,55],[8,0],[8,47],[2,58],[-9,36],[0,20],[-17,35],[-1,38],[-6,2],[-3,30],[10,56],[3,49],[-5,21]],[[7520,6987],[11,70],[6,91],[1,74],[-9,54],[0,34],[5,51],[6,26],[9,68],[13,53],[20,42],[18,28],[30,34],[66,55],[21,26],[57,79],[81,82],[63,62],[19,23],[40,70]],[[7977,8009],[24,-41],[-9,-34],[14,-7],[5,-13]],[[8011,7914],[6,-21],[-16,-18],[11,-5],[-8,-19],[5,-8],[9,17],[10,-14],[-9,-21],[9,-17],[-6,-17],[-15,1],[-5,-33],[-10,-15],[-15,-10],[4,-16],[22,8],[7,-10],[-4,-16],[-14,-25],[0,-36],[-9,-29],[9,-15],[9,13],[-2,-24],[-14,1],[-3,-12],[8,-3],[2,-24],[9,15],[-1,-45],[3,-11],[-12,3],[-3,-10],[32,-47],[16,16],[21,0],[13,-19]],[[8381,5587],[-9,-3],[-18,-24],[3,-29],[14,-39],[2,-33],[10,-48],[27,22],[0,-19],[15,-13],[2,-66],[11,-6],[1,-66],[15,0],[2,-19],[-21,-11],[-13,12],[-23,-15],[-8,-23],[-11,-14],[-9,-29],[-5,-46],[-9,-24],[-12,-1],[-12,14],[-15,-5],[-34,20],[-5,18],[-10,5],[-13,-7],[-15,-28],[-13,-7],[2,-18],[-6,-3]],[[8224,5082],[-15,27],[-12,4],[2,18],[-7,-4],[-7,18],[-13,14],[-10,-53],[-5,-14],[-22,-17],[-16,-32],[-22,-20],[-13,5],[-12,-10],[-13,-3],[-31,6],[-7,-9],[-23,1],[-12,-7],[-64,-16],[-17,-25],[-21,-17],[-19,-8],[-23,0],[-6,-18],[-40,-6],[-25,-27],[-10,-26],[-7,13],[-5,-28],[-13,-16],[-9,-3],[-6,15],[-30,-7],[-8,-12],[-10,7],[-26,-24],[-17,-6],[-4,14],[-13,4],[-6,18],[-31,20],[-13,-13]],[[6954,4756],[-2,-31],[-28,-51],[-20,-52],[3,-28],[-4,-5],[4,-36],[-5,-20],[4,-70],[8,-16],[0,-29],[6,-48],[2,-69],[17,-38],[6,-37],[-7,-8],[10,-45],[7,1],[16,-95],[2,-26],[-11,-7],[-11,7],[-9,-22],[-10,4],[-37,-43],[-12,-21],[-11,-38],[-13,-29],[18,-7],[12,-17],[10,-35],[12,-5],[24,11],[4,-3],[10,-50],[-3,-61],[13,-4],[14,6],[19,27]],[[6992,3766],[-3,-277],[-25,10],[-7,-3],[-16,16],[-4,-5],[-29,15],[-20,-4],[-14,-9],[-27,-45],[-17,-54],[-2,-53],[2,-21],[-5,-16],[-19,-23],[-17,-7],[-20,-17],[-30,-40],[-11,-1],[-12,24],[-3,18],[-8,10],[-33,-1],[1,65],[4,18],[-38,25],[-8,25],[-7,38],[-1,40],[4,26],[-11,14],[-4,22]],[[6612,3556],[12,24],[12,4],[12,-7],[20,-1],[6,11],[2,24],[22,1],[0,-7],[32,-17],[19,25],[1,26],[-10,6],[-6,-13],[-17,3],[-5,23],[-19,19],[-6,15],[-8,70],[0,29],[11,20],[4,37],[8,34],[-4,35],[-16,15],[3,9],[-11,33],[5,8],[-9,30],[5,16],[-9,4],[6,15],[-12,26],[4,40],[-5,17],[4,23],[8,11],[8,30],[-10,15],[3,18],[12,3],[0,13],[-11,22],[-12,37],[6,35],[-13,-1],[-25,11],[-2,13],[-17,13],[-4,18],[1,28],[-9,16],[2,19],[-11,17],[5,9],[-4,23],[0,32],[-7,13],[20,48],[17,20],[11,-2],[14,31],[5,48],[6,19],[20,5],[-2,36],[13,8],[-1,37],[-7,16],[0,20],[-9,31],[-2,72],[-3,34],[-2,45],[-20,87],[-3,40],[2,27],[19,28],[4,26]],[[6612,3556],[-9,35],[1,12],[-11,18],[-6,-2],[-4,18],[-35,41],[-2,28],[-13,27],[2,11],[-5,31],[7,19],[-5,71],[3,28],[-16,22],[-8,27],[-9,4],[-7,17],[0,21],[-8,8],[6,96],[-19,12],[-3,30],[-8,3],[-20,28],[-18,45],[-18,-13],[-25,2],[-4,14],[-22,-32],[2,-7],[-25,2],[-18,-8],[-33,12],[-69,0],[-35,4],[-19,13],[-3,33],[-9,16],[-14,9],[-25,28]],[[8224,5082],[-3,-23],[9,-18],[0,-18],[-10,-22],[7,-12],[-6,-14],[3,-19],[-7,-17],[8,1],[-4,-18],[-2,-51],[6,-27],[-10,-44],[-45,-97],[-22,-59],[-16,-22],[13,-39],[8,-7],[2,-44],[17,-25],[2,-14],[18,-65],[22,-28],[3,-18],[19,-41],[26,-23],[20,-35],[16,-24],[7,-18],[11,-2],[6,-16],[-1,-18],[13,-12],[18,10],[16,-23],[0,-30],[5,-7],[0,-23],[11,-1],[0,-25],[19,-23],[45,-79],[18,-18],[0,-12],[29,-35]],[[8495,3927],[-9,-13],[6,-19],[-8,-11],[-4,10],[-27,-31],[-1,-13],[-10,-21],[-6,13],[-4,-19],[-14,2],[-11,20],[5,17],[-12,8],[-5,-19],[-11,9],[0,20],[-12,-11],[0,26],[-9,5],[-14,-49],[7,-10],[-2,-14],[-21,-47],[-9,13],[0,-26],[-9,-11],[-8,-42],[-19,11],[-7,-12],[2,-20],[-12,-2],[1,-19],[-18,-3],[-6,-17],[1,-22],[16,-19],[1,-10],[-27,-130],[-9,-32],[-3,-43],[-3,-63],[-26,-89],[-3,-105],[-7,-40],[-49,-115],[-25,-37],[-12,-10],[-17,1],[-18,13],[-20,29],[-33,64],[-25,22],[-19,58],[-3,17],[-12,-4],[-8,-33],[-15,16],[13,34],[7,8],[-3,27],[-15,7],[2,25],[20,-3],[2,29],[-23,7],[-5,28],[-7,-5],[-3,-18],[-11,16],[-13,-5],[-1,16],[9,-3],[-4,35],[-15,9],[-9,-6],[-1,18],[-12,16],[16,25],[13,-1],[-8,19],[11,6],[1,19],[11,-3],[5,14],[-17,23],[9,32],[-7,32],[-22,24],[-15,8],[-27,-32],[-12,2],[-5,28],[15,11],[7,32],[-14,9],[-8,14],[-6,44],[1,23],[-10,20],[4,38],[-8,18],[-41,6],[-5,-5],[-4,-37],[4,-20],[9,-1],[3,-17],[-3,-21],[-6,-1],[-16,17],[-7,26],[-15,10],[-8,-23],[-13,14],[11,38],[-2,56],[-7,72],[-8,15],[-21,-23],[0,-37],[-15,4],[-21,67],[-20,17],[-14,38],[-5,4],[-23,-26],[-10,17],[-1,25],[4,38],[-10,25],[-14,22],[-5,43]],[[7534,4103],[8,70],[10,39],[0,21],[-10,18],[-16,18],[-39,-17],[-15,11],[-15,32],[-10,67],[-1,40],[8,27],[17,-1],[15,-16],[2,-23],[-3,-27],[4,-9],[17,-8],[5,9],[-1,57],[2,18],[9,13],[27,22],[3,9],[2,72],[-6,47],[-13,26],[-14,7],[-39,-37],[-9,11],[-6,31],[-1,28]],[[9425,5160],[13,-17],[2,-66],[27,33],[2,-15],[28,-62],[21,-50],[27,-59],[20,-37],[11,-77],[5,-8],[6,-51],[-9,-29],[6,-21],[1,-37],[17,-53],[-12,-16],[-21,2],[-34,15],[-44,-13],[-48,-7],[-12,13],[-50,-15],[-11,16],[-6,25],[-20,27],[-29,-6],[-16,10],[-13,-45],[2,-16],[-4,-29],[-25,-18],[-24,-3],[-17,15],[-11,19],[-16,4],[-10,-44],[18,-13],[-10,-24],[0,-13],[37,-31],[2,-26],[22,-7],[38,11],[11,-40],[10,-4],[6,-16],[31,-2],[7,-10],[-4,-47],[-7,-1],[-7,-34],[-27,13],[-26,-36],[-18,-12],[5,-38],[-2,-8],[-46,-50],[7,-23],[13,12],[12,-17]],[[9253,4129],[-9,-4],[-10,-30],[-18,-1],[-17,15],[-13,-19],[-21,6],[-10,-4],[-18,13],[-20,-6],[-3,10],[-16,-1],[-7,26],[1,23],[-26,108],[-1,24],[-19,22],[-2,11],[-13,3],[-3,36],[-23,-4],[-23,24],[-24,39],[-11,33],[-21,40],[-13,-2],[-14,19],[-31,12],[-10,24],[-32,50],[-23,23],[-14,3]],[[8789,4622],[28,35],[-5,17],[9,10],[12,32],[-5,32],[-8,11],[6,32],[11,38],[-7,21],[-13,114],[2,58],[-10,34],[1,40]],[[8810,5096],[21,-6],[-1,-19],[39,-9],[2,22],[11,27],[8,5],[26,-15],[7,-15],[10,3],[28,-62],[1,-26],[13,-16],[14,-8],[19,0],[9,9],[26,-17],[41,18],[8,-7],[22,1],[2,17],[26,11],[18,-6],[14,-29],[12,13],[-5,10],[2,20],[12,-9],[-8,19],[14,18],[61,21],[-1,10],[20,34],[16,69],[14,-6],[-1,-25],[27,2],[4,21],[23,4],[27,-18],[34,3]],[[9253,4129],[25,-25],[39,-21],[3,-13],[17,6],[26,-42],[4,1],[12,-25],[44,-41],[10,-13],[18,-12],[12,-29],[0,-29],[21,-16],[17,-21],[5,-17],[29,-33],[18,6],[10,-30],[9,-2],[7,-33],[10,-34],[14,-9]],[[9603,3697],[-4,-26],[-21,-13],[-5,14],[-17,-1],[-17,-25],[-10,2],[-6,-16],[-10,2],[-17,-26],[-15,7],[-8,-26],[5,-14],[0,-36],[-13,-58],[-24,-81],[-20,-54],[-8,-29],[-1,-18],[-23,-55],[-33,15],[-29,19],[-1,-10],[-54,-9],[-6,-9],[-20,8],[-28,39],[-16,8],[-10,-26],[-21,0],[-23,26],[-30,24],[-15,0],[-15,46],[-51,77],[-18,33],[-71,98],[-7,14],[-17,68],[-5,47],[10,70],[-9,37],[-14,11],[-8,18],[-13,12],[-24,45],[-18,67],[-48,52],[-24,15],[-17,30],[-18,13],[-5,21],[-12,-10],[-3,-20],[6,-14],[-5,-10],[6,-28],[-25,-26],[-11,5],[-12,-6],[-21,0],[-3,-23],[-6,0]],[[8645,3971],[-9,20],[3,33],[-8,21],[-1,37],[-16,16],[7,6],[-1,37],[7,15],[-11,35],[5,5],[-1,42],[14,39],[17,16],[2,22],[9,23],[-5,11],[13,24],[-1,27],[-10,19],[9,22],[-11,6],[2,17],[-7,27],[9,-4],[6,16],[-9,16],[-1,45],[-8,-3],[-7,27],[10,14],[-7,39],[10,2],[6,20],[26,-1],[28,13],[32,-17],[42,-36]],[[8381,5587],[24,-7],[18,4],[30,-22],[69,-14],[49,-2],[101,-19],[15,14],[12,39],[34,35],[12,34],[16,3]],[[8761,5652],[-10,-51],[-2,-44],[-7,-40],[13,-42],[-5,-48],[1,-80],[3,-9],[9,-70],[26,-44],[12,-5],[-4,-43],[1,-26],[12,-54]],[[8645,3971],[-6,-12],[0,-21],[-15,-10],[-2,-14],[-20,3],[-15,-27],[-16,-1],[-18,15],[-18,0],[-18,9],[-11,15],[-11,-1]],[[7534,4103],[-39,1],[-9,-11],[-1,-16],[-20,-7],[-16,-15],[-9,0],[-48,-38],[-12,-2],[-24,12],[-17,-2],[-14,19],[-16,14],[-5,39],[-10,-13],[-8,13],[-10,59],[13,-1],[-8,34],[-16,13],[-26,-16],[-7,-10],[3,-17],[15,-13],[-4,-25],[7,-28],[11,-9],[0,-17],[-14,-15],[-4,-35],[2,-12],[-7,-15],[-13,0],[-18,-14],[-3,-13],[-26,-20],[-3,14],[-24,24],[-8,-17],[0,16],[-12,-7],[-21,-1],[-11,-7],[-16,3],[-1,-9],[-14,28],[-3,-16],[-17,-7],[6,-51],[-17,-26],[-5,-18],[13,-59],[0,-38],[-16,-12],[-18,16],[-22,-2],[0,-8]],[[3896,4578],[-7,20],[-11,61],[-17,55],[-15,38],[-40,89],[-11,17],[-20,10],[-27,0],[-15,-6],[-42,-39],[-43,-11],[-20,5],[-27,16],[-18,17],[-28,14],[-20,25]],[[3535,4889],[39,70],[21,50],[22,34],[27,32],[19,46],[7,32],[14,104],[0,30]],[[3684,5287],[31,-16],[55,-35],[55,-22],[54,-15],[32,-6],[35,-10],[17,-8],[30,-33],[50,-73],[38,-72],[13,-34],[17,-53],[3,-22],[2,-62],[1,-116],[-1,-118]],[[3535,4889],[-47,17],[-20,4],[-32,14],[-15,22],[-13,63],[-10,14],[-20,-5],[-19,-24],[-8,-25],[-14,-17],[-16,4],[-8,-14],[-18,0],[-28,-9],[-8,-17],[-49,-59],[-24,-20],[-52,-50],[-17,-10],[-36,-14],[-19,-2],[-41,13],[-27,16],[-13,12]],[[2981,4802],[-22,33],[-32,8],[-33,18]],[[2894,4861],[28,76],[9,34],[11,28],[33,100],[30,122],[11,62]],[[3016,5283],[54,-30],[55,-13],[51,1],[44,6],[53,27],[28,18],[38,14],[19,-6],[29,-19],[28,-26],[13,-18],[44,-39],[13,-2],[46,-1],[26,3],[21,8],[53,45],[35,26],[18,10]],[[2894,4861],[-19,3],[-44,-3]],[[2831,4861],[-39,-2],[-14,-8],[-27,0],[-15,24],[-26,10],[-32,54],[-50,45],[-48,32],[-19,15],[-18,29],[-20,19],[-5,27],[-7,19],[-17,22],[-6,51],[-14,41],[2,36],[-4,20],[-32,46]],[[2440,5341],[53,95],[17,46],[15,60],[3,25],[1,52],[9,45],[22,73]],[[2560,5737],[37,-43],[47,-65],[10,-17],[72,-80],[42,-40],[78,-71],[34,-27],[27,-26],[34,-28],[41,-40],[34,-17]],[[3288,3905],[-21,23],[-23,18],[-39,45],[-20,11],[-35,36],[-9,23],[-10,57],[-27,88],[-28,72],[-26,49],[-18,55],[-19,45],[-12,41],[-6,32],[3,25],[-1,45],[-5,33],[-11,23],[-4,25],[-2,79],[6,72]],[[1718,6538],[-20,-33],[-16,-4],[-18,13],[-7,21],[-16,-10],[-3,-30],[-6,-30],[-2,-36],[2,-59],[-8,-50],[-6,-21],[-11,-11],[-16,-53],[-3,-60],[-15,-34],[-6,9],[-1,46],[-13,12],[-13,-6],[-7,-37],[-3,-61],[2,-27],[8,-38],[6,-15],[-9,-21],[-15,7],[-34,46],[7,46],[-11,-3],[-18,-24],[-22,-66],[-5,-36],[2,-10],[27,1],[5,-16],[5,-47],[-15,2],[-17,-19],[-11,-22],[-3,-20],[9,-28],[-6,-11],[-29,34],[-8,-4],[7,-28],[13,-19],[5,-41],[-17,-15],[-5,-20],[-11,-19],[-11,7],[-7,-17]],[[1372,5681],[-5,32],[-14,5],[-2,16],[-12,-14],[-8,3],[0,23],[-7,22],[-16,4],[-11,18],[-12,-14],[-10,23],[-4,-12],[-7,10],[-5,-12],[-11,1],[-19,36],[-13,-15],[-11,8],[-5,-22],[-27,-6],[-11,7],[-5,17],[-26,-6],[-6,14],[-12,-1],[-13,12],[-9,28],[-2,22],[-19,40],[5,16],[10,11],[7,30],[15,11],[1,24],[-17,9],[-17,-3],[-34,-39],[-40,-34],[-29,-35],[-32,-7]],[[939,5903],[5,48],[5,24],[11,24],[20,24],[7,26],[0,36],[7,13],[-5,30],[-10,19],[2,31],[-4,29],[7,46],[8,13],[6,33],[21,50],[7,27],[17,48],[3,23],[34,19],[13,-5],[19,10],[19,-1],[22,-11],[12,7],[8,33],[11,19],[16,12],[16,4],[30,23],[12,-12],[13,-1],[120,59],[44,21],[42,13],[38,26],[18,17],[12,-7],[25,18],[44,39]],[[1614,6730],[73,-125],[9,-28],[22,-39]],[[2440,5341],[-6,-15],[-50,-202],[-10,-66],[5,-66],[-4,-21],[-4,-44],[-15,-31],[-7,-40],[-3,-64],[-28,1],[-3,-30],[-7,-27],[-35,-51],[-24,-26],[-24,-20],[-9,-16]],[[2216,4623],[-2,24],[-21,3],[-21,-13],[-13,15],[-9,1],[-11,30],[-7,-16],[-9,-1],[-8,30],[-2,28],[-43,59],[-22,4],[-27,-8],[-31,6],[-15,9],[-17,21],[-8,22],[-5,40],[-27,39],[-45,47],[-10,19],[-12,55],[-9,16],[-11,54],[-7,14],[-19,8],[-13,30],[3,51],[-8,43],[-17,8],[-31,43],[-2,26],[6,7],[2,28],[27,69],[0,35],[-5,5],[-41,-1],[5,28],[-18,28],[-4,22],[-42,63],[-13,-67],[0,-65],[-17,-22],[-11,-23],[-37,28],[-49,32],[-7,13],[-25,-1],[-6,15],[-11,7],[-28,42],[-18,0],[-21,25],[-22,2],[-4,66],[-8,13],[-18,2]],[[1718,6538],[23,-27],[47,-40],[44,-8],[39,-24],[46,-18],[44,-8],[55,-18],[22,2],[41,-10],[29,-12],[46,-24],[54,-83],[68,-85],[76,-112],[110,-143],[26,-49],[37,-73],[18,-45],[17,-24]],[[1114,7556],[-32,-95],[-7,-45],[11,-45],[0,-31],[-9,-45],[4,-33],[-1,-56],[-13,-9],[-13,-24],[-2,-32],[-15,-18],[-16,-7],[-12,-22],[1,-31],[-4,-12],[-16,-5],[-38,33],[-18,-10]],[[934,7069],[-18,10],[-11,15],[0,83],[-3,17],[-23,60],[-10,49],[0,51],[-4,71],[12,38],[3,24],[-4,19],[6,16],[1,24],[-18,41],[-18,25],[-30,31],[-29,20],[-23,-1],[-21,5],[-62,28],[-74,39],[-59,41],[-34,32],[-67,73],[-21,27],[-18,30],[-48,45],[-20,7]],[[341,7989],[5,10],[-4,34],[1,36],[9,10],[-3,13],[3,24],[-7,67],[4,15],[-15,28],[2,20],[15,17],[-2,47],[-7,7],[-2,40],[9,9],[3,21],[-6,2],[-3,34],[-9,12],[4,23],[8,7],[-7,30],[0,45],[7,6],[10,33],[-5,36],[6,13],[15,82],[32,-32],[23,-8],[26,21],[16,8],[35,4],[32,11],[29,25],[20,4],[24,-29],[24,-16],[15,-40],[-1,-46],[8,-8],[32,-5],[24,-15],[21,-6],[27,6],[31,-3],[12,-12],[10,-53],[4,-32],[17,-104],[11,-32],[13,-62],[10,-88],[4,-21],[20,-43],[9,-26],[21,-125],[20,-134],[18,-59],[13,-19],[44,-45],[12,-22],[21,-49],[2,-41],[8,-16],[37,-32],[18,-10]],[[934,7069],[0,-28],[-11,-36],[-6,-31],[-2,-56],[-13,-26],[-29,-40],[-10,-27],[-9,-48],[-2,-80],[-6,-40],[-13,-31],[-16,-87],[-8,-23],[-29,-47],[-9,-23],[-9,-54],[1,-41],[4,-31],[26,-71],[21,-65],[30,-129],[21,-56],[11,-16],[36,-42],[27,-38]],[[939,5903],[-35,-38],[-59,-59],[-25,-42],[-20,-38],[-57,-153],[-2,18],[-10,17],[-11,-9],[-13,10],[-18,-9],[-9,31],[5,24],[-8,4],[-3,37],[-8,13],[3,34],[-2,23],[-16,8],[-27,29],[0,14],[15,54],[2,32],[-13,37],[12,44],[-6,22],[11,17],[1,14],[9,16],[4,36],[-8,35],[6,14],[3,36],[-18,33],[-9,-6],[-17,12],[-8,-19],[-15,-5],[-7,7],[-29,12],[-11,-4],[-11,-13],[-4,7],[-27,-26],[-2,-9],[-19,-11],[-24,-25],[-15,-6],[-10,-12],[-46,-34],[-9,2],[-18,45],[-2,28],[3,29],[39,98],[15,19],[7,71],[-7,10],[1,20],[10,10],[-4,77],[-8,-5],[-2,30],[-7,1],[-15,27],[5,18],[-6,56],[3,43],[-5,9],[-37,36],[-22,28],[6,20],[-2,28],[10,20],[1,19],[-11,20],[1,22],[-24,20],[-13,-7],[-5,-31],[-20,-1],[-20,-14],[-28,2],[-17,-4],[-20,43],[-23,5],[-20,15],[-5,10],[-17,10],[-4,-11],[-19,4],[-9,-15],[-6,24],[-15,-4],[-22,5],[-8,-13],[-22,29],[-17,-3],[1,126],[2,30],[11,26],[24,34],[6,21],[9,82],[12,61],[5,52],[1,48],[7,48],[8,76],[17,108],[2,31],[-13,33],[6,34],[29,52],[27,33],[16,46],[28,41],[18,36],[19,22],[18,10],[41,6],[47,13]],[[1114,7556],[40,-34],[38,-53],[40,-71],[6,-14],[51,-85],[49,-68],[26,-42],[22,-39],[25,-34],[84,-164],[15,-36],[41,-79],[63,-107]],[[5464,1295],[-4,-8],[-21,6],[-11,-30],[-16,-3],[-9,-17],[-25,8],[-9,-4],[-5,-26]],[[5364,1221],[-18,8],[-7,-15],[-7,12],[-14,-19],[3,-24],[-24,-29],[-11,-3],[-30,-34],[-4,-12],[-24,-4],[3,-30],[-7,-22],[-11,15],[-18,-31],[-16,-8],[-3,-13],[-46,-44],[-7,-26],[-22,-15],[-18,-25],[-20,-7],[-8,19],[-15,12],[-9,17],[-13,-24],[-15,-7],[-12,-15],[-8,-24],[-12,-2],[-4,10],[-13,-22],[-35,11],[-5,-8],[-15,1],[-8,-8],[-14,34]],[[4877,889],[0,7],[36,28],[17,40],[2,13],[-5,35],[30,17],[34,5],[6,6],[-3,31],[10,21],[0,35],[-19,0],[-19,7],[-18,38],[-18,13],[-24,28],[-20,35],[-7,-10],[-30,-19],[-7,-10],[-17,-6],[-44,-55],[-9,77],[-4,11],[11,11],[-4,21],[-1,53],[3,67],[26,56],[8,32]],[[5364,1221],[2,-27],[-14,-20],[8,-18],[-9,-4],[1,-19],[-12,-7],[6,-28],[-9,-10],[5,-13],[-9,-9],[-9,6],[-1,-15],[-13,-21],[6,-37],[-23,-13],[-3,-16],[10,9],[-1,-51],[8,-20],[-3,-20],[9,-27],[-16,-68],[4,-25],[-7,-26],[-13,-1],[-1,-16],[-9,5],[1,-15],[-9,8],[-4,-22],[-26,28],[-11,-2],[-7,-20],[-13,-1],[-8,-30],[16,-34],[-10,-8],[7,-7],[10,-55],[9,-8],[-6,-27],[8,-19],[-5,-29],[14,-30],[-1,-22],[17,-34],[-14,-35],[-9,-6],[-9,11],[-23,-7],[-12,10],[-24,0],[-10,37],[-22,-5],[-20,4],[9,-15],[-6,-14],[-7,-39],[-23,-22],[-6,12],[-11,-1],[3,22],[-9,-1],[-2,19],[-24,-31],[-8,-35],[1,-22],[-9,-33],[-8,-10],[2,-41],[-13,-18],[-8,-37],[-9,-9],[-30,12],[-75,-5],[-29,18],[-9,10],[-32,64],[-8,-4],[-8,22],[-10,8],[-1,19],[-10,3],[1,29],[-17,19],[-12,38],[-16,11],[-17,2]],[[4709,383],[-4,19],[0,38],[8,47],[0,32],[10,5],[-1,17],[4,62],[-5,27],[10,35],[-2,36],[20,14],[25,27],[21,-3],[31,36],[0,18],[8,3],[6,-11],[2,24],[13,0],[7,27],[16,10],[-1,43]],[[4709,383],[-21,-43],[-18,-65],[-20,-40],[-52,-30],[-27,-23],[-20,-24],[-10,-25],[-2,-48],[-25,-50],[-21,-15],[-41,-12],[-29,1],[-32,-9],[-15,5],[-11,13],[0,28],[-6,25],[8,19],[11,51],[-13,26],[4,24],[-12,31],[2,66],[-12,7],[-78,58],[-34,22],[-59,33],[-62,27],[-29,7],[-31,1],[-38,-20],[-27,-19],[-7,6],[1,21],[10,22],[-2,43],[4,15],[13,17],[5,20],[11,11],[7,52],[-7,61],[12,22],[-7,26],[7,6],[0,26],[-11,44],[7,14],[3,32],[-7,4],[-7,39],[-6,0],[-4,21],[4,24],[-1,26],[-10,18],[1,20],[-9,27],[-6,40],[0,24],[11,35],[10,59],[2,33],[6,15],[23,9],[24,-2],[14,16],[21,11]],[[8761,5652],[22,-17],[52,-80],[48,-28],[29,-32],[62,-22],[40,11],[65,-19],[15,7],[23,4],[50,2],[-1,61],[-14,22],[-7,34],[-20,26],[-11,36],[-12,29],[-20,35],[-6,73],[-11,30],[4,44],[-2,102],[-15,13],[-19,53],[-39,-2],[36,75],[19,51],[8,53],[11,26],[10,33]],[[9078,6272],[22,66],[1,15],[20,-10],[25,-25],[16,-43],[17,57],[13,25],[19,15],[32,44],[18,42],[14,47]],[[9275,6505],[20,-11],[29,-5],[4,-9],[17,-1],[9,-9],[14,2],[29,-40],[27,9],[34,-21],[6,-22],[12,2],[4,12],[10,-7],[3,-13],[14,2],[6,-17],[17,-8],[8,5],[4,-20],[-6,-9],[10,-11],[-5,-14],[12,5],[5,-13],[-2,-29],[7,-4],[4,-50],[18,-39],[-10,-6],[8,-22],[-12,-8],[-2,-12],[-11,-18],[-1,-20],[6,-16]],[[9563,6088],[-28,-62],[-59,-76],[-42,-26],[-26,-25],[-11,-25],[7,-2],[-6,-21],[9,-11],[11,-66],[-2,-30],[-7,-13],[8,-9],[-2,-12],[-17,-6],[-6,-23],[4,-21],[-12,-16],[-17,-55],[-4,-4],[3,-25],[15,-47],[22,-36],[3,-12],[23,-31],[11,-21],[19,-68],[12,-11],[3,-12],[16,-10]],[[9490,5312],[-2,-17],[8,-33],[-2,-28],[-20,-19],[-6,-19],[-8,3],[-11,-22],[-24,-17]],[[9563,6088],[1,14],[20,19],[22,9],[36,30],[16,0],[19,8],[20,2],[22,12],[17,-15],[31,-41],[1,-19],[12,-22],[13,-14],[28,15],[2,-10],[20,-16],[11,-36],[-3,-24],[-10,-30],[9,-4],[11,-33],[6,-52],[7,1],[-2,-18],[9,-25],[26,-11],[15,-24],[28,-6],[1,-23],[8,-22],[-26,-27],[3,-14],[-11,-5],[2,-21],[-5,-25],[-7,-7],[0,-21],[-11,-13],[3,-27],[9,20],[4,-16],[24,3],[-30,-51],[-4,-19],[2,-50],[-13,-33],[-5,1],[-10,21],[-13,-1],[-23,49],[-10,6],[-4,-19],[-23,-53],[-4,-21],[5,-14],[28,16],[5,-23],[-11,-26],[-10,-56],[-3,-43]],[[9821,5284],[-22,17],[-15,-16],[-10,-25],[-11,5],[-2,42],[-7,-8],[-31,9],[-8,26],[6,34],[-27,-15],[-10,-15],[-7,37],[5,29],[-12,0],[-17,-36],[-6,-3],[5,-19],[-9,-30],[-11,-10],[3,-8],[-17,-4],[1,11],[-23,6],[-12,-14],[-6,6],[-3,23],[-41,8],[-9,-10],[-28,-5],[-7,-7]],[[8417,6662],[10,-14],[-6,-10],[11,-24],[15,12],[21,-22],[18,22],[23,-31],[-4,-16],[7,-13],[-3,-10],[6,-23],[9,-6],[-1,-15],[15,-5],[-3,-20],[10,-6],[0,-13],[25,-23],[16,10],[13,-13],[19,10],[41,-41],[15,-8],[13,1],[29,33],[19,3],[23,-27],[18,-1],[22,19],[32,-50],[15,-14],[12,-22],[74,-38],[41,-23],[51,-17],[40,-2],[15,7]],[[8476,7266],[9,-15],[22,4],[4,16],[30,-1],[25,20],[41,6],[9,14],[27,8],[53,-4],[24,-6],[30,9],[25,-6],[20,8],[7,21],[13,11],[7,-5],[10,10],[4,28],[10,19],[-7,21],[4,49],[5,18],[9,1],[-3,17],[8,-7],[20,2],[1,17],[22,23],[-8,9],[0,20],[9,-2],[-1,54],[9,8],[18,-4],[9,18],[5,-11],[13,18],[11,-6],[13,-17],[8,24]],[[8991,7655],[18,3],[6,-8],[25,18],[8,27],[9,2],[13,20],[13,-1],[10,23],[8,3],[6,-29],[19,-9],[10,-25],[-2,-35],[10,2],[11,-16],[-6,-8],[-8,-57],[-3,-81],[-6,-6],[4,-17],[-7,-16],[10,-44]],[[9139,7401],[-9,-11],[-4,-53],[-8,-20],[4,-30],[-8,-11],[16,-79],[7,0],[-1,-26],[7,10],[8,-5],[10,25],[7,-3],[-2,-35],[6,-5],[11,21],[6,-2],[9,29],[-7,4],[2,17],[6,-13],[21,-5],[16,-16],[14,-28],[-4,-14],[17,-7],[2,23],[6,-11],[-2,-45],[-11,-4],[2,-10],[-20,-18],[-9,1],[-14,-21],[1,-7],[-15,-21],[-14,-34],[-12,-12],[-4,-61],[-5,-20],[3,-16],[-3,-33],[9,-40],[21,-54],[31,-46],[14,-63],[13,-41],[0,-68],[3,-16],[16,-22]],[[9821,5284],[-2,-37],[3,-64],[0,-57],[8,-23],[29,-2],[25,22],[6,-2],[16,-24],[26,-28],[38,-70],[9,-26],[0,-16],[-17,-9],[-16,-15],[-9,-21],[3,-10],[20,4],[21,-9],[7,-24],[-3,-41],[2,-22],[12,-23],[-2,-42],[-25,-4],[-14,4],[-9,-20],[-14,-16],[-12,21],[-9,-22],[-22,-4],[-3,15],[4,23],[-20,28],[-12,-48],[14,-11],[1,-10],[-13,-40],[5,-27],[6,-8],[19,19],[6,-3],[9,-36],[-10,-19],[10,-29],[0,-35],[-12,-52],[-15,-46],[3,-22],[19,-35],[-8,-3],[6,-18],[-23,27],[-8,-18],[13,-6],[3,-16],[-25,-15],[19,-27],[1,-18],[9,-4],[-2,-128],[4,-25],[-3,-42],[-12,-61],[-19,-57],[-23,-24],[-6,-28],[1,-24],[-13,19],[-22,18],[-8,16],[-14,5],[-33,-16],[-2,19],[-28,12],[2,-50],[15,-52],[2,-18],[-35,-41],[-21,-36],[-12,-48],[-14,0],[-11,17],[-6,-12],[-9,6],[-18,-23]],[[7977,8009],[34,59],[20,45],[32,82],[28,142],[11,88],[3,68],[-2,67],[-12,96],[-13,75],[-11,75],[-1,61],[2,31],[7,47],[8,37],[22,65],[33,107],[44,124],[16,54],[43,55]],[[8241,9387],[141,-216],[96,-111],[31,-56],[20,-27],[79,-72],[10,-21],[7,-55]],[[8625,8829],[-18,-8],[-21,-31],[-7,3],[-6,-24],[-19,1],[-4,-8],[4,-41],[-20,11],[-6,12],[-29,-11],[-20,8],[-9,-11],[1,-23],[-8,-12],[9,-22],[-11,-42],[-14,-12],[-10,-27],[-8,-9],[-3,-21],[-7,-7],[1,-22],[-10,-3],[-10,-29],[-7,5],[-24,-36],[-8,9],[-15,37],[2,19],[-11,22],[-34,20],[-7,-25],[-45,-119],[-8,-35],[-27,-270],[-5,-25],[-10,-25],[-99,-160],[-21,-16],[-13,2],[-36,18],[-21,-8]],[[8991,7655],[-8,22],[7,11],[-4,19],[-8,3],[-6,27],[0,29],[6,-1],[-3,28],[6,10],[-2,69],[6,7],[-4,16],[5,9],[-9,29],[3,21],[13,11],[12,20],[14,7],[21,-14],[-8,90],[6,46],[-1,17],[-38,85],[-16,41],[-22,73],[-15,57],[-14,40],[-10,122],[-27,-28]],[[8895,8521],[-17,101],[-5,43],[6,43],[8,33],[21,33],[29,33],[119,148]],[[9056,8955],[70,-43],[43,-41],[66,-58],[33,-18],[64,-63],[22,-28],[28,-31],[16,-39],[18,-56],[32,-78],[14,-36],[9,-36],[0,-49],[3,-93],[1,-73],[5,-32],[26,-35],[14,-8],[44,-5],[10,-9],[13,8],[20,3],[32,-43],[-1,-46],[3,-23],[13,4],[7,-27],[-15,-15],[2,-10],[-18,7],[-2,-11],[-17,-1],[-4,-8],[-17,-5],[-11,-10],[-45,-2],[-10,-27],[-14,-8],[-14,-49],[-29,-17],[-28,7],[-8,-4],[4,-21],[4,-55],[-4,-5],[6,-29],[-4,-19],[4,-23],[-4,-10],[-1,-32],[4,-20],[-27,-27],[-11,-2],[-6,-14],[-9,1],[-12,-20],[-22,-1],[-1,12],[-11,5],[-1,-16],[-10,-7],[0,-15],[-8,-13],[2,-24],[-14,-48],[-15,-7],[0,-18],[-20,11],[-1,22],[-18,-21],[-18,21],[-20,5],[0,-19],[-15,-4],[-14,-27],[-15,-6],[-15,-28],[-20,8]],[[8909,9097],[-25,-8],[-5,-11],[-10,9],[-2,37],[-19,-5],[-11,-21],[-37,-4],[-10,-18],[-10,-38],[-31,-72],[-9,39],[-82,433],[-23,127],[-6,53]],[[8629,9618],[61,55],[34,22],[64,27],[63,13],[60,32],[126,82],[80,66],[26,31],[16,53],[14,-26],[-8,-24],[3,-13],[-23,-72],[-15,-14],[12,0],[8,-59],[8,-25],[-5,-12],[-14,2],[8,17],[-14,-11],[-11,6],[2,-20],[9,-12],[9,2],[2,-13],[-10,-9],[-6,-33],[13,-3],[4,-26],[-12,-24],[-5,-19],[-3,17],[-20,2],[-12,-11],[5,-11],[11,6],[-1,-33],[26,23],[2,-37],[-10,-37],[-19,30],[-7,-61],[-11,0],[-5,35],[-8,14],[-9,-1],[-6,-15],[-2,-23],[7,-10],[1,-37],[7,-17],[-7,-14],[-14,21],[-4,42],[-18,7],[-7,-10],[3,-33],[-9,-9],[-5,-29],[-9,-1],[-4,13],[-1,51],[-8,9],[-22,-56],[14,-13],[2,-18],[-14,-13],[-3,26],[-24,-5],[-3,-39],[-18,-9],[-14,16],[-11,-3],[-3,15],[15,5],[-7,27],[-21,17],[6,-40],[-12,12],[-9,-1],[-8,-28],[5,-18],[15,-4],[5,-12],[-6,-29],[-13,-34],[7,-36],[-2,-44],[9,-9],[20,38],[14,-26],[-30,-61],[19,-18],[7,-35]],[[8625,8829],[15,-26],[23,-21],[15,-22],[14,4],[14,14],[13,-2],[-4,-33],[17,0],[2,-9],[19,-10],[2,-58],[6,-3],[-5,-48],[8,-11],[7,-28],[2,-61],[10,-18],[22,-21],[18,8],[5,-15],[31,-4],[12,10],[24,46]],[[8241,9387],[51,52],[28,20],[47,16],[31,6],[52,26],[32,12],[97,68],[17,6],[33,25]],[[8909,9097],[12,-16],[20,-12],[-1,-22],[15,-29],[19,15],[24,-12],[9,11],[15,-15],[6,2],[14,-18],[0,-23],[6,2],[8,-25]],[[2845,3178],[-11,15],[-12,-11],[-5,25],[-12,-10],[-8,7],[-8,-17],[-2,13],[-10,4],[-31,-30],[-21,30],[-2,-17],[-21,45],[9,7],[-4,16],[-12,0],[-15,15],[-4,-9],[-3,23],[-16,27],[-5,20],[-18,-10],[-5,37],[-12,1],[-10,31],[6,7],[6,23],[-11,34],[5,21],[-19,-3],[-12,8],[4,17],[-17,5],[2,-10],[-28,17],[-5,29],[-9,11],[13,7],[-7,19],[14,-6],[-2,41],[17,25],[-12,4],[6,10],[5,26],[-13,22],[6,8],[-12,17],[-3,31],[4,15],[-11,15],[-23,8],[-4,12],[20,35],[-16,16],[-2,25],[17,14],[16,77],[-2,11],[-17,27],[-16,47],[0,25],[-13,9],[-11,23],[-7,47],[-10,8],[-3,24],[2,39]],[[2465,4230],[10,10],[73,3],[19,-6],[23,-20],[23,-40]],[[2613,4177],[15,-23],[-2,-8],[6,-31],[24,-81],[7,-49],[6,-28],[4,-59],[18,-31],[10,0],[6,-12],[2,-24],[87,-127],[24,-19],[47,-9],[28,-34],[18,-47],[18,-78],[8,-84],[11,-71]],[[2613,4177],[9,14],[61,69],[53,64],[10,28],[30,45],[33,68],[10,33],[15,57],[7,86],[-1,98],[-9,122]],[[2465,4230],[-4,8],[-18,6],[-3,17],[6,20],[-26,-21],[-18,1],[-6,-7],[-18,20],[-4,18],[2,18],[-33,17],[-7,27],[-13,2],[-6,15],[-16,-10],[2,30],[-8,0],[-7,15],[-5,-10],[-8,20],[7,17],[0,23],[14,1],[-1,29],[-9,16],[5,16],[-11,11],[0,18],[-25,-7],[3,21],[-7,11],[-12,-17],[6,-22],[-9,8],[-10,-6],[-6,24],[8,4],[-14,35],[10,8],[-8,17]]],"transform":{"scale":[0.0001357680172017211,0.00007115498359835584],"translate":[102.05513989400004,17.593768951000072]},"objects":{"Nong Khai":{"type":"GeometryCollection","geometries":[{"arcs":[[0,1,2,3]],"type":"Polygon","properties":{"Shape_Leng":0.112510552387,"Shape_Area":0.000403381754082,"ADM3_EN":"Nai Mueang","ADM3_TH":"ในเมือง","ADM3_PCODE":"TH430101","ADM2_EN":"Mueang Nong Khai","ADM2_TH":"เมืองหนองคาย","ADM2_PCODE":"TH4301","ADM1_EN":"Nong Khai","ADM1_TH":"หนองคาย","ADM1_PCODE":"TH43","ADM0_EN":"Thailand","ADM0_TH":"ประเทศไทย","ADM0_PCODE":"TH"}},{"arcs":[[-2,4,5,6,7]],"type":"Polygon","properties":{"Shape_Leng":0.136003789507,"Shape_Area":0.000646590712702,"ADM3_EN":"Mi Chai","ADM3_TH":"มีชัย","ADM3_PCODE":"TH430102","ADM2_EN":"Mueang Nong Khai","ADM2_TH":"เมืองหนองคาย","ADM2_PCODE":"TH4301","ADM1_EN":"Nong Khai","ADM1_TH":"หนองคาย","ADM1_PCODE":"TH43","ADM0_EN":"Thailand","ADM0_TH":"ประเทศไทย","ADM0_PCODE":"TH"}},{"arcs":[[-1,8,9,10,11,-5]],"type":"Polygon","properties":{"Shape_Leng":0.27384824658,"Shape_Area":0.00299348747413,"ADM3_EN":"Pho Chai","ADM3_TH":"โพธิ์ชัย","ADM3_PCODE":"TH430103","ADM2_EN":"Mueang Nong Khai","ADM2_TH":"เมืองหนองคาย","ADM2_PCODE":"TH4301","ADM1_EN":"Nong Khai","ADM1_TH":"หนองคาย","ADM1_PCODE":"TH43","ADM0_EN":"Thailand","ADM0_TH":"ประเทศไทย","ADM0_PCODE":"TH"}},{"arcs":[[-7,12,13,14]],"type":"Polygon","properties":{"Shape_Leng":0.158372905642,"Shape_Area":0.00124614550056,"ADM3_EN":"Kuan Wan","ADM3_TH":"กวนวัน","ADM3_PCODE":"TH430104","ADM2_EN":"Mueang Nong Khai","ADM2_TH":"เมืองหนองคาย","ADM2_PCODE":"TH4301","ADM1_EN":"Nong Khai","ADM1_TH":"หนองคาย","ADM1_PCODE":"TH43","ADM0_EN":"Thailand","ADM0_TH":"ประเทศไทย","ADM0_PCODE":"TH"}},{"arcs":[[15,16,17,18,19]],"type":"Polygon","properties":{"Shape_Leng":0.217293102315,"Shape_Area":0.00132219304788,"ADM3_EN":"Wiang Khuk","ADM3_TH":"เวียงคุก","ADM3_PCODE":"TH430105","ADM2_EN":"Mueang Nong Khai","ADM2_TH":"เมืองหนองคาย","ADM2_PCODE":"TH4301","ADM1_EN":"Nong Khai","ADM1_TH":"หนองคาย","ADM1_PCODE":"TH43","ADM0_EN":"Thailand","ADM0_TH":"ประเทศไทย","ADM0_PCODE":"TH"}},{"arcs":[[-10,20,21,22]],"type":"Polygon","properties":{"Shape_Leng":0.541334629459,"Shape_Area":0.00520613235817,"ADM3_EN":"Wat That","ADM3_TH":"วัดธาตุ","ADM3_PCODE":"TH430106","ADM2_EN":"Mueang Nong Khai","ADM2_TH":"เมืองหนองคาย","ADM2_PCODE":"TH4301","ADM1_EN":"Nong Khai","ADM1_TH":"หนองคาย","ADM1_PCODE":"TH43","ADM0_EN":"Thailand","ADM0_TH":"ประเทศไทย","ADM0_PCODE":"TH"}},{"arcs":[[-4,23,24,25,26,-21,-9]],"type":"Polygon","properties":{"Shape_Leng":0.398762594074,"Shape_Area":0.0044849684817,"ADM3_EN":"Hat Kham","ADM3_TH":"หาดคำ","ADM3_PCODE":"TH430107","ADM2_EN":"Mueang Nong Khai","ADM2_TH":"เมืองหนองคาย","ADM2_PCODE":"TH4301","ADM1_EN":"Nong Khai","ADM1_TH":"หนองคาย","ADM1_PCODE":"TH43","ADM0_EN":"Thailand","ADM0_TH":"ประเทศไทย","ADM0_PCODE":"TH"}},{"arcs":[[-25,27,28,29]],"type":"Polygon","properties":{"Shape_Leng":0.221202748241,"Shape_Area":0.00179411475055,"ADM3_EN":"Hin Ngom","ADM3_TH":"หินโงม","ADM3_PCODE":"TH430108","ADM2_EN":"Mueang Nong Khai","ADM2_TH":"เมืองหนองคาย","ADM2_PCODE":"TH4301","ADM1_EN":"Nong Khai","ADM1_TH":"หนองคาย","ADM1_PCODE":"TH43","ADM0_EN":"Thailand","ADM0_TH":"ประเทศไทย","ADM0_PCODE":"TH"}},{"arcs":[[30,31,32,33,34]],"type":"Polygon","properties":{"Shape_Leng":0.366875716445,"Shape_Area":0.00324849572239,"ADM3_EN":"Ban Duea","ADM3_TH":"บ้านเดื่อ","ADM3_PCODE":"TH430109","ADM2_EN":"Mueang Nong Khai","ADM2_TH":"เมืองหนองคาย","ADM2_PCODE":"TH4301","ADM1_EN":"Nong Khai","ADM1_TH":"หนองคาย","ADM1_PCODE":"TH43","ADM0_EN":"Thailand","ADM0_TH":"ประเทศไทย","ADM0_PCODE":"TH"}},{"arcs":[[-11,-23,35,36,37,38,39,40]],"type":"Polygon","properties":{"Shape_Leng":0.446529269883,"Shape_Area":0.00623777208652,"ADM3_EN":"Khai Bok Wan","ADM3_TH":"ค่ายบกหวาน","ADM3_PCODE":"TH430110","ADM2_EN":"Mueang Nong Khai","ADM2_TH":"เมืองหนองคาย","ADM2_PCODE":"TH4301","ADM1_EN":"Nong Khai","ADM1_TH":"หนองคาย","ADM1_PCODE":"TH43","ADM0_EN":"Thailand","ADM0_TH":"ประเทศไทย","ADM0_PCODE":"TH"}},{"arcs":[[-37,41,42]],"type":"Polygon","properties":{"Shape_Leng":0.412456671075,"Shape_Area":0.0036176971284,"ADM3_EN":"Phon Sawang","ADM3_TH":"โพนสว่าง","ADM3_PCODE":"TH430111","ADM2_EN":"Mueang Nong Khai","ADM2_TH":"เมืองหนองคาย","ADM2_PCODE":"TH4301","ADM1_EN":"Nong Khai","ADM1_TH":"หนองคาย","ADM1_PCODE":"TH43","ADM0_EN":"Thailand","ADM0_TH":"ประเทศไทย","ADM0_PCODE":"TH"}},{"arcs":[[-16,43,-39,44,45,46,47]],"type":"Polygon","properties":{"Shape_Leng":0.396217744877,"Shape_Area":0.00357069003167,"ADM3_EN":"Phrathat Bang Phuan","ADM3_TH":"พระธาตุบังพวน","ADM3_PCODE":"TH430113","ADM2_EN":"Mueang Nong Khai","ADM2_TH":"เมืองหนองคาย","ADM2_PCODE":"TH4301","ADM1_EN":"Nong Khai","ADM1_TH":"หนองคาย","ADM1_PCODE":"TH43","ADM0_EN":"Thailand","ADM0_TH":"ประเทศไทย","ADM0_PCODE":"TH"}},{"arcs":[[-6,-12,-41,48,49,-13]],"type":"Polygon","properties":{"Shape_Leng":0.212950010911,"Shape_Area":0.00172170432787,"ADM3_EN":"Nong Kom Ko","ADM3_TH":"หนองกอมเกาะ","ADM3_PCODE":"TH430116","ADM2_EN":"Mueang Nong Khai","ADM2_TH":"เมืองหนองคาย","ADM2_PCODE":"TH4301","ADM1_EN":"Nong Khai","ADM1_TH":"หนองคาย","ADM1_PCODE":"TH43","ADM0_EN":"Thailand","ADM0_TH":"ประเทศไทย","ADM0_PCODE":"TH"}},{"arcs":[[-20,50,51,-49,-40,-44]],"type":"Polygon","properties":{"Shape_Leng":0.258914930657,"Shape_Area":0.00245145971998,"ADM3_EN":"Pakho","ADM3_TH":"ปะโค","ADM3_PCODE":"TH430117","ADM2_EN":"Mueang Nong Khai","ADM2_TH":"เมืองหนองคาย","ADM2_PCODE":"TH4301","ADM1_EN":"Nong Khai","ADM1_TH":"หนองคาย","ADM1_PCODE":"TH43","ADM0_EN":"Thailand","ADM0_TH":"ประเทศไทย","ADM0_PCODE":"TH"}},{"arcs":[[-14,-50,-52,52]],"type":"Polygon","properties":{"Shape_Leng":0.142491530433,"Shape_Area":0.000599526642383,"ADM3_EN":"Mueang Mi","ADM3_TH":"เมืองหมี","ADM3_PCODE":"TH430118","ADM2_EN":"Mueang Nong Khai","ADM2_TH":"เมืองหนองคาย","ADM2_PCODE":"TH4301","ADM1_EN":"Nong Khai","ADM1_TH":"หนองคาย","ADM1_PCODE":"TH43","ADM0_EN":"Thailand","ADM0_TH":"ประเทศไทย","ADM0_PCODE":"TH"}},{"arcs":[[-29,53,-34,54]],"type":"Polygon","properties":{"Shape_Leng":0.225614728652,"Shape_Area":0.00175074514416,"ADM3_EN":"Si Kai","ADM3_TH":"สีกาย","ADM3_PCODE":"TH430119","ADM2_EN":"Mueang Nong Khai","ADM2_TH":"เมืองหนองคาย","ADM2_PCODE":"TH4301","ADM1_EN":"Nong Khai","ADM1_TH":"หนองคาย","ADM1_PCODE":"TH43","ADM0_EN":"Thailand","ADM0_TH":"ประเทศไทย","ADM0_PCODE":"TH"}},{"arcs":[[55,56,57,58,59,60]],"type":"Polygon","properties":{"Shape_Leng":0.258233496331,"Shape_Area":0.00235759633918,"ADM3_EN":"Tha Bo","ADM3_TH":"ท่าบ่อ","ADM3_PCODE":"TH430201","ADM2_EN":"Tha Bo","ADM2_TH":"ท่าบ่อ","ADM2_PCODE":"TH4302","ADM1_EN":"Nong Khai","ADM1_TH":"หนองคาย","ADM1_PCODE":"TH43","ADM0_EN":"Thailand","ADM0_TH":"ประเทศไทย","ADM0_PCODE":"TH"}},{"arcs":[[-60,61,62,63,64,65]],"type":"Polygon","properties":{"Shape_Leng":0.531288677178,"Shape_Area":0.00540313164434,"ADM3_EN":"Nam Mong","ADM3_TH":"น้ำโมง","ADM3_PCODE":"TH430202","ADM2_EN":"Tha Bo","ADM2_TH":"ท่าบ่อ","ADM2_PCODE":"TH4302","ADM1_EN":"Nong Khai","ADM1_TH":"หนองคาย","ADM1_PCODE":"TH43","ADM0_EN":"Thailand","ADM0_TH":"ประเทศไทย","ADM0_PCODE":"TH"}},{"arcs":[[-61,-66,66,67,68]],"type":"Polygon","properties":{"Shape_Leng":0.334299609435,"Shape_Area":0.00305649167066,"ADM3_EN":"Kong Nang","ADM3_TH":"กองนาง","ADM3_PCODE":"TH430203","ADM2_EN":"Tha Bo","ADM2_TH":"ท่าบ่อ","ADM2_PCODE":"TH4302","ADM1_EN":"Nong Khai","ADM1_TH":"หนองคาย","ADM1_PCODE":"TH43","ADM0_EN":"Thailand","ADM0_TH":"ประเทศไทย","ADM0_PCODE":"TH"}},{"arcs":[[-63,69,70,71,72,73]],"type":"Polygon","properties":{"Shape_Leng":0.323794490731,"Shape_Area":0.00217632367832,"ADM3_EN":"Khok Khon","ADM3_TH":"โคกคอน","ADM3_PCODE":"TH430204","ADM2_EN":"Tha Bo","ADM2_TH":"ท่าบ่อ","ADM2_PCODE":"TH4302","ADM1_EN":"Nong Khai","ADM1_TH":"หนองคาย","ADM1_PCODE":"TH43","ADM0_EN":"Thailand","ADM0_TH":"ประเทศไทย","ADM0_PCODE":"TH"}},{"arcs":[[-58,74,75,76,77]],"type":"Polygon","properties":{"Shape_Leng":0.335670194975,"Shape_Area":0.00344145265912,"ADM3_EN":"Ban Duea","ADM3_TH":"บ้านเดื่อ","ADM3_PCODE":"TH430205","ADM2_EN":"Tha Bo","ADM2_TH":"ท่าบ่อ","ADM2_PCODE":"TH4302","ADM1_EN":"Nong Khai","ADM1_TH":"หนองคาย","ADM1_PCODE":"TH43","ADM0_EN":"Thailand","ADM0_TH":"ประเทศไทย","ADM0_PCODE":"TH"}},{"arcs":[[-17,-48,78,-76,79]],"type":"Polygon","properties":{"Shape_Leng":0.298981309279,"Shape_Area":0.0042291569937,"ADM3_EN":"Ban Thon","ADM3_TH":"บ้านถ่อน","ADM3_PCODE":"TH430206","ADM2_EN":"Tha Bo","ADM2_TH":"ท่าบ่อ","ADM2_PCODE":"TH4302","ADM1_EN":"Nong Khai","ADM1_TH":"หนองคาย","ADM1_PCODE":"TH43","ADM0_EN":"Thailand","ADM0_TH":"ประเทศไทย","ADM0_PCODE":"TH"}},{"arcs":[[-59,-78,80,81,-70,-62]],"type":"Polygon","properties":{"Shape_Leng":0.35450176229,"Shape_Area":0.00273195145173,"ADM3_EN":"Ban Wan","ADM3_TH":"บ้านว่าน","ADM3_PCODE":"TH430207","ADM2_EN":"Tha Bo","ADM2_TH":"ท่าบ่อ","ADM2_PCODE":"TH4302","ADM1_EN":"Nong Khai","ADM1_TH":"หนองคาย","ADM1_PCODE":"TH43","ADM0_EN":"Thailand","ADM0_TH":"ประเทศไทย","ADM0_PCODE":"TH"}},{"arcs":[[-72,82,83]],"type":"Polygon","properties":{"Shape_Leng":0.292532426932,"Shape_Area":0.00205246053985,"ADM3_EN":"Na Kha","ADM3_TH":"นาข่า","ADM3_PCODE":"TH430208","ADM2_EN":"Tha Bo","ADM2_TH":"ท่าบ่อ","ADM2_PCODE":"TH4302","ADM1_EN":"Nong Khai","ADM1_TH":"หนองคาย","ADM1_PCODE":"TH43","ADM0_EN":"Thailand","ADM0_TH":"ประเทศไทย","ADM0_PCODE":"TH"}},{"arcs":[[-18,-80,-75,-57,84]],"type":"Polygon","properties":{"Shape_Leng":0.24839700228,"Shape_Area":0.00181407316888,"ADM3_EN":"Phon Sa","ADM3_TH":"โพนสา","ADM3_PCODE":"TH430209","ADM2_EN":"Tha Bo","ADM2_TH":"ท่าบ่อ","ADM2_PCODE":"TH4302","ADM1_EN":"Nong Khai","ADM1_TH":"หนองคาย","ADM1_PCODE":"TH43","ADM0_EN":"Thailand","ADM0_TH":"ประเทศไทย","ADM0_PCODE":"TH"}},{"arcs":[[-47,85,86,-81,-77,-79]],"type":"Polygon","properties":{"Shape_Leng":0.301005994679,"Shape_Area":0.00334815143399,"ADM3_EN":"Nong Nang","ADM3_TH":"หนองนาง","ADM3_PCODE":"TH430210","ADM2_EN":"Tha Bo","ADM2_TH":"ท่าบ่อ","ADM2_PCODE":"TH4302","ADM1_EN":"Nong Khai","ADM1_TH":"หนองคาย","ADM1_PCODE":"TH43","ADM0_EN":"Thailand","ADM0_TH":"ประเทศไทย","ADM0_PCODE":"TH"}},{"arcs":[[87,88,89,90,91,92,93]],"type":"Polygon","properties":{"Shape_Leng":0.81413288606,"Shape_Area":0.0113552588065,"ADM3_EN":"Chumphon","ADM3_TH":"จุมพล","ADM3_PCODE":"TH430501","ADM2_EN":"Phon Phisai","ADM2_TH":"โพนพิสัย","ADM2_PCODE":"TH4305","ADM1_EN":"Nong Khai","ADM1_TH":"หนองคาย","ADM1_PCODE":"TH43","ADM0_EN":"Thailand","ADM0_TH":"ประเทศไทย","ADM0_PCODE":"TH"}},{"arcs":[[-31,94,-91,95,96,97,98]],"type":"Polygon","properties":{"Shape_Leng":0.523124124035,"Shape_Area":0.00448978471059,"ADM3_EN":"Wat Luang","ADM3_TH":"วัดหลวง","ADM3_PCODE":"TH430502","ADM2_EN":"Phon Phisai","ADM2_TH":"โพนพิสัย","ADM2_PCODE":"TH4305","ADM1_EN":"Nong Khai","ADM1_TH":"หนองคาย","ADM1_PCODE":"TH43","ADM0_EN":"Thailand","ADM0_TH":"ประเทศไทย","ADM0_PCODE":"TH"}},{"arcs":[[-93,99,100,101]],"type":"Polygon","properties":{"Shape_Leng":0.401780316231,"Shape_Area":0.0050200543356,"ADM3_EN":"Kut Bong","ADM3_TH":"กุดบง","ADM3_PCODE":"TH430503","ADM2_EN":"Phon Phisai","ADM2_TH":"โพนพิสัย","ADM2_PCODE":"TH4305","ADM1_EN":"Nong Khai","ADM1_TH":"หนองคาย","ADM1_PCODE":"TH43","ADM0_EN":"Thailand","ADM0_TH":"ประเทศไทย","ADM0_PCODE":"TH"}},{"arcs":[[-90,102,103,-96]],"type":"Polygon","properties":{"Shape_Leng":0.503599811886,"Shape_Area":0.00625189231946,"ADM3_EN":"Chum Chang","ADM3_TH":"ชุมช้าง","ADM3_PCODE":"TH430504","ADM2_EN":"Phon Phisai","ADM2_TH":"โพนพิสัย","ADM2_PCODE":"TH4305","ADM1_EN":"Nong Khai","ADM1_TH":"หนองคาย","ADM1_PCODE":"TH43","ADM0_EN":"Thailand","ADM0_TH":"ประเทศไทย","ADM0_PCODE":"TH"}},{"arcs":[[-32,-99,104,105,106]],"type":"Polygon","properties":{"Shape_Leng":0.531001164696,"Shape_Area":0.00485037937607,"ADM3_EN":"Thung Luang","ADM3_TH":"ทุ่งหลวง","ADM3_PCODE":"TH430506","ADM2_EN":"Phon Phisai","ADM2_TH":"โพนพิสัย","ADM2_PCODE":"TH4305","ADM1_EN":"Nong Khai","ADM1_TH":"หนองคาย","ADM1_PCODE":"TH43","ADM0_EN":"Thailand","ADM0_TH":"ประเทศไทย","ADM0_PCODE":"TH"}},{"arcs":[[-26,-30,-55,-33,-107,107]],"type":"Polygon","properties":{"Shape_Leng":0.613096205972,"Shape_Area":0.0057935290043,"ADM3_EN":"Lao Tang Kham","ADM3_TH":"เหล่าต่างคำ","ADM3_PCODE":"TH430507","ADM2_EN":"Phon Phisai","ADM2_TH":"โพนพิสัย","ADM2_PCODE":"TH4305","ADM1_EN":"Nong Khai","ADM1_TH":"หนองคาย","ADM1_PCODE":"TH43","ADM0_EN":"Thailand","ADM0_TH":"ประเทศไทย","ADM0_PCODE":"TH"}},{"arcs":[[-97,-104,108,109,110]],"type":"Polygon","properties":{"Shape_Leng":0.726607924995,"Shape_Area":0.0110526521927,"ADM3_EN":"Na Nang","ADM3_TH":"นาหนัง","ADM3_PCODE":"TH430508","ADM2_EN":"Phon Phisai","ADM2_TH":"โพนพิสัย","ADM2_PCODE":"TH4305","ADM1_EN":"Nong Khai","ADM1_TH":"หนองคาย","ADM1_PCODE":"TH43","ADM0_EN":"Thailand","ADM0_TH":"ประเทศไทย","ADM0_PCODE":"TH"}},{"arcs":[[111,112,113,114]],"type":"Polygon","properties":{"Shape_Leng":0.447680173635,"Shape_Area":0.00458291742759,"ADM3_EN":"Soem","ADM3_TH":"เซิม","ADM3_PCODE":"TH430509","ADM2_EN":"Phon Phisai","ADM2_TH":"โพนพิสัย","ADM2_PCODE":"TH4305","ADM1_EN":"Nong Khai","ADM1_TH":"หนองคาย","ADM1_PCODE":"TH43","ADM0_EN":"Thailand","ADM0_TH":"ประเทศไทย","ADM0_PCODE":"TH"}},{"arcs":[[-113,115,116,117]],"type":"Polygon","properties":{"Shape_Leng":0.466782596701,"Shape_Area":0.00607898119372,"ADM3_EN":"Ban Pho","ADM3_TH":"บ้านโพธิ์","ADM3_PCODE":"TH430513","ADM2_EN":"Phon Phisai","ADM2_TH":"โพนพิสัย","ADM2_PCODE":"TH4305","ADM1_EN":"Nong Khai","ADM1_TH":"หนองคาย","ADM1_PCODE":"TH43","ADM0_EN":"Thailand","ADM0_TH":"ประเทศไทย","ADM0_PCODE":"TH"}},{"arcs":[[-103,118,119,-114,-118,120,-109]],"type":"Polygon","properties":{"Shape_Leng":0.495866504638,"Shape_Area":0.00683583033653,"ADM3_EN":"Ban Phue","ADM3_TH":"บ้านผือ","ADM3_PCODE":"TH430521","ADM2_EN":"Phon Phisai","ADM2_TH":"โพนพิสัย","ADM2_PCODE":"TH4305","ADM1_EN":"Nong Khai","ADM1_TH":"หนองคาย","ADM1_PCODE":"TH43","ADM0_EN":"Thailand","ADM0_TH":"ประเทศไทย","ADM0_PCODE":"TH"}},{"arcs":[[-98,-111,121,-105]],"type":"Polygon","properties":{"Shape_Leng":0.445153093003,"Shape_Area":0.00416984828604,"ADM3_EN":"Sang Nang Khao","ADM3_TH":"สร้างนางขาว","ADM3_PCODE":"TH430522","ADM2_EN":"Phon Phisai","ADM2_TH":"โพนพิสัย","ADM2_PCODE":"TH4305","ADM1_EN":"Nong Khai","ADM1_TH":"หนองคาย","ADM1_PCODE":"TH43","ADM0_EN":"Thailand","ADM0_TH":"ประเทศไทย","ADM0_PCODE":"TH"}},{"arcs":[[-68,122,123,124]],"type":"Polygon","properties":{"Shape_Leng":0.218926433758,"Shape_Area":0.00221683298672,"ADM3_EN":"Phan Phrao","ADM3_TH":"พานพร้าว","ADM3_PCODE":"TH430701","ADM2_EN":"Si Chiang Mai","ADM2_TH":"ศรีเชียงใหม่","ADM2_PCODE":"TH4307","ADM1_EN":"Nong Khai","ADM1_TH":"หนองคาย","ADM1_PCODE":"TH43","ADM0_EN":"Thailand","ADM0_TH":"ประเทศไทย","ADM0_PCODE":"TH"}},{"arcs":[[-124,125,126,127,128]],"type":"Polygon","properties":{"Shape_Leng":0.264251003414,"Shape_Area":0.0024148692197,"ADM3_EN":"Ban Mo","ADM3_TH":"บ้านหม้อ","ADM3_PCODE":"TH430703","ADM2_EN":"Si Chiang Mai","ADM2_TH":"ศรีเชียงใหม่","ADM2_PCODE":"TH4307","ADM1_EN":"Nong Khai","ADM1_TH":"หนองคาย","ADM1_PCODE":"TH43","ADM0_EN":"Thailand","ADM0_TH":"ประเทศไทย","ADM0_PCODE":"TH"}},{"arcs":[[-128,129,130,131,132]],"type":"Polygon","properties":{"Shape_Leng":0.216827803444,"Shape_Area":0.0027444201747,"ADM3_EN":"Phra Phutthabat","ADM3_TH":"พระพุทธบาท","ADM3_PCODE":"TH430704","ADM2_EN":"Si Chiang Mai","ADM2_TH":"ศรีเชียงใหม่","ADM2_PCODE":"TH4307","ADM1_EN":"Nong Khai","ADM1_TH":"หนองคาย","ADM1_PCODE":"TH43","ADM0_EN":"Thailand","ADM0_TH":"ประเทศไทย","ADM0_PCODE":"TH"}},{"arcs":[[-65,133,-126,-123,-67]],"type":"Polygon","properties":{"Shape_Leng":0.363693935831,"Shape_Area":0.00548874653287,"ADM3_EN":"Nong Pla Pak","ADM3_TH":"หนองปลาปาก","ADM3_PCODE":"TH430705","ADM2_EN":"Si Chiang Mai","ADM2_TH":"ศรีเชียงใหม่","ADM2_PCODE":"TH4307","ADM1_EN":"Nong Khai","ADM1_TH":"หนองคาย","ADM1_PCODE":"TH43","ADM0_EN":"Thailand","ADM0_TH":"ประเทศไทย","ADM0_PCODE":"TH"}},{"arcs":[[134,135,136,137]],"type":"Polygon","properties":{"Shape_Leng":0.391875983971,"Shape_Area":0.00414603156765,"ADM3_EN":"Kaeng Kai","ADM3_TH":"แก้งไก่","ADM3_PCODE":"TH430801","ADM2_EN":"Sangkhom","ADM2_TH":"สังคม","ADM2_PCODE":"TH4308","ADM1_EN":"Nong Khai","ADM1_TH":"หนองคาย","ADM1_PCODE":"TH43","ADM0_EN":"Thailand","ADM0_TH":"ประเทศไทย","ADM0_PCODE":"TH"}},{"arcs":[[-132,138,139,-135,140]],"type":"Polygon","properties":{"Shape_Leng":0.558912215456,"Shape_Area":0.0123237518046,"ADM3_EN":"Pha Tang","ADM3_TH":"ผาตั้ง","ADM3_PCODE":"TH430802","ADM2_EN":"Sangkhom","ADM2_TH":"สังคม","ADM2_PCODE":"TH4308","ADM1_EN":"Nong Khai","ADM1_TH":"หนองคาย","ADM1_PCODE":"TH43","ADM0_EN":"Thailand","ADM0_TH":"ประเทศไทย","ADM0_PCODE":"TH"}},{"arcs":[[141,142,143]],"type":"Polygon","properties":{"Shape_Leng":0.397104167962,"Shape_Area":0.00581441673873,"ADM3_EN":"Ban Muang","ADM3_TH":"บ้านม่วง","ADM3_PCODE":"TH430803","ADM2_EN":"Sangkhom","ADM2_TH":"สังคม","ADM2_PCODE":"TH4308","ADM1_EN":"Nong Khai","ADM1_TH":"หนองคาย","ADM1_PCODE":"TH43","ADM0_EN":"Thailand","ADM0_TH":"ประเทศไทย","ADM0_PCODE":"TH"}},{"arcs":[[-143,144,145]],"type":"Polygon","properties":{"Shape_Leng":0.601248230837,"Shape_Area":0.0115074248925,"ADM3_EN":"Na Ngio","ADM3_TH":"นางิ้ว","ADM3_PCODE":"TH430804","ADM2_EN":"Sangkhom","ADM2_TH":"สังคม","ADM2_PCODE":"TH4308","ADM1_EN":"Nong Khai","ADM1_TH":"หนองคาย","ADM1_PCODE":"TH43","ADM0_EN":"Thailand","ADM0_TH":"ประเทศไทย","ADM0_PCODE":"TH"}},{"arcs":[[-137,-145,-142,146]],"type":"Polygon","properties":{"Shape_Leng":0.374309102781,"Shape_Area":0.00538612655826,"ADM3_EN":"Sangkhom","ADM3_TH":"สังคม","ADM3_PCODE":"TH430805","ADM2_EN":"Sangkhom","ADM2_TH":"สังคม","ADM2_PCODE":"TH4308","ADM1_EN":"Nong Khai","ADM1_TH":"หนองคาย","ADM1_PCODE":"TH43","ADM0_EN":"Thailand","ADM0_TH":"ประเทศไทย","ADM0_PCODE":"TH"}},{"arcs":[[-38,-43,147,148,149,-45]],"type":"Polygon","properties":{"Shape_Leng":0.448645525526,"Shape_Area":0.00574863676811,"ADM3_EN":"Sakhrai","ADM3_TH":"สระใคร","ADM3_PCODE":"TH431401","ADM2_EN":"Sakhrai","ADM2_TH":"สระใคร","ADM2_PCODE":"TH4314","ADM1_EN":"Nong Khai","ADM1_TH":"หนองคาย","ADM1_PCODE":"TH43","ADM0_EN":"Thailand","ADM0_TH":"ประเทศไทย","ADM0_PCODE":"TH"}},{"arcs":[[-149,150,151]],"type":"Polygon","properties":{"Shape_Leng":0.380219586351,"Shape_Area":0.00331535538206,"ADM3_EN":"Khok Chang","ADM3_TH":"คอกช้าง","ADM3_PCODE":"TH431402","ADM2_EN":"Sakhrai","ADM2_TH":"สระใคร","ADM2_PCODE":"TH4314","ADM1_EN":"Nong Khai","ADM1_TH":"หนองคาย","ADM1_PCODE":"TH43","ADM0_EN":"Thailand","ADM0_TH":"ประเทศไทย","ADM0_PCODE":"TH"}},{"arcs":[[-46,-150,-152,152,-86]],"type":"Polygon","properties":{"Shape_Leng":0.532605941667,"Shape_Area":0.00869748107566,"ADM3_EN":"Ban Fang","ADM3_TH":"บ้านฝาง","ADM3_PCODE":"TH431403","ADM2_EN":"Sakhrai","ADM2_TH":"สระใคร","ADM2_PCODE":"TH4314","ADM1_EN":"Nong Khai","ADM1_TH":"หนองคาย","ADM1_PCODE":"TH43","ADM0_EN":"Thailand","ADM0_TH":"ประเทศไทย","ADM0_PCODE":"TH"}},{"arcs":[[-115,-120,153,154,155,156,157]],"type":"Polygon","properties":{"Shape_Leng":0.531497108312,"Shape_Area":0.00639114730052,"ADM3_EN":"Fao Rai","ADM3_TH":"เฝ้าไร่","ADM3_PCODE":"TH431501","ADM2_EN":"Fao Rai","ADM2_TH":"เฝ้าไร่","ADM2_PCODE":"TH4315","ADM1_EN":"Nong Khai","ADM1_TH":"หนองคาย","ADM1_PCODE":"TH43","ADM0_EN":"Thailand","ADM0_TH":"ประเทศไทย","ADM0_PCODE":"TH"}},{"arcs":[[-157,158,159]],"type":"Polygon","properties":{"Shape_Leng":0.326212472711,"Shape_Area":0.00346548620549,"ADM3_EN":"Na Di","ADM3_TH":"นาดี","ADM3_PCODE":"TH431502","ADM2_EN":"Fao Rai","ADM2_TH":"เฝ้าไร่","ADM2_PCODE":"TH4315","ADM1_EN":"Nong Khai","ADM1_TH":"หนองคาย","ADM1_PCODE":"TH43","ADM0_EN":"Thailand","ADM0_TH":"ประเทศไทย","ADM0_PCODE":"TH"}},{"arcs":[[-89,160,-154,-119]],"type":"Polygon","properties":{"Shape_Leng":0.472822179754,"Shape_Area":0.00677714748225,"ADM3_EN":"Nong Luang","ADM3_TH":"หนองหลวง","ADM3_PCODE":"TH431503","ADM2_EN":"Fao Rai","ADM2_TH":"เฝ้าไร่","ADM2_PCODE":"TH4315","ADM1_EN":"Nong Khai","ADM1_TH":"หนองคาย","ADM1_PCODE":"TH43","ADM0_EN":"Thailand","ADM0_TH":"ประเทศไทย","ADM0_PCODE":"TH"}},{"arcs":[[-88,161,162,163,-155,-161]],"type":"Polygon","properties":{"Shape_Leng":0.553927490449,"Shape_Area":0.0073115328046,"ADM3_EN":"Wang Luang","ADM3_TH":"วังหลวง","ADM3_PCODE":"TH431504","ADM2_EN":"Fao Rai","ADM2_TH":"เฝ้าไร่","ADM2_PCODE":"TH4315","ADM1_EN":"Nong Khai","ADM1_TH":"หนองคาย","ADM1_PCODE":"TH43","ADM0_EN":"Thailand","ADM0_TH":"ประเทศไทย","ADM0_PCODE":"TH"}},{"arcs":[[-112,-158,-160,164,-116]],"type":"Polygon","properties":{"Shape_Leng":0.593428681817,"Shape_Area":0.0069012853945,"ADM3_EN":"Udom Phon","ADM3_TH":"อุดมพร","ADM3_PCODE":"TH431505","ADM2_EN":"Fao Rai","ADM2_TH":"เฝ้าไร่","ADM2_PCODE":"TH4315","ADM1_EN":"Nong Khai","ADM1_TH":"หนองคาย","ADM1_PCODE":"TH43","ADM0_EN":"Thailand","ADM0_TH":"ประเทศไทย","ADM0_PCODE":"TH"}},{"arcs":[[-101,165,166,167]],"type":"Polygon","properties":{"Shape_Leng":0.339027601784,"Shape_Area":0.00378518925919,"ADM3_EN":"Rattanawapi","ADM3_TH":"รัตนวาปี","ADM3_PCODE":"TH431601","ADM2_EN":"Rattanawapi","ADM2_TH":"รัตนวาปี","ADM2_PCODE":"TH4316","ADM1_EN":"Nong Khai","ADM1_TH":"หนองคาย","ADM1_PCODE":"TH43","ADM0_EN":"Thailand","ADM0_TH":"ประเทศไทย","ADM0_PCODE":"TH"}},{"arcs":[[-163,168,169,170]],"type":"Polygon","properties":{"Shape_Leng":0.461015237699,"Shape_Area":0.00628834187764,"ADM3_EN":"Na Thap Hai","ADM3_TH":"นาทับไฮ","ADM3_PCODE":"TH431602","ADM2_EN":"Rattanawapi","ADM2_TH":"รัตนวาปี","ADM2_PCODE":"TH4316","ADM1_EN":"Nong Khai","ADM1_TH":"หนองคาย","ADM1_PCODE":"TH43","ADM0_EN":"Thailand","ADM0_TH":"ประเทศไทย","ADM0_PCODE":"TH"}},{"arcs":[[171,172]],"type":"Polygon","properties":{"Shape_Leng":0.36305242183,"Shape_Area":0.00223629329999,"ADM3_EN":"Ban Ton","ADM3_TH":"บ้านต้อน","ADM3_PCODE":"TH431603","ADM2_EN":"Rattanawapi","ADM2_TH":"รัตนวาปี","ADM2_PCODE":"TH4316","ADM1_EN":"Nong Khai","ADM1_TH":"หนองคาย","ADM1_PCODE":"TH43","ADM0_EN":"Thailand","ADM0_TH":"ประเทศไทย","ADM0_PCODE":"TH"}},{"arcs":[[-94,-102,-168,173,-169,-162]],"type":"Polygon","properties":{"Shape_Leng":0.653681039478,"Shape_Area":0.00980550036442,"ADM3_EN":"Phrabat Na Sing","ADM3_TH":"พระบาทนาสิงห์","ADM3_PCODE":"TH431604","ADM2_EN":"Rattanawapi","ADM2_TH":"รัตนวาปี","ADM2_PCODE":"TH4316","ADM1_EN":"Nong Khai","ADM1_TH":"หนองคาย","ADM1_PCODE":"TH43","ADM0_EN":"Thailand","ADM0_TH":"ประเทศไทย","ADM0_PCODE":"TH"}},{"arcs":[[-167,174,-172,175,-170,-174]],"type":"Polygon","properties":{"Shape_Leng":0.347308227344,"Shape_Area":0.00311188950038,"ADM3_EN":"Phon Phaeng","ADM3_TH":"โพนแพง","ADM3_PCODE":"TH431605","ADM2_EN":"Rattanawapi","ADM2_TH":"รัตนวาปี","ADM2_PCODE":"TH4316","ADM1_EN":"Nong Khai","ADM1_TH":"หนองคาย","ADM1_PCODE":"TH43","ADM0_EN":"Thailand","ADM0_TH":"ประเทศไทย","ADM0_PCODE":"TH"}},{"arcs":[[-73,-84,176,177,178]],"type":"Polygon","properties":{"Shape_Leng":0.316866474699,"Shape_Area":0.00236126392721,"ADM3_EN":"Pho Tak","ADM3_TH":"โพธิ์ตาก","ADM3_PCODE":"TH431701","ADM2_EN":"Pho Tak","ADM2_TH":"โพธิ์ตาก","ADM2_PCODE":"TH4317","ADM1_EN":"Nong Khai","ADM1_TH":"หนองคาย","ADM1_PCODE":"TH43","ADM0_EN":"Thailand","ADM0_TH":"ประเทศไทย","ADM0_PCODE":"TH"}},{"arcs":[[-64,-74,-179,179,-130,-127,-134]],"type":"Polygon","properties":{"Shape_Leng":0.410166117735,"Shape_Area":0.00457193153484,"ADM3_EN":"Phon Thong","ADM3_TH":"โพนทอง","ADM3_PCODE":"TH431702","ADM2_EN":"Pho Tak","ADM2_TH":"โพธิ์ตาก","ADM2_PCODE":"TH4317","ADM1_EN":"Nong Khai","ADM1_TH":"หนองคาย","ADM1_PCODE":"TH43","ADM0_EN":"Thailand","ADM0_TH":"ประเทศไทย","ADM0_PCODE":"TH"}},{"arcs":[[-131,-180,-178,180,-139]],"type":"Polygon","properties":{"Shape_Leng":0.303104241261,"Shape_Area":0.00378123825421,"ADM3_EN":"Dan Si Suk","ADM3_TH":"ด่านศรีสุข","ADM3_PCODE":"TH431703","ADM2_EN":"Pho Tak","ADM2_TH":"โพธิ์ตาก","ADM2_PCODE":"TH4317","ADM1_EN":"Nong Khai","ADM1_TH":"หนองคาย","ADM1_PCODE":"TH43","ADM0_EN":"Thailand","ADM0_TH":"ประเทศไทย","ADM0_PCODE":"TH"}}]}}}