{"type":"Topology","arcs":[[[7257,2041],[-12,-50],[15,-2],[6,-62],[51,0],[44,15],[62,-59],[17,-10],[62,-9],[31,6],[8,-9],[45,-11],[2,8],[113,-21],[-6,-20],[35,-10],[9,-13],[63,-14],[7,-113],[-3,-132],[5,-75],[15,-73],[-14,-120],[7,-33],[16,-4],[16,-34],[19,2],[12,-100],[37,3],[8,-45],[13,0]],[[7940,1056],[0,-56],[-7,-33],[15,-12],[53,-17],[25,-14]],[[8026,924],[-33,-55],[1,-21],[34,-76]],[[8028,772],[-77,33],[-62,39],[-27,26]],[[7862,870],[-32,44],[-52,111],[-38,74],[-59,82],[-89,98],[-46,55],[-28,40],[-39,83]],[[7479,1457],[-34,142],[-17,41],[-25,38],[-56,44],[-129,65],[-74,60],[-32,34]],[[7112,1881],[-34,66],[-19,69]],[[7059,2016],[86,25],[112,0]],[[7257,2041],[189,-11],[20,-7],[100,-5],[130,-15],[165,-8],[362,-26],[73,-6],[160,-21],[27,8],[0,-19],[131,-5],[42,9]],[[8656,1935],[-1,-54],[14,-272],[-155,-27],[-133,-71],[-133,-12],[-131,-6],[-47,-8],[-120,-47],[2,-179],[-14,-29],[7,-35],[4,-86],[-9,-53]],[[8656,1935],[-2,49],[5,30],[14,15],[68,-2],[8,14],[54,12],[-9,19],[45,13],[24,13],[16,-13],[78,33],[-6,131]],[[8951,2249],[0,13],[72,57],[160,65],[215,11]],[[9398,2395],[-118,-434],[-65,-233],[-176,-67],[-25,-17],[-44,-15],[-78,-58],[-62,-54],[-21,-9],[-142,-114],[-100,-70],[-16,-16],[-123,-94],[-30,-26],[-94,-64],[-2,-24],[-15,-15],[-61,-20],[-11,-11],[1,-33],[-14,0],[-18,29],[-40,9],[-5,-24],[-43,10],[-10,-15],[31,-20],[-19,-22],[-32,-6],[-28,-16],[-12,-42]],[[7059,2016],[-30,174],[-13,85],[-7,73],[3,57],[14,53],[43,78],[25,33],[45,45],[145,134]],[[7284,2748],[71,-14],[52,-43],[11,4],[15,-24],[38,-30],[0,-21],[14,-12],[10,-31],[37,-9],[55,-22],[45,-29],[11,-24],[44,-32],[33,-1],[76,-30],[121,-36],[60,-26],[-8,-29],[157,-51],[136,-22],[2,18],[30,2],[36,-18],[1,-23],[65,4],[-69,159],[82,-10],[86,-19],[92,-4],[158,-12],[9,24],[63,-15],[15,7],[28,-35],[6,-23],[-3,-75],[88,3]],[[7284,2748],[77,82],[61,80],[33,54],[16,39]],[[7471,3003],[54,0],[140,9],[26,12],[124,-26],[44,-24],[27,-24],[36,-3],[34,-32],[140,-32],[62,-17],[60,-11],[16,-9],[152,-29],[257,-68],[77,-17],[63,-2],[135,-35],[135,-42],[40,-16],[84,-18],[119,-15],[25,-9],[38,-31],[23,-30],[51,-10]],[[9433,2524],[-35,-129]],[[7862,870],[-85,-42],[-89,-66],[-130,-117],[-56,-57]],[[7502,588],[-34,34],[-14,33],[-20,17],[-20,32],[-16,44],[-15,117],[-71,-5],[3,49],[-76,14],[-18,-25],[-35,10],[11,46]],[[7197,954],[12,41],[9,84],[36,103],[43,114],[3,18],[55,121],[18,7],[23,-15],[18,13],[28,0],[37,17]],[[7197,954],[-32,10],[-21,27],[-9,29],[-26,7],[19,65],[1,25],[-77,2],[-1,57],[-6,39],[-26,-11],[-34,4],[-38,20],[-10,-9],[-22,17],[-26,-30],[-93,-61],[-11,4],[-20,-30],[-93,-83]],[[6672,1036],[-78,53]],[[6594,1089],[-76,44],[-72,38]],[[6446,1171],[43,66],[0,19],[79,165],[41,101],[43,86],[14,10],[53,9],[62,-2],[23,43],[2,30]],[[6806,1698],[60,17],[97,51],[43,32],[35,34],[71,49]],[[6446,1171],[-50,18],[-70,10],[-52,-3],[-111,-13],[-87,-14],[-67,-17],[-70,-27],[-83,-17],[-52,4],[-112,34],[-90,36],[-100,50]],[[5502,1232],[-56,24],[-33,23]],[[5413,1279],[66,51],[22,-20],[24,-7],[65,60],[34,40],[47,44],[29,13],[49,48],[86,35],[72,44],[43,-2],[3,40],[-62,4],[30,87],[-66,80],[24,-2],[12,24],[54,-1],[-17,43],[-23,22],[-45,79],[58,34],[-11,15],[37,23],[20,25],[45,31],[-13,19],[52,33],[41,10]],[[6089,2151],[9,-37],[41,-98],[52,-89],[43,-54],[56,-43],[60,-32],[127,-53],[108,-36],[69,-13],[86,-5],[50,3]],[[6790,1694],[16,4]],[[6790,1694],[-17,32],[-18,79],[-24,3],[-7,64],[-29,95],[-4,44],[-30,67],[13,20],[-22,44],[62,24],[14,33],[-42,25],[-63,53],[-75,29],[-51,33],[-22,22],[-20,47],[1,29],[-8,38],[9,25],[-10,39],[-7,74],[-23,29],[10,58],[50,73],[23,43],[-1,69],[24,7],[23,41]],[[6546,2933],[29,18],[55,-8],[42,1],[5,15],[19,-7],[50,-4],[2,-12],[57,-11],[85,-3],[45,16],[87,-16],[64,-50],[15,-1],[34,-28],[-9,-14],[50,-16],[47,-34],[61,-31]],[[6089,2151],[-10,82]],[[6079,2233],[33,16],[50,12],[-28,14],[-25,24],[0,17],[-16,13],[23,22],[-25,10],[19,29],[-12,23],[17,18],[-30,29],[9,53],[-6,15],[26,2],[-7,69],[-30,30],[1,21],[-19,14],[34,12],[36,34],[3,53],[9,20],[-6,69]],[[6135,2852],[64,10],[37,-5],[150,25],[51,5],[90,50],[19,-4]],[[6851,769],[49,-78],[87,-18],[31,-1],[36,8],[67,-18],[97,-131],[-3,-38],[26,-2]],[[7241,491],[9,-14],[-3,-193],[-6,-35],[-1,-98]],[[7240,151],[-127,-37],[-201,-65],[-74,-17],[-161,-32],[16,33],[49,70],[35,38],[14,26],[-180,72]],[[6611,239],[-55,33],[-271,137]],[[6285,409],[144,145],[42,30],[51,22],[18,35],[22,28],[89,72],[42,9],[29,-9],[15,-19],[51,-8],[29,16],[34,39]],[[8028,772],[99,-21],[130,-40],[28,-18],[-204,-162],[-212,-166],[-29,-19],[-52,-24],[-548,-171]],[[7241,491],[45,1],[94,15],[50,19],[47,35],[25,27]],[[6851,769],[-63,124],[-38,63],[-47,54],[-31,26]],[[6285,409],[-74,39],[-227,113]],[[5984,561],[77,93],[75,85],[44,42],[28,-21],[21,5],[40,-22],[52,55],[114,105],[107,77],[2,23],[49,37],[1,49]],[[5984,561],[-130,67],[-121,57],[-56,19],[-53,13],[-262,74],[-47,25]],[[5315,816],[28,42],[20,19],[14,52],[-4,36],[35,27],[16,30],[-11,23],[40,18],[4,27],[22,29],[33,0],[15,21],[-6,55],[-16,2],[-3,35]],[[5315,816],[-16,-34],[-15,-5],[-72,-63],[-111,-132],[-47,-51],[-113,-68]],[[4941,463],[-42,62],[-32,59],[-21,25],[-33,56],[-39,74],[-64,86],[-72,125],[-16,14],[-15,35]],[[4607,999],[171,82],[83,43],[30,10],[26,-6],[67,17],[28,29],[61,34],[8,17],[45,16],[8,23],[56,28],[23,-9],[3,14],[24,8],[-2,19],[24,0],[8,16],[31,7],[27,-15],[15,28]],[[5343,1360],[70,-81]],[[6611,239],[-45,4],[-71,15],[-83,10],[-93,3],[-230,17],[-112,5],[-100,8],[-62,2],[-216,15],[-104,2],[-43,5],[-172,8],[-201,13],[-73,2]],[[5006,348],[-65,115]],[[5006,348],[-127,6],[-85,1],[-155,8],[-172,4]],[[4467,367],[-44,71],[-49,117],[-30,-18],[-24,-3],[-12,15],[-88,153],[41,5],[20,12],[-15,38],[83,22],[-41,86],[43,16],[-28,44],[-87,128]],[[4236,1053],[68,26],[87,41],[15,29],[83,37],[108,-176],[10,-11]],[[4467,367],[-39,3],[-256,5],[-386,13],[-129,1],[-170,6],[-235,4],[-139,6],[-286,5],[-212,5],[-61,4],[-262,6],[-146,8],[-72,126],[-84,158],[-91,165],[-38,75]],[[1861,957],[211,64],[80,23],[167,-10],[197,5],[99,-6],[35,-11],[157,-2]],[[2807,1020],[24,-116],[27,-110],[149,12],[113,0],[59,-3],[152,-20],[101,-21],[37,2],[33,33],[44,25],[83,27],[112,28],[84,29],[105,63],[17,21],[120,46],[62,19],[61,-11],[46,9]],[[2807,1020],[42,0],[121,16],[98,21],[80,62],[29,14],[37,-4],[135,-41],[122,-50],[46,8],[226,78],[51,31],[42,47],[25,6],[9,-30],[37,-74],[176,91],[127,63],[175,94],[-23,30],[-57,99],[-12,34],[10,56],[27,74],[13,45]],[[4343,1690],[20,-4],[78,9],[53,35],[40,-12],[87,5],[63,30],[26,4],[33,-11],[52,24],[57,3],[64,15],[78,-14],[50,8]],[[5044,1782],[61,1],[30,10],[48,27],[17,0],[56,-15],[51,-3]],[[5307,1802],[-1,-28],[-29,-101],[-10,-55],[-1,-48],[18,-99],[26,-65],[33,-46]],[[4343,1690],[-36,5],[-70,-29],[-68,3],[-43,-17],[-27,3],[-50,-13],[-182,-23],[-51,-16],[-94,-2],[-37,-15],[-26,2],[-52,-9],[-98,-30],[-37,2],[-41,-7],[-79,-3],[-36,-9],[-80,-9]],[[3236,1523],[-13,31],[-2,93],[20,107],[2,37],[16,74],[11,89],[10,39],[53,296],[18,110],[-9,87],[-25,3],[-3,34],[-20,79]],[[3294,2602],[28,21],[11,40],[6,57],[-23,116],[1,39],[169,482],[0,39],[9,14],[5,79],[89,3]],[[3589,3492],[43,-9],[-7,-32],[4,-77],[37,-127],[34,-75],[52,-64],[35,-24],[52,-14]],[[3839,3070],[-2,-69],[28,15],[20,-2],[1,-42],[18,-4],[-7,-39],[13,-6],[-6,-21],[-37,-62],[-4,-70],[7,-42],[-5,-38],[14,-28],[-1,-54],[21,-12],[3,-26],[49,0],[2,-40],[43,-6],[10,8],[51,2],[91,-23],[2,-48],[-25,-109],[22,-13],[37,-5],[13,-57],[21,-61],[211,28],[103,-9],[93,-47],[125,-41],[10,-13],[49,-34],[53,-19],[32,-20],[52,-20],[9,-32],[20,-25],[6,-22],[19,-4],[29,-33],[-1,-25],[16,-18],[-7,-16],[17,-55],[-10,-31]],[[5307,1802],[-2,36],[18,65],[42,85],[39,66],[45,55]],[[5449,2109],[53,95],[61,61],[75,48],[42,18],[79,23],[47,10],[90,-2],[84,-22],[53,-34],[29,-34],[17,-39]],[[3839,3070],[163,-28],[117,-14],[43,1],[115,-56],[40,-4],[50,-25],[45,-34],[-19,-51],[9,-41],[34,-21],[54,-11],[31,-28],[94,-33],[53,-10],[5,-22],[91,-30],[7,8],[47,-19],[28,2],[2,-14],[63,-24],[2,-37],[80,-28],[4,7],[39,-16],[66,-17],[-2,-7],[54,-12],[-35,-21],[31,-50],[-13,-14],[6,-22],[59,-7],[5,-29],[-39,-4],[5,-44],[-39,-29],[64,-6]],[[5198,2280],[56,-14],[11,-13],[-9,-47],[25,-3],[6,-16],[44,-16],[28,-25],[42,-26],[48,-11]],[[1861,957],[-57,101],[-120,222],[-15,26]],[[1669,1306],[163,17],[127,17],[228,33],[99,17],[288,43],[80,9],[175,28],[163,17],[125,18],[87,8],[32,10]],[[1669,1306],[-116,212],[-40,70],[-129,239],[-43,75],[-124,234],[-90,159]],[[1127,2295],[56,27],[37,40],[58,174],[10,19],[27,4],[223,-50],[53,-18],[81,1],[80,9],[208,16],[9,7],[-12,204],[149,25],[39,-89],[103,-27],[131,-4],[1,48],[169,18],[51,-11]],[[2600,2688],[307,-15],[133,-14],[27,-26],[29,-62],[19,-19],[144,2],[35,48]],[[5313,3706],[26,4],[12,-52],[5,-55],[41,-98],[46,-73],[-38,-13],[-40,-29],[-46,-6],[-14,13],[-53,-30],[-49,-43],[-26,35],[-35,6],[-23,-22],[-49,72],[-50,-24],[-27,40],[-22,48],[69,24],[-17,44],[-7,63],[0,40]],[[5016,3650],[-1,60],[88,-7],[42,-6],[19,28],[149,-19]],[[5016,3650],[-93,2],[-72,11],[-108,31],[-97,36],[-150,67],[-125,61],[-47,28],[-149,78],[-68,40],[-102,55],[-183,105],[-89,47],[-164,94],[-18,8],[-86,51],[-182,99],[-52,31],[-157,88]],[[3074,4582],[-204,113],[163,230],[8,61],[24,233],[3,84],[-12,214],[-9,58],[-40,80],[-149,257]],[[2858,5912],[100,53]],[[2958,5965],[101,56]],[[3059,6021],[54,-78],[82,-131],[32,-78],[15,-63],[236,-99],[291,-128],[83,-114],[166,-221],[57,-86],[69,-76],[23,-29],[43,-78],[9,-24],[32,-36],[148,-139],[147,-141],[117,-107],[107,-66],[258,-139],[179,-71],[80,-41],[146,-60],[53,-25],[-65,-76],[-23,-52],[-20,-29]],[[5378,3834],[-38,-65],[-27,-63]],[[5198,2280],[-2,30],[9,31],[41,0],[-1,27],[25,1],[1,12],[42,-4],[1,-21],[97,12],[-4,15],[48,26],[5,21],[29,-8],[4,66],[-18,14],[27,45],[92,4],[4,28],[21,-3],[2,60],[15,51],[43,35],[-35,51],[-3,18],[26,2],[-6,107],[65,-9],[31,10],[33,1],[1,29],[-12,39],[89,8],[0,-79],[91,-2],[67,8],[90,21]],[[6116,2926],[19,-74]],[[2600,2688],[-1,119],[-11,70],[-46,70],[-3,16],[-32,46],[-81,200],[-60,132],[-90,230],[-16,76],[-12,40],[-16,87]],[[2232,3774],[142,101],[139,105]],[[2513,3980],[280,-19],[81,-45],[21,0],[11,32],[166,-38],[313,-48],[113,-5],[122,4]],[[3620,3861],[-40,-19],[-17,-128],[3,-39],[18,-64],[7,-67],[-2,-52]],[[3059,6021],[12,9],[24,-30],[137,-145],[26,-19],[102,-52],[84,-16],[35,-3],[212,-38],[178,-38]],[[3869,5689],[461,-85],[46,-15],[38,-23]],[[4414,5566],[56,-92],[63,-53],[49,-65],[29,-46],[60,-134],[48,-80],[59,-72],[57,-50],[45,-34],[150,-99],[156,-105],[25,-21],[111,-80],[25,-21],[211,-151],[81,-60],[120,-69],[33,-31],[174,-109]],[[5966,4194],[-80,-120],[74,-32],[-39,-100],[-21,-32],[-16,-39],[-13,-8],[-4,-25],[16,-5],[-20,-85]],[[5863,3748],[-8,-10],[-28,8],[-57,2],[-27,7],[-78,3],[-83,12],[-124,41],[-80,23]],[[4414,5566],[45,-30],[151,-8],[48,12],[62,29],[85,19],[39,-1],[119,-16],[96,-41],[83,-59],[22,-31],[-15,-18],[40,-33],[65,-24],[44,-49],[90,-74],[32,-37],[30,-59],[27,-1],[42,-27],[27,-28],[25,-41],[57,-46],[55,-36],[14,-45],[56,-69],[85,-62],[23,-30],[58,-46],[29,-38],[69,-35],[-8,-20],[163,-88]],[[6172,4534],[-65,-102],[-89,-155],[-52,-83]],[[5863,3748],[108,-16],[40,-3]],[[6011,3729],[-10,-35],[-50,-138],[-49,-130],[-78,-222],[-26,-59]],[[5798,3145],[-52,22],[-108,53],[-101,44],[-21,21],[-68,97],[-66,-35],[-35,14],[-19,-5],[-57,-52],[-57,-18],[-63,-11],[-37,41],[-33,-12],[-42,56],[-47,-2],[-83,-15],[-44,-13],[-91,27],[-51,20],[-121,80],[-94,-3],[-81,3],[-118,-3],[-176,47],[-52,16],[9,89],[24,67],[-102,40],[-54,25],[-42,25],[-63,19],[7,24],[-16,16],[-37,13],[-29,-3],[-111,23],[-47,6]],[[2513,3980],[92,83],[94,97],[185,207]],[[2884,4367],[190,215]],[[5798,3145],[105,-34],[74,-12],[57,6],[42,-2]],[[6076,3103],[10,-67],[12,-25],[18,-85]],[[2884,4367],[-266,148],[-160,84],[-258,142],[-388,225],[-288,171],[-133,76]],[[1391,5213],[79,101],[45,51],[50,63]],[[1565,5428],[122,-67],[22,31],[418,656],[6,16],[47,67],[187,298],[8,10],[145,-127],[159,-136],[87,-106],[92,-158]],[[2958,5965],[-303,424],[-192,190],[-26,36],[-85,145],[-6,29],[-77,164],[-31,38],[-40,94],[-12,48],[-38,77],[-75,189],[-4,62],[-25,131],[-13,50],[14,92],[-351,-18],[-81,-3],[9,-137],[7,-452],[14,-38],[46,-151],[0,-65],[-8,-54],[-3,-63],[-164,-8],[-253,-14]],[[1261,6731],[32,97],[9,94],[8,146],[-2,24]],[[1308,7092],[-5,268],[1,108],[-2,92],[1,256],[220,20],[83,2],[-3,104],[-3,195],[2,133],[11,75],[-3,88],[0,71],[6,63],[4,331],[2,57],[-2,107],[-19,157],[-21,133],[-27,192],[-53,347]],[[1500,9891],[256,-123],[158,-70],[69,-4],[238,-9],[97,-7],[20,-10],[71,-52],[75,-72],[74,-81],[118,-192],[-59,-216],[-26,-178],[0,-71],[-7,-52],[-20,-73],[-68,-181],[-30,-72],[-27,-51],[-60,-138],[-24,-84],[-41,-168],[-29,-110],[-14,-131],[-3,-134],[27,-127],[21,-85],[30,-97],[84,-217],[33,-51],[80,-145],[51,-88],[29,-65],[40,-101],[139,-232],[135,-204],[70,-100],[52,-79]],[[1127,2295],[-86,159],[-35,60],[-119,220],[-163,295],[-138,256],[-24,39],[-68,128],[-45,78],[-42,48],[-51,36],[-113,60],[-67,32],[-77,42],[80,119],[149,206],[60,64],[21,17]],[[409,4154],[144,-124],[19,-34],[83,-37],[61,-24],[117,-60],[76,-28],[59,-10],[218,-47],[19,-12],[47,-56],[269,110],[91,42],[71,70],[82,84],[52,60],[82,-95],[76,-92],[66,-100],[36,-62],[89,10],[39,9],[27,16]],[[1308,7092],[-277,2],[-235,28],[-107,21],[-131,30],[-202,51],[-116,36],[-87,34]],[[153,7294],[-61,273],[-35,153],[69,49],[58,57],[57,36],[85,91],[-3,69],[-8,48],[52,28],[15,21],[62,153],[11,41],[16,104],[6,124],[1,107],[-4,139],[7,102],[217,-15],[-11,93],[-10,117],[0,53],[-11,59],[-14,172],[-4,88],[-14,167],[53,30],[68,44],[130,94],[120,89],[55,56],[42,37],[65,25],[65,1],[268,-108]],[[1391,5213],[-68,-86],[-94,-99],[-56,-63]],[[1173,4965],[-388,225],[-52,37],[-106,84],[-245,207],[-47,46],[-74,90],[-25,38],[-40,88],[-12,42],[-48,46],[-51,35],[-85,51],[36,27],[67,61],[-75,90],[2,5],[104,97],[-80,63],[53,79],[108,166],[15,64],[-14,1],[22,68],[92,3],[143,9],[3,7],[-42,67],[-80,111],[-62,64],[-78,112],[-32,95],[-22,89],[-7,62]],[[1261,6731],[-111,-325],[-92,-248],[-148,-361],[252,-141],[128,-74],[185,-101],[90,-53]],[[409,4154],[31,24],[164,140],[123,110],[78,77],[200,244],[168,216]],[[8715,3421],[-9,-35],[53,-12],[-8,-97]],[[8751,3277],[-124,38],[-74,10],[-365,29],[3,-38],[-29,-12],[-7,-15],[-93,-4],[-27,-31],[-78,6],[-19,43],[-53,-30],[-102,25],[-37,-3],[-71,-30],[-18,0],[-113,23],[-16,-10],[-41,1]],[[7487,3279],[0,43],[7,65],[19,79],[-15,50],[-3,63]],[[7495,3579],[55,17],[69,37],[41,30],[32,35],[29,42],[18,40],[17,59],[7,43]],[[7763,3882],[81,-17],[43,-25],[-3,-45],[30,-6],[12,-15],[22,5],[33,-20],[30,-2],[31,-24],[2,-22],[24,-11],[-4,-14],[12,-33],[52,-102],[14,-39],[70,-21],[68,-14],[59,-5],[130,-22],[62,-4],[93,-15],[91,-10]],[[7471,3003],[3,34],[-11,46],[-40,52]],[[7423,3135],[11,43],[20,41],[23,29],[10,31]],[[8751,3277],[816,-249]],[[9567,3028],[-82,-306],[2,-4],[-54,-194]],[[9652,3342],[-107,1],[-95,-4],[-167,33],[-40,2],[-96,-11],[-66,9],[-90,3],[-86,17],[-76,9]],[[8829,3401],[7,48],[-91,201],[-98,212],[-39,39],[-4,31],[20,105],[1,80],[12,10],[11,34],[28,6],[7,29],[-34,54],[-7,22],[-53,89],[-26,22],[-34,17]],[[8529,4400],[75,2],[66,6],[75,15],[49,17],[69,30],[58,33],[36,30],[43,49],[31,42],[24,54],[9,69],[89,-4],[12,-5],[-23,-22],[18,-28],[61,22],[2,-25],[27,-17],[26,10],[13,-21],[79,2],[18,-9],[82,-18],[46,-14],[18,6],[24,-26],[17,28],[20,-3],[26,-32],[40,-11],[63,25],[40,-2],[9,-17],[26,-16],[22,12],[29,-9],[38,7],[11,12],[44,11],[32,-7],[2,18],[24,5],[-40,-150],[-85,-307],[-182,-675],[-40,-145]],[[7763,3882],[25,167],[17,61],[39,97]],[[7844,4207],[21,38],[30,39],[84,63],[83,40],[68,16],[87,8],[54,1],[204,-11],[54,-1]],[[8829,3401],[-114,20]],[[7495,3579],[-25,21],[0,36],[13,25],[-26,80],[-10,55],[-12,28],[2,26],[-21,42],[-7,38],[-46,45],[-8,36],[-38,45],[2,18],[-14,38],[-5,40],[-80,-3],[-72,-13],[-10,-7],[-24,34],[24,45],[17,68],[-5,37],[-17,34],[-46,47]],[[7087,4394],[52,-15],[50,-8],[59,-2],[21,39],[50,29],[53,10]],[[7372,4447],[20,-37],[38,-34],[47,-21],[29,-29],[32,4],[32,-19],[25,9],[35,-14],[8,-17],[78,-16],[23,-25],[31,-14],[21,-20],[53,-7]],[[7495,3579],[-57,-9],[-55,0],[-52,5],[-89,18],[-55,16],[-138,48],[-97,26]],[[6952,3683],[-1,39],[-20,28],[-57,27],[8,28],[-18,0],[-4,30],[-18,3],[-58,41],[-23,36],[20,28],[-28,18],[-3,30],[-18,17],[13,15],[-18,39],[-18,7],[-26,25],[-11,32],[12,30],[-12,41]],[[6672,4197],[44,45],[17,40],[20,5],[79,-17],[16,20],[40,29],[28,6],[71,25],[41,25],[59,19]],[[6076,3103],[72,-5],[71,26],[107,42],[15,27],[66,56],[53,16],[66,29],[14,14],[8,35],[47,37],[4,30],[42,21],[44,-9],[28,7]],[[6713,3429],[27,-45],[32,-40],[37,-38],[65,-48],[43,-24],[85,-30],[60,-12],[148,-11],[69,-7],[96,-19],[48,-20]],[[6713,3429],[-16,38],[-12,52],[5,65],[14,26],[37,33],[33,21]],[[6774,3664],[64,18],[82,3],[32,-2]],[[6011,3729],[125,-1],[163,12],[20,-12],[26,2],[52,-14],[10,7],[72,-7],[49,-33],[13,22],[55,5],[45,-11],[36,-15],[7,-19],[47,13],[43,-14]],[[3869,5689],[19,170],[32,-5],[1139,-256],[211,-49],[188,-41],[190,-37],[88,-47],[56,-41],[226,-149],[73,-51],[170,-105],[41,47],[38,22],[25,35],[-1,32],[5,75],[38,79],[15,-36],[73,6],[10,-49],[23,6],[26,-121],[79,20],[24,-32],[45,6],[-4,-46],[177,-140],[52,-48],[55,-40],[24,-11],[62,-56],[50,-51],[37,-32],[30,-36],[87,-82],[62,-38],[34,-73],[42,-39],[-14,-20],[-24,-9]],[[6672,4197],[-35,5],[-6,52],[-51,10],[-16,-3],[-36,25],[-31,-5],[-93,32],[-63,-7],[-53,19],[-14,15],[13,51],[3,56],[-57,26],[-27,20],[-15,43],[-19,-2]],[[9652,3342],[-85,-314]]],"transform":{"scale":[0.000030514986498648266,0.00003513400740074348],"translate":[100.26242900800008,13.788917403000026]},"objects":{"Nonthaburi":{"type":"GeometryCollection","geometries":[{"arcs":[[0,1,2,3,4,5,6,7]],"type":"Polygon","properties":{"Shape_Leng":0.126413804666,"Shape_Area":0.000366322659026,"ADM3_EN":"Suan Yai","ADM3_TH":"สวนใหญ่","ADM3_PCODE":"TH120101","ADM2_EN":"Mueang Nonthaburi","ADM2_TH":"เมืองนนทบุรี","ADM2_PCODE":"TH1201","ADM1_EN":"Nonthaburi","ADM1_TH":"นนทบุรี","ADM1_PCODE":"TH12","ADM0_EN":"Thailand","ADM0_TH":"ประเทศไทย","ADM0_PCODE":"TH"}},{"arcs":[[-1,8,9]],"type":"Polygon","properties":{"Shape_Leng":0.145527164163,"Shape_Area":0.000548935036626,"ADM3_EN":"Talat Khwan","ADM3_TH":"ตลาดขวัญ","ADM3_PCODE":"TH120102","ADM2_EN":"Mueang Nonthaburi","ADM2_TH":"เมืองนนทบุรี","ADM2_PCODE":"TH1201","ADM1_EN":"Nonthaburi","ADM1_TH":"นนทบุรี","ADM1_PCODE":"TH12","ADM0_EN":"Thailand","ADM0_TH":"ประเทศไทย","ADM0_PCODE":"TH"}},{"arcs":[[-2,-10,10,11,12]],"type":"Polygon","properties":{"Shape_Leng":0.166824779605,"Shape_Area":0.000723635312442,"ADM3_EN":"Bang Khen","ADM3_TH":"บางเขน","ADM3_PCODE":"TH120103","ADM2_EN":"Mueang Nonthaburi","ADM2_TH":"เมืองนนทบุรี","ADM2_PCODE":"TH1201","ADM1_EN":"Nonthaburi","ADM1_TH":"นนทบุรี","ADM1_PCODE":"TH12","ADM0_EN":"Thailand","ADM0_TH":"ประเทศไทย","ADM0_PCODE":"TH"}},{"arcs":[[-8,13,14,-11,-9]],"type":"Polygon","properties":{"Shape_Leng":0.172164875278,"Shape_Area":0.000908258783569,"ADM3_EN":"Bang Kraso","ADM3_TH":"บางกระสอ","ADM3_PCODE":"TH120104","ADM2_EN":"Mueang Nonthaburi","ADM2_TH":"เมืองนนทบุรี","ADM2_PCODE":"TH1201","ADM1_EN":"Nonthaburi","ADM1_TH":"นนทบุรี","ADM1_PCODE":"TH12","ADM0_EN":"Thailand","ADM0_TH":"ประเทศไทย","ADM0_PCODE":"TH"}},{"arcs":[[-12,-15,15,16,17]],"type":"Polygon","properties":{"Shape_Leng":0.169322375186,"Shape_Area":0.000926058312703,"ADM3_EN":"Tha Sai","ADM3_TH":"ท่าทราย","ADM3_PCODE":"TH120105","ADM2_EN":"Mueang Nonthaburi","ADM2_TH":"เมืองนนทบุรี","ADM2_PCODE":"TH1201","ADM1_EN":"Nonthaburi","ADM1_TH":"นนทบุรี","ADM1_PCODE":"TH12","ADM0_EN":"Thailand","ADM0_TH":"ประเทศไทย","ADM0_PCODE":"TH"}},{"arcs":[[-5,18,19,20]],"type":"Polygon","properties":{"Shape_Leng":0.0819182664739,"Shape_Area":0.000329465622416,"ADM3_EN":"Bang Phai","ADM3_TH":"บางไผ่","ADM3_PCODE":"TH120106","ADM2_EN":"Mueang Nonthaburi","ADM2_TH":"เมืองนนทบุรี","ADM2_PCODE":"TH1201","ADM1_EN":"Nonthaburi","ADM1_TH":"นนทบุรี","ADM1_PCODE":"TH12","ADM0_EN":"Thailand","ADM0_TH":"ประเทศไทย","ADM0_PCODE":"TH"}},{"arcs":[[-6,-21,21,22,23,24,25]],"type":"Polygon","properties":{"Shape_Leng":0.114531602337,"Shape_Area":0.000532825661349,"ADM3_EN":"Bang Si Mueang","ADM3_TH":"บางศรีเมือง","ADM3_PCODE":"TH120107","ADM2_EN":"Mueang Nonthaburi","ADM2_TH":"เมืองนนทบุรี","ADM2_PCODE":"TH1201","ADM1_EN":"Nonthaburi","ADM1_TH":"นนทบุรี","ADM1_PCODE":"TH12","ADM0_EN":"Thailand","ADM0_TH":"ประเทศไทย","ADM0_PCODE":"TH"}},{"arcs":[[-25,26,27,28,29,30]],"type":"Polygon","properties":{"Shape_Leng":0.139560317242,"Shape_Area":0.000673003370829,"ADM3_EN":"Bang Krang","ADM3_TH":"บางกร่าง","ADM3_PCODE":"TH120108","ADM2_EN":"Mueang Nonthaburi","ADM2_TH":"เมืองนนทบุรี","ADM2_PCODE":"TH1201","ADM1_EN":"Nonthaburi","ADM1_TH":"นนทบุรี","ADM1_PCODE":"TH12","ADM0_EN":"Thailand","ADM0_TH":"ประเทศไทย","ADM0_PCODE":"TH"}},{"arcs":[[-7,-26,-31,31,32,-14]],"type":"Polygon","properties":{"Shape_Leng":0.125425309378,"Shape_Area":0.000645958649319,"ADM3_EN":"Sai Ma","ADM3_TH":"ไทรม้า","ADM3_PCODE":"TH120109","ADM2_EN":"Mueang Nonthaburi","ADM2_TH":"เมืองนนทบุรี","ADM2_PCODE":"TH1201","ADM1_EN":"Nonthaburi","ADM1_TH":"นนทบุรี","ADM1_PCODE":"TH12","ADM0_EN":"Thailand","ADM0_TH":"ประเทศไทย","ADM0_PCODE":"TH"}},{"arcs":[[-30,33,34,35,-32]],"type":"Polygon","properties":{"Shape_Leng":0.128834948874,"Shape_Area":0.000538193282551,"ADM3_EN":"Bang Rak Noi","ADM3_TH":"บางรักน้อย","ADM3_PCODE":"TH120110","ADM2_EN":"Mueang Nonthaburi","ADM2_TH":"เมืองนนทบุรี","ADM2_PCODE":"TH1201","ADM1_EN":"Nonthaburi","ADM1_TH":"นนทบุรี","ADM1_PCODE":"TH12","ADM0_EN":"Thailand","ADM0_TH":"ประเทศไทย","ADM0_PCODE":"TH"}},{"arcs":[[36,37,38,39,40]],"type":"Polygon","properties":{"Shape_Leng":0.0968694778007,"Shape_Area":0.00047433698259,"ADM3_EN":"Wat Chalo","ADM3_TH":"วัดชลอ","ADM3_PCODE":"TH120201","ADM2_EN":"Bang Kruai","ADM2_TH":"บางกรวย","ADM2_PCODE":"TH1202","ADM1_EN":"Nonthaburi","ADM1_TH":"นนทบุรี","ADM1_PCODE":"TH12","ADM0_EN":"Thailand","ADM0_TH":"ประเทศไทย","ADM0_PCODE":"TH"}},{"arcs":[[-4,41,-38,42,-19]],"type":"Polygon","properties":{"Shape_Leng":0.0884920955273,"Shape_Area":0.000375416367837,"ADM3_EN":"Bang Kruai","ADM3_TH":"บางกรวย","ADM3_PCODE":"TH120202","ADM2_EN":"Bang Kruai","ADM2_TH":"บางกรวย","ADM2_PCODE":"TH1202","ADM1_EN":"Nonthaburi","ADM1_TH":"นนทบุรี","ADM1_PCODE":"TH12","ADM0_EN":"Thailand","ADM0_TH":"ประเทศไทย","ADM0_PCODE":"TH"}},{"arcs":[[-20,-43,-37,43,-22]],"type":"Polygon","properties":{"Shape_Leng":0.0875513913336,"Shape_Area":0.000307375660312,"ADM3_EN":"Bang Si Thong","ADM3_TH":"บางสีทอง","ADM3_PCODE":"TH120203","ADM2_EN":"Bang Kruai","ADM2_TH":"บางกรวย","ADM2_PCODE":"TH1202","ADM1_EN":"Nonthaburi","ADM1_TH":"นนทบุรี","ADM1_PCODE":"TH12","ADM0_EN":"Thailand","ADM0_TH":"ประเทศไทย","ADM0_PCODE":"TH"}},{"arcs":[[-23,-44,-41,44,45]],"type":"Polygon","properties":{"Shape_Leng":0.0788077023629,"Shape_Area":0.000251219926174,"ADM3_EN":"Bang Khanun","ADM3_TH":"บางขนุน","ADM3_PCODE":"TH120204","ADM2_EN":"Bang Kruai","ADM2_TH":"บางกรวย","ADM2_PCODE":"TH1202","ADM1_EN":"Nonthaburi","ADM1_TH":"นนทบุรี","ADM1_PCODE":"TH12","ADM0_EN":"Thailand","ADM0_TH":"ประเทศไทย","ADM0_PCODE":"TH"}},{"arcs":[[-24,-46,46,47,-27]],"type":"Polygon","properties":{"Shape_Leng":0.106946840197,"Shape_Area":0.000526521420508,"ADM3_EN":"Bang Khun Kong","ADM3_TH":"บางขุนกอง","ADM3_PCODE":"TH120205","ADM2_EN":"Bang Kruai","ADM2_TH":"บางกรวย","ADM2_PCODE":"TH1202","ADM1_EN":"Nonthaburi","ADM1_TH":"นนทบุรี","ADM1_PCODE":"TH12","ADM0_EN":"Thailand","ADM0_TH":"ประเทศไทย","ADM0_PCODE":"TH"}},{"arcs":[[-28,-48,48,49,50,51]],"type":"Polygon","properties":{"Shape_Leng":0.0943524858223,"Shape_Area":0.000436819344242,"ADM3_EN":"Bang Khu Wiang","ADM3_TH":"บางคูเวียง","ADM3_PCODE":"TH120206","ADM2_EN":"Bang Kruai","ADM2_TH":"บางกรวย","ADM2_PCODE":"TH1202","ADM1_EN":"Nonthaburi","ADM1_TH":"นนทบุรี","ADM1_PCODE":"TH12","ADM0_EN":"Thailand","ADM0_TH":"ประเทศไทย","ADM0_PCODE":"TH"}},{"arcs":[[-40,52,53,-49,-47,-45]],"type":"Polygon","properties":{"Shape_Leng":0.115693636232,"Shape_Area":0.000473567571446,"ADM3_EN":"Mahasawat","ADM3_TH":"มหาสวัสดิ์","ADM3_PCODE":"TH120207","ADM2_EN":"Bang Kruai","ADM2_TH":"บางกรวย","ADM2_PCODE":"TH1202","ADM1_EN":"Nonthaburi","ADM1_TH":"นนทบุรี","ADM1_PCODE":"TH12","ADM0_EN":"Thailand","ADM0_TH":"ประเทศไทย","ADM0_PCODE":"TH"}},{"arcs":[[-50,-54,54,55,56]],"type":"Polygon","properties":{"Shape_Leng":0.0930545960376,"Shape_Area":0.000368163616566,"ADM3_EN":"Plai Bang","ADM3_TH":"ปลายบาง","ADM3_PCODE":"TH120208","ADM2_EN":"Bang Kruai","ADM2_TH":"บางกรวย","ADM2_PCODE":"TH1202","ADM1_EN":"Nonthaburi","ADM1_TH":"นนทบุรี","ADM1_PCODE":"TH12","ADM0_EN":"Thailand","ADM0_TH":"ประเทศไทย","ADM0_PCODE":"TH"}},{"arcs":[[-56,57,58,59]],"type":"Polygon","properties":{"Shape_Leng":0.207630857874,"Shape_Area":0.00132465115768,"ADM3_EN":"Sala Klang","ADM3_TH":"ศาลากลาง","ADM3_PCODE":"TH120209","ADM2_EN":"Bang Kruai","ADM2_TH":"บางกรวย","ADM2_PCODE":"TH1202","ADM1_EN":"Nonthaburi","ADM1_TH":"นนทบุรี","ADM1_PCODE":"TH12","ADM0_EN":"Thailand","ADM0_TH":"ประเทศไทย","ADM0_PCODE":"TH"}},{"arcs":[[-51,-57,-60,60,61,62,63]],"type":"Polygon","properties":{"Shape_Leng":0.216791966518,"Shape_Area":0.00101417460688,"ADM3_EN":"Bang Muang","ADM3_TH":"บางม่วง","ADM3_PCODE":"TH120301","ADM2_EN":"Bang Yai","ADM2_TH":"บางใหญ่","ADM2_PCODE":"TH1203","ADM1_EN":"Nonthaburi","ADM1_TH":"นนทบุรี","ADM1_PCODE":"TH12","ADM0_EN":"Thailand","ADM0_TH":"ประเทศไทย","ADM0_PCODE":"TH"}},{"arcs":[[-62,64,65,66,67,68]],"type":"Polygon","properties":{"Shape_Leng":0.228698920406,"Shape_Area":0.00170335944975,"ADM3_EN":"Bang Mae Nang","ADM3_TH":"บางแม่นาง","ADM3_PCODE":"TH120302","ADM2_EN":"Bang Yai","ADM2_TH":"บางใหญ่","ADM2_PCODE":"TH1203","ADM1_EN":"Nonthaburi","ADM1_TH":"นนทบุรี","ADM1_PCODE":"TH12","ADM0_EN":"Thailand","ADM0_TH":"ประเทศไทย","ADM0_PCODE":"TH"}},{"arcs":[[-29,-52,-64,69,70,-34]],"type":"Polygon","properties":{"Shape_Leng":0.111880651015,"Shape_Area":0.000579512094915,"ADM3_EN":"Bang Len","ADM3_TH":"บางเลน","ADM3_PCODE":"TH120303","ADM2_EN":"Bang Yai","ADM2_TH":"บางใหญ่","ADM2_PCODE":"TH1203","ADM1_EN":"Nonthaburi","ADM1_TH":"นนทบุรี","ADM1_PCODE":"TH12","ADM0_EN":"Thailand","ADM0_TH":"ประเทศไทย","ADM0_PCODE":"TH"}},{"arcs":[[-63,-69,71,72,-70]],"type":"Polygon","properties":{"Shape_Leng":0.17479914703,"Shape_Area":0.00090282285158,"ADM3_EN":"Sao Thong Hin","ADM3_TH":"เสาธงหิน","ADM3_PCODE":"TH120304","ADM2_EN":"Bang Yai","ADM2_TH":"บางใหญ่","ADM2_PCODE":"TH1203","ADM1_EN":"Nonthaburi","ADM1_TH":"นนทบุรี","ADM1_PCODE":"TH12","ADM0_EN":"Thailand","ADM0_TH":"ประเทศไทย","ADM0_PCODE":"TH"}},{"arcs":[[-59,73,74,-65,-61]],"type":"Polygon","properties":{"Shape_Leng":0.196187613791,"Shape_Area":0.00115128589909,"ADM3_EN":"Bang Yai","ADM3_TH":"บางใหญ่","ADM3_PCODE":"TH120305","ADM2_EN":"Bang Yai","ADM2_TH":"บางใหญ่","ADM2_PCODE":"TH1203","ADM1_EN":"Nonthaburi","ADM1_TH":"นนทบุรี","ADM1_PCODE":"TH12","ADM0_EN":"Thailand","ADM0_TH":"ประเทศไทย","ADM0_PCODE":"TH"}},{"arcs":[[-66,-75,75,76,77]],"type":"Polygon","properties":{"Shape_Leng":0.213780676545,"Shape_Area":0.0025044852674,"ADM3_EN":"Ban Mai","ADM3_TH":"บ้านใหม่","ADM3_PCODE":"TH120306","ADM2_EN":"Bang Yai","ADM2_TH":"บางใหญ่","ADM2_PCODE":"TH1203","ADM1_EN":"Nonthaburi","ADM1_TH":"นนทบุรี","ADM1_PCODE":"TH12","ADM0_EN":"Thailand","ADM0_TH":"ประเทศไทย","ADM0_PCODE":"TH"}},{"arcs":[[78,79]],"type":"Polygon","properties":{"Shape_Leng":0.0520463807536,"Shape_Area":0.000132435150222,"ADM3_EN":"Sano Loi","ADM3_TH":"โสนลอย","ADM3_PCODE":"TH120401","ADM2_EN":"Bang Bua Thong","ADM2_TH":"บางบัวทอง","ADM2_PCODE":"TH1204","ADM1_EN":"Nonthaburi","ADM1_TH":"นนทบุรี","ADM1_PCODE":"TH12","ADM0_EN":"Thailand","ADM0_TH":"ประเทศไทย","ADM0_PCODE":"TH"}},{"arcs":[[-80,80,81,82,83,84,85]],"type":"Polygon","properties":{"Shape_Leng":0.259028748258,"Shape_Area":0.00232335894947,"ADM3_EN":"Bang Bua Thong","ADM3_TH":"บางบัวทอง","ADM3_PCODE":"TH120402","ADM2_EN":"Bang Bua Thong","ADM2_TH":"บางบัวทอง","ADM2_PCODE":"TH1204","ADM1_EN":"Nonthaburi","ADM1_TH":"นนทบุรี","ADM1_PCODE":"TH12","ADM0_EN":"Thailand","ADM0_TH":"ประเทศไทย","ADM0_PCODE":"TH"}},{"arcs":[[-35,-71,-73,86,87]],"type":"Polygon","properties":{"Shape_Leng":0.127680210999,"Shape_Area":0.000401528862163,"ADM3_EN":"Bang Rak Yai","ADM3_TH":"บางรักใหญ่","ADM3_PCODE":"TH120403","ADM2_EN":"Bang Bua Thong","ADM2_TH":"บางบัวทอง","ADM2_PCODE":"TH1204","ADM1_EN":"Nonthaburi","ADM1_TH":"นนทบุรี","ADM1_PCODE":"TH12","ADM0_EN":"Thailand","ADM0_TH":"ประเทศไทย","ADM0_PCODE":"TH"}},{"arcs":[[-67,-78,88,89,90,91]],"type":"Polygon","properties":{"Shape_Leng":0.160427150423,"Shape_Area":0.00142647538629,"ADM3_EN":"Bang Khu Rat","ADM3_TH":"บางคูรัด","ADM3_PCODE":"TH120404","ADM2_EN":"Bang Bua Thong","ADM2_TH":"บางบัวทอง","ADM2_PCODE":"TH1204","ADM1_EN":"Nonthaburi","ADM1_TH":"นนทบุรี","ADM1_PCODE":"TH12","ADM0_EN":"Thailand","ADM0_TH":"ประเทศไทย","ADM0_PCODE":"TH"}},{"arcs":[[-85,92,93,94,95,96]],"type":"Polygon","properties":{"Shape_Leng":0.262757589663,"Shape_Area":0.00165434823882,"ADM3_EN":"Lahan","ADM3_TH":"ละหาร","ADM3_PCODE":"TH120405","ADM2_EN":"Bang Bua Thong","ADM2_TH":"บางบัวทอง","ADM2_PCODE":"TH1204","ADM1_EN":"Nonthaburi","ADM1_TH":"นนทบุรี","ADM1_PCODE":"TH12","ADM0_EN":"Thailand","ADM0_TH":"ประเทศไทย","ADM0_PCODE":"TH"}},{"arcs":[[-95,97,98]],"type":"Polygon","properties":{"Shape_Leng":0.154863554717,"Shape_Area":0.000930409370579,"ADM3_EN":"Lam Pho","ADM3_TH":"ลำโพ","ADM3_PCODE":"TH120406","ADM2_EN":"Bang Bua Thong","ADM2_TH":"บางบัวทอง","ADM2_PCODE":"TH1204","ADM1_EN":"Nonthaburi","ADM1_TH":"นนทบุรี","ADM1_PCODE":"TH12","ADM0_EN":"Thailand","ADM0_TH":"ประเทศไทย","ADM0_PCODE":"TH"}},{"arcs":[[-79,-86,-97,99,100,101,-91,102,103,-81]],"type":"Polygon","properties":{"Shape_Leng":0.302291350801,"Shape_Area":0.00139070156264,"ADM3_EN":"Phimonrat","ADM3_TH":"พิมลราช","ADM3_PCODE":"TH120407","ADM2_EN":"Bang Bua Thong","ADM2_TH":"บางบัวทอง","ADM2_PCODE":"TH1204","ADM1_EN":"Nonthaburi","ADM1_TH":"นนทบุรี","ADM1_PCODE":"TH12","ADM0_EN":"Thailand","ADM0_TH":"ประเทศไทย","ADM0_PCODE":"TH"}},{"arcs":[[-68,-92,-102,104,105,-87,-72]],"type":"Polygon","properties":{"Shape_Leng":0.254869898384,"Shape_Area":0.00168003745398,"ADM3_EN":"Bang Rak Phatthana","ADM3_TH":"บางรักพัฒนา","ADM3_PCODE":"TH120408","ADM2_EN":"Bang Bua Thong","ADM2_TH":"บางบัวทอง","ADM2_PCODE":"TH1204","ADM1_EN":"Nonthaburi","ADM1_TH":"นนทบุรี","ADM1_PCODE":"TH12","ADM0_EN":"Thailand","ADM0_TH":"ประเทศไทย","ADM0_PCODE":"TH"}},{"arcs":[[-82,-104,106,107,108]],"type":"Polygon","properties":{"Shape_Leng":0.197805243507,"Shape_Area":0.00196939820862,"ADM3_EN":"Sai Noi","ADM3_TH":"ไทรน้อย","ADM3_PCODE":"TH120501","ADM2_EN":"Sai Noi","ADM2_TH":"ไทรน้อย","ADM2_PCODE":"TH1205","ADM1_EN":"Nonthaburi","ADM1_TH":"นนทบุรี","ADM1_PCODE":"TH12","ADM0_EN":"Thailand","ADM0_TH":"ประเทศไทย","ADM0_PCODE":"TH"}},{"arcs":[[-84,109,110,111,112]],"type":"Polygon","properties":{"Shape_Leng":0.419553430029,"Shape_Area":0.00269621614646,"ADM3_EN":"Rat Niyom","ADM3_TH":"ราษฎร์นิยม","ADM3_PCODE":"TH120502","ADM2_EN":"Sai Noi","ADM2_TH":"ไทรน้อย","ADM2_PCODE":"TH1205","ADM1_EN":"Nonthaburi","ADM1_TH":"นนทบุรี","ADM1_PCODE":"TH12","ADM0_EN":"Thailand","ADM0_TH":"ประเทศไทย","ADM0_PCODE":"TH"}},{"arcs":[[-77,113,114,-89]],"type":"Polygon","properties":{"Shape_Leng":0.254703246323,"Shape_Area":0.00263109391351,"ADM3_EN":"Nong Phrao Ngai","ADM3_TH":"หนองเพรางาย","ADM3_PCODE":"TH120503","ADM2_EN":"Sai Noi","ADM2_TH":"ไทรน้อย","ADM2_PCODE":"TH1205","ADM1_EN":"Nonthaburi","ADM1_TH":"นนทบุรี","ADM1_PCODE":"TH12","ADM0_EN":"Thailand","ADM0_TH":"ประเทศไทย","ADM0_PCODE":"TH"}},{"arcs":[[-112,115,116]],"type":"Polygon","properties":{"Shape_Leng":0.269929259267,"Shape_Area":0.00317060426794,"ADM3_EN":"Sai Yai","ADM3_TH":"ไทรใหญ่","ADM3_PCODE":"TH120504","ADM2_EN":"Sai Noi","ADM2_TH":"ไทรน้อย","ADM2_PCODE":"TH1205","ADM1_EN":"Nonthaburi","ADM1_TH":"นนทบุรี","ADM1_PCODE":"TH12","ADM0_EN":"Thailand","ADM0_TH":"ประเทศไทย","ADM0_PCODE":"TH"}},{"arcs":[[-108,117,118,-116,-111,119]],"type":"Polygon","properties":{"Shape_Leng":0.241329578039,"Shape_Area":0.00205828699192,"ADM3_EN":"Khun Si","ADM3_TH":"ขุนศรี","ADM3_PCODE":"TH120505","ADM2_EN":"Sai Noi","ADM2_TH":"ไทรน้อย","ADM2_PCODE":"TH1205","ADM1_EN":"Nonthaburi","ADM1_TH":"นนทบุรี","ADM1_PCODE":"TH12","ADM0_EN":"Thailand","ADM0_TH":"ประเทศไทย","ADM0_PCODE":"TH"}},{"arcs":[[-83,-109,-120,-110]],"type":"Polygon","properties":{"Shape_Leng":0.263203855694,"Shape_Area":0.00206170790191,"ADM3_EN":"Khlong Khwang","ADM3_TH":"คลองขวาง","ADM3_PCODE":"TH120506","ADM2_EN":"Sai Noi","ADM2_TH":"ไทรน้อย","ADM2_PCODE":"TH1205","ADM1_EN":"Nonthaburi","ADM1_TH":"นนทบุรี","ADM1_PCODE":"TH12","ADM0_EN":"Thailand","ADM0_TH":"ประเทศไทย","ADM0_PCODE":"TH"}},{"arcs":[[-90,-115,120,-118,-107,-103]],"type":"Polygon","properties":{"Shape_Leng":0.204106343698,"Shape_Area":0.00213638945395,"ADM3_EN":"Thawi Watthana","ADM3_TH":"ทวีวัฒนา","ADM3_PCODE":"TH120507","ADM2_EN":"Sai Noi","ADM2_TH":"ไทรน้อย","ADM2_PCODE":"TH1205","ADM1_EN":"Nonthaburi","ADM1_TH":"นนทบุรี","ADM1_PCODE":"TH12","ADM0_EN":"Thailand","ADM0_TH":"ประเทศไทย","ADM0_PCODE":"TH"}},{"arcs":[[121,122,123,124,125]],"type":"Polygon","properties":{"Shape_Leng":0.114278305839,"Shape_Area":0.000390095981763,"ADM3_EN":"Pak Kret","ADM3_TH":"ปากเกร็ด","ADM3_PCODE":"TH120601","ADM2_EN":"Pak Kret","ADM2_TH":"ปากเกร็ด","ADM2_PCODE":"TH1206","ADM1_EN":"Nonthaburi","ADM1_TH":"นนทบุรี","ADM1_PCODE":"TH12","ADM0_EN":"Thailand","ADM0_TH":"ประเทศไทย","ADM0_PCODE":"TH"}},{"arcs":[[-17,126,127,-123,128,129]],"type":"Polygon","properties":{"Shape_Leng":0.163026712561,"Shape_Area":0.000999754381633,"ADM3_EN":"Bang Talat","ADM3_TH":"บางตลาด","ADM3_PCODE":"TH120602","ADM2_EN":"Pak Kret","ADM2_TH":"ปากเกร็ด","ADM2_PCODE":"TH1206","ADM1_EN":"Nonthaburi","ADM1_TH":"นนทบุรี","ADM1_PCODE":"TH12","ADM0_EN":"Thailand","ADM0_TH":"ประเทศไทย","ADM0_PCODE":"TH"}},{"arcs":[[130,131,132]],"type":"Polygon","properties":{"Shape_Leng":0.172964131135,"Shape_Area":0.0015024513368,"ADM3_EN":"Ban Mai","ADM3_TH":"บ้านใหม่","ADM3_PCODE":"TH120603","ADM2_EN":"Pak Kret","ADM2_TH":"ปากเกร็ด","ADM2_PCODE":"TH1206","ADM1_EN":"Nonthaburi","ADM1_TH":"นนทบุรี","ADM1_PCODE":"TH12","ADM0_EN":"Thailand","ADM0_TH":"ประเทศไทย","ADM0_PCODE":"TH"}},{"arcs":[[-126,133,134,-132,135]],"type":"Polygon","properties":{"Shape_Leng":0.118587575606,"Shape_Area":0.00075876946451,"ADM3_EN":"Bang Phut","ADM3_TH":"บางพูด","ADM3_PCODE":"TH120604","ADM2_EN":"Pak Kret","ADM2_TH":"ปากเกร็ด","ADM2_PCODE":"TH1206","ADM1_EN":"Nonthaburi","ADM1_TH":"นนทบุรี","ADM1_PCODE":"TH12","ADM0_EN":"Thailand","ADM0_TH":"ประเทศไทย","ADM0_PCODE":"TH"}},{"arcs":[[-125,136,137,138,-134]],"type":"Polygon","properties":{"Shape_Leng":0.0929207468739,"Shape_Area":0.000341049821627,"ADM3_EN":"Bang Tanai","ADM3_TH":"บางตะไนย์","ADM3_PCODE":"TH120605","ADM2_EN":"Pak Kret","ADM2_TH":"ปากเกร็ด","ADM2_PCODE":"TH1206","ADM1_EN":"Nonthaburi","ADM1_TH":"นนทบุรี","ADM1_PCODE":"TH12","ADM0_EN":"Thailand","ADM0_TH":"ประเทศไทย","ADM0_PCODE":"TH"}},{"arcs":[[-137,139,140,141]],"type":"Polygon","properties":{"Shape_Leng":0.0956039536579,"Shape_Area":0.000420810093965,"ADM3_EN":"Khlong Phra Udom","ADM3_TH":"คลองพระอุดม","ADM3_PCODE":"TH120606","ADM2_EN":"Pak Kret","ADM2_TH":"ปากเกร็ด","ADM2_PCODE":"TH1206","ADM1_EN":"Nonthaburi","ADM1_TH":"นนทบุรี","ADM1_PCODE":"TH12","ADM0_EN":"Thailand","ADM0_TH":"ประเทศไทย","ADM0_PCODE":"TH"}},{"arcs":[[-16,-33,-36,-88,-106,142,143,-127]],"type":"Polygon","properties":{"Shape_Leng":0.115347413961,"Shape_Area":0.000502168779208,"ADM3_EN":"Tha It","ADM3_TH":"ท่าอิฐ","ADM3_PCODE":"TH120607","ADM2_EN":"Pak Kret","ADM2_TH":"ปากเกร็ด","ADM2_PCODE":"TH1206","ADM1_EN":"Nonthaburi","ADM1_TH":"นนทบุรี","ADM1_PCODE":"TH12","ADM0_EN":"Thailand","ADM0_TH":"ประเทศไทย","ADM0_PCODE":"TH"}},{"arcs":[[-124,-128,-144,144,145,-140]],"type":"Polygon","properties":{"Shape_Leng":0.0738058132029,"Shape_Area":0.00034727826047,"ADM3_EN":"Ko Kret","ADM3_TH":"เกาะเกร็ด","ADM3_PCODE":"TH120608","ADM2_EN":"Pak Kret","ADM2_TH":"ปากเกร็ด","ADM2_PCODE":"TH1206","ADM1_EN":"Nonthaburi","ADM1_TH":"นนทบุรี","ADM1_PCODE":"TH12","ADM0_EN":"Thailand","ADM0_TH":"ประเทศไทย","ADM0_PCODE":"TH"}},{"arcs":[[-101,146,-145,-143,-105]],"type":"Polygon","properties":{"Shape_Leng":0.0910829504674,"Shape_Area":0.000437523747978,"ADM3_EN":"Om Kret","ADM3_TH":"อ้อมเกร็ด","ADM3_PCODE":"TH120609","ADM2_EN":"Pak Kret","ADM2_TH":"ปากเกร็ด","ADM2_PCODE":"TH1206","ADM1_EN":"Nonthaburi","ADM1_TH":"นนทบุรี","ADM1_PCODE":"TH12","ADM0_EN":"Thailand","ADM0_TH":"ประเทศไทย","ADM0_PCODE":"TH"}},{"arcs":[[-94,147,-138,-142,148,-98]],"type":"Polygon","properties":{"Shape_Leng":0.287807314732,"Shape_Area":0.00152242614884,"ADM3_EN":"Khlong Khoi","ADM3_TH":"คลองข่อย","ADM3_PCODE":"TH120610","ADM2_EN":"Pak Kret","ADM2_TH":"ปากเกร็ด","ADM2_PCODE":"TH1206","ADM1_EN":"Nonthaburi","ADM1_TH":"นนทบุรี","ADM1_PCODE":"TH12","ADM0_EN":"Thailand","ADM0_TH":"ประเทศไทย","ADM0_PCODE":"TH"}},{"arcs":[[-96,-99,-149,-141,-146,-147,-100]],"type":"Polygon","properties":{"Shape_Leng":0.117741170837,"Shape_Area":0.000560107576251,"ADM3_EN":"Bang Phlap","ADM3_TH":"บางพลับ","ADM3_PCODE":"TH120611","ADM2_EN":"Pak Kret","ADM2_TH":"ปากเกร็ด","ADM2_PCODE":"TH1206","ADM1_EN":"Nonthaburi","ADM1_TH":"นนทบุรี","ADM1_PCODE":"TH12","ADM0_EN":"Thailand","ADM0_TH":"ประเทศไทย","ADM0_PCODE":"TH"}},{"arcs":[[-122,-136,-131,149,-129]],"type":"Polygon","properties":{"Shape_Leng":0.0731794757859,"Shape_Area":0.000205863364793,"ADM3_EN":"Khlong Kluea","ADM3_TH":"คลองเกลือ","ADM3_PCODE":"TH120612","ADM2_EN":"Pak Kret","ADM2_TH":"ปากเกร็ด","ADM2_PCODE":"TH1206","ADM1_EN":"Nonthaburi","ADM1_TH":"นนทบุรี","ADM1_PCODE":"TH12","ADM0_EN":"Thailand","ADM0_TH":"ประเทศไทย","ADM0_PCODE":"TH"}}]}}}