{"type":"Topology","arcs":[[[3406,3163],[-23,-42],[-41,-63]],[[3342,3058],[-25,-51],[-12,-37],[-5,-72],[13,-155],[5,-106],[8,-65],[23,-118],[7,-63]],[[3356,2391],[-18,-2],[1,-24],[-9,-68],[-31,-57],[-29,-35]],[[3270,2205],[-26,43],[-14,49],[2,18],[-12,19],[-15,48],[-16,32],[-37,116],[-52,84],[-14,14],[-154,85],[48,196],[-4,124],[63,-9],[18,-5],[24,10],[29,-16],[-2,201]],[[3108,3214],[124,-16],[31,25],[22,-11],[53,-11],[68,-38]],[[3846,1744],[23,-162],[0,-9]],[[3869,1573],[9,-58],[-73,-533]],[[3805,982],[-14,-16],[-1,-17],[-15,6],[-46,-29],[-14,9],[-11,-12],[-17,33],[-20,1],[-31,-23],[-20,10],[-13,32],[-9,2],[-8,-27],[-12,26],[-9,-7],[-63,31],[-9,10],[-39,-2],[-6,20],[-13,-10],[-13,17],[-1,24],[-31,-21],[-8,27],[5,27],[-43,3]],[[3344,1096],[-3,44],[-12,71],[-11,41],[-27,75],[-34,74]],[[3257,1401],[18,35],[20,30],[30,25],[20,5],[15,-15],[26,9],[5,105],[16,-1],[8,23],[17,-5],[13,49],[86,-67],[0,72],[54,-13],[36,-1],[59,4],[1,62],[5,13],[18,3],[16,16],[10,-106],[15,0],[1,-44],[33,1],[3,46],[-8,0],[1,33],[38,7],[-4,11],[37,46]],[[3342,3058],[51,-51],[6,14],[12,-8],[6,15],[13,-11],[72,-15],[79,-10],[57,-16]],[[3638,2976],[-6,-250],[85,-127],[13,-29],[27,8],[5,-53],[25,-5],[3,-40],[9,-11],[13,6],[21,-16],[20,-49],[7,11],[41,-19],[9,-17],[43,5],[23,11],[27,-3]],[[4003,2398],[-8,-69],[-13,-58],[-23,-55],[-29,-56],[-37,-56],[-29,-27],[-64,-34]],[[3800,2043],[-18,-8],[-26,9],[-58,5],[-36,32],[-58,73],[-10,-23],[15,-34],[-13,-1],[-24,29],[-5,31],[2,43],[-41,119],[-25,37],[-45,41],[-14,7],[-37,-3],[-25,-10],[-26,1]],[[3270,2205],[-98,-117]],[[3172,2088],[-11,12],[7,27],[-11,21],[-35,20],[1,32],[-21,1],[-10,20],[-18,2],[-4,24],[-19,9],[6,18],[-13,47],[7,27],[-11,22],[4,14],[-12,23],[2,14],[-31,66],[-12,38],[-15,12],[-26,102],[-11,18],[2,22],[-7,27],[-114,101],[-273,245]],[[2547,3052],[43,159],[27,92],[25,91],[-32,35],[-10,25],[60,185]],[[2660,3639],[175,-185],[223,-237],[50,-3]],[[3406,3163],[40,96],[21,38]],[[3467,3297],[32,45],[49,59],[19,31],[24,68]],[[3591,3500],[41,-30],[99,-80],[24,-3],[33,16]],[[3788,3403],[-2,-18],[-26,-45],[-7,-41],[-5,-60],[4,-42]],[[3752,3197],[-19,1],[1,-64],[-95,12],[-1,-170]],[[3344,1096],[-5,-67],[-12,-53],[-36,-88],[-18,-30],[-28,-32],[-58,-46],[-37,-15],[-70,-7]],[[3080,758],[-8,38],[22,39],[-8,75],[5,103],[29,126],[-31,31],[-153,267],[-70,160],[-10,29],[-20,-10],[-13,25],[-14,67]],[[2809,1708],[114,-7],[8,-35],[13,-4],[25,15],[16,32],[31,10],[12,-121],[72,13],[0,11],[27,6],[22,-4]],[[3149,1624],[32,-103],[59,-148],[17,28]],[[3080,758],[-127,11],[-26,-1],[-43,-8],[-34,-15],[-40,-39],[-42,-61],[-25,-76],[-26,7],[-25,33],[-12,25],[-38,15],[-4,17],[-18,13],[-11,-8],[-16,18],[-16,-4],[-14,29],[-24,20],[-18,34],[-10,35],[19,29],[-21,38],[-17,72],[-30,37],[-43,80],[-15,34],[-73,136],[-39,50],[-26,47],[-86,137],[1,45],[-22,-6],[-12,31],[-39,-20],[-2,27]],[[2106,1540],[36,26],[7,-23],[38,31],[1,12],[24,-8],[32,-1],[-14,37],[24,21],[31,36],[-11,37],[13,11],[-17,38],[-21,17],[-10,24],[-9,-4],[-3,20],[32,22],[-9,38],[-22,58],[-45,48],[15,48],[19,-27],[19,32],[1,48],[15,0],[-2,47],[-14,19]],[[2236,2147],[468,-269],[27,6],[42,-16],[2,-45],[34,-115]],[[3172,2088],[-24,-76]],[[3148,2012],[-14,12],[-26,-3],[-7,12],[-32,3],[-43,64],[-20,22],[-12,24],[-26,20],[-12,33],[-40,35],[-29,-1],[-5,31],[-14,11],[-33,50],[-41,-7],[-19,-31],[-41,-18],[-37,-10],[-14,7],[-19,40],[-21,27],[-82,-41],[-25,-1],[-25,15],[-25,-24],[-10,17],[-60,41],[-33,48],[-15,38],[-5,26],[-68,81],[-36,36],[-184,76],[-129,91],[-39,25]],[[1907,2761],[9,28],[125,317],[105,-110],[73,-58],[168,-160],[53,-45],[21,77],[31,51],[40,147],[15,44]],[[2236,2147],[8,93],[-22,25],[-113,97],[-125,125],[-98,64],[3,44],[11,104],[10,50],[-3,12]],[[3148,2012],[-24,-122],[-2,-85],[6,-79],[21,-102]],[[3788,3403],[21,16],[26,9],[32,-1],[55,9],[12,15],[13,-10],[32,13],[61,62],[45,74],[13,30],[24,72],[-4,80],[7,101],[-2,43],[3,62],[-6,28],[10,47],[-6,21],[5,47],[-11,47],[1,17],[-10,78],[-12,77],[-11,26]],[[4086,4366],[68,26]],[[4154,4392],[45,-506],[18,-189],[64,-548],[6,-65]],[[4287,3084],[-48,10],[-36,21],[-56,6],[-37,38],[-19,3],[-29,31],[-128,-64],[-20,63],[-43,13],[-28,4],[-12,-13],[-48,6],[-16,7],[-15,-12]],[[3846,1744],[-43,288],[-3,11]],[[4003,2398],[1,55],[30,-9],[31,5],[12,22],[51,-15],[-1,25],[11,1],[21,-45],[1,-38],[13,-23],[5,-26],[-3,-32],[2,-59],[9,-18],[20,5],[21,35],[13,-7],[16,38],[20,31],[36,18],[27,5]],[[4339,2366],[11,-160]],[[4350,2206],[29,-410]],[[4379,1796],[-138,-60],[-42,-21],[-170,-74],[-160,-68]],[[4287,3084],[29,-410],[23,-308]],[[4379,1796],[17,-225],[13,-201]],[[4409,1370],[23,-310]],[[4432,1060],[-37,-4],[23,-282],[-65,48],[-9,10],[-150,115],[-46,24],[-19,5],[-206,82],[-14,8],[-20,-11],[-69,-68],[-15,-5]],[[4154,4392],[-42,465],[-10,143]],[[4102,5000],[-41,600],[-19,269],[-3,35]],[[4039,5904],[18,12],[16,-5],[35,7],[19,14],[15,29],[16,15],[61,32],[66,-1],[60,55],[11,19],[16,8],[34,-6],[14,7],[18,25],[33,-43],[24,-45],[70,-114],[81,1],[-2,393],[182,164]],[[4826,6471],[3,-11],[3,-1083],[4,-798],[4,-1240],[0,-164],[2,-496],[0,-276]],[[4842,2403],[-272,-107],[-66,-28],[-154,-62]],[[4826,6471],[244,220],[102,94]],[[5172,6785],[2,-25],[2,-719],[2,-814],[2,-628],[3,-1311],[1,-247],[1,-506]],[[5185,2535],[-174,-65],[-4,-8],[-44,-17],[-121,-42]],[[5172,6785],[82,73],[91,83],[121,109],[60,55]],[[5526,7105],[4,-15],[1,-257],[0,-204],[3,-606],[1,-286],[1,-312],[4,-1032],[4,-769],[0,-282],[2,-663],[11,-3],[0,-97]],[[5557,2579],[-17,-5],[-105,-16],[-76,-3]],[[5359,2555],[-174,-20]],[[5526,7105],[172,157],[133,120],[87,70]],[[5918,7452],[1,-6],[1,-1235],[1,-900],[0,-455],[-1,-823],[-1,-1030],[0,-162]],[[5919,2841],[-260,-202],[-59,-40],[-43,-20]],[[5918,7452],[116,94],[49,42],[191,152]],[[6274,7740],[4,-11],[-1,-1053],[0,-384],[1,-775],[0,-1235],[-1,-727],[-1,-164],[0,-212]],[[6276,3179],[-132,-151],[-46,-1],[0,-36]],[[6098,2991],[-94,-85],[-85,-65]],[[6274,7740],[39,30],[136,115],[190,156]],[[6639,8041],[4,-14],[0,-836],[0,-298],[1,-1369],[0,-349],[0,-482],[3,-467],[4,-782]],[[6651,3444],[-14,-11],[-10,-45],[-180,-135],[1,-53],[-59,-3],[-88,1],[-25,-19]],[[6639,8041],[187,155]],[[6826,8196],[2,-269],[1,-567],[-1,-195],[0,-257],[2,-771],[0,-123],[1,-329],[0,-219]],[[6831,5466],[1,-622],[1,-176],[-1,-224],[1,-216],[0,-604],[1,-52]],[[6834,3572],[-46,-26],[-137,-102]],[[5359,2555],[0,-292],[1,-79],[-10,-427]],[[5350,1757],[-156,-61],[-197,-75],[0,-7],[-141,-57],[-135,-51],[-71,-30],[-30,-17],[-211,-89]],[[6098,2991],[2,-398],[-2,-25],[-49,-288],[-10,-122]],[[6039,2158],[-3,0],[-143,-71],[-1,-104],[-86,-64],[-28,-10],[-67,-19],[-259,-100],[-102,-33]],[[6834,3572],[5,-340],[3,-137],[-3,-287],[-4,-97]],[[6835,2711],[-180,-124],[-21,-17],[-80,-52],[-65,-46],[-102,-67],[-126,-81],[-10,-81],[-23,-25],[-48,-28],[-106,-2],[-35,-30]],[[6834,3572],[26,11],[69,43],[155,92],[51,26],[66,39],[20,15],[66,37],[283,166]],[[7570,4001],[2,-427],[-5,-151],[-7,-280]],[[7560,3143],[-62,-38],[-185,-104],[-122,-71],[-249,-155],[-107,-64]],[[7570,4001],[85,49],[111,68],[58,32],[108,64],[4,1],[129,79],[216,131],[19,10]],[[8300,4435],[4,-415],[-4,-201],[-4,-118],[-4,-148]],[[8292,3553],[-64,-36],[-79,-49],[-255,-152],[-127,-77],[-208,-122]],[[7559,3117],[1,26]],[[8300,4435],[21,14],[150,92],[200,121],[287,177],[79,44],[121,74],[103,61],[130,80]],[[9391,5098],[5,-167],[6,-249],[2,-36],[-2,-422]],[[9402,4224],[-61,-37],[-111,-63],[-70,-42],[-60,-39],[-107,-63],[-124,-75],[-56,-36],[-174,-104],[-225,-138],[-1,-14],[-121,-68]],[[8292,3545],[0,8]],[[7570,4001],[3,7],[-2,127],[1,156],[-3,531],[0,177],[-1,99],[-1,423],[-1,468]],[[7566,5989],[-2,717]],[[7564,6706],[54,0],[0,-19],[311,5],[0,9],[180,2],[0,16],[185,0]],[[8294,6719],[0,-117]],[[8294,6602],[1,-462],[1,-101],[1,-557],[1,-266],[0,-247],[1,-114],[0,-191],[1,-229]],[[6831,5466],[735,523]],[[7564,6706],[-2,283],[-2,749],[-1,147],[0,399],[-1,51],[-1,239],[1,211],[-4,7]],[[7554,8792],[326,267],[18,17],[84,66],[308,254]],[[8290,9396],[1,-229],[1,-934],[1,-209],[0,-794],[0,-330],[1,-181]],[[6826,8196],[428,350],[74,60],[226,186]],[[8294,6602],[185,1],[1,259]],[[8480,6862],[179,0],[0,232],[182,-1],[0,228],[52,0],[1,7],[136,0],[0,32],[9,-1],[163,1],[0,-18],[90,-2],[1,16],[93,-1]],[[9386,7355],[-1,-367],[-2,-316],[0,-608],[-2,-261],[0,-307],[6,-216],[4,-182]],[[8480,6862],[0,162],[-2,160],[-1,310],[-2,179],[184,1],[0,13],[182,-1],[0,110],[-2,70],[0,338],[-1,22],[0,263],[191,0],[-1,285],[-1,327]],[[9027,9101],[12,2],[162,133],[118,97],[331,272],[53,42],[152,123],[132,110],[12,-36],[-25,-57],[-8,-66],[12,-93],[12,-13],[-6,-12],[-4,-45],[-19,-58],[-20,-5],[8,-57],[8,-22],[-16,-22],[-20,-50],[2,-46],[-12,-25],[-16,-10],[8,-35],[-6,-45],[16,-76],[-1,-59],[6,-56],[-2,-52],[-4,-20],[-22,-22],[-227,-187],[-55,-44],[-52,-44],[-165,-135],[-3,-9],[0,-425],[-2,-699]],[[8290,9396],[263,215],[264,218],[198,162],[12,8],[-1,-516],[1,-382]],[[1470,4014],[16,-95],[3,-87],[16,-45],[44,-96],[47,-84],[53,-82],[116,-23],[39,-50]],[[1804,3452],[-3,-16],[-6,-110],[3,-188],[3,-80],[-2,-61],[-10,-143]],[[1789,2854],[-6,-62]],[[1783,2792],[-72,29],[-421,181],[-36,25],[-46,36],[-37,34],[-4,33],[-44,25],[-14,131],[-1,47],[4,74],[-92,72],[-44,41],[-73,56],[-71,10]],[[832,3586],[-5,17],[-34,8],[-61,140],[-86,160],[-35,71],[-115,21],[-1,167],[-2,63],[-10,8],[3,34],[-21,9],[-57,61],[9,35],[-59,52],[10,38],[-34,29],[20,75],[-3,6],[-83,52],[-42,17],[22,70],[0,9],[-43,38],[13,57],[39,153],[-44,22],[23,85]],[[236,5083],[57,-31],[8,-13],[28,-9],[10,20],[36,-14],[67,-14],[26,-9],[5,14],[56,-22],[3,-13],[85,-52],[22,-1],[32,-24],[69,-36],[23,-8],[61,-35],[18,-3],[97,-59],[42,-45],[5,9],[72,-49],[87,-74],[27,-34],[-10,-26],[54,-61],[13,5],[33,-46],[36,-64],[13,-14],[-32,-117],[-2,-27],[58,-46],[83,-52],[25,-31],[15,-34],[12,-54]],[[1783,2792],[-12,-150],[-7,-79],[-17,-204],[-9,-92],[-26,11],[-103,54],[-6,-1],[-11,-55],[-45,-213],[-53,23],[-16,-207]],[[1478,1879],[-105,48],[-560,251],[-16,5]],[[797,2183],[8,221],[19,572],[2,31],[-64,63],[-7,93],[80,8],[5,85],[-8,330]],[[1907,2761],[-118,93]],[[1804,3452],[45,129],[8,62],[4,56],[55,677],[8,91],[12,196],[7,91]],[[1943,4754],[82,-62],[100,-86],[13,-13],[70,-58],[54,-59],[31,-41],[104,-142],[-35,-63],[-3,-24],[7,-63],[21,-38],[47,-71],[5,-13],[-23,-62]],[[2416,3959],[-17,-40],[109,-121],[152,-159]],[[1470,4014],[17,449],[34,113],[0,22],[25,121],[6,38],[-13,142],[10,-6],[36,97]],[[1585,4990],[300,-189],[58,-47]],[[2106,1540],[-10,92],[-12,-6],[-5,47],[-35,-5],[-8,35],[-19,-77],[-1,-105],[-13,-34],[-19,-22],[-20,-45],[-83,103],[-36,49],[-112,145],[-27,41],[-43,46],[-94,36],[-91,39]],[[236,5083],[-34,27],[-43,24]],[[159,5134],[12,170],[30,211],[-1,11],[21,-27],[41,-12],[114,-3],[73,17],[64,10],[41,9],[73,3],[124,1],[50,3],[68,-12],[146,13],[29,-3],[120,2],[83,-7],[89,-3],[76,-20],[46,0]],[[1458,5497],[2,-73],[-3,-159],[1,-50],[6,-54],[19,-60],[36,-50],[25,-26],[41,-35]],[[797,2183],[-9,-166],[-88,36],[-104,38],[-59,18],[-50,51],[-13,18],[-67,142],[-12,29],[-6,-9],[-25,78],[-35,98],[-66,199],[-69,227],[-34,162],[-64,228],[-16,49],[-41,212],[-15,94],[-24,208],[1,131],[7,128],[15,107],[20,164],[12,82],[29,135],[14,49],[14,71],[34,177],[9,71],[4,51],[0,73]],[[5350,1757],[-1,-104],[-6,-356],[-2,-169],[-4,-579],[-2,-155]],[[5335,394],[-213,15],[-131,10],[-24,22],[-2,11],[3,141],[-186,13],[-44,4],[-2,268],[-10,32],[-82,77],[-74,61],[-36,35],[-31,-2],[0,-16],[-71,-5]],[[6039,2158],[-7,-93],[-2,-84],[3,-305],[1,-101],[11,-62],[-12,-166],[-3,-138],[-2,-123],[5,-422],[3,-218],[-1,-148],[-3,-38],[-23,-142],[-24,-105]],[[5985,13],[-109,-7],[-148,-6],[9,26],[-6,93],[11,63],[12,33],[3,33],[10,24],[6,85],[0,54],[-385,-19],[-53,2]],[[6835,2711],[-18,-340],[-9,-217],[-8,-313],[-66,-228],[-7,-47],[-2,-121],[5,-66],[11,-217],[0,-71],[-4,-189],[-8,-132],[-8,-101],[-3,-119],[0,-80],[-11,-416]],[[6707,54],[-182,-11],[-125,-10],[-142,-5],[-93,-7],[-180,-8]],[[7559,3117],[-28,-508],[-8,-141],[-13,-250],[-17,-298],[-31,-585],[-9,-134],[-17,-303],[-3,-84],[-1,-176],[-2,-214],[2,0]],[[7432,424],[-202,-109],[-8,-3],[-205,-115],[-230,-135],[-55,-9],[-25,1]],[[8292,3545],[-6,-184],[-20,-772]],[[8266,2589],[-3,-47],[-3,-177],[-6,-176],[-13,-468],[0,-57],[-11,-358],[-11,-356],[-3,-20],[-23,-306],[-6,-61]],[[8187,563],[-68,-12],[-321,-64],[-88,-14],[-278,-49]],[[8266,2589],[77,-7],[286,-22],[-1,-52],[239,-18]],[[8867,2490],[1,-137],[2,-232],[6,-573],[5,0],[-7,-338],[0,-131],[-4,-354]],[[8870,725],[-129,-34],[-132,-32],[-37,-23],[-115,-17],[-31,-1],[-239,-55]],[[9402,4224],[-1,-477],[-1,-100],[0,-176],[-2,-219],[-1,-236],[1,-280],[-2,-174]],[[9396,2562],[-168,3],[-4,13],[-152,-9],[1,-52],[-205,-11],[-1,-16]],[[9396,2562],[-1,-419],[-1,-417],[-2,-474],[-2,-59],[0,-222],[-1,-130],[-149,-34],[-138,-33],[-184,-36],[-48,-13]],[[1458,5497],[128,8]],[[1586,5505],[173,-106],[18,-17],[17,-42],[36,-65],[39,-54],[56,-56],[26,-35],[10,-21],[77,-92],[36,-50],[17,-37],[45,-48],[44,-51],[71,-87],[86,-91],[49,-56],[22,-17],[85,-56],[46,-26],[67,-42],[3,-41],[27,-52],[76,-1],[13,-8],[19,4],[23,18],[13,-4],[17,20],[13,1],[6,-35],[44,27],[56,2],[37,37],[57,17],[45,2],[47,16]],[[3102,4459],[17,-88],[15,-49],[29,-59],[33,-42],[41,-43]],[[3237,4178],[-16,-33],[-14,-13],[-32,-50],[-28,-32],[-19,-37],[-24,-36],[-27,-28],[-59,-86],[-61,-83],[-15,-33],[-37,-60],[-10,-33]],[[2895,3654],[-63,46],[-92,-1],[-65,19],[-50,50],[-41,12],[-25,21],[-63,58],[-24,32],[-10,5],[-46,63]],[[1586,5505],[97,-6],[31,-5],[50,3],[82,23],[76,30],[39,13],[126,-83],[27,-18],[60,-23],[120,-21],[62,3],[65,16]],[[2421,5437],[18,-75],[92,-379],[47,-8],[150,-19]],[[2728,4956],[143,-18],[97,3],[32,-9],[14,-15],[67,-97],[25,-24],[18,-37],[10,-4],[18,-51]],[[3152,4704],[-29,-65],[-12,-38],[-10,-55],[-2,-47],[3,-40]],[[3237,4178],[48,-55],[28,-40],[135,-198]],[[3448,3885],[-28,-79],[-12,-23],[-2,-35],[-13,-26],[-31,-90],[-47,-101],[-10,-47],[-34,16],[-22,-20],[-17,8],[-15,-28],[-60,16],[-36,20]],[[3121,3496],[-59,50],[-21,10],[-146,98]],[[3467,3297],[-24,32],[-13,5],[11,-21],[-13,-24],[-19,8],[-11,-21],[-21,0],[-39,24],[-69,35],[-52,13],[-21,10],[-75,9],[0,129]],[[3448,3885],[44,-54],[49,-46],[31,-45]],[[3572,3740],[11,-29],[12,-54],[5,-61],[-1,-42],[-8,-54]],[[3572,3740],[87,74],[31,33],[36,50],[20,44],[16,52],[16,86],[9,146],[-5,71],[2,44],[6,31],[28,89],[10,68],[11,38],[25,64],[34,7],[49,-19],[31,-29],[28,-35],[50,-83],[12,-34],[18,-71]],[[3237,4178],[-15,49],[20,29],[1,22],[14,17],[7,28],[59,58],[94,82],[12,22],[175,162]],[[3604,4647],[101,96],[73,61],[106,65],[53,46],[107,53],[36,16],[22,16]],[[3152,4704],[24,35],[46,53],[45,42],[94,81],[59,72],[27,48]],[[3447,5035],[21,-34],[56,-119],[80,-235]],[[3447,5035],[32,87],[28,96],[7,49],[5,82],[6,25],[17,42]],[[3542,5416],[32,7],[-11,54],[12,16],[8,31],[-13,18],[-7,41],[-16,4],[1,28],[31,16],[13,23],[23,16],[27,-10],[43,-47],[6,24],[4,48],[32,47],[64,5],[26,-7],[37,11],[47,-3],[10,7],[17,34],[40,46],[30,43],[41,36]],[[2728,4956],[178,193],[-14,54],[45,32],[3,29],[29,24],[35,11],[23,0],[17,13],[31,4],[67,57],[43,44],[46,37],[15,-7],[4,11],[-11,29],[17,27],[7,32],[11,-5],[9,26],[26,42]],[[3309,5609],[15,26],[15,-5],[91,-56],[40,-28],[23,-39],[13,-3],[20,-23],[12,-25],[4,-40]],[[2421,5437],[162,62],[46,25],[40,30],[45,48],[32,41],[1,15],[106,144],[73,63],[21,31],[53,49],[17,-85],[7,-24],[20,-33],[38,-42],[17,-9],[55,-52],[58,-46],[97,-45]]],"transform":{"scale":[0.00006202704570456956,0.00003597326412641528],"translate":[100.33163955700007,13.916254426000023]},"objects":{"Pathum Thani":{"type":"GeometryCollection","geometries":[{"arcs":[[0,1,2,3,4]],"type":"Polygon","properties":{"Shape_Leng":0.117880290558,"Shape_Area":0.000535286694314,"ADM3_EN":"Bang Prok","ADM3_TH":"บางปรอก","ADM3_PCODE":"TH130101","ADM2_EN":"Mueang Pathum Thani","ADM2_TH":"เมืองปทุมธานี","ADM2_PCODE":"TH1301","ADM1_EN":"Pathum Thani","ADM1_TH":"ปทุมธานี","ADM1_PCODE":"TH13","ADM0_EN":"Thailand","ADM0_TH":"ประเทศไทย","ADM0_PCODE":"TH"}},{"arcs":[[5,6,7,8,9]],"type":"Polygon","properties":{"Shape_Leng":0.138583261454,"Shape_Area":0.000769291275611,"ADM3_EN":"Ban Mai","ADM3_TH":"บ้านใหม่","ADM3_PCODE":"TH130102","ADM2_EN":"Mueang Pathum Thani","ADM2_TH":"เมืองปทุมธานี","ADM2_PCODE":"TH1301","ADM1_EN":"Pathum Thani","ADM1_TH":"ปทุมธานี","ADM1_PCODE":"TH13","ADM0_EN":"Thailand","ADM0_TH":"ประเทศไทย","ADM0_PCODE":"TH"}},{"arcs":[[-2,10,11,12,13]],"type":"Polygon","properties":{"Shape_Leng":0.142757047055,"Shape_Area":0.000812858781221,"ADM3_EN":"Ban Klang","ADM3_TH":"บ้านกลาง","ADM3_PCODE":"TH130103","ADM2_EN":"Mueang Pathum Thani","ADM2_TH":"เมืองปทุมธานี","ADM2_PCODE":"TH1301","ADM1_EN":"Pathum Thani","ADM1_TH":"ปทุมธานี","ADM1_PCODE":"TH13","ADM0_EN":"Thailand","ADM0_TH":"ประเทศไทย","ADM0_PCODE":"TH"}},{"arcs":[[-4,14,15,16,17]],"type":"Polygon","properties":{"Shape_Leng":0.182118541392,"Shape_Area":0.000790605941152,"ADM3_EN":"Ban Chang","ADM3_TH":"บ้านฉาง","ADM3_PCODE":"TH130104","ADM2_EN":"Mueang Pathum Thani","ADM2_TH":"เมืองปทุมธานี","ADM2_PCODE":"TH1301","ADM1_EN":"Pathum Thani","ADM1_TH":"ปทุมธานี","ADM1_PCODE":"TH13","ADM0_EN":"Thailand","ADM0_TH":"ประเทศไทย","ADM0_PCODE":"TH"}},{"arcs":[[-1,18,19,20,21,22,-11]],"type":"Polygon","properties":{"Shape_Leng":0.07947329238,"Shape_Area":0.000271224591954,"ADM3_EN":"Ban Krachaeng","ADM3_TH":"บ้านกระแชง","ADM3_PCODE":"TH130105","ADM2_EN":"Mueang Pathum Thani","ADM2_TH":"เมืองปทุมธานี","ADM2_PCODE":"TH1301","ADM1_EN":"Pathum Thani","ADM1_TH":"ปทุมธานี","ADM1_PCODE":"TH13","ADM0_EN":"Thailand","ADM0_TH":"ประเทศไทย","ADM0_PCODE":"TH"}},{"arcs":[[-9,23,24,25,26]],"type":"Polygon","properties":{"Shape_Leng":0.119263669535,"Shape_Area":0.000503273250472,"ADM3_EN":"Bang Khayaeng","ADM3_TH":"บางขะแยง","ADM3_PCODE":"TH130106","ADM2_EN":"Mueang Pathum Thani","ADM2_TH":"เมืองปทุมธานี","ADM2_PCODE":"TH1301","ADM1_EN":"Pathum Thani","ADM1_TH":"ปทุมธานี","ADM1_PCODE":"TH13","ADM0_EN":"Thailand","ADM0_TH":"ประเทศไทย","ADM0_PCODE":"TH"}},{"arcs":[[-25,27,28,29]],"type":"Polygon","properties":{"Shape_Leng":0.214268668696,"Shape_Area":0.00183031485143,"ADM3_EN":"Bang Khu Wat","ADM3_TH":"บางคูวัด","ADM3_PCODE":"TH130107","ADM2_EN":"Mueang Pathum Thani","ADM2_TH":"เมืองปทุมธานี","ADM2_PCODE":"TH1301","ADM1_EN":"Pathum Thani","ADM1_TH":"ปทุมธานี","ADM1_PCODE":"TH13","ADM0_EN":"Thailand","ADM0_TH":"ประเทศไทย","ADM0_PCODE":"TH"}},{"arcs":[[-16,30,31,32]],"type":"Polygon","properties":{"Shape_Leng":0.209041083404,"Shape_Area":0.00118989464564,"ADM3_EN":"Bang Luang","ADM3_TH":"บางหลวง","ADM3_PCODE":"TH130108","ADM2_EN":"Mueang Pathum Thani","ADM2_TH":"เมืองปทุมธานี","ADM2_PCODE":"TH1301","ADM1_EN":"Pathum Thani","ADM1_TH":"ปทุมธานี","ADM1_PCODE":"TH13","ADM0_EN":"Thailand","ADM0_TH":"ประเทศไทย","ADM0_PCODE":"TH"}},{"arcs":[[-26,-30,33,-32,34]],"type":"Polygon","properties":{"Shape_Leng":0.208899615103,"Shape_Area":0.00103294993384,"ADM3_EN":"Bang Duea","ADM3_TH":"บางเดื่อ","ADM3_PCODE":"TH130109","ADM2_EN":"Mueang Pathum Thani","ADM2_TH":"เมืองปทุมธานี","ADM2_PCODE":"TH1301","ADM1_EN":"Pathum Thani","ADM1_TH":"ปทุมธานี","ADM1_PCODE":"TH13","ADM0_EN":"Thailand","ADM0_TH":"ประเทศไทย","ADM0_PCODE":"TH"}},{"arcs":[[-22,35,36,37,38]],"type":"Polygon","properties":{"Shape_Leng":0.147595879816,"Shape_Area":0.000512729057424,"ADM3_EN":"Bang Phut","ADM3_TH":"บางพูด","ADM3_PCODE":"TH130110","ADM2_EN":"Mueang Pathum Thani","ADM2_TH":"เมืองปทุมธานี","ADM2_PCODE":"TH1301","ADM1_EN":"Pathum Thani","ADM1_TH":"ปทุมธานี","ADM1_PCODE":"TH13","ADM0_EN":"Thailand","ADM0_TH":"ประเทศไทย","ADM0_PCODE":"TH"}},{"arcs":[[-6,39,-13,40,41,42,43]],"type":"Polygon","properties":{"Shape_Leng":0.1234001702,"Shape_Area":0.000745572588488,"ADM3_EN":"Bang Phun","ADM3_TH":"บางพูน","ADM3_PCODE":"TH130111","ADM2_EN":"Mueang Pathum Thani","ADM2_TH":"เมืองปทุมธานี","ADM2_PCODE":"TH1301","ADM1_EN":"Pathum Thani","ADM1_TH":"ปทุมธานี","ADM1_PCODE":"TH13","ADM0_EN":"Thailand","ADM0_TH":"ประเทศไทย","ADM0_PCODE":"TH"}},{"arcs":[[-3,-14,-40,-10,-27,-35,-31,-15]],"type":"Polygon","properties":{"Shape_Leng":0.156104922252,"Shape_Area":0.000936565282067,"ADM3_EN":"Bang Kadi","ADM3_TH":"บางกะดี","ADM3_PCODE":"TH130112","ADM2_EN":"Mueang Pathum Thani","ADM2_TH":"เมืองปทุมธานี","ADM2_PCODE":"TH1301","ADM1_EN":"Pathum Thani","ADM1_TH":"ปทุมธานี","ADM1_PCODE":"TH13","ADM0_EN":"Thailand","ADM0_TH":"ประเทศไทย","ADM0_PCODE":"TH"}},{"arcs":[[-12,-23,-39,44,-41]],"type":"Polygon","properties":{"Shape_Leng":0.150939654281,"Shape_Area":0.0010690406612,"ADM3_EN":"Suan Phrik Thai","ADM3_TH":"สวนพริกไทย","ADM3_PCODE":"TH130113","ADM2_EN":"Mueang Pathum Thani","ADM2_TH":"เมืองปทุมธานี","ADM2_PCODE":"TH1301","ADM1_EN":"Pathum Thani","ADM1_TH":"ปทุมธานี","ADM1_PCODE":"TH13","ADM0_EN":"Thailand","ADM0_TH":"ประเทศไทย","ADM0_PCODE":"TH"}},{"arcs":[[-7,-44,45,46,47]],"type":"Polygon","properties":{"Shape_Leng":0.134505026467,"Shape_Area":0.000907905610869,"ADM3_EN":"Lak Hok","ADM3_TH":"หลักหก","ADM3_PCODE":"TH130114","ADM2_EN":"Mueang Pathum Thani","ADM2_TH":"เมืองปทุมธานี","ADM2_PCODE":"TH1301","ADM1_EN":"Pathum Thani","ADM1_TH":"ปทุมธานี","ADM1_PCODE":"TH13","ADM0_EN":"Thailand","ADM0_TH":"ประเทศไทย","ADM0_PCODE":"TH"}},{"arcs":[[-38,48,49,50,51,52,-42,-45]],"type":"Polygon","properties":{"Shape_Leng":0.382045075963,"Shape_Area":0.00555247561411,"ADM3_EN":"Khlong Nueng","ADM3_TH":"คลองหนึ่ง","ADM3_PCODE":"TH130201","ADM2_EN":"Khlong Luang","ADM2_TH":"คลองหลวง","ADM2_PCODE":"TH1302","ADM1_EN":"Pathum Thani","ADM1_TH":"ปทุมธานี","ADM1_PCODE":"TH13","ADM0_EN":"Thailand","ADM0_TH":"ประเทศไทย","ADM0_PCODE":"TH"}},{"arcs":[[-52,53,54,55]],"type":"Polygon","properties":{"Shape_Leng":0.345367171042,"Shape_Area":0.00319678830689,"ADM3_EN":"Khlong Song","ADM3_TH":"คลองสอง","ADM3_PCODE":"TH130202","ADM2_EN":"Khlong Luang","ADM2_TH":"คลองหลวง","ADM2_PCODE":"TH1302","ADM1_EN":"Pathum Thani","ADM1_TH":"ปทุมธานี","ADM1_PCODE":"TH13","ADM0_EN":"Thailand","ADM0_TH":"ประเทศไทย","ADM0_PCODE":"TH"}},{"arcs":[[-55,56,57,58,59]],"type":"Polygon","properties":{"Shape_Leng":0.364518822828,"Shape_Area":0.00352443462003,"ADM3_EN":"Khlong Sam","ADM3_TH":"คลองสาม","ADM3_PCODE":"TH130203","ADM2_EN":"Khlong Luang","ADM2_TH":"คลองหลวง","ADM2_PCODE":"TH1302","ADM1_EN":"Pathum Thani","ADM1_TH":"ปทุมธานี","ADM1_PCODE":"TH13","ADM0_EN":"Thailand","ADM0_TH":"ประเทศไทย","ADM0_PCODE":"TH"}},{"arcs":[[-58,60,61,62]],"type":"Polygon","properties":{"Shape_Leng":0.38124688576,"Shape_Area":0.00390808908732,"ADM3_EN":"Khlong Si","ADM3_TH":"คลองสี่","ADM3_PCODE":"TH130204","ADM2_EN":"Khlong Luang","ADM2_TH":"คลองหลวง","ADM2_PCODE":"TH1302","ADM1_EN":"Pathum Thani","ADM1_TH":"ปทุมธานี","ADM1_PCODE":"TH13","ADM0_EN":"Thailand","ADM0_TH":"ประเทศไทย","ADM0_PCODE":"TH"}},{"arcs":[[-62,63,64,65,66]],"type":"Polygon","properties":{"Shape_Leng":0.380806484663,"Shape_Area":0.00366889406994,"ADM3_EN":"Khlong Ha","ADM3_TH":"คลองห้า","ADM3_PCODE":"TH130205","ADM2_EN":"Khlong Luang","ADM2_TH":"คลองหลวง","ADM2_PCODE":"TH1302","ADM1_EN":"Pathum Thani","ADM1_TH":"ปทุมธานี","ADM1_PCODE":"TH13","ADM0_EN":"Thailand","ADM0_TH":"ประเทศไทย","ADM0_PCODE":"TH"}},{"arcs":[[-65,67,68,69]],"type":"Polygon","properties":{"Shape_Leng":0.382697202412,"Shape_Area":0.00378910988326,"ADM3_EN":"Khlong Hok","ADM3_TH":"คลองหก","ADM3_PCODE":"TH130206","ADM2_EN":"Khlong Luang","ADM2_TH":"คลองหลวง","ADM2_PCODE":"TH1302","ADM1_EN":"Pathum Thani","ADM1_TH":"ปทุมธานี","ADM1_PCODE":"TH13","ADM0_EN":"Thailand","ADM0_TH":"ประเทศไทย","ADM0_PCODE":"TH"}},{"arcs":[[-69,70,71,72,73]],"type":"Polygon","properties":{"Shape_Leng":0.356862959035,"Shape_Area":0.00191372661318,"ADM3_EN":"Khlong Chet","ADM3_TH":"คลองเจ็ด","ADM3_PCODE":"TH130207","ADM2_EN":"Khlong Luang","ADM2_TH":"คลองหลวง","ADM2_PCODE":"TH1302","ADM1_EN":"Pathum Thani","ADM1_TH":"ปทุมธานี","ADM1_PCODE":"TH13","ADM0_EN":"Thailand","ADM0_TH":"ประเทศไทย","ADM0_PCODE":"TH"}},{"arcs":[[-43,-53,-56,-60,74,75,-46]],"type":"Polygon","properties":{"Shape_Leng":0.183245929588,"Shape_Area":0.00184207207264,"ADM3_EN":"Pracha Thipat","ADM3_TH":"ประชาธิปัตย์","ADM3_PCODE":"TH130301","ADM2_EN":"Thanyaburi","ADM2_TH":"ธัญบุรี","ADM2_PCODE":"TH1303","ADM1_EN":"Pathum Thani","ADM1_TH":"ปทุมธานี","ADM1_PCODE":"TH13","ADM0_EN":"Thailand","ADM0_TH":"ประเทศไทย","ADM0_PCODE":"TH"}},{"arcs":[[-59,-63,-67,76,77,-75]],"type":"Polygon","properties":{"Shape_Leng":0.156141630265,"Shape_Area":0.00126314927462,"ADM3_EN":"Bueng Yi Tho","ADM3_TH":"บึงยี่โถ","ADM3_PCODE":"TH130302","ADM2_EN":"Thanyaburi","ADM2_TH":"ธัญบุรี","ADM2_PCODE":"TH1303","ADM1_EN":"Pathum Thani","ADM1_TH":"ปทุมธานี","ADM1_PCODE":"TH13","ADM0_EN":"Thailand","ADM0_TH":"ประเทศไทย","ADM0_PCODE":"TH"}},{"arcs":[[-66,-70,-74,78,79,-77]],"type":"Polygon","properties":{"Shape_Leng":0.170911434454,"Shape_Area":0.00141534208007,"ADM3_EN":"Rangsit","ADM3_TH":"รังสิต","ADM3_PCODE":"TH130303","ADM2_EN":"Thanyaburi","ADM2_TH":"ธัญบุรี","ADM2_PCODE":"TH1303","ADM1_EN":"Pathum Thani","ADM1_TH":"ปทุมธานี","ADM1_PCODE":"TH13","ADM0_EN":"Thailand","ADM0_TH":"ประเทศไทย","ADM0_PCODE":"TH"}},{"arcs":[[-79,80,81,82]],"type":"Polygon","properties":{"Shape_Leng":0.157696706444,"Shape_Area":0.00138770695781,"ADM3_EN":"Lam Phak Kut","ADM3_TH":"ลำผักกูด","ADM3_PCODE":"TH130304","ADM2_EN":"Thanyaburi","ADM2_TH":"ธัญบุรี","ADM2_PCODE":"TH1303","ADM1_EN":"Pathum Thani","ADM1_TH":"ปทุมธานี","ADM1_PCODE":"TH13","ADM0_EN":"Thailand","ADM0_TH":"ประเทศไทย","ADM0_PCODE":"TH"}},{"arcs":[[-82,83,84,85,86]],"type":"Polygon","properties":{"Shape_Leng":0.159637249747,"Shape_Area":0.00143276720787,"ADM3_EN":"Bueng Sanan","ADM3_TH":"บึงสนั่น","ADM3_PCODE":"TH130305","ADM2_EN":"Thanyaburi","ADM2_TH":"ธัญบุรี","ADM2_PCODE":"TH1303","ADM1_EN":"Pathum Thani","ADM1_TH":"ปทุมธานี","ADM1_PCODE":"TH13","ADM0_EN":"Thailand","ADM0_TH":"ประเทศไทย","ADM0_PCODE":"TH"}},{"arcs":[[-85,87,88,89,90]],"type":"Polygon","properties":{"Shape_Leng":0.208737279126,"Shape_Area":0.00215981188975,"ADM3_EN":"Bueng Nam Rak","ADM3_TH":"บึงน้ำรักษ์","ADM3_PCODE":"TH130306","ADM2_EN":"Thanyaburi","ADM2_TH":"ธัญบุรี","ADM2_PCODE":"TH1303","ADM1_EN":"Pathum Thani","ADM1_TH":"ปทุมธานี","ADM1_PCODE":"TH13","ADM0_EN":"Thailand","ADM0_TH":"ประเทศไทย","ADM0_PCODE":"TH"}},{"arcs":[[-84,91,92,93,94,95]],"type":"Polygon","properties":{"Shape_Leng":0.274372600535,"Shape_Area":0.00404342702442,"ADM3_EN":"Bueng Ba","ADM3_TH":"บึงบา","ADM3_PCODE":"TH130401","ADM2_EN":"Nong Suea","ADM2_TH":"หนองเสือ","ADM2_PCODE":"TH1304","ADM1_EN":"Pathum Thani","ADM1_TH":"ปทุมธานี","ADM1_PCODE":"TH13","ADM0_EN":"Thailand","ADM0_TH":"ประเทศไทย","ADM0_PCODE":"TH"}},{"arcs":[[-73,96,-92,-81]],"type":"Polygon","properties":{"Shape_Leng":0.237237360432,"Shape_Area":0.0031957620857,"ADM3_EN":"Bueng Bon","ADM3_TH":"บึงบอน","ADM3_PCODE":"TH130402","ADM2_EN":"Nong Suea","ADM2_TH":"หนองเสือ","ADM2_PCODE":"TH1304","ADM1_EN":"Pathum Thani","ADM1_TH":"ปทุมธานี","ADM1_PCODE":"TH13","ADM0_EN":"Thailand","ADM0_TH":"ประเทศไทย","ADM0_PCODE":"TH"}},{"arcs":[[-94,97,98,99]],"type":"Polygon","properties":{"Shape_Leng":0.26891847216,"Shape_Area":0.00391358446497,"ADM3_EN":"Bueng Ka Sam","ADM3_TH":"บึงกาสาม","ADM3_PCODE":"TH130403","ADM2_EN":"Nong Suea","ADM2_TH":"หนองเสือ","ADM2_PCODE":"TH1304","ADM1_EN":"Pathum Thani","ADM1_TH":"ปทุมธานี","ADM1_PCODE":"TH13","ADM0_EN":"Thailand","ADM0_TH":"ประเทศไทย","ADM0_PCODE":"TH"}},{"arcs":[[-72,100,-98,-93,-97]],"type":"Polygon","properties":{"Shape_Leng":0.298463774488,"Shape_Area":0.00453072658335,"ADM3_EN":"Bueng Cham O","ADM3_TH":"บึงชำอ้อ","ADM3_PCODE":"TH130404","ADM2_EN":"Nong Suea","ADM2_TH":"หนองเสือ","ADM2_PCODE":"TH1304","ADM1_EN":"Pathum Thani","ADM1_TH":"ปทุมธานี","ADM1_PCODE":"TH13","ADM0_EN":"Thailand","ADM0_TH":"ประเทศไทย","ADM0_PCODE":"TH"}},{"arcs":[[-88,-96,101,102,103]],"type":"Polygon","properties":{"Shape_Leng":0.32708199366,"Shape_Area":0.00565743088791,"ADM3_EN":"Nong Sam Wang","ADM3_TH":"หนองสามวัง","ADM3_PCODE":"TH130405","ADM2_EN":"Nong Suea","ADM2_TH":"หนองเสือ","ADM2_PCODE":"TH1304","ADM1_EN":"Pathum Thani","ADM1_TH":"ปทุมธานี","ADM1_PCODE":"TH13","ADM0_EN":"Thailand","ADM0_TH":"ประเทศไทย","ADM0_PCODE":"TH"}},{"arcs":[[-103,104,105]],"type":"Polygon","properties":{"Shape_Leng":0.374179336953,"Shape_Area":0.00368710484717,"ADM3_EN":"Sala Khru","ADM3_TH":"ศาลาครุ","ADM3_PCODE":"TH130406","ADM2_EN":"Nong Suea","ADM2_TH":"หนองเสือ","ADM2_PCODE":"TH1304","ADM1_EN":"Pathum Thani","ADM1_TH":"ปทุมธานี","ADM1_PCODE":"TH13","ADM0_EN":"Thailand","ADM0_TH":"ประเทศไทย","ADM0_PCODE":"TH"}},{"arcs":[[-95,-100,106,-105,-102]],"type":"Polygon","properties":{"Shape_Leng":0.31946928281,"Shape_Area":0.00341882978945,"ADM3_EN":"Noppharat","ADM3_TH":"นพรัตน์","ADM3_PCODE":"TH130407","ADM2_EN":"Nong Suea","ADM2_TH":"หนองเสือ","ADM2_PCODE":"TH1304","ADM1_EN":"Pathum Thani","ADM1_TH":"ปทุมธานี","ADM1_PCODE":"TH13","ADM0_EN":"Thailand","ADM0_TH":"ประเทศไทย","ADM0_PCODE":"TH"}},{"arcs":[[107,108,109,110,111,112]],"type":"Polygon","properties":{"Shape_Leng":0.309259435597,"Shape_Area":0.00351634903986,"ADM3_EN":"Rahaeng","ADM3_TH":"ระแหง","ADM3_PCODE":"TH130501","ADM2_EN":"Lat Lum Kaeo","ADM2_TH":"ลาดหลุมแก้ว","ADM2_PCODE":"TH1305","ADM1_EN":"Pathum Thani","ADM1_TH":"ปทุมธานี","ADM1_PCODE":"TH13","ADM0_EN":"Thailand","ADM0_TH":"ประเทศไทย","ADM0_PCODE":"TH"}},{"arcs":[[-111,113,114,115]],"type":"Polygon","properties":{"Shape_Leng":0.222006770373,"Shape_Area":0.00220614508069,"ADM3_EN":"Lat Lum Kaeo","ADM3_TH":"ลาดหลุมแก้ว","ADM3_PCODE":"TH130502","ADM2_EN":"Lat Lum Kaeo","ADM2_TH":"ลาดหลุมแก้ว","ADM2_PCODE":"TH1305","ADM1_EN":"Pathum Thani","ADM1_TH":"ปทุมธานี","ADM1_PCODE":"TH13","ADM0_EN":"Thailand","ADM0_TH":"ประเทศไทย","ADM0_PCODE":"TH"}},{"arcs":[[-17,-33,116,-109,117,118,119]],"type":"Polygon","properties":{"Shape_Leng":0.228368140294,"Shape_Area":0.00241215114811,"ADM3_EN":"Khu Bang Luang","ADM3_TH":"คูบางหลวง","ADM3_PCODE":"TH130503","ADM2_EN":"Lat Lum Kaeo","ADM2_TH":"ลาดหลุมแก้ว","ADM2_PCODE":"TH1305","ADM1_EN":"Pathum Thani","ADM1_TH":"ปทุมธานี","ADM1_PCODE":"TH13","ADM0_EN":"Thailand","ADM0_TH":"ประเทศไทย","ADM0_PCODE":"TH"}},{"arcs":[[-108,120,121,-118]],"type":"Polygon","properties":{"Shape_Leng":0.141484227784,"Shape_Area":0.00118033537672,"ADM3_EN":"Khu Khwang","ADM3_TH":"คูขวาง","ADM3_PCODE":"TH130504","ADM2_EN":"Lat Lum Kaeo","ADM2_TH":"ลาดหลุมแก้ว","ADM2_PCODE":"TH1305","ADM1_EN":"Pathum Thani","ADM1_TH":"ปทุมธานี","ADM1_PCODE":"TH13","ADM0_EN":"Thailand","ADM0_TH":"ประเทศไทย","ADM0_PCODE":"TH"}},{"arcs":[[-29,122,-114,-110,-117,-34]],"type":"Polygon","properties":{"Shape_Leng":0.196092075316,"Shape_Area":0.00127921424493,"ADM3_EN":"Khlong Phra Udom","ADM3_TH":"คลองพระอุดม","ADM3_PCODE":"TH130505","ADM2_EN":"Lat Lum Kaeo","ADM2_TH":"ลาดหลุมแก้ว","ADM2_PCODE":"TH1305","ADM1_EN":"Pathum Thani","ADM1_TH":"ปทุมธานี","ADM1_PCODE":"TH13","ADM0_EN":"Thailand","ADM0_TH":"ประเทศไทย","ADM0_PCODE":"TH"}},{"arcs":[[-113,123,124,125,-121]],"type":"Polygon","properties":{"Shape_Leng":0.254809938065,"Shape_Area":0.00228519445708,"ADM3_EN":"Bo Ngoen","ADM3_TH":"บ่อเงิน","ADM3_PCODE":"TH130506","ADM2_EN":"Lat Lum Kaeo","ADM2_TH":"ลาดหลุมแก้ว","ADM2_PCODE":"TH1305","ADM1_EN":"Pathum Thani","ADM1_TH":"ปทุมธานี","ADM1_PCODE":"TH13","ADM0_EN":"Thailand","ADM0_TH":"ประเทศไทย","ADM0_PCODE":"TH"}},{"arcs":[[-112,-116,126,-124]],"type":"Polygon","properties":{"Shape_Leng":0.289768732121,"Shape_Area":0.00322028562895,"ADM3_EN":"Na Mai","ADM3_TH":"หน้าไม้","ADM3_PCODE":"TH130507","ADM2_EN":"Lat Lum Kaeo","ADM2_TH":"ลาดหลุมแก้ว","ADM2_PCODE":"TH1305","ADM1_EN":"Pathum Thani","ADM1_TH":"ปทุมธานี","ADM1_PCODE":"TH13","ADM0_EN":"Thailand","ADM0_TH":"ประเทศไทย","ADM0_PCODE":"TH"}},{"arcs":[[-47,-76,127,128]],"type":"Polygon","properties":{"Shape_Leng":0.194612378505,"Shape_Area":0.0018538003203,"ADM3_EN":"Khu Khot","ADM3_TH":"คูคต","ADM3_PCODE":"TH130601","ADM2_EN":"Lam Luk Ka","ADM2_TH":"ลำลูกกา","ADM2_PCODE":"TH1306","ADM1_EN":"Pathum Thani","ADM1_TH":"ปทุมธานี","ADM1_PCODE":"TH13","ADM0_EN":"Thailand","ADM0_TH":"ประเทศไทย","ADM0_PCODE":"TH"}},{"arcs":[[-78,129,130,-128]],"type":"Polygon","properties":{"Shape_Leng":0.233490489095,"Shape_Area":0.00256264053434,"ADM3_EN":"Lat Sawai","ADM3_TH":"ลาดสวาย","ADM3_PCODE":"TH130602","ADM2_EN":"Lam Luk Ka","ADM2_TH":"ลำลูกกา","ADM2_PCODE":"TH1306","ADM1_EN":"Pathum Thani","ADM1_TH":"ปทุมธานี","ADM1_PCODE":"TH13","ADM0_EN":"Thailand","ADM0_TH":"ประเทศไทย","ADM0_PCODE":"TH"}},{"arcs":[[-80,131,132,-130]],"type":"Polygon","properties":{"Shape_Leng":0.274655984851,"Shape_Area":0.00383072822272,"ADM3_EN":"Bueng Kham Phroi","ADM3_TH":"บึงคำพร้อย","ADM3_PCODE":"TH130603","ADM2_EN":"Lam Luk Ka","ADM2_TH":"ลำลูกกา","ADM2_PCODE":"TH1306","ADM1_EN":"Pathum Thani","ADM1_TH":"ปทุมธานี","ADM1_PCODE":"TH13","ADM0_EN":"Thailand","ADM0_TH":"ประเทศไทย","ADM0_PCODE":"TH"}},{"arcs":[[-83,-87,133,134,-132]],"type":"Polygon","properties":{"Shape_Leng":0.289912000853,"Shape_Area":0.00427939248344,"ADM3_EN":"Lam Luk Ka","ADM3_TH":"ลำลูกกา","ADM3_PCODE":"TH130604","ADM2_EN":"Lam Luk Ka","ADM2_TH":"ลำลูกกา","ADM2_PCODE":"TH1306","ADM1_EN":"Pathum Thani","ADM1_TH":"ปทุมธานี","ADM1_PCODE":"TH13","ADM0_EN":"Thailand","ADM0_TH":"ประเทศไทย","ADM0_PCODE":"TH"}},{"arcs":[[-86,-91,135,136,137,-134]],"type":"Polygon","properties":{"Shape_Leng":0.300510552438,"Shape_Area":0.00476518937331,"ADM3_EN":"Bueng Thong Lang","ADM3_TH":"บึงทองหลาง","ADM3_PCODE":"TH130605","ADM2_EN":"Lam Luk Ka","ADM2_TH":"ลำลูกกา","ADM2_PCODE":"TH1306","ADM1_EN":"Pathum Thani","ADM1_TH":"ปทุมธานี","ADM1_PCODE":"TH13","ADM0_EN":"Thailand","ADM0_TH":"ประเทศไทย","ADM0_PCODE":"TH"}},{"arcs":[[-137,138,139,140]],"type":"Polygon","properties":{"Shape_Leng":0.219045937199,"Shape_Area":0.00270187605658,"ADM3_EN":"Lam Sai","ADM3_TH":"ลำไทร","ADM3_PCODE":"TH130606","ADM2_EN":"Lam Luk Ka","ADM2_TH":"ลำลูกกา","ADM2_PCODE":"TH1306","ADM1_EN":"Pathum Thani","ADM1_TH":"ปทุมธานี","ADM1_PCODE":"TH13","ADM0_EN":"Thailand","ADM0_TH":"ประเทศไทย","ADM0_PCODE":"TH"}},{"arcs":[[-90,141,142,-139,-136]],"type":"Polygon","properties":{"Shape_Leng":0.242584299265,"Shape_Area":0.0033485725603,"ADM3_EN":"Bueng Kho Hai","ADM3_TH":"บึงคอไห","ADM3_PCODE":"TH130607","ADM2_EN":"Lam Luk Ka","ADM2_TH":"ลำลูกกา","ADM2_PCODE":"TH1306","ADM1_EN":"Pathum Thani","ADM1_TH":"ปทุมธานี","ADM1_PCODE":"TH13","ADM0_EN":"Thailand","ADM0_TH":"ประเทศไทย","ADM0_PCODE":"TH"}},{"arcs":[[-140,-143,143]],"type":"Polygon","properties":{"Shape_Leng":0.193899994186,"Shape_Area":0.00204987838335,"ADM3_EN":"Phuet Udom","ADM3_TH":"พืชอุดม","ADM3_PCODE":"TH130608","ADM2_EN":"Lam Luk Ka","ADM2_TH":"ลำลูกกา","ADM2_PCODE":"TH1306","ADM1_EN":"Pathum Thani","ADM1_TH":"ปทุมธานี","ADM1_PCODE":"TH13","ADM0_EN":"Thailand","ADM0_TH":"ประเทศไทย","ADM0_PCODE":"TH"}},{"arcs":[[-119,-122,-126,144,145,146,147,148]],"type":"Polygon","properties":{"Shape_Leng":0.287597105689,"Shape_Area":0.00187823881535,"ADM3_EN":"Bang Toei","ADM3_TH":"บางเตย","ADM3_PCODE":"TH130701","ADM2_EN":"Sam Khok","ADM2_TH":"สามโคก","ADM2_PCODE":"TH1307","ADM1_EN":"Pathum Thani","ADM1_TH":"ปทุมธานี","ADM1_PCODE":"TH13","ADM0_EN":"Thailand","ADM0_TH":"ประเทศไทย","ADM0_PCODE":"TH"}},{"arcs":[[-146,149,150,151,152]],"type":"Polygon","properties":{"Shape_Leng":0.232955416137,"Shape_Area":0.00165067388152,"ADM3_EN":"Khlong Khwai","ADM3_TH":"คลองควาย","ADM3_PCODE":"TH130702","ADM2_EN":"Sam Khok","ADM2_TH":"สามโคก","ADM2_PCODE":"TH1307","ADM1_EN":"Pathum Thani","ADM1_TH":"ปทุมธานี","ADM1_PCODE":"TH13","ADM0_EN":"Thailand","ADM0_TH":"ประเทศไทย","ADM0_PCODE":"TH"}},{"arcs":[[-148,153,154,155]],"type":"Polygon","properties":{"Shape_Leng":0.0904805044655,"Shape_Area":0.000489972268363,"ADM3_EN":"Sam Khok","ADM3_TH":"สามโคก","ADM3_PCODE":"TH130703","ADM2_EN":"Sam Khok","ADM2_TH":"สามโคก","ADM2_PCODE":"TH1307","ADM1_EN":"Pathum Thani","ADM1_TH":"ปทุมธานี","ADM1_PCODE":"TH13","ADM0_EN":"Thailand","ADM0_TH":"ประเทศไทย","ADM0_PCODE":"TH"}},{"arcs":[[-20,156,-155,157,158]],"type":"Polygon","properties":{"Shape_Leng":0.0887558014844,"Shape_Area":0.000317719494073,"ADM3_EN":"Krachaeng","ADM3_TH":"กระแชง","ADM3_PCODE":"TH130704","ADM2_EN":"Sam Khok","ADM2_TH":"สามโคก","ADM2_PCODE":"TH1307","ADM1_EN":"Pathum Thani","ADM1_TH":"ปทุมธานี","ADM1_PCODE":"TH13","ADM0_EN":"Thailand","ADM0_TH":"ประเทศไทย","ADM0_PCODE":"TH"}},{"arcs":[[-5,-18,-120,-149,-156,-157,-19]],"type":"Polygon","properties":{"Shape_Leng":0.155606531008,"Shape_Area":0.000373319224578,"ADM3_EN":"Bang Pho Nuea","ADM3_TH":"บางโพธิ์เหนือ","ADM3_PCODE":"TH130705","ADM2_EN":"Sam Khok","ADM2_TH":"สามโคก","ADM2_PCODE":"TH1307","ADM1_EN":"Pathum Thani","ADM1_TH":"ปทุมธานี","ADM1_PCODE":"TH13","ADM0_EN":"Thailand","ADM0_TH":"ประเทศไทย","ADM0_PCODE":"TH"}},{"arcs":[[-21,-159,159,-36]],"type":"Polygon","properties":{"Shape_Leng":0.131001022614,"Shape_Area":0.000971539610627,"ADM3_EN":"Chiang Rak Yai","ADM3_TH":"เชียงรากใหญ่","ADM3_PCODE":"TH130706","ADM2_EN":"Sam Khok","ADM2_TH":"สามโคก","ADM2_PCODE":"TH1307","ADM1_EN":"Pathum Thani","ADM1_TH":"ปทุมธานี","ADM1_PCODE":"TH13","ADM0_EN":"Thailand","ADM0_TH":"ประเทศไทย","ADM0_PCODE":"TH"}},{"arcs":[[-37,-160,-158,-154,160,161,-49]],"type":"Polygon","properties":{"Shape_Leng":0.175102874479,"Shape_Area":0.00107873956401,"ADM3_EN":"Ban Pathum","ADM3_TH":"บ้านปทุม","ADM3_PCODE":"TH130707","ADM2_EN":"Sam Khok","ADM2_TH":"สามโคก","ADM2_PCODE":"TH1307","ADM1_EN":"Pathum Thani","ADM1_TH":"ปทุมธานี","ADM1_PCODE":"TH13","ADM0_EN":"Thailand","ADM0_TH":"ประเทศไทย","ADM0_PCODE":"TH"}},{"arcs":[[-147,-153,162,163,-161]],"type":"Polygon","properties":{"Shape_Leng":0.0934422701596,"Shape_Area":0.000472939312856,"ADM3_EN":"Ban Ngio","ADM3_TH":"บ้านงิ้ว","ADM3_PCODE":"TH130708","ADM2_EN":"Sam Khok","ADM2_TH":"สามโคก","ADM2_PCODE":"TH1307","ADM1_EN":"Pathum Thani","ADM1_TH":"ปทุมธานี","ADM1_PCODE":"TH13","ADM0_EN":"Thailand","ADM0_TH":"ประเทศไทย","ADM0_PCODE":"TH"}},{"arcs":[[-50,-162,-164,164,165]],"type":"Polygon","properties":{"Shape_Leng":0.148141435855,"Shape_Area":0.00112942359123,"ADM3_EN":"Chiang Rak Noi","ADM3_TH":"เชียงรากน้อย","ADM3_PCODE":"TH130709","ADM2_EN":"Sam Khok","ADM2_TH":"สามโคก","ADM2_PCODE":"TH1307","ADM1_EN":"Pathum Thani","ADM1_TH":"ปทุมธานี","ADM1_PCODE":"TH13","ADM0_EN":"Thailand","ADM0_TH":"ประเทศไทย","ADM0_PCODE":"TH"}},{"arcs":[[-152,166,167,-165,-163]],"type":"Polygon","properties":{"Shape_Leng":0.133988749855,"Shape_Area":0.000790148298638,"ADM3_EN":"Bang Krabue","ADM3_TH":"บางกระบือ","ADM3_PCODE":"TH130710","ADM2_EN":"Sam Khok","ADM2_TH":"สามโคก","ADM2_PCODE":"TH1307","ADM1_EN":"Pathum Thani","ADM1_TH":"ปทุมธานี","ADM1_PCODE":"TH13","ADM0_EN":"Thailand","ADM0_TH":"ประเทศไทย","ADM0_PCODE":"TH"}},{"arcs":[[-151,168,-167]],"type":"Polygon","properties":{"Shape_Leng":0.144195525332,"Shape_Area":0.000930235855171,"ADM3_EN":"Thai Ko","ADM3_TH":"ท้ายเกาะ","ADM3_PCODE":"TH130711","ADM2_EN":"Sam Khok","ADM2_TH":"สามโคก","ADM2_PCODE":"TH1307","ADM1_EN":"Pathum Thani","ADM1_TH":"ปทุมธานี","ADM1_PCODE":"TH13","ADM0_EN":"Thailand","ADM0_TH":"ประเทศไทย","ADM0_PCODE":"TH"}}]}}}