{"type":"Topology","arcs":[[[8201,3964],[-23,16],[35,5],[8,11],[-14,15],[8,26],[23,25],[19,-1],[17,24],[21,-4],[48,21],[-3,24],[-12,27],[22,10],[0,17],[34,7],[27,-54],[27,-36],[-1,-14],[-23,-17],[-13,-21],[-107,-46],[-18,-30],[-33,-4],[-20,-14],[-22,13]],[[8194,4853],[37,-15],[-3,-45],[-20,-22],[2,-19],[15,-23],[31,-5],[19,-17],[76,-37],[54,19],[53,24],[22,-18],[9,-26],[20,-6],[69,2],[47,-7],[24,3]],[[8649,4661],[-15,-18],[-57,-10],[-24,-40],[-27,-34],[16,-21],[35,-28],[-1,-10],[-51,-22],[-5,-18]],[[8520,4460],[-21,-14],[-10,-20],[-2,-25],[-16,-16],[-16,-4],[-18,-30]],[[8437,4351],[-56,-34],[-13,-20],[-32,-8],[-48,-53],[-13,-4],[-45,31]],[[8230,4263],[-49,17],[-8,24],[-1,40],[-9,14],[-58,15],[-19,-5],[-41,9],[-15,9],[-40,9],[-33,-9],[-27,4],[3,18],[-14,9],[-44,-2],[-53,22],[-10,22],[-37,33],[-21,10]],[[7754,4502],[-8,53],[16,19],[35,9],[-2,31],[8,34],[48,11],[30,26],[32,-2],[7,14],[22,16],[1,36],[20,42],[23,11],[43,9],[46,29],[44,17],[36,-19],[32,5],[7,10]],[[8437,4351],[84,-3],[-3,-21],[-17,-15],[-23,2],[10,-41],[35,-5],[-4,-17],[35,-59],[-10,-8],[-1,-21],[10,-12],[1,-24],[-14,-9],[1,-27],[-36,-42],[-44,-14],[2,-11],[-30,-52],[0,-24],[-16,-27],[-2,-16],[-30,-40],[-12,-2],[-15,-16]],[[8358,3847],[-34,6],[-44,-17],[-4,-22],[-22,-4],[-8,-12],[18,-18],[-60,-7],[-26,46]],[[8178,3819],[6,15],[-15,13],[-49,10],[-29,18],[2,29],[20,14],[-26,10],[-5,18],[52,40],[13,31],[-4,23],[14,14],[-2,26],[7,42],[23,31],[-12,8],[-17,-17],[-15,-1],[4,25]],[[8145,4168],[2,14],[26,41],[26,32],[31,8]],[[8520,4460],[41,-16],[92,-14],[-5,-28],[23,-32],[23,-3],[22,8],[27,-2],[37,7],[60,-4]],[[8840,4376],[5,-41],[32,-11],[12,-14],[-39,-30],[-18,0],[-12,-25],[-15,-11],[-6,-29],[11,-49],[-3,-17],[34,-18],[36,-8],[23,-36],[32,-14],[-7,-27],[25,-8],[-2,-12],[-55,-45],[15,-20],[41,-3],[61,-29],[14,-23],[59,-24]],[[9083,3882],[30,-60],[21,-115],[9,-31]],[[9143,3676],[-60,0],[5,-40],[-11,-39],[-12,-16],[-21,4],[-15,24],[-44,-14],[-17,-19],[-31,-16],[-95,-20],[-38,3],[-36,21],[-12,-17],[-36,1],[-11,-21],[-15,-5],[-43,3],[-38,-17],[1,-14],[-35,-4]],[[8579,3490],[-56,49],[-76,38],[-39,50],[-4,42],[-25,40],[3,12],[35,26],[-6,14],[16,23],[-7,24],[15,4],[-26,35],[-44,5],[-7,-5]],[[9172,3493],[-15,-1],[-4,17],[19,-16]],[[9117,3504],[-18,9],[20,8],[-2,-17]],[[9076,3552],[-15,-17],[0,17],[15,0]],[[8178,3819],[-42,-3],[-13,6],[-45,0],[-26,-8],[-4,-26],[22,-12],[15,-39],[27,-9],[-8,-13],[-26,-12],[-77,-17],[-14,10],[-45,-15],[-19,-13],[-14,9],[-19,-11],[-4,-23],[-26,-5],[-38,3],[-32,-35]],[[7790,3606],[-12,11],[-39,6],[-13,15],[24,42],[-2,25],[-12,10],[-30,6],[0,15],[28,2],[22,28],[-22,30],[-12,34],[-17,8],[8,29],[71,31],[-7,9],[31,-2],[-23,27],[37,4],[0,17],[35,22],[16,26],[-25,11],[5,12],[26,-3],[-3,30],[-34,9],[-10,22],[-82,13],[-8,11],[-44,8],[-50,-7],[-13,-19],[-45,4],[-55,11],[-25,-2]],[[7510,4101],[-33,2],[-24,13],[-29,31],[-36,4],[-48,-7],[-35,2],[-13,7]],[[7292,4153],[5,34]],[[7297,4187],[41,10],[71,-13],[15,10],[-3,31],[29,9],[71,-9],[49,-15],[21,6],[64,-18],[9,-11],[41,0],[27,12],[60,12],[73,-4],[41,28],[20,5],[62,-9],[91,-45],[23,-22],[43,4]],[[8194,4853],[17,20],[40,5],[7,12],[68,48],[-32,26],[-41,12],[-21,-3],[0,14],[-37,1],[-41,-9],[-28,-11],[-15,1],[-8,31]],[[8103,5000],[64,34],[12,20],[31,22],[-2,19],[22,11],[7,20],[20,14],[1,17],[49,37],[21,35],[19,19],[-27,42]],[[8320,5290],[40,3],[40,-13],[11,3]],[[8411,5283],[29,-5],[23,-16],[71,-13],[30,-16],[1,-16],[33,-11],[67,-33],[-3,-18],[96,-26],[32,-2],[50,-22],[51,-11],[45,18],[22,-8],[40,3],[20,-3],[20,-24]],[[9038,5080],[-3,-36],[-20,-14],[-37,-15],[-5,-14],[-38,-11],[-32,-23],[-26,-58]],[[8877,4909],[-7,-31],[-28,-18],[-44,-38],[-39,-12],[-26,-33],[2,-19],[-16,-28],[2,-28],[-10,-39],[-62,-2]],[[7754,4502],[-46,-12],[-3,-12],[-46,-10],[-96,-2],[-14,-5],[-34,-46],[-57,-20],[-34,-23],[-54,-13],[-7,-12],[-32,-8],[-25,-23],[12,-21],[-5,-24],[-19,-13],[9,-64],[-6,-7]],[[7292,4153],[-25,-13],[-78,-2],[-52,-31],[-28,-7]],[[7109,4100],[5,16],[-31,34],[-22,15],[-12,29],[-21,15],[-80,3],[-42,8],[-53,35],[-9,13]],[[6844,4268],[-4,31],[32,22],[3,23],[26,26],[17,8],[16,25],[-4,60],[18,19],[71,26],[21,27]],[[7040,4535],[48,9],[10,41],[49,15],[15,40],[35,8],[4,25],[26,18],[54,17],[4,12],[34,23],[33,15],[-17,32],[39,15],[-3,14],[-90,61],[-20,3],[-8,35],[14,9],[-4,35],[15,9],[2,27],[23,5],[10,19],[-31,24],[5,23],[-39,14],[-7,15]],[[7241,5098],[40,6],[24,25],[21,-3],[30,-20],[37,1],[29,-21],[29,1],[55,27],[36,-30],[37,-4],[40,7],[44,-2],[31,-17],[25,1],[12,-13],[-11,-21],[14,-14],[47,-10],[9,-7],[-3,-23],[52,-7],[38,8],[73,-7],[26,-27],[46,2],[31,26],[29,4],[21,20]],[[8579,3490],[-26,-11],[-21,-23],[-6,-21],[-33,-1],[-56,15],[-20,-5],[3,-13],[-15,-20],[-34,-14],[-35,-9],[-45,4],[-35,-25],[-35,-16],[-31,2],[-19,16],[-37,58],[0,23],[-81,-1],[-14,-12],[-12,6],[-19,-11]],[[8008,3432],[-46,27],[-62,10],[-39,10],[-10,17],[14,45],[-18,13],[-41,10],[-16,17],[0,25]],[[8950,3152],[21,-2],[19,-20],[-13,-10],[-28,-5],[-35,2],[-28,-9],[-68,-14],[-52,-7],[-9,4],[35,48],[89,25],[37,-3],[32,-9]],[[8102,3419],[0,-24],[-17,20],[17,4]],[[8632,2164],[-11,12],[23,2],[-12,-14]],[[8795,2318],[-15,19],[10,4],[5,-23]],[[8396,2374],[37,-22],[51,-12],[58,-34],[43,-39],[22,-42],[-9,-24],[-93,28],[-47,23],[-30,20],[-29,33],[-9,31],[-1,33],[7,5]],[[8431,2438],[-40,24],[-3,11],[16,47],[13,24],[18,-15],[14,-47],[-2,-35],[-16,-9]],[[9329,2548],[19,-18],[-18,-19],[31,-7],[-11,-13],[-25,0],[-21,-25],[8,-11],[-16,-14],[15,-6],[28,6],[-25,-69],[0,-20],[-39,-1],[12,-18],[36,0],[-3,-31],[-17,-30],[-62,-22],[-27,-16],[-7,-23],[35,0],[12,-10],[-18,-20],[4,-31],[-13,-13],[-13,-35],[-1,-39],[-40,-20],[-6,-60],[7,-14],[-12,-32],[-27,5],[-31,-3],[-28,9],[19,40],[-1,22],[-10,16],[-41,24],[-18,-2],[-15,14],[-42,-5],[-38,-32],[-64,11],[-27,17],[-41,10],[-28,22],[-33,13],[-59,32],[-30,33],[11,4],[59,-16],[39,-18],[42,1],[31,31],[45,-8],[40,25],[12,24],[3,66],[44,22],[4,38],[28,34],[128,72],[20,20],[33,22],[8,45],[22,-4],[6,-32],[17,1],[24,23],[-19,17],[5,15],[67,8],[12,-5]],[[9104,2604],[30,-6],[-4,-12],[-22,-13],[-26,22],[22,9]],[[9310,2596],[-19,15],[13,3],[6,-18]],[[9352,2626],[-2,-18],[20,-11],[-11,-27],[-43,25],[14,22],[22,9]],[[7989,2633],[14,-5],[-9,-13],[12,-15],[-8,-49],[11,-8],[16,-59],[-15,-36],[-22,-15],[3,14],[-14,27],[6,8],[-32,19],[-14,31],[23,43],[-12,5],[-3,24],[12,21],[32,8]],[[8159,2631],[-8,6],[4,23],[18,-3],[-14,-26]],[[8930,2673],[-19,15],[10,27],[-12,27],[13,13],[13,-10],[5,-37],[-10,-35]],[[8137,2773],[-1,-16],[22,-36],[-5,-47],[-14,1],[-29,36],[6,10],[-10,45],[31,7]],[[8076,2782],[14,-11],[-11,-23],[-24,7],[9,27],[12,0]],[[8082,2854],[11,-15],[18,2],[30,-50],[-12,3],[-26,42],[-26,-3],[5,21]],[[9232,1687],[-27,-1],[-8,18],[20,8],[15,-25]],[[9011,1672],[-33,5],[-36,-19],[-36,-4],[-67,-22],[-52,1],[-19,-4],[-25,-20]],[[8743,1609],[-71,52],[-54,-21],[-14,-16],[-29,3],[-12,14],[-1,20],[16,11],[-30,9],[-33,42],[6,11],[-25,17],[-4,25],[26,13],[-17,12],[-27,-14],[-16,25],[-33,25],[5,8],[34,-6],[-10,13],[-48,22],[-52,9],[12,12],[-13,47],[-39,36],[-17,4],[-3,25],[10,18],[14,3],[17,-16],[-10,-20],[29,-2],[4,14],[19,17],[-25,33],[28,7],[0,13],[-55,65],[13,8],[40,-47],[26,-11],[14,-13],[34,-10],[32,-18],[9,-12],[57,-22],[45,-35],[55,-13],[39,-25],[80,-27],[71,-6],[40,4],[51,23],[63,16],[-19,-14],[-39,-43],[-10,-20],[0,-22],[25,-43],[76,-51],[30,-5],[37,-26],[-83,-55]],[[9011,1672],[5,-21],[-12,-19],[6,-20],[-12,-29],[9,-41],[21,-13],[5,-15],[-1,-90],[31,-25],[8,-17],[22,8],[23,-33],[7,-35],[-4,-23],[11,-27],[-5,-29],[-23,-58],[3,-27],[-17,-35],[-38,-50],[-14,-50],[-23,-24],[-12,-23],[1,-31],[-14,-38],[4,-13],[-14,-16],[-8,-47],[-16,8],[-19,57],[20,8],[-4,13],[-24,13],[-8,23],[-23,33],[-24,-14],[-36,17],[-21,-18],[21,-69],[3,-24],[-27,-5],[-30,33],[-3,34],[-7,16],[5,18],[-19,16],[18,17],[-5,17],[16,9],[-32,44],[-2,18],[-26,20],[-19,58],[-17,17],[0,20],[-22,34],[29,46],[25,24],[3,26],[-15,21],[-27,21],[-11,19],[8,20],[22,10],[27,-6],[19,-14],[66,10],[32,34],[10,23],[-1,29],[-8,18],[-74,56],[-31,28]],[[9136,0],[-18,11],[15,8],[3,-19]],[[8209,845],[-25,11],[25,0],[0,-11]],[[8843,860],[3,-23],[-13,-10],[-22,29],[32,4]],[[8201,1189],[-9,21],[30,33],[1,-18],[-22,-36]],[[8696,1460],[-3,-17],[-25,10],[28,7]],[[7241,5098],[-73,18],[-62,-8],[-49,26]],[[7057,5134],[46,15],[4,26],[43,24],[-11,50],[5,30]],[[7144,5279],[76,-11],[33,10],[6,-11],[82,-43],[29,18],[-11,23],[29,31],[29,-3],[21,7],[-20,17],[-14,39],[10,15],[-5,30],[20,14],[-5,30],[12,14],[34,14],[-5,35],[37,-12],[20,-17],[18,1],[88,-22],[8,-26],[34,-28],[67,-12],[6,-21],[33,-16],[-1,-24],[47,-32],[16,22],[74,21],[23,-5],[20,9],[12,17]],[[7967,5363],[40,-4],[22,6],[63,-8],[27,10],[55,7],[5,6],[35,-3],[22,-10],[34,5],[-16,-25],[0,-26],[25,1],[22,-10],[19,-22]],[[7144,5279],[15,23],[-20,10],[-29,36],[-27,19],[43,11],[2,17],[36,8],[20,25],[7,39],[14,21],[-4,10],[10,25],[32,11],[6,19],[-47,0],[-11,44],[8,18],[-24,35],[13,27],[-20,34],[2,18],[23,18],[-32,75],[14,22],[-3,27],[-28,15],[-2,11]],[[7142,5897],[15,4],[5,15],[-10,24],[38,5]],[[7190,5945],[35,-12],[56,3],[36,-18],[38,-8],[13,-17],[22,-11],[4,-28],[44,-39],[46,-23],[32,-50],[1,-25],[37,-11],[65,-3],[49,11],[36,16],[55,8],[51,-89],[32,-13],[40,3],[13,17],[42,-9],[-12,-23],[-24,-21],[-3,-17],[-22,-24],[34,-21],[2,-22],[26,-18],[-3,-43],[48,-17],[-2,-59],[-14,-19]],[[7057,5134],[-18,18],[-37,20],[-41,-9],[-55,1],[-50,-4],[-70,-32],[-23,-26],[-32,0],[-44,38],[2,28],[-15,7],[-35,-1],[-35,-19],[-57,21]],[[6547,5176],[-4,36],[-57,25],[-29,0]],[[6457,5237],[-8,13],[15,44],[-10,13],[-50,31],[-41,5],[-52,13],[12,44],[28,12],[2,13],[28,13],[4,10],[42,40],[-3,12],[32,36],[-38,28],[-1,31],[37,12],[-2,26],[16,14],[21,43]],[[6489,5690],[18,13],[27,4],[47,-11],[54,17],[67,-5],[17,22],[23,14],[-4,25],[13,29],[43,49]],[[6794,5847],[35,9],[33,-11],[49,0],[27,-15],[14,3],[42,31],[56,30],[39,7],[53,-4]],[[7190,5945],[13,10],[7,39],[-12,19],[13,18],[-22,25],[3,28],[-23,31],[9,25]],[[7178,6140],[24,1],[15,-8],[68,-10],[8,-24],[41,-23],[-6,-16],[19,-6],[6,-18],[24,1],[13,-15],[29,-1],[15,12],[0,-26],[9,-8],[21,12],[31,0],[15,10],[37,0],[55,20],[20,-2],[66,22],[44,-12],[13,8],[15,-8],[40,0],[25,-7],[56,4],[31,-24],[67,0],[38,-8],[21,-30],[24,-19],[3,-24],[44,1],[74,-18],[19,-21],[105,-27],[27,4],[32,-22],[16,-41],[38,-7],[23,-17],[73,-27],[16,-17],[24,-5],[25,-17],[43,10],[29,-10],[36,2],[64,26],[66,17],[23,2],[22,23],[28,12],[72,6]],[[8964,5815],[0,-43],[-18,-5],[2,-38],[-9,-44],[20,-41],[-8,-29],[6,-13],[-8,-20],[-30,-16],[-20,-24],[-68,-18],[-10,-35],[-18,-13],[-53,-16],[-7,-41],[-30,-18],[-48,-2],[-16,-6],[-3,-18],[-17,-9],[-31,-1],[-47,-10],[-53,4],[-23,-18],[-27,-9],[-16,-14],[-1,-19],[-20,-16]],[[7178,6140],[14,9],[6,18],[-25,34],[0,31],[-13,9],[-14,41],[0,28],[77,35],[34,23],[37,16],[-4,13],[28,35],[16,8],[30,-2],[-7,15],[32,19]],[[7389,6472],[66,33],[21,6],[23,20],[-1,16],[25,30],[27,21],[16,36]],[[7566,6634],[54,-4],[27,-10],[11,-12],[39,-7],[65,1],[10,-5],[43,2],[17,6],[89,-23],[44,-7],[102,-24],[45,2],[20,-12],[17,-45],[19,-17],[1,-16],[37,-30],[76,-7],[24,11],[62,-14],[20,2],[16,-14],[-13,-43],[-20,-20],[7,-10],[34,-11],[57,-11],[37,-28],[14,-25],[41,-9],[23,-37],[2,-13],[-13,-29],[9,-10],[26,-8],[59,-30],[19,3],[37,-6],[40,-15],[37,-4],[51,15],[20,-5],[9,-15],[77,-13],[28,-20],[12,-32],[0,-39],[15,-12],[-30,-30],[-8,-16],[11,-18],[-14,-26],[2,-17],[-13,-24],[9,-28],[-5,-10]],[[7510,4101],[-24,-31],[-56,-25],[3,-14],[29,-26],[-9,-22],[30,-40],[43,-6],[26,-22],[-4,-15],[-21,-20],[-17,-36],[-8,-42],[11,-26],[-36,-15],[-6,-15],[-28,-27],[-19,-38],[18,-24],[-18,-19],[7,-20],[-32,-29],[-40,-23],[-24,-20],[-30,-5],[-56,-27],[-30,0]],[[7219,3514],[-11,30],[-22,32],[4,21],[-8,24],[-51,26],[-68,12],[-57,34],[-46,11]],[[6960,3704],[5,8],[-2,38],[-34,8],[3,20],[49,16],[17,26],[28,4],[36,17],[21,25],[17,40],[-11,18],[14,33],[20,16],[0,31],[-42,18],[10,14],[0,40],[18,24]],[[8008,3432],[-13,-5],[29,-33],[4,-20],[26,-23],[-4,-26],[-19,-15],[-44,-4],[-14,-8],[-62,6],[-89,-5],[-19,-24]],[[7803,3275],[-83,27],[-83,18],[-88,3],[-50,22],[-4,13],[21,31],[1,16],[-33,20],[-6,18],[-23,9],[-58,12],[-12,10],[-52,4],[-69,-2],[-31,12],[-14,26]],[[7803,3275],[-28,-37],[-1,-23],[-24,-14],[-3,-13],[20,-23],[-9,-31],[-3,-35],[-29,0],[-38,19],[-17,-4],[-5,-25],[-28,-13],[26,-20],[-2,-55]],[[7662,3001],[-20,9],[-44,3],[-16,-22],[13,-11],[-7,-16],[15,-18],[-12,-2],[-71,20],[-59,2],[-35,11],[-17,11],[1,32],[-17,9],[-27,3],[-78,18],[4,11],[-27,25],[2,12],[-23,8],[15,14],[-18,9],[2,13],[-23,17],[-25,-1],[-21,-17],[-28,-2],[-12,13],[-27,2],[-18,11],[8,31],[-26,7],[-1,-14],[-46,-15],[-2,-19],[-15,-9],[-29,4],[-20,-8],[-25,13],[-5,20],[-50,13],[-54,25],[-15,18],[-19,-3],[-14,24],[7,6],[-63,1]],[[6720,3259],[-34,28],[-10,24],[-27,14]],[[6649,3325],[36,16],[3,19],[18,13],[-8,15],[12,20],[-24,20]],[[6686,3428],[23,14],[51,-8],[45,15],[8,35],[47,47],[0,31],[-26,18],[6,15],[37,6],[31,25],[20,39],[20,22],[-4,12],[16,5]],[[7979,3023],[18,-3],[-5,-14],[-48,12],[20,14],[15,-9]],[[8089,3058],[-26,-7],[18,15],[8,-8]],[[7928,3037],[-22,-22],[-25,18],[-1,35],[7,23],[12,0],[8,-33],[21,-21]],[[8044,3071],[-51,10],[-34,19],[-25,22],[11,35],[7,48],[20,33],[16,-3],[4,-20],[28,-20],[42,-18],[1,-19],[15,-41],[-33,-13],[7,-29],[-8,-4]],[[8071,3219],[-24,-11],[-14,4],[-6,22],[40,9],[4,-24]],[[7888,3177],[-16,10],[-6,49],[6,19],[15,-10],[-1,-29],[-9,-12],[11,-27]],[[7988,3258],[-23,9],[-10,13],[56,-1],[1,-15],[-24,-6]],[[7662,3001],[14,2],[21,-17],[-2,-24],[15,-25],[1,-19]],[[7711,2918],[-25,-2],[-28,-17],[-25,7],[-39,-16],[-45,-31],[-54,-15],[-19,-45],[-15,-5],[-93,9],[-42,-6],[-90,-3],[-17,3],[-21,-9],[-6,-22],[-23,3]],[[7169,2769],[-65,-4],[-57,-7],[-24,12],[-9,28],[9,15],[-8,22],[8,16],[-46,12],[-68,7],[-15,6],[10,42],[-12,4],[-30,-20],[-30,8],[-33,-11],[-46,-32],[-36,14],[-8,27],[11,14],[3,27],[-13,13],[-10,28],[17,24],[-14,16],[18,24],[20,47],[24,42],[-2,7],[-40,17],[21,24],[-4,21],[-16,26],[-4,21]],[[7687,3028],[-20,7],[11,15],[9,-22]],[[7169,2769],[-43,-51],[-62,-17],[-7,-20],[-32,-25],[-20,-36],[2,-37],[21,-41],[36,-27],[-5,-33],[-35,-48],[-2,-41],[-16,-18],[13,-39],[-4,-44],[-22,-19],[1,-19],[49,-40]],[[7043,2214],[-28,-10],[-80,46],[-1,12],[-41,16],[-13,81],[-15,22],[-26,20],[-3,28],[7,16],[-16,21],[-39,17],[14,25],[-33,17],[14,8],[-5,16],[-17,11],[-21,-9],[-36,22],[-73,-16],[-8,-12],[-48,-23],[-37,-10],[-69,33],[-18,28],[-13,1],[-5,32],[-30,9]],[[6403,2615],[48,41],[46,12],[55,-6],[21,3],[-1,10],[-29,-1],[20,13],[-13,16],[-33,23],[-9,76],[20,17],[-17,15],[-46,12],[2,29],[34,20],[1,12],[53,6],[32,18],[-47,53],[-8,26],[14,46],[-7,64],[26,39],[-28,32],[-3,44],[2,39],[53,28],[16,20]],[[6605,3322],[44,3]],[[6403,2615],[-37,7],[-80,9],[-18,19],[-45,-3],[12,-9],[-82,32],[-43,3],[-31,-4],[-14,-19],[-24,11],[7,39],[0,32],[-22,109],[18,21],[-5,33],[-37,124],[-42,107],[-39,124]],[[5921,3250],[16,-7],[18,11],[50,5],[56,-4],[23,-14],[15,-22],[32,2],[88,-7],[29,15],[38,-4],[40,15],[9,27],[42,14],[17,-1],[31,17],[59,18],[56,12],[21,9],[44,-14]],[[7711,2918],[-17,-23],[-34,-2],[-7,-8],[27,-4],[-32,-15],[26,-6],[37,5],[25,-8],[17,-34],[20,-79],[-11,-16],[-21,15],[-20,-12],[-4,-24],[50,-28],[-3,-9],[16,-26],[-19,-11],[-68,-28],[-42,-4],[-74,1],[-29,-24],[-23,-61],[-40,-69],[-10,-37],[23,-5],[-16,-19],[13,-14],[38,-1],[9,-28],[-21,-14],[-13,-25],[-15,6],[-45,-44],[-59,-12],[-34,35],[26,10],[-3,17],[-24,17],[-9,37],[-13,15],[-36,6],[-43,19],[-54,-1],[8,-55],[-22,-25],[-33,-17],[4,-18],[21,-31],[-29,8],[-34,-2],[-39,-20],[-32,-36]],[[7646,2143],[-32,1],[1,8],[29,4],[2,-13]],[[7556,2219],[30,-10],[-10,-36],[-16,1],[-33,25],[-5,27],[9,6],[25,-13]],[[7230,2389],[20,-1],[14,-32],[-6,-18],[-25,-3],[-21,54],[18,0]],[[7226,2391],[-14,7],[19,12],[10,-8],[-15,-11]],[[7855,2788],[-7,19],[17,-1],[-10,-18]],[[7852,2815],[-6,15],[10,13],[-4,-28]],[[8014,2873],[-17,1],[0,17],[17,-18]],[[7818,2931],[11,-21],[-64,-16],[-28,-15],[11,18],[36,30],[34,4]],[[6711,6391],[26,-11],[17,-24],[-2,-18],[30,-15],[17,-35],[47,-7],[5,-33]],[[6851,6248],[-43,-20],[-1,15],[-61,-1],[-1,12],[44,14],[-30,19],[-3,22],[-38,20],[1,21],[-19,29]],[[6700,6379],[-18,-8],[-50,-4],[-42,26],[-6,11],[9,38],[-10,37],[34,32],[60,6],[-16,-41],[4,-12],[-56,-4],[4,-17],[-6,-43],[36,-23],[26,4],[13,12],[29,-2]],[[7389,6472],[-54,10],[-17,-17],[-18,-4],[-11,14],[-59,-5],[-9,9],[13,21],[-3,26],[-27,29],[-47,-2],[-65,-8],[-62,11],[-36,-9],[-83,3],[22,-52],[-11,-14],[-29,-1],[-26,26],[-28,18],[-4,23],[-11,0],[-37,-32],[-25,-33],[-17,0],[-16,-23],[-3,-36],[-9,-5],[-6,-30]],[[6700,6379],[-57,-42],[-67,-2],[-49,13],[-33,25],[-24,6],[-35,-16],[-62,-11]],[[6373,6352],[-24,-3],[-37,33],[-8,25],[-29,1],[10,10],[-21,18],[5,16],[-21,13],[7,32],[-17,1],[-12,21],[-66,-45],[-37,-16],[-30,19],[-62,31],[-13,1]],[[6018,6509],[1,26],[25,46],[17,14],[28,48],[12,66],[-3,37],[12,25],[19,14],[47,17],[18,23],[1,47],[31,24],[37,0],[30,16],[41,49],[20,35],[50,47],[10,27],[40,24],[22,18],[39,4],[45,-21],[36,-8],[104,41],[55,15],[-5,13],[21,21],[-1,29]],[[6770,7206],[33,4],[92,-11],[39,-13],[38,-30],[6,-25],[17,-24],[40,-23],[100,-50],[20,-3],[64,2],[47,-31],[9,-20],[16,-4],[11,-23],[93,-28],[27,-19],[26,-10],[26,-1],[65,25]],[[7539,6922],[45,-31],[20,-1],[47,-17],[18,-25],[-25,-45],[6,-19],[-5,-40],[-23,-30],[-19,-9],[-22,-26],[-15,-45]],[[6489,5690],[-26,38],[-32,20],[-51,9],[-18,26],[-55,30],[-6,31],[-20,17],[-59,3],[-28,-2],[-43,25],[-30,30]],[[6121,5917],[-2,27],[76,41],[51,21],[22,32],[28,12],[97,-1],[30,12],[29,20],[-13,3],[-13,29],[-34,7],[2,69],[-39,20],[-16,23],[21,23],[39,-4],[31,19],[4,17],[-30,18],[-31,47]],[[6851,6248],[32,-18],[18,-32],[17,-13]],[[6918,6185],[-17,-62],[-29,-12],[3,-32],[-91,-16],[-20,-16],[-30,-11],[-35,1],[-24,-6],[-10,-13],[-30,-6],[-25,-17],[-25,-52],[-2,-14],[15,-36],[21,-7],[54,-7],[22,-16],[3,-22],[16,-1],[29,17],[19,1],[32,-11]],[[6121,5917],[-28,-27],[-21,2],[-22,14],[-34,-12],[-58,-11],[-14,4],[-13,-12],[-27,-6],[-53,2]],[[5851,5871],[10,51],[-1,70],[-7,34],[-20,56],[-13,22],[-50,37],[17,1],[45,22],[45,43],[16,42],[1,43],[-6,55],[-18,74],[7,8],[32,4],[68,37],[41,39]],[[1594,6183],[-38,6],[-14,22],[35,37],[42,-11],[18,-20],[-7,-28],[-36,-6]],[[6918,6185],[40,-9],[9,-14],[46,5],[76,-4],[34,6],[31,-1],[24,-28]],[[6457,5237],[-40,-4],[-24,-30],[-36,-11],[-33,4],[-59,-5],[-35,-23],[-29,-28],[-51,-4],[-45,-14],[-44,1],[-30,-11],[-15,-15],[-20,0],[-11,19],[-19,11],[1,36],[-10,24],[-20,11],[-26,0],[-23,-38],[-30,-29],[-46,2],[-31,-16],[1,-10],[-63,-21],[-5,-20],[-40,-10],[-27,2],[-38,-12],[2,-18]],[[5611,5028],[-38,6],[-13,26],[20,3],[-2,14],[49,9],[35,16],[19,2],[7,38],[24,19],[-12,46],[3,23],[12,12],[-14,29],[1,15],[-20,27],[-17,37],[2,14],[-11,61],[-14,51],[-22,109],[-22,46],[-57,30],[-44,7],[-14,8],[1,25],[-9,32],[24,-22],[26,-7],[61,-2],[51,13],[62,29],[11,10],[36,2],[59,49],[-3,6],[20,39],[29,21]],[[6441,7110],[-5,14],[17,17],[5,-21],[-17,-10]],[[5880,7325],[51,-8],[34,1],[10,-17],[18,-8],[50,-4],[60,-19],[57,-14],[129,-27],[51,-24],[64,-19],[14,-8],[12,-31],[-5,-17],[-19,-20],[-63,-87],[-12,-10],[-29,-67],[-13,-18],[-34,-22],[-55,3],[-27,-19],[-4,-14],[7,-44],[-9,-16],[-34,-12],[-46,-24],[-13,-18],[-2,-35],[-16,-80],[-22,-38],[-34,-34],[-44,-66],[-25,-29],[-35,-25],[5,27],[-9,66],[-9,25],[-26,43],[-72,71],[-42,35],[-15,18],[1,13],[43,43],[63,80],[10,8],[13,41],[5,50],[-2,30],[-18,101],[-28,65],[-41,63],[-54,45],[88,37],[72,9]],[[6803,8488],[-8,15],[19,1],[-11,-16]],[[6435,9158],[-12,-11],[-19,19],[26,18],[15,-5],[-10,-21]],[[8005,8323],[-48,7],[-17,19],[-26,6],[-13,14],[-29,3],[-41,17],[-69,0],[-23,9],[-34,-13],[-20,9],[-48,-3],[-23,7],[-39,-5],[-87,-28],[-8,-10],[-86,-15],[-6,-27],[-60,-1],[-27,5],[-80,-3],[0,-20],[-43,-24],[-69,-4],[-28,13],[-34,-6],[-35,8],[-30,26],[-5,16],[-41,37],[-56,37],[-51,28]],[[6829,8425],[21,7],[-27,30],[6,15],[-5,29],[5,23],[14,1],[-13,20],[-100,26],[-64,11],[-21,9],[-14,24],[6,19],[18,17],[46,20],[68,38],[37,37],[23,31],[16,32],[0,23],[-41,-1],[-29,18],[1,23],[36,19],[37,5],[16,12],[21,-14],[36,13],[12,18],[26,102],[2,50],[11,22],[19,6],[6,23],[27,16],[51,8],[13,-16],[59,-4],[11,20],[-11,24],[10,20],[-7,15],[10,26],[48,4],[18,-29],[31,-8],[-1,-14],[41,-24],[39,-1],[94,-30],[42,-7],[11,-11],[25,20],[-1,15],[45,-15],[25,1],[8,-14],[-8,-25],[32,-8],[42,-33],[41,-1],[37,-11],[30,3],[8,17],[25,21],[14,-3],[10,-19],[30,-17],[14,5],[38,-30],[-17,-37],[27,5],[23,15],[73,-4],[65,1],[54,11],[45,-16],[46,-10],[19,-27],[40,-5],[48,-12],[1,-24],[-25,-26],[-2,-32],[17,-17],[2,-36],[10,-19],[-6,-37],[21,-18],[18,-29],[-34,-45],[2,-25],[-33,-12],[13,-12],[-6,-22],[-42,-6],[-26,-14],[2,-24],[-56,-11],[4,-17],[-24,-9],[-30,-27],[-36,-4],[-21,-15],[-5,-37],[-23,-33],[1,-23],[12,-17],[-41,-18],[-10,-17]],[[6770,7206],[-4,32],[15,15],[63,31],[50,16],[37,23],[33,9],[-4,15],[29,21],[-28,-8],[6,15],[25,18],[45,8],[47,-2],[14,17],[32,12],[-6,9],[-32,-4],[-48,4],[-52,-18],[-49,-33],[-64,-23],[-26,-20],[-52,-4],[-82,-36],[-22,-32],[-21,-16],[-22,-3],[-55,10],[-57,23],[-14,10],[-5,19],[-69,25],[7,16],[-18,32],[-56,29],[-7,14],[18,46],[17,17],[35,9],[13,22],[-1,15],[32,28],[70,36],[67,27],[63,12],[135,-3],[33,-41],[-3,-12],[42,4],[50,-15],[48,0],[-5,16],[18,8],[-55,36],[-38,10],[-3,32],[12,3],[4,27],[-31,1],[-20,-15],[-24,-1],[-11,9],[-28,61],[-13,17],[51,20],[32,5],[-5,15],[-53,-1]],[[6830,7818],[-18,34],[8,28],[22,34],[42,18],[18,14],[24,33],[16,1],[11,19],[84,-15],[28,2],[17,15],[37,-1],[35,-12],[22,-24],[18,1],[31,19],[50,4],[37,-7],[26,11],[46,-4],[20,-20],[60,-7],[21,-6],[53,1],[38,10],[24,-6],[73,2],[63,11],[19,-6],[74,-10],[6,-6],[52,1]],[[7887,7952],[34,-34],[16,-8],[-7,-20],[36,-23],[5,-49],[20,-51],[0,-36],[25,-28],[-25,-14],[-14,-22],[-44,-25],[-37,-1],[-79,-34],[16,-50],[-7,-6],[1,-31],[10,-25],[23,-15],[19,-29],[43,-10],[18,-29],[-10,-13],[20,-26],[18,-10],[-4,-33],[33,1],[42,-24],[14,-21],[32,-13],[26,-31],[20,-10],[36,-7],[2,-15],[-37,-61],[-14,-12],[-61,4],[-43,11],[-41,-21],[-49,-17],[-44,-4],[-42,-10],[-8,-9],[-102,-29],[-117,-25],[-18,-48],[10,-15],[-1,-20],[-63,-32]],[[6661,7158],[-28,1],[-33,15],[-18,25],[26,-9],[53,-32]],[[6927,7347],[-20,2],[7,11],[25,5],[-12,-18]],[[6832,7691],[-21,7],[10,19],[13,-1],[14,-24],[-16,-1]],[[6683,7793],[-24,9],[-14,16],[20,15],[12,-12],[6,-28]],[[6646,7844],[12,-10],[-18,-9],[-18,16],[14,13],[10,-10]],[[103,4274],[26,-22],[32,-3],[41,-18],[-43,-17],[-33,10],[-41,28],[-21,20],[39,2]],[[128,4324],[-36,13],[-2,8],[-35,27],[-26,31],[10,-2],[67,-35],[43,-26],[3,-9],[-24,-7]],[[107,4774],[15,-12],[-25,5],[10,7]],[[0,4780],[23,-11],[49,-5],[6,-14],[-17,-9],[-3,-38],[-15,-5],[-12,13],[-31,69]],[[71,4885],[10,-14],[-22,-14],[-30,8],[3,47],[9,3],[10,-19],[20,-11]],[[135,5326],[36,0],[10,-29],[-13,-60],[-20,-26],[8,-16],[27,-12],[-15,-8],[-10,-19],[38,-48],[-7,-8],[-37,4],[-22,11],[-6,25],[-12,13],[9,19],[-7,23],[-54,36],[7,27],[-22,20],[23,13],[2,12],[66,2],[10,10],[-11,11]],[[151,5403],[35,-15],[11,-16],[-12,-9],[-38,1],[-20,14],[-7,-6],[-40,13],[-1,12],[34,-5],[38,11]],[[1688,7585],[-33,5],[-22,19],[-2,16],[-19,22],[24,11],[-13,11],[7,16],[-15,8],[4,18],[26,14],[61,-54],[9,-21],[20,-20],[-1,-13],[-46,-32]],[[6109,8203],[20,-10],[-11,-13],[22,-19],[22,-2],[35,-38],[0,-27],[-11,-53],[50,-12],[16,13],[26,-2],[21,-33],[0,-22],[45,-18],[4,-10],[53,-32],[15,0],[25,-25],[0,-38],[17,-14],[29,-46],[16,-43],[18,-25],[-6,-10],[12,-24],[-27,-29],[-23,-10],[-2,-23],[-14,-18],[-23,-12],[-28,-1],[-39,-16],[-12,-25],[-61,-55],[-30,-6],[-18,-14],[-6,-32],[-26,-9],[-49,-8],[-40,-3],[-38,-9],[5,-17],[-12,-9],[-40,13],[-15,-7],[-44,2],[-11,-4],[-166,0],[-63,5],[-30,7],[-3,11],[11,36],[3,36],[20,80],[12,66],[5,78],[-1,65],[-7,85],[-10,47],[-1,49],[20,-15],[29,11],[36,41],[2,14],[21,28],[3,32],[-12,82],[5,23],[17,8],[62,-5],[38,7],[112,8],[32,-4]],[[6136,8186],[-17,21],[27,-13],[-10,-8]],[[6567,8064],[-16,-46],[2,-31],[-27,-17],[-26,-3],[-65,49],[-74,73],[-30,20],[-30,45],[-5,61],[22,56],[16,4],[113,-100],[61,-41],[61,-48],[-2,-22]],[[6367,8689],[-35,-37],[2,-10],[-58,-44],[-13,-30],[-25,-26],[-67,-17],[-19,-36],[-43,-52],[3,-27],[53,-18],[3,-22],[-32,-9],[-59,-34],[-2,-23],[-17,-15],[-2,-19],[-41,-5],[-85,-38],[-46,1],[-31,-20],[-20,1],[22,39],[20,18],[-1,51],[-13,58],[11,11],[1,39],[14,9],[18,-10],[60,-1],[26,19],[20,26],[27,46],[6,41],[51,5],[47,50],[44,26],[5,29],[13,24],[14,7],[5,22],[25,20],[17,25],[17,-6],[2,-16],[64,-25],[19,-27]],[[2183,9400],[22,-9],[10,-31],[-22,-2],[-15,-15],[-33,7],[-5,26],[23,19],[20,5]],[[2458,9520],[-5,-9],[-39,21],[44,-12]],[[2164,9680],[7,-1],[33,-37],[11,-30],[-32,-9],[-11,-12],[-26,-4],[4,-18],[100,-4],[-9,-32],[49,-4],[21,-26],[21,-51],[0,-17],[-32,1],[-34,-14],[-32,0],[-2,26],[-22,40],[-24,3],[-8,13],[-59,17],[-11,8],[9,17],[-46,8],[-19,-7],[-69,17],[-22,35],[-24,23],[3,17],[49,-6],[26,-17],[38,-3],[18,21],[-19,9],[34,25],[-7,9],[38,-4],[27,10],[20,-3]],[[1863,9693],[27,-12],[-17,-15],[2,-12],[-49,-3],[4,15],[17,6],[16,21]],[[2362,9903],[44,-5],[22,-14],[-9,-16],[20,-16],[43,-16],[39,11],[10,-24],[-32,-19],[-35,-8],[-35,3],[-5,-25],[16,-16],[89,-22],[-22,-6],[12,-28],[12,-6],[-28,-29],[-26,16],[8,5],[-22,21],[-71,13],[-13,16],[-22,2],[-56,33],[-8,16],[-70,-4],[1,-38],[31,-23],[30,-40],[-5,-16],[35,-25],[-7,-18],[-47,22],[-19,15],[-46,11],[-19,46],[-28,9],[-20,-12],[-37,9],[-40,-6],[-50,27],[-7,12],[44,8],[29,-4],[4,-8],[36,-13],[22,12],[-15,10],[-12,34],[-12,9],[-47,2],[14,31],[15,8],[-1,19],[29,-1],[38,-9],[62,6],[20,-4],[-3,18],[67,2],[5,25],[59,9],[13,-9]],[[2529,9999],[16,-6],[3,-26],[-12,-2],[-23,31],[16,3]],[[8005,8323],[7,-28],[14,-6],[7,-29],[-15,-28],[18,-25],[2,-18],[54,-30],[6,-32],[-7,-4],[-56,-5],[-18,-20],[-22,-8],[-52,-32],[-27,-12],[14,-51],[-9,-17],[-34,-26]],[[6830,7818],[-43,-25],[-39,-12],[-34,-1],[-24,9],[-9,36],[-16,14],[-9,31],[-15,10],[11,20],[-18,15],[-23,-8],[-6,21],[17,26],[21,18],[-49,14],[-20,39],[15,30],[0,32],[-14,26],[10,8],[-30,14],[-92,69],[-13,25],[-54,45],[-24,39],[-12,39],[4,38],[23,33],[9,32],[56,32],[13,27],[14,10],[36,-16],[7,-26],[89,0],[18,20],[37,-1],[27,-15],[13,-23],[48,-31],[56,-13],[19,6]],[[6809,8443],[-20,8],[-5,25],[25,-33]],[[6709,8535],[48,-29],[19,-50],[-33,12],[-42,35],[-5,30],[13,2]],[[9688,4479],[-49,-68],[-33,-60],[-29,-7],[6,-26],[-7,-17],[-48,-18],[-29,-28],[-43,3]],[[9456,4258],[-17,12],[-53,-8],[-5,6],[-75,2]],[[9306,4270],[-20,17],[-29,3],[20,47],[-10,47],[2,12],[-64,6],[-49,15],[-26,-39],[-38,-8],[-13,15],[-28,4],[-6,12],[-44,4],[-11,-12],[-40,6],[-13,13],[-41,11],[-16,23]],[[8880,4446],[4,23],[27,27],[23,31],[37,33],[25,4],[17,-9],[60,-17],[20,10],[-13,7],[6,24],[-4,37],[20,23],[6,21],[14,15]],[[9122,4675],[25,-15],[11,-17],[37,-17],[15,-31],[23,-8],[27,-21],[38,-7],[18,-16],[69,-13],[40,2],[37,-15],[2,6],[47,3],[74,0],[5,-12],[36,-14],[13,-12],[49,-9]],[[9083,3882],[38,42],[24,36],[37,31],[64,-3],[12,7],[0,19],[40,13],[18,1],[-8,14],[3,21],[-21,-2],[23,26],[21,3],[-10,31],[-16,23],[-35,18],[-18,0],[-8,27],[7,16],[14,0],[1,33],[14,4],[23,28]],[[9456,4258],[41,-46],[14,5],[27,-32],[21,4],[8,-20],[37,-7],[-5,-13],[12,-30],[39,10],[8,-13],[-37,-21],[-18,2],[6,-31],[-19,-25],[-1,-30],[20,-24],[-5,-43],[-19,-19],[-68,-4],[-63,-23],[-37,-29],[-10,-24],[10,-20],[57,-25],[55,-34],[34,-33],[15,-41],[-31,-21],[-29,-6],[-112,-13],[-79,-14],[-13,22],[-49,7],[-53,1],[-14,8],[-55,0]],[[8840,4376],[0,27],[40,43]],[[8877,4909],[25,-33],[17,-40]],[[8919,4836],[44,-18],[57,-39],[-15,-14],[6,-25],[35,-5],[36,-25],[40,-35]],[[8919,4836],[68,0],[27,-11],[55,-1],[23,-10],[24,7],[24,-6],[61,-2],[29,4],[24,-15],[56,-3],[11,4],[48,-9],[41,-27],[63,-28],[33,-21],[35,-15],[94,-7],[47,2],[32,7],[43,17],[52,13]],[[9809,4735],[-45,-73],[-18,-51],[6,-39],[-33,-54],[-1,-44],[-30,5]],[[9038,5080],[40,27],[10,33],[15,8],[36,3],[22,-7],[30,1],[16,16],[68,25],[44,-8],[28,5],[60,44],[37,46],[36,-4],[53,0],[31,-10],[25,-1],[71,30],[34,0],[33,-19],[56,-12],[25,-43],[14,-9],[49,-6],[43,-26],[-3,-34],[6,-16],[42,-6],[-18,-54],[20,-29],[-14,-29],[16,-14],[-4,-36],[29,-3],[11,-29],[-3,-11],[-34,-21],[-11,-26],[-26,-14],[-28,-29],[-53,-28],[8,-22],[-26,-27],[-17,-10]],[[6470,4089],[-2,-35],[-38,-28],[-20,-32],[-6,-38],[-7,-9],[-69,-25],[-14,-32],[9,-15],[-32,-74],[-19,-22]],[[6272,3779],[-29,-25],[-38,-18],[-45,-2],[-49,-34],[-34,-4],[11,-25],[-19,-39],[-43,0],[-9,-27],[-37,-2],[-29,-32],[-51,-3],[-7,-10],[-85,-25]],[[5808,3533],[-35,99],[-51,125],[-59,125],[-54,98],[-17,41],[-6,39],[-17,50]],[[5569,4110],[71,59],[-62,63],[-4,17],[35,67],[-4,30],[73,8],[142,21]],[[5820,4375],[51,-13],[45,10],[36,26],[45,-8],[11,-11],[28,8],[31,-5],[15,4],[39,-15],[15,3],[19,-25],[27,-6],[39,-16],[-10,-20],[17,-10],[29,-3],[8,-17],[-7,-22],[76,-33],[0,-18],[18,-14],[7,-19],[-24,-19],[8,-18],[21,7],[20,-15],[29,-3],[15,-19],[42,-15]],[[5921,3250],[-39,62],[0,12],[-22,81],[-29,76],[-23,52]],[[6272,3779],[8,-17],[-11,-21],[1,-23],[25,-11],[41,6],[18,-22],[22,-11],[-15,-14],[-38,-17],[3,-11],[29,-4],[13,-9],[24,7],[27,-1],[36,-12],[49,7],[44,-41],[1,-18],[18,-23],[-38,-16],[13,-19],[49,-5],[32,-36],[18,-7],[45,-33]],[[6470,4089],[26,36],[-1,32],[32,45],[32,36],[48,-1],[39,13],[30,29],[23,-1],[37,-22],[25,2],[17,-8],[66,18]],[[5820,4375],[-18,13],[-17,33],[-18,19],[-11,117],[-16,30],[-22,14],[-82,35],[30,12],[49,-4],[32,-10],[18,5],[10,25],[62,9],[6,-9],[37,0],[14,20],[16,4],[14,30],[58,-3],[19,11],[36,7],[34,25],[32,1],[10,14],[50,26],[4,12]],[[6167,4811],[12,-14],[35,-9],[26,-27],[45,-2],[70,-19],[37,-19],[20,-23],[22,-11],[1,20],[30,-1],[7,-14],[14,6],[53,-31],[10,14],[21,-9],[59,16],[13,14],[22,-11],[-10,-11],[21,-3],[31,-23],[38,-10],[34,-3],[8,12],[18,-6],[19,11],[24,3],[-2,10],[46,22],[26,-8],[30,3],[2,-28],[-20,-7],[20,-15],[5,-36],[29,-12],[22,-21],[31,-4],[-8,-23],[12,-7]],[[6167,4811],[22,14],[14,19],[-10,13],[16,39],[28,19],[0,17],[30,18],[13,25],[40,25],[-5,15],[15,24],[26,12],[31,28],[91,30],[19,23],[50,44]],[[5569,4110],[-57,124],[-18,76],[-33,89],[-72,164],[-36,48],[-26,48],[4,31],[15,46],[47,65],[21,44],[30,18],[22,-4],[0,-16],[30,-30],[99,19],[37,20],[21,27],[15,43],[-22,9],[-6,24],[-17,13],[10,32],[-5,26],[-17,2]]],"transform":{"scale":[0.0001075542806280605,0.00017348116921692204],"translate":[97.63227880200009,7.744318010000029]},"objects":{"Phangnga":{"type":"GeometryCollection","geometries":[{"arcs":[[0]],"type":"Polygon","properties":{"Shape_Leng":0.122338246459,"Shape_Area":0.00043263051033,"ADM3_EN":"Thai Chang","ADM3_TH":"ท้ายช้าง","ADM3_PCODE":"TH820101","ADM2_EN":"Mueang Phangnga","ADM2_TH":"เมืองพังงา","ADM2_PCODE":"TH8201","ADM1_EN":"Phangnga","ADM1_TH":"พังงา","ADM1_PCODE":"TH82","ADM0_EN":"Thailand","ADM0_TH":"ประเทศไทย","ADM0_PCODE":"TH"}},{"arcs":[[1,2,3,4,5,6]],"type":"Polygon","properties":{"Shape_Leng":0.365892538235,"Shape_Area":0.00543601331941,"ADM3_EN":"Nop Pring","ADM3_TH":"นบปริง","ADM3_PCODE":"TH820102","ADM2_EN":"Mueang Phangnga","ADM2_TH":"เมืองพังงา","ADM2_PCODE":"TH8201","ADM1_EN":"Phangnga","ADM1_TH":"พังงา","ADM1_PCODE":"TH82","ADM0_EN":"Thailand","ADM0_TH":"ประเทศไทย","ADM0_PCODE":"TH"}},{"arcs":[[-5,7,8,9,10],[-1]],"type":"Polygon","properties":{"Shape_Leng":0.420001597329,"Shape_Area":0.00252413908421,"ADM3_EN":"Tham Nam Phut","ADM3_TH":"ถ้ำน้ำผุด","ADM3_PCODE":"TH820103","ADM2_EN":"Mueang Phangnga","ADM2_TH":"เมืองพังงา","ADM2_PCODE":"TH8201","ADM1_EN":"Phangnga","ADM1_TH":"พังงา","ADM1_PCODE":"TH82","ADM0_EN":"Thailand","ADM0_TH":"ประเทศไทย","ADM0_PCODE":"TH"}},{"arcs":[[[-4,11,12,13,14,15,-8]],[[16]],[[17]],[[18]]],"type":"MultiPolygon","properties":{"Shape_Leng":0.558057749548,"Shape_Area":0.0081914690512,"ADM3_EN":"Bang Toei","ADM3_TH":"บางเตย","ADM3_PCODE":"TH820104","ADM2_EN":"Mueang Phangnga","ADM2_TH":"เมืองพังงา","ADM2_PCODE":"TH8201","ADM1_EN":"Phangnga","ADM1_TH":"พังงา","ADM1_PCODE":"TH82","ADM0_EN":"Thailand","ADM0_TH":"ประเทศไทย","ADM0_PCODE":"TH"}},{"arcs":[[-10,19,20,21,22,23]],"type":"Polygon","properties":{"Shape_Leng":0.508151389088,"Shape_Area":0.00426377523754,"ADM3_EN":"Tak Daet","ADM3_TH":"ตากแดด","ADM3_PCODE":"TH820105","ADM2_EN":"Mueang Phangnga","ADM2_TH":"เมืองพังงา","ADM2_PCODE":"TH8201","ADM1_EN":"Phangnga","ADM1_TH":"พังงา","ADM1_PCODE":"TH82","ADM0_EN":"Thailand","ADM0_TH":"ประเทศไทย","ADM0_PCODE":"TH"}},{"arcs":[[-2,24,25,26,27,28,29]],"type":"Polygon","properties":{"Shape_Leng":0.398487079335,"Shape_Area":0.0061739717224,"ADM3_EN":"Song Phraek","ADM3_TH":"สองแพรก","ADM3_PCODE":"TH820106","ADM2_EN":"Mueang Phangnga","ADM2_TH":"เมืองพังงา","ADM2_PCODE":"TH8201","ADM1_EN":"Phangnga","ADM1_TH":"พังงา","ADM1_PCODE":"TH82","ADM0_EN":"Thailand","ADM0_TH":"ประเทศไทย","ADM0_PCODE":"TH"}},{"arcs":[[-7,30,-23,31,32,33,34,35,-25]],"type":"Polygon","properties":{"Shape_Leng":0.639316640822,"Shape_Area":0.0108733290703,"ADM3_EN":"Thung Kha Ngok","ADM3_TH":"ทุ่งคาโงก","ADM3_PCODE":"TH820107","ADM2_EN":"Mueang Phangnga","ADM2_TH":"เมืองพังงา","ADM2_PCODE":"TH8201","ADM1_EN":"Phangnga","ADM1_TH":"พังงา","ADM1_PCODE":"TH82","ADM0_EN":"Thailand","ADM0_TH":"ประเทศไทย","ADM0_PCODE":"TH"}},{"arcs":[[[-9,-16,36,37,-20]],[[38]],[[39]]],"type":"MultiPolygon","properties":{"Shape_Leng":0.431702838445,"Shape_Area":0.00417368703149,"ADM3_EN":"Ko Panyi","ADM3_TH":"เกาะปันหยี","ADM3_PCODE":"TH820108","ADM2_EN":"Mueang Phangnga","ADM2_TH":"เมืองพังงา","ADM2_PCODE":"TH8201","ADM1_EN":"Phangnga","ADM1_TH":"พังงา","ADM1_PCODE":"TH82","ADM0_EN":"Thailand","ADM0_TH":"ประเทศไทย","ADM0_PCODE":"TH"}},{"arcs":[[-6,-11,-24,-31]],"type":"Polygon","properties":{"Shape_Leng":0.299433431476,"Shape_Area":0.00339829385391,"ADM3_EN":"Pa Ko","ADM3_TH":"ป่ากอ","ADM3_PCODE":"TH820109","ADM2_EN":"Mueang Phangnga","ADM2_TH":"เมืองพังงา","ADM2_PCODE":"TH8201","ADM1_EN":"Phangnga","ADM1_TH":"พังงา","ADM1_PCODE":"TH82","ADM0_EN":"Thailand","ADM0_TH":"ประเทศไทย","ADM0_PCODE":"TH"}},{"arcs":[[[40]],[[41]],[[42]],[[43]],[[44]],[[45]],[[46]],[[47]],[[48]],[[49]],[[50]],[[51]],[[52]],[[53]]],"type":"MultiPolygon","properties":{"Shape_Leng":0.883232253961,"Shape_Area":0.00381863958262,"ADM3_EN":"Ko Yao Noi","ADM3_TH":"เกาะยาวน้อย","ADM3_PCODE":"TH820201","ADM2_EN":"Ko Yao","ADM2_TH":"เกาะยาว","ADM2_PCODE":"TH8202","ADM1_EN":"Phangnga","ADM1_TH":"พังงา","ADM1_PCODE":"TH82","ADM0_EN":"Thailand","ADM0_TH":"ประเทศไทย","ADM0_PCODE":"TH"}},{"arcs":[[[54]],[[55,56]]],"type":"MultiPolygon","properties":{"Shape_Leng":0.397826923736,"Shape_Area":0.0033714104887,"ADM3_EN":"Ko Yao Yai","ADM3_TH":"เกาะยาวใหญ่","ADM3_PCODE":"TH820202","ADM2_EN":"Ko Yao","ADM2_TH":"เกาะยาว","ADM2_PCODE":"TH8202","ADM1_EN":"Phangnga","ADM1_TH":"พังงา","ADM1_PCODE":"TH82","ADM0_EN":"Thailand","ADM0_TH":"ประเทศไทย","ADM0_PCODE":"TH"}},{"arcs":[[[-56,57]],[[58]],[[59]],[[60]],[[61]],[[62]]],"type":"MultiPolygon","properties":{"Shape_Leng":0.519461158201,"Shape_Area":0.0041934241432,"ADM3_EN":"Phru Nai","ADM3_TH":"พรุใน","ADM3_PCODE":"TH820203","ADM2_EN":"Ko Yao","ADM2_TH":"เกาะยาว","ADM2_PCODE":"TH8202","ADM1_EN":"Phangnga","ADM1_TH":"พังงา","ADM1_PCODE":"TH82","ADM0_EN":"Thailand","ADM0_TH":"ประเทศไทย","ADM0_PCODE":"TH"}},{"arcs":[[-26,-36,63,64,65,66]],"type":"Polygon","properties":{"Shape_Leng":0.480971930945,"Shape_Area":0.00664032832891,"ADM3_EN":"Kapong","ADM3_TH":"กะปง","ADM3_PCODE":"TH820301","ADM2_EN":"Kapong","ADM2_TH":"กะปง","ADM2_PCODE":"TH8203","ADM1_EN":"Phangnga","ADM1_TH":"พังงา","ADM1_PCODE":"TH82","ADM0_EN":"Thailand","ADM0_TH":"ประเทศไทย","ADM0_PCODE":"TH"}},{"arcs":[[-66,67,68,69]],"type":"Polygon","properties":{"Shape_Leng":0.510116015541,"Shape_Area":0.00594498966957,"ADM3_EN":"Tha Na","ADM3_TH":"ท่านา","ADM3_PCODE":"TH820302","ADM2_EN":"Kapong","ADM2_TH":"กะปง","ADM2_PCODE":"TH8203","ADM1_EN":"Phangnga","ADM1_TH":"พังงา","ADM1_PCODE":"TH82","ADM0_EN":"Thailand","ADM0_TH":"ประเทศไทย","ADM0_PCODE":"TH"}},{"arcs":[[-65,70,71,72,73,74,-68]],"type":"Polygon","properties":{"Shape_Leng":0.461199568533,"Shape_Area":0.00879572028186,"ADM3_EN":"Mo","ADM3_TH":"เหมาะ","ADM3_PCODE":"TH820303","ADM2_EN":"Kapong","ADM2_TH":"กะปง","ADM2_PCODE":"TH8203","ADM1_EN":"Phangnga","ADM1_TH":"พังงา","ADM1_PCODE":"TH82","ADM0_EN":"Thailand","ADM0_TH":"ประเทศไทย","ADM0_PCODE":"TH"}},{"arcs":[[-27,-67,-70,75,76,77]],"type":"Polygon","properties":{"Shape_Leng":0.706500971055,"Shape_Area":0.012469229561,"ADM3_EN":"Le","ADM3_TH":"เหล","ADM3_PCODE":"TH820304","ADM2_EN":"Kapong","ADM2_TH":"กะปง","ADM2_PCODE":"TH8203","ADM1_EN":"Phangnga","ADM1_TH":"พังงา","ADM1_PCODE":"TH82","ADM0_EN":"Thailand","ADM0_TH":"ประเทศไทย","ADM0_PCODE":"TH"}},{"arcs":[[-77,78,79,80]],"type":"Polygon","properties":{"Shape_Leng":0.65625504174,"Shape_Area":0.0159859649012,"ADM3_EN":"Rommani","ADM3_TH":"รมณีย์","ADM3_PCODE":"TH820305","ADM2_EN":"Kapong","ADM2_TH":"กะปง","ADM2_PCODE":"TH8203","ADM1_EN":"Phangnga","ADM1_TH":"พังงา","ADM1_PCODE":"TH82","ADM0_EN":"Thailand","ADM0_TH":"ประเทศไทย","ADM0_PCODE":"TH"}},{"arcs":[[-22,81,82,83,-32]],"type":"Polygon","properties":{"Shape_Leng":0.323317285694,"Shape_Area":0.00431842645896,"ADM3_EN":"Tham","ADM3_TH":"ถ้ำ","ADM3_PCODE":"TH820401","ADM2_EN":"Takua Thung","ADM2_TH":"ตะกั่วทุ่ง","ADM2_PCODE":"TH8204","ADM1_EN":"Phangnga","ADM1_TH":"พังงา","ADM1_PCODE":"TH82","ADM0_EN":"Thailand","ADM0_TH":"ประเทศไทย","ADM0_PCODE":"TH"}},{"arcs":[[-21,-38,84,85,-82]],"type":"Polygon","properties":{"Shape_Leng":0.507663225062,"Shape_Area":0.00570696188591,"ADM3_EN":"Krasom","ADM3_TH":"กระโสม","ADM3_PCODE":"TH820402","ADM2_EN":"Takua Thung","ADM2_TH":"ตะกั่วทุ่ง","ADM2_PCODE":"TH8204","ADM1_EN":"Phangnga","ADM1_TH":"พังงา","ADM1_PCODE":"TH82","ADM0_EN":"Thailand","ADM0_TH":"ประเทศไทย","ADM0_PCODE":"TH"}},{"arcs":[[[-83,-86,86,87,88,89,90]],[[91]],[[92]],[[93]],[[94]],[[95]],[[96]],[[97]]],"type":"MultiPolygon","properties":{"Shape_Leng":0.754525327128,"Shape_Area":0.00804769702225,"ADM3_EN":"Kalai","ADM3_TH":"กะไหล","ADM3_PCODE":"TH820403","ADM2_EN":"Takua Thung","ADM2_TH":"ตะกั่วทุ่ง","ADM2_PCODE":"TH8204","ADM1_EN":"Phangnga","ADM1_TH":"พังงา","ADM1_PCODE":"TH82","ADM0_EN":"Thailand","ADM0_TH":"ประเทศไทย","ADM0_PCODE":"TH"}},{"arcs":[[[-88,98,99,100]],[[101]]],"type":"MultiPolygon","properties":{"Shape_Leng":0.451250388341,"Shape_Area":0.00481282103452,"ADM3_EN":"Tha Yu","ADM3_TH":"ท่าอยู่","ADM3_PCODE":"TH820404","ADM2_EN":"Takua Thung","ADM2_TH":"ตะกั่วทุ่ง","ADM2_PCODE":"TH8204","ADM1_EN":"Phangnga","ADM1_TH":"พังงา","ADM1_PCODE":"TH82","ADM0_EN":"Thailand","ADM0_TH":"ประเทศไทย","ADM0_PCODE":"TH"}},{"arcs":[[-89,-101,102,103,104,105]],"type":"Polygon","properties":{"Shape_Leng":0.603675175628,"Shape_Area":0.00592826733027,"ADM3_EN":"Lo Yung","ADM3_TH":"หล่อยูง","ADM3_PCODE":"TH820405","ADM2_EN":"Takua Thung","ADM2_TH":"ตะกั่วทุ่ง","ADM2_PCODE":"TH8204","ADM1_EN":"Phangnga","ADM1_TH":"พังงา","ADM1_PCODE":"TH82","ADM0_EN":"Thailand","ADM0_TH":"ประเทศไทย","ADM0_PCODE":"TH"}},{"arcs":[[-105,106,107]],"type":"Polygon","properties":{"Shape_Leng":0.428485590443,"Shape_Area":0.00603055414374,"ADM3_EN":"Khok Kloi","ADM3_TH":"โคกกลอย","ADM3_PCODE":"TH820406","ADM2_EN":"Takua Thung","ADM2_TH":"ตะกั่วทุ่ง","ADM2_PCODE":"TH8204","ADM1_EN":"Phangnga","ADM1_TH":"พังงา","ADM1_PCODE":"TH82","ADM0_EN":"Thailand","ADM0_TH":"ประเทศไทย","ADM0_PCODE":"TH"}},{"arcs":[[[-100,108,-103]],[[109]],[[110]],[[111]],[[112]],[[113]],[[114]],[[115]],[[116]]],"type":"MultiPolygon","properties":{"Shape_Leng":0.663037179626,"Shape_Area":0.00559440080855,"ADM3_EN":"Khlong Khian","ADM3_TH":"คลองเคียน","ADM3_PCODE":"TH820407","ADM2_EN":"Takua Thung","ADM2_TH":"ตะกั่วทุ่ง","ADM2_PCODE":"TH8204","ADM1_EN":"Phangnga","ADM1_TH":"พังงา","ADM1_PCODE":"TH82","ADM0_EN":"Thailand","ADM0_TH":"ประเทศไทย","ADM0_PCODE":"TH"}},{"arcs":[[117,118,119]],"type":"Polygon","properties":{"Shape_Leng":0.167787741064,"Shape_Area":0.000268722909421,"ADM3_EN":"Takua Pa","ADM3_TH":"ตะกั่วป่า","ADM3_PCODE":"TH820501","ADM2_EN":"Takua Pa","ADM2_TH":"ตะกั่วป่า","ADM2_PCODE":"TH8205","ADM1_EN":"Phangnga","ADM1_TH":"พังงา","ADM1_PCODE":"TH82","ADM0_EN":"Thailand","ADM0_TH":"ประเทศไทย","ADM0_PCODE":"TH"}},{"arcs":[[-80,120,-120,121,122,123,124,125]],"type":"Polygon","properties":{"Shape_Leng":0.71773014961,"Shape_Area":0.0157107010192,"ADM3_EN":"Bang Nai Si","ADM3_TH":"บางนายสี","ADM3_PCODE":"TH820502","ADM2_EN":"Takua Pa","ADM2_TH":"ตะกั่วป่า","ADM2_PCODE":"TH8205","ADM1_EN":"Phangnga","ADM1_TH":"พังงา","ADM1_PCODE":"TH82","ADM0_EN":"Thailand","ADM0_TH":"ประเทศไทย","ADM0_PCODE":"TH"}},{"arcs":[[-74,126,127,-122,-119,128,129]],"type":"Polygon","properties":{"Shape_Leng":0.441582837959,"Shape_Area":0.00513232451493,"ADM3_EN":"Bang Sai","ADM3_TH":"บางไทร","ADM3_PCODE":"TH820503","ADM2_EN":"Takua Pa","ADM2_TH":"ตะกั่วป่า","ADM2_PCODE":"TH8205","ADM1_EN":"Phangnga","ADM1_TH":"พังงา","ADM1_PCODE":"TH82","ADM0_EN":"Thailand","ADM0_TH":"ประเทศไทย","ADM0_PCODE":"TH"}},{"arcs":[[[-123,-128,130,131]],[[132]]],"type":"MultiPolygon","properties":{"Shape_Leng":0.393003895715,"Shape_Area":0.00507138897701,"ADM3_EN":"Bang Muang","ADM3_TH":"บางม่วง","ADM3_PCODE":"TH820504","ADM2_EN":"Takua Pa","ADM2_TH":"ตะกั่วป่า","ADM2_PCODE":"TH8205","ADM1_EN":"Phangnga","ADM1_TH":"พังงา","ADM1_PCODE":"TH82","ADM0_EN":"Thailand","ADM0_TH":"ประเทศไทย","ADM0_PCODE":"TH"}},{"arcs":[[-69,-75,-130,133,-76]],"type":"Polygon","properties":{"Shape_Leng":0.239412333105,"Shape_Area":0.00261515595454,"ADM3_EN":"Tamtua","ADM3_TH":"ตำตัว","ADM3_PCODE":"TH820505","ADM2_EN":"Takua Pa","ADM2_TH":"ตะกั่วป่า","ADM2_PCODE":"TH8205","ADM1_EN":"Phangnga","ADM1_TH":"พังงา","ADM1_PCODE":"TH82","ADM0_EN":"Thailand","ADM0_TH":"ประเทศไทย","ADM0_PCODE":"TH"}},{"arcs":[[-79,-134,-129,-118,-121]],"type":"Polygon","properties":{"Shape_Leng":0.29312401097,"Shape_Area":0.00300487070589,"ADM3_EN":"Khok Khian","ADM3_TH":"โคกเคียน","ADM3_PCODE":"TH820506","ADM2_EN":"Takua Pa","ADM2_TH":"ตะกั่วป่า","ADM2_PCODE":"TH8205","ADM1_EN":"Phangnga","ADM1_TH":"พังงา","ADM1_PCODE":"TH82","ADM0_EN":"Thailand","ADM0_TH":"ประเทศไทย","ADM0_PCODE":"TH"}},{"arcs":[[-73,134,135,-131,-127]],"type":"Polygon","properties":{"Shape_Leng":0.552561465081,"Shape_Area":0.0101237913815,"ADM3_EN":"Khuek Khak","ADM3_TH":"คึกคัก","ADM3_PCODE":"TH820507","ADM2_EN":"Takua Pa","ADM2_TH":"ตะกั่วป่า","ADM2_PCODE":"TH8205","ADM1_EN":"Phangnga","ADM1_TH":"พังงา","ADM1_PCODE":"TH82","ADM0_EN":"Thailand","ADM0_TH":"ประเทศไทย","ADM0_PCODE":"TH"}},{"arcs":[[[136]],[[137]]],"type":"MultiPolygon","properties":{"Shape_Leng":0.408759447349,"Shape_Area":0.00564796799254,"ADM3_EN":"Ko Kho Khao","ADM3_TH":"เกาะคอเขา","ADM3_PCODE":"TH820508","ADM2_EN":"Takua Pa","ADM2_TH":"ตะกั่วป่า","ADM2_PCODE":"TH8205","ADM1_EN":"Phangnga","ADM1_TH":"พังงา","ADM1_PCODE":"TH82","ADM0_EN":"Thailand","ADM0_TH":"ประเทศไทย","ADM0_PCODE":"TH"}},{"arcs":[[[138]],[[139]],[[140,141]]],"type":"MultiPolygon","properties":{"Shape_Leng":0.751570247527,"Shape_Area":0.0198265861038,"ADM3_EN":"Khura","ADM3_TH":"คุระ","ADM3_PCODE":"TH820601","ADM2_EN":"Khura Buri","ADM2_TH":"คุระบุรี","ADM2_PCODE":"TH8206","ADM1_EN":"Phangnga","ADM1_TH":"พังงา","ADM1_PCODE":"TH82","ADM0_EN":"Thailand","ADM0_TH":"ประเทศไทย","ADM0_PCODE":"TH"}},{"arcs":[[[-125,142,143,144]],[[145]],[[146]],[[147]],[[148]],[[149]]],"type":"MultiPolygon","properties":{"Shape_Leng":1.01369744341,"Shape_Area":0.0216022854149,"ADM3_EN":"Bang Wan","ADM3_TH":"บางวัน","ADM3_PCODE":"TH820602","ADM2_EN":"Khura Buri","ADM2_TH":"คุระบุรี","ADM2_PCODE":"TH8206","ADM1_EN":"Phangnga","ADM1_TH":"พังงา","ADM1_PCODE":"TH82","ADM0_EN":"Thailand","ADM0_TH":"ประเทศไทย","ADM0_PCODE":"TH"}},{"arcs":[[[150]],[[151]],[[152]],[[153]],[[154]],[[155]],[[156]],[[157]],[[158]],[[159]],[[160]],[[161]],[[162]],[[163]],[[164]],[[165]],[[166]],[[167]]],"type":"MultiPolygon","properties":{"Shape_Leng":1.81506112007,"Shape_Area":0.0135866835765,"ADM3_EN":"Ko Phra Thong","ADM3_TH":"เกาะพระทอง","ADM3_PCODE":"TH820603","ADM2_EN":"Khura Buri","ADM2_TH":"คุระบุรี","ADM2_PCODE":"TH8206","ADM1_EN":"Phangnga","ADM1_TH":"พังงา","ADM1_PCODE":"TH82","ADM0_EN":"Thailand","ADM0_TH":"ประเทศไทย","ADM0_PCODE":"TH"}},{"arcs":[[[-141,168,-144,169]],[[170]],[[171]]],"type":"MultiPolygon","properties":{"Shape_Leng":0.691609342069,"Shape_Area":0.0122640676892,"ADM3_EN":"Mae Nang Khao","ADM3_TH":"แม่นางขาว","ADM3_PCODE":"TH820605","ADM2_EN":"Khura Buri","ADM2_TH":"คุระบุรี","ADM2_PCODE":"TH8206","ADM1_EN":"Phangnga","ADM1_TH":"พังงา","ADM1_PCODE":"TH82","ADM0_EN":"Thailand","ADM0_TH":"ประเทศไทย","ADM0_PCODE":"TH"}},{"arcs":[[172,173,174,175,176]],"type":"Polygon","properties":{"Shape_Leng":0.307518858664,"Shape_Area":0.00298432619415,"ADM3_EN":"Thap Put","ADM3_TH":"ทับปุด","ADM3_PCODE":"TH820701","ADM2_EN":"Thap Put","ADM2_TH":"ทับปุด","ADM2_PCODE":"TH8207","ADM1_EN":"Phangnga","ADM1_TH":"พังงา","ADM1_PCODE":"TH82","ADM0_EN":"Thailand","ADM0_TH":"ประเทศไทย","ADM0_PCODE":"TH"}},{"arcs":[[-14,177,-174,178]],"type":"Polygon","properties":{"Shape_Leng":0.373002119574,"Shape_Area":0.00387856452863,"ADM3_EN":"Marui","ADM3_TH":"มะรุ่ย","ADM3_PCODE":"TH820702","ADM2_EN":"Thap Put","ADM2_TH":"ทับปุด","ADM2_PCODE":"TH8207","ADM1_EN":"Phangnga","ADM1_TH":"พังงา","ADM1_PCODE":"TH82","ADM0_EN":"Thailand","ADM0_TH":"ประเทศไทย","ADM0_PCODE":"TH"}},{"arcs":[[-13,179,-175,-178]],"type":"Polygon","properties":{"Shape_Leng":0.32307619869,"Shape_Area":0.00356032913267,"ADM3_EN":"Bo Saen","ADM3_TH":"บ่อแสน","ADM3_PCODE":"TH820703","ADM2_EN":"Thap Put","ADM2_TH":"ทับปุด","ADM2_PCODE":"TH8207","ADM1_EN":"Phangnga","ADM1_TH":"พังงา","ADM1_PCODE":"TH82","ADM0_EN":"Thailand","ADM0_TH":"ประเทศไทย","ADM0_PCODE":"TH"}},{"arcs":[[-3,-30,180,181,-176,-180,-12]],"type":"Polygon","properties":{"Shape_Leng":0.281615605955,"Shape_Area":0.0030965704137,"ADM3_EN":"Tham Thong Lang","ADM3_TH":"ถ้ำทองหลาง","ADM3_PCODE":"TH820704","ADM2_EN":"Thap Put","ADM2_TH":"ทับปุด","ADM2_PCODE":"TH8207","ADM1_EN":"Phangnga","ADM1_TH":"พังงา","ADM1_PCODE":"TH82","ADM0_EN":"Thailand","ADM0_TH":"ประเทศไทย","ADM0_PCODE":"TH"}},{"arcs":[[-177,-182,182,183]],"type":"Polygon","properties":{"Shape_Leng":0.282277277673,"Shape_Area":0.00277251521184,"ADM3_EN":"Khok Charoen","ADM3_TH":"โคกเจริญ","ADM3_PCODE":"TH820705","ADM2_EN":"Thap Put","ADM2_TH":"ทับปุด","ADM2_PCODE":"TH8207","ADM1_EN":"Phangnga","ADM1_TH":"พังงา","ADM1_PCODE":"TH82","ADM0_EN":"Thailand","ADM0_TH":"ประเทศไทย","ADM0_PCODE":"TH"}},{"arcs":[[-29,184,-183,-181]],"type":"Polygon","properties":{"Shape_Leng":0.380008760616,"Shape_Area":0.00805154500671,"ADM3_EN":"Bang Riang","ADM3_TH":"บางเหรียง","ADM3_PCODE":"TH820706","ADM2_EN":"Thap Put","ADM2_TH":"ทับปุด","ADM2_PCODE":"TH8207","ADM1_EN":"Phangnga","ADM1_TH":"พังงา","ADM1_PCODE":"TH82","ADM0_EN":"Thailand","ADM0_TH":"ประเทศไทย","ADM0_PCODE":"TH"}},{"arcs":[[185,186,187,188,189]],"type":"Polygon","properties":{"Shape_Leng":0.43885832362,"Shape_Area":0.00929838269605,"ADM3_EN":"Thai Mueang","ADM3_TH":"ท้ายเหมือง","ADM3_PCODE":"TH820801","ADM2_EN":"Thai Mueang","ADM2_TH":"ท้ายเหมือง","ADM2_PCODE":"TH8208","ADM1_EN":"Phangnga","ADM1_TH":"พังงา","ADM1_PCODE":"TH82","ADM0_EN":"Thailand","ADM0_TH":"ประเทศไทย","ADM0_PCODE":"TH"}},{"arcs":[[-90,-106,-108,190,-187,191]],"type":"Polygon","properties":{"Shape_Leng":0.368307600456,"Shape_Area":0.00548775329862,"ADM3_EN":"Na Toei","ADM3_TH":"นาเตย","ADM3_PCODE":"TH820802","ADM2_EN":"Thai Mueang","ADM2_TH":"ท้ายเหมือง","ADM2_PCODE":"TH8208","ADM1_EN":"Phangnga","ADM1_TH":"พังงา","ADM1_PCODE":"TH82","ADM0_EN":"Thailand","ADM0_TH":"ประเทศไทย","ADM0_PCODE":"TH"}},{"arcs":[[-33,-84,-91,-192,-186,192]],"type":"Polygon","properties":{"Shape_Leng":0.441462299001,"Shape_Area":0.00842194634482,"ADM3_EN":"Bang Thong","ADM3_TH":"บางทอง","ADM3_PCODE":"TH820803","ADM2_EN":"Thai Mueang","ADM2_TH":"ท้ายเหมือง","ADM2_PCODE":"TH8208","ADM1_EN":"Phangnga","ADM1_TH":"พังงา","ADM1_PCODE":"TH82","ADM0_EN":"Thailand","ADM0_TH":"ประเทศไทย","ADM0_PCODE":"TH"}},{"arcs":[[-34,-193,-190,193,194]],"type":"Polygon","properties":{"Shape_Leng":0.573364156701,"Shape_Area":0.00940077528726,"ADM3_EN":"Thung Maphrao","ADM3_TH":"ทุ่งมะพร้าว","ADM3_PCODE":"TH820804","ADM2_EN":"Thai Mueang","ADM2_TH":"ท้ายเหมือง","ADM2_PCODE":"TH8208","ADM1_EN":"Phangnga","ADM1_TH":"พังงา","ADM1_PCODE":"TH82","ADM0_EN":"Thailand","ADM0_TH":"ประเทศไทย","ADM0_PCODE":"TH"}},{"arcs":[[-35,-195,195,-71,-64]],"type":"Polygon","properties":{"Shape_Leng":0.507855919524,"Shape_Area":0.00898050414401,"ADM3_EN":"Lam Phi","ADM3_TH":"ลำภี","ADM3_PCODE":"TH820805","ADM2_EN":"Thai Mueang","ADM2_TH":"ท้ายเหมือง","ADM2_PCODE":"TH8208","ADM1_EN":"Phangnga","ADM1_TH":"พังงา","ADM1_PCODE":"TH82","ADM0_EN":"Thailand","ADM0_TH":"ประเทศไทย","ADM0_PCODE":"TH"}},{"arcs":[[-72,-196,-194,-189,196,-135]],"type":"Polygon","properties":{"Shape_Leng":0.653504699648,"Shape_Area":0.00857839603397,"ADM3_EN":"Lam Kaen","ADM3_TH":"ลำแก่น","ADM3_PCODE":"TH820806","ADM2_EN":"Thai Mueang","ADM2_TH":"ท้ายเหมือง","ADM2_PCODE":"TH8208","ADM1_EN":"Phangnga","ADM1_TH":"พังงา","ADM1_PCODE":"TH82","ADM0_EN":"Thailand","ADM0_TH":"ประเทศไทย","ADM0_PCODE":"TH"}}]}}}