{"type":"Topology","arcs":[[[5620,6594],[8,-24]],[[5628,6570],[-116,21],[-37,-12],[-129,-23],[-136,-38],[13,-41],[-32,-37],[-88,-39]],[[5103,6401],[-129,-36],[-146,-36]],[[4828,6329],[-180,-55],[-32,21],[-21,-14],[-47,-11],[-27,-23],[-40,71]],[[4481,6318],[-3,73],[17,-6],[72,14],[37,21],[55,8],[11,43],[50,41],[-3,9],[56,66],[19,6]],[[4792,6593],[99,-1],[28,15],[44,40],[50,10],[23,20]],[[5036,6677],[117,18],[19,-52],[4,-36],[24,-69],[146,41],[122,21],[36,13],[116,-19]],[[4481,6318],[-117,-28]],[[4364,6290],[-102,-23],[-61,-23]],[[4201,6244],[-4,25],[10,43],[-2,43],[-14,33],[-49,17],[-22,17],[0,23],[19,17],[-1,52],[-36,58],[16,21],[-6,62],[21,26],[-10,26]],[[4123,6707],[124,-19],[82,-28],[42,1],[64,13],[5,16],[44,9],[8,34],[14,14],[72,13],[43,-6],[57,-21],[19,-31],[50,-10],[45,-99]],[[4828,6329],[5,-43],[16,-28],[-32,-27],[-2,-22],[-24,-37],[-35,-16],[-63,-40],[-1,-25],[32,-22],[55,-75],[15,-45]],[[4794,5949],[-57,-36],[-34,-1],[-12,13],[-44,-14],[-65,0],[-82,25],[-21,24],[-31,-3],[-56,14]],[[4392,5971],[-43,37],[-29,42],[-26,91],[-1,35]],[[4293,6176],[41,14],[0,30],[27,4],[10,27],[-7,39]],[[4201,6244],[-226,-74],[-312,-71]],[[3663,6099],[-9,48],[-3,121],[-10,156],[-1,170],[15,126]],[[3655,6720],[60,-9],[45,-21],[49,2],[45,11],[120,-2],[7,14],[32,10],[15,19],[71,2],[47,-9]],[[4146,6737],[-23,-30]],[[4293,6176],[-21,8],[2,-61],[-15,-43],[-20,-2],[-27,-36],[-36,-9],[-11,-18],[-65,-4],[-16,-17],[-118,-35],[-103,-1],[-41,-13],[-44,-30],[-48,-7]],[[3730,5908],[-91,13],[-91,40],[-53,-7],[-63,-19]],[[3432,5935],[0,40],[-18,11],[0,30],[36,29],[99,32],[114,22]],[[4146,6737],[40,3],[10,27],[24,19],[51,-1],[27,-14],[65,44]],[[4363,6815],[25,-1],[5,25],[50,37],[16,35],[23,1],[8,18],[69,-13],[30,5],[24,19]],[[4613,6941],[51,44],[47,5],[13,-11],[19,22],[26,7],[26,30],[49,15],[55,-51],[150,4],[54,67]],[[5103,7073],[2,-32],[-20,-30],[4,-48],[15,-31],[-4,-18],[-37,-29],[-2,-72],[31,3],[7,-21],[-45,-39],[2,-37],[-20,-42]],[[4794,5949],[30,-56],[-21,-47],[8,-33],[-13,-1],[-1,-38],[-17,-52],[23,0],[6,-31],[18,-6],[9,-38],[13,4],[-6,-46],[5,-55],[58,-4],[90,5],[45,8],[27,-135]],[[5068,5424],[-5,-28],[-19,-30],[-19,-4],[-19,-26],[-41,-21]],[[4965,5315],[-9,14],[-96,-5],[-24,-15],[-39,-9],[-27,19],[-38,5],[15,14],[-74,-3],[-9,-21],[-30,-8],[-18,-104],[-48,7],[-8,12],[-48,4],[-35,34],[-19,34],[-21,-10],[-24,13],[-75,11],[-55,-31]],[[4283,5276],[-49,7],[-89,-2],[-44,22]],[[4101,5303],[32,234],[18,69],[50,122],[10,10],[64,12],[2,97],[11,45],[27,39],[35,27],[42,13]],[[5620,6594],[47,21],[39,-2],[4,15],[-29,4],[-19,46],[-23,15],[-10,26],[-21,15],[-19,43],[9,96],[16,17],[-17,77],[5,35],[-30,106],[-20,31]],[[5552,7139],[47,19],[122,26],[-23,83],[122,47],[17,65],[-23,23],[7,54],[-11,57],[-31,108],[-35,154],[-25,7],[-21,37],[-29,11],[-13,42],[10,14]],[[5666,7886],[39,9],[26,34],[28,14],[25,-1],[49,-50],[45,-18],[0,-40],[35,-21],[26,7],[1039,-195]],[[6978,7625],[23,-206],[88,-665],[38,-332],[65,-470]],[[7192,5952],[-938,-42],[-21,1],[-58,41],[-59,6]],[[6116,5958],[-68,63],[-74,-9],[-20,53],[-33,35],[0,16],[40,10],[-22,59],[-27,3],[0,38],[-16,52],[26,18],[18,71],[20,45],[-31,2],[-36,19],[-76,17],[-15,9],[-47,-12],[-65,-7],[-59,4],[-10,15],[4,50],[-9,17],[12,44]],[[5103,6401],[34,-107],[24,-60],[202,-663]],[[5363,5571],[-53,-96],[-124,-4],[-16,-20],[-61,-3],[-41,-24]],[[6116,5958],[-18,-29],[-4,-41],[-357,-73],[-95,-33],[-120,-5],[-38,-34],[-41,-46],[-55,-81],[-25,-45]],[[4101,5303],[-39,45],[-39,29],[-28,6],[-138,-2],[-52,-10],[-91,26],[-32,-7]],[[3682,5390],[-11,170],[-4,124],[-12,104],[75,120]],[[4613,6941],[-14,48],[8,45],[-8,38],[24,19],[42,70],[20,18],[-12,33],[-46,10],[-10,43],[-21,29]],[[4596,7294],[15,22],[37,11],[13,27],[-4,48],[161,58],[8,18],[42,41],[27,59],[-18,48],[50,17],[22,-10],[6,-20],[22,3],[81,-12],[7,26],[26,3],[-2,20],[36,18],[-5,29],[52,32],[42,-1],[36,32]],[[5250,7763],[59,-7],[37,21],[47,62],[26,12],[112,-16],[23,6],[63,44],[49,1]],[[5552,7139],[-70,19],[-132,10],[-52,-18],[-78,-47],[-59,-14],[-28,-22],[-30,6]],[[4965,5315],[2,-28],[-26,-33],[11,-9],[-14,-24],[2,-47],[-8,-13],[-56,-44],[-40,-68],[2,-110],[-11,-25],[-28,-33]],[[4799,4881],[-82,4],[-44,-31],[-27,11],[-46,-23],[-40,9],[-29,-27],[-31,4],[-90,-6],[-9,-12],[-26,32],[-48,-15],[-8,-37],[18,-30],[110,-79],[35,-29],[8,-27],[-83,-64],[-12,-15],[6,-37],[-49,2],[-14,-91],[-22,-73],[-57,-9],[-8,-24],[-36,-18],[-58,4],[-61,-10],[-5,-12],[-77,0]],[[4014,4278],[13,63],[-12,41],[11,26],[-69,19],[-65,-18],[-4,40]],[[3888,4449],[30,1],[11,48],[45,6],[-7,37],[38,11],[21,40],[53,9],[-5,65],[6,23],[52,8],[-1,31],[-28,15],[20,7],[-6,61],[-34,16]],[[4083,4827],[22,13],[-20,62],[3,33],[43,28],[10,25],[-4,33],[12,9],[16,46],[27,7],[52,57],[17,115],[22,21]],[[3161,5137],[21,-36],[51,-65],[62,-44],[14,-19],[10,-66],[-23,-70],[2,-21]],[[3298,4816],[2,-39],[-9,-45],[-29,-88]],[[3262,4644],[-37,-20],[-24,-42],[-50,0],[-23,13],[-82,-10],[-3,-15],[-38,9],[-34,-56],[-30,-17],[-49,-14],[-80,-6],[-12,-22],[-45,-27],[-43,-14],[-11,15],[-23,-5],[-47,21],[-24,-12],[-42,-2],[-14,13],[-45,5],[-50,20],[-41,-15],[-38,14],[-48,-3],[-77,4],[-59,-12],[-54,-23],[-25,10],[-17,-10],[-4,-35],[-101,-79],[-72,-28],[-21,-14]],[[1899,4287],[-58,9],[16,23],[-2,25],[-31,23],[45,44],[-5,14],[-45,24],[-3,45],[-24,48],[-111,44],[-14,12],[-4,44],[-13,24],[36,27]],[[1686,4693],[37,19],[19,25],[49,15],[39,33],[22,3],[77,36],[41,-9],[99,-58],[48,-17],[28,-1],[71,47],[18,28],[41,21],[23,1],[18,22],[24,0],[42,24],[33,-23],[56,33],[18,37],[24,-4],[-16,-27],[14,-14],[55,8],[28,101],[50,9],[30,33],[30,15],[23,-6],[10,-35],[42,1],[10,52],[21,25],[48,33],[31,38],[47,29],[34,-11],[1,24],[79,4],[7,-13],[67,-8],[37,-46]],[[3888,4449],[-35,-6],[3,-24],[-21,-3],[-3,25],[-40,1],[-7,-9],[-35,32],[14,12],[12,46],[-29,14],[-30,-2],[-5,-48],[-55,-9],[0,-17],[-28,-5],[-28,13],[-25,-14],[-52,-2],[-48,13],[-1,21],[-55,18]],[[3420,4505],[-45,5],[-51,29],[-27,66],[-35,39]],[[3298,4816],[67,32],[49,-15],[83,1],[-18,37],[-9,46],[-22,62],[92,0],[-12,-24],[26,-7],[2,25],[41,0],[11,14],[60,-18],[24,1],[13,-20],[-30,-26],[3,-32],[74,6],[83,-57],[15,-46],[-3,-30],[66,35],[45,12],[44,28],[38,-8],[32,8],[11,-13]],[[4014,4278],[-48,1],[11,-68],[-23,3],[-36,-12],[8,-49],[-30,-7],[-15,-39],[-48,3],[-63,-25],[-15,-18],[0,-34],[18,-34],[9,-69],[-6,-42],[21,-75],[20,-29],[37,-31],[23,-91],[41,-75],[-56,-28],[-21,-32],[-3,-39],[36,-63],[-14,-60],[21,-13],[29,12],[39,-12],[21,-56],[103,-28]],[[4073,3268],[4,-106],[39,-4],[3,-19],[-32,-12],[-51,-36],[-14,3],[-66,-17],[-40,1],[6,-20],[-27,4],[14,-21],[-25,2],[-30,-15],[-17,-27],[-39,5],[14,-19],[-14,-62],[-30,-20],[-21,15],[-54,-33],[-39,-10],[6,-19],[-59,1],[-9,20],[-35,10],[-35,-15],[-72,21],[-23,-24],[-2,-54],[-36,-36],[-44,-16],[-39,-24],[-35,1],[-84,-13],[-66,39],[-23,28],[-23,-23],[-10,-27],[-47,-11],[-43,2]],[[2975,2737],[-9,43],[-29,10],[-79,-4],[-36,9],[-99,6],[-63,-6],[-49,5],[-30,12],[-18,54],[-28,26],[-7,64],[-44,24],[-3,19],[-26,23],[16,23],[-28,53],[4,31],[27,41],[5,30],[-22,54],[-22,18],[-44,15],[-44,67],[1,41],[56,60],[16,36],[7,41],[-6,32],[-54,38],[-30,39],[-35,73],[1,27],[16,30]],[[2319,3771],[25,12],[81,0],[8,-14],[53,-37],[32,5],[32,25],[90,1],[63,23],[75,-8],[102,18],[50,-28],[35,-3],[11,15],[50,-7],[10,-17],[29,24],[35,-8],[-5,16],[121,-15],[-17,-6],[55,-11],[1,26],[25,-11],[12,18],[35,9],[15,20],[31,2],[36,18],[4,24],[30,10],[-12,11],[30,15],[-16,16],[22,2],[20,19],[-3,19],[-63,101],[-50,10],[-53,-4],[-66,39],[-9,17],[3,41],[27,29],[58,10],[21,11],[31,36],[-17,34],[-52,14],[-37,20],[-22,42],[3,72],[32,27],[34,1],[38,24],[58,27]],[[2319,3771],[-42,67],[-58,24],[-25,33],[-9,35],[7,26],[-65,24],[-49,26],[-23,62],[-24,25],[-29,14],[-8,29],[7,35],[-20,35],[-26,17],[-13,30],[-43,34]],[[3161,5137],[26,40],[33,33],[92,58],[26,30]],[[3338,5298],[-10,-43],[-5,-102],[67,8],[83,1],[95,30],[27,24],[26,5],[22,46],[30,9],[9,114]],[[6280,4640],[-10,-6],[-66,-4],[-37,-22],[-22,-27],[-87,-39],[-59,-1],[-58,29],[-37,-68],[-19,-12],[24,-35],[-22,-43],[-38,-40],[-4,-42],[-11,-18],[-33,-17],[-22,-29],[-15,-41],[-1,-35],[-81,-25],[-51,-62],[1,-31],[23,-43],[21,-100]],[[5676,3929],[-36,-25],[-17,-2],[6,-22],[-21,-5],[-5,-24],[-27,6],[-16,-35],[-38,21],[-3,-22],[-22,8],[-16,-21],[-45,-14],[7,-26],[-29,8],[-7,-28],[22,-10],[-33,-15],[25,-9],[4,-26],[-41,-5],[1,-11],[-36,-14],[-3,-15],[-33,2],[-6,-14],[25,-15],[-29,-17],[18,-21],[-3,-22],[-17,4],[-24,35],[-19,-4],[28,-61],[25,4],[-52,-55],[42,-6],[9,-18],[0,-48],[48,-35],[43,-63]],[[5401,3309],[-27,0],[-10,14],[-40,6],[-141,58],[-58,9]],[[5125,3396],[23,27],[8,46],[-21,10],[-51,-1],[1,47],[54,24],[-18,14],[-21,38],[-33,9],[-16,84],[16,105],[-37,-4],[9,66],[-132,1],[-29,16],[-72,-55],[-31,-13],[-32,-1],[-16,36],[-81,5],[-91,32],[7,79],[30,-4],[13,46],[77,-20],[11,12],[-50,26],[-23,35],[12,36],[-5,29],[34,26],[74,27],[-13,55],[34,73],[3,40],[14,22],[-13,26],[13,51],[27,52],[14,-24],[22,4],[0,-22],[24,-11],[-7,-18]],[[4853,4422],[0,-23],[34,1],[13,-13],[19,10],[3,-22],[35,4],[29,-8],[42,18],[28,-8],[26,11],[19,26],[29,-7],[28,40],[63,-14],[25,28],[51,3],[8,31],[-7,23],[51,28],[32,35],[78,7],[44,32],[45,6],[28,-16],[14,-30],[63,-16],[31,-28],[73,40],[35,8]],[[5792,4588],[7,66],[56,33],[-22,38],[28,42],[19,-2],[4,23],[40,-4],[70,42],[37,4],[19,20],[38,5],[58,18],[20,14],[30,-5],[35,16],[-6,10]],[[6225,4908],[11,-3],[25,-56],[4,-61],[19,-32],[-4,-116]],[[5363,5571],[157,-515],[14,-31],[201,-389],[35,-36],[22,-12]],[[4853,4422],[37,25],[21,188],[-26,-15],[-72,-3],[-42,70],[-32,-7],[-23,58],[86,31],[51,9],[-54,103]],[[6225,4908],[35,19],[1,20],[64,48],[7,27],[42,13],[22,-3],[25,19],[12,44],[31,10],[-23,28],[-12,82],[38,14],[798,245]],[[7265,5474],[252,-397],[67,-95],[179,-1]],[[7763,4981],[45,-222]],[[7808,4759],[-240,-10],[-370,2],[-149,6],[-55,-7],[0,-7],[-126,-6],[-26,-13],[-70,-1],[-75,7],[-37,29],[-71,1],[-41,9],[-49,-48],[-34,-9],[-32,-34],[17,-32],[-13,-22],[-19,7]],[[6418,4631],[-39,-7],[-44,3],[-9,24],[8,55],[-17,8],[-37,-74]],[[7192,5952],[30,-353],[25,-102],[18,-23]],[[5125,3396],[-37,-48],[-25,-9],[-117,10],[-2,36],[-54,-12]],[[4890,3373],[-120,32],[-4,62],[-24,-16],[-59,-9],[-39,-32],[-54,-8],[-11,-28],[-19,5],[-51,-10],[-39,3],[-26,-23],[-103,-2],[-78,-62],[-117,-20],[-73,3]],[[5401,3309],[33,-55],[76,-15],[24,17],[37,7],[53,0],[72,22],[33,17],[35,-16],[12,7]],[[5776,3293],[23,-28],[-1,-25],[-27,-32],[-16,-45],[-41,-27],[-17,-26],[4,-74],[-10,-41],[-55,-37],[-18,-41],[-30,-26]],[[5588,2891],[-18,-50],[-54,-57],[10,-75],[25,-22],[29,-45],[12,-39],[16,-18],[-2,-45],[-94,-11],[-50,-25]],[[5462,2504],[-10,20],[15,33],[-31,23],[-13,29],[-16,-2],[-7,30],[19,58],[-5,34],[15,40],[-19,30],[-56,-18],[-6,-47],[-41,-15],[-7,-19],[-66,-13],[-33,9],[-57,-18],[-12,-22],[-48,-24],[-21,-25],[-29,7],[-34,-17]],[[5000,2597],[-44,22],[-43,53],[11,46],[-8,34],[-30,0],[-19,-37],[-28,-5],[-65,4],[-14,32],[-55,-18],[27,117],[-3,38],[13,46],[0,47],[-56,0],[-23,21],[-8,37],[11,51],[-19,62],[11,9],[33,-20],[41,10],[18,-17],[26,3],[24,-14],[10,32],[-7,19],[-60,65],[8,18],[62,25],[-1,40],[50,46],[28,10]],[[5000,2597],[-36,-35],[-18,4],[-4,-25],[-47,2],[2,39],[-16,-1],[-25,-29],[-25,-8],[-6,-29],[-21,-7],[2,-46],[-36,-23],[-92,32],[-99,-39],[8,-46],[-8,-55],[27,-29],[76,-12],[24,-20],[-13,-36],[5,-28],[32,1],[6,-14],[-27,-35],[-19,-7],[9,-18],[-17,-13],[-8,-38],[8,-22],[-7,-48],[13,-6],[1,-38],[-13,-30],[-42,3],[-47,-8],[-83,7],[-13,-15],[-27,-1],[-41,-30],[-40,2],[-107,-35],[-10,-15],[8,-36],[-44,-60],[-23,-49],[8,-55],[-10,-50],[-57,-70],[-40,-73]],[[4108,1453],[-105,20],[-27,36],[-34,3],[-73,-47],[-23,-25],[-18,-1],[-8,27],[-42,28],[-36,-4],[-74,37],[-105,16],[-33,-31],[-23,-2],[-14,-18],[-38,-2],[-20,-18],[-25,-46],[4,-38],[-24,-20],[5,-23],[-40,-19],[-64,19],[-54,-7]],[[3237,1338],[-71,14],[-50,20],[-51,69],[-29,73],[11,11],[34,-22],[23,13],[4,39],[-35,29],[5,44],[-57,39],[-24,64],[-41,12],[15,44],[-59,38],[-4,16],[-26,-5],[-16,81],[19,28],[22,9],[11,45],[32,28],[18,-7],[44,30],[35,82],[32,18],[-11,34],[10,11],[-32,15],[-23,36],[-27,63],[-8,45],[18,53],[-14,7],[3,46],[-10,71],[-12,36],[-3,46],[-31,44],[35,37],[1,43]],[[5462,2504],[5,-31],[58,-18],[13,-48],[57,-29],[16,1],[-6,-46],[-41,-49],[41,-24],[14,-67],[-64,-15],[-48,-17],[-2,-9],[-47,-7],[-15,-22],[-62,8],[-33,39],[-114,-22],[-36,-11],[0,-54],[-19,-18],[14,-25],[-27,-27],[11,-69],[-32,-25],[-27,-36],[-14,2],[-25,-28],[-8,10],[-27,-15],[3,-66],[-60,-8],[-53,-44],[-62,1],[-41,-16],[-15,-18],[7,-22],[-42,-5],[-20,-32],[-103,-16],[-5,-40],[-61,-23],[-22,-20],[2,-45],[27,-46],[5,-39],[-30,-41],[-24,-45],[-20,-3],[-137,48],[-84,7],[-56,57],[-59,18],[-86,-1]],[[4528,8222],[-82,0],[-143,-30],[2,-27],[-26,-56],[-24,-7],[-6,-19],[-43,-5],[-40,-13],[-8,-33],[73,-79],[37,-56]],[[4268,7897],[-4,-11],[-143,-11],[-38,0],[-23,-13],[-42,-3],[-60,-41],[-71,3],[-92,11],[-26,-7],[-57,14]],[[3712,7839],[1,66]],[[3713,7905],[-18,24],[-5,30],[-3,98],[6,64],[-9,55],[7,33],[4,124],[15,58],[-2,37],[-17,107]],[[3691,8535],[138,-28],[147,-72],[149,-33],[84,-27],[85,-7],[5,-21],[30,-39],[27,11],[63,-7],[13,-11],[43,10],[77,-1],[-12,-7],[-1,-34],[-15,-9],[4,-38]],[[6722,8429],[-22,-1],[-56,16],[-10,35],[-93,2],[-33,34],[-46,10],[-135,-6],[-793,-21],[-3,-41],[-25,2],[-26,34],[-145,3],[15,160],[-17,56],[-1,36],[-64,15],[-18,62],[-11,2]],[[5239,8827],[-36,88],[-16,80],[-26,59],[12,117],[-11,10],[-103,-6],[-12,48],[-20,36],[-17,80],[-27,34]],[[4983,9373],[72,65],[36,12],[11,31],[32,42],[0,14],[29,32],[41,2],[42,25],[1,35],[29,0],[45,22],[60,17],[39,4],[117,-7],[82,-2],[107,-22],[35,-17],[40,-33],[46,-51],[18,-2],[63,33],[41,0],[180,23],[50,-1],[102,8],[89,37],[65,-245],[46,-162],[73,-267],[64,-210],[71,-260],[13,-67]],[[3673,7400],[15,-60],[0,-51],[-10,-31],[13,-105],[12,-46]],[[3703,7107],[-8,-23],[-20,-9],[-55,-5],[-129,-60]],[[3491,7010],[-31,7],[-41,-9],[-62,0],[-87,-9],[-77,-22],[-48,10],[-72,-10],[-121,-1],[-59,24],[-88,44],[-3,64],[13,41],[-70,11],[-38,14],[-43,28],[-72,37],[-101,105],[17,24],[9,51],[48,45],[37,14],[31,23],[20,54]],[[2653,7555],[35,19],[19,47],[21,16],[11,27]],[[2739,7664],[58,8],[51,-5],[96,7],[61,0],[64,-8],[52,-32],[29,3],[16,-27],[62,-23],[7,12],[50,-4],[59,-17],[20,15],[8,-21],[54,-20],[23,0],[29,-35],[-24,-52],[43,-3],[16,-23],[24,-6],[-4,-25],[27,-23],[36,6],[18,-10],[45,6],[14,13]],[[4363,6815],[-70,109],[28,15],[-68,54],[47,-7],[33,4],[16,17],[34,-20],[47,-10],[2,14],[-26,24],[-31,14],[-56,14],[-129,11],[-298,30],[-109,2],[-57,25],[-23,-4]],[[3673,7400],[47,22],[42,8],[33,-9],[74,22],[60,6],[9,11],[109,29],[104,7],[36,-9],[51,9],[48,-10],[63,5],[75,16],[53,1],[7,12],[95,-11]],[[4579,7509],[6,-79],[-11,-24],[8,-35],[-7,-64],[21,-13]],[[5239,8827],[-56,-21]],[[5183,8806],[-32,8],[-73,-1],[-97,23],[-147,-7],[-67,-12],[-43,-25],[-156,-5],[-40,-5],[-111,-1],[-8,-71],[-11,-10],[-41,2],[-59,45],[-17,37],[-34,15],[-4,54],[-22,53],[-123,0],[-80,20],[-85,25],[-59,43],[-99,44],[-81,42]],[[3694,9080],[11,62],[-13,101],[62,9],[-16,16],[-58,7]],[[3680,9275],[-4,18],[-115,-12],[64,190]],[[3625,9471],[42,-33],[46,-13],[61,-42],[57,-26],[46,-7],[111,-55],[66,-5],[59,-36],[74,17],[17,-5],[63,14],[57,-5],[2,-9],[54,-20],[30,-20],[51,-14],[37,20],[17,-7],[39,9],[20,-6],[30,-37],[39,-22],[48,18],[23,23],[48,27],[45,-10],[31,-17],[47,-8],[3,14],[-21,46],[7,11],[66,45],[43,55]],[[3691,8535],[-96,-26],[-43,3],[-34,89],[-19,28],[-16,47]],[[3483,8676],[11,2],[-2,36],[34,18],[35,-5],[86,272],[18,17],[-9,20],[23,11],[15,33]],[[5183,8806],[-22,-37],[-44,-3],[-23,-10],[-38,10],[-39,-40],[-38,-4],[-17,-16],[-37,-10],[-36,4],[-23,-38],[4,-52],[-17,-17],[-24,-1],[-18,-34],[13,-55],[-8,-63],[15,-19],[-25,-89],[-16,-3],[42,-96]],[[4832,8233],[-46,-24],[-119,-7],[-94,9],[-45,11]],[[4268,7897],[44,18],[48,-9],[57,13],[20,-4],[27,-24],[9,-35],[11,2],[18,-37],[16,0],[-11,-126],[4,-38],[50,2],[0,-12],[51,-144],[-33,6]],[[3673,7400],[3,60],[25,96],[-13,16],[8,77],[15,28],[1,162]],[[2739,7664],[7,54],[-2,82],[25,94]],[[2769,7894],[33,0],[8,37],[28,17],[27,-12],[45,4],[26,-24],[33,3],[26,35],[9,-9],[9,-73],[101,20],[236,28],[260,-7],[103,-8]],[[4832,8233],[68,-25],[64,3],[88,-15],[91,-5],[-14,-44],[-34,-21],[10,-22],[-15,-44],[21,-50],[-29,-12],[12,-34],[7,-56],[18,-41],[35,-22],[3,-19],[29,-25],[64,-38]],[[6722,8429],[25,-29],[84,-289],[124,-288],[23,-198]],[[2769,7894],[-27,54],[-4,28],[-30,18],[-2,30],[-23,57],[-11,106],[8,36],[-8,88],[72,8],[28,9],[-1,17],[24,13],[-19,24],[14,10],[48,0],[44,19],[38,5],[-4,26],[28,12],[37,-12],[-33,44],[13,11],[-1,36],[-35,50],[-83,13]],[[2842,8596],[28,32],[7,28],[30,-10],[30,7],[24,-8],[69,6],[22,13],[14,28],[26,17],[13,-14],[11,20],[41,-6],[33,24],[36,-11],[32,5],[15,-36],[50,-21],[42,24],[52,-14],[66,-4]],[[3655,6720],[-28,25],[5,15],[-45,2],[-16,15],[-26,-13],[-31,13]],[[3514,6777],[11,50],[-26,169],[-8,14]],[[8885,3184],[77,-14],[45,-17],[30,-20],[60,-59],[73,-88],[41,-59],[20,-41],[31,-89],[16,-63]],[[9278,2734],[-36,-10],[-19,-28],[-11,-72],[-35,2]],[[9177,2626],[-16,52],[-40,27],[-35,-5],[-43,-22],[-67,-5],[-33,13],[-14,47],[4,34],[-76,-11],[-106,-23],[-64,-4],[-42,25],[-23,-4],[-12,-26],[-27,-17],[-37,-60],[-53,-73],[-37,-18],[-70,7],[-7,-8]],[[8379,2555],[-58,78],[-19,51],[-16,21],[-78,14],[-40,34],[-17,50],[-51,34],[0,15]],[[8100,2852],[-10,29],[22,39],[7,52],[47,52],[42,17],[36,25],[20,45],[48,201]],[[8312,3312],[40,-21],[119,-37],[90,-13],[153,-37],[171,-20]],[[9177,2626],[-129,-22],[-59,-30],[-27,-52],[8,-57],[29,-42],[-6,-29],[14,-30],[26,-29],[-23,-13],[-2,-21],[-54,9],[-56,-4],[-59,-13],[-13,-30],[-28,-14],[-31,4],[-20,16],[-1,-66],[-26,-60]],[[8720,2143],[-50,-4],[-61,-19],[-78,1],[-71,13],[-36,-26],[-58,-6],[-101,-31],[-47,-4],[-84,7],[-11,15],[-32,6],[-63,-13],[-62,-4],[-64,-20],[-34,-1],[-29,-20]],[[7839,2037],[-41,64],[11,27],[-5,62],[16,11],[28,51],[3,26],[62,28],[35,-5],[43,16],[0,29],[65,19],[8,64],[85,6],[1,-12],[100,10],[-5,48],[75,-7],[95,31],[-33,35],[-3,15]],[[8885,3184],[-11,49],[-6,71],[24,62],[12,52],[13,123],[44,146],[39,61],[77,109],[124,143],[135,104]],[[9336,4104],[51,-106],[46,-48],[99,-86],[22,-30],[25,-58],[6,-148],[22,-113],[67,-186],[53,-134],[1,-74],[12,-63],[59,-128],[77,-116],[40,-44],[75,-69],[8,-20],[-9,-71],[-29,-90],[-5,-45],[23,-48],[9,-44],[-19,-40],[-34,-25],[-117,-31],[-67,-30],[-19,-21],[-21,-90],[-70,-30],[-23,-5],[-44,13],[-45,59],[-28,22],[-83,36],[-50,40],[-26,52],[5,32],[22,60],[-17,55],[-46,48],[-27,60],[17,75],[-18,71]],[[7763,4981],[330,-14],[57,43],[131,73],[669,282],[442,-196],[18,-181],[-74,-884]],[[8312,3312],[5,173],[-12,39],[-80,86],[-102,136],[-49,89],[-159,322],[-29,98]],[[7886,4255],[-78,504]],[[8100,2852],[-76,-30],[-41,-30],[-85,-51],[-21,-28],[-34,20],[-16,-27],[-42,3],[-39,-25],[-70,5],[-40,-18],[-43,12],[-19,23],[-42,-29]],[[7532,2677],[-36,35],[-135,204],[-29,36],[-214,244],[-79,46]],[[7039,3242],[-134,67],[-31,24],[-212,246]],[[6662,3579],[-102,120]],[[6560,3699],[29,30]],[[6589,3729],[124,36],[207,47],[99,19],[48,63],[61,70],[47,9],[140,-13],[72,0],[50,9],[118,40],[331,246]],[[7839,2037],[-11,-16],[-63,-18],[-90,17],[-41,28],[-26,5],[-28,-43],[-2,-60],[17,-17],[15,-38],[-20,-23]],[[7590,1872],[-19,-33],[-8,-57],[-54,-8],[-26,-28],[-48,-2],[-35,59],[-14,67],[-53,9],[-32,38],[-7,30],[-36,-8],[-27,44],[-9,51],[1,73],[-43,-19],[-32,1],[-40,-14],[-84,-47],[-67,3],[3,37],[-25,-3],[-42,10],[-39,-8],[-38,-23],[-26,-31],[-59,7],[-48,27],[-2,30],[47,36],[-1,57]],[[6727,2170],[3,25],[37,25],[35,-8],[29,8],[6,15],[54,31],[-8,26],[56,24],[-14,24],[26,7],[-14,98],[60,10],[63,-8],[42,-19],[0,52],[62,25],[15,-24],[16,5],[17,-60],[22,5],[-10,15],[14,17],[-16,39],[2,31],[17,19],[43,6],[21,26],[63,-7],[57,1],[44,16],[14,21],[-4,30],[38,11],[15,21]],[[8720,2143],[0,-98],[21,-35],[5,-43],[-11,-31],[-43,-12],[-8,-19],[-45,-29],[-10,3],[18,-50],[-40,-9],[-2,-12],[-79,-27],[-22,6],[-39,-29],[-21,3],[-9,-18],[-45,-14]],[[8390,1729],[-36,30],[-32,39],[-78,119],[-14,-24],[-30,-11],[-20,-22],[-27,6],[-56,-10],[-59,-19],[-98,23],[-63,-14],[-40,0],[-64,28],[-37,23],[-43,-15],[-33,15],[-30,-5],[-40,-20]],[[2653,7555],[-57,-16],[-9,-22],[-35,-5],[-18,31],[-40,-27],[-28,-5],[-51,18],[-61,3],[-37,-7],[-44,-31],[-53,6],[-46,-21],[-42,2],[7,24],[-54,10]],[[2085,7515],[-19,8],[-5,114],[-16,13],[-36,67],[-19,71],[-17,19],[-41,-9],[-10,-14],[-45,-21],[-26,18],[0,50],[-15,25],[-57,1],[-66,30],[-22,17],[-2,29],[-111,88],[-29,34]],[[1549,8055],[35,16],[20,22],[2,43],[29,27],[11,52],[34,16],[26,29],[20,-10],[99,8],[66,24],[11,-24],[38,2],[28,12],[39,-18],[51,-48],[50,-2],[32,25],[29,-1],[9,-18],[49,-10],[1,10],[66,-2],[13,18],[23,-6],[20,25],[56,-3]],[[2406,8242],[28,-13],[78,12],[-9,50],[27,10],[42,45],[67,84],[15,30],[48,31],[32,-3],[15,27],[26,22],[19,42],[48,17]],[[2085,7515],[-10,-11],[2,-84],[28,-58],[8,-32],[-24,-28],[20,-34],[-9,-34],[-23,-33],[-8,-38],[6,-35],[31,-21],[6,-28],[-14,-22],[-65,-35],[-48,-4],[-23,13],[-61,13],[-37,-26],[-21,4],[-41,-24],[-10,16],[-21,-11],[-7,-30],[-14,-2],[-12,39],[-46,31],[-24,-16],[-8,-86],[-17,-12],[-36,23],[-16,-27],[-6,-44],[-16,-30],[4,-33],[-14,-18],[-41,-18],[-47,-7],[-13,14],[-40,2],[-34,-11],[-19,-29],[-34,-1],[-1,25],[-102,-4],[-52,-16],[-38,43],[-44,3]],[[1094,6799],[0,35],[63,13],[22,20],[2,39],[35,67],[-9,80],[39,40],[-1,11],[-41,51],[1,22],[24,27],[-4,39],[-25,26],[-67,22],[-60,5],[-81,20],[13,37],[-7,18],[-49,41],[-3,32],[-42,9],[-55,25],[1,21],[-29,58],[0,39],[-14,25],[-4,45],[5,39],[-27,31],[-30,59],[9,46],[-22,29],[-4,36],[62,88],[-5,16]],[[791,8010],[42,76],[26,60],[27,31],[94,30],[27,-3],[36,19],[41,-21],[33,-33],[50,-14],[33,-2],[51,16],[59,29],[38,26],[30,-7],[31,16],[-2,-19],[17,-28],[69,-31],[21,-43],[-6,-38],[41,-19]],[[3514,6777],[-15,-8],[-25,25],[-2,32],[-46,4],[-11,-10],[-17,23],[-36,-6],[-12,-21],[-73,36],[-21,-22],[-18,13],[-30,-4],[6,-17],[-28,-5],[-14,12],[-36,-3],[-47,-33],[-15,10],[-36,-41],[-35,-6],[-12,-102],[-26,6],[-48,-33],[-25,23],[-58,-29],[-18,8],[-50,-12],[-11,16],[-65,3],[-19,-48],[-107,-36],[-25,-21],[-17,-30],[9,-67],[-18,-59],[-35,-24],[-26,19],[-44,10],[-7,-18],[-31,-2],[-68,-27]],[[2302,6333],[-18,30],[-89,58],[-34,10],[-35,0],[-18,22],[-29,6],[26,62],[-62,45],[-48,5],[-41,-24],[-78,-65],[-19,-47],[-46,-24],[-27,-34],[-71,-50],[-49,-25],[-52,-55],[-26,-8],[-133,55],[-24,-24],[-72,-21],[-40,-20],[-111,30],[-79,-46],[-82,-21],[-29,29],[-41,2]],[[975,6223],[6,51],[-8,29],[24,28],[5,28],[47,27],[9,13],[4,87],[11,20],[28,18],[-47,25],[-62,23],[-55,48],[0,43],[-23,28],[-5,28],[-48,27],[-41,12],[-31,38],[53,12],[49,3],[79,-5],[46,3],[78,-10]],[[5776,3293],[33,-19],[9,-26],[44,-6],[37,4],[36,-8],[36,4],[18,-21],[40,-5],[12,12],[42,-12],[9,34],[22,1],[-1,17],[34,18],[42,1],[-14,38],[15,14],[40,1],[41,55],[4,18],[49,17],[40,5],[48,-8],[9,69],[18,22],[42,7],[112,28],[69,26]],[[7039,3242],[-24,-27],[0,-37],[-21,-17],[-18,19],[-48,-10],[-29,-43],[5,-11],[-38,1],[-9,-45],[19,-70],[-62,-24],[-35,28],[-4,19],[-64,-4],[-34,-29],[-11,-54],[-26,-31],[9,-26],[-13,-54],[-23,-68],[-41,-62],[6,-28],[-8,-38],[14,-34],[-36,-21],[-29,-53],[-34,10],[-56,-3],[-43,-28],[-17,-45],[-33,-7],[-1,-45],[-48,-10],[-24,9],[-5,-20],[10,-43],[-44,-14],[-21,-23]],[[6203,2304],[-104,50],[-19,18],[-79,184],[-3,19],[10,155],[-8,36],[-63,94],[-124,5],[-94,-11],[-64,40],[-67,-3]],[[8390,1729],[-33,-23],[-22,-51],[-3,-26],[-18,-18],[9,-15],[-44,-51],[-43,-80],[-20,-15],[-55,-1],[-5,7],[-108,28],[-28,-6],[-63,2],[-48,-10],[-17,13],[-31,-5],[-20,-17],[-83,-23],[-3,10],[-36,-25],[-9,-26],[-113,-36],[-9,-23],[-42,-29],[-26,-4],[-30,27],[-55,6],[-31,-9],[-25,-36],[-27,-23],[-55,-18],[-26,9],[-33,-5],[-51,17],[-39,-4],[-36,-14],[-28,7],[-70,-11],[-8,-17],[-66,-15],[-14,-29],[-56,-22],[-4,14],[-42,-2],[-4,-27],[-30,-11],[-44,-2],[-11,12],[-41,-21],[6,-14],[-34,-8],[-39,17],[-27,-18],[-31,-7],[-42,-42],[-37,10],[-9,-21],[-58,5],[-31,-24],[-21,15],[-23,-9]],[[6348,1035],[-20,16],[-71,3],[-24,16],[-60,9],[-17,-15],[-28,7],[-41,25],[-43,6],[-82,-6],[-92,42],[11,28],[48,5],[62,31],[35,-1],[5,17],[42,38],[60,16],[23,-7],[28,17],[87,13],[25,12],[14,23],[42,1],[-9,34],[17,24],[91,7],[22,24],[-34,27],[-27,42],[-2,30],[30,9],[36,-4],[51,7],[20,22],[-5,31],[29,21],[-2,23],[14,47],[55,19],[35,-4],[18,10],[-14,34],[39,28],[12,23],[-32,10],[-40,27],[-32,61],[-13,8],[-65,4],[-35,20],[-2,20],[-24,7],[-27,29],[-50,-32],[-7,12],[-48,-17],[-49,-7],[-16,31],[-7,53]],[[6281,2011],[-1,50],[19,-7],[69,14],[11,8],[92,22],[-3,12],[49,4],[0,16],[53,18],[37,2],[39,18],[81,2]],[[6203,2304],[-13,-7],[-6,-39],[-16,-17],[-53,-9],[-28,-47],[7,-40],[-14,-12],[-14,-48],[-43,-31],[-49,-58],[11,-36]],[[5985,1960],[6,-10],[-23,-25],[-21,0],[-14,-35],[-42,-31],[-21,6],[-11,-32],[-24,-11],[1,-19],[-25,-20],[-24,-60],[5,-26],[-23,-13],[-14,-36],[-58,-16],[-21,7],[-41,-26],[-76,-16],[-17,10],[-23,-27],[-45,-7],[-54,-33],[-13,-24],[-23,2],[1,-39],[-33,-39],[3,-27],[-19,-26],[26,-25],[-19,-24],[12,-21],[-21,-27],[-48,-19],[-2,-28],[-32,19],[-22,-20],[6,-15],[-51,-31],[20,-27],[-23,-7],[5,-24],[-25,-7],[-28,-29],[8,-39],[-29,0],[-27,-22],[5,-23],[-29,-69],[-111,-21],[4,-38],[-37,-26],[5,-27],[-12,-18],[-109,-58],[-157,-35],[-21,-13],[-68,-2],[-9,-16],[-30,-2],[-22,-36],[15,-21],[-19,-38],[-23,-4],[13,-33],[-9,-11],[17,-31],[-42,-48],[7,-38],[-13,-38],[-1,-42],[12,-25],[-51,-31],[-25,-47],[-28,-27],[8,-21],[-28,-8],[-2,-33],[-34,-28],[-9,-64],[-22,-9],[-16,-60]],[[4245,0],[-39,24],[16,34],[4,66],[-13,29],[-57,17],[-76,36],[-41,13],[-12,13],[-33,-5],[-4,14],[-77,17],[-20,-5],[-16,31],[-33,-17],[-16,29],[-39,14],[-14,38],[-16,4],[-48,68],[-16,4],[-27,69],[-14,14],[-9,59],[-23,30],[-67,39],[-21,66],[-61,12],[-38,21],[-15,47],[15,31],[-24,35],[-14,50],[-1,32],[-67,12],[-37,25],[-15,26],[5,28],[-11,27],[-27,29],[29,48],[-46,58],[-11,39],[33,40],[14,41],[-26,36]],[[6348,1035],[0,-20],[-32,-11],[-19,-74],[-13,-20],[-24,6],[-35,-28],[4,-22],[23,-13],[-45,-14],[14,-36],[-20,5],[-35,-11],[-31,-28],[0,-20],[-49,-33],[-18,20],[-33,9],[-2,20],[-52,-22],[-18,-24],[-34,16],[-18,-10],[-12,18],[-54,20],[-49,-4],[-35,53],[4,28],[-27,-6],[-16,17],[-30,-7],[-78,79],[-27,-9],[-17,17],[-12,-21],[-18,13],[-58,12],[-35,-18],[-9,9],[-53,-31],[-29,-1],[-15,-29],[-68,-67],[-16,8],[-33,-37],[-3,-18],[-65,-24],[-16,-16],[-56,-10],[-46,-16],[-36,5],[-93,-4],[-13,-28],[-55,-40],[-25,-29],[-75,-11],[9,-36],[-21,-17],[11,-25],[-36,-56],[15,-36],[55,-21],[40,-47],[-1,-75],[-39,-21],[-48,0],[-64,-33],[-46,25],[-47,1],[-17,-24],[-54,14],[-51,-7],[-55,6],[-13,-16],[2,-44],[-12,-32],[-38,-6],[-46,-94],[-40,-34]],[[5985,1960],[18,12],[61,-6],[45,-30],[48,10],[13,24],[-9,37],[17,11],[52,-11],[51,4]],[[6418,4631],[-31,-27],[-4,-25],[-19,-5],[0,-32],[-15,-13],[-52,-2],[20,-42],[-5,-34],[11,-64],[-27,-57],[3,-36],[27,-31],[10,-36],[-38,-25],[-10,-29],[97,-83],[43,-67],[34,-36],[28,-52],[42,-139],[43,-13],[14,-54]],[[6560,3699],[-396,459],[-70,55],[-15,-22],[-2,-43],[-13,-13],[-60,-31],[-33,6],[2,-12],[-40,-17],[-6,-21],[-49,-40],[-18,-49],[-38,-16],[-3,-40],[-29,-8],[9,-19],[-18,-35],[-34,-11],[-51,38],[10,27],[-30,22]],[[3680,9275],[-80,-19],[-61,-20],[-53,5],[-25,10],[-81,-4],[0,-11],[-218,-61],[-54,-13],[-47,-1],[-57,-18],[-52,9],[-83,-16],[-10,-13],[-28,13],[-12,-33],[-21,-1],[6,-27],[-36,-4],[-40,18],[-5,29],[-60,5],[-4,17],[-24,-2],[0,-20],[-36,4],[-59,-15],[-87,-1],[-4,-29]],[[2449,9077],[-14,25],[3,35],[91,32],[43,7],[-6,59],[5,20],[-23,73],[0,29],[42,2],[33,18],[42,64],[16,-6],[66,29],[-12,35]],[[2735,9499],[26,22],[-46,16],[32,21],[29,-2],[-1,24],[20,2],[57,50],[19,4],[64,39],[71,15],[20,46],[45,12],[18,22],[4,37],[52,64],[11,59],[80,58],[63,11],[0,-29],[26,-18],[5,-63],[-10,-4],[-2,-59],[26,-24],[12,-47],[-15,-15],[13,-38],[-3,-61],[32,-16],[26,1],[91,-42],[55,-60],[70,-53]],[[2735,9499],[-54,3],[-72,-7],[-13,8],[-43,-26],[-64,0],[-13,-14],[-24,13],[-36,-4],[-6,-23],[-52,13],[-25,-34],[-26,2],[1,-30],[-24,-13],[-14,11],[-27,-21],[-70,-8],[-13,-17],[-91,-15],[-47,-14],[-12,15],[-51,18],[-7,-19],[-56,19],[-7,16],[-33,21],[-59,-3],[-29,35],[-69,-6],[4,13],[-85,51],[-2,12],[-51,-7],[-56,13],[-16,-40],[-32,8],[-56,-8],[-1,-26],[-32,-42],[-22,-15],[-42,-50],[24,-14],[-3,-57],[9,-33],[26,-43],[-1,-19],[-28,-41],[-8,-33],[-44,-34],[-9,-39],[-41,-56],[-92,-26],[-26,-22],[-9,-25],[0,-54],[-27,-22],[-37,-9],[-79,-2],[-23,-15],[-14,-38],[-39,-40],[-29,1],[-35,37],[-47,34],[-51,14],[-75,-13],[-80,28],[-49,34],[-30,35],[-8,111],[-42,28],[-109,40],[-56,34]],[[276,9089],[-58,37],[-20,22],[-89,41],[-25,2],[4,17],[-22,46],[-66,49],[2,58],[11,17],[37,18],[29,29],[59,-16],[61,14],[7,-31],[31,-11],[29,9],[16,26],[59,-5],[60,11],[10,20],[69,65],[39,-2],[42,43],[42,22],[41,40],[12,28],[35,5],[21,27],[57,12],[20,11],[73,18],[109,5],[25,62],[25,31],[34,23],[31,9],[73,-39],[-2,-11],[37,-37],[50,-22],[39,21],[4,25],[102,-38],[43,22],[68,-10],[11,29],[55,39],[50,-4],[23,-16],[36,-1],[14,-21],[54,11],[70,5],[34,-12],[11,-19],[44,12],[60,-3],[128,54],[16,-1],[55,24],[26,-42],[35,-8],[37,-24],[174,-88],[84,-58],[218,-130]],[[791,8010],[-42,38],[-27,14],[3,29],[-34,38],[4,15],[37,37],[-6,26],[-76,2],[-18,8],[-49,64],[-83,33],[-8,15],[25,48],[-46,41],[11,43],[61,35],[8,15],[-7,60],[-58,78],[-38,14],[-6,40],[-53,24],[-29,39],[-2,45],[14,34],[-34,90],[-1,42],[-40,8],[-14,14],[-7,90]],[[2449,9077],[-114,-198],[-1,-26],[19,-88],[2,-41],[103,-25],[-3,-99],[-9,-113],[-18,-15],[-7,-32],[20,-30],[6,-31],[-41,-137]],[[3432,5935],[-49,12],[-33,-12],[-28,21],[-46,-20],[-28,13],[-2,-22],[-35,-4],[-4,-35],[-30,-13],[-43,4],[-42,-15],[-1,-18],[-22,-45],[6,-50]],[[3075,5751],[-31,-21],[-28,3],[-32,29],[-17,-5],[-40,22],[-36,35],[3,19],[34,15],[43,37],[15,39],[-66,-2],[-37,10],[-12,17],[21,23],[-13,13],[24,21],[-17,43],[-20,7],[-51,-1],[-36,-14],[6,30],[-11,26],[-27,14],[-37,-2]],[[2710,6109],[-36,-20],[-10,-29],[-36,14],[-12,35],[-5,54],[-124,59],[-54,16],[-53,6],[-27,12],[-2,30],[-36,14],[-13,33]],[[2710,6109],[8,-14],[34,-6],[2,-33],[-12,-42],[22,-23],[58,-41],[-1,-48],[-13,-30],[-29,-13],[-13,-30],[17,-61],[-4,-25],[14,-12],[-28,-33],[-56,14],[-4,-36],[-16,0],[11,-55],[48,-48],[62,-24],[13,-12],[-3,-42],[-35,-27],[-4,-23],[64,-103],[-16,-28],[-39,-12],[-89,34],[-16,16],[7,49],[-45,13],[-42,-20],[8,-60],[-15,-25],[13,-52],[-25,-24],[-10,-41],[-43,-9],[-51,-2],[-38,38],[-59,26],[-50,-4],[-93,-45],[-106,43],[-53,-18],[-30,-22],[-118,-71],[-32,-11],[-66,17],[-36,-6],[-59,-45],[-91,-57],[-36,-2],[-167,40]],[[1448,5064],[-140,52],[-19,15],[-30,47],[18,24],[-2,36],[-36,28],[-4,21],[29,19],[61,5],[64,44],[-3,66],[115,109],[-21,43],[12,21],[-4,36],[-129,37],[-84,80],[-12,49],[-44,30],[-73,96],[-68,37],[-26,23],[-34,58],[-64,14],[-4,44],[-29,39],[25,45],[-4,10],[33,31]],[[3338,5298],[16,-3],[34,18],[13,23],[34,12],[-26,47],[15,45],[7,61],[-42,37],[-117,53],[-37,-2],[-37,12],[-18,-15],[-32,84],[-33,21],[-40,47],[0,13]],[[1686,4693],[-9,8],[8,37],[47,23],[6,18],[-18,49],[-25,32],[-32,15],[-36,32],[-45,56],[-1,42],[-14,10],[-68,4],[-39,18],[-12,27]]],"transform":{"scale":[0.00006959959645965076,0.00008154900360036137],"translate":[99.73277308900005,7.090332414000045]},"objects":{"Phatthalung":{"type":"GeometryCollection","geometries":[{"arcs":[[0,1,2,3,4,5,6]],"type":"Polygon","properties":{"Shape_Leng":0.2104006257,"Shape_Area":0.000973372047474,"ADM3_EN":"Khuha Sawan","ADM3_TH":"คูหาสวรรค์","ADM3_PCODE":"TH930101","ADM2_EN":"Mueang Phatthalung","ADM2_TH":"เมืองพัทลุง","ADM2_PCODE":"TH9301","ADM1_EN":"Phatthalung","ADM1_TH":"พัทลุง","ADM1_PCODE":"TH93","ADM0_EN":"Thailand","ADM0_TH":"ประเทศไทย","ADM0_PCODE":"TH"}},{"arcs":[[-5,7,8,9,10]],"type":"Polygon","properties":{"Shape_Leng":0.166147833551,"Shape_Area":0.00122379311794,"ADM3_EN":"Khao Chiak","ADM3_TH":"เขาเจียก","ADM3_PCODE":"TH930103","ADM2_EN":"Mueang Phatthalung","ADM2_TH":"เมืองพัทลุง","ADM2_PCODE":"TH9301","ADM1_EN":"Phatthalung","ADM1_TH":"พัทลุง","ADM1_PCODE":"TH93","ADM0_EN":"Thailand","ADM0_TH":"ประเทศไทย","ADM0_PCODE":"TH"}},{"arcs":[[-4,11,12,13,14,-8]],"type":"Polygon","properties":{"Shape_Leng":0.145808043402,"Shape_Area":0.000894897899572,"ADM3_EN":"Tha Miram","ADM3_TH":"ท่ามิหรำ","ADM3_PCODE":"TH930104","ADM2_EN":"Mueang Phatthalung","ADM2_TH":"เมืองพัทลุง","ADM2_PCODE":"TH9301","ADM1_EN":"Phatthalung","ADM1_TH":"พัทลุง","ADM1_PCODE":"TH93","ADM0_EN":"Thailand","ADM0_TH":"ประเทศไทย","ADM0_PCODE":"TH"}},{"arcs":[[-10,15,16,17,18]],"type":"Polygon","properties":{"Shape_Leng":0.185104339525,"Shape_Area":0.00159426792852,"ADM3_EN":"Khok Cha-Ngai","ADM3_TH":"โคกชะงาย","ADM3_PCODE":"TH930105","ADM2_EN":"Mueang Phatthalung","ADM2_TH":"เมืองพัทลุง","ADM2_PCODE":"TH9301","ADM1_EN":"Phatthalung","ADM1_TH":"พัทลุง","ADM1_PCODE":"TH93","ADM0_EN":"Thailand","ADM0_TH":"ประเทศไทย","ADM0_PCODE":"TH"}},{"arcs":[[-9,-15,19,20,21,-16]],"type":"Polygon","properties":{"Shape_Leng":0.171713885533,"Shape_Area":0.000911394750008,"ADM3_EN":"Na Thom","ADM3_TH":"นาท่อม","ADM3_PCODE":"TH930106","ADM2_EN":"Mueang Phatthalung","ADM2_TH":"เมืองพัทลุง","ADM2_PCODE":"TH9301","ADM1_EN":"Phatthalung","ADM1_TH":"พัทลุง","ADM1_PCODE":"TH93","ADM0_EN":"Thailand","ADM0_TH":"ประเทศไทย","ADM0_PCODE":"TH"}},{"arcs":[[-6,-11,-19,22,23,24,25]],"type":"Polygon","properties":{"Shape_Leng":0.219129353889,"Shape_Area":0.00128975369157,"ADM3_EN":"Prang Mu","ADM3_TH":"ปรางหมู่","ADM3_PCODE":"TH930107","ADM2_EN":"Mueang Phatthalung","ADM2_TH":"เมืองพัทลุง","ADM2_PCODE":"TH9301","ADM1_EN":"Phatthalung","ADM1_TH":"พัทลุง","ADM1_PCODE":"TH93","ADM0_EN":"Thailand","ADM0_TH":"ประเทศไทย","ADM0_PCODE":"TH"}},{"arcs":[[-13,26,27,28,29,30]],"type":"Polygon","properties":{"Shape_Leng":0.273962675817,"Shape_Area":0.00264756493959,"ADM3_EN":"Tha Khae","ADM3_TH":"ท่าแค","ADM3_PCODE":"TH930108","ADM2_EN":"Mueang Phatthalung","ADM2_TH":"เมืองพัทลุง","ADM2_PCODE":"TH9301","ADM1_EN":"Phatthalung","ADM1_TH":"พัทลุง","ADM1_PCODE":"TH93","ADM0_EN":"Thailand","ADM0_TH":"ประเทศไทย","ADM0_PCODE":"TH"}},{"arcs":[[-1,31,32,33,34,35,36]],"type":"Polygon","properties":{"Shape_Leng":0.548946714126,"Shape_Area":0.0135837040274,"ADM3_EN":"Lampam","ADM3_TH":"ลำปำ","ADM3_PCODE":"TH930109","ADM2_EN":"Mueang Phatthalung","ADM2_TH":"เมืองพัทลุง","ADM2_PCODE":"TH9301","ADM1_EN":"Phatthalung","ADM1_TH":"พัทลุง","ADM1_PCODE":"TH93","ADM0_EN":"Thailand","ADM0_TH":"ประเทศไทย","ADM0_PCODE":"TH"}},{"arcs":[[-3,37,38,-27,-12]],"type":"Polygon","properties":{"Shape_Leng":0.228439417272,"Shape_Area":0.00220099261092,"ADM3_EN":"Tamnan","ADM3_TH":"ตำนาน","ADM3_PCODE":"TH930110","ADM2_EN":"Mueang Phatthalung","ADM2_TH":"เมืองพัทลุง","ADM2_PCODE":"TH9301","ADM1_EN":"Phatthalung","ADM1_TH":"พัทลุง","ADM1_PCODE":"TH93","ADM0_EN":"Thailand","ADM0_TH":"ประเทศไทย","ADM0_PCODE":"TH"}},{"arcs":[[-2,-37,39,-38]],"type":"Polygon","properties":{"Shape_Leng":0.27392733163,"Shape_Area":0.00322310693624,"ADM3_EN":"Khuan Maphrao","ADM3_TH":"ควนมะพร้าว","ADM3_PCODE":"TH930111","ADM2_EN":"Mueang Phatthalung","ADM2_TH":"เมืองพัทลุง","ADM2_PCODE":"TH9301","ADM1_EN":"Phatthalung","ADM1_TH":"พัทลุง","ADM1_PCODE":"TH93","ADM0_EN":"Thailand","ADM0_TH":"ประเทศไทย","ADM0_PCODE":"TH"}},{"arcs":[[-14,-31,40,41,-20]],"type":"Polygon","properties":{"Shape_Leng":0.213779000123,"Shape_Area":0.00186276137755,"ADM3_EN":"Rom Mueang","ADM3_TH":"ร่มเมือง","ADM3_PCODE":"TH930112","ADM2_EN":"Mueang Phatthalung","ADM2_TH":"เมืองพัทลุง","ADM2_PCODE":"TH9301","ADM1_EN":"Phatthalung","ADM1_TH":"พัทลุง","ADM1_PCODE":"TH93","ADM0_EN":"Thailand","ADM0_TH":"ประเทศไทย","ADM0_PCODE":"TH"}},{"arcs":[[-25,42,43,44,-33,45]],"type":"Polygon","properties":{"Shape_Leng":0.312347434632,"Shape_Area":0.0039016226213,"ADM3_EN":"Chai Buri","ADM3_TH":"ชัยบุรี","ADM3_PCODE":"TH930113","ADM2_EN":"Mueang Phatthalung","ADM2_TH":"เมืองพัทลุง","ADM2_PCODE":"TH9301","ADM1_EN":"Phatthalung","ADM1_TH":"พัทลุง","ADM1_PCODE":"TH93","ADM0_EN":"Thailand","ADM0_TH":"ประเทศไทย","ADM0_PCODE":"TH"}},{"arcs":[[-29,46,47,48,49,50]],"type":"Polygon","properties":{"Shape_Leng":0.369214975403,"Shape_Area":0.00279353994264,"ADM3_EN":"Na Not","ADM3_TH":"นาโหนด","ADM3_PCODE":"TH930114","ADM2_EN":"Mueang Phatthalung","ADM2_TH":"เมืองพัทลุง","ADM2_PCODE":"TH9301","ADM1_EN":"Phatthalung","ADM1_TH":"พัทลุง","ADM1_PCODE":"TH93","ADM0_EN":"Thailand","ADM0_TH":"ประเทศไทย","ADM0_PCODE":"TH"}},{"arcs":[[-7,-26,-46,-32]],"type":"Polygon","properties":{"Shape_Leng":0.18546934428,"Shape_Area":0.00160009696921,"ADM3_EN":"Phaya Khan","ADM3_TH":"พญาขัน","ADM3_PCODE":"TH930115","ADM2_EN":"Mueang Phatthalung","ADM2_TH":"เมืองพัทลุง","ADM2_PCODE":"TH9301","ADM1_EN":"Phatthalung","ADM1_TH":"พัทลุง","ADM1_PCODE":"TH93","ADM0_EN":"Thailand","ADM0_TH":"ประเทศไทย","ADM0_PCODE":"TH"}},{"arcs":[[51,52,53,54,55]],"type":"Polygon","properties":{"Shape_Leng":0.369419532263,"Shape_Area":0.00422944773759,"ADM3_EN":"Kong Ra","ADM3_TH":"กงหรา","ADM3_PCODE":"TH930201","ADM2_EN":"Kong Ra","ADM2_TH":"กงหรา","ADM2_PCODE":"TH9302","ADM1_EN":"Phatthalung","ADM1_TH":"พัทลุง","ADM1_PCODE":"TH93","ADM0_EN":"Thailand","ADM0_TH":"ประเทศไทย","ADM0_PCODE":"TH"}},{"arcs":[[-50,56,57,-53,58]],"type":"Polygon","properties":{"Shape_Leng":0.257262503176,"Shape_Area":0.00173794608756,"ADM3_EN":"Charat","ADM3_TH":"ชะรัด","ADM3_PCODE":"TH930202","ADM2_EN":"Kong Ra","ADM2_TH":"กงหรา","ADM2_PCODE":"TH9302","ADM1_EN":"Phatthalung","ADM1_TH":"พัทลุง","ADM1_PCODE":"TH93","ADM0_EN":"Thailand","ADM0_TH":"ประเทศไทย","ADM0_PCODE":"TH"}},{"arcs":[[-49,59,60,61,62,-57]],"type":"Polygon","properties":{"Shape_Leng":0.678749205037,"Shape_Area":0.0101860967397,"ADM3_EN":"Khlong Chaloem","ADM3_TH":"คลองเฉลิม","ADM3_PCODE":"TH930203","ADM2_EN":"Kong Ra","ADM2_TH":"กงหรา","ADM2_PCODE":"TH9302","ADM1_EN":"Phatthalung","ADM1_TH":"พัทลุง","ADM1_PCODE":"TH93","ADM0_EN":"Thailand","ADM0_TH":"ประเทศไทย","ADM0_PCODE":"TH"}},{"arcs":[[-54,-58,-63,63]],"type":"Polygon","properties":{"Shape_Leng":0.390190328465,"Shape_Area":0.0052368906819,"ADM3_EN":"Khlong Sai Khao","ADM3_TH":"คลองทรายขาว","ADM3_PCODE":"TH930204","ADM2_EN":"Kong Ra","ADM2_TH":"กงหรา","ADM2_PCODE":"TH9302","ADM1_EN":"Phatthalung","ADM1_TH":"พัทลุง","ADM1_PCODE":"TH93","ADM0_EN":"Thailand","ADM0_TH":"ประเทศไทย","ADM0_PCODE":"TH"}},{"arcs":[[-30,-51,-59,-52,64,65,-41]],"type":"Polygon","properties":{"Shape_Leng":0.299686430874,"Shape_Area":0.00219897697382,"ADM3_EN":"Somwang","ADM3_TH":"สมหวัง","ADM3_PCODE":"TH930205","ADM2_EN":"Kong Ra","ADM2_TH":"กงหรา","ADM2_PCODE":"TH9302","ADM1_EN":"Phatthalung","ADM1_TH":"พัทลุง","ADM1_PCODE":"TH93","ADM0_EN":"Thailand","ADM0_TH":"ประเทศไทย","ADM0_PCODE":"TH"}},{"arcs":[[66,67,68,69,70,71,72]],"type":"Polygon","properties":{"Shape_Leng":0.601561734269,"Shape_Area":0.00536190733944,"ADM3_EN":"Khao Chaison","ADM3_TH":"เขาชัยสน","ADM3_PCODE":"TH930301","ADM2_EN":"Khao Chaison","ADM2_TH":"เขาชัยสน","ADM2_PCODE":"TH9303","ADM1_EN":"Phatthalung","ADM1_TH":"พัทลุง","ADM1_PCODE":"TH93","ADM0_EN":"Thailand","ADM0_TH":"ประเทศไทย","ADM0_PCODE":"TH"}},{"arcs":[[-28,-39,73,-71,74,-47]],"type":"Polygon","properties":{"Shape_Leng":0.343853210086,"Shape_Area":0.00378952156533,"ADM3_EN":"Khuan Khanun","ADM3_TH":"ควนขนุน","ADM3_PCODE":"TH930302","ADM2_EN":"Khao Chaison","ADM2_TH":"เขาชัยสน","ADM2_PCODE":"TH9303","ADM1_EN":"Phatthalung","ADM1_TH":"พัทลุง","ADM1_PCODE":"TH93","ADM0_EN":"Thailand","ADM0_TH":"ประเทศไทย","ADM0_PCODE":"TH"}},{"arcs":[[-73,75,76,77,78,79]],"type":"Polygon","properties":{"Shape_Leng":0.334912905916,"Shape_Area":0.00431501606547,"ADM3_EN":"Chong Thanon","ADM3_TH":"จองถนน","ADM3_PCODE":"TH930305","ADM2_EN":"Khao Chaison","ADM2_TH":"เขาชัยสน","ADM2_PCODE":"TH9303","ADM1_EN":"Phatthalung","ADM1_TH":"พัทลุง","ADM1_PCODE":"TH93","ADM0_EN":"Thailand","ADM0_TH":"ประเทศไทย","ADM0_PCODE":"TH"}},{"arcs":[[-36,80,-76,-72,-74,-40]],"type":"Polygon","properties":{"Shape_Leng":0.434649829901,"Shape_Area":0.00825083326076,"ADM3_EN":"Han Pho","ADM3_TH":"หานโพธิ์","ADM3_PCODE":"TH930306","ADM2_EN":"Khao Chaison","ADM2_TH":"เขาชัยสน","ADM2_PCODE":"TH9303","ADM1_EN":"Phatthalung","ADM1_TH":"พัทลุง","ADM1_PCODE":"TH93","ADM0_EN":"Thailand","ADM0_TH":"ประเทศไทย","ADM0_PCODE":"TH"}},{"arcs":[[-48,-75,-70,81,82,-60]],"type":"Polygon","properties":{"Shape_Leng":0.578990383557,"Shape_Area":0.00691316020512,"ADM3_EN":"Khok Muang","ADM3_TH":"โคกม่วง","ADM3_PCODE":"TH930307","ADM2_EN":"Khao Chaison","ADM2_TH":"เขาชัยสน","ADM2_PCODE":"TH9303","ADM1_EN":"Phatthalung","ADM1_TH":"พัทลุง","ADM1_PCODE":"TH93","ADM0_EN":"Thailand","ADM0_TH":"ประเทศไทย","ADM0_PCODE":"TH"}},{"arcs":[[-69,83,84,85,86,87,-82]],"type":"Polygon","properties":{"Shape_Leng":0.365248901717,"Shape_Area":0.00347668714791,"ADM3_EN":"Mae Khri","ADM3_TH":"แม่ขรี","ADM3_PCODE":"TH930401","ADM2_EN":"Tamot","ADM2_TH":"ตะโหมด","ADM2_PCODE":"TH9304","ADM1_EN":"Phatthalung","ADM1_TH":"พัทลุง","ADM1_PCODE":"TH93","ADM0_EN":"Thailand","ADM0_TH":"ประเทศไทย","ADM0_PCODE":"TH"}},{"arcs":[[-61,-83,-88,88,89,90]],"type":"Polygon","properties":{"Shape_Leng":0.764619445228,"Shape_Area":0.0145631046513,"ADM3_EN":"Tamot","ADM3_TH":"ตะโหมด","ADM3_PCODE":"TH930402","ADM2_EN":"Tamot","ADM2_TH":"ตะโหมด","ADM2_PCODE":"TH9304","ADM1_EN":"Phatthalung","ADM1_TH":"พัทลุง","ADM1_PCODE":"TH93","ADM0_EN":"Thailand","ADM0_TH":"ประเทศไทย","ADM0_PCODE":"TH"}},{"arcs":[[-87,91,-89]],"type":"Polygon","properties":{"Shape_Leng":0.476442713693,"Shape_Area":0.0047511195406,"ADM3_EN":"Khlong Yai","ADM3_TH":"คลองใหญ่","ADM3_PCODE":"TH930403","ADM2_EN":"Tamot","ADM2_TH":"ตะโหมด","ADM2_PCODE":"TH9304","ADM1_EN":"Phatthalung","ADM1_TH":"พัทลุง","ADM1_PCODE":"TH93","ADM0_EN":"Thailand","ADM0_TH":"ประเทศไทย","ADM0_PCODE":"TH"}},{"arcs":[[92,93,94,95,96]],"type":"Polygon","properties":{"Shape_Leng":0.231282417403,"Shape_Area":0.00204253455841,"ADM3_EN":"Khuan Khanun","ADM3_TH":"ควนขนุน","ADM3_PCODE":"TH930501","ADM2_EN":"Khuan Khanun","ADM2_TH":"ควนขนุน","ADM2_PCODE":"TH9305","ADM1_EN":"Phatthalung","ADM1_TH":"พัทลุง","ADM1_PCODE":"TH93","ADM0_EN":"Thailand","ADM0_TH":"ประเทศไทย","ADM0_PCODE":"TH"}},{"arcs":[[97,98,99]],"type":"Polygon","properties":{"Shape_Leng":0.413392038907,"Shape_Area":0.00868225986271,"ADM3_EN":"Thale Noi","ADM3_TH":"ทะเลน้อย","ADM3_PCODE":"TH930502","ADM2_EN":"Khuan Khanun","ADM2_TH":"ควนขนุน","ADM2_PCODE":"TH9305","ADM1_EN":"Phatthalung","ADM1_TH":"พัทลุง","ADM1_PCODE":"TH93","ADM0_EN":"Thailand","ADM0_TH":"ประเทศไทย","ADM0_PCODE":"TH"}},{"arcs":[[100,101,102,103,104]],"type":"Polygon","properties":{"Shape_Leng":0.271033236341,"Shape_Area":0.00338979397736,"ADM3_EN":"Na Khayat","ADM3_TH":"นาขยาด","ADM3_PCODE":"TH930504","ADM2_EN":"Khuan Khanun","ADM2_TH":"ควนขนุน","ADM2_PCODE":"TH9305","ADM1_EN":"Phatthalung","ADM1_TH":"พัทลุง","ADM1_PCODE":"TH93","ADM0_EN":"Thailand","ADM0_TH":"ประเทศไทย","ADM0_PCODE":"TH"}},{"arcs":[[-24,105,-101,106,107,-43]],"type":"Polygon","properties":{"Shape_Leng":0.270586129901,"Shape_Area":0.00241664769843,"ADM3_EN":"Phanom Wang","ADM3_TH":"พนมวังก์","ADM3_PCODE":"TH930505","ADM2_EN":"Khuan Khanun","ADM2_TH":"ควนขนุน","ADM2_PCODE":"TH9305","ADM1_EN":"Phatthalung","ADM1_TH":"พัทลุง","ADM1_PCODE":"TH93","ADM0_EN":"Thailand","ADM0_TH":"ประเทศไทย","ADM0_PCODE":"TH"}},{"arcs":[[-99,108,109,110,111,112]],"type":"Polygon","properties":{"Shape_Leng":0.360538871683,"Shape_Area":0.00356656668916,"ADM3_EN":"Laem Tanot","ADM3_TH":"แหลมโตนด","ADM3_PCODE":"TH930506","ADM2_EN":"Khuan Khanun","ADM2_TH":"ควนขนุน","ADM2_PCODE":"TH9305","ADM1_EN":"Phatthalung","ADM1_TH":"พัทลุง","ADM1_PCODE":"TH93","ADM0_EN":"Thailand","ADM0_TH":"ประเทศไทย","ADM0_PCODE":"TH"}},{"arcs":[[-97,113,114,-110,115,116]],"type":"Polygon","properties":{"Shape_Leng":0.369805674299,"Shape_Area":0.00383805260457,"ADM3_EN":"Pantae","ADM3_TH":"ปันแต","ADM3_PCODE":"TH930508","ADM2_EN":"Khuan Khanun","ADM2_TH":"ควนขนุน","ADM2_PCODE":"TH9305","ADM1_EN":"Phatthalung","ADM1_TH":"พัทลุง","ADM1_PCODE":"TH93","ADM0_EN":"Thailand","ADM0_TH":"ประเทศไทย","ADM0_PCODE":"TH"}},{"arcs":[[-94,117,-107,118]],"type":"Polygon","properties":{"Shape_Leng":0.210642889575,"Shape_Area":0.00186045214056,"ADM3_EN":"Tanot Duan","ADM3_TH":"โตนดด้วน","ADM3_PCODE":"TH930509","ADM2_EN":"Khuan Khanun","ADM2_TH":"ควนขนุน","ADM2_PCODE":"TH9305","ADM1_EN":"Phatthalung","ADM1_TH":"พัทลุง","ADM1_PCODE":"TH93","ADM0_EN":"Thailand","ADM0_TH":"ประเทศไทย","ADM0_PCODE":"TH"}},{"arcs":[[-95,-119,-105,119,120]],"type":"Polygon","properties":{"Shape_Leng":0.243267600416,"Shape_Area":0.00181737397882,"ADM3_EN":"Don Sai","ADM3_TH":"ดอนทราย","ADM3_PCODE":"TH930510","ADM2_EN":"Khuan Khanun","ADM2_TH":"ควนขนุน","ADM2_PCODE":"TH9305","ADM1_EN":"Phatthalung","ADM1_TH":"พัทลุง","ADM1_PCODE":"TH93","ADM0_EN":"Thailand","ADM0_TH":"ประเทศไทย","ADM0_PCODE":"TH"}},{"arcs":[[-44,-108,-118,-93,-117,121]],"type":"Polygon","properties":{"Shape_Leng":0.300211350916,"Shape_Area":0.00287749024573,"ADM3_EN":"Makok Nuea","ADM3_TH":"มะกอกเหนือ","ADM3_PCODE":"TH930511","ADM2_EN":"Khuan Khanun","ADM2_TH":"ควนขนุน","ADM2_PCODE":"TH9305","ADM1_EN":"Phatthalung","ADM1_TH":"พัทลุง","ADM1_PCODE":"TH93","ADM0_EN":"Thailand","ADM0_TH":"ประเทศไทย","ADM0_PCODE":"TH"}},{"arcs":[[-34,-45,-122,-116,-109,-98,122]],"type":"Polygon","properties":{"Shape_Leng":0.489009756587,"Shape_Area":0.00826238477801,"ADM3_EN":"Phanang Tung","ADM3_TH":"พนางตุง","ADM3_PCODE":"TH930512","ADM2_EN":"Khuan Khanun","ADM2_TH":"ควนขนุน","ADM2_PCODE":"TH9305","ADM1_EN":"Phatthalung","ADM1_TH":"พัทลุง","ADM1_PCODE":"TH93","ADM0_EN":"Thailand","ADM0_TH":"ประเทศไทย","ADM0_PCODE":"TH"}},{"arcs":[[-96,-121,123,124,-114]],"type":"Polygon","properties":{"Shape_Leng":0.320049259809,"Shape_Area":0.00381362459021,"ADM3_EN":"Chamuang","ADM3_TH":"ชะมวง","ADM3_PCODE":"TH930513","ADM2_EN":"Khuan Khanun","ADM2_TH":"ควนขนุน","ADM2_PCODE":"TH9305","ADM1_EN":"Phatthalung","ADM1_TH":"พัทลุง","ADM1_PCODE":"TH93","ADM0_EN":"Thailand","ADM0_TH":"ประเทศไทย","ADM0_PCODE":"TH"}},{"arcs":[[-18,125,126,-102,-106,-23]],"type":"Polygon","properties":{"Shape_Leng":0.21702976692,"Shape_Area":0.00155638578691,"ADM3_EN":"Phraek Ha","ADM3_TH":"แพรกหา","ADM3_PCODE":"TH930516","ADM2_EN":"Khuan Khanun","ADM2_TH":"ควนขนุน","ADM2_PCODE":"TH9305","ADM1_EN":"Phatthalung","ADM1_TH":"พัทลุง","ADM1_PCODE":"TH93","ADM0_EN":"Thailand","ADM0_TH":"ประเทศไทย","ADM0_PCODE":"TH"}},{"arcs":[[127,128,129,130,131,132]],"type":"Polygon","properties":{"Shape_Leng":0.25992487739,"Shape_Area":0.00301524396458,"ADM3_EN":"Pak Phayun","ADM3_TH":"ปากพะยูน","ADM3_PCODE":"TH930601","ADM2_EN":"Pak Phayun","ADM2_TH":"ปากพะยูน","ADM2_PCODE":"TH9306","ADM1_EN":"Phatthalung","ADM1_TH":"พัทลุง","ADM1_PCODE":"TH93","ADM0_EN":"Thailand","ADM0_TH":"ประเทศไทย","ADM0_PCODE":"TH"}},{"arcs":[[-130,133,134,135]],"type":"Polygon","properties":{"Shape_Leng":0.297575603348,"Shape_Area":0.00279886357089,"ADM3_EN":"Don Pradu","ADM3_TH":"ดอนประดู่","ADM3_PCODE":"TH930602","ADM2_EN":"Pak Phayun","ADM2_TH":"ปากพะยูน","ADM2_PCODE":"TH9306","ADM1_EN":"Phatthalung","ADM1_TH":"พัทลุง","ADM1_PCODE":"TH93","ADM0_EN":"Thailand","ADM0_TH":"ประเทศไทย","ADM0_PCODE":"TH"}},{"arcs":[[-128,136,137]],"type":"Polygon","properties":{"Shape_Leng":0.387253698453,"Shape_Area":0.00646005213555,"ADM3_EN":"Ko Nang Kham","ADM3_TH":"เกาะนางคำ","ADM3_PCODE":"TH930603","ADM2_EN":"Pak Phayun","ADM2_TH":"ปากพะยูน","ADM2_PCODE":"TH9306","ADM1_EN":"Phatthalung","ADM1_TH":"พัทลุง","ADM1_PCODE":"TH93","ADM0_EN":"Thailand","ADM0_TH":"ประเทศไทย","ADM0_PCODE":"TH"}},{"arcs":[[-78,138,-137,-133,139,140]],"type":"Polygon","properties":{"Shape_Leng":0.483750866114,"Shape_Area":0.013455962814,"ADM3_EN":"Ko Mak","ADM3_TH":"เกาะหมาก","ADM3_PCODE":"TH930604","ADM2_EN":"Pak Phayun","ADM2_TH":"ปากพะยูน","ADM2_PCODE":"TH9306","ADM1_EN":"Phatthalung","ADM1_TH":"พัทลุง","ADM1_PCODE":"TH93","ADM0_EN":"Thailand","ADM0_TH":"ประเทศไทย","ADM0_PCODE":"TH"}},{"arcs":[[-132,141,142,143,144,145,146,-140]],"type":"Polygon","properties":{"Shape_Leng":0.395821984125,"Shape_Area":0.00868042697088,"ADM3_EN":"Fa Lami","ADM3_TH":"ฝาละมี","ADM3_PCODE":"TH930605","ADM2_EN":"Pak Phayun","ADM2_TH":"ปากพะยูน","ADM2_PCODE":"TH9306","ADM1_EN":"Phatthalung","ADM1_TH":"พัทลุง","ADM1_PCODE":"TH93","ADM0_EN":"Thailand","ADM0_TH":"ประเทศไทย","ADM0_PCODE":"TH"}},{"arcs":[[-131,-136,147,148,149,-142]],"type":"Polygon","properties":{"Shape_Leng":0.43000041336,"Shape_Area":0.00448608005682,"ADM3_EN":"Han Thao","ADM3_TH":"หารเทา","ADM3_PCODE":"TH930606","ADM2_EN":"Pak Phayun","ADM2_TH":"ปากพะยูน","ADM2_PCODE":"TH9306","ADM1_EN":"Phatthalung","ADM1_TH":"พัทลุง","ADM1_PCODE":"TH93","ADM0_EN":"Thailand","ADM0_TH":"ประเทศไทย","ADM0_PCODE":"TH"}},{"arcs":[[-135,150,151,-148]],"type":"Polygon","properties":{"Shape_Leng":0.232943344024,"Shape_Area":0.00152853863974,"ADM3_EN":"Don Sai","ADM3_TH":"ดอนทราย","ADM3_PCODE":"TH930607","ADM2_EN":"Pak Phayun","ADM2_TH":"ปากพะยูน","ADM2_PCODE":"TH9306","ADM1_EN":"Phatthalung","ADM1_TH":"พัทลุง","ADM1_PCODE":"TH93","ADM0_EN":"Thailand","ADM0_TH":"ประเทศไทย","ADM0_PCODE":"TH"}},{"arcs":[[-104,152,153,154,155,-124,-120]],"type":"Polygon","properties":{"Shape_Leng":0.39926625136,"Shape_Area":0.00412998565743,"ADM3_EN":"Khao Ya","ADM3_TH":"เขาย่า","ADM3_PCODE":"TH930701","ADM2_EN":"Si Banphot","ADM2_TH":"ศรีบรรพต","ADM2_PCODE":"TH9307","ADM1_EN":"Phatthalung","ADM1_TH":"พัทลุง","ADM1_PCODE":"TH93","ADM0_EN":"Thailand","ADM0_TH":"ประเทศไทย","ADM0_PCODE":"TH"}},{"arcs":[[-154,156,157,158]],"type":"Polygon","properties":{"Shape_Leng":0.434534726922,"Shape_Area":0.00722730835888,"ADM3_EN":"Khao Pu","ADM3_TH":"เขาปู่","ADM3_PCODE":"TH930702","ADM2_EN":"Si Banphot","ADM2_TH":"ศรีบรรพต","ADM2_PCODE":"TH9307","ADM1_EN":"Phatthalung","ADM1_TH":"พัทลุง","ADM1_PCODE":"TH93","ADM0_EN":"Thailand","ADM0_TH":"ประเทศไทย","ADM0_PCODE":"TH"}},{"arcs":[[-103,-127,159,160,161,-157,-153]],"type":"Polygon","properties":{"Shape_Leng":0.714173545197,"Shape_Area":0.00824276473711,"ADM3_EN":"Tapaen","ADM3_TH":"ตะแพน","ADM3_PCODE":"TH930703","ADM2_EN":"Si Banphot","ADM2_TH":"ศรีบรรพต","ADM2_PCODE":"TH9307","ADM1_EN":"Phatthalung","ADM1_TH":"พัทลุง","ADM1_PCODE":"TH93","ADM0_EN":"Thailand","ADM0_TH":"ประเทศไทย","ADM0_PCODE":"TH"}},{"arcs":[[-85,162,-144,163,164]],"type":"Polygon","properties":{"Shape_Leng":0.392050035564,"Shape_Area":0.00479373484389,"ADM3_EN":"Pa Bon","ADM3_TH":"ป่าบอน","ADM3_PCODE":"TH930801","ADM2_EN":"Pa Bon","ADM2_TH":"ป่าบอน","ADM2_PCODE":"TH9308","ADM1_EN":"Phatthalung","ADM1_TH":"พัทลุง","ADM1_PCODE":"TH93","ADM0_EN":"Thailand","ADM0_TH":"ประเทศไทย","ADM0_PCODE":"TH"}},{"arcs":[[-149,-152,165,166,167]],"type":"Polygon","properties":{"Shape_Leng":0.638975864022,"Shape_Area":0.00723952773645,"ADM3_EN":"Khok Sai","ADM3_TH":"โคกทราย","ADM3_PCODE":"TH930802","ADM2_EN":"Pa Bon","ADM2_TH":"ป่าบอน","ADM2_PCODE":"TH9308","ADM1_EN":"Phatthalung","ADM1_TH":"พัทลุง","ADM1_PCODE":"TH93","ADM0_EN":"Thailand","ADM0_TH":"ประเทศไทย","ADM0_PCODE":"TH"}},{"arcs":[[-86,-165,168,169,170,-90,-92]],"type":"Polygon","properties":{"Shape_Leng":0.903420272265,"Shape_Area":0.015081923966,"ADM3_EN":"Nong Thong","ADM3_TH":"หนองธง","ADM3_PCODE":"TH930803","ADM2_EN":"Pa Bon","ADM2_TH":"ป่าบอน","ADM2_PCODE":"TH9308","ADM1_EN":"Phatthalung","ADM1_TH":"พัทลุง","ADM1_PCODE":"TH93","ADM0_EN":"Thailand","ADM0_TH":"ประเทศไทย","ADM0_PCODE":"TH"}},{"arcs":[[-167,171,-170,172]],"type":"Polygon","properties":{"Shape_Leng":0.787422792438,"Shape_Area":0.00749667905731,"ADM3_EN":"Thung Nari","ADM3_TH":"ทุ่งนารี","ADM3_PCODE":"TH930804","ADM2_EN":"Pa Bon","ADM2_TH":"ป่าบอน","ADM2_PCODE":"TH9308","ADM1_EN":"Phatthalung","ADM1_TH":"พัทลุง","ADM1_PCODE":"TH93","ADM0_EN":"Thailand","ADM0_TH":"ประเทศไทย","ADM0_PCODE":"TH"}},{"arcs":[[-143,-150,-168,-173,-169,-164]],"type":"Polygon","properties":{"Shape_Leng":0.418462515191,"Shape_Area":0.00432434135869,"ADM3_EN":"Wang Mai","ADM3_TH":"วังใหม่","ADM3_PCODE":"TH930806","ADM2_EN":"Pa Bon","ADM2_TH":"ป่าบอน","ADM2_PCODE":"TH9308","ADM1_EN":"Phatthalung","ADM1_TH":"พัทลุง","ADM1_PCODE":"TH93","ADM0_EN":"Thailand","ADM0_TH":"ประเทศไทย","ADM0_PCODE":"TH"}},{"arcs":[[-67,-80,173,-146,174]],"type":"Polygon","properties":{"Shape_Leng":0.323460775789,"Shape_Area":0.00185244057974,"ADM3_EN":"Tha Maduea","ADM3_TH":"ท่ามะเดื่อ","ADM3_PCODE":"TH930901","ADM2_EN":"Bang Kaeo","ADM2_TH":"บางแก้ว","ADM2_PCODE":"TH9309","ADM1_EN":"Phatthalung","ADM1_TH":"พัทลุง","ADM1_PCODE":"TH93","ADM0_EN":"Thailand","ADM0_TH":"ประเทศไทย","ADM0_PCODE":"TH"}},{"arcs":[[-79,-141,-147,-174]],"type":"Polygon","properties":{"Shape_Leng":0.347775407549,"Shape_Area":0.00689201699579,"ADM3_EN":"Na Pakho","ADM3_TH":"นาปะขอ","ADM3_PCODE":"TH930902","ADM2_EN":"Bang Kaeo","ADM2_TH":"บางแก้ว","ADM2_PCODE":"TH9309","ADM1_EN":"Phatthalung","ADM1_TH":"พัทลุง","ADM1_PCODE":"TH93","ADM0_EN":"Thailand","ADM0_TH":"ประเทศไทย","ADM0_PCODE":"TH"}},{"arcs":[[-68,-175,-145,-163,-84]],"type":"Polygon","properties":{"Shape_Leng":0.364097555241,"Shape_Area":0.00436198445128,"ADM3_EN":"Khok Sak","ADM3_TH":"โคกสัก","ADM3_PCODE":"TH930903","ADM2_EN":"Bang Kaeo","ADM2_TH":"บางแก้ว","ADM2_PCODE":"TH9309","ADM1_EN":"Phatthalung","ADM1_TH":"พัทลุง","ADM1_PCODE":"TH93","ADM0_EN":"Thailand","ADM0_TH":"ประเทศไทย","ADM0_PCODE":"TH"}},{"arcs":[[-112,175,176,177]],"type":"Polygon","properties":{"Shape_Leng":0.352992480925,"Shape_Area":0.00294351700012,"ADM3_EN":"Pa Phayom","ADM3_TH":"ป่าพะยอม","ADM3_PCODE":"TH931001","ADM2_EN":"Pa Phayom","ADM2_TH":"ป่าพะยอม","ADM2_PCODE":"TH9310","ADM1_EN":"Phatthalung","ADM1_TH":"พัทลุง","ADM1_PCODE":"TH93","ADM0_EN":"Thailand","ADM0_TH":"ประเทศไทย","ADM0_PCODE":"TH"}},{"arcs":[[178,179]],"type":"Polygon","properties":{"Shape_Leng":0.564662206649,"Shape_Area":0.00747878836961,"ADM3_EN":"Lan Khoi","ADM3_TH":"ลานข่อย","ADM3_PCODE":"TH931002","ADM2_EN":"Pa Phayom","ADM2_TH":"ป่าพะยอม","ADM2_PCODE":"TH9310","ADM1_EN":"Phatthalung","ADM1_TH":"พัทลุง","ADM1_PCODE":"TH93","ADM0_EN":"Thailand","ADM0_TH":"ประเทศไทย","ADM0_PCODE":"TH"}},{"arcs":[[-155,-159,180,-179,-177,181]],"type":"Polygon","properties":{"Shape_Leng":0.71278408896,"Shape_Area":0.0110378069102,"ADM3_EN":"Ko Tao","ADM3_TH":"เกาะเต่า","ADM3_PCODE":"TH931003","ADM2_EN":"Pa Phayom","ADM2_TH":"ป่าพะยอม","ADM2_PCODE":"TH9310","ADM1_EN":"Phatthalung","ADM1_TH":"พัทลุง","ADM1_PCODE":"TH93","ADM0_EN":"Thailand","ADM0_TH":"ประเทศไทย","ADM0_PCODE":"TH"}},{"arcs":[[-111,-115,-125,-156,-182,-176]],"type":"Polygon","properties":{"Shape_Leng":0.392897580641,"Shape_Area":0.00405254109917,"ADM3_EN":"Ban Phrao","ADM3_TH":"บ้านพร้าว","ADM3_PCODE":"TH931004","ADM2_EN":"Pa Phayom","ADM2_TH":"ป่าพะยอม","ADM2_PCODE":"TH9310","ADM1_EN":"Phatthalung","ADM1_TH":"พัทลุง","ADM1_PCODE":"TH93","ADM0_EN":"Thailand","ADM0_TH":"ประเทศไทย","ADM0_PCODE":"TH"}},{"arcs":[[-17,-22,182,183,184,-160,-126]],"type":"Polygon","properties":{"Shape_Leng":0.425096239945,"Shape_Area":0.00483297986935,"ADM3_EN":"Chumphon","ADM3_TH":"ชุมพล","ADM3_PCODE":"TH931101","ADM2_EN":"Srinagarindra","ADM2_TH":"ศรีนครินทร์","ADM2_PCODE":"TH9311","ADM1_EN":"Phatthalung","ADM1_TH":"พัทลุง","ADM1_PCODE":"TH93","ADM0_EN":"Thailand","ADM0_TH":"ประเทศไทย","ADM0_PCODE":"TH"}},{"arcs":[[-161,-185,185,186]],"type":"Polygon","properties":{"Shape_Leng":0.529503216229,"Shape_Area":0.00996901031609,"ADM3_EN":"Ban Na","ADM3_TH":"บ้านนา","ADM3_PCODE":"TH931102","ADM2_EN":"Srinagarindra","ADM2_TH":"ศรีนครินทร์","ADM2_PCODE":"TH9311","ADM1_EN":"Phatthalung","ADM1_TH":"พัทลุง","ADM1_PCODE":"TH93","ADM0_EN":"Thailand","ADM0_TH":"ประเทศไทย","ADM0_PCODE":"TH"}},{"arcs":[[-21,-42,-66,187,-183]],"type":"Polygon","properties":{"Shape_Leng":0.220536260075,"Shape_Area":0.00177112164363,"ADM3_EN":"Ang Thong","ADM3_TH":"อ่างทอง","ADM3_PCODE":"TH931103","ADM2_EN":"Srinagarindra","ADM2_TH":"ศรีนครินทร์","ADM2_PCODE":"TH9311","ADM1_EN":"Phatthalung","ADM1_TH":"พัทลุง","ADM1_PCODE":"TH93","ADM0_EN":"Thailand","ADM0_TH":"ประเทศไทย","ADM0_PCODE":"TH"}},{"arcs":[[-56,188,-186,-184,-188,-65]],"type":"Polygon","properties":{"Shape_Leng":0.577971244841,"Shape_Area":0.00427945547263,"ADM3_EN":"Lam Sin","ADM3_TH":"ลำสินธุ์","ADM3_PCODE":"TH931104","ADM2_EN":"Srinagarindra","ADM2_TH":"ศรีนครินทร์","ADM2_PCODE":"TH9311","ADM1_EN":"Phatthalung","ADM1_TH":"พัทลุง","ADM1_PCODE":"TH93","ADM0_EN":"Thailand","ADM0_TH":"ประเทศไทย","ADM0_PCODE":"TH"}}]}}}