{"type":"Topology","arcs":[[[2500,3798],[-19,-21],[-23,25],[-17,1]],[[2441,3803],[-154,7],[-98,74]],[[2189,3884],[-50,42]],[[2139,3926],[23,67]],[[2162,3993],[16,45]],[[2178,4038],[321,-182],[1,-58]],[[2500,3798],[-3,-348],[-12,-1]],[[2485,3449],[-49,-1],[-91,6]],[[2345,3454],[-1,140],[4,117],[93,92]],[[2182,3007],[-11,-62],[31,-25],[15,-26],[37,10],[-6,-20],[21,-46],[20,-63],[-50,-38],[0,-48],[-26,-35],[-6,-28],[-17,-15],[-58,-34],[-10,-11],[-39,-115],[-16,-33],[-53,-62],[-150,-12],[-34,27],[-4,21],[-94,3],[-38,-17],[-86,-1]],[[1608,2377],[-44,40],[-6,20],[17,23],[1,22],[18,30],[-40,9],[-83,78],[-4,44],[-29,40],[14,53],[-34,23],[-21,-1],[-24,-45],[-64,0],[-40,-21],[-33,1],[-38,-35],[-27,4],[-41,24],[-34,5],[-32,-10],[-20,15],[11,22],[-36,28],[-61,30],[1,48],[10,79],[-27,18],[-25,1],[-12,33],[-28,38],[-2,34],[-22,40],[19,57],[-10,18],[-1,38],[-20,29]],[[841,3209],[45,34],[37,17],[33,6],[16,14],[57,7],[25,-13],[46,46],[12,32],[46,-5],[28,37],[25,-3],[33,24],[34,2],[79,37],[36,6],[27,20],[56,-5],[42,26],[112,9],[50,7],[62,21],[32,18],[39,7]],[[1813,3553],[38,-33],[49,-4],[65,3],[7,-65],[45,-60],[47,-95],[-12,-46],[-15,4],[-40,-14],[-49,-54],[14,-26],[-7,-33],[9,-32],[-11,-50],[5,-28],[106,-4],[37,-6],[80,9],[1,-12]],[[2189,3884],[-142,-104],[-149,-106],[-16,-26],[-17,-60],[-19,-23],[-33,-12]],[[841,3209],[3,24],[-16,39],[-8,52],[-26,37],[-3,41],[8,21]],[[799,3423],[67,20],[60,12],[58,31],[24,0],[61,42],[3,14],[32,28],[38,60],[-2,25],[36,11],[8,18],[44,4],[47,-24],[31,1],[29,-18],[36,12],[29,-13],[55,37],[9,24],[49,23],[55,-1],[27,45],[38,-7],[32,18],[19,25],[180,19],[127,43],[148,54]],[[2483,4987],[-3,-49],[-24,-87]],[[2456,4851],[-31,-37],[-36,-72],[-36,-10],[-23,6],[-45,-9],[-20,-15],[-1,-47],[-8,-13],[-30,2],[-21,-15],[-28,-1],[-41,18],[-23,-9],[-38,-40],[-21,-36],[-57,-117],[-10,-35],[-24,-8],[-34,-58],[-33,16],[-121,5],[-40,-9],[-64,13],[-32,0],[-40,-22],[1,-13],[-23,-38],[-26,-14],[-56,-2],[-11,-13],[-25,8],[-9,18],[-27,16],[-63,11],[-69,-9],[-37,23],[-52,-39],[-26,12],[-39,-21],[-22,-22],[-33,-7],[-11,-39],[14,-21],[-5,-18],[-36,-41],[-15,-38],[-24,-20],[-51,-9],[-19,-21],[-26,-8],[-81,-9]],[[828,4044],[-12,-17],[3,-73],[-18,-8],[-69,28],[-42,40],[-51,-5],[-55,12],[-55,25],[-43,-13]],[[486,4033],[-21,33],[-5,38],[-45,53],[-4,33],[8,30],[-24,38],[-9,55],[-53,46],[14,33],[-7,77],[-33,44],[-13,68],[0,35],[-15,37],[-39,19],[-23,50],[28,24],[-1,22],[-28,34],[-9,24],[16,36]],[[223,4862],[33,-44],[54,-5],[32,-10],[64,-56],[61,-2],[60,-16],[105,28],[73,26],[51,-2],[37,-12],[31,-23],[73,-35],[33,-41],[26,-15],[18,-28],[109,-43],[21,-17],[43,-14],[123,-12],[71,-3],[150,-19],[75,-2],[31,4],[142,48],[67,29],[-6,21],[-32,0],[-27,40],[11,45]],[[1752,4704],[93,82],[152,89],[330,204],[156,-92]],[[2162,3993],[-337,11]],[[1825,4004],[-3,56],[11,51],[15,14],[-57,4],[-19,12],[-81,19],[-52,25],[-22,-11],[-20,28],[-22,-14],[-25,0],[-28,-18],[-22,-1],[-33,-28],[-30,8],[-51,-48],[-43,4],[-6,18],[-42,3],[-16,-22],[-22,6],[-58,-21],[40,-27],[-14,-45],[1,-42],[-38,3],[-31,45],[-45,-5],[-104,-35],[-48,47],[-34,-6],[-56,8],[-42,12]],[[2456,4851],[5,-16],[-25,-49]],[[2436,4786],[-15,-45],[-33,-142],[-37,-92],[-66,-150],[-51,-159],[-26,-70],[-20,-22],[32,-27],[-8,-42],[-26,24],[-8,-23]],[[1752,4704],[-46,5],[-33,35],[7,7],[-10,49],[22,8],[-3,56],[-11,12]],[[1678,4876],[-37,33],[-18,69],[5,47],[-43,1],[14,28],[-15,-2],[-6,28],[15,25],[-14,1],[-14,43],[-41,52],[-15,39],[4,15],[-17,23],[12,26],[-15,12],[29,44],[-20,30],[-7,37]],[[1495,5427],[31,8],[-10,10],[8,26],[-14,35],[-27,20],[9,26]],[[1492,5552],[13,29],[43,33],[81,-56],[24,-30],[51,18],[9,14],[46,-24],[35,9],[50,59],[55,12],[25,26],[24,133],[5,83],[9,33]],[[1962,5891],[19,22],[90,-9],[82,-39],[40,7],[48,110],[-7,56],[-34,38],[-29,46],[-2,28],[23,36],[51,11],[1,-18],[41,-4],[-5,26],[-29,22],[17,37],[6,53],[35,27],[25,10],[33,-15],[23,35],[61,14],[12,27],[45,44]],[[2508,6455],[47,-118],[10,-77],[35,-92],[13,-89],[-3,-64],[4,-33],[-6,-64],[-21,-28],[14,-46],[-8,-72],[-20,-82],[-2,-28],[17,-87],[0,-71],[-12,-134],[-22,-40],[4,-37],[-34,-89],[3,-32],[-20,-50],[-9,-95],[-15,-40]],[[2485,3449],[2,-16],[-16,-58],[38,-91],[3,-22],[23,-25],[17,-54],[-8,-52],[24,-63],[58,-45],[17,-73],[37,18],[11,-94],[21,-38],[77,-11],[39,-48],[5,-29],[117,3],[49,-4],[87,-15],[21,20],[0,-17],[31,31],[8,-69],[-49,-27],[7,-51],[-20,-24],[-12,-40],[-17,-31],[-35,-3],[10,-41],[0,-52],[-7,-4],[9,-61],[-6,-19],[15,-12],[-1,-56],[12,-18],[37,-3],[11,-27],[-9,-36],[45,-73],[10,-35],[49,-50],[-5,-93],[37,-43],[-20,-26],[-1,-45],[-24,-59],[24,-1],[23,-16],[-18,-159],[25,-41],[2,-80],[33,-40],[27,-81],[35,-48],[8,-31],[-2,-41],[26,-33],[-1,-27],[25,-73],[42,-36]],[[3431,1061],[-29,7],[-29,24],[-41,-27],[-18,1],[-22,34],[-37,28],[-19,27],[-30,11],[-47,34],[-22,28],[-40,-16],[-40,35],[-53,24],[-20,44],[-54,27],[-25,24],[-42,19],[-13,34],[-23,26],[-36,22],[-17,42],[-21,28],[-3,31],[-23,33],[-8,52],[-38,36],[-23,46],[-42,29],[-33,46],[6,30],[-15,18],[-66,17],[-58,29],[-30,53],[-18,2],[-21,-49],[-22,-9],[-24,7],[-19,32],[-38,3],[-62,28],[-25,-16],[-19,14],[-4,23],[-36,27],[-19,66],[-41,5],[-42,-17],[-21,-23],[-72,13],[-35,18],[-61,9],[-19,24],[-73,-2],[-35,18],[-32,-25],[-28,-4],[-50,53],[-39,21],[-16,46],[50,44],[-6,58],[16,34],[-1,20]],[[2182,3007],[67,12],[-2,45],[24,6],[41,40],[1,56],[26,150],[-18,72],[24,66]],[[1678,4876],[-42,-13],[-146,-7],[-132,-10],[-144,-36],[-59,-5],[-55,5],[-49,16],[-61,60],[-82,12],[-28,30],[-13,-13],[-44,25],[-30,-1],[-27,17],[-2,39],[-28,36],[-40,15],[-20,-10],[-34,4],[-12,-13],[-72,-13],[-44,17],[-18,-6],[-42,17],[-24,27],[-32,-6],[-78,3],[-22,-15],[-48,-10],[-16,-13]],[[234,5028],[6,26],[-27,101],[-8,142],[-36,30],[-6,50],[28,64],[12,65],[19,14],[7,31]],[[229,5551],[67,-10],[49,3],[36,11],[67,-33],[35,-2],[31,-17],[37,-1],[60,-19],[45,-41],[35,-14],[12,-38],[21,-16],[47,-13],[29,-15],[53,-50],[42,-54],[27,-23],[38,-13],[36,2],[47,17],[23,-2],[23,19],[55,1],[9,-8],[62,0],[18,12],[18,-8],[116,34],[42,19],[8,63],[33,81],[38,18],[7,-27]],[[2500,3798],[34,3]],[[2534,3801],[209,-169],[2,-10],[154,-141],[66,-48],[62,-49],[20,-6],[16,-37],[19,-2],[17,-23],[20,-5]],[[3119,3311],[9,-25],[-6,-47],[31,-77],[25,-29],[-7,-40],[20,-2],[18,-31],[32,-25],[-19,-12],[36,-43],[18,-57],[16,-7],[22,-41],[56,-78],[23,1],[9,-36],[24,-32]],[[3426,2730],[-10,-28],[23,-36],[18,-59],[37,-47],[28,-5],[8,-31],[-9,-41],[19,-8],[20,-56],[-28,-24],[3,-23],[-17,-5],[15,-18],[-16,-23],[12,-10],[-13,-20],[-23,-9],[-9,-22],[13,-21],[-8,-18],[15,-28],[0,-25],[27,-39],[6,-40],[-22,-56],[-27,-22],[-49,-25],[-9,-100],[45,-44],[-32,-76],[-50,-20],[-17,-51],[34,-25],[0,11],[35,-18],[1,-43],[22,-7],[17,-28],[-5,-22],[23,0],[-9,-32],[-24,-18],[33,-15],[-1,-48],[46,-16],[2,-24],[19,-8],[-23,-100],[-19,-29],[16,-51],[19,-40],[17,-15],[11,-40],[41,-90],[9,-58]],[[3640,984],[-46,-21],[-66,5],[-47,37],[-26,48],[-24,8]],[[2436,4786],[47,-42],[22,-34],[58,-8],[30,-14],[22,-27],[-21,-65],[6,-32],[21,-23],[32,2],[-3,-19],[42,-39],[31,-64],[47,-53],[16,0],[52,-30],[7,-18],[34,15],[11,19],[17,-3],[18,18],[37,-19],[9,-19]],[[2971,4331],[11,-41]],[[2982,4290],[13,-22],[-13,-26],[5,-20],[-28,-12],[-32,20],[-13,-24],[11,-14],[-25,-23],[-21,6],[-56,-3],[-2,-45],[-22,-7],[-51,-40],[-24,13],[-11,-9],[16,-46],[-16,-27],[7,-21]],[[2720,3990],[-19,-2],[-22,-21],[5,-34],[-37,-14],[21,-24],[-15,-31],[-31,12],[-7,-14],[20,-11],[-33,-3],[-35,12],[3,-23],[-21,-21],[-37,8],[22,-23]],[[799,3423],[10,49],[-4,51],[-8,12],[-74,31],[-28,27],[-55,27],[-17,54],[-2,28]],[[621,3702],[58,-35],[83,17],[141,65],[19,-21],[26,3],[48,-6],[65,30],[19,-17],[49,1],[23,17],[33,9],[18,55],[81,33],[39,54],[33,34],[105,19],[46,-8],[96,10],[60,18],[100,12],[62,12]],[[223,4862],[9,46],[-12,23],[4,61],[10,36]],[[621,3702],[4,27],[-16,23],[-9,41],[-53,42],[-9,37],[-38,35],[-40,5],[22,73],[4,48]],[[4466,6330],[-1,-17],[21,-19],[11,-37],[3,-83],[14,-9],[-2,-25],[15,-37],[52,-7],[112,4],[15,4],[-2,-55],[16,-26],[14,-49],[22,-1],[24,-43],[9,4],[22,-28],[37,-22],[19,-44]],[[4867,5840],[-12,-52],[-30,-33],[-33,-91],[-30,-27],[6,-22],[-21,-22],[-1,-22],[-18,-26],[-35,2],[-32,-12],[-21,-21],[-29,-7],[-7,-25],[-40,-20],[-25,-1],[-36,-32],[-33,3],[-42,-16],[-32,-74],[12,-36]],[[4408,5306],[-43,11],[-44,-21],[-44,1],[4,27],[-86,-10],[-26,-15],[-40,1],[-42,-17]],[[4087,5283],[15,16],[15,60],[24,36],[-4,37],[9,31],[32,29],[-48,22],[1,11],[35,19],[27,39],[7,67],[14,31],[-9,16],[-80,16],[-3,72],[-35,22],[-43,12],[-20,-8],[-72,31],[-16,17],[-41,17],[-2,24],[45,46],[27,21],[4,29],[-23,30],[14,24],[-22,32],[-18,49],[-16,20],[8,35],[-15,30],[-9,72],[8,38]],[[3896,6326],[32,-1],[92,-19],[22,-15],[69,28],[34,-5],[34,9],[36,-13],[30,-31],[40,-21],[-3,-12],[30,-7],[36,16],[35,-3],[7,14],[31,1],[4,28],[-15,29],[56,6]],[[4867,5840],[108,-14],[24,3],[112,61],[71,29],[23,23],[34,11],[15,27],[31,5],[21,-9],[29,32],[43,2],[21,-12],[55,-5],[118,16],[45,14],[73,62]],[[5690,6085],[47,-77],[23,-19],[12,-33],[-4,-24],[26,-47],[17,-48],[32,-36]],[[5843,5801],[18,-39],[-2,-16],[-45,-37],[-40,-8],[-15,-29],[25,-36]],[[5784,5636],[-75,-68],[-37,3],[-27,-13],[-18,17],[-42,16],[-15,20],[-46,-18],[-58,1],[-11,-34],[-34,-23],[-60,-28],[-48,-13],[-37,-3],[-16,-39],[-19,-11],[3,-37],[26,-22],[3,-27],[-15,-28],[-24,-13],[-17,-27],[-27,-8],[-39,-70],[-25,-21],[16,-42],[-9,-37],[1,-64],[7,-35],[-34,-20],[-36,-33],[-21,-30],[0,-49],[-23,-122],[30,-36],[20,-40],[21,-72],[4,-31],[-15,-26],[-92,-36],[-9,-15],[-30,-140],[-17,-37],[-30,-38]],[[4909,4287],[-30,-11],[-21,-26],[-9,-46],[-41,-33],[-23,-44],[-26,-126],[-6,-65],[-46,-119],[-30,-63],[-31,-4],[-79,25]],[[4567,3775],[8,46],[17,51],[-17,30],[29,55],[-21,36],[14,41],[22,40],[-2,38],[13,30],[-31,-4],[-30,11],[-7,65],[11,45],[-6,26],[-19,17],[-19,49],[5,29]],[[4534,4380],[-27,45],[-22,51],[-21,63],[0,81],[13,37],[-7,26],[7,36],[-11,32],[9,53],[-6,43],[-49,55],[-4,38],[-33,21],[-9,21]],[[4374,4982],[19,45],[71,41],[19,17],[-18,18],[3,25],[-9,39],[-42,46],[-1,21],[-18,10],[14,40],[-4,22]],[[3896,6326],[20,37],[-12,35],[11,46],[16,25],[-4,33],[22,19],[8,37],[-26,76],[7,70],[-15,20]],[[3923,6724],[21,23],[40,13],[8,-26],[23,20],[55,-32],[45,31]],[[4115,6753],[44,-5],[10,-28],[31,-1],[5,17],[-22,42],[-2,50],[28,20],[29,-17],[11,27],[-26,33],[4,33],[27,-4],[88,5],[0,13],[-41,4],[-9,22],[-34,-3],[3,33],[31,-7],[24,10],[1,24],[-15,16],[21,0],[22,-17],[33,31],[47,-22],[8,27],[-24,11],[-4,36],[-24,9],[33,4],[10,21],[-15,39],[51,21],[13,14],[34,-5],[34,31],[22,-29],[41,-22],[-3,-42],[30,-18],[28,45],[20,5],[16,31],[41,-10],[0,26],[39,7],[11,13]],[[4786,7243],[-17,-22],[-17,-3],[-12,-43],[16,-26],[-55,-43],[-80,-43],[-16,-59],[18,-51],[-3,-28],[11,-5],[22,-45],[10,-55],[10,-12],[4,-41],[15,-2],[9,-47],[27,-37],[-9,-45],[-13,-2],[29,-86],[49,-50],[0,-19],[18,-13],[4,-28]],[[4806,6438],[-27,-18],[-50,-11],[-77,-3],[-4,-10],[-37,-1],[0,-21],[-34,-6],[-22,30],[-92,-7],[10,-50],[-7,-11]],[[4115,6753],[-18,23],[-10,51],[-47,18],[3,53],[23,60],[32,38],[-6,33],[4,33],[-8,26],[-41,48],[18,62],[-3,37],[30,42],[-2,51],[-8,31],[-19,26],[-1,50],[-15,21],[-4,48],[18,25],[-12,38],[10,36],[3,47],[-4,87],[30,48],[2,19],[-20,77],[7,21],[62,54],[25,4],[25,24],[29,12],[20,26],[21,-1],[49,13],[61,0],[15,14],[39,-13],[93,-5],[155,-33],[306,-45]],[[4977,7952],[7,-22],[25,-1],[8,-45],[-51,2],[2,-38],[11,-33],[25,-9],[8,-23],[26,4],[12,-17],[-27,-25],[-5,16],[-23,-16],[24,-45],[-12,-28],[-58,1],[-19,12],[-38,-41],[21,-29],[15,-3]],[[4928,7612],[-13,-25],[-39,10],[-8,-12],[35,-30],[-26,-13],[-21,-31]],[[4856,7511],[-13,-4],[-16,21],[-26,-16],[-30,9],[-3,-39],[13,3],[5,-25],[-15,-11],[20,-46],[-25,-36],[4,-22],[23,-5],[14,-21],[-8,-32],[-23,1],[10,17],[-45,-10],[-9,-36],[29,-7],[17,13],[8,-22]],[[4856,7511],[66,-21],[32,-39],[34,-20],[93,-25],[-42,-50],[22,-13],[-16,-27],[23,-4],[33,-21],[-5,-9],[29,-26],[28,-14],[-78,-68],[50,-49],[74,16],[57,-2],[4,-24],[32,10],[6,46],[57,-43],[95,-46],[16,-29],[38,-34],[62,-41],[6,-83],[-28,-31]],[[5544,6864],[-24,-9],[-14,-39],[-10,-60],[12,-11],[92,-37],[-23,-59],[13,-46],[20,-28],[-54,-9],[-66,-27],[16,-56],[23,-46],[4,-26]],[[5533,6411],[-91,-8],[-48,-35],[-44,-9],[-34,11],[-32,39],[-69,12],[-23,-24],[-38,14],[-22,-4],[-19,14],[-19,-6],[-50,6],[-90,-15],[-24,-13],[-75,3],[-6,19],[-43,23]],[[5533,6411],[6,-40],[13,-27],[33,-36],[27,-89],[44,-51],[-7,-38],[41,-45]],[[5784,5636],[28,-106],[24,-17],[23,-3],[30,-29],[32,-3],[37,-39],[-3,-29],[-20,-36],[7,-44],[56,-86],[23,-16],[18,8],[67,-55],[0,-46],[8,-35],[0,-43],[23,-63],[-4,-36],[14,-49]],[[6147,4909],[-32,-26],[-47,-14],[-70,-6],[-14,15],[-60,-11],[-10,14],[-63,47],[-106,14],[-15,-14],[-6,-64],[-9,-37],[-43,-51],[5,-66],[-40,-32],[-7,-55],[-25,-38],[-1,-48],[-18,-13],[-59,-11],[-18,27],[-25,6],[-18,22],[-85,11],[-22,-24],[-46,-16],[-65,-77],[-56,-38],[-26,-10]],[[5166,4414],[-43,-14],[-43,2],[-20,-20],[-15,-31],[-73,-61],[-41,-18],[-22,15]],[[6717,7994],[-74,-125],[-26,-77],[14,-34],[38,-19],[9,-18],[47,-14],[34,9],[34,-68],[19,-22],[9,-46]],[[6821,7580],[-93,-1],[-44,-50],[-128,-6],[-13,-4]],[[6543,7519],[-5,1]],[[6538,7520],[-14,17],[-2,26],[-43,29],[3,29],[-24,46],[-28,-2],[8,20],[-19,14],[8,41],[11,12],[-1,33],[-29,-1],[-18,45],[-41,26],[-12,26],[25,6],[6,16],[-29,47],[24,68],[32,15]],[[6395,8033],[2,16],[56,4],[5,39],[30,-32],[-4,-18],[52,-19],[16,-33],[-5,-24],[24,3],[-7,18],[61,17],[76,-4],[16,-6]],[[4928,7612],[185,-1],[204,5],[57,16],[50,-1],[31,-18],[15,9],[65,9],[32,31],[28,16],[35,5],[39,16],[54,51],[20,-5],[193,-102],[26,4],[31,-9],[115,5],[23,-20],[6,-47],[19,-10],[95,0]],[[6251,7566],[42,-1],[1,-39],[-28,-57],[-19,-6],[10,-21],[-18,-26],[11,-9],[-14,-57],[14,-32],[-7,-43]],[[6243,7275],[14,-13],[-23,-60],[-13,-3],[-3,-40],[16,-13],[-9,-92],[20,-19],[14,5],[41,-24],[-5,-18],[-44,-20],[18,-25],[6,-74],[-71,-3],[-27,-34],[-24,6],[-26,-25],[-42,-1],[-13,-12],[-33,10],[-74,0],[-36,7],[-109,8],[-49,-9],[-62,-33]],[[5709,6793],[-35,10],[-2,43],[7,29],[-51,8],[-46,-26],[-38,7]],[[6821,7580],[35,-26],[98,-38],[13,-24],[18,-8],[17,-49],[44,-44],[4,-24],[30,-14],[-10,-49],[-26,-8]],[[7044,7296],[-19,-1],[-39,17],[-77,-5],[-36,-11],[-46,-23],[-53,3],[-8,-14],[-27,2],[-49,62],[-41,0]],[[6649,7326],[-41,9],[-5,35],[-29,49],[5,8],[-41,77],[5,15]],[[5709,6793],[31,5],[22,-15],[100,-2],[61,-10],[38,-1],[69,-36],[72,-1],[23,-17],[51,5],[23,27],[45,12],[67,-12],[72,38],[60,20],[75,1],[13,8],[35,77],[10,39],[13,17],[-9,20],[5,35],[-1,64],[38,0],[-1,40],[-15,42],[7,23],[-10,28],[46,51],[0,75]],[[7044,7296],[24,-27],[80,-14],[15,-19]],[[7163,7236],[12,-21],[40,-28],[30,-61]],[[7245,7126],[-111,-35],[-63,-15],[-64,-37],[-33,-31],[-8,-61],[-26,-73],[-36,-38],[4,-95],[17,-130],[13,-29],[-11,-12],[21,-30],[56,-27],[5,-47],[34,-33],[17,-43],[72,-54],[7,-27]],[[7139,6309],[-20,-32],[-15,-50],[0,-52],[16,-33],[1,-59],[-23,-53],[-5,-39],[-68,-58],[-61,53],[-47,47],[-33,45],[-16,3],[-54,-32],[-77,-34],[-62,-8],[-18,-23],[-9,-91],[4,-45],[-17,-67],[1,-33],[-16,-11],[-67,8],[-43,-4],[-33,-15],[-23,27],[-71,18],[-21,-22],[15,-30],[-67,-22],[-39,-32],[-89,40],[-66,44],[-71,38],[-15,13],[3,38],[-35,9]],[[5998,5847],[-19,9],[-82,-27],[-54,-28]],[[6717,7994],[29,5],[19,15],[3,24],[33,-3],[5,32],[46,40],[41,9],[47,102]],[[6940,8218],[27,9],[61,-18],[20,9],[20,-14]],[[7068,8204],[-22,-158],[102,-149],[-71,-230],[-23,-23],[40,-132],[27,-70],[45,-24],[-4,-38],[39,-18],[-7,-42],[-23,-17],[-8,-67]],[[7068,8204],[32,8],[24,-7],[9,17],[28,-4],[86,5],[-4,31],[95,0],[29,-30],[64,-3],[41,10],[20,16],[19,-8],[38,19],[84,-3],[108,17],[110,50],[60,-2],[44,-21],[15,-24],[47,-20],[13,-16],[50,-8],[52,14],[114,4],[83,-6],[55,5],[109,-23],[38,-12]],[[8531,8213],[-3,-12],[-43,-60],[-41,-35],[0,-31],[19,-34],[-4,-56],[15,-10],[11,-31],[20,-21],[42,-19],[109,-30],[15,-33],[48,-26],[37,-74],[22,-25],[71,-12],[20,-26],[32,-8],[42,11],[28,35],[23,11],[71,-22],[43,-30],[45,1],[73,-71],[18,-31],[70,-20],[45,-26],[52,-53],[8,-15],[71,-6],[24,28],[67,49],[47,-2],[27,11],[24,30],[6,-42],[-2,-85],[12,-57],[34,-81],[0,-38],[-8,-29],[-54,-24],[-32,4],[-68,-27],[-43,8],[-73,-67],[-17,-38],[-44,-24],[-18,-57],[-34,-27],[-11,-33]],[[9327,6953],[-73,23],[-48,25],[-33,6],[-47,27],[-24,-3],[-28,-19],[-87,-29],[-37,-37],[-27,-15],[-46,13],[-30,-6],[-59,6],[-73,23],[-39,40],[-34,11],[-55,-5],[-92,-17],[-43,-12],[-90,7],[-50,29],[-39,57],[-42,26],[-48,8],[-50,25],[-64,24],[-43,4],[-18,-22],[-1,-30],[-24,-56],[-5,-25],[-20,-38],[-50,14],[-25,-18],[-90,-23],[-50,3],[-54,31],[-48,35],[-66,8],[-44,13],[-19,-3],[-31,19],[-127,16],[-29,21],[-44,1],[-36,16]],[[6538,7520],[-46,-65],[-76,-164],[-17,-10],[-156,-6]],[[6251,7566],[-10,40],[-23,165],[3,129],[-41,35],[-10,26],[-55,57],[-9,-3],[-27,38],[-3,16]],[[6076,8069],[34,-13],[46,-8],[119,-39],[79,27],[41,-3]],[[9327,6953],[-4,-105],[4,-48],[-5,-25],[-33,-33],[-68,-54],[-40,-22],[-53,-55],[-69,-52],[-34,-6],[-75,-40],[-36,-31],[-88,-33],[-51,10],[-47,-8],[-28,-33],[-59,-11],[-34,-17],[-54,-17],[-42,8]],[[8511,6381],[-38,0],[-20,-17],[-30,-4],[-65,31],[-81,-3],[-39,-22],[-87,-13],[-52,-34],[-72,6]],[[8027,6325],[-27,5],[-68,46],[-45,13],[-25,-2],[-64,23],[-9,-10],[-52,-9],[-39,-33],[-34,13],[-39,-31],[-31,-1],[-62,14],[-19,-15],[-24,-46],[-9,-101],[-37,-112],[-18,-12],[-22,11],[-24,34],[-31,18],[-25,2],[-27,17],[-55,18],[-14,40],[-44,74],[-44,28]],[[4977,7952],[49,-6],[12,-27],[26,-1],[15,13],[-9,23],[12,22],[-15,36],[28,-6],[11,11],[-15,26],[3,21],[-26,1],[17,31],[26,-17],[1,38],[-16,20],[39,25],[-9,11],[-33,-1],[-7,30],[-20,-3],[2,20],[20,27],[-20,10],[5,17],[24,2],[15,-20],[25,15],[-23,57],[14,28],[-29,3],[1,28],[32,19],[20,-6],[-35,32],[6,18],[40,10],[9,12],[-13,22],[27,27],[-38,7],[-19,34],[65,41],[21,26],[-18,8],[17,26],[26,-25],[7,35],[18,-3],[13,16],[20,0],[5,-21],[40,-26],[51,-6],[42,3],[70,15],[42,-35],[67,9],[34,28],[54,-6],[73,-47],[54,53],[13,66],[25,13],[1,49],[20,36],[47,39],[1,18],[27,33],[58,6]],[[6022,8912],[21,-22],[-8,-27],[16,-39],[8,-51],[-11,-71],[10,-83],[-49,-29],[-14,-36],[-8,-48],[10,-71],[25,-11]],[[6022,8424],[-10,-179],[8,-20],[4,-67],[39,-41],[1,-46],[12,-2]],[[7690,1497],[-55,-5],[1,-27],[21,-26],[2,-29],[-23,-30],[-43,-17],[-26,-2],[-12,-21],[-36,-12],[-29,-29],[-11,-70],[9,-12],[3,-107],[-16,-10],[-18,-77],[0,-81],[-18,-15],[-4,-23],[-41,-51],[-67,-52],[-48,-63],[-46,-29],[-19,-61],[-14,-16],[-11,-42],[22,-30],[13,-48],[-20,-22],[-4,-32],[-34,-35],[-39,-23],[-42,-52],[-66,-54],[11,-43],[-28,-27],[-64,-15],[8,-27],[-40,-37],[8,-16],[27,-6],[59,-37],[-23,-41],[-12,-35],[-14,-10],[-21,78],[-44,-10],[-36,11],[-57,-28],[-18,8],[-59,4],[-52,-19],[-20,5],[-47,44],[-17,24],[-35,18],[-72,-12],[-42,3],[-92,28],[-44,8],[-77,-25],[-25,14]],[[6193,151],[19,25],[14,56],[21,21],[49,86],[38,75],[25,25],[18,121],[4,85],[-30,113],[8,25],[-16,35],[22,8],[11,21],[31,16],[7,-28],[-13,-22],[27,1],[34,39],[-26,83],[22,51],[31,45],[-4,31],[20,49],[19,8],[-24,10],[15,41],[-19,27],[-49,26],[-27,32],[3,32],[-65,82]],[[6358,1370],[82,53],[44,14],[63,30],[43,-4],[46,32],[31,0],[12,13],[60,36],[39,5],[27,27],[49,-29],[102,2],[43,-20],[59,-2],[64,14],[86,38],[45,13],[43,-2],[36,-24],[22,-53],[24,-13],[19,25],[8,34],[52,-15],[29,3],[13,-14],[22,2],[64,-13],[70,2],[35,-27]],[[6193,151],[-58,-11],[-55,23],[-19,-21],[-20,2],[-29,28],[-23,8],[-38,-5],[-28,-22],[-24,-6],[-43,17],[-27,26],[-52,5],[-38,13],[-41,-47],[-27,9],[-36,-36],[-50,10],[-29,-6],[-43,-31],[-63,-15],[-43,25],[-75,24],[-22,-14],[-91,-46],[-45,3],[-39,25],[-33,32],[-63,93],[-25,68],[-12,15]],[[5002,317],[-46,46],[-13,48],[11,64],[-4,127],[-13,32],[-8,76],[-29,35],[-50,21],[-3,10],[35,20],[27,34],[48,-2],[17,45],[-8,36],[11,27],[-28,12],[14,42],[42,8],[11,36],[-11,18],[-4,103]],[[5001,1155],[45,5],[54,-4],[115,3],[153,-11],[97,5],[89,11],[122,32],[79,28],[99,27],[99,-1],[42,12],[87,73],[23,13],[68,19],[65,3],[91,-9],[29,9]],[[5001,1155],[-21,44],[-27,24],[12,40],[-6,29],[-23,39],[-4,91],[-41,55],[-33,20],[-48,0],[-47,22],[-38,2],[2,26],[-26,46],[-53,27],[12,48],[-15,23],[1,21],[24,28],[24,51],[-16,24],[-82,22],[-30,23],[14,46],[26,52],[-23,57],[5,23],[-21,7],[-10,37],[-36,4],[-23,22],[-11,31],[16,76],[-35,27],[3,22],[49,70],[11,25]],[[4531,2359],[36,-36],[33,-5],[42,-41],[31,-3],[21,-17],[14,-43],[62,-7],[48,-38],[40,-10],[55,38],[20,-15],[32,2],[19,-15],[37,7],[10,14],[41,24],[45,13],[39,0],[69,17],[34,-13],[16,32],[21,3],[29,23],[33,-7],[32,16],[25,-6],[14,32],[23,17],[62,16],[10,24],[26,-21],[32,27],[13,-8],[27,20],[84,21],[17,-30],[0,-29],[27,-12],[24,23],[29,11],[12,-44],[19,-3],[26,33],[36,-11],[11,25],[28,-14],[43,12],[9,-27],[7,-60],[15,-3],[0,-32],[-18,-17],[33,2],[31,13],[17,20],[88,28],[46,5],[21,15],[39,98],[19,38],[43,25],[59,18],[19,30],[8,49],[23,27],[30,9],[37,-8],[34,7],[73,39],[11,17],[6,40],[-14,40],[20,61],[19,18],[29,9],[37,-12],[33,9],[43,-13],[16,-26],[43,-13]],[[6854,2787],[103,-27],[48,-47],[-6,-50],[12,-27],[-1,-49],[9,-39],[72,2],[30,-18],[47,9],[19,-6],[16,-30],[22,-16],[51,-9],[76,-1],[24,28],[34,9],[41,-9],[53,-31],[52,-5],[30,-12],[34,3],[55,21],[91,-25],[32,11],[20,-9],[40,21],[25,-16],[34,-38],[40,-6],[26,37],[42,-14],[36,1],[28,-13],[-1,-38],[-34,-94],[4,-27],[44,-34],[29,-11],[52,-40]],[[8183,2188],[-19,-26],[46,-45],[97,-8],[26,16],[27,-16],[52,-1],[25,7],[44,-6],[91,-36],[23,-14],[78,-15],[12,-9],[-10,-41],[-23,-18],[-5,-39],[-21,-74],[-81,-55],[-13,-45],[-12,-16],[-81,-30],[-10,-64],[24,-61],[-18,-37],[-34,-12],[-35,-2],[-43,-25],[-60,-20],[-63,-28],[-21,-36],[-8,-31],[-23,-19],[-24,8],[-87,87],[-52,21],[-51,11],[-48,-11],[-31,8],[-16,24],[-88,-32],[-61,-1]],[[2720,3990],[3,-14],[69,-23],[58,1],[42,-6],[15,6],[75,-2],[3,27],[59,3],[0,17],[104,5],[24,-31],[38,-26]],[[3210,3947],[-3,-31],[38,-68]],[[3245,3848],[-61,-2],[-10,-60],[17,-21],[-1,-74],[4,-36],[-39,-12],[-6,-57],[10,-35],[36,-86],[1,-141]],[[3196,3324],[-77,-13]],[[3210,3947],[4,6],[56,4],[22,9],[140,10],[19,-4],[42,48]],[[3493,4020],[145,-93],[84,7],[92,16],[90,-7],[65,10],[61,27],[16,-256]],[[4046,3724],[-53,13],[-26,-10],[-71,23],[-43,-7],[-22,-50],[-21,-96],[-13,-43],[-45,-44],[-31,-49],[-106,-73]],[[3615,3388],[-19,-4]],[[3596,3384],[16,59],[11,-6],[2,37],[-33,39],[-28,46],[-21,7],[-13,-17],[-8,41],[-31,50],[4,21],[-14,12],[-46,-11],[-29,10],[-25,-7],[-44,10],[-3,28],[-36,24],[-15,45],[-14,13],[-24,63]],[[4046,3724],[58,11],[68,5],[25,10],[92,-37],[67,-10],[33,3],[99,-38],[54,-4]],[[4542,3664],[-6,-87],[10,-73],[-12,-20],[0,-45],[25,-22],[0,-15],[-33,-13],[-22,-53],[27,-68],[-16,-34],[-4,-43],[14,-43],[-7,-42],[4,-40],[-23,-68],[3,-24],[-17,-49],[2,-20],[63,-85],[19,-36],[34,-6],[32,-44],[17,-1]],[[4652,2733],[-32,-47],[-31,-35],[-128,-10],[-32,6],[-60,-9],[-92,-22],[-42,-1],[-59,28],[-65,82],[-25,11],[-43,-5],[-79,27]],[[3964,2758],[-133,38],[-64,6]],[[3767,2802],[-5,58],[-20,17],[-41,5],[-32,31],[-14,-12],[-27,37],[17,65],[-18,28],[25,34],[-4,30],[-16,20],[3,50],[12,2],[15,30],[-10,68],[-9,-9],[-15,85],[-14,19],[1,28]],[[3426,2730],[41,-40],[33,-57],[37,-27],[49,3],[75,17],[106,16],[78,17],[38,4],[-42,64],[-66,50],[-8,25]],[[3964,2758],[-19,-12],[-25,-83],[10,-24],[-31,-48],[22,-26],[0,-29],[44,-30],[-48,-51],[13,-11],[-34,-52],[18,-50],[-20,-35],[2,-35],[-30,-41],[29,-6],[18,-24],[8,-29],[-13,-72],[-41,-30],[-6,-32],[-38,-66],[54,-27],[51,-8],[7,-12],[34,-15],[15,-19],[48,8],[-9,-37],[-45,-13],[-44,5],[-23,-25],[4,-25],[-53,-30],[-2,-40],[-9,-15],[1,-35],[-19,-24],[8,-36],[-35,-32],[-15,-3],[-2,-23],[66,-16],[-9,-38],[4,-43],[-16,-17],[3,-18],[27,-48],[-23,-21],[-19,-59],[-23,-39],[-8,-56],[-34,-75],[-22,-30],[-21,-11],[-8,-58]],[[3706,1037],[-44,-22],[-22,-31]],[[4087,5283],[-47,18],[-61,2],[-35,-27],[-80,-29],[-19,2],[-31,24],[-16,-11],[-53,1],[-21,-24],[-52,1],[-50,10],[-29,21]],[[3593,5271],[-20,32],[48,27],[1,17],[-23,12],[24,12],[-5,34],[-59,26],[-17,-4],[-8,29],[-11,-9],[-27,22],[19,12],[3,60],[22,9],[-12,27],[23,25],[-9,31],[-27,-9],[14,22],[-28,16],[-18,-28],[-3,26],[-23,30],[0,42],[25,-17],[10,12],[-11,22],[19,-3],[9,36],[-22,-3],[-42,39],[1,21],[-28,-21],[-22,2],[2,17],[-25,21],[-1,39],[-10,21],[30,20],[-26,29],[-13,-22],[-15,57],[16,18],[-25,19],[24,2],[-7,14],[32,22],[-14,41],[12,18],[33,1],[-17,42],[10,18],[30,-8],[-4,21],[21,16],[31,-8],[8,32],[-25,-9],[1,15],[54,0],[19,-21],[47,1],[-2,29],[18,-5],[18,-24],[16,17],[-16,5],[-9,34],[-30,10],[2,50],[-47,-9],[1,27],[-20,30],[-30,26],[-35,-13],[-39,8],[4,29],[-38,15],[-8,39],[8,19],[-28,12],[15,27],[32,13],[7,42],[15,-26],[23,1],[1,35],[-29,5],[4,46],[-10,22]],[[3407,6700],[23,5],[39,-41],[25,25],[-30,23],[-19,44],[2,30],[26,21],[22,-13],[49,1],[-2,-21],[72,10],[23,-10],[10,28],[45,24],[-11,19],[21,13],[24,-19],[37,11],[7,20],[35,-17],[26,3],[10,-20],[21,14],[14,-30],[20,1],[-7,-37],[-13,-23],[24,-42],[23,5]],[[4567,3775],[-13,-14],[4,-63],[-16,-34]],[[3493,4020],[-17,43],[-27,28],[0,68],[-8,83],[-14,75],[-9,77],[-8,136]],[[3410,4530],[73,-24],[186,-56],[76,-31],[24,-18],[64,1],[25,11],[67,-10],[42,6],[21,-23],[32,-7],[22,-17],[69,6],[32,-6],[71,18],[37,23],[69,4],[68,-25],[42,-2],[39,7],[65,-7]],[[4374,4982],[-36,-5],[-44,-26],[-32,12],[-26,-3],[-36,20],[-22,30],[-36,-2],[-5,-13],[-45,-33],[-23,7],[-14,-28],[-21,14],[-29,-14],[-32,5],[-46,20],[-55,-26],[-58,-16],[-20,6],[-44,33],[-71,23],[-111,-8],[-29,-7],[-33,40]],[[3506,5011],[12,38]],[[3518,5049],[20,12],[-21,47],[48,10],[-18,75],[-24,0],[26,14],[-1,18],[-26,-3],[4,18],[18,-6],[-2,28],[24,-8],[27,17]],[[5002,317],[-29,-29],[5,-29],[-48,-30],[-26,4],[-22,-34],[-39,4],[-24,-10],[-12,-33],[-25,-16],[-11,-20],[-39,-2],[-52,18],[-48,-3],[-35,11],[-10,-8],[-6,-40],[-22,-72],[-27,5],[-55,50],[-26,7],[-30,-5],[-26,20],[-35,53],[-27,16],[-51,55],[-27,2],[-11,-27],[-31,-1],[-43,-52],[-31,-9],[-57,-31],[-31,14],[11,21],[-19,13],[14,47],[-5,26],[-55,22],[12,20],[-2,43],[27,58],[39,21],[11,65],[-26,24],[6,31],[27,35],[7,67],[-3,22],[-33,13],[-13,19],[-8,34],[-41,90],[-16,10],[-37,-2],[-20,12],[-32,40],[-50,-10],[-20,13],[-14,42],[-44,16],[-21,71],[-40,49]],[[4652,2733],[23,-16],[-36,-96],[-36,-56],[-2,-26],[14,-49],[-14,-7],[-26,21],[-24,-40],[-23,-19],[-9,-35],[12,-51]],[[3410,4530],[-50,81]],[[3360,4611],[51,90],[1,30],[23,27],[8,36],[-9,15],[29,19],[20,34],[23,14],[16,31],[-28,36],[12,18],[-10,22],[-24,4],[34,24]],[[3596,3384],[-219,-41],[-38,-9],[-97,-11],[-46,1]],[[2982,4290],[47,5],[12,16],[19,-3],[24,18],[-11,47],[31,15],[1,-22],[17,-5],[1,33],[22,-18],[6,15],[30,3],[13,-12],[36,24],[-5,20],[26,-3],[22,16],[-13,7],[26,12],[-18,17],[7,19],[28,9],[2,43],[-14,2],[14,29],[31,10],[24,24]],[[5166,4414],[-21,-64],[14,-53],[-3,-18],[-32,-32],[-6,-28],[31,-36],[25,4],[44,-24],[60,14],[39,-19],[29,12],[16,-23],[24,3],[9,-26],[29,-29],[73,22],[66,31],[41,5],[18,-35],[66,-5],[138,-39],[49,-31],[48,-45],[29,-47],[0,-16],[48,-29],[20,-27],[25,-11],[41,-53],[104,-72],[74,-30],[5,35],[41,-2],[14,23],[25,-14],[9,-34],[24,-32],[26,20],[13,25],[-8,35],[17,-1],[21,34],[38,2]],[[6489,3804],[22,6],[17,-11],[-11,-34],[16,-24],[-4,-46],[45,-2],[24,18],[43,15],[28,-3],[-88,-136],[-82,-102],[-40,-211],[5,-120],[38,23],[15,-18],[45,7],[3,11],[45,-2],[18,-17],[31,-52],[23,-21]],[[6682,3085],[39,-53],[58,-29],[53,1],[6,-11],[-15,-29],[44,-82],[-13,-95]],[[6489,3804],[29,99],[43,26],[130,8]],[[6691,3937],[72,-15],[149,-36],[35,-2],[207,46],[46,-4],[65,-22],[65,11]],[[7330,3915],[24,10],[18,-8],[3,-32]],[[7375,3885],[-65,-27],[-16,-31],[-44,-4],[-5,30],[-21,-13],[4,37],[-33,-27],[-3,13],[-43,50],[-10,-27],[-30,-20],[0,-14],[-24,-19],[20,-26],[-13,-46],[23,-20],[-10,-23],[9,-54],[13,-14],[-8,-24],[12,-37],[-4,-45],[21,-40],[19,-8],[7,-27],[-7,-31],[8,-23],[-7,-53],[-46,-41],[-30,-17],[-31,-35],[-65,-19],[-80,-40],[-63,-17],[-29,-14],[-45,-51],[-40,-30],[-57,-13]],[[5998,5847],[-7,-56],[4,-33],[18,-37],[33,-12],[32,4],[21,-16],[36,-57],[46,-13],[43,-29],[22,-33],[38,-9],[17,11],[27,-18],[24,12],[10,22],[34,-3],[7,-27],[29,-25],[3,-26],[15,10],[25,-12],[-6,-35],[24,-6],[4,-20],[21,-12],[66,-11],[5,-29],[-24,-13],[67,-25],[19,-36],[47,-16],[21,4],[16,22],[36,-2],[19,-25],[2,-39],[13,0],[-37,-43],[21,-9],[2,-34],[24,-9],[-17,-40],[-25,-16],[-21,0],[-20,-31],[27,-9],[-4,-27],[-18,-2],[0,-28],[19,-16],[-1,-17],[48,-34],[49,-20],[16,-26],[-26,7],[0,-28],[-27,-13],[0,-33],[-23,9],[-4,-52],[9,-39],[17,-14],[-17,-52],[24,-13],[78,-8],[59,-20],[57,21],[85,11],[34,-35],[34,-53],[6,-20],[27,-19],[44,-18],[81,-121],[30,-84],[10,-54],[2,-75],[-20,-103],[-39,-73],[-2,-17],[23,-85]],[[6691,3937],[-48,147],[-10,10],[-59,14],[-103,47],[-60,20],[-35,21],[-27,50],[8,83],[-37,61],[7,74],[-2,46],[-31,101],[-49,55],[-25,36],[-19,78],[-54,129]],[[8027,6325],[-62,-55],[-43,14],[-27,-7],[-8,-36],[-43,-53],[-21,-18],[-29,1],[-36,12],[-26,-11],[-18,-23],[-7,-49],[-61,-24],[-19,-64],[14,1],[26,-46],[42,-47],[12,-22],[-7,-17],[15,-40],[6,-39],[58,-45],[22,-39],[57,-19],[0,16],[29,-9],[21,10],[168,-156],[36,-76],[13,-76],[188,-117],[157,-105],[4,-24],[32,-38],[31,-13],[-4,-35],[19,-42],[-8,-5],[1,-54],[45,-10],[-20,-19],[-50,1],[24,-50],[-12,-22],[-1,-42],[-21,9],[-3,-17],[-45,8],[-9,-20],[-59,4],[-43,18],[41,-45],[-28,-12],[-99,-25],[-20,-24],[27,-11],[24,12],[9,-21],[-30,-28],[6,-20],[16,17],[10,-17],[-20,-25],[-21,5],[8,-37],[-23,16],[-7,-32],[-24,3],[2,-40],[-21,16],[4,-20],[19,-13],[-4,-38],[31,-35],[13,11],[39,-27],[-3,-27],[18,-6],[51,-54],[-1,-26],[-16,-16]],[[8366,4316],[-115,-34],[-69,-49],[-125,-58],[-33,-33],[-28,-60],[-76,-7],[-69,-53],[-22,-30],[-39,-27],[-226,-189],[-68,-47],[-4,60],[-16,10],[-26,-12],[-13,15],[-1,27],[-31,18],[-30,38]],[[8511,6381],[-3,-26],[9,-39],[-13,-24],[20,-35],[-44,-37],[-3,-16],[38,-22],[58,-5],[17,-20],[7,-80],[57,8],[40,-8],[65,39],[40,44],[43,19],[35,-16],[2,-39],[32,-42],[82,-41],[1,-32],[-12,-29],[14,-12],[-20,-12],[1,-20],[-23,-53],[56,-29],[61,1],[54,-17],[29,-44],[53,-45],[67,0],[28,-18],[-47,-43],[-1,-45],[11,-34],[-15,-51],[6,-38],[32,-38],[-3,-48],[42,-8],[35,-29],[1,-25],[24,-11],[35,39],[23,1],[22,23],[20,0],[62,38],[11,37],[38,35],[0,59],[8,8],[39,-8],[34,10],[28,25],[77,49],[17,-37],[39,-31],[4,-33],[22,-50],[-38,-32],[-11,-83],[-3,-89],[-14,-53],[1,-23],[18,-49],[-20,-39],[-1,-61],[-20,-16],[-23,-54],[-15,-53],[15,-42],[-11,-85],[-11,0],[-36,-44],[10,-35],[55,-71],[19,-43],[18,-16],[16,-48],[29,-23],[26,-38],[-10,-51],[16,-30],[-3,-38],[20,-32],[3,-36],[15,-28],[12,-83],[-25,-38],[-12,-34],[8,-33],[-9,-35],[-1,-43],[47,-66],[-1,-28],[20,-1],[17,-30],[-5,-43],[30,-78],[7,-91],[-22,-44],[-20,-17],[-3,-45],[-21,-29],[0,-44],[10,-11],[12,-50],[2,-38],[11,-21],[-13,-32],[-4,-33],[-23,-76],[-37,-11],[-78,-55],[-17,10],[-7,-20],[-26,6],[-7,-18],[-42,29],[-21,-7],[-31,-29],[-34,2],[0,-22],[-26,-16],[-23,9],[-37,-18],[-1,-20],[-16,14],[-42,7],[2,54],[-43,32],[-28,-8]],[[9414,3210],[-2,24],[-50,16],[-16,-10],[-4,49],[-64,29],[-13,21],[-45,34],[-30,-20],[-26,15],[-6,25],[-53,20],[-41,44],[-31,-1],[11,38],[37,30],[33,10],[20,18],[-3,21],[41,48],[14,44],[21,27],[8,46],[-8,48],[-21,29],[-56,57],[-41,20],[-30,36],[-73,-25],[-59,18],[-29,-1],[-60,-24],[-29,-5],[-48,2],[-19,31],[-25,15],[5,61],[-4,76],[-7,21],[-28,14],[-5,28],[-32,17],[-24,41],[-55,-5],[-26,-14],[-31,11],[-32,-3],[-43,10],[-51,-14],[-7,21],[-30,9],[-15,-7],[-20,16],[-4,39],[24,8],[-12,18],[33,-5],[13,35]],[[9414,3210],[-53,-63],[6,-66],[27,1],[-3,-32],[-19,-8],[4,-18],[-44,-22],[8,-11],[-31,-53],[49,-5],[-44,-26],[-1,-19],[27,-3],[-7,-17],[74,-31],[30,-33],[48,-24],[18,-38],[28,-28],[54,-37],[40,-9],[59,-50],[29,-3],[86,-36],[38,-28],[41,-54],[18,-52],[-32,-21],[-21,-30],[-38,-16],[-30,-50],[-23,-23],[-20,2],[-27,27],[-36,10],[-71,41],[-41,-1],[-30,31],[-36,10],[-104,-13],[-54,11],[-42,37],[-28,71],[-26,36],[-39,-8],[-15,-30],[-42,-6],[-19,40],[-45,27],[-35,0],[-30,-9],[-21,-44],[-22,-7],[-101,33],[-66,0],[-21,10],[-6,22],[-22,13],[-68,15],[-20,14],[-31,-6],[-16,11],[-47,7],[4,-36],[-14,-51],[-28,-41],[-24,-16],[-18,20],[-15,-32],[-34,-1],[5,-67],[-17,-18],[-27,-8],[0,-17],[19,5],[-20,-40],[-35,-23],[-32,-7],[-12,-36],[-38,2],[-9,-44],[-15,6],[-43,-22],[-7,-24],[-28,-11]],[[1492,5552],[-19,20],[-52,-5],[-18,29],[-45,33],[-7,22],[-38,25],[-43,16],[-31,2],[-37,-16],[-68,-9],[8,24],[-34,17],[-60,9]],[[1048,5719],[52,47],[58,-5],[53,13],[120,6],[-8,14],[48,11],[1,44],[49,30],[47,7],[28,-33],[8,5]],[[1504,5858],[12,-86],[23,-28],[-56,-39],[33,-6],[89,-1],[32,26],[50,8],[44,-19],[18,61],[32,38],[-17,22],[6,54],[37,21],[22,-31],[40,11],[7,-8],[25,24],[61,-14]],[[1048,5719],[-57,-43],[-89,-23],[-77,-10],[-18,-19],[-81,13],[-34,27],[-18,-2],[-48,42],[-23,7],[-16,-16],[-35,-6],[-62,-28],[-72,13],[-30,27],[-9,58],[-33,42],[-44,13],[-107,9]],[[195,5823],[-17,46],[-18,17],[-31,11],[-10,31],[-25,23],[0,16],[26,114],[5,65],[11,43],[-20,11],[-3,25],[-34,49],[-17,41],[-14,60]],[[48,6375],[48,-31],[93,-55],[18,8],[47,-10],[15,12],[46,-13],[105,3],[42,10],[75,-29],[15,11],[40,-53],[18,-4],[10,-21],[42,-17],[28,-20],[-7,-13],[29,0],[96,69],[74,-30],[144,-50],[31,11],[20,29],[41,44],[34,46],[112,5],[54,20],[89,0]],[[1407,6297],[22,-156],[9,-35],[22,-126],[22,-76],[22,-46]],[[229,5551],[23,61],[20,25],[1,43],[-12,112],[-66,31]],[[1634,6877],[-41,-21],[-46,-40],[-34,-20],[-1,-23],[-130,-18],[-42,-16],[-14,-17],[-5,-58],[5,-61],[30,-131]],[[1356,6472],[-85,1],[-34,13],[-72,-8],[-27,9],[-47,-7],[-25,10],[-42,46],[-56,44],[-64,-15],[12,-36],[-22,-4],[-52,-24],[-74,-28],[-52,-35],[-19,-47],[-20,9],[-69,-4],[-16,13],[-49,-15],[-43,0],[-37,9],[-50,-18],[-46,12],[-22,14],[-59,12],[-26,-26],[-34,-3],[-21,14],[-14,31],[7,57],[26,52],[27,5],[37,29],[28,33]],[[316,6615],[25,-15],[21,28],[74,5],[32,23],[45,-10],[24,9],[21,35],[40,8],[8,23],[59,10],[15,20],[46,15],[42,62],[52,6],[59,-3],[53,20],[46,-16],[80,51],[43,49],[113,1],[50,5],[38,-5],[91,-23],[49,-3],[103,-34],[89,1]],[[1407,6297],[-24,55],[-27,120]],[[1634,6877],[83,-10],[78,21],[28,0],[73,-10],[30,8],[66,76],[20,14],[42,0],[19,-28],[9,-33],[49,-7],[18,-11],[25,-44],[66,-65],[13,-53],[34,-73],[25,11],[58,53],[80,9],[28,-110],[9,-16],[13,-72],[8,-82]],[[48,6375],[1,74],[-25,32],[5,30],[-29,72],[4,43],[31,-19],[46,-8],[44,7],[51,-9],[30,32],[29,-1],[21,31],[24,-25],[36,-19]],[[7874,9322],[-27,-41],[-3,-68],[-27,-43],[-7,-53],[-13,-21],[2,-56],[-23,-12],[3,-24],[19,-8],[-4,-20],[-29,-11],[-1,-40],[-26,-5],[-33,-22],[-1,-34],[-13,-41],[-45,-16],[-19,-19],[-39,-3],[-5,-25],[-30,8],[-51,-6],[-42,-23],[-11,12],[-40,-9]],[[7409,8742],[57,134],[-22,14],[-82,-1],[-20,15],[-105,-10],[-14,-13],[-19,18],[-66,-13],[-24,6],[0,-36],[-41,-18],[-26,-36],[-16,-36],[-48,-12],[-29,-24],[-39,21],[-41,-21],[-63,29]],[[6811,8759],[-8,20],[11,32],[19,14],[3,47],[-29,25],[48,41],[22,80],[-21,12],[-34,3],[-39,-14],[-28,1],[-47,14],[-11,-12],[-55,11]],[[6642,9033],[25,29],[35,4],[30,61],[-1,20],[19,14],[63,108],[40,116],[18,26],[44,40],[46,26],[-16,45],[-18,14],[-47,104],[34,64],[31,18],[59,15],[19,27],[50,10],[47,-37],[41,44],[36,-18],[104,-65],[32,1],[49,16],[42,6],[25,38],[22,15],[9,26],[-4,36],[63,85],[29,18],[63,18],[19,42],[49,-13],[33,-24],[25,-5],[30,-39],[61,0],[56,-72],[75,-25],[27,-56],[-6,-24],[58,-42],[9,-21],[-16,-33],[-77,-69],[-25,-40],[-19,-60],[-28,-34],[-5,-38],[-23,-82]],[[7409,8742],[-65,-58],[-50,-5],[-27,-14],[-7,15],[-50,4],[-67,-62],[-37,14],[-38,-19],[-88,-15],[-23,4],[-21,-12],[-45,-96]],[[6891,8498],[-128,-1],[-13,8]],[[6750,8505],[6,93],[-2,34],[25,33],[23,56],[9,38]],[[6940,8218],[-40,22],[39,26],[2,149],[-50,83]],[[7874,9322],[128,-71],[43,-44],[-11,-69],[2,-35],[17,-27],[0,-20],[-25,-52],[10,-96],[40,-60],[26,-10],[21,9],[52,-6],[29,-54],[10,-47],[39,-13],[47,-32],[93,-12],[62,-37],[2,-22],[-11,-41],[21,-26],[27,-54],[4,-30],[-29,-74],[65,-48],[12,-27],[1,-38],[-19,-37],[1,-36]],[[6022,8912],[14,41],[-8,32],[47,16],[-2,20],[42,-1],[7,18],[-19,11],[16,13],[47,-22],[15,-22],[-2,-31],[28,8],[-16,29],[6,16],[40,-17],[22,16],[-7,20],[15,21],[50,16],[3,-50],[33,-42],[25,14],[46,-23],[35,32],[48,-7],[44,12],[16,-22],[15,20],[60,3]],[[6750,8505],[-43,-32],[-43,-45],[-37,2],[-8,-27],[-34,-48],[-50,1],[-39,-10],[-48,30],[8,23],[-20,17],[-8,-38],[-24,-41],[-37,10],[11,13],[-45,4],[-41,-9],[-24,26],[-47,11],[1,16],[-50,18],[-14,-24],[-25,8],[-37,-7],[-2,10],[-72,11]],[[2508,6455],[36,12],[1,21],[31,8],[30,55],[54,15],[10,18],[71,12],[30,40],[-8,28],[39,29],[62,-3],[25,8],[44,-13],[35,0],[19,13],[52,5],[36,-19],[27,17],[59,3],[10,25],[37,9],[39,-17],[6,-23],[61,13],[12,21],[-20,16],[9,18],[49,-10],[9,-25],[34,-31]],[[3518,5049],[-32,8],[-26,-8],[-26,16],[-15,-12],[18,-23],[-22,-23],[-14,-53],[-20,-13],[2,-21],[-33,-15]],[[3350,4905],[-39,1],[-94,13],[-26,-2],[-60,30],[-29,24],[-59,2],[-160,12],[-23,-14],[-52,-1],[-59,-25],[-59,-2],[-118,22],[-89,22]],[[3350,4905],[0,-40],[-21,9],[-17,-39],[10,-9],[-9,-26],[-30,-6],[-23,7],[-48,-6],[-17,-15],[-3,-29],[-78,28],[2,-16],[-24,-28],[-40,-12],[-28,-41],[20,-128],[-3,-22],[24,-41],[-5,-74],[-28,-2],[5,-35],[-38,-36],[-28,-13]]],"transform":{"scale":[0.00009463520242024019,0.00009301996429642683],"translate":[99.68261142500006,18.80595545500006]},"objects":{"Phayao":{"type":"GeometryCollection","geometries":[{"arcs":[[0,1,2,3,4,5]],"type":"Polygon","properties":{"Shape_Leng":0.0915981646349,"Shape_Area":0.000389225491384,"ADM3_EN":"Wiang","ADM3_TH":"เวียง","ADM3_PCODE":"TH560101","ADM2_EN":"Mueang Phayao","ADM2_TH":"เมืองพะเยา","ADM2_PCODE":"TH5601","ADM1_EN":"Phayao","ADM1_TH":"พะเยา","ADM1_PCODE":"TH56","ADM0_EN":"Thailand","ADM0_TH":"ประเทศไทย","ADM0_PCODE":"TH"}},{"arcs":[[-1,6,7,8]],"type":"Polygon","properties":{"Shape_Leng":0.0912627721542,"Shape_Area":0.000430243134641,"ADM3_EN":"Mae Tam","ADM3_TH":"แม่ต๋ำ","ADM3_PCODE":"TH560102","ADM2_EN":"Mueang Phayao","ADM2_TH":"เมืองพะเยา","ADM2_PCODE":"TH5601","ADM1_EN":"Phayao","ADM1_TH":"พะเยา","ADM1_PCODE":"TH56","ADM0_EN":"Thailand","ADM0_TH":"ประเทศไทย","ADM0_PCODE":"TH"}},{"arcs":[[9,10,11,12]],"type":"Polygon","properties":{"Shape_Leng":0.480708880227,"Shape_Area":0.00941993719584,"ADM3_EN":"Mae Na Ruea","ADM3_TH":"แม่นาเรือ","ADM3_PCODE":"TH560104","ADM2_EN":"Mueang Phayao","ADM2_TH":"เมืองพะเยา","ADM2_PCODE":"TH5601","ADM1_EN":"Phayao","ADM1_TH":"พะเยา","ADM1_PCODE":"TH56","ADM0_EN":"Thailand","ADM0_TH":"ประเทศไทย","ADM0_PCODE":"TH"}},{"arcs":[[-3,13,-12,14,15]],"type":"Polygon","properties":{"Shape_Leng":0.338989612489,"Shape_Area":0.00260743716742,"ADM3_EN":"Ban Tun","ADM3_TH":"บ้านตุ่น","ADM3_PCODE":"TH560105","ADM2_EN":"Mueang Phayao","ADM2_TH":"เมืองพะเยา","ADM2_PCODE":"TH5601","ADM1_EN":"Phayao","ADM1_TH":"พะเยา","ADM1_PCODE":"TH56","ADM0_EN":"Thailand","ADM0_TH":"ประเทศไทย","ADM0_PCODE":"TH"}},{"arcs":[[16,17,18,19,20,21]],"type":"Polygon","properties":{"Shape_Leng":0.634310617588,"Shape_Area":0.00795416933809,"ADM3_EN":"Ban Tam","ADM3_TH":"บ้านต๊ำ","ADM3_PCODE":"TH560106","ADM2_EN":"Mueang Phayao","ADM2_TH":"เมืองพะเยา","ADM2_PCODE":"TH5601","ADM1_EN":"Phayao","ADM1_TH":"พะเยา","ADM1_PCODE":"TH56","ADM0_EN":"Thailand","ADM0_TH":"ประเทศไทย","ADM0_PCODE":"TH"}},{"arcs":[[-5,22,23,-18,24,25]],"type":"Polygon","properties":{"Shape_Leng":0.497933082105,"Shape_Area":0.00379792774966,"ADM3_EN":"Ban Tom","ADM3_TH":"บ้านต๋อม","ADM3_PCODE":"TH560107","ADM2_EN":"Mueang Phayao","ADM2_TH":"เมืองพะเยา","ADM2_PCODE":"TH5601","ADM1_EN":"Phayao","ADM1_TH":"พะเยา","ADM1_PCODE":"TH56","ADM0_EN":"Thailand","ADM0_TH":"ประเทศไทย","ADM0_PCODE":"TH"}},{"arcs":[[-22,26,27,28,29,30,31]],"type":"Polygon","properties":{"Shape_Leng":0.546721561734,"Shape_Area":0.00915024536739,"ADM3_EN":"Mae Puem","ADM3_TH":"แม่ปืม","ADM3_PCODE":"TH560108","ADM2_EN":"Mueang Phayao","ADM2_TH":"เมืองพะเยา","ADM2_PCODE":"TH5601","ADM1_EN":"Phayao","ADM1_TH":"พะเยา","ADM1_PCODE":"TH56","ADM0_EN":"Thailand","ADM0_TH":"ประเทศไทย","ADM0_PCODE":"TH"}},{"arcs":[[-8,32,33,-10,34]],"type":"Polygon","properties":{"Shape_Leng":0.776610113612,"Shape_Area":0.0134072282361,"ADM3_EN":"Mae Ka","ADM3_TH":"แม่กา","ADM3_PCODE":"TH560110","ADM2_EN":"Mueang Phayao","ADM2_TH":"เมืองพะเยา","ADM2_PCODE":"TH5601","ADM1_EN":"Phayao","ADM1_TH":"พะเยา","ADM1_PCODE":"TH56","ADM0_EN":"Thailand","ADM0_TH":"ประเทศไทย","ADM0_PCODE":"TH"}},{"arcs":[[-28,35,36,37]],"type":"Polygon","properties":{"Shape_Leng":0.442818755322,"Shape_Area":0.00527948876632,"ADM3_EN":"Ban Mai","ADM3_TH":"บ้านใหม่","ADM3_PCODE":"TH560111","ADM2_EN":"Mueang Phayao","ADM2_TH":"เมืองพะเยา","ADM2_PCODE":"TH5601","ADM1_EN":"Phayao","ADM1_TH":"พะเยา","ADM1_PCODE":"TH56","ADM0_EN":"Thailand","ADM0_TH":"ประเทศไทย","ADM0_PCODE":"TH"}},{"arcs":[[-7,38,39,40,41,42,-33]],"type":"Polygon","properties":{"Shape_Leng":0.799367772579,"Shape_Area":0.00918537611967,"ADM3_EN":"Champa Wai","ADM3_TH":"จำป่าหวาย","ADM3_PCODE":"TH560112","ADM2_EN":"Mueang Phayao","ADM2_TH":"เมืองพะเยา","ADM2_PCODE":"TH5601","ADM1_EN":"Phayao","ADM1_TH":"พะเยา","ADM1_PCODE":"TH56","ADM0_EN":"Thailand","ADM0_TH":"ประเทศไทย","ADM0_PCODE":"TH"}},{"arcs":[[-6,-26,43,44,45,46,-39]],"type":"Polygon","properties":{"Shape_Leng":0.344064514462,"Shape_Area":0.00334939505063,"ADM3_EN":"Tha Wang Thong","ADM3_TH":"ท่าวังทอง","ADM3_PCODE":"TH560113","ADM2_EN":"Mueang Phayao","ADM2_TH":"เมืองพะเยา","ADM2_PCODE":"TH5601","ADM1_EN":"Phayao","ADM1_TH":"พะเยา","ADM1_PCODE":"TH56","ADM0_EN":"Thailand","ADM0_TH":"ประเทศไทย","ADM0_PCODE":"TH"}},{"arcs":[[-2,-9,-35,-13,-14]],"type":"Polygon","properties":{"Shape_Leng":0.25964606175,"Shape_Area":0.00264107513049,"ADM3_EN":"Mae Sai","ADM3_TH":"แม่ใส","ADM3_PCODE":"TH560114","ADM2_EN":"Mueang Phayao","ADM2_TH":"เมืองพะเยา","ADM2_PCODE":"TH5601","ADM1_EN":"Phayao","ADM1_TH":"พะเยา","ADM1_PCODE":"TH56","ADM0_EN":"Thailand","ADM0_TH":"ประเทศไทย","ADM0_PCODE":"TH"}},{"arcs":[[-4,-16,47,48,-23]],"type":"Polygon","properties":{"Shape_Leng":0.360540144237,"Shape_Area":0.00246585980264,"ADM3_EN":"Ban Sang","ADM3_TH":"บ้านสาง","ADM3_PCODE":"TH560115","ADM2_EN":"Mueang Phayao","ADM2_TH":"เมืองพะเยา","ADM2_PCODE":"TH5601","ADM1_EN":"Phayao","ADM1_TH":"พะเยา","ADM1_PCODE":"TH56","ADM0_EN":"Thailand","ADM0_TH":"ประเทศไทย","ADM0_PCODE":"TH"}},{"arcs":[[-21,49,-36,-27]],"type":"Polygon","properties":{"Shape_Leng":0.387915222653,"Shape_Area":0.00358761154821,"ADM3_EN":"Tha Champi","ADM3_TH":"ท่าจำปี","ADM3_PCODE":"TH560116","ADM2_EN":"Mueang Phayao","ADM2_TH":"เมืองพะเยา","ADM2_PCODE":"TH5601","ADM1_EN":"Phayao","ADM1_TH":"พะเยา","ADM1_PCODE":"TH56","ADM0_EN":"Thailand","ADM0_TH":"ประเทศไทย","ADM0_PCODE":"TH"}},{"arcs":[[-19,-24,-49,50]],"type":"Polygon","properties":{"Shape_Leng":0.366267346289,"Shape_Area":0.00276119570178,"ADM3_EN":"San Pa Muang","ADM3_TH":"สันป่าม่วง","ADM3_PCODE":"TH560118","ADM2_EN":"Mueang Phayao","ADM2_TH":"เมืองพะเยา","ADM2_PCODE":"TH5601","ADM1_EN":"Phayao","ADM1_TH":"พะเยา","ADM1_PCODE":"TH56","ADM0_EN":"Thailand","ADM0_TH":"ประเทศไทย","ADM0_PCODE":"TH"}},{"arcs":[[51,52,53,54,55]],"type":"Polygon","properties":{"Shape_Leng":0.408238663006,"Shape_Area":0.00538086230764,"ADM3_EN":"Huai Khao Kam","ADM3_TH":"ห้วยข้าวก่ำ","ADM3_PCODE":"TH560201","ADM2_EN":"Chun","ADM2_TH":"จุน","ADM2_PCODE":"TH5602","ADM1_EN":"Phayao","ADM1_TH":"พะเยา","ADM1_PCODE":"TH56","ADM0_EN":"Thailand","ADM0_TH":"ประเทศไทย","ADM0_PCODE":"TH"}},{"arcs":[[-53,56,57,58,59,60,61,62,63]],"type":"Polygon","properties":{"Shape_Leng":0.67238121399,"Shape_Area":0.0113264381626,"ADM3_EN":"Chun","ADM3_TH":"จุน","ADM3_PCODE":"TH560202","ADM2_EN":"Chun","ADM2_TH":"จุน","ADM2_PCODE":"TH5602","ADM1_EN":"Phayao","ADM1_TH":"พะเยา","ADM1_PCODE":"TH56","ADM0_EN":"Thailand","ADM0_TH":"ประเทศไทย","ADM0_PCODE":"TH"}},{"arcs":[[-56,64,65,66,67,68]],"type":"Polygon","properties":{"Shape_Leng":0.471941522721,"Shape_Area":0.00438872687582,"ADM3_EN":"Lo","ADM3_TH":"ลอ","ADM3_PCODE":"TH560203","ADM2_EN":"Chun","ADM2_TH":"จุน","ADM2_PCODE":"TH5602","ADM1_EN":"Phayao","ADM1_TH":"พะเยา","ADM1_PCODE":"TH56","ADM0_EN":"Thailand","ADM0_TH":"ประเทศไทย","ADM0_PCODE":"TH"}},{"arcs":[[-67,69,70,71,72]],"type":"Polygon","properties":{"Shape_Leng":0.535776024175,"Shape_Area":0.00670787900708,"ADM3_EN":"Hong Hin","ADM3_TH":"หงส์หิน","ADM3_PCODE":"TH560204","ADM2_EN":"Chun","ADM2_TH":"จุน","ADM2_PCODE":"TH5602","ADM1_EN":"Phayao","ADM1_TH":"พะเยา","ADM1_PCODE":"TH56","ADM0_EN":"Thailand","ADM0_TH":"ประเทศไทย","ADM0_PCODE":"TH"}},{"arcs":[[-68,-73,73,74,75]],"type":"Polygon","properties":{"Shape_Leng":0.452508736248,"Shape_Area":0.00631715979382,"ADM3_EN":"Thung Ruang Thong","ADM3_TH":"ทุ่งรวงทอง","ADM3_PCODE":"TH560205","ADM2_EN":"Chun","ADM2_TH":"จุน","ADM2_PCODE":"TH5602","ADM1_EN":"Phayao","ADM1_TH":"พะเยา","ADM1_PCODE":"TH56","ADM0_EN":"Thailand","ADM0_TH":"ประเทศไทย","ADM0_PCODE":"TH"}},{"arcs":[[-52,-69,-76,76,-57]],"type":"Polygon","properties":{"Shape_Leng":0.337002665314,"Shape_Area":0.00430989437459,"ADM3_EN":"Huai Yang Kham","ADM3_TH":"ห้วยยางขาม","ADM3_PCODE":"TH560206","ADM2_EN":"Chun","ADM2_TH":"จุน","ADM2_PCODE":"TH5602","ADM1_EN":"Phayao","ADM1_TH":"พะเยา","ADM1_PCODE":"TH56","ADM0_EN":"Thailand","ADM0_TH":"ประเทศไทย","ADM0_PCODE":"TH"}},{"arcs":[[-60,77,78,79]],"type":"Polygon","properties":{"Shape_Leng":0.462645328652,"Shape_Area":0.00720783299862,"ADM3_EN":"Phrathat Khing Kaeng","ADM3_TH":"พระธาตุขิงแกง","ADM3_PCODE":"TH560207","ADM2_EN":"Chun","ADM2_TH":"จุน","ADM2_PCODE":"TH5602","ADM1_EN":"Phayao","ADM1_TH":"พะเยา","ADM1_PCODE":"TH56","ADM0_EN":"Thailand","ADM0_TH":"ประเทศไทย","ADM0_PCODE":"TH"}},{"arcs":[[80,81,82,83,84]],"type":"Polygon","properties":{"Shape_Leng":0.25256844533,"Shape_Area":0.00124981788521,"ADM3_EN":"Yuan","ADM3_TH":"หย่วน","ADM3_PCODE":"TH560301","ADM2_EN":"Chiang Kham","ADM2_TH":"เชียงคำ","ADM2_PCODE":"TH5603","ADM1_EN":"Phayao","ADM1_TH":"พะเยา","ADM1_PCODE":"TH56","ADM0_EN":"Thailand","ADM0_TH":"ประเทศไทย","ADM0_PCODE":"TH"}},{"arcs":[[-72,85,86,87,88,-74]],"type":"Polygon","properties":{"Shape_Leng":0.481846647897,"Shape_Area":0.00745717928983,"ADM3_EN":"Nam Waen","ADM3_TH":"น้ำแวน","ADM3_PCODE":"TH560306","ADM2_EN":"Chiang Kham","ADM2_TH":"เชียงคำ","ADM2_PCODE":"TH5603","ADM1_EN":"Phayao","ADM1_TH":"พะเยา","ADM1_PCODE":"TH56","ADM0_EN":"Thailand","ADM0_TH":"ประเทศไทย","ADM0_PCODE":"TH"}},{"arcs":[[-82,89,90,91]],"type":"Polygon","properties":{"Shape_Leng":0.152554982448,"Shape_Area":0.000965506834423,"ADM3_EN":"Wiang","ADM3_TH":"เวียง","ADM3_PCODE":"TH560307","ADM2_EN":"Chiang Kham","ADM2_TH":"เชียงคำ","ADM2_PCODE":"TH5603","ADM1_EN":"Phayao","ADM1_TH":"พะเยา","ADM1_PCODE":"TH56","ADM0_EN":"Thailand","ADM0_TH":"ประเทศไทย","ADM0_PCODE":"TH"}},{"arcs":[[-58,-77,-75,-89,92,-91,93,94,95,96,97]],"type":"Polygon","properties":{"Shape_Leng":0.689141579729,"Shape_Area":0.013815213914,"ADM3_EN":"Fai Kwang","ADM3_TH":"ฝายกวาง","ADM3_PCODE":"TH560308","ADM2_EN":"Chiang Kham","ADM2_TH":"เชียงคำ","ADM2_PCODE":"TH5603","ADM1_EN":"Phayao","ADM1_TH":"พะเยา","ADM1_PCODE":"TH56","ADM0_EN":"Thailand","ADM0_TH":"ประเทศไทย","ADM0_PCODE":"TH"}},{"arcs":[[-81,98,99,100,-94,-90]],"type":"Polygon","properties":{"Shape_Leng":0.284945275012,"Shape_Area":0.0022525028788,"ADM3_EN":"Chedi Kham","ADM3_TH":"เจดีย์คำ","ADM3_PCODE":"TH560309","ADM2_EN":"Chiang Kham","ADM2_TH":"เชียงคำ","ADM2_PCODE":"TH5603","ADM1_EN":"Phayao","ADM1_TH":"พะเยา","ADM1_PCODE":"TH56","ADM0_EN":"Thailand","ADM0_TH":"ประเทศไทย","ADM0_PCODE":"TH"}},{"arcs":[[-95,-101,101,102,103]],"type":"Polygon","properties":{"Shape_Leng":0.756546924249,"Shape_Area":0.021099714334,"ADM3_EN":"Rom Yen","ADM3_TH":"ร่มเย็น","ADM3_PCODE":"TH560310","ADM2_EN":"Chiang Kham","ADM2_TH":"เชียงคำ","ADM2_PCODE":"TH5603","ADM1_EN":"Phayao","ADM1_TH":"พะเยา","ADM1_PCODE":"TH56","ADM0_EN":"Thailand","ADM0_TH":"ประเทศไทย","ADM0_PCODE":"TH"}},{"arcs":[[-84,104,-87,105,106]],"type":"Polygon","properties":{"Shape_Leng":0.266466872888,"Shape_Area":0.00137484484955,"ADM3_EN":"Chiang Ban","ADM3_TH":"เชียงบาน","ADM3_PCODE":"TH560311","ADM2_EN":"Chiang Kham","ADM2_TH":"เชียงคำ","ADM2_PCODE":"TH5603","ADM1_EN":"Phayao","ADM1_TH":"พะเยา","ADM1_PCODE":"TH56","ADM0_EN":"Thailand","ADM0_TH":"ประเทศไทย","ADM0_PCODE":"TH"}},{"arcs":[[-96,-104,107,108,109]],"type":"Polygon","properties":{"Shape_Leng":0.60926623459,"Shape_Area":0.0133738438835,"ADM3_EN":"Mae Lao","ADM3_TH":"แม่ลาว","ADM3_PCODE":"TH560312","ADM2_EN":"Chiang Kham","ADM2_TH":"เชียงคำ","ADM2_PCODE":"TH5603","ADM1_EN":"Phayao","ADM1_TH":"พะเยา","ADM1_PCODE":"TH56","ADM0_EN":"Thailand","ADM0_TH":"ประเทศไทย","ADM0_PCODE":"TH"}},{"arcs":[[-71,110,111,112,-106,-86]],"type":"Polygon","properties":{"Shape_Leng":0.626458486381,"Shape_Area":0.00930596574616,"ADM3_EN":"Ang Thong","ADM3_TH":"อ่างทอง","ADM3_PCODE":"TH560313","ADM2_EN":"Chiang Kham","ADM2_TH":"เชียงคำ","ADM2_PCODE":"TH5603","ADM1_EN":"Phayao","ADM1_TH":"พะเยา","ADM1_PCODE":"TH56","ADM0_EN":"Thailand","ADM0_TH":"ประเทศไทย","ADM0_PCODE":"TH"}},{"arcs":[[-83,-92,-93,-88,-105]],"type":"Polygon","properties":{"Shape_Leng":0.336019429088,"Shape_Area":0.00207998673363,"ADM3_EN":"Thung Pha Suk","ADM3_TH":"ทุ่งผาสุข","ADM3_PCODE":"TH560314","ADM2_EN":"Chiang Kham","ADM2_TH":"เชียงคำ","ADM2_PCODE":"TH5603","ADM1_EN":"Phayao","ADM1_TH":"พะเยา","ADM1_PCODE":"TH56","ADM0_EN":"Thailand","ADM0_TH":"ประเทศไทย","ADM0_PCODE":"TH"}},{"arcs":[[113,114,115]],"type":"Polygon","properties":{"Shape_Leng":0.581159789742,"Shape_Area":0.0118515324162,"ADM3_EN":"Chiang Muan","ADM3_TH":"เชียงม่วน","ADM3_PCODE":"TH560401","ADM2_EN":"Chiang Muan","ADM2_TH":"เชียงม่วน","ADM2_PCODE":"TH5604","ADM1_EN":"Phayao","ADM1_TH":"พะเยา","ADM1_PCODE":"TH56","ADM0_EN":"Thailand","ADM0_TH":"ประเทศไทย","ADM0_PCODE":"TH"}},{"arcs":[[-115,116,117,118]],"type":"Polygon","properties":{"Shape_Leng":0.529054227268,"Shape_Area":0.0135121993612,"ADM3_EN":"Ban Mang","ADM3_TH":"บ้านมาง","ADM3_PCODE":"TH560402","ADM2_EN":"Chiang Muan","ADM2_TH":"เชียงม่วน","ADM2_PCODE":"TH5604","ADM1_EN":"Phayao","ADM1_TH":"พะเยา","ADM1_PCODE":"TH56","ADM0_EN":"Thailand","ADM0_TH":"ประเทศไทย","ADM0_PCODE":"TH"}},{"arcs":[[-116,-119,119,120,121,122]],"type":"Polygon","properties":{"Shape_Leng":1.13585887376,"Shape_Area":0.0344394167751,"ADM3_EN":"Sa","ADM3_TH":"สระ","ADM3_PCODE":"TH560403","ADM2_EN":"Chiang Muan","ADM2_TH":"เชียงม่วน","ADM2_PCODE":"TH5604","ADM1_EN":"Phayao","ADM1_TH":"พะเยา","ADM1_PCODE":"TH56","ADM0_EN":"Thailand","ADM0_TH":"ประเทศไทย","ADM0_PCODE":"TH"}},{"arcs":[[-40,-47,123,124,125,126]],"type":"Polygon","properties":{"Shape_Leng":0.281616184813,"Shape_Area":0.00241730268848,"ADM3_EN":"Dok Khamtai","ADM3_TH":"ดอกคำใต้","ADM3_PCODE":"TH560501","ADM2_EN":"Dok Khamtai","ADM2_TH":"ดอกคำใต้","ADM2_PCODE":"TH5605","ADM1_EN":"Phayao","ADM1_TH":"พะเยา","ADM1_PCODE":"TH56","ADM0_EN":"Thailand","ADM0_TH":"ประเทศไทย","ADM0_PCODE":"TH"}},{"arcs":[[-125,127,128,129,130,131]],"type":"Polygon","properties":{"Shape_Leng":0.264553939775,"Shape_Area":0.00233665986652,"ADM3_EN":"Don Si Chum","ADM3_TH":"ดอนศรีชุม","ADM3_PCODE":"TH560502","ADM2_EN":"Dok Khamtai","ADM2_TH":"ดอกคำใต้","ADM2_PCODE":"TH5605","ADM1_EN":"Phayao","ADM1_TH":"พะเยา","ADM1_PCODE":"TH56","ADM0_EN":"Thailand","ADM0_TH":"ประเทศไทย","ADM0_PCODE":"TH"}},{"arcs":[[-130,132,133,134,135,136]],"type":"Polygon","properties":{"Shape_Leng":0.4004075261,"Shape_Area":0.00748951873219,"ADM3_EN":"Ban Tham","ADM3_TH":"บ้านถ้ำ","ADM3_PCODE":"TH560503","ADM2_EN":"Dok Khamtai","ADM2_TH":"ดอกคำใต้","ADM2_PCODE":"TH5605","ADM1_EN":"Phayao","ADM1_TH":"พะเยา","ADM1_PCODE":"TH56","ADM0_EN":"Thailand","ADM0_TH":"ประเทศไทย","ADM0_PCODE":"TH"}},{"arcs":[[-42,137,-136,138,139]],"type":"Polygon","properties":{"Shape_Leng":0.563034506,"Shape_Area":0.00521408564529,"ADM3_EN":"Ban Pin","ADM3_TH":"บ้านปิน","ADM3_PCODE":"TH560504","ADM2_EN":"Dok Khamtai","ADM2_TH":"ดอกคำใต้","ADM2_PCODE":"TH5605","ADM1_EN":"Phayao","ADM1_TH":"พะเยา","ADM1_PCODE":"TH56","ADM0_EN":"Thailand","ADM0_TH":"ประเทศไทย","ADM0_PCODE":"TH"}},{"arcs":[[-55,140,141,142,-65]],"type":"Polygon","properties":{"Shape_Leng":0.689398131358,"Shape_Area":0.00733876058391,"ADM3_EN":"Huai Lan","ADM3_TH":"ห้วยลาน","ADM3_PCODE":"TH560505","ADM2_EN":"Dok Khamtai","ADM2_TH":"ดอกคำใต้","ADM2_PCODE":"TH5605","ADM1_EN":"Phayao","ADM1_TH":"พะเยา","ADM1_PCODE":"TH56","ADM0_EN":"Thailand","ADM0_TH":"ประเทศไทย","ADM0_PCODE":"TH"}},{"arcs":[[-62,143,-133,-129,144,145]],"type":"Polygon","properties":{"Shape_Leng":0.371155971513,"Shape_Area":0.00570989015521,"ADM3_EN":"San Khong","ADM3_TH":"สันโค้ง","ADM3_PCODE":"TH560506","ADM2_EN":"Dok Khamtai","ADM2_TH":"ดอกคำใต้","ADM2_PCODE":"TH5605","ADM1_EN":"Phayao","ADM1_TH":"พะเยา","ADM1_PCODE":"TH56","ADM0_EN":"Thailand","ADM0_TH":"ประเทศไทย","ADM0_PCODE":"TH"}},{"arcs":[[-54,-64,146,147,148,-141]],"type":"Polygon","properties":{"Shape_Leng":0.280205759323,"Shape_Area":0.00248816117859,"ADM3_EN":"Pa Sang","ADM3_TH":"ป่าซาง","ADM3_PCODE":"TH560507","ADM2_EN":"Dok Khamtai","ADM2_TH":"ดอกคำใต้","ADM2_PCODE":"TH5605","ADM1_EN":"Phayao","ADM1_TH":"พะเยา","ADM1_PCODE":"TH56","ADM0_EN":"Thailand","ADM0_TH":"ประเทศไทย","ADM0_PCODE":"TH"}},{"arcs":[[-118,149,-139,-135,150,-120]],"type":"Polygon","properties":{"Shape_Leng":0.854440788132,"Shape_Area":0.0195028462682,"ADM3_EN":"Nong Lom","ADM3_TH":"หนองหล่ม","ADM3_PCODE":"TH560508","ADM2_EN":"Dok Khamtai","ADM2_TH":"ดอกคำใต้","ADM2_PCODE":"TH5605","ADM1_EN":"Phayao","ADM1_TH":"พะเยา","ADM1_PCODE":"TH56","ADM0_EN":"Thailand","ADM0_TH":"ประเทศไทย","ADM0_PCODE":"TH"}},{"arcs":[[-63,-146,151,152,-147]],"type":"Polygon","properties":{"Shape_Leng":0.348462116511,"Shape_Area":0.00502591363489,"ADM3_EN":"Dong Suwan","ADM3_TH":"ดงสุวรรณ","ADM3_PCODE":"TH560509","ADM2_EN":"Dok Khamtai","ADM2_TH":"ดอกคำใต้","ADM2_PCODE":"TH5605","ADM1_EN":"Phayao","ADM1_TH":"พะเยา","ADM1_PCODE":"TH56","ADM0_EN":"Thailand","ADM0_TH":"ประเทศไทย","ADM0_PCODE":"TH"}},{"arcs":[[-126,-132,153]],"type":"Polygon","properties":{"Shape_Leng":0.181234935701,"Shape_Area":0.00126579981662,"ADM3_EN":"Bunkoet","ADM3_TH":"บุญเกิด","ADM3_PCODE":"TH560510","ADM2_EN":"Dok Khamtai","ADM2_TH":"ดอกคำใต้","ADM2_PCODE":"TH5605","ADM1_EN":"Phayao","ADM1_TH":"พะเยา","ADM1_PCODE":"TH56","ADM0_EN":"Thailand","ADM0_TH":"ประเทศไทย","ADM0_PCODE":"TH"}},{"arcs":[[-46,154,-152,-145,-128,-124]],"type":"Polygon","properties":{"Shape_Leng":0.28333167719,"Shape_Area":0.00230882160787,"ADM3_EN":"Sawang Arom","ADM3_TH":"สว่างอารมณ์","ADM3_PCODE":"TH560511","ADM2_EN":"Dok Khamtai","ADM2_TH":"ดอกคำใต้","ADM2_PCODE":"TH5605","ADM1_EN":"Phayao","ADM1_TH":"พะเยา","ADM1_PCODE":"TH56","ADM0_EN":"Thailand","ADM0_TH":"ประเทศไทย","ADM0_PCODE":"TH"}},{"arcs":[[-41,-127,-154,-131,-137,-138]],"type":"Polygon","properties":{"Shape_Leng":0.30629253547,"Shape_Area":0.00273861412218,"ADM3_EN":"Khue Wiang","ADM3_TH":"คือเวียง","ADM3_PCODE":"TH560512","ADM2_EN":"Dok Khamtai","ADM2_TH":"ดอกคำใต้","ADM2_PCODE":"TH5605","ADM1_EN":"Phayao","ADM1_TH":"พะเยา","ADM1_PCODE":"TH56","ADM0_EN":"Thailand","ADM0_TH":"ประเทศไทย","ADM0_PCODE":"TH"}},{"arcs":[[-61,-80,155,156,157,-121,-151,-134,-144]],"type":"Polygon","properties":{"Shape_Leng":0.937468631427,"Shape_Area":0.0304023776253,"ADM3_EN":"Pong","ADM3_TH":"ปง","ADM3_PCODE":"TH560601","ADM2_EN":"Pong","ADM2_TH":"ปง","ADM2_PCODE":"TH5606","ADM1_EN":"Phayao","ADM1_TH":"พะเยา","ADM1_PCODE":"TH56","ADM0_EN":"Thailand","ADM0_TH":"ประเทศไทย","ADM0_PCODE":"TH"}},{"arcs":[[-157,158,159,160,161]],"type":"Polygon","properties":{"Shape_Leng":0.380917380478,"Shape_Area":0.00403613690715,"ADM3_EN":"Khuan","ADM3_TH":"ควร","ADM3_PCODE":"TH560602","ADM2_EN":"Pong","ADM2_TH":"ปง","ADM2_PCODE":"TH5606","ADM1_EN":"Phayao","ADM1_TH":"พะเยา","ADM1_PCODE":"TH56","ADM0_EN":"Thailand","ADM0_TH":"ประเทศไทย","ADM0_PCODE":"TH"}},{"arcs":[[-59,-98,162,-160,163,-78]],"type":"Polygon","properties":{"Shape_Leng":0.651902038937,"Shape_Area":0.0115544926872,"ADM3_EN":"Oi","ADM3_TH":"ออย","ADM3_PCODE":"TH560603","ADM2_EN":"Pong","ADM2_TH":"ปง","ADM2_PCODE":"TH5606","ADM1_EN":"Phayao","ADM1_TH":"พะเยา","ADM1_PCODE":"TH56","ADM0_EN":"Thailand","ADM0_TH":"ประเทศไทย","ADM0_PCODE":"TH"}},{"arcs":[[-97,-110,164,165,-161,-163]],"type":"Polygon","properties":{"Shape_Leng":1.18519542724,"Shape_Area":0.0259377481081,"ADM3_EN":"Ngim","ADM3_TH":"งิม","ADM3_PCODE":"TH560604","ADM2_EN":"Pong","ADM2_TH":"ปง","ADM2_PCODE":"TH5606","ADM1_EN":"Phayao","ADM1_TH":"พะเยา","ADM1_PCODE":"TH56","ADM0_EN":"Thailand","ADM0_TH":"ประเทศไทย","ADM0_PCODE":"TH"}},{"arcs":[[-109,166,167,-165]],"type":"Polygon","properties":{"Shape_Leng":1.275330502,"Shape_Area":0.0330584342929,"ADM3_EN":"Pha Chang Noi","ADM3_TH":"ผาช้างน้อย","ADM3_PCODE":"TH560605","ADM2_EN":"Pong","ADM2_TH":"ปง","ADM2_PCODE":"TH5606","ADM1_EN":"Phayao","ADM1_TH":"พะเยา","ADM1_PCODE":"TH56","ADM0_EN":"Thailand","ADM0_TH":"ประเทศไทย","ADM0_PCODE":"TH"}},{"arcs":[[-79,-164,-159,-156]],"type":"Polygon","properties":{"Shape_Leng":0.477111174334,"Shape_Area":0.0080797086582,"ADM3_EN":"Na Prang","ADM3_TH":"นาปรัง","ADM3_PCODE":"TH560606","ADM2_EN":"Pong","ADM2_TH":"ปง","ADM2_PCODE":"TH5606","ADM1_EN":"Phayao","ADM1_TH":"พะเยา","ADM1_PCODE":"TH56","ADM0_EN":"Thailand","ADM0_TH":"ประเทศไทย","ADM0_PCODE":"TH"}},{"arcs":[[-122,-158,-162,-166,-168,168]],"type":"Polygon","properties":{"Shape_Leng":1.12880274164,"Shape_Area":0.031726991909,"ADM3_EN":"Khun Khuan","ADM3_TH":"ขุนควร","ADM3_PCODE":"TH560607","ADM2_EN":"Pong","ADM2_TH":"ปง","ADM2_PCODE":"TH5606","ADM1_EN":"Phayao","ADM1_TH":"พะเยา","ADM1_PCODE":"TH56","ADM0_EN":"Thailand","ADM0_TH":"ประเทศไทย","ADM0_PCODE":"TH"}},{"arcs":[[-30,169,170,171]],"type":"Polygon","properties":{"Shape_Leng":0.286249385263,"Shape_Area":0.00141810490877,"ADM3_EN":"Mae Chai","ADM3_TH":"แม่ใจ","ADM3_PCODE":"TH560701","ADM2_EN":"Mae Chai","ADM2_TH":"แม่ใจ","ADM2_PCODE":"TH5607","ADM1_EN":"Phayao","ADM1_TH":"พะเยา","ADM1_PCODE":"TH56","ADM0_EN":"Thailand","ADM0_TH":"ประเทศไทย","ADM0_PCODE":"TH"}},{"arcs":[[-171,172,173,174,175]],"type":"Polygon","properties":{"Shape_Leng":0.407563159989,"Shape_Area":0.00599610213027,"ADM3_EN":"Si Thoi","ADM3_TH":"ศรีถ้อย","ADM3_PCODE":"TH560702","ADM2_EN":"Mae Chai","ADM2_TH":"แม่ใจ","ADM2_PCODE":"TH5607","ADM1_EN":"Phayao","ADM1_TH":"พะเยา","ADM1_PCODE":"TH56","ADM0_EN":"Thailand","ADM0_TH":"ประเทศไทย","ADM0_PCODE":"TH"}},{"arcs":[[-29,-38,176,-173,-170]],"type":"Polygon","properties":{"Shape_Leng":0.353331948003,"Shape_Area":0.00342945162106,"ADM3_EN":"Mae Suk","ADM3_TH":"แม่สุก","ADM3_PCODE":"TH560703","ADM2_EN":"Mae Chai","ADM2_TH":"แม่ใจ","ADM2_PCODE":"TH5607","ADM1_EN":"Phayao","ADM1_TH":"พะเยา","ADM1_PCODE":"TH56","ADM0_EN":"Thailand","ADM0_TH":"ประเทศไทย","ADM0_PCODE":"TH"}},{"arcs":[[177,178,179]],"type":"Polygon","properties":{"Shape_Leng":0.367621008625,"Shape_Area":0.00345954482779,"ADM3_EN":"Pa Faek","ADM3_TH":"ป่าแฝก","ADM3_PCODE":"TH560704","ADM2_EN":"Mae Chai","ADM2_TH":"แม่ใจ","ADM2_PCODE":"TH5607","ADM1_EN":"Phayao","ADM1_TH":"พะเยา","ADM1_PCODE":"TH56","ADM0_EN":"Thailand","ADM0_TH":"ประเทศไทย","ADM0_PCODE":"TH"}},{"arcs":[[-31,-172,-176,180,-178,181]],"type":"Polygon","properties":{"Shape_Leng":0.459931201289,"Shape_Area":0.00840083859168,"ADM3_EN":"Ban Lao","ADM3_TH":"บ้านเหล่า","ADM3_PCODE":"TH560705","ADM2_EN":"Mae Chai","ADM2_TH":"แม่ใจ","ADM2_PCODE":"TH5607","ADM1_EN":"Phayao","ADM1_TH":"พะเยา","ADM1_PCODE":"TH56","ADM0_EN":"Thailand","ADM0_TH":"ประเทศไทย","ADM0_PCODE":"TH"}},{"arcs":[[-175,182,-179,-181]],"type":"Polygon","properties":{"Shape_Leng":0.389372836297,"Shape_Area":0.00273182726012,"ADM3_EN":"Charoen Rat","ADM3_TH":"เจริญราษฎร์","ADM3_PCODE":"TH560706","ADM2_EN":"Mae Chai","ADM2_TH":"แม่ใจ","ADM2_PCODE":"TH5607","ADM1_EN":"Phayao","ADM1_TH":"พะเยา","ADM1_PCODE":"TH56","ADM0_EN":"Thailand","ADM0_TH":"ประเทศไทย","ADM0_PCODE":"TH"}},{"arcs":[[183,184,185,186]],"type":"Polygon","properties":{"Shape_Leng":0.526228018437,"Shape_Area":0.0091413758821,"ADM3_EN":"Phu Sang","ADM3_TH":"ภูซาง","ADM3_PCODE":"TH560801","ADM2_EN":"Phu Sang","ADM2_TH":"ภูซาง","ADM2_PCODE":"TH5608","ADM1_EN":"Phayao","ADM1_TH":"พะเยา","ADM1_PCODE":"TH56","ADM0_EN":"Thailand","ADM0_TH":"ประเทศไทย","ADM0_PCODE":"TH"}},{"arcs":[[-185,187,188,189]],"type":"Polygon","properties":{"Shape_Leng":0.20788204133,"Shape_Area":0.00122622624365,"ADM3_EN":"Pa Sak","ADM3_TH":"ป่าสัก","ADM3_PCODE":"TH560802","ADM2_EN":"Phu Sang","ADM2_TH":"ภูซาง","ADM2_PCODE":"TH5608","ADM1_EN":"Phayao","ADM1_TH":"พะเยา","ADM1_PCODE":"TH56","ADM0_EN":"Thailand","ADM0_TH":"ประเทศไทย","ADM0_PCODE":"TH"}},{"arcs":[[-100,190,-188,-184,191,-102]],"type":"Polygon","properties":{"Shape_Leng":0.519331536532,"Shape_Area":0.00781135196887,"ADM3_EN":"Thung Kluai","ADM3_TH":"ทุ่งกล้วย","ADM3_PCODE":"TH560803","ADM2_EN":"Phu Sang","ADM2_TH":"ภูซาง","ADM2_PCODE":"TH5608","ADM1_EN":"Phayao","ADM1_TH":"พะเยา","ADM1_PCODE":"TH56","ADM0_EN":"Thailand","ADM0_TH":"ประเทศไทย","ADM0_PCODE":"TH"}},{"arcs":[[-112,192,-186,-190,193]],"type":"Polygon","properties":{"Shape_Leng":0.374591443344,"Shape_Area":0.0042690931719,"ADM3_EN":"Chiang Raeng","ADM3_TH":"เชียงแรง","ADM3_PCODE":"TH560804","ADM2_EN":"Phu Sang","ADM2_TH":"ภูซาง","ADM2_PCODE":"TH5608","ADM1_EN":"Phayao","ADM1_TH":"พะเยา","ADM1_PCODE":"TH56","ADM0_EN":"Thailand","ADM0_TH":"ประเทศไทย","ADM0_PCODE":"TH"}},{"arcs":[[-85,-107,-113,-194,-189,-191,-99]],"type":"Polygon","properties":{"Shape_Leng":0.348328007831,"Shape_Area":0.00296726141142,"ADM3_EN":"Sop Bong","ADM3_TH":"สบบง","ADM3_PCODE":"TH560805","ADM2_EN":"Phu Sang","ADM2_TH":"ภูซาง","ADM2_PCODE":"TH5608","ADM1_EN":"Phayao","ADM1_TH":"พะเยา","ADM1_PCODE":"TH56","ADM0_EN":"Thailand","ADM0_TH":"ประเทศไทย","ADM0_PCODE":"TH"}},{"arcs":[[-32,194,-142,-149,195,196]],"type":"Polygon","properties":{"Shape_Leng":0.789293605149,"Shape_Area":0.0137383766745,"ADM3_EN":"Huai Kaeo","ADM3_TH":"ห้วยแก้ว","ADM3_PCODE":"TH560901","ADM2_EN":"Phu Kamyao","ADM2_TH":"ภูกามยาว","ADM2_PCODE":"TH5609","ADM1_EN":"Phayao","ADM1_TH":"พะเยา","ADM1_PCODE":"TH56","ADM0_EN":"Thailand","ADM0_TH":"ประเทศไทย","ADM0_PCODE":"TH"}},{"arcs":[[-17,-197,197,-44,-25]],"type":"Polygon","properties":{"Shape_Leng":0.305100173015,"Shape_Area":0.00291493945176,"ADM3_EN":"Dong Chen","ADM3_TH":"ดงเจน","ADM3_PCODE":"TH560902","ADM2_EN":"Phu Kamyao","ADM2_TH":"ภูกามยาว","ADM2_PCODE":"TH5609","ADM1_EN":"Phayao","ADM1_TH":"พะเยา","ADM1_PCODE":"TH56","ADM0_EN":"Thailand","ADM0_TH":"ประเทศไทย","ADM0_PCODE":"TH"}},{"arcs":[[-45,-198,-196,-148,-153,-155]],"type":"Polygon","properties":{"Shape_Leng":0.278377872186,"Shape_Area":0.00134440090905,"ADM3_EN":"Mae Ing","ADM3_TH":"แม่อิง","ADM3_PCODE":"TH560903","ADM2_EN":"Phu Kamyao","ADM2_TH":"ภูกามยาว","ADM2_PCODE":"TH5609","ADM1_EN":"Phayao","ADM1_TH":"พะเยา","ADM1_PCODE":"TH56","ADM0_EN":"Thailand","ADM0_TH":"ประเทศไทย","ADM0_PCODE":"TH"}}]}}}