{"type":"Topology","arcs":[[[8559,6849],[-13,-121]],[[8546,6728],[-1,-9],[-80,10],[-4,-24],[-41,-11]],[[8420,6694],[-1,24],[-24,88],[-11,-1],[-1,72],[10,15]],[[8393,6892],[33,21],[90,91],[6,31]],[[8522,7035],[35,-31]],[[8557,7004],[13,-27],[-11,-128]],[[8393,6892],[6,41],[-44,-14],[-5,32],[-22,10],[-2,63]],[[8326,7024],[-7,93]],[[8319,7117],[27,1],[-9,43],[37,-43],[19,30],[27,-29],[13,25]],[[8433,7144],[7,-18],[70,-52]],[[8510,7074],[-11,-19],[23,-20]],[[9439,7283],[-31,-55],[-47,-62],[-52,-22],[-26,-3],[-39,20],[-42,0]],[[9202,7161],[-17,1],[-13,-21],[-34,-24],[-35,-5],[-49,41],[-117,-88],[-37,90],[-36,53],[-37,-26],[-37,55]],[[8790,7237],[83,65],[11,17],[41,28]],[[8925,7347],[12,-24],[28,21],[52,9],[113,60],[16,-49],[63,37],[26,41],[30,-14],[15,12]],[[9280,7440],[11,11],[47,-33],[78,-100],[23,-35]],[[9493,6593],[11,-132],[28,-1]],[[9532,6460],[-1,-47],[15,-89],[-8,-116],[-22,-49],[20,-14],[-50,-111],[0,-42]],[[9486,5992],[-104,-6],[-2,-25],[-82,-7]],[[9298,5954],[-34,53],[-33,4],[-21,90],[-38,37],[-35,80],[-28,17],[-23,1],[-13,22],[6,71],[-31,16],[-15,26],[-26,95]],[[9007,6466],[24,-21],[47,-23],[34,8],[57,104],[23,36],[10,-3],[19,49]],[[9221,6616],[49,-30],[52,-18],[16,-58],[53,21],[34,33],[68,29]],[[8319,7117],[-8,30],[-26,25],[-13,27],[-25,23],[-45,8],[-6,-34],[-55,5],[-6,-41],[-23,-9],[-33,6]],[[8079,7157],[10,58]],[[8089,7215],[7,70],[-129,51],[-20,24],[15,19],[4,30]],[[7966,7409],[0,62],[40,16],[1,57],[12,7],[-4,37],[12,13],[-7,47],[5,18],[-15,23],[-12,46],[1,24],[24,3],[11,36],[-6,17],[29,42],[-33,12]],[[8024,7869],[-16,44]],[[8008,7913],[30,34],[47,20],[39,-24],[88,2],[1,16],[55,25]],[[8268,7986],[15,-126],[-2,-33],[-22,-57],[-3,-150],[62,-117],[-10,-49],[19,-29],[-1,-23],[27,-8],[13,-43],[22,-2],[1,-85],[34,-90],[17,-14],[-7,-16]],[[8268,7986],[32,20],[161,3],[23,-57],[10,-119],[14,-18],[-1,-75],[-27,-97]],[[8480,7643],[0,-19],[-21,-43],[0,-30],[-10,-24],[25,-137],[-3,-33],[22,-58]],[[8493,7299],[15,-31],[-5,-33],[15,-46],[2,-38],[14,-31],[-7,-31],[-17,-15]],[[8493,7299],[38,21],[6,45]],[[8537,7365],[34,-12],[16,53],[84,-2],[7,63],[35,-7],[14,-21],[29,33],[26,2],[37,38],[19,-21],[22,-3],[44,-24]],[[8904,7464],[1,-57],[20,-60]],[[8790,7237],[-56,-43],[-38,-48],[-48,-34],[-33,-42],[-18,6],[15,-55],[-21,-17],[-34,0]],[[8326,7024],[-21,5],[-28,-30],[23,-44],[-3,-24],[-21,-38],[-37,4],[-74,-23],[-54,-7],[-22,-18]],[[8089,6849],[18,-42],[15,1],[5,-47],[22,-54],[-26,-16],[-78,-7],[-25,19],[-42,-14]],[[7978,6689],[-5,19],[-22,10],[8,16]],[[7959,6734],[2,70],[25,-8],[2,35],[15,38],[12,4],[-5,59],[-24,25],[35,83]],[[8021,7040],[28,8],[23,30],[7,79]],[[8021,7040],[12,53],[-17,5],[-52,-40],[-50,10]],[[7914,7068],[4,48],[-17,9],[9,54]],[[7910,7179],[3,31],[-11,45],[13,1],[9,-36],[29,-32],[15,28],[22,11],[99,-12]],[[7966,7409],[-51,-13],[-7,12],[-45,18],[4,23],[-24,5],[-37,-18],[-25,31]],[[7781,7467],[-20,57],[-2,90],[-20,65]],[[7739,7679],[25,8],[61,53],[-5,32],[26,25],[55,34],[16,-11],[38,13],[25,23],[44,13]],[[8420,6694],[-24,-23],[25,-39],[-32,-53],[-5,-25],[12,-24],[40,-5]],[[8436,6525],[2,-22]],[[8438,6503],[-24,4],[-52,-24],[-34,-35],[-26,74]],[[8302,6522],[2,49],[-28,20],[-13,48],[-15,15],[-13,54],[-5,61],[-15,46],[-21,-6],[-2,23],[-30,-7],[-58,25],[-15,-1]],[[8546,6728],[16,-3],[27,-33],[52,13],[9,-37],[57,2],[8,-100],[-23,-24],[15,-21]],[[8707,6525],[-20,-62],[-38,-8]],[[8649,6455],[-22,24],[-24,-8],[-6,17],[-40,3],[-23,-7],[-13,23],[-30,14],[-55,4]],[[9202,7161],[2,-80],[40,-80],[-9,-74]],[[9235,6927],[-28,-7],[-72,-68],[-9,-43],[-21,6],[-107,-55]],[[8998,6760],[-59,35]],[[8939,6795],[-27,14],[-199,38],[-47,17],[-59,-2],[-48,-13]],[[8939,6795],[-10,-102],[-48,-49],[-61,-39],[0,-67]],[[8820,6538],[-69,7],[-44,-20]],[[9007,6466],[-51,-67],[6,-87],[-106,1]],[[8856,6313],[-70,100],[34,125]],[[8998,6760],[67,-47],[24,8],[24,-31],[35,-28],[73,-46]],[[9235,6927],[49,-1],[-2,-66],[10,0],[20,-37],[4,-38],[27,2],[-6,-38],[87,-3],[92,2],[-10,-93],[-19,1],[6,-63]],[[9486,5992],[32,0],[-3,-33],[24,-107],[8,-64],[21,-24],[18,-44],[21,-28],[3,29],[22,-4],[-2,25],[16,-2],[43,22],[12,49],[18,5],[-5,35],[20,-14],[27,36],[11,-14]],[[9772,5859],[-51,-65],[-66,-92],[-45,-81],[-74,-152],[-28,-47],[-83,-171]],[[9425,5251],[-9,1],[-18,61],[-59,-16],[-31,116],[10,3],[-48,161],[-3,25],[-23,18],[-20,116],[-55,2],[28,79]],[[9197,5817],[20,59],[26,9],[26,42],[29,27]],[[7914,7068],[-35,13],[-20,-25],[-6,-35],[14,-25],[-13,-51],[38,-12],[-12,-36],[-42,-25]],[[7838,6872],[-35,4],[-23,-30],[-99,2],[-36,-19]],[[7645,6829],[-50,-4],[-19,14],[-98,-2],[-25,11]],[[7453,6848],[-24,99],[-21,102],[-37,111],[77,9],[-4,97]],[[7444,7266],[-2,74]],[[7442,7340],[66,15],[40,-9],[65,2],[39,8],[79,60],[50,51]],[[7781,7467],[-4,-51],[13,-44],[-6,-24],[-38,-36],[62,-87],[18,17],[22,1],[-4,-18],[66,-46]],[[7442,7340],[5,98],[-28,61],[-23,34],[4,22]],[[7400,7555],[41,22],[34,5],[20,17],[44,51]],[[7539,7650],[7,-20],[29,-19],[18,13],[8,-39],[47,-19],[38,57],[23,16],[30,40]],[[8856,6313],[16,-35],[3,-54],[-8,-94]],[[8867,6130],[-73,-22],[-29,-18],[-32,-35],[-4,10],[-93,37],[-32,-10],[-26,35]],[[8578,6127],[-6,104]],[[8572,6231],[34,77],[30,41],[14,35],[-1,71]],[[8867,6130],[43,-152],[90,-2]],[[9000,5976],[-103,-53],[-10,-49],[21,-33],[2,-61],[15,-6],[1,-43],[-80,-45],[-14,-33],[-8,-72],[8,-111],[-24,-27],[-26,-64],[4,-47]],[[8786,5332],[-77,39],[-36,5],[-22,23],[-27,-9]],[[8624,5390],[-16,244],[-12,2],[-6,40],[-13,26],[-4,64],[26,22],[-7,109]],[[8592,5897],[-11,184]],[[8581,6081],[-3,46]],[[9425,5251],[-36,-97],[-8,-6],[0,-52],[13,11],[-38,-96]],[[9356,5011],[-41,54],[-17,-2],[-112,93],[-21,2],[-10,30]],[[9155,5188],[-9,20],[-42,32],[-106,-15],[-26,12],[-18,28],[-70,35],[-49,9],[-49,23]],[[9000,5976],[76,-13],[49,11],[1,-86],[5,-46],[45,-1],[21,-24]],[[7822,8757],[-73,-132],[-16,-9],[2,-43],[25,13],[6,-27],[-12,-23],[36,6],[20,22],[8,-18]],[[7818,8546],[15,-30],[-28,-4],[4,-38],[-20,-22],[-1,-42],[-21,9],[-124,-20],[-20,-15]],[[7623,8384],[-22,11],[-62,-66],[-95,73],[-18,0],[-50,-22],[-61,-16],[-44,58],[-25,5],[-89,-30],[-5,-16],[-94,1],[0,16],[-58,-24],[-33,-23],[-32,12],[-28,-29],[-49,-3],[-29,11],[-61,4],[-8,-22],[-36,7],[-26,-28],[-97,1],[-11,25],[-78,1],[-23,-13]],[[6489,8317],[-4,49],[8,32],[43,79],[-3,26],[-22,51],[-42,49]],[[6469,8603],[18,11],[7,30],[30,13],[19,-40],[17,-10],[20,40],[-14,38],[3,21],[41,48]],[[6610,8754],[25,-31],[27,8],[47,-3],[26,-12],[51,37],[21,-6],[32,14],[38,-38],[25,7],[15,-15],[20,7],[30,-10],[41,-29],[21,11],[46,3],[16,16],[27,-18],[45,26],[17,23],[49,-22],[32,4],[143,-17],[113,17],[38,-3],[33,10]],[[7588,8733],[35,23],[26,-5],[-7,39],[34,-8],[12,18],[30,12],[41,-8],[29,-21],[17,3],[17,-29]],[[6610,8754],[-27,160],[-17,44],[9,13],[29,-10],[15,45],[29,-10],[-17,-34],[9,-11],[40,36],[4,21],[25,3],[34,-22],[27,-2],[64,21],[26,-7],[31,-22],[22,39],[13,73],[19,20],[25,2],[7,22],[29,-11],[74,3],[24,7],[48,-6],[-1,-18],[29,0]],[[7180,9110],[30,-17],[22,6],[49,-24],[-1,-8],[105,-4],[24,4],[18,-14],[48,1],[-6,67],[8,4],[73,-14]],[[7550,9111],[38,-378]],[[7180,9110],[0,15],[46,333]],[[7226,9458],[77,-31],[182,-15],[35,3]],[[7520,9415],[30,-304]],[[7623,8384],[-1,-28],[-51,-24],[12,-117],[9,-30],[-115,-110],[-41,-34]],[[7436,8041],[-83,-59],[-34,-6],[-31,39],[-44,-10],[-72,4],[-4,-23],[-42,-28],[-35,11],[-3,-18],[-45,0],[-22,28],[-37,16],[-31,-12],[17,-26],[-47,-18],[-30,-32]],[[6893,7907],[-37,29],[-74,25],[-88,16],[-6,94],[-35,56],[-19,85],[-20,25],[-50,23],[-59,15],[-16,42]],[[7539,7650],[13,75],[-23,18],[-12,25],[-7,49],[9,9],[-37,48],[-11,37],[-33,11],[3,24],[-15,53],[14,11],[-4,31]],[[7818,8546],[12,9],[15,-25],[16,-1],[9,-24],[14,10],[10,-28],[32,-12],[-2,-39],[43,1],[14,24],[-1,27],[25,-6],[31,9],[4,-23],[-31,0],[10,-24],[40,8]],[[8059,8452],[4,-41],[18,-43],[3,-43],[-12,-24],[-33,-102],[-9,-43],[-36,-77],[-13,-122],[27,-44]],[[7400,7555],[-30,20],[-50,-3],[-54,-18],[-5,-10],[-33,17],[-4,24],[-95,-6],[-48,22],[-33,-17],[-33,-6],[-12,22],[-21,-2],[-29,-23],[-10,-22],[-35,6],[-46,-26]],[[6862,7533],[11,62],[-28,13],[-33,-7],[-2,28],[16,27],[0,32]],[[6826,7688],[12,64],[-9,68],[20,34],[42,24],[2,29]],[[6469,8603],[-62,88],[-38,33],[-13,42],[-37,30],[-18,29],[-16,53],[23,40],[-2,19],[-21,23],[-43,23],[-25,-12],[-43,20],[-7,-38],[-11,-8],[-17,38],[-1,39],[13,40]],[[6151,9062],[29,42],[34,13],[40,50],[68,-11],[52,28],[-16,25],[23,64],[63,24],[9,29],[25,-10],[55,7],[21,63],[3,50],[35,-12],[45,19],[21,-16],[49,6],[26,39],[-24,75],[-1,61],[27,39],[30,26],[47,-20],[24,-37],[33,20],[25,40],[17,-15],[30,0],[45,-22],[47,-34],[-10,-47],[57,-8],[32,13],[85,-52],[-4,-36],[33,-17]],[[7226,9458],[68,472]],[[7294,9930],[52,-54],[108,-27],[43,-29],[13,19],[33,-17],[1,-31],[-11,-16],[2,-55],[-15,-96],[0,-45],[-13,-35],[13,-129]],[[7444,7266],[-26,1],[-127,-16],[-46,-15],[-3,-15],[-68,-10],[-60,-25],[-34,-5],[-49,-43],[-36,1],[-29,-34],[-21,1]],[[6945,7106],[-18,27],[-2,39],[-38,31],[-9,16],[-8,94],[-15,22],[0,41],[-17,64],[-1,52],[17,5],[8,36]],[[6151,9062],[-30,28],[-34,70],[-22,10],[-16,24],[-7,51],[-31,23],[-23,6],[-36,-25],[-18,7],[-29,35],[-25,76],[-3,28],[11,36],[-16,16]],[[5872,9447],[48,51],[28,49],[7,34],[17,22],[-5,19],[16,16],[0,22],[29,12],[37,42],[21,12],[18,-6],[48,15],[9,20],[62,31],[71,18],[16,40],[24,-2],[47,22],[32,39],[13,-3],[44,43],[13,-18],[25,-1],[26,20],[3,20],[27,4],[11,31],[48,-13],[5,-23],[33,5],[0,-31],[58,31],[15,-42],[18,11],[50,-50],[2,-26],[18,-3],[8,24],[20,-22],[30,-7],[5,20],[30,-17],[33,10],[22,-17],[26,0],[39,-30],[18,7],[-5,60],[-8,17],[32,9],[15,34],[23,13],[19,-30],[27,-9],[26,22],[59,12],[23,-14],[27,12],[19,-22]],[[6826,7688],[-45,-12],[-63,-26],[-190,-32],[-49,-12],[-53,-38],[-8,-14],[-37,-9],[-34,-80],[-21,-9],[-37,-122],[14,-27],[-48,-51],[-15,13],[-10,-32],[15,-23],[-2,-50],[-18,-15],[2,-33],[-24,-13],[-29,22],[-32,-13],[-7,25],[-34,15],[-73,-6],[-19,10]],[[6009,7156],[-16,-10],[-24,8],[12,31],[1,70],[23,11],[-5,41],[-34,43],[-23,-24],[2,31],[-29,39],[-63,-29],[-27,4]],[[5826,7371],[-13,42],[30,39],[-3,60],[-32,46],[-12,54],[18,107],[-1,59],[14,21],[-32,27],[8,28],[-22,37],[-16,10],[2,35],[-18,21],[-3,37],[-32,56],[1,43],[-34,62],[-41,8],[-23,74],[11,58],[-22,13]],[[5606,8308],[1,18],[28,33],[-20,31],[0,21],[26,41],[-16,83],[23,16],[-13,19],[4,22],[22,26],[6,39],[-22,51],[10,31],[-13,24],[11,52],[-17,40],[26,12],[4,33],[14,19],[-11,40],[0,92],[-32,25],[-47,10],[11,25],[-1,62],[32,4],[-6,29],[27,68],[45,3],[10,21],[48,3],[20,22],[30,-4],[24,15],[14,40],[-2,27],[30,46]],[[5826,7371],[-80,-14],[-57,72],[-21,18],[-65,6],[-54,-27],[-56,-42],[-25,-69],[22,-43],[3,-78],[25,-23],[18,-83],[30,-14],[42,-99],[-15,-30],[-77,-52],[-39,11],[-34,-17],[-24,14],[-22,-11],[-44,25],[-43,-23],[-39,-5],[-44,-29],[-31,-8],[2,-13],[-43,-64],[-23,-15],[-63,-9],[-34,3],[-26,17],[-16,28],[-27,11],[8,47],[-12,27],[-27,24],[-23,3],[8,47],[-8,27],[-19,-14],[-115,27],[-39,33],[0,17],[25,26],[-28,13],[-54,-16],[-21,27],[-26,-11],[-10,20],[-28,8],[-18,-11],[-12,17],[-1,58],[-33,29],[-108,-4],[-50,-24],[-26,-46],[-47,-3],[-17,-14],[-32,-4],[-53,-23],[-22,-35],[-44,-19],[-22,-19],[-28,-68],[-56,-10],[-118,11],[-13,38],[-47,-2],[-61,26],[-42,-28],[-29,-28],[-60,-1],[-49,18],[-34,4],[-73,-57],[-14,-27],[-32,-17],[16,-43],[21,-16],[-37,-29],[2,-49],[-13,-9],[-31,7],[-2,-59],[-25,1],[13,-21],[-20,-31],[4,-30],[-9,-26],[-52,9],[2,-35],[27,-15],[-17,-46],[-35,-17]],[[3300,6465],[-37,-6],[-22,36],[-21,-11],[-18,26],[-33,-17],[-2,-25],[-58,-16],[-15,-12],[-22,21],[-17,-20],[-7,30],[-15,-19],[-22,1],[3,39],[-15,18],[-20,-11],[17,46],[-4,21],[16,9],[-31,32],[13,18],[-15,29],[-2,41],[13,13],[-23,32],[-13,66],[-35,4],[6,32],[-15,27],[5,17],[-26,29],[-14,-29],[-31,7],[17,31],[-18,-4],[2,25],[-24,-9],[-25,19],[12,32],[-8,13],[-39,5],[-5,18],[11,33],[-27,31],[-47,24],[-2,26],[-44,25],[-52,49],[2,20],[-33,48],[-14,-13],[-19,8],[-3,60],[-23,-8],[-4,26],[-40,-29],[-27,32],[-4,48],[-45,32],[-34,-41],[-24,-42],[-61,-3],[-21,-25],[-48,-35],[-40,0],[-40,-28],[-20,-38],[-36,-24],[-1,-25],[-35,-4],[-23,-17],[-27,-2],[-15,-29],[-51,-65],[-51,-29],[-48,-50],[-37,-26],[-32,-50],[-3,-21],[-60,17],[-54,9],[-27,-18],[-4,-17],[-31,-21],[-3,-41],[-38,-32],[-24,9],[-6,-18],[-29,7],[-48,-26],[-2,-53],[8,-13],[40,-12],[35,-46],[-11,-36],[43,-13],[-4,-47],[33,-10],[3,-17],[-28,-4],[-1,-18],[23,-3],[49,-66],[-21,-21],[-1,-27],[43,-3],[8,-33],[-11,-30],[10,-19],[54,-33],[38,-1],[-22,-26],[-1,-34],[10,-13],[16,21],[9,-20],[2,-48],[17,24],[-39,-114],[-21,-14],[-58,-4],[-36,11],[-45,0],[-52,11],[-64,38],[-22,22],[-17,-2],[-5,-29],[45,-68],[6,-32],[-3,-62],[-12,-28],[-27,-20],[-6,-22],[-83,-63],[1,-32],[-31,-39],[2,-19],[-40,-4],[-10,-24],[-13,12],[-56,-65],[-36,7],[-8,-42],[-19,-37],[-22,-62],[-14,-5],[-23,-55],[-20,-25],[-6,-33],[-29,-42],[-35,-23],[-51,7],[-22,-7]],[[878,5285],[-2,39],[22,13],[7,56],[24,24],[23,57],[-33,16],[-21,-19],[-13,15],[-72,20],[-7,33],[-35,54],[-28,9],[-9,42],[-43,81],[25,52],[-22,34],[-61,45],[-51,-6],[-20,38],[-19,55],[-60,-1],[-22,83],[-43,21],[-12,-31],[-32,13],[-25,-3],[-43,27],[-16,21],[-28,14],[-27,46],[-32,29],[-34,65],[-27,65],[7,54],[-21,12],[-24,52],[-22,5],[-36,-7],[-8,67],[-38,55],[1,66],[18,21],[11,49],[29,17],[25,-17],[25,46],[32,30],[32,46],[6,34],[45,12],[23,-12],[54,6],[14,17],[-1,24],[-29,29],[-6,23],[13,78],[-9,73],[15,47],[41,-6],[-3,47],[11,56],[14,24],[-3,41],[15,17],[-10,28],[-47,35],[-8,66],[20,15],[49,91],[-17,59],[-1,43],[-11,58],[-10,19],[-33,14],[-42,49],[-34,-1],[-24,40],[-26,12],[-4,34],[40,56],[24,14],[7,53],[10,27],[-12,26],[-8,53],[54,63],[11,28],[51,33],[24,-2],[19,22],[33,6],[47,-7],[12,10],[40,6],[39,20],[80,-6],[22,-32],[39,-23],[45,-16],[27,-41],[38,-74],[29,-12],[20,16],[19,-13],[24,3],[20,46],[27,8],[15,-16],[4,-30],[27,7],[1,18],[33,44],[7,58],[35,22],[24,29],[17,-8],[42,-71],[25,26],[34,16],[59,-21],[38,-53],[27,-69],[34,-40],[17,-36],[22,-16],[43,-10],[2,-44],[10,-32],[39,-42],[3,-32],[42,-48],[48,-88],[29,-27],[-1,-18],[21,-54],[42,-58],[6,-22],[18,-4],[104,48],[89,71],[46,41],[53,25],[63,51],[50,52],[46,23],[21,28],[40,19],[17,23],[14,57],[-12,47],[-46,24],[-9,16],[1,41],[-10,123],[4,70],[19,27],[13,60],[25,4],[-3,54],[-12,45],[40,0],[60,-34],[31,23],[9,48],[14,31],[-2,61],[37,21],[19,52],[46,48],[25,18],[13,-39],[35,-55],[17,-37],[28,-12],[66,18],[10,-4],[35,-71],[-2,-95],[26,-17],[48,-18],[40,-25],[37,-9],[76,-28],[30,57],[21,-7],[21,-47],[51,-3],[42,-90],[12,-50],[25,-42],[18,-14],[39,-7],[78,14],[42,-41],[10,-47],[25,-26],[12,-34],[21,-24],[34,-20],[136,36],[42,1],[36,-30],[20,46],[22,32],[10,34],[91,100],[31,-19],[14,-45],[36,-55],[39,8],[28,-27],[9,-29],[55,-26],[18,-67],[53,2],[20,34],[9,86],[25,38],[29,22],[-12,60],[11,36],[48,80],[35,23],[15,-17],[46,-19],[21,27],[36,-27],[34,-3],[3,-33],[19,-15],[35,-6],[34,6],[20,49],[37,4],[15,-35],[23,-8],[27,18],[46,-5],[60,-31],[39,-52],[49,-8],[13,19],[23,-10],[33,22],[31,-3],[36,-23],[20,8],[25,57],[52,30],[39,-8],[18,-15],[24,12],[23,-18],[41,10],[3,14],[47,-18],[46,23],[40,-11],[16,-21],[47,-16],[6,51],[-8,23],[14,32],[46,24],[34,0],[62,20],[60,-3],[30,-25]],[[6009,7156],[-2,-45],[27,-22],[60,-3],[28,-64],[-20,0],[-49,-178],[-4,-145],[10,-20],[13,-69],[19,-59],[-16,-31],[-1,-38],[29,-18],[84,10],[-20,-63],[34,-31],[-11,-7],[14,-86],[-14,-19],[9,-13],[-14,-47],[-19,-7],[29,-55],[66,-19],[0,-44],[-22,-43],[20,-40]],[[6259,6000],[-66,-35],[-44,9],[-78,-19],[-36,27],[-55,9],[-58,-35],[-35,16],[-22,-4],[-73,15],[-36,14],[-48,-8],[-15,-12],[-33,12],[-22,-10],[-30,10],[-75,3],[-56,14],[-25,-1],[-34,28],[-14,78],[-19,16],[-52,-4],[-38,39],[-57,-49]],[[5238,6113],[-2,32],[-39,32],[-7,48],[-22,5],[-23,24],[-14,60],[2,30],[-34,26],[-6,64],[-36,9],[-33,-74],[-21,-16],[-18,-42],[-35,-7],[13,-23],[-21,-28],[-46,-20],[-18,-25],[-24,-1],[-17,-41],[-15,-1],[-6,-38],[-35,-36],[-14,-28],[8,-49],[-32,-4],[-16,-67],[-16,5],[2,28],[-23,55],[-1,42],[8,26],[-19,8],[-2,44],[-42,39],[-47,18],[23,38],[7,37],[-20,28],[8,26],[-7,59],[-27,15],[-43,-5],[-58,-51],[-31,-44],[-50,-26],[-10,-31],[-29,-40],[-53,-27],[-23,13],[-12,23],[-34,6],[-58,-3],[-30,-20],[-41,-47],[-13,-35],[11,-37],[-22,-25],[-90,-45],[-7,-21],[-20,-11],[-52,23],[-6,17],[-23,3],[-36,-13],[-64,-7],[7,-26],[-22,5],[6,-18],[-10,-37],[-17,10],[-28,-20],[-38,-49],[13,-18],[-44,-33],[-22,36],[-20,-26],[-49,-2]],[[3553,5830],[20,27],[-34,47],[-5,33],[-36,-4],[-28,-26],[3,55],[-6,29],[-22,20],[19,20],[19,-1],[-1,45],[-54,-2],[-21,29],[-10,34],[1,36],[-27,-20],[-11,44],[-44,11],[1,13],[46,29],[23,-5],[-3,47],[11,22],[-15,25],[-20,3],[9,26],[-24,9],[-12,35],[23,37],[-37,-11],[-18,28]],[[6945,7106],[-18,-75],[0,-31],[22,-67],[-18,-58],[-27,-17],[-9,-38]],[[6895,6820],[-29,-26],[-37,-11],[-25,-43],[-43,20],[-18,-81],[-23,-63],[-29,-19],[-81,-73]],[[6610,6524],[-29,-56],[-25,7],[-34,-35],[-2,-27],[-48,-36],[7,-42],[27,-34]],[[6506,6301],[-23,-22],[-5,-25],[10,-48],[-3,-29],[-30,-30],[-9,-27]],[[6446,6120],[-18,-3],[-32,-33],[-56,-13],[6,-33],[-13,-68]],[[6333,5970],[-47,14],[-27,16]],[[8725,3595],[166,-36],[100,-17]],[[8991,3542],[-19,-53],[-50,-158],[3,-66],[-16,-13],[33,-23],[-50,-61],[-44,-120],[-22,-90],[-55,-170],[-42,-159],[-18,-90],[-20,-67],[-45,-221],[-18,-136],[-4,-156],[7,-107],[-5,-178],[-58,-417],[-8,-88],[-17,-226],[1,-55],[-38,31],[-62,-12],[-25,-46],[-63,-3],[-32,13],[-27,-28],[-33,22],[-13,-12],[-20,-70],[-21,-13],[-33,20]],[[8177,790],[20,599],[11,397],[11,295],[27,177]],[[8246,2258],[213,1408]],[[8459,3666],[266,-71]],[[8725,3595],[6,57],[-20,318]],[[8711,3970],[62,-17],[78,-40],[10,42],[13,93],[34,98],[27,95],[40,38],[38,1],[30,31],[6,25],[76,30],[33,4],[86,65]],[[9244,4435],[-4,-51],[8,-43],[-11,-88],[-40,-166],[-31,-76],[7,-9],[-23,-48],[-37,-139],[19,-9],[-49,-77],[-46,-86],[-46,-101]],[[8459,3666],[2,34],[-15,44],[-19,-42],[-17,3],[11,92],[37,79],[-25,22],[-33,45],[-44,29],[-116,12],[-19,7],[-43,52],[-40,106]],[[8138,4149],[3,34],[46,196]],[[8187,4379],[42,-11],[12,11],[58,6],[36,-32],[15,22],[23,2],[36,-22],[61,-2],[43,-24]],[[8513,4329],[17,-20],[141,-264],[8,-49],[32,-26]],[[8246,2258],[-17,-8],[-47,20],[-25,89],[-7,9],[-37,-15],[-20,-19],[-8,17],[-52,15],[-66,-16],[-109,-11],[-43,27]],[[7815,2366],[-68,11],[-47,15],[-51,-16],[-47,-6],[-20,8],[-94,75]],[[7488,2453],[38,79],[2,59],[-13,32],[-34,15],[-48,56],[-20,13],[2,38]],[[7415,2745],[-1,37],[19,44],[19,67],[15,11],[33,-29],[48,-9],[35,42],[22,77],[23,33],[7,49],[-5,52],[17,59],[3,35],[-75,42],[-32,1],[-11,40],[-14,21],[-45,32],[18,32],[41,26],[33,31]],[[7565,3438],[26,-20],[47,54],[47,-94],[28,-31],[59,12],[25,-8],[30,7],[23,29],[16,42],[76,12],[31,-2],[-1,53],[25,50],[0,15],[33,12],[24,-14],[36,5],[36,36],[-1,46],[52,1],[71,26],[-46,135],[33,9],[29,-6],[23,-18],[-35,57],[1,21],[-30,16],[-9,23],[-25,7],[-11,28],[8,12],[-24,42],[1,19],[-21,5],[-9,43],[0,76],[5,11]],[[8513,4329],[47,14],[85,36],[-20,43],[93,13],[57,15],[30,14],[33,29],[46,61],[34,19],[3,33],[20,1]],[[8941,4607],[18,44],[64,-34],[16,6],[32,-14],[1,-22],[-23,-15],[8,-30],[55,-11],[32,2],[45,-12],[15,30],[46,-17]],[[9250,4534],[-6,-99]],[[7815,2366],[-31,-52],[-13,-36],[-52,-69],[-61,-88],[-27,-104],[-10,-101],[11,-267],[-22,-96],[-27,-78]],[[7583,1475],[-19,0],[-191,43],[-135,28],[-133,35],[-128,17],[-33,-11],[-97,2],[-6,-5],[-57,21]],[[6784,1605],[108,162],[17,39],[12,77],[16,32],[-26,14],[-18,42],[-21,-4],[1,21],[-29,16],[-20,42],[5,56],[-16,5],[-4,27],[20,3],[5,25],[-24,13],[-4,40],[25,15],[22,-34],[99,-2],[63,-28],[15,6],[41,-28],[50,5],[32,74],[12,56],[12,24],[46,49],[2,17],[62,7],[26,-19],[41,14],[90,74],[44,8]],[[7583,1475],[-22,-33],[-120,-140],[-55,-52],[11,-29],[-3,-23],[15,-60],[-25,-19],[-17,-60],[10,-32],[-11,-14],[3,-69],[-5,-93]],[[7364,851],[-18,14],[-17,-17],[-18,27],[-13,-14],[-35,39],[-21,-12],[-50,-10],[-27,-18],[-7,-25],[-42,-44],[-83,-22],[-39,-5],[-32,-43],[-16,-8],[-30,-44],[-60,32],[-43,-22],[-79,-28],[-21,-18],[-37,11],[-28,21],[-46,-2],[-36,6],[-31,44]],[[6535,713],[1,13],[-25,44],[1,30],[-17,20],[2,20],[19,10],[8,36],[31,1],[28,13],[67,85],[30,31],[21,51],[6,70],[38,0],[4,31],[23,35],[28,22],[-8,29],[14,37],[-30,123],[-8,54],[-19,63],[35,74]],[[8177,790],[-36,7],[-28,57],[-51,31],[-31,48],[-18,-30],[-40,-41],[-12,-24],[-48,1],[-29,-62],[-48,-28],[-15,-20],[-52,60],[-24,18],[-27,-4],[-20,9],[-33,-13],[-10,-23],[-31,-5],[-55,20],[-28,3],[-17,30],[4,39],[-50,-28],[-30,24],[-23,-33],[-38,-19],[-23,44]],[[7565,3438],[3,38],[-10,32],[0,63],[-26,78],[-25,18],[-6,50],[17,62],[38,45],[32,13],[18,42]],[[7606,3879],[31,-23],[76,109],[-10,77],[26,5],[11,19],[-5,22],[27,-5],[36,8],[69,75],[94,92],[17,21],[39,69],[62,43],[39,-4]],[[8118,4387],[3,-24],[39,2],[27,14]],[[8118,4387],[-13,24],[-11,-9],[-25,23],[-25,5],[-30,30],[-39,-9],[-74,4],[-50,17],[-5,59],[-45,24],[-28,29],[2,24],[26,60],[-3,110],[14,102],[-5,80],[6,76],[19,76],[28,93],[-9,54]],[[7851,5259],[28,14],[27,-1],[36,32],[-16,30],[-45,2],[-5,23],[3,55],[15,21],[17,48],[27,10],[34,-16],[20,43],[-6,52],[-32,1],[-8,14],[22,38],[-26,11],[-23,38],[13,40]],[[7932,5714],[6,64],[-18,25]],[[7920,5803],[51,-7],[17,-55],[23,-35],[38,-4],[23,-13],[42,-61],[3,-25],[37,-45],[19,-5]],[[8173,5553],[9,-73],[-22,-31],[-10,-33],[18,-17],[3,-46],[57,19],[18,-10],[0,-47],[-15,-59],[31,-22],[17,-37],[-31,-79]],[[8248,5118],[-21,-49],[-22,-14],[-11,-25],[-22,-175],[8,-40],[-6,-47],[16,-62],[22,-5],[-1,-21]],[[8211,4680],[-7,-45],[14,-58],[-25,6],[-11,-28],[52,-2],[-1,-115],[-20,-7],[-26,-52]],[[7606,3879],[-43,32],[-5,133],[-6,58],[19,57],[-24,39],[-23,81],[31,61],[6,70],[-22,41],[-2,60]],[[7537,4511],[25,68],[21,8],[18,43],[-32,42],[8,36],[-14,9],[-41,-14],[-46,8],[-10,21],[22,74],[20,-3],[11,-22],[25,13],[-37,68],[-1,22],[25,42],[6,53],[38,34],[23,32],[-2,86],[-16,45],[-41,69],[-5,33],[31,3],[28,-41],[14,14],[5,37],[19,6],[19,-19]],[[7650,5278],[18,31],[44,21],[15,-10],[25,-47],[24,-8],[44,5],[31,-11]],[[7650,5278],[-10,39],[9,9],[-9,62],[7,1],[4,68],[-7,14],[20,20],[18,-3],[54,-40],[8,32],[-4,44],[6,21],[19,5],[-20,40],[-7,55]],[[7738,5645],[38,41],[28,-3],[77,37],[51,-6]],[[9155,5188],[-26,0],[-26,-20],[-65,-26],[-30,-42],[-29,-14],[-52,5],[-5,-126],[12,-37],[-4,-69],[2,-239],[9,-13]],[[8211,4680],[43,32],[52,2],[23,-13],[26,-50],[44,-7],[60,64],[68,50],[55,12],[25,21],[-11,39],[-1,57],[7,73],[0,75],[-36,11],[-31,38],[10,39],[18,24],[-8,46]],[[8555,5193],[80,8],[-9,152]],[[8626,5353],[-2,37]],[[8173,5553],[36,1],[23,-32],[31,-4],[67,20],[29,-4]],[[8359,5534],[19,-17],[35,2],[2,-35],[28,-34],[-9,-58],[15,-63],[-7,-21],[49,6],[19,17],[23,-30],[24,-14],[1,29],[39,6],[29,31]],[[8555,5193],[-76,-18],[-30,-15],[-12,-27],[-3,-72],[-9,-12],[-82,-29],[-66,18],[-28,42],[-1,38]],[[7415,2745],[-13,51],[-18,28],[-32,21],[-25,-1],[-30,-19],[-24,38],[-46,-52],[-36,-31],[-34,-13],[-54,-6],[-19,-17],[-1,-32],[-33,-16],[-20,15],[-20,-3],[-5,16],[-37,-6]],[[6968,2718],[-9,338],[-19,16],[-51,25],[8,92],[31,15],[-8,35],[8,35],[-12,63],[-18,38],[-19,4],[2,70],[22,34],[22,-23],[16,33],[-23,37],[-25,-1],[-22,-29],[-8,-35],[-30,-19],[-13,-26],[-18,13],[-23,-8],[-39,50],[-59,50],[-17,29],[-26,-5],[-30,21]],[[6608,3570],[10,40],[-58,41],[-20,30],[6,28],[-22,69],[-17,4],[14,27],[-3,35],[-27,35],[-50,24],[-36,55],[-33,21],[-33,52]],[[6339,4031],[43,0],[38,34],[34,-4],[71,86],[47,-5],[15,-10],[75,3],[36,44],[21,-20],[43,-2],[18,8],[14,30],[44,19],[14,-6],[11,22],[41,3],[39,39],[25,-1],[0,16],[49,15],[16,21],[43,9],[53,40],[7,-34],[42,-32],[18,13],[8,-20],[49,-16],[9,28],[27,13],[8,35],[35,10],[8,23],[25,9],[13,28],[16,-6],[14,22],[25,-4],[2,14]],[[7435,4455],[54,53],[48,3]],[[6339,4031],[89,63],[47,28],[14,20],[2,33],[17,24],[54,19],[68,79],[33,44],[41,-3],[31,8],[50,101],[22,32],[-5,23],[32,28],[55,17],[10,35],[-59,79],[-22,17],[-23,81],[34,19],[3,51],[30,37],[12,36],[30,25],[4,55],[-22,77]],[[6886,5059],[47,-53],[3,-17],[36,-27],[52,-14],[55,-22],[25,-25],[15,-53],[18,-33],[26,-24],[37,-6],[-2,-21],[21,-6],[19,13],[15,-13],[37,-2],[30,-24],[19,-46],[-11,-36],[29,-30],[16,-87],[17,-13],[12,-51],[33,-14]],[[6968,2718],[-5,-95],[7,-30],[-29,11],[-7,23],[-24,12],[-3,19],[-51,36],[2,19],[-28,8],[-22,35],[1,37],[-17,38],[-5,38],[11,42],[-31,-4],[-14,-13],[-14,13],[-3,-29],[-28,-23],[1,-32],[-18,-43],[-7,-53],[-39,-4],[-15,-17],[-34,23],[-22,-15],[-4,17],[-26,-1],[-10,-24],[-11,10],[-11,-24],[-20,7],[-19,-24],[-23,-2],[-47,37],[-55,-1],[-10,-24],[-32,-1],[-18,-25],[-43,-11],[-14,5],[-17,-22],[-31,-11],[-35,11],[3,-41],[-8,-31],[-58,-72],[1,-48],[-9,-33],[-52,-56],[-15,-40],[-25,-21],[-2,-28],[-20,-60],[-32,-6],[-21,72],[-42,28],[-42,7],[-54,28],[-12,30],[-23,4],[-44,-8],[-32,-21],[-41,15],[-86,-49],[-3,-27],[4,-116],[35,-48],[96,-64],[21,-41],[-39,-34],[-17,-35],[-55,-11],[-84,-1],[-65,-18],[-12,-11],[-21,-67],[-12,-55],[-24,-29],[-95,-57],[-37,-14],[-76,-15]],[[5150,1658],[-5,60],[13,57],[4,53],[-21,79],[5,66],[-68,69],[-60,29],[-3,39],[13,134],[10,15]],[[5038,2259],[12,37],[-11,6],[-3,49],[22,24],[7,42],[21,30],[22,4],[25,33],[30,-34],[48,20],[12,-23],[22,-10],[0,30],[24,-18],[29,11],[27,-27],[23,-5],[89,38],[13,-13],[31,36],[4,53],[14,24],[-2,30],[-16,53],[-27,25],[-60,121],[50,82]],[[5444,2877],[10,25],[25,28],[20,-2],[26,-38],[73,39],[27,28],[17,-10],[42,16],[28,20],[2,27],[41,24],[30,60],[3,29],[21,19],[11,63],[39,0],[65,51],[43,-45],[20,18],[32,5],[11,-44],[17,-9],[61,-7],[7,10],[-4,57],[16,19],[23,-8],[-2,18]],[[6148,3270],[19,47],[45,29],[4,59],[-14,31],[27,23],[17,32],[53,25],[16,1],[38,-31],[61,-65],[67,-32],[1,41],[44,79],[49,52],[33,9]],[[9356,5011],[-23,-55],[-17,-68],[-49,-165],[-11,-97],[3,-20],[-9,-72]],[[6535,713],[-21,-22],[-62,-7],[-63,-13],[-2,-38],[-18,-37],[-34,0],[-38,32],[-16,4],[-44,-12],[-29,-35],[-3,-48],[-28,-51],[-47,31],[-25,29],[-22,-10],[-55,32],[-36,46],[-30,0],[-22,27],[-23,10],[-17,69],[-21,30],[-3,52],[-16,36],[-3,37],[-24,48],[-51,-4],[-10,23],[-33,-22],[-10,29],[-26,-16],[-18,15],[-53,6],[-24,-14],[-25,-38],[-15,-4],[-17,35],[1,34],[-20,12],[-44,3],[-22,35],[-74,-5],[-22,-16],[-26,18],[-19,-8],[-34,19],[-28,-3],[-56,17],[-13,-23],[-22,-3],[-18,-19]],[[5154,994],[-4,196],[-4,88],[5,83],[0,136],[3,102],[-4,59]],[[6886,5059],[-24,64],[-15,71],[-30,98]],[[6817,5292],[35,23],[42,-4],[12,16],[66,-5],[30,18],[65,14],[5,34],[31,1],[5,30],[24,0],[18,-27],[20,27],[57,-1],[33,7],[42,22],[27,27],[28,5],[35,-12],[33,4],[29,35],[18,62],[27,60],[-6,25]],[[7493,5653],[40,1],[88,87],[79,21]],[[7700,5762],[44,-26],[-1,-20],[17,-19],[-22,-52]],[[8438,6503],[-5,-16],[-27,-8],[-55,-57]],[[8351,6422],[-20,-34],[-30,4],[-17,-18],[33,-38],[-7,-35],[6,-29],[-14,-13],[-26,16],[8,27],[-16,26],[-18,2],[-35,-26],[5,-63],[-25,-29],[-53,20],[-13,-22],[24,-49],[10,23],[34,-36],[0,-26],[-42,10],[-13,-9]],[[8142,6123],[-28,16]],[[8114,6139],[-5,69],[15,39],[-23,23],[5,30],[19,12],[30,-7],[19,22],[-19,32]],[[8155,6359],[14,29],[2,40],[18,1],[13,-27],[17,5],[53,70],[-2,15],[32,30]],[[8155,6359],[-21,21],[-66,-10],[-2,23],[26,10],[8,47],[-60,59],[-28,55]],[[8012,6564],[-11,15],[15,48],[-3,26],[-35,36]],[[7645,6829],[10,-23],[24,-9]],[[7679,6797],[-19,-36],[-21,-10],[3,-32],[-16,-27],[13,-27],[-6,-42],[-13,-15],[-14,22],[-19,-12],[-38,1],[-4,-24]],[[7545,6595],[9,-74],[-62,-17],[-25,-39],[-24,-10],[-29,7],[-28,-8],[-62,19],[-87,-13],[-5,63],[-96,-13],[-35,14],[-21,-9],[-35,3],[-13,16],[-6,42],[-66,24],[-30,-37],[-35,11],[-8,17],[-37,30],[-58,-10],[-60,-46],[-21,-27],[-45,-22],[-56,8]],[[6895,6820],[91,34],[25,21],[47,-19],[39,-24],[66,27],[33,4],[51,-10],[2,-14],[32,-25],[33,-6],[13,19],[126,21]],[[7700,5762],[59,50],[27,38],[14,35],[16,76],[20,50],[-1,61],[12,4],[5,40],[-10,53]],[[7842,6169],[25,12],[18,-6],[27,-37],[42,33],[10,-34],[29,12],[57,-28],[15,17],[49,1]],[[8142,6123],[-11,-23]],[[8131,6100],[-4,-11],[-45,-43],[-10,-32],[-29,8],[-17,-21],[21,-44],[-27,-9],[-11,-70],[-10,-4],[-16,45],[-10,3],[-39,-30],[1,-30],[-15,-59]],[[8572,6231],[-54,-31],[-29,10],[-6,32],[-30,32],[-17,0],[0,30],[-18,4],[-49,97],[-18,17]],[[8592,5897],[-34,9],[0,20],[-67,-15],[-4,-24],[-54,-13],[7,-26],[-5,-79],[8,-58],[-16,-31],[-1,-53],[-20,-48],[-16,-5],[-31,-40]],[[8173,5553],[15,29],[30,14],[31,-6],[16,20],[-7,31],[-19,8],[-30,64],[-6,46],[30,31],[-4,94],[-15,3],[15,31],[11,71],[20,35],[-1,19],[-41,-20]],[[8218,6023],[-13,45],[-1,34],[36,39],[1,-23],[19,-9],[8,-51],[27,15],[11,-16],[26,0],[50,62],[80,-8],[5,18],[53,0],[31,-13],[10,-30],[20,-5]],[[8218,6023],[-87,77]],[[7545,6595],[41,-53],[14,-44],[24,-34],[53,-32],[-2,-14],[43,-31],[35,-7],[21,-27],[21,5],[24,-36]],[[7819,6322],[0,-97],[-8,-38]],[[7811,6187],[-50,-5],[0,-11],[-70,-8],[-38,-15],[-60,-9],[-44,2],[-15,-30]],[[7534,6111],[-32,81],[17,10],[2,54],[23,33],[-7,34],[-90,-17],[-16,15],[-30,-13],[-5,9],[-80,-11],[-9,-8],[-38,4],[-50,-30],[-13,18],[-33,-26],[-17,11],[-62,-41],[0,-23],[-29,-6],[-53,19],[-57,-4],[-59,11],[-33,22],[-65,2],[-38,48],[-14,2],[-37,-37],[-23,-32],[-12,-32],[-30,-11],[-56,22],[-82,86]],[[7959,6734],[-35,4],[-5,23],[-15,0],[-19,37]],[[7885,6798],[-17,19],[-30,55]],[[7885,6798],[-53,-7],[-39,-16],[-52,6],[-45,-3],[-17,19]],[[8012,6564],[-25,-14],[12,-48],[-45,-19],[-76,-6],[-32,-28],[-23,-40],[1,-87],[-5,0]],[[7493,5653],[-7,71],[-15,20],[12,44],[-15,24],[7,41],[-7,38],[6,25],[-25,21]],[[7449,5937],[-10,41],[20,70],[21,41],[43,-3],[11,25]],[[7811,6187],[31,-18]],[[7449,5937],[-68,-40],[-12,-24],[-24,1],[-44,-59],[-43,-21],[-15,-33],[-1,-29],[-36,-8],[-17,-31],[-45,-10],[-25,16],[-5,19],[11,46],[-2,27],[-17,53],[-1,28],[-46,37],[-26,7],[-49,-4],[-23,13],[-2,28],[31,36],[-9,59],[-11,16],[-29,6],[-11,71],[-19,16],[-61,6],[-61,-27],[-38,-24],[-50,35],[-88,1],[-80,-25],[-31,7],[-56,-10]],[[6817,5292],[-28,97],[-60,136],[-33,50],[-60,45],[-94,90],[-59,65],[-46,14],[-20,26],[-2,24],[-28,61],[-31,27],[-10,38],[-13,5]],[[9110,8052],[-54,-46],[12,-31],[-44,-51],[16,-24],[-24,-18]],[[9016,7882],[7,18],[-43,-33],[-58,-7],[-22,12],[5,19],[-41,22],[-30,-49],[-26,22],[-14,26],[-36,-73],[-52,-3],[-43,-11]],[[8663,7825],[1,76],[-23,32],[2,22],[-36,20],[-29,36],[16,49],[-2,58],[-26,43],[-3,23],[-27,52],[14,7],[-5,24],[33,46],[-43,84],[25,34],[-40,23],[-12,37]],[[8508,8491],[45,133],[-12,21],[23,59],[10,-10],[37,12],[23,31]],[[8634,8737],[44,-24],[15,26],[35,2],[44,-45],[64,-83],[80,-118],[4,-20],[41,-75],[19,-98],[21,-65],[33,-76],[28,-49],[48,-60]],[[8904,7464],[4,24],[-6,44],[24,13],[5,29],[-9,22],[22,60],[-4,43],[18,10],[-9,63]],[[8949,7772],[9,-2],[32,60],[9,40],[17,12]],[[9110,8052],[36,-32],[21,-41],[70,-31],[55,-51],[73,-41]],[[9365,7856],[-28,-48],[58,-70],[-16,-29],[38,-35],[17,-27],[24,-90],[-117,-22],[-43,-3],[-12,-44],[-14,-16],[8,-32]],[[9365,7856],[81,-53],[108,-87],[62,-74],[24,-18],[13,-50],[15,-29],[-21,-109],[-9,-17],[-11,-69],[-17,-75]],[[9610,7275],[-62,-10],[-70,-32],[-34,54],[-5,-4]],[[9610,7275],[-5,-73],[8,-56],[-7,-45],[3,-129],[14,-107],[-13,-37],[12,-6],[-1,-73],[8,-49],[24,-82],[56,-99]],[[9709,6519],[-10,-9],[-74,-30],[-46,2],[-5,-22],[-42,0]],[[9709,6519],[93,-106],[4,-38],[21,7],[47,-33],[54,-26],[71,0],[-5,-26],[-27,-58],[-54,-98],[4,-30],[-21,-42],[-95,-159],[-13,-7],[-16,-44]],[[7822,8757],[50,-29],[5,-21],[30,5],[9,16],[-15,39],[-43,66],[-25,2],[-14,41],[-20,35],[27,32],[22,-3],[3,40],[14,-7],[19,20],[24,-13],[11,28],[42,13],[45,-4],[34,-31],[25,-1],[26,45],[-8,37],[-19,6],[13,40],[-18,42],[23,52],[17,-10],[50,27],[20,27],[43,-61],[9,12],[57,11],[27,32],[18,7],[-7,36],[24,65],[29,18],[73,25],[37,-5],[29,8],[0,-40],[-27,-164],[-30,-90],[-39,-60],[-10,-44]],[[8402,9001],[-49,-41],[-17,17],[-1,75],[-27,20],[-15,-8],[-25,-36],[-52,-40],[-33,-38],[9,-23],[43,4],[8,-22],[-7,-85],[-32,9],[-32,-21],[-11,-47],[-1,-51],[-18,14],[-40,-39],[2,-25],[-41,-15],[-14,-20],[22,-23],[-12,-25],[-2,-69]],[[8057,8512],[2,-60]],[[8508,8491],[-22,64],[-41,45],[-8,27],[-36,15],[-34,-4],[-13,-29],[-48,34],[-22,-20],[-8,46],[-32,-14],[-23,-29],[-25,49],[-12,-10],[-15,-58],[1,-34],[-54,-63],[-59,2]],[[8402,9001],[12,-12],[47,-2],[46,-28],[29,-34],[30,-61],[19,-21],[52,-79],[-3,-27]],[[8663,7825],[-34,-1],[-20,-25],[2,-39],[-58,5],[-2,-35],[-23,-107],[-48,20]],[[8949,7772],[-23,-4],[-36,-45],[-25,-9],[-43,-28],[-46,-22],[-43,-32],[-32,-10],[-26,5],[-35,-35],[-31,-50],[-35,-39],[-37,-138]],[[5238,6113],[-28,-28],[18,-7],[0,-37],[23,-10],[-1,-26],[48,-22],[16,-32],[35,-25],[8,-29],[52,-46],[-1,-34],[12,-29],[32,-36],[6,-43],[33,-26],[22,15],[14,-11],[3,-41],[36,9],[21,-47],[28,-17],[-2,-42],[52,-21],[-20,-35],[0,-50],[12,-11]],[[5657,5432],[6,-19],[-16,-21],[-7,-46],[15,-19],[-44,-71],[0,-18],[38,-36],[17,-27],[24,-15],[48,16],[28,-48],[33,-31],[23,-32],[-21,-45],[3,-43],[21,-26],[1,-36],[29,-68],[-3,-27],[22,-22],[36,-18],[74,4],[50,18],[51,-48],[20,-33],[25,4],[25,-12],[3,-19],[-24,-33],[24,-46],[21,-105],[-1,-28],[-30,-34],[26,-22],[38,-16],[13,-53],[12,-22],[-17,-28],[50,-16],[84,-18],[42,-18],[15,-111],[-7,-45],[-28,-13],[-42,0],[5,-55]],[[6148,3270],[-41,86],[28,28],[-21,44],[-2,34],[-37,83],[-43,71],[-6,26],[-27,42],[8,20],[-21,55],[6,32],[-10,10],[-2,60],[-32,40],[-18,-6],[-70,117],[-14,65],[-55,60],[-55,4],[-62,35],[-33,-2],[-6,-12],[-38,-11],[-31,-26],[-11,-54],[-33,-58],[-33,-3],[-57,30],[-47,51],[-43,-34],[-44,0],[-24,21],[-27,70],[-31,16],[-69,18],[-29,12],[-91,61],[-48,18],[-28,3],[-109,-31],[-29,-2],[-57,22],[-72,42],[-69,67],[-44,6],[-35,15],[-26,30],[-33,-5],[-41,16],[-3,40],[11,26],[-28,13],[-5,18],[-51,-19],[-20,22],[22,80],[-5,58],[-29,4],[-25,-36],[-18,-9],[-32,10],[-19,18],[19,30],[-15,22],[-33,-13],[-15,11],[-7,28],[-30,-17],[-88,25],[-29,0],[-26,-16],[-13,11],[-5,48],[-27,70],[-58,21],[-11,62],[-22,16],[-17,-17]],[[3857,4942],[-22,29],[26,1],[0,32],[-39,40],[31,66],[-25,0],[-2,42],[39,-7],[-3,31],[9,25],[-33,9],[-15,71],[-18,-16],[-26,15],[-47,3],[-27,-35],[-13,24],[11,26],[22,0],[18,21],[-3,23],[-38,-8],[-23,-24],[-17,28],[-29,0],[-6,26],[26,10],[-2,24],[-38,40],[-3,45],[-36,14],[-29,23],[2,17],[29,13],[-4,28],[15,2],[5,26],[42,-20],[12,3],[-11,28],[22,14],[-11,40],[-18,-12],[-17,22],[32,34],[-31,4],[-24,27],[-4,48],[-21,-4],[-14,17],[4,23]],[[5444,2877],[-66,15],[-66,-45],[-20,-7],[-150,-3],[-37,-9],[-33,40],[-32,21],[-72,23],[-13,18],[-42,17],[-32,45],[-20,71],[-40,53],[-27,20],[-3,40],[-16,4],[-19,57],[-45,46],[-47,75],[-38,91],[3,35],[24,-5],[43,11],[72,9],[13,17],[2,57],[15,32],[-5,42],[20,73],[-55,91],[-39,31],[-12,29],[3,32],[-38,33],[-19,31],[-10,48],[-48,1],[-62,50],[-46,94],[-44,43],[-15,83],[-12,17],[-68,-17],[-67,20],[-4,28],[-39,3],[-81,105],[-52,7],[-34,23],[-31,-27],[-29,-11],[-36,8],[-27,19],[-23,38],[-28,3],[-35,43],[-65,58],[-15,0],[-19,57],[-41,-3],[-11,30],[-24,16],[-6,27],[-30,9],[-4,39],[43,-16],[38,8],[10,36],[-55,51],[24,30],[32,-22],[32,1],[2,-43],[19,-8],[5,67],[-19,42],[13,18],[28,-17],[28,2],[10,15]],[[5657,5432],[30,24],[60,-19],[90,3],[9,-35],[27,15],[14,-10],[45,-83],[24,2],[11,-19],[18,15],[55,3],[76,-19],[-10,-47],[26,-9],[9,12],[47,-12],[29,3],[12,24],[28,21],[31,-15],[6,-31],[40,-13],[55,50],[19,39],[26,-37],[37,-11],[34,1],[10,-24],[22,1],[63,-28],[8,-37],[32,-25],[20,13],[1,24],[23,5],[20,48],[77,6],[20,-7],[16,32]],[[5154,994],[6,-23],[26,-25],[6,-33],[-5,-30],[-22,-22],[22,-28],[0,-73],[-25,-28],[-33,-22],[6,-64],[26,-21],[16,-58],[48,-20],[47,-56],[1,-24],[-21,-19],[1,-19],[-26,-26],[-25,-71],[-34,-75],[-19,-32],[-40,-21],[-21,6],[-32,-28],[-30,-12],[-58,-44],[-75,-12],[-10,-18],[-38,12],[-18,22],[-28,12],[-31,47],[-20,-13],[-31,0],[-43,17],[-78,-12],[-103,20],[-15,12],[-25,-13],[-50,-6],[-35,45],[-16,-10],[34,-53],[5,-43],[-33,-12],[-26,-62],[-29,-9],[-4,-17],[-45,-6],[-20,-27],[-44,17],[-17,-12],[-32,1],[-26,25],[-24,36],[-41,5],[-36,44],[-32,15],[-17,60],[3,170],[-9,20],[-14,-25],[-42,-17],[-38,14],[-32,-27],[-31,0],[-16,19],[-24,-15],[-33,2],[-48,-36],[-29,1],[-25,-12],[-18,-45],[-51,-24],[-10,-11],[-44,8],[-61,20],[-39,-4],[-40,48],[-31,62],[-21,9],[-33,47],[-24,9],[-25,87],[-29,39],[5,33],[-21,32],[-16,7],[-50,67],[-17,-2],[-37,-29],[-68,13],[-28,-23],[-71,51],[-15,-13],[-18,22],[-72,-13],[-7,7],[-9,65],[-16,8],[-62,2],[-41,32],[-7,20],[16,52],[0,40],[-25,24],[-71,2],[-26,22],[0,35],[-28,5],[-29,-15],[-39,19],[-13,22],[9,76],[-22,36],[-40,102],[-4,39],[-23,6],[-17,26],[-84,29]],[[2255,1329],[10,10],[37,74],[42,46],[30,2],[15,38],[59,-10],[16,19],[9,44],[-5,38],[12,65],[25,37],[15,61],[44,-10],[61,-29],[49,-7],[23,10],[56,-34],[42,2],[5,-30],[14,-5],[11,23],[35,-21],[30,-6],[33,-27],[22,15],[19,62],[18,32],[35,26],[30,1],[36,-28],[17,-2],[19,35],[24,10],[28,-5],[14,27],[22,9],[35,-18],[33,-1],[42,84],[17,-2],[30,-26],[19,27],[20,-30],[24,-5],[31,22],[22,-5],[22,14],[81,-4],[10,-14],[31,11],[17,-12],[36,-5],[3,12],[67,13],[33,15],[41,7],[50,89],[36,19],[46,-4],[25,7],[12,26],[38,4],[66,36],[44,49],[54,24],[22,20],[60,114],[55,-2],[34,-12],[15,-22],[157,-19],[55,0],[67,27],[45,4],[18,23],[-6,35],[41,39],[24,-16],[16,-29],[119,-24],[61,-24],[22,-27],[15,-1],[26,39]],[[2255,1329],[-24,15],[-56,16],[-39,-29],[-50,7],[-19,47],[-24,11],[-17,25],[-86,51],[21,65],[27,14],[15,72],[-17,37],[-32,39],[-41,18],[-19,25],[6,22],[-6,43],[6,38],[-15,19],[5,44],[12,25],[-10,15],[-54,-4],[-53,21],[-32,73],[-30,22],[-20,58],[-20,-4],[-30,-36],[-46,4],[-77,-30],[-26,-39],[-26,-14],[-37,12],[-37,40],[-20,59],[-17,23],[-9,52],[-13,16],[-3,38],[-17,26],[-44,35],[-4,20],[12,29],[31,18],[17,36],[6,52],[-4,115],[-8,19],[-5,59],[8,64],[12,45],[-7,47],[-22,10],[-17,38],[-10,48],[-9,10],[13,81],[-35,30],[5,102],[-15,47],[1,32],[-16,11],[-15,108],[-23,7],[-17,71],[-64,-34],[-16,44],[-16,16],[-19,73],[-24,28],[-42,13],[-14,18],[-2,39],[-65,25],[-22,-11],[-8,33],[-26,43],[14,49],[-3,32],[-14,20],[-6,34],[11,30],[12,63],[1,108],[12,43],[-32,40],[-33,17],[-11,53],[23,53],[0,97],[-14,76],[7,60],[-20,45],[-40,51],[-7,19],[-62,40],[-40,13],[-33,52],[56,20],[4,37],[27,38],[9,86],[40,17],[39,-3],[48,15],[8,36],[27,17],[1,24],[22,29],[31,6],[17,38],[-3,51],[-14,55],[-35,37],[-25,101]]],"transform":{"scale":[0.00010026142704270236,0.00007802791519151643],"translate":[99.09952668500006,12.563208121000057]},"objects":{"Phetchaburi":{"type":"GeometryCollection","geometries":[{"arcs":[[0,1,2,3,4,5]],"type":"Polygon","properties":{"Shape_Leng":0.0772516697481,"Shape_Area":0.000317246013468,"ADM3_EN":"Tha Rap","ADM3_TH":"ท่าราบ","ADM3_PCODE":"TH760101","ADM2_EN":"Mueang Phetchaburi","ADM2_TH":"เมืองเพชรบุรี","ADM2_PCODE":"TH7601","ADM1_EN":"Phetchaburi","ADM1_TH":"เพชรบุรี","ADM1_PCODE":"TH76","ADM0_EN":"Thailand","ADM0_TH":"ประเทศไทย","ADM0_PCODE":"TH"}},{"arcs":[[-4,6,7,8,9,10]],"type":"Polygon","properties":{"Shape_Leng":0.0791144156907,"Shape_Area":0.000260925293355,"ADM3_EN":"Khlong Krachaeng","ADM3_TH":"คลองกระแชง","ADM3_PCODE":"TH760102","ADM2_EN":"Mueang Phetchaburi","ADM2_TH":"เมืองเพชรบุรี","ADM2_PCODE":"TH7601","ADM1_EN":"Phetchaburi","ADM1_TH":"เพชรบุรี","ADM1_PCODE":"TH76","ADM0_EN":"Thailand","ADM0_TH":"ประเทศไทย","ADM0_PCODE":"TH"}},{"arcs":[[11,12,13,14,15]],"type":"Polygon","properties":{"Shape_Leng":0.16732622356,"Shape_Area":0.00106202520309,"ADM3_EN":"Bang Chan","ADM3_TH":"บางจาน","ADM3_PCODE":"TH760103","ADM2_EN":"Mueang Phetchaburi","ADM2_TH":"เมืองเพชรบุรี","ADM2_PCODE":"TH7601","ADM1_EN":"Phetchaburi","ADM1_TH":"เพชรบุรี","ADM1_PCODE":"TH76","ADM0_EN":"Thailand","ADM0_TH":"ประเทศไทย","ADM0_PCODE":"TH"}},{"arcs":[[16,17,18,19,20,21]],"type":"Polygon","properties":{"Shape_Leng":0.195532507443,"Shape_Area":0.00177260043435,"ADM3_EN":"Na Phan Sam","ADM3_TH":"นาพันสาม","ADM3_PCODE":"TH760104","ADM2_EN":"Mueang Phetchaburi","ADM2_TH":"เมืองเพชรบุรี","ADM2_PCODE":"TH7601","ADM1_EN":"Phetchaburi","ADM1_TH":"เพชรบุรี","ADM1_PCODE":"TH76","ADM0_EN":"Thailand","ADM0_TH":"ประเทศไทย","ADM0_PCODE":"TH"}},{"arcs":[[-9,22,23,24,25,26,27,28]],"type":"Polygon","properties":{"Shape_Leng":0.251721649297,"Shape_Area":0.00179919917925,"ADM3_EN":"Thong Chai","ADM3_TH":"ธงชัย","ADM3_PCODE":"TH760105","ADM2_EN":"Mueang Phetchaburi","ADM2_TH":"เมืองเพชรบุรี","ADM2_PCODE":"TH7601","ADM1_EN":"Phetchaburi","ADM1_TH":"เพชรบุรี","ADM1_PCODE":"TH76","ADM0_EN":"Thailand","ADM0_TH":"ประเทศไทย","ADM0_PCODE":"TH"}},{"arcs":[[-10,-29,29,30,31]],"type":"Polygon","properties":{"Shape_Leng":0.191754633224,"Shape_Area":0.00119509975896,"ADM3_EN":"Ban Kum","ADM3_TH":"บ้านกุ่ม","ADM3_PCODE":"TH760106","ADM2_EN":"Mueang Phetchaburi","ADM2_TH":"เมืองเพชรบุรี","ADM2_PCODE":"TH7601","ADM1_EN":"Phetchaburi","ADM1_TH":"เพชรบุรี","ADM1_PCODE":"TH76","ADM0_EN":"Thailand","ADM0_TH":"ประเทศไทย","ADM0_PCODE":"TH"}},{"arcs":[[-5,-11,-32,32,33,34,-14,35]],"type":"Polygon","properties":{"Shape_Leng":0.148978721489,"Shape_Area":0.000850712756024,"ADM3_EN":"Nong Sano","ADM3_TH":"หนองโสน","ADM3_PCODE":"TH760107","ADM2_EN":"Mueang Phetchaburi","ADM2_TH":"เมืองเพชรบุรี","ADM2_PCODE":"TH7601","ADM1_EN":"Phetchaburi","ADM1_TH":"เพชรบุรี","ADM1_PCODE":"TH76","ADM0_EN":"Thailand","ADM0_TH":"ประเทศไทย","ADM0_PCODE":"TH"}},{"arcs":[[-8,36,37,38,39,40,-23]],"type":"Polygon","properties":{"Shape_Leng":0.163811914081,"Shape_Area":0.000854731782463,"ADM3_EN":"Rai Som","ADM3_TH":"ไร่ส้ม","ADM3_PCODE":"TH760108","ADM2_EN":"Mueang Phetchaburi","ADM2_TH":"เมืองเพชรบุรี","ADM2_PCODE":"TH7601","ADM1_EN":"Phetchaburi","ADM1_TH":"เพชรบุรี","ADM1_PCODE":"TH76","ADM0_EN":"Thailand","ADM0_TH":"ประเทศไทย","ADM0_PCODE":"TH"}},{"arcs":[[-24,-41,41,42,43]],"type":"Polygon","properties":{"Shape_Leng":0.0772037354209,"Shape_Area":0.000197218796255,"ADM3_EN":"Wiang Khoi","ADM3_TH":"เวียงคอย","ADM3_PCODE":"TH760109","ADM2_EN":"Mueang Phetchaburi","ADM2_TH":"เมืองเพชรบุรี","ADM2_PCODE":"TH7601","ADM1_EN":"Phetchaburi","ADM1_TH":"เพชรบุรี","ADM1_PCODE":"TH76","ADM0_EN":"Thailand","ADM0_TH":"ประเทศไทย","ADM0_PCODE":"TH"}},{"arcs":[[-26,44,45,46]],"type":"Polygon","properties":{"Shape_Leng":0.1338304581,"Shape_Area":0.00072564924064,"ADM3_EN":"Bang Chak","ADM3_TH":"บางจาก","ADM3_PCODE":"TH760110","ADM2_EN":"Mueang Phetchaburi","ADM2_TH":"เมืองเพชรบุรี","ADM2_PCODE":"TH7601","ADM1_EN":"Phetchaburi","ADM1_TH":"เพชรบุรี","ADM1_PCODE":"TH76","ADM0_EN":"Thailand","ADM0_TH":"ประเทศไทย","ADM0_PCODE":"TH"}},{"arcs":[[-3,47,48,49,50,-37,-7]],"type":"Polygon","properties":{"Shape_Leng":0.157102951916,"Shape_Area":0.000583228061273,"ADM3_EN":"Ban Mo","ADM3_TH":"บ้านหม้อ","ADM3_PCODE":"TH760111","ADM2_EN":"Mueang Phetchaburi","ADM2_TH":"เมืองเพชรบุรี","ADM2_PCODE":"TH7601","ADM1_EN":"Phetchaburi","ADM1_TH":"เพชรบุรี","ADM1_PCODE":"TH76","ADM0_EN":"Thailand","ADM0_TH":"ประเทศไทย","ADM0_PCODE":"TH"}},{"arcs":[[-2,51,52,53,-48]],"type":"Polygon","properties":{"Shape_Leng":0.106616224094,"Shape_Area":0.000497942381888,"ADM3_EN":"Ton Mamuang","ADM3_TH":"ต้นมะม่วง","ADM3_PCODE":"TH760112","ADM2_EN":"Mueang Phetchaburi","ADM2_TH":"เมืองเพชรบุรี","ADM2_PCODE":"TH7601","ADM1_EN":"Phetchaburi","ADM1_TH":"เพชรบุรี","ADM1_PCODE":"TH76","ADM0_EN":"Thailand","ADM0_TH":"ประเทศไทย","ADM0_PCODE":"TH"}},{"arcs":[[-6,-36,-13,54,55,56,57]],"type":"Polygon","properties":{"Shape_Leng":0.202529098542,"Shape_Area":0.00157544383221,"ADM3_EN":"Chong Sakae","ADM3_TH":"ช่องสะแก","ADM3_PCODE":"TH760113","ADM2_EN":"Mueang Phetchaburi","ADM2_TH":"เมืองเพชรบุรี","ADM2_PCODE":"TH7601","ADM1_EN":"Phetchaburi","ADM1_TH":"เพชรบุรี","ADM1_PCODE":"TH76","ADM0_EN":"Thailand","ADM0_TH":"ประเทศไทย","ADM0_PCODE":"TH"}},{"arcs":[[-1,-58,58,59,-52]],"type":"Polygon","properties":{"Shape_Leng":0.121337713246,"Shape_Area":0.000616668938624,"ADM3_EN":"Na Wung","ADM3_TH":"นาวุ้ง","ADM3_PCODE":"TH760114","ADM2_EN":"Mueang Phetchaburi","ADM2_TH":"เมืองเพชรบุรี","ADM2_PCODE":"TH7601","ADM1_EN":"Phetchaburi","ADM1_TH":"เพชรบุรี","ADM1_PCODE":"TH76","ADM0_EN":"Thailand","ADM0_TH":"ประเทศไทย","ADM0_PCODE":"TH"}},{"arcs":[[-21,60,61,-59,-57,62]],"type":"Polygon","properties":{"Shape_Leng":0.135956544462,"Shape_Area":0.000873744862811,"ADM3_EN":"Sam Marong","ADM3_TH":"สำมะโรง","ADM3_PCODE":"TH760115","ADM2_EN":"Mueang Phetchaburi","ADM2_TH":"เมืองเพชรบุรี","ADM2_PCODE":"TH7601","ADM1_EN":"Phetchaburi","ADM1_TH":"เพชรบุรี","ADM1_PCODE":"TH76","ADM0_EN":"Thailand","ADM0_TH":"ประเทศไทย","ADM0_PCODE":"TH"}},{"arcs":[[-22,-63,-56,63]],"type":"Polygon","properties":{"Shape_Leng":0.146033316566,"Shape_Area":0.000766472113524,"ADM3_EN":"Pho Phra","ADM3_TH":"โพพระ","ADM3_PCODE":"TH760116","ADM2_EN":"Mueang Phetchaburi","ADM2_TH":"เมืองเพชรบุรี","ADM2_PCODE":"TH7601","ADM1_EN":"Phetchaburi","ADM1_TH":"เพชรบุรี","ADM1_PCODE":"TH76","ADM0_EN":"Thailand","ADM0_TH":"ประเทศไทย","ADM0_PCODE":"TH"}},{"arcs":[[-19,64,65,66,67]],"type":"Polygon","properties":{"Shape_Leng":0.226414942953,"Shape_Area":0.00156308718888,"ADM3_EN":"Hat Chao Samran","ADM3_TH":"หาดเจ้าสำราญ","ADM3_PCODE":"TH760117","ADM2_EN":"Mueang Phetchaburi","ADM2_TH":"เมืองเพชรบุรี","ADM2_PCODE":"TH7601","ADM1_EN":"Phetchaburi","ADM1_TH":"เพชรบุรี","ADM1_PCODE":"TH76","ADM0_EN":"Thailand","ADM0_TH":"ประเทศไทย","ADM0_PCODE":"TH"}},{"arcs":[[-43,68,69,70,71,72,73,74]],"type":"Polygon","properties":{"Shape_Leng":0.204984572394,"Shape_Area":0.0017452197973,"ADM3_EN":"Hua Saphan","ADM3_TH":"หัวสะพาน","ADM3_PCODE":"TH760118","ADM2_EN":"Mueang Phetchaburi","ADM2_TH":"เมืองเพชรบุรี","ADM2_PCODE":"TH7601","ADM1_EN":"Phetchaburi","ADM1_TH":"เพชรบุรี","ADM1_PCODE":"TH76","ADM0_EN":"Thailand","ADM0_TH":"ประเทศไทย","ADM0_PCODE":"TH"}},{"arcs":[[-46,-74,75,76,77]],"type":"Polygon","properties":{"Shape_Leng":0.119585804367,"Shape_Area":0.000643486751279,"ADM3_EN":"Ton Maphrao","ADM3_TH":"ต้นมะพร้าว","ADM3_PCODE":"TH760119","ADM2_EN":"Mueang Phetchaburi","ADM2_TH":"เมืองเพชรบุรี","ADM2_PCODE":"TH7601","ADM1_EN":"Phetchaburi","ADM1_TH":"เพชรบุรี","ADM1_PCODE":"TH76","ADM0_EN":"Thailand","ADM0_TH":"ประเทศไทย","ADM0_PCODE":"TH"}},{"arcs":[[-25,-44,-75,-45]],"type":"Polygon","properties":{"Shape_Leng":0.122486355568,"Shape_Area":0.000398323510489,"ADM3_EN":"Wang Tako","ADM3_TH":"วังตะโก","ADM3_PCODE":"TH760120","ADM2_EN":"Mueang Phetchaburi","ADM2_TH":"เมืองเพชรบุรี","ADM2_PCODE":"TH7601","ADM1_EN":"Phetchaburi","ADM1_TH":"เพชรบุรี","ADM1_PCODE":"TH76","ADM0_EN":"Thailand","ADM0_TH":"ประเทศไทย","ADM0_PCODE":"TH"}},{"arcs":[[-53,-60,-62,78,79,80,81]],"type":"Polygon","properties":{"Shape_Leng":0.119947825977,"Shape_Area":0.000752136957209,"ADM3_EN":"Pho Rai Wan","ADM3_TH":"โพไร่หวาน","ADM3_PCODE":"TH760121","ADM2_EN":"Mueang Phetchaburi","ADM2_TH":"เมืองเพชรบุรี","ADM2_PCODE":"TH7601","ADM1_EN":"Phetchaburi","ADM1_TH":"เพชรบุรี","ADM1_PCODE":"TH76","ADM0_EN":"Thailand","ADM0_TH":"ประเทศไทย","ADM0_PCODE":"TH"}},{"arcs":[[-80,82,83,84,85,86,87]],"type":"Polygon","properties":{"Shape_Leng":0.204438469972,"Shape_Area":0.00154768733375,"ADM3_EN":"Don Yang","ADM3_TH":"ดอนยาง","ADM3_PCODE":"TH760122","ADM2_EN":"Mueang Phetchaburi","ADM2_TH":"เมืองเพชรบุรี","ADM2_PCODE":"TH7601","ADM1_EN":"Phetchaburi","ADM1_TH":"เพชรบุรี","ADM1_PCODE":"TH76","ADM0_EN":"Thailand","ADM0_TH":"ประเทศไทย","ADM0_PCODE":"TH"}},{"arcs":[[-67,88,89,90,-84,91]],"type":"Polygon","properties":{"Shape_Leng":0.258299152064,"Shape_Area":0.00250930668894,"ADM3_EN":"Nong Khanan","ADM3_TH":"หนองขนาน","ADM3_PCODE":"TH760123","ADM2_EN":"Mueang Phetchaburi","ADM2_TH":"เมืองเพชรบุรี","ADM2_PCODE":"TH7601","ADM1_EN":"Phetchaburi","ADM1_TH":"เพชรบุรี","ADM1_PCODE":"TH76","ADM0_EN":"Thailand","ADM0_TH":"ประเทศไทย","ADM0_PCODE":"TH"}},{"arcs":[[-20,-68,-92,-83,-79,-61]],"type":"Polygon","properties":{"Shape_Leng":0.167853180199,"Shape_Area":0.000986776426388,"ADM3_EN":"Nong Phlap","ADM3_TH":"หนองพลับ","ADM3_PCODE":"TH760124","ADM2_EN":"Mueang Phetchaburi","ADM2_TH":"เมืองเพชรบุรี","ADM2_PCODE":"TH7601","ADM1_EN":"Phetchaburi","ADM1_TH":"เพชรบุรี","ADM1_PCODE":"TH76","ADM0_EN":"Thailand","ADM0_TH":"ประเทศไทย","ADM0_PCODE":"TH"}},{"arcs":[[92,93,94,95,96,97,98]],"type":"Polygon","properties":{"Shape_Leng":0.406485098549,"Shape_Area":0.00361261436825,"ADM3_EN":"Khao Yoi","ADM3_TH":"เขาย้อย","ADM3_PCODE":"TH760201","ADM2_EN":"Khao Yoi","ADM2_TH":"เขาย้อย","ADM2_PCODE":"TH7602","ADM1_EN":"Phetchaburi","ADM1_TH":"เพชรบุรี","ADM1_PCODE":"TH76","ADM0_EN":"Thailand","ADM0_TH":"ประเทศไทย","ADM0_PCODE":"TH"}},{"arcs":[[-98,99,100,101]],"type":"Polygon","properties":{"Shape_Leng":0.291456885204,"Shape_Area":0.00260576443014,"ADM3_EN":"Sa Phang","ADM3_TH":"สระพัง","ADM3_PCODE":"TH760202","ADM2_EN":"Khao Yoi","ADM2_TH":"เขาย้อย","ADM2_PCODE":"TH7602","ADM1_EN":"Phetchaburi","ADM1_TH":"เพชรบุรี","ADM1_PCODE":"TH76","ADM0_EN":"Thailand","ADM0_TH":"ประเทศไทย","ADM0_PCODE":"TH"}},{"arcs":[[-101,102,103,104]],"type":"Polygon","properties":{"Shape_Leng":0.128366040752,"Shape_Area":0.000907370040513,"ADM3_EN":"Bang Khem","ADM3_TH":"บางเค็ม","ADM3_PCODE":"TH760203","ADM2_EN":"Khao Yoi","ADM2_TH":"เขาย้อย","ADM2_PCODE":"TH7602","ADM1_EN":"Phetchaburi","ADM1_TH":"เพชรบุรี","ADM1_PCODE":"TH76","ADM0_EN":"Thailand","ADM0_TH":"ประเทศไทย","ADM0_PCODE":"TH"}},{"arcs":[[-95,105,106,107]],"type":"Polygon","properties":{"Shape_Leng":0.304777727692,"Shape_Area":0.00276347345168,"ADM3_EN":"Thap Khang","ADM3_TH":"ทับคาง","ADM3_PCODE":"TH760204","ADM2_EN":"Khao Yoi","ADM2_TH":"เขาย้อย","ADM2_PCODE":"TH7602","ADM1_EN":"Phetchaburi","ADM1_TH":"เพชรบุรี","ADM1_PCODE":"TH76","ADM0_EN":"Thailand","ADM0_TH":"ประเทศไทย","ADM0_PCODE":"TH"}},{"arcs":[[-27,-47,-78,108,-106,-94,109,110]],"type":"Polygon","properties":{"Shape_Leng":0.29024503326,"Shape_Area":0.00286986653555,"ADM3_EN":"Nong Pla Lai","ADM3_TH":"หนองปลาไหล","ADM3_PCODE":"TH760205","ADM2_EN":"Khao Yoi","ADM2_TH":"เขาย้อย","ADM2_PCODE":"TH7602","ADM1_EN":"Phetchaburi","ADM1_TH":"เพชรบุรี","ADM1_PCODE":"TH76","ADM0_EN":"Thailand","ADM0_TH":"ประเทศไทย","ADM0_PCODE":"TH"}},{"arcs":[[-77,111,112,113,-107,-109]],"type":"Polygon","properties":{"Shape_Leng":0.242644086276,"Shape_Area":0.00209592266164,"ADM3_EN":"Nong Prong","ADM3_TH":"หนองปรง","ADM3_PCODE":"TH760206","ADM2_EN":"Khao Yoi","ADM2_TH":"เขาย้อย","ADM2_PCODE":"TH7602","ADM1_EN":"Phetchaburi","ADM1_TH":"เพชรบุรี","ADM1_PCODE":"TH76","ADM0_EN":"Thailand","ADM0_TH":"ประเทศไทย","ADM0_PCODE":"TH"}},{"arcs":[[-97,114,115,-103,-100]],"type":"Polygon","properties":{"Shape_Leng":0.390393736515,"Shape_Area":0.0040649407832,"ADM3_EN":"Nong Chumphon","ADM3_TH":"หนองชุมพล","ADM3_PCODE":"TH760207","ADM2_EN":"Khao Yoi","ADM2_TH":"เขาย้อย","ADM2_PCODE":"TH7602","ADM1_EN":"Phetchaburi","ADM1_TH":"เพชรบุรี","ADM1_PCODE":"TH76","ADM0_EN":"Thailand","ADM0_TH":"ประเทศไทย","ADM0_PCODE":"TH"}},{"arcs":[[-104,116,117]],"type":"Polygon","properties":{"Shape_Leng":0.130777151253,"Shape_Area":0.000931006083516,"ADM3_EN":"Huai Rong","ADM3_TH":"ห้วยโรง","ADM3_PCODE":"TH760208","ADM2_EN":"Khao Yoi","ADM2_TH":"เขาย้อย","ADM2_PCODE":"TH7602","ADM1_EN":"Phetchaburi","ADM1_TH":"เพชรบุรี","ADM1_PCODE":"TH76","ADM0_EN":"Thailand","ADM0_TH":"ประเทศไทย","ADM0_PCODE":"TH"}},{"arcs":[[-73,118,119,-112,-76]],"type":"Polygon","properties":{"Shape_Leng":0.181592353193,"Shape_Area":0.00167552414205,"ADM3_EN":"Huai Tha Chang","ADM3_TH":"ห้วยท่าช้าง","ADM3_PCODE":"TH760209","ADM2_EN":"Khao Yoi","ADM2_TH":"เขาย้อย","ADM2_PCODE":"TH7602","ADM1_EN":"Phetchaburi","ADM1_TH":"เพชรบุรี","ADM1_PCODE":"TH76","ADM0_EN":"Thailand","ADM0_TH":"ประเทศไทย","ADM0_PCODE":"TH"}},{"arcs":[[-116,120,121,-117]],"type":"Polygon","properties":{"Shape_Leng":0.481331531128,"Shape_Area":0.00491303022845,"ADM3_EN":"Nong Chumphon Nuea","ADM3_TH":"หนองชุมพลเหนือ","ADM3_PCODE":"TH760210","ADM2_EN":"Khao Yoi","ADM2_TH":"เขาย้อย","ADM2_PCODE":"TH7602","ADM1_EN":"Phetchaburi","ADM1_TH":"เพชรบุรี","ADM1_PCODE":"TH76","ADM0_EN":"Thailand","ADM0_TH":"ประเทศไทย","ADM0_PCODE":"TH"}},{"arcs":[[-96,-108,-114,122,123,124,125,-121,-115]],"type":"Polygon","properties":{"Shape_Leng":0.634932136677,"Shape_Area":0.0121272340965,"ADM3_EN":"Nong Ya Plong","ADM3_TH":"หนองหญ้าปล้อง","ADM3_PCODE":"TH760301","ADM2_EN":"Nong Ya Plong","ADM2_TH":"หนองหญ้าปล้อง","ADM2_PCODE":"TH7603","ADM1_EN":"Phetchaburi","ADM1_TH":"เพชรบุรี","ADM1_PCODE":"TH76","ADM0_EN":"Thailand","ADM0_TH":"ประเทศไทย","ADM0_PCODE":"TH"}},{"arcs":[[-125,126,127,128]],"type":"Polygon","properties":{"Shape_Leng":2.2294502965,"Shape_Area":0.0627063648173,"ADM3_EN":"Yang Nam Klat Nuea","ADM3_TH":"ยางน้ำกลัดเหนือ","ADM3_PCODE":"TH760302","ADM2_EN":"Nong Ya Plong","ADM2_TH":"หนองหญ้าปล้อง","ADM2_PCODE":"TH7603","ADM1_EN":"Phetchaburi","ADM1_TH":"เพชรบุรี","ADM1_PCODE":"TH76","ADM0_EN":"Thailand","ADM0_TH":"ประเทศไทย","ADM0_PCODE":"TH"}},{"arcs":[[-124,129,130,131,132,-127]],"type":"Polygon","properties":{"Shape_Leng":1.11250587603,"Shape_Area":0.0205217091381,"ADM3_EN":"Yang Nam Klat Tai","ADM3_TH":"ยางน้ำกลัดใต้","ADM3_PCODE":"TH760303","ADM2_EN":"Nong Ya Plong","ADM2_TH":"หนองหญ้าปล้อง","ADM2_PCODE":"TH7603","ADM1_EN":"Phetchaburi","ADM1_TH":"เพชรบุรี","ADM1_PCODE":"TH76","ADM0_EN":"Thailand","ADM0_TH":"ประเทศไทย","ADM0_PCODE":"TH"}},{"arcs":[[-113,-120,133,134,135,136,137,138,-130,-123]],"type":"Polygon","properties":{"Shape_Leng":0.463871750805,"Shape_Area":0.00696547223906,"ADM3_EN":"Tha Takhro","ADM3_TH":"ท่าตะคร้อ","ADM3_PCODE":"TH760304","ADM2_EN":"Nong Ya Plong","ADM2_TH":"หนองหญ้าปล้อง","ADM2_PCODE":"TH7603","ADM1_EN":"Phetchaburi","ADM1_TH":"เพชรบุรี","ADM1_PCODE":"TH76","ADM0_EN":"Thailand","ADM0_TH":"ประเทศไทย","ADM0_PCODE":"TH"}},{"arcs":[[139,140,141,142,143]],"type":"Polygon","properties":{"Shape_Leng":0.584097874538,"Shape_Area":0.00926887718486,"ADM3_EN":"Cha-Am","ADM3_TH":"ชะอำ","ADM3_PCODE":"TH760401","ADM2_EN":"Cha-Am","ADM2_TH":"ชะอำ","ADM2_PCODE":"TH7604","ADM1_EN":"Phetchaburi","ADM1_TH":"เพชรบุรี","ADM1_PCODE":"TH76","ADM0_EN":"Thailand","ADM0_TH":"ประเทศไทย","ADM0_PCODE":"TH"}},{"arcs":[[-140,144,145,146]],"type":"Polygon","properties":{"Shape_Leng":0.218619751021,"Shape_Area":0.00201702636645,"ADM3_EN":"Bang Kao","ADM3_TH":"บางเก่า","ADM3_PCODE":"TH760402","ADM2_EN":"Cha-Am","ADM2_TH":"ชะอำ","ADM2_PCODE":"TH7604","ADM1_EN":"Phetchaburi","ADM1_TH":"เพชรบุรี","ADM1_PCODE":"TH76","ADM0_EN":"Thailand","ADM0_TH":"ประเทศไทย","ADM0_PCODE":"TH"}},{"arcs":[[-144,147,148,149,150,-145]],"type":"Polygon","properties":{"Shape_Leng":0.225618129393,"Shape_Area":0.0021142385864,"ADM3_EN":"Na Yang","ADM3_TH":"นายาง","ADM3_PCODE":"TH760403","ADM2_EN":"Cha-Am","ADM2_TH":"ชะอำ","ADM2_PCODE":"TH7604","ADM1_EN":"Phetchaburi","ADM1_TH":"เพชรบุรี","ADM1_PCODE":"TH76","ADM0_EN":"Thailand","ADM0_TH":"ประเทศไทย","ADM0_PCODE":"TH"}},{"arcs":[[-143,151,152,153,154,155,-148]],"type":"Polygon","properties":{"Shape_Leng":0.548820919913,"Shape_Area":0.00798176017533,"ADM3_EN":"Khao Yai","ADM3_TH":"เขาใหญ่","ADM3_PCODE":"TH760404","ADM2_EN":"Cha-Am","ADM2_TH":"ชะอำ","ADM2_PCODE":"TH7604","ADM1_EN":"Phetchaburi","ADM1_TH":"เพชรบุรี","ADM1_PCODE":"TH76","ADM0_EN":"Thailand","ADM0_TH":"ประเทศไทย","ADM0_PCODE":"TH"}},{"arcs":[[-146,-151,156,157,158]],"type":"Polygon","properties":{"Shape_Leng":0.222509091808,"Shape_Area":0.00178709153629,"ADM3_EN":"Nong Sala","ADM3_TH":"หนองศาลา","ADM3_PCODE":"TH760405","ADM2_EN":"Cha-Am","ADM2_TH":"ชะอำ","ADM2_PCODE":"TH7604","ADM1_EN":"Phetchaburi","ADM1_TH":"เพชรบุรี","ADM1_PCODE":"TH76","ADM0_EN":"Thailand","ADM0_TH":"ประเทศไทย","ADM0_PCODE":"TH"}},{"arcs":[[-153,159,160,161]],"type":"Polygon","properties":{"Shape_Leng":0.354865339462,"Shape_Area":0.00481058508025,"ADM3_EN":"Huai Sai Nuea","ADM3_TH":"ห้วยทรายเหนือ","ADM3_PCODE":"TH760406","ADM2_EN":"Cha-Am","ADM2_TH":"ชะอำ","ADM2_PCODE":"TH7604","ADM1_EN":"Phetchaburi","ADM1_TH":"เพชรบุรี","ADM1_PCODE":"TH76","ADM0_EN":"Thailand","ADM0_TH":"ประเทศไทย","ADM0_PCODE":"TH"}},{"arcs":[[-161,162,163,164]],"type":"Polygon","properties":{"Shape_Leng":0.346187413777,"Shape_Area":0.00462012159071,"ADM3_EN":"Rai Mai Phatthana","ADM3_TH":"ไร่ใหม่พัฒนา","ADM3_PCODE":"TH760407","ADM2_EN":"Cha-Am","ADM2_TH":"ชะอำ","ADM2_PCODE":"TH7604","ADM1_EN":"Phetchaburi","ADM1_TH":"เพชรบุรี","ADM1_PCODE":"TH76","ADM0_EN":"Thailand","ADM0_TH":"ประเทศไทย","ADM0_PCODE":"TH"}},{"arcs":[[-142,165,-163,-160,-152]],"type":"Polygon","properties":{"Shape_Leng":0.423135930515,"Shape_Area":0.00776931792066,"ADM3_EN":"Sam Phraya","ADM3_TH":"สามพระยา","ADM3_PCODE":"TH760408","ADM2_EN":"Cha-Am","ADM2_TH":"ชะอำ","ADM2_PCODE":"TH7604","ADM1_EN":"Phetchaburi","ADM1_TH":"เพชรบุรี","ADM1_PCODE":"TH76","ADM0_EN":"Thailand","ADM0_TH":"ประเทศไทย","ADM0_PCODE":"TH"}},{"arcs":[[-149,-156,166,167,168]],"type":"Polygon","properties":{"Shape_Leng":0.312220707322,"Shape_Area":0.00344925754209,"ADM3_EN":"Don Khun Huai","ADM3_TH":"ดอนขุนห้วย","ADM3_PCODE":"TH760409","ADM2_EN":"Cha-Am","ADM2_TH":"ชะอำ","ADM2_PCODE":"TH7604","ADM1_EN":"Phetchaburi","ADM1_TH":"เพชรบุรี","ADM1_PCODE":"TH76","ADM0_EN":"Thailand","ADM0_TH":"ประเทศไทย","ADM0_PCODE":"TH"}},{"arcs":[[-169,169,170,171,172,173,174,175]],"type":"Polygon","properties":{"Shape_Leng":0.359618421681,"Shape_Area":0.00342310046008,"ADM3_EN":"Tha Yang","ADM3_TH":"ท่ายาง","ADM3_PCODE":"TH760501","ADM2_EN":"Tha Yang","ADM2_TH":"ท่ายาง","ADM2_PCODE":"TH7605","ADM1_EN":"Phetchaburi","ADM1_TH":"เพชรบุรี","ADM1_PCODE":"TH76","ADM0_EN":"Thailand","ADM0_TH":"ประเทศไทย","ADM0_PCODE":"TH"}},{"arcs":[[-168,176,177,178,-170]],"type":"Polygon","properties":{"Shape_Leng":0.374536381874,"Shape_Area":0.00315316686376,"ADM3_EN":"Tha Khoi","ADM3_TH":"ท่าคอย","ADM3_PCODE":"TH760502","ADM2_EN":"Tha Yang","ADM2_TH":"ท่ายาง","ADM2_PCODE":"TH7605","ADM1_EN":"Phetchaburi","ADM1_TH":"เพชรบุรี","ADM1_PCODE":"TH76","ADM0_EN":"Thailand","ADM0_TH":"ประเทศไทย","ADM0_PCODE":"TH"}},{"arcs":[[-171,-179,179,180]],"type":"Polygon","properties":{"Shape_Leng":0.158466321505,"Shape_Area":0.000748304210696,"ADM3_EN":"Yang Yong","ADM3_TH":"ยางหย่อง","ADM3_PCODE":"TH760503","ADM2_EN":"Tha Yang","ADM2_TH":"ท่ายาง","ADM2_PCODE":"TH7605","ADM1_EN":"Phetchaburi","ADM1_TH":"เพชรบุรี","ADM1_PCODE":"TH76","ADM0_EN":"Thailand","ADM0_TH":"ประเทศไทย","ADM0_PCODE":"TH"}},{"arcs":[[-85,-91,181,-157,-150,-176,182,183,184]],"type":"Polygon","properties":{"Shape_Leng":0.370433211617,"Shape_Area":0.00350647882063,"ADM3_EN":"Nong Chok","ADM3_TH":"หนองจอก","ADM3_PCODE":"TH760504","ADM2_EN":"Tha Yang","ADM2_TH":"ท่ายาง","ADM2_PCODE":"TH7605","ADM1_EN":"Phetchaburi","ADM1_TH":"เพชรบุรี","ADM1_PCODE":"TH76","ADM0_EN":"Thailand","ADM0_TH":"ประเทศไทย","ADM0_PCODE":"TH"}},{"arcs":[[-174,185,186,-184,187]],"type":"Polygon","properties":{"Shape_Leng":0.185223934221,"Shape_Area":0.00102125741908,"ADM3_EN":"Map Pla Khao","ADM3_TH":"มาบปลาเค้า","ADM3_PCODE":"TH760505","ADM2_EN":"Tha Yang","ADM2_TH":"ท่ายาง","ADM2_PCODE":"TH7605","ADM1_EN":"Phetchaburi","ADM1_TH":"เพชรบุรี","ADM1_PCODE":"TH76","ADM0_EN":"Thailand","ADM0_TH":"ประเทศไทย","ADM0_PCODE":"TH"}},{"arcs":[[-155,188,189,190,191,192,-177,-167]],"type":"Polygon","properties":{"Shape_Leng":0.601683614348,"Shape_Area":0.0100210304358,"ADM3_EN":"Tha Mai Ruak","ADM3_TH":"ท่าไม้รวก","ADM3_PCODE":"TH760506","ADM2_EN":"Tha Yang","ADM2_TH":"ท่ายาง","ADM2_PCODE":"TH7605","ADM1_EN":"Phetchaburi","ADM1_TH":"เพชรบุรี","ADM1_PCODE":"TH76","ADM0_EN":"Thailand","ADM0_TH":"ประเทศไทย","ADM0_PCODE":"TH"}},{"arcs":[[-192,193,194]],"type":"Polygon","properties":{"Shape_Leng":0.372201312017,"Shape_Area":0.00276895445032,"ADM3_EN":"Wang Khrai","ADM3_TH":"วังไคร้","ADM3_PCODE":"TH760507","ADM2_EN":"Tha Yang","ADM2_TH":"ท่ายาง","ADM2_PCODE":"TH7605","ADM1_EN":"Phetchaburi","ADM1_TH":"เพชรบุรี","ADM1_PCODE":"TH76","ADM0_EN":"Thailand","ADM0_TH":"ประเทศไทย","ADM0_PCODE":"TH"}},{"arcs":[[-190,195,196,197,198,199]],"type":"Polygon","properties":{"Shape_Leng":0.818248465947,"Shape_Area":0.0112452316644,"ADM3_EN":"Klat Luang","ADM3_TH":"กลัดหลวง","ADM3_PCODE":"TH760511","ADM2_EN":"Tha Yang","ADM2_TH":"ท่ายาง","ADM2_PCODE":"TH7605","ADM1_EN":"Phetchaburi","ADM1_TH":"เพชรบุรี","ADM1_PCODE":"TH76","ADM0_EN":"Thailand","ADM0_TH":"ประเทศไทย","ADM0_PCODE":"TH"}},{"arcs":[[-90,200,-158,-182]],"type":"Polygon","properties":{"Shape_Leng":0.176586140716,"Shape_Area":0.00160022011751,"ADM3_EN":"Puek Tian","ADM3_TH":"ปึกเตียน","ADM3_PCODE":"TH760512","ADM2_EN":"Tha Yang","ADM2_TH":"ท่ายาง","ADM2_PCODE":"TH7605","ADM1_EN":"Phetchaburi","ADM1_TH":"เพชรบุรี","ADM1_PCODE":"TH76","ADM0_EN":"Thailand","ADM0_TH":"ประเทศไทย","ADM0_PCODE":"TH"}},{"arcs":[[-154,-162,-165,201,202,-196,-189]],"type":"Polygon","properties":{"Shape_Leng":0.941274816201,"Shape_Area":0.022214781622,"ADM3_EN":"Khao Krapuk","ADM3_TH":"เขากระปุก","ADM3_PCODE":"TH760513","ADM2_EN":"Tha Yang","ADM2_TH":"ท่ายาง","ADM2_PCODE":"TH7605","ADM1_EN":"Phetchaburi","ADM1_TH":"เพชรบุรี","ADM1_PCODE":"TH76","ADM0_EN":"Thailand","ADM0_TH":"ประเทศไทย","ADM0_PCODE":"TH"}},{"arcs":[[-178,-193,-195,203,204,205,206,-180]],"type":"Polygon","properties":{"Shape_Leng":0.40518561957,"Shape_Area":0.00415501165037,"ADM3_EN":"Tha Laeng","ADM3_TH":"ท่าแลง","ADM3_PCODE":"TH760514","ADM2_EN":"Tha Yang","ADM2_TH":"ท่ายาง","ADM2_PCODE":"TH7605","ADM1_EN":"Phetchaburi","ADM1_TH":"เพชรบุรี","ADM1_PCODE":"TH76","ADM0_EN":"Thailand","ADM0_TH":"ประเทศไทย","ADM0_PCODE":"TH"}},{"arcs":[[-175,-188,-183]],"type":"Polygon","properties":{"Shape_Leng":0.171377464697,"Shape_Area":0.00121256506597,"ADM3_EN":"Ban Nai Dong","ADM3_TH":"บ้านในดง","ADM3_PCODE":"TH760515","ADM2_EN":"Tha Yang","ADM2_TH":"ท่ายาง","ADM2_PCODE":"TH7605","ADM1_EN":"Phetchaburi","ADM1_TH":"เพชรบุรี","ADM1_PCODE":"TH76","ADM0_EN":"Thailand","ADM0_TH":"ประเทศไทย","ADM0_PCODE":"TH"}},{"arcs":[[-50,207,208,209,210,211]],"type":"Polygon","properties":{"Shape_Leng":0.156553536422,"Shape_Area":0.000311399355286,"ADM3_EN":"Ban Lat","ADM3_TH":"บ้านลาด","ADM3_PCODE":"TH760601","ADM2_EN":"Ban Lat","ADM2_TH":"บ้านลาด","ADM2_PCODE":"TH7606","ADM1_EN":"Phetchaburi","ADM1_TH":"เพชรบุรี","ADM1_PCODE":"TH76","ADM0_EN":"Thailand","ADM0_TH":"ประเทศไทย","ADM0_PCODE":"TH"}},{"arcs":[[-38,-51,-212,212,213]],"type":"Polygon","properties":{"Shape_Leng":0.146206855961,"Shape_Area":0.000647313679938,"ADM3_EN":"Ban Hat","ADM3_TH":"บ้านหาด","ADM3_PCODE":"TH760602","ADM2_EN":"Ban Lat","ADM2_TH":"บ้านลาด","ADM2_PCODE":"TH7606","ADM1_EN":"Phetchaburi","ADM1_TH":"เพชรบุรี","ADM1_PCODE":"TH76","ADM0_EN":"Thailand","ADM0_TH":"ประเทศไทย","ADM0_PCODE":"TH"}},{"arcs":[[-71,214,215,216,-135,217]],"type":"Polygon","properties":{"Shape_Leng":0.280593000822,"Shape_Area":0.00211031645674,"ADM3_EN":"Ban Than","ADM3_TH":"บ้านทาน","ADM3_PCODE":"TH760603","ADM2_EN":"Ban Lat","ADM2_TH":"บ้านลาด","ADM2_PCODE":"TH7606","ADM1_EN":"Phetchaburi","ADM1_TH":"เพชรบุรี","ADM1_PCODE":"TH76","ADM0_EN":"Thailand","ADM0_TH":"ประเทศไทย","ADM0_PCODE":"TH"}},{"arcs":[[-172,-181,-207,218,219,-210,220,221]],"type":"Polygon","properties":{"Shape_Leng":0.16994108383,"Shape_Area":0.000739627841315,"ADM3_EN":"Tamru","ADM3_TH":"ตำหรุ","ADM3_PCODE":"TH760604","ADM2_EN":"Ban Lat","ADM2_TH":"บ้านลาด","ADM2_PCODE":"TH7606","ADM1_EN":"Phetchaburi","ADM1_TH":"เพชรบุรี","ADM1_PCODE":"TH76","ADM0_EN":"Thailand","ADM0_TH":"ประเทศไทย","ADM0_PCODE":"TH"}},{"arcs":[[-49,-54,-82,222,-208]],"type":"Polygon","properties":{"Shape_Leng":0.0922470079676,"Shape_Area":0.000468805628348,"ADM3_EN":"Samo Phlue","ADM3_TH":"สมอพลือ","ADM3_PCODE":"TH760605","ADM2_EN":"Ban Lat","ADM2_TH":"บ้านลาด","ADM2_PCODE":"TH7606","ADM1_EN":"Phetchaburi","ADM1_TH":"เพชรบุรี","ADM1_PCODE":"TH76","ADM0_EN":"Thailand","ADM0_TH":"ประเทศไทย","ADM0_PCODE":"TH"}},{"arcs":[[-87,223,-186,224,225]],"type":"Polygon","properties":{"Shape_Leng":0.205757762471,"Shape_Area":0.00114868838378,"ADM3_EN":"Rai Makham","ADM3_TH":"ไร่มะขาม","ADM3_PCODE":"TH760606","ADM2_EN":"Ban Lat","ADM2_TH":"บ้านลาด","ADM2_PCODE":"TH7606","ADM1_EN":"Phetchaburi","ADM1_TH":"เพชรบุรี","ADM1_PCODE":"TH76","ADM0_EN":"Thailand","ADM0_TH":"ประเทศไทย","ADM0_PCODE":"TH"}},{"arcs":[[-81,-88,-226,226,-221,-209,-223]],"type":"Polygon","properties":{"Shape_Leng":0.19011067054,"Shape_Area":0.000633279429499,"ADM3_EN":"Tha Sen","ADM3_TH":"ท่าเสน","ADM3_PCODE":"TH760607","ADM2_EN":"Ban Lat","ADM2_TH":"บ้านลาด","ADM2_PCODE":"TH7606","ADM1_EN":"Phetchaburi","ADM1_TH":"เพชรบุรี","ADM1_PCODE":"TH76","ADM0_EN":"Thailand","ADM0_TH":"ประเทศไทย","ADM0_PCODE":"TH"}},{"arcs":[[-86,-185,-187,-224]],"type":"Polygon","properties":{"Shape_Leng":0.148919598845,"Shape_Area":0.000811177156363,"ADM3_EN":"Nong Krachet","ADM3_TH":"หนองกระเจ็ด","ADM3_PCODE":"TH760608","ADM2_EN":"Ban Lat","ADM2_TH":"บ้านลาด","ADM2_PCODE":"TH7606","ADM1_EN":"Phetchaburi","ADM1_TH":"เพชรบุรี","ADM1_PCODE":"TH76","ADM0_EN":"Thailand","ADM0_TH":"ประเทศไทย","ADM0_PCODE":"TH"}},{"arcs":[[-136,-217,227,228,229,230]],"type":"Polygon","properties":{"Shape_Leng":0.377969601632,"Shape_Area":0.00274157868816,"ADM3_EN":"Nong Kapu","ADM3_TH":"หนองกะปุ","ADM3_PCODE":"TH760609","ADM2_EN":"Ban Lat","ADM2_TH":"บ้านลาด","ADM2_PCODE":"TH7606","ADM1_EN":"Phetchaburi","ADM1_TH":"เพชรบุรี","ADM1_PCODE":"TH76","ADM0_EN":"Thailand","ADM0_TH":"ประเทศไทย","ADM0_PCODE":"TH"}},{"arcs":[[-40,231,232,-69,-42]],"type":"Polygon","properties":{"Shape_Leng":0.101044132625,"Shape_Area":0.000333008294984,"ADM3_EN":"Lat Pho","ADM3_TH":"ลาดโพธิ์","ADM3_PCODE":"TH760610","ADM2_EN":"Ban Lat","ADM2_TH":"บ้านลาด","ADM2_PCODE":"TH7606","ADM1_EN":"Phetchaburi","ADM1_TH":"เพชรบุรี","ADM1_PCODE":"TH76","ADM0_EN":"Thailand","ADM0_TH":"ประเทศไทย","ADM0_PCODE":"TH"}},{"arcs":[[-70,-233,233,-215]],"type":"Polygon","properties":{"Shape_Leng":0.0564356943181,"Shape_Area":0.000114373496668,"ADM3_EN":"Saphan Krai","ADM3_TH":"สะพานไกร","ADM3_PCODE":"TH760611","ADM2_EN":"Ban Lat","ADM2_TH":"บ้านลาด","ADM2_PCODE":"TH7606","ADM1_EN":"Phetchaburi","ADM1_TH":"เพชรบุรี","ADM1_PCODE":"TH76","ADM0_EN":"Thailand","ADM0_TH":"ประเทศไทย","ADM0_PCODE":"TH"}},{"arcs":[[-72,-218,-134,-119]],"type":"Polygon","properties":{"Shape_Leng":0.184613183317,"Shape_Area":0.00137337604589,"ADM3_EN":"Rai Khok","ADM3_TH":"ไร่โคก","ADM3_PCODE":"TH760612","ADM2_EN":"Ban Lat","ADM2_TH":"บ้านลาด","ADM2_PCODE":"TH7606","ADM1_EN":"Phetchaburi","ADM1_TH":"เพชรบุรี","ADM1_PCODE":"TH76","ADM0_EN":"Thailand","ADM0_TH":"ประเทศไทย","ADM0_PCODE":"TH"}},{"arcs":[[-39,-214,234,-228,-216,-234,-232]],"type":"Polygon","properties":{"Shape_Leng":0.158560068827,"Shape_Area":0.00102244133155,"ADM3_EN":"Rong Khe","ADM3_TH":"โรงเข้","ADM3_PCODE":"TH760613","ADM2_EN":"Ban Lat","ADM2_TH":"บ้านลาด","ADM2_PCODE":"TH7606","ADM1_EN":"Phetchaburi","ADM1_TH":"เพชรบุรี","ADM1_PCODE":"TH76","ADM0_EN":"Thailand","ADM0_TH":"ประเทศไทย","ADM0_PCODE":"TH"}},{"arcs":[[-206,235,236,-230,237,-219]],"type":"Polygon","properties":{"Shape_Leng":0.155295619708,"Shape_Area":0.0011272221588,"ADM3_EN":"Rai Sathon","ADM3_TH":"ไร่สะท้อน","ADM3_PCODE":"TH760614","ADM2_EN":"Ban Lat","ADM2_TH":"บ้านลาด","ADM2_PCODE":"TH7606","ADM1_EN":"Phetchaburi","ADM1_TH":"เพชรบุรี","ADM1_PCODE":"TH76","ADM0_EN":"Thailand","ADM0_TH":"ประเทศไทย","ADM0_PCODE":"TH"}},{"arcs":[[-137,-231,-237,238]],"type":"Polygon","properties":{"Shape_Leng":0.340619832038,"Shape_Area":0.00220822737344,"ADM3_EN":"Huai Khong","ADM3_TH":"ห้วยข้อง","ADM3_PCODE":"TH760615","ADM2_EN":"Ban Lat","ADM2_TH":"บ้านลาด","ADM2_PCODE":"TH7606","ADM1_EN":"Phetchaburi","ADM1_TH":"เพชรบุรี","ADM1_PCODE":"TH76","ADM0_EN":"Thailand","ADM0_TH":"ประเทศไทย","ADM0_PCODE":"TH"}},{"arcs":[[-211,-220,-238,-229,-235,-213]],"type":"Polygon","properties":{"Shape_Leng":0.14255324318,"Shape_Area":0.000775329290977,"ADM3_EN":"Tha Chang","ADM3_TH":"ท่าช้าง","ADM3_PCODE":"TH760616","ADM2_EN":"Ban Lat","ADM2_TH":"บ้านลาด","ADM2_PCODE":"TH7606","ADM1_EN":"Phetchaburi","ADM1_TH":"เพชรบุรี","ADM1_PCODE":"TH76","ADM0_EN":"Thailand","ADM0_TH":"ประเทศไทย","ADM0_PCODE":"TH"}},{"arcs":[[-173,-222,-227,-225]],"type":"Polygon","properties":{"Shape_Leng":0.152154756015,"Shape_Area":0.000791000504501,"ADM3_EN":"Tham Rong","ADM3_TH":"ถ้ำรงค์","ADM3_PCODE":"TH760617","ADM2_EN":"Ban Lat","ADM2_TH":"บ้านลาด","ADM2_PCODE":"TH7606","ADM1_EN":"Phetchaburi","ADM1_TH":"เพชรบุรี","ADM1_PCODE":"TH76","ADM0_EN":"Thailand","ADM0_TH":"ประเทศไทย","ADM0_PCODE":"TH"}},{"arcs":[[-138,-239,-236,-205,239]],"type":"Polygon","properties":{"Shape_Leng":0.368733303,"Shape_Area":0.00434059399988,"ADM3_EN":"Huai Luek","ADM3_TH":"ห้วยลึก","ADM3_PCODE":"TH760618","ADM2_EN":"Ban Lat","ADM2_TH":"บ้านลาด","ADM2_PCODE":"TH7606","ADM1_EN":"Phetchaburi","ADM1_TH":"เพชรบุรี","ADM1_PCODE":"TH76","ADM0_EN":"Thailand","ADM0_TH":"ประเทศไทย","ADM0_PCODE":"TH"}},{"arcs":[[240,241,242,243,244]],"type":"Polygon","properties":{"Shape_Leng":0.255685115196,"Shape_Area":0.00266926084737,"ADM3_EN":"Ban Laem","ADM3_TH":"บ้านแหลม","ADM3_PCODE":"TH760701","ADM2_EN":"Ban Laem","ADM2_TH":"บ้านแหลม","ADM2_PCODE":"TH7607","ADM1_EN":"Phetchaburi","ADM1_TH":"เพชรบุรี","ADM1_PCODE":"TH76","ADM0_EN":"Thailand","ADM0_TH":"ประเทศไทย","ADM0_PCODE":"TH"}},{"arcs":[[-15,-35,245,246,-241,247,248]],"type":"Polygon","properties":{"Shape_Leng":0.20769547793,"Shape_Area":0.00185607258389,"ADM3_EN":"Bang Khun Sai","ADM3_TH":"บางขุนไทร","ADM3_PCODE":"TH760702","ADM2_EN":"Ban Laem","ADM2_TH":"บ้านแหลม","ADM2_PCODE":"TH7607","ADM1_EN":"Phetchaburi","ADM1_TH":"เพชรบุรี","ADM1_PCODE":"TH76","ADM0_EN":"Thailand","ADM0_TH":"ประเทศไทย","ADM0_PCODE":"TH"}},{"arcs":[[-16,-249,249,250]],"type":"Polygon","properties":{"Shape_Leng":0.163085126421,"Shape_Area":0.000999833365906,"ADM3_EN":"Pak Thale","ADM3_TH":"ปากทะเล","ADM3_PCODE":"TH760703","ADM2_EN":"Ban Laem","ADM2_TH":"บ้านแหลม","ADM2_PCODE":"TH7607","ADM1_EN":"Phetchaburi","ADM1_TH":"เพชรบุรี","ADM1_PCODE":"TH76","ADM0_EN":"Thailand","ADM0_TH":"ประเทศไทย","ADM0_PCODE":"TH"}},{"arcs":[[-12,-251,251,252,-17,-64,-55]],"type":"Polygon","properties":{"Shape_Leng":0.228924875252,"Shape_Area":0.00164472696129,"ADM3_EN":"Bang Kaeo","ADM3_TH":"บางแก้ว","ADM3_PCODE":"TH760704","ADM2_EN":"Ban Laem","ADM2_TH":"บ้านแหลม","ADM2_PCODE":"TH7607","ADM1_EN":"Phetchaburi","ADM1_TH":"เพชรบุรี","ADM1_PCODE":"TH76","ADM0_EN":"Thailand","ADM0_TH":"ประเทศไทย","ADM0_PCODE":"TH"}},{"arcs":[[-18,-253,253,-65]],"type":"Polygon","properties":{"Shape_Leng":0.210325677673,"Shape_Area":0.00185446869272,"ADM3_EN":"Laem Phak Bia","ADM3_TH":"แหลมผักเบี้ย","ADM3_PCODE":"TH760705","ADM2_EN":"Ban Laem","ADM2_TH":"บ้านแหลม","ADM2_PCODE":"TH7607","ADM1_EN":"Phetchaburi","ADM1_TH":"เพชรบุรี","ADM1_PCODE":"TH76","ADM0_EN":"Thailand","ADM0_TH":"ประเทศไทย","ADM0_PCODE":"TH"}},{"arcs":[[-93,254,255,256,-110]],"type":"Polygon","properties":{"Shape_Leng":0.376729599684,"Shape_Area":0.00215689087048,"ADM3_EN":"Bang Tabun","ADM3_TH":"บางตะบูน","ADM3_PCODE":"TH760706","ADM2_EN":"Ban Laem","ADM2_TH":"บ้านแหลม","ADM2_PCODE":"TH7607","ADM1_EN":"Phetchaburi","ADM1_TH":"เพชรบุรี","ADM1_PCODE":"TH76","ADM0_EN":"Thailand","ADM0_TH":"ประเทศไทย","ADM0_PCODE":"TH"}},{"arcs":[[-244,257,-256,258]],"type":"Polygon","properties":{"Shape_Leng":0.229703419593,"Shape_Area":0.00128123005868,"ADM3_EN":"Bang Tabun Ok","ADM3_TH":"บางตะบูนออก","ADM3_PCODE":"TH760707","ADM2_EN":"Ban Laem","ADM2_TH":"บ้านแหลม","ADM2_PCODE":"TH7607","ADM1_EN":"Phetchaburi","ADM1_TH":"เพชรบุรี","ADM1_PCODE":"TH76","ADM0_EN":"Thailand","ADM0_TH":"ประเทศไทย","ADM0_PCODE":"TH"}},{"arcs":[[-28,-111,-257,-258,-243,259,-30]],"type":"Polygon","properties":{"Shape_Leng":0.311906386563,"Shape_Area":0.00279291618945,"ADM3_EN":"Bang Khrok","ADM3_TH":"บางครก","ADM3_PCODE":"TH760708","ADM2_EN":"Ban Laem","ADM2_TH":"บ้านแหลม","ADM2_PCODE":"TH7607","ADM1_EN":"Phetchaburi","ADM1_TH":"เพชรบุรี","ADM1_PCODE":"TH76","ADM0_EN":"Thailand","ADM0_TH":"ประเทศไทย","ADM0_PCODE":"TH"}},{"arcs":[[-31,-260,-242,-247,260,-33]],"type":"Polygon","properties":{"Shape_Leng":0.198281437637,"Shape_Area":0.000868754909574,"ADM3_EN":"Tha Raeng","ADM3_TH":"ท่าแร้ง","ADM3_PCODE":"TH760709","ADM2_EN":"Ban Laem","ADM2_TH":"บ้านแหลม","ADM2_PCODE":"TH7607","ADM1_EN":"Phetchaburi","ADM1_TH":"เพชรบุรี","ADM1_PCODE":"TH76","ADM0_EN":"Thailand","ADM0_TH":"ประเทศไทย","ADM0_PCODE":"TH"}},{"arcs":[[-34,-261,-246]],"type":"Polygon","properties":{"Shape_Leng":0.138209385497,"Shape_Area":0.000562655379742,"ADM3_EN":"Tha Raeng Ok","ADM3_TH":"ท่าแร้งออก","ADM3_PCODE":"TH760710","ADM2_EN":"Ban Laem","ADM2_TH":"บ้านแหลม","ADM2_PCODE":"TH7607","ADM1_EN":"Phetchaburi","ADM1_TH":"เพชรบุรี","ADM1_PCODE":"TH76","ADM0_EN":"Thailand","ADM0_TH":"ประเทศไทย","ADM0_PCODE":"TH"}},{"arcs":[[-132,261,262,-191,-200,263,264]],"type":"Polygon","properties":{"Shape_Leng":1.21995018354,"Shape_Area":0.0317224508569,"ADM3_EN":"Kaeng Krachan","ADM3_TH":"แก่งกระจาน","ADM3_PCODE":"TH760801","ADM2_EN":"Kaeng Krachan","ADM2_TH":"แก่งกระจาน","ADM2_PCODE":"TH7608","ADM1_EN":"Phetchaburi","ADM1_TH":"เพชรบุรี","ADM1_PCODE":"TH76","ADM0_EN":"Thailand","ADM0_TH":"ประเทศไทย","ADM0_PCODE":"TH"}},{"arcs":[[-199,265,-264]],"type":"Polygon","properties":{"Shape_Leng":0.823420641547,"Shape_Area":0.0142801746113,"ADM3_EN":"Song Phi Nong","ADM3_TH":"สองพี่น้อง","ADM3_PCODE":"TH760802","ADM2_EN":"Kaeng Krachan","ADM2_TH":"แก่งกระจาน","ADM2_PCODE":"TH7608","ADM1_EN":"Phetchaburi","ADM1_TH":"เพชรบุรี","ADM1_PCODE":"TH76","ADM0_EN":"Thailand","ADM0_TH":"ประเทศไทย","ADM0_PCODE":"TH"}},{"arcs":[[-194,-263,266,-204]],"type":"Polygon","properties":{"Shape_Leng":0.496719229019,"Shape_Area":0.00715984654317,"ADM3_EN":"Wang Chan","ADM3_TH":"วังจันทร์","ADM3_PCODE":"TH760803","ADM2_EN":"Kaeng Krachan","ADM2_TH":"แก่งกระจาน","ADM2_PCODE":"TH7608","ADM1_EN":"Phetchaburi","ADM1_TH":"เพชรบุรี","ADM1_PCODE":"TH76","ADM0_EN":"Thailand","ADM0_TH":"ประเทศไทย","ADM0_PCODE":"TH"}},{"arcs":[[-197,-203,267,268]],"type":"Polygon","properties":{"Shape_Leng":0.965710877036,"Shape_Area":0.0344976473588,"ADM3_EN":"Pa Deng","ADM3_TH":"ป่าเด็ง","ADM3_PCODE":"TH760804","ADM2_EN":"Kaeng Krachan","ADM2_TH":"แก่งกระจาน","ADM2_PCODE":"TH7608","ADM1_EN":"Phetchaburi","ADM1_TH":"เพชรบุรี","ADM1_PCODE":"TH76","ADM0_EN":"Thailand","ADM0_TH":"ประเทศไทย","ADM0_PCODE":"TH"}},{"arcs":[[-131,-139,-240,-267,-262]],"type":"Polygon","properties":{"Shape_Leng":0.44733444868,"Shape_Area":0.00584068540854,"ADM3_EN":"Phu Sawan","ADM3_TH":"พุสวรรค์","ADM3_PCODE":"TH760805","ADM2_EN":"Kaeng Krachan","ADM2_TH":"แก่งกระจาน","ADM2_PCODE":"TH7608","ADM1_EN":"Phetchaburi","ADM1_TH":"เพชรบุรี","ADM1_PCODE":"TH76","ADM0_EN":"Thailand","ADM0_TH":"ประเทศไทย","ADM0_PCODE":"TH"}},{"arcs":[[-128,-133,-265,-266,-198,-269,269]],"type":"Polygon","properties":{"Shape_Leng":2.15168095076,"Shape_Area":0.121442863192,"ADM3_EN":"Huai Mae Phriang","ADM3_TH":"ห้วยแม่เพรียง","ADM3_PCODE":"TH760806","ADM2_EN":"Kaeng Krachan","ADM2_TH":"แก่งกระจาน","ADM2_PCODE":"TH7608","ADM1_EN":"Phetchaburi","ADM1_TH":"เพชรบุรี","ADM1_PCODE":"TH76","ADM0_EN":"Thailand","ADM0_TH":"ประเทศไทย","ADM0_PCODE":"TH"}}]}}}