{"type":"Topology","arcs":[[[4712,7121],[7,-12],[-33,-20],[-52,-3],[-147,-60],[-29,-6],[-42,-176],[-134,36],[66,100]],[[4348,6980],[42,60],[-69,151],[-166,-51],[-31,96],[-26,-9],[-1,37],[-12,11],[90,28],[76,16]],[[4251,7319],[33,7],[-27,96],[89,31],[39,46],[38,15],[42,-129],[-40,-19],[16,-48],[26,-32],[42,-38],[24,-11],[84,-13],[31,-16],[35,-39],[29,-48]],[[4165,8319],[17,-28],[-23,-17],[11,-61],[-14,-40],[3,-117],[-16,-104],[-64,-15],[-21,-31],[4,-22],[-30,-34],[-24,1],[-8,-17],[15,-40],[-11,-1],[-9,-40],[-45,-2]],[[3950,7751],[-30,-14],[5,-29],[-41,-10],[4,-17],[-45,-19],[-23,-4],[-12,23],[-28,1],[-27,-12],[-40,2],[-70,-18]],[[3643,7654],[-7,52],[1,43],[-44,57],[43,48],[-35,63],[44,23],[29,70],[11,46],[15,12],[-31,88],[3,13],[25,9],[8,16],[-24,159],[20,42]],[[3701,8395],[40,-4],[62,-28],[49,-12],[128,-22],[69,-16],[83,-12],[33,18]],[[3643,7654],[-81,-30],[-24,-4],[-51,5],[-36,28],[-39,46],[-25,13],[-75,74],[-21,4],[-25,-15]],[[3266,7775],[-5,29],[13,26],[28,-2],[11,10],[-7,24],[-33,28],[-6,20],[26,30],[-25,22],[5,43],[-21,-2],[-15,47],[-53,74],[-24,17],[-40,13],[-30,42],[-7,26],[10,145]],[[3093,8367],[65,-10],[43,10],[31,-5],[57,22],[20,-7],[30,7],[55,79],[34,17],[36,-2],[44,-13],[81,-44],[63,-18],[49,-8]],[[4165,8319],[53,37],[12,0],[51,-35],[29,31],[17,0],[40,29],[38,2],[3,19],[47,20],[56,4],[120,43]],[[4631,8469],[12,-46],[2,-37],[18,-43],[-16,-80],[34,-32],[23,-46],[-4,-46],[-11,-1],[11,-59],[-10,-6],[2,-36],[19,-37],[6,-74],[-21,-36],[-54,-2]],[[4642,7888],[-43,-20],[6,-21],[-46,-15],[3,-22],[-20,-4],[2,-42],[-50,-7],[-2,-37],[-73,1],[-28,33],[-73,-45],[-9,-21],[-57,-11],[-18,-19],[-42,-16],[-6,15],[-90,-25],[-16,7],[-9,33],[-23,-6],[-7,14],[-25,5],[-32,-6]],[[3984,7679],[-25,-4],[8,15],[-17,61]],[[4251,7319],[-10,43],[-17,29],[-16,53],[-27,-6],[-8,27],[-47,60],[-37,-12],[-14,77],[-66,13],[-25,76]],[[4642,7888],[27,-48],[-54,-23],[15,-124],[-11,-25],[47,-36],[6,-24],[-6,-56],[41,-3],[4,-31],[59,-68],[39,-36],[3,-49],[25,-1],[8,-22],[13,4],[36,-52],[36,3],[-4,-56]],[[4926,7241],[-32,-8],[-32,21],[-58,-50],[-43,-21],[9,-36],[-29,-24],[-29,-2]],[[4348,6980],[-93,16],[-4,-148]],[[4251,6848],[-77,51],[-61,31],[-34,-20],[-8,10]],[[4071,6920],[-86,120],[-16,46],[-42,12],[-25,18],[-28,1],[-45,23],[-73,0],[-38,35],[-17,7],[-6,41],[-33,62],[-27,-13],[-53,12],[-24,-8],[-35,10],[-24,-24],[-33,15],[-52,15],[-7,-31],[-29,-7],[-86,18]],[[3292,7272],[21,27],[4,54],[28,13],[-1,23],[-21,41]],[[3323,7430],[3,37],[-16,53],[-35,25],[-50,57],[20,46],[14,53],[7,74]],[[4071,6920],[-79,-10],[-2,-21],[-74,-18],[-177,-82],[-58,-6],[-54,4],[-24,-10],[-27,2],[-12,-18],[-21,-4],[-9,-18],[12,-20],[-41,-30],[-31,-10],[-31,-43],[5,-24],[-5,-93]],[[3443,6519],[-10,1],[-29,-42],[-33,-33],[-45,-11],[-19,8],[-23,35],[-50,4],[-18,24],[-10,37],[-13,12],[-28,-23],[-12,3],[1,32],[-14,13],[-36,4],[-103,35],[6,29],[-9,16],[-28,4]],[[2970,6667],[61,72],[30,64],[23,22],[-28,54],[-13,7],[-15,76],[-36,13],[-16,52],[21,27],[25,-4],[38,25],[54,29],[29,-11],[15,27],[29,25],[-2,45],[18,15],[19,-22],[35,14],[25,-2],[26,44],[-16,33]],[[4251,6848],[-8,-127],[9,-19],[33,-21],[18,-50],[27,-5],[19,-29],[9,6],[21,-34],[19,1],[0,-55],[21,-29],[0,-33],[-13,-6],[11,-26],[-5,-83]],[[4412,6338],[-20,39],[-57,-31],[-41,1],[-37,-12],[-17,-42],[-17,-7],[6,-15],[-51,-2],[-41,-9],[-67,-61],[-12,-35],[11,-19],[-7,-53],[13,-21]],[[4075,6071],[-18,10],[-118,3],[-28,8],[-113,-3],[-130,3],[-46,8],[-85,-43]],[[3537,6057],[-6,63],[-33,15],[-12,42],[14,25],[-2,20],[22,27],[-18,51],[14,41],[21,26],[-5,29],[-13,19],[3,55],[-27,42],[-52,7]],[[4926,7241],[55,-13],[1,-15],[27,5],[32,-10],[17,-69],[57,-26],[46,-43]],[[5161,7070],[-47,-40],[-109,-70],[-23,-1],[-56,-46],[-30,-37],[-12,-30],[-33,-27],[-30,-5],[-19,-23],[3,-36],[28,-33],[-10,-9],[17,-25],[-3,-33],[-10,-10]],[[4827,6645],[-58,-10],[-97,-44],[-82,-18],[-6,-48],[9,-36],[-33,-8],[4,-16],[-25,-13],[14,-24],[-24,0],[-38,-19],[-43,-34],[-36,-37]],[[5161,7070],[10,39],[19,12],[25,46],[31,22],[28,2]],[[5274,7191],[1,-36],[-20,-26],[-10,-48],[-51,-23],[-5,-22],[-27,-52],[-20,-2],[-11,-18],[28,2],[35,-22],[14,-55],[14,16],[34,-23],[31,-5],[42,12],[18,17],[117,48]],[[5464,6954],[77,-51],[160,-87],[57,-34],[11,-40],[36,-2],[-11,-45],[7,-10],[96,-3],[-1,-25],[20,-14],[-9,-37],[58,-12],[71,-6],[15,-105],[-20,-122],[15,-86]],[[6046,6275],[-45,-27],[-101,0],[-37,7],[-45,-11],[-91,-51],[-54,-43],[-41,-17],[-3,6],[-93,-47],[-28,-10],[-98,-8],[-77,-29],[0,-12],[-97,-44],[6,-26],[-16,-5],[-111,-60],[-30,147]],[[5085,6045],[-87,427],[-79,13],[29,64],[-12,41],[-26,27],[-35,20],[-48,8]],[[5085,6045],[-22,-9],[-78,-96],[-5,-13],[81,-63],[-73,-61]],[[4988,5803],[-140,-98]],[[4848,5705],[-38,16],[-33,49],[2,21],[-16,-4],[-54,9],[2,65],[-41,34],[-33,-8],[-72,-1],[1,19],[-48,13],[-72,-3],[-6,28],[-13,-4],[-15,41],[1,30],[25,39],[9,37],[-23,26],[14,45],[36,50],[-7,57],[-13,39],[-42,35]],[[4988,5803],[2,-40],[33,-35],[-3,-30],[16,-4],[12,-49],[25,-39],[-1,-22],[-17,-44],[19,-33],[48,-10],[14,-11],[10,-46],[32,-77],[2,-16],[-17,-50],[35,-58],[22,-19]],[[5220,5220],[-15,-40],[-45,-29],[19,-39],[32,-20],[-1,-19],[-28,3],[-31,-35],[13,-32],[-23,0],[-19,-17],[-49,-88],[-8,-21],[-2,-64]],[[5063,4819],[-180,-13],[-9,6],[-46,-16],[-43,7],[-51,16],[-14,-98],[-65,-25],[-28,-30],[25,-107]],[[4652,4559],[-93,12],[-6,15],[-50,34],[-9,14],[-22,-2],[-25,17],[-14,39],[11,29],[4,79],[32,41],[-24,12],[-12,-17],[-26,8],[-6,-11],[-40,21],[-128,24],[-98,23],[-46,-15],[-64,-3],[-11,29],[-19,10]],[[4006,4918],[14,62],[17,52],[-22,47],[13,10],[85,130],[4,22],[-21,48],[97,26],[4,37],[83,58],[3,9]],[[4283,5419],[51,4],[77,14],[15,13],[55,10],[53,-4],[4,-14],[40,5],[46,18],[34,43],[91,-2],[22,49],[37,42],[18,55],[25,2],[-3,51]],[[6046,6275],[-28,-39],[-23,-46],[-14,-72],[-33,0],[-24,-17],[39,-89],[-14,-17],[-1,-36],[-18,-17],[5,-63],[8,-28],[0,-60],[8,-23],[41,10],[26,-19],[39,4],[4,-56],[-20,-42],[-6,-36],[-18,-33],[-19,-59],[27,-19],[62,-12],[13,-17],[2,-69],[-4,-1],[-25,-198],[3,-28],[25,-37]],[[6101,5156],[-44,-24],[-70,-3],[-68,-16],[-82,-6],[-51,-11],[-5,10],[-36,-1],[-8,33],[-53,5],[0,40],[-68,32],[-48,44],[-93,34],[0,27],[-52,-14],[-2,33],[-85,-5],[-9,20],[-29,-9],[-28,10],[-31,-44],[8,-38],[-5,-28],[-22,-25]],[[4631,8469],[55,39],[64,57],[66,30],[-45,18],[-21,-4],[-20,23],[3,20],[32,27],[29,6],[33,-12],[61,5],[42,24],[39,4],[52,-44],[27,-13],[1,-12],[52,-15],[84,-43],[26,-37],[69,-31],[106,-34],[42,-34],[24,-37],[19,-54],[-10,-43],[11,-16],[-9,-44],[65,-25]],[[5528,8224],[-135,-145],[-19,13],[-10,-19],[3,-32],[-33,-44],[-45,-30],[-3,-17],[-33,-32],[-3,-32],[8,-27],[-19,-15],[6,-40],[-21,-15],[-5,-50],[9,-13],[-8,-29],[20,-27],[-29,-63],[-2,-36],[10,-3],[16,-58],[-9,-22],[0,-47],[24,-63],[31,-11],[8,-48]],[[5289,7319],[-40,-6],[4,-30],[-20,-5],[-7,-28],[12,-22],[36,-37]],[[5464,6954],[64,56],[16,37],[32,9],[95,16],[47,3],[75,-3],[44,13],[34,2],[10,-34],[26,6],[42,-6],[1,8],[58,5],[14,-14],[49,0],[1,-90],[41,-26],[54,-19],[7,17],[44,-4],[55,-14],[48,-23],[109,-63],[-9,-35],[20,-23],[66,-13]],[[6507,6759],[27,-59],[-3,-82],[22,-15],[3,17],[25,11],[6,-9],[-2,-99],[70,-11],[2,-26],[23,5],[19,-61],[-30,-9],[13,-63],[1,-45],[-12,-3],[-40,-41],[-25,-3],[-41,8]],[[6565,6274],[-45,-18],[-93,25],[-25,23],[-50,17],[2,9],[-94,45],[-62,6],[-78,-23],[-49,-27],[-25,-56]],[[4283,5419],[0,27],[-11,15],[-8,46],[-2,70],[-9,76],[-29,56],[-44,34],[-11,45],[-6,69],[-29,46],[-31,75],[7,50],[-20,35],[-15,8]],[[7300,7138],[35,-23],[11,-41],[56,-38],[9,-25],[25,-101],[45,-36],[-6,-23],[21,-43],[18,-5],[7,20],[15,-26],[33,2],[3,-17],[53,34],[6,16],[22,-38],[-25,-33],[21,-19],[37,-10],[55,-63],[43,-12],[59,1],[8,-35],[46,-53],[15,13],[14,-22],[38,-23],[8,-59],[22,-65],[-17,-43],[-7,-37],[13,-62],[13,-27],[-24,-34],[-46,-52],[-53,-68],[-33,-20],[-7,-15]],[[7833,6056],[-13,13],[-15,-13],[-22,11],[-181,-111],[-38,21],[2,14],[-38,2],[-54,-6],[-13,27],[-29,15],[-16,-10],[-23,20],[-41,2],[-46,107],[-23,23],[-46,26],[-115,36],[-37,50],[-22,4],[17,56],[-18,11],[19,39],[-8,22],[-2,51],[-27,32],[-18,2],[-32,35],[-48,20],[-22,-8],[-21,20],[-21,-8],[-34,28],[-62,34],[-2,16],[-52,10],[-2,19],[-50,15],[-19,17],[-26,-11],[-16,19],[-59,39],[-53,14]],[[6507,6759],[3,69],[-3,76],[6,32],[34,19],[16,-13],[50,-18],[29,4],[30,-36],[36,-18],[25,53],[43,-33],[19,15],[31,61],[50,80],[15,13],[21,52],[23,-17],[37,-14],[11,5],[14,-20],[51,14],[91,8],[64,12],[44,0],[27,17],[1,15],[25,3]],[[5289,7319],[2,-48],[13,-24],[-12,-22],[35,-3],[5,-39],[12,-22],[4,-73],[12,3],[10,-27],[-11,-14],[25,2],[-2,23],[18,8],[12,-14],[24,11],[-8,49],[48,40],[-2,14],[25,7],[-1,32],[30,29],[-11,47],[24,5],[-2,18],[17,12],[28,-5],[14,-17],[79,40],[15,-1],[6,33],[26,33],[52,11],[18,-12],[38,11],[23,-12],[31,13],[50,42],[25,-11],[20,5],[37,51],[45,-3],[53,-11],[6,-12],[70,6],[31,-31],[16,9],[13,-27],[43,14],[69,9],[-6,-29],[17,28],[17,-6],[-17,-20],[16,-13],[10,28],[35,-3],[24,17],[9,-25],[19,-2],[32,14],[22,-13],[15,12],[19,-6],[5,-24],[63,-14],[24,-18],[11,46],[18,-4],[5,19]],[[6702,7455],[15,5],[25,-15],[46,19],[12,-15],[-5,-23],[31,31],[12,-20],[13,21],[30,-37],[1,19],[21,9],[14,-29],[15,29],[36,5],[24,44],[41,-9],[17,-21],[-4,-24],[25,15],[1,-16],[29,-15],[6,-31],[23,-12],[6,19],[25,19],[6,-10]],[[7167,7413],[-7,-22],[19,2],[19,-23],[-4,-37],[29,10],[-13,-17],[24,-6],[10,-23],[-8,-33],[41,-45],[38,-19],[3,-15],[-19,-21],[1,-26]],[[7833,6056],[14,-15],[-11,-53],[13,-24],[-30,-34],[-14,-33],[18,-9],[-23,-23],[2,-17],[19,1],[44,-82],[-21,-6],[30,-99],[-6,-48],[11,-67],[-3,-65]],[[7876,5482],[-8,-26],[-34,27],[-32,-22],[-26,9],[-13,-21],[-64,6],[-22,-43],[8,-8],[-38,-37],[-18,8],[-16,-24],[-33,10],[-29,-10],[-45,12],[-44,-2],[-63,-58],[-7,22],[-35,-5],[-10,-15],[-93,-62],[-35,17],[-45,-34],[-6,-26],[-20,-4],[-49,-58],[-17,-3],[-41,26],[-11,-11],[-31,0],[-7,24],[-118,-31],[-33,-2],[-32,22],[-45,10],[0,13],[-35,11],[-22,18],[-56,24],[0,10],[-43,11]],[[6608,5260],[3,17],[-20,5],[15,56],[3,40],[-14,44],[-15,25],[8,34],[-2,44],[40,1],[-2,39],[27,-1],[73,79],[58,-6],[10,55],[6,0],[20,66],[4,27],[-29,6],[18,36],[-41,1],[4,135],[-5,55],[-26,50],[-32,34],[-10,28],[-69,55],[-67,46],[0,43]],[[6608,5260],[-26,-49]],[[6582,5211],[-34,22],[-36,-2],[-119,-21],[-58,-14],[-74,1],[-42,-5],[-70,-18],[-48,-18]],[[4006,4918],[-74,49],[-62,-17],[-22,0],[-87,17],[-47,0],[27,140],[16,28],[-37,33],[-40,-6],[4,-33],[-17,-14]],[[3667,5115],[-79,114]],[[3588,5229],[-15,24],[-35,24],[-4,34],[24,32],[-20,26],[-41,7],[-23,17],[29,71],[66,-3],[12,23],[1,60],[34,102],[1,117],[-38,69],[14,34],[-5,50],[-21,45],[-22,12],[-7,22],[-28,2],[30,43],[-3,17]],[[3667,5115],[-33,22],[-44,-5],[-29,-28],[-16,26],[-29,-20],[-13,-54],[-53,-50],[1,-24],[-19,-34],[-1,-22],[22,-40],[-14,-30],[0,-38],[40,-33],[-11,-12],[15,-24],[5,-54],[-6,-23],[-20,0],[-3,-21],[-37,-9],[-7,-25],[-16,0],[-15,-31],[-1,-21],[17,-43],[-8,-35],[16,-28],[-12,-28]],[[3396,4431],[-24,-1],[-10,-24],[11,-32],[-32,-10],[-15,-15],[-43,0],[-30,26],[-36,-17],[-11,54],[4,23],[-20,19],[-18,-6],[-24,20],[-20,-5],[-77,4],[-239,5]],[[2812,4472],[-1,15],[-44,103],[-5,57],[3,132],[-96,88],[-49,73],[-77,65],[1,55],[-26,8],[-18,27],[-10,36]],[[2490,5131],[28,29],[32,-12],[51,-3],[67,26],[72,61],[74,73],[52,63],[21,17],[64,23]],[[2951,5408],[17,-19],[39,-11]],[[3007,5378],[34,-36],[70,5],[19,-5],[4,-27],[17,-10],[26,7],[13,21],[16,-9],[27,10],[18,-32],[29,11],[23,-24],[31,2],[39,39],[37,-7],[88,-42],[1,-14],[64,-36],[25,-2]],[[3007,5378],[12,33],[18,1],[2,34],[31,-18],[119,-41],[46,6],[34,32],[2,27],[-34,12],[-6,31],[17,11],[-13,35],[-45,9],[-20,14],[6,25],[-22,5],[-26,24],[-17,1],[-2,-30],[-16,15],[-38,-4],[-16,9],[-26,-4],[0,31],[-32,28],[-39,69],[4,12],[53,49],[115,64],[34,40],[11,56],[-5,87],[-18,62],[31,10],[-17,49],[-30,44],[-81,104],[-44,96],[-3,20],[-26,39],[-80,-31]],[[2886,6434],[-16,5],[12,59],[-5,41],[-13,32],[5,22],[38,14],[-6,36],[39,23],[30,1]],[[2951,5408],[-11,47],[-30,37],[-51,-4],[-15,26],[7,31],[-37,-12],[-25,8],[-17,47],[-18,-2],[-32,29],[-42,-13],[-8,-14],[-40,-6],[-35,3],[0,-18],[-23,-8],[-3,27],[-18,10],[-8,25],[-54,-22],[-16,29],[-47,16],[-31,3],[-48,32],[-43,4],[-12,-13],[-22,16],[-11,34],[-42,23],[-20,-21],[-37,-12],[-28,-20],[-11,-23],[-29,15],[-44,12],[-22,23],[-32,-20],[-22,22],[-25,86],[-27,31],[-31,-7],[-21,12],[-33,5],[-37,-26],[-13,9],[-31,0],[-6,-24],[-22,-13],[-20,22],[-31,-8],[-25,4],[-4,-19],[-53,0],[-73,21],[-22,-2],[-3,-28],[-27,4],[-15,-38],[-17,-1],[-11,-69],[-26,-3],[-149,-46],[2,-62],[-9,-48],[-117,28],[-108,-12],[0,-30],[-43,-10],[-14,81],[-3,64]],[[960,5640],[-5,193],[-9,78],[28,20],[38,14],[-4,29],[49,28]],[[1057,6002],[68,9],[3,13],[30,15],[-4,36],[23,16],[8,22],[34,-8],[16,29],[25,9],[36,-12],[14,4],[29,-15],[13,-45],[31,-19],[66,29],[9,51],[-14,35],[40,76],[49,10],[39,1],[23,23],[22,6],[17,19],[33,15],[49,-20],[25,-28],[20,-6],[36,60],[18,7],[105,23],[92,4],[42,17],[28,3],[34,-9],[28,11],[23,-2],[57,-42],[16,-24],[9,-43],[29,-47],[13,-8],[25,8],[58,53],[36,9],[93,69],[30,-8],[93,-4]],[[2626,6344],[67,5],[69,12],[52,5],[27,34],[45,34]],[[2812,4472],[-203,7],[-56,40],[-37,11],[-42,-8],[-87,-47],[-26,-5],[-106,-8],[-69,4],[-66,-7],[-50,-12],[-35,0],[-64,20],[-9,16],[-26,7],[-30,-12],[-27,28],[-13,-12],[-37,2],[-7,21],[-18,-9],[-13,12],[-39,-47],[-18,25]],[[1734,4498],[12,240],[6,80],[13,2],[16,30],[14,7],[30,-10],[9,-22],[16,-4],[28,13],[4,34],[37,14],[4,17],[-12,39],[-48,5],[12,49],[-19,32],[9,9],[-51,42],[-26,-25],[-21,15],[3,47]],[[1770,5112],[59,1],[27,-10],[27,14],[95,13],[55,-22],[100,0],[53,5],[106,24],[60,2],[100,-10],[38,2]],[[1770,5112],[-75,5],[-57,9],[-36,22],[-31,34],[-9,19],[3,35],[-23,36],[-94,43],[-174,30],[-107,26],[-4,-11],[-52,14],[-69,-33],[-25,0],[-89,15],[21,20],[14,61],[-6,31],[-26,30],[-38,1],[-25,13],[-5,22],[-20,9],[4,33]],[[847,5576],[32,-15],[42,17],[39,62]],[[1734,4498],[-40,19],[-6,18],[-38,44],[-4,18],[-76,35],[-43,0],[-53,-23],[-25,7],[-33,37],[-26,22],[-88,-3],[-24,16],[-21,36],[-39,18],[-97,-5],[-66,16],[-115,-41],[-10,1],[-31,40],[2,14],[-22,20],[-16,-21],[-10,17],[-35,-16],[-43,45],[3,27],[-34,33],[-54,17],[-18,-14],[-7,-23],[-28,-22],[6,-16],[-15,-16],[-73,20]],[[555,4818],[0,37],[27,69],[-5,33],[-37,82],[-10,49],[-69,80],[-27,12],[1,84],[20,71],[6,63]],[[461,5398],[47,31],[36,-3],[-12,61],[20,11],[50,3],[27,19],[84,28],[41,-8],[35,7],[26,26],[32,3]],[[5275,3908],[6,15],[-22,43],[-4,26],[25,55],[48,36],[-18,14],[-35,8],[-70,29],[7,83],[35,5],[53,25]],[[5300,4247],[116,35],[106,-153],[111,-43],[-22,-69],[-126,47],[-99,-62],[-12,-113],[-99,19]],[[6101,5156],[18,-56],[-38,-10],[-62,16],[-50,7],[-73,-20],[-78,-6],[-48,-15],[3,-22],[64,-64],[33,-64],[2,-16],[19,-2],[1,-21],[-29,-30],[-22,-5],[-44,10],[-65,5],[-15,-17],[-2,-26],[-30,-46],[-14,-1],[-6,-33],[-29,-32],[5,-22],[-49,-27],[13,-104],[25,-50],[23,-58],[9,-70],[-7,-14],[-3,-146],[-17,-131],[-22,-70],[4,-104],[8,-293],[0,-125]],[[5625,3494],[-75,22],[-77,15],[-106,17],[-58,-13],[-53,8],[-47,37]],[[5209,3580],[20,30],[3,32],[-6,61],[-24,58],[-4,38]],[[5198,3799],[44,78],[33,31]],[[5300,4247],[-20,21],[-32,49],[-1,32],[21,36],[4,24],[-22,56],[0,35],[-34,61],[24,110],[-15,64],[75,128],[8,40],[9,120],[-4,30],[-37,91],[-56,76]],[[5198,3799],[-74,10],[-165,9],[-70,1]],[[4889,3819],[24,23],[10,33],[-6,22],[11,42],[4,57],[-8,13],[-5,48],[46,133],[-7,24],[13,29],[-4,32],[8,29],[-23,37],[-22,-1],[-5,21],[-35,40],[-10,44],[-3,47],[17,21],[65,12],[-14,22],[-2,43],[18,37],[66,57],[10,18],[19,69],[7,48]],[[5625,3494],[37,-7],[35,-37]],[[5697,3450],[-14,-32],[-78,-71],[-17,-27],[-19,-6],[-41,17],[-36,-19],[-9,-31],[-42,-22]],[[5441,3259],[-23,27],[-18,3],[-85,-23],[-88,15],[-58,-16],[1,-10],[-55,1],[-21,6],[-41,-14]],[[5053,3248],[-15,46],[34,52],[-3,57],[8,18],[35,30],[11,23],[0,61],[26,30],[60,15]],[[6582,5211],[-20,-42],[-58,-73],[-57,-17],[-142,-153],[-35,-10],[-48,-1],[-49,-44],[-13,-20],[12,-26],[18,-72],[-2,-36],[6,-98],[4,-7],[58,-5],[2,-11],[50,10],[58,-2]],[[6366,4604],[11,-106],[46,-11],[-3,-15],[52,-84],[19,-38],[-1,-39],[10,-4],[-16,-71],[-57,15],[-4,-7],[-51,4],[-40,-8],[-61,7],[-42,-14],[-5,-17],[14,-33],[-31,-8],[21,-101],[-23,-12],[-38,-34],[-6,-49],[-16,-4],[-9,-23],[-29,-15],[-35,7],[-21,-11],[-36,-1],[-32,-24],[-14,-71],[0,-46],[-61,-6],[-69,5],[-46,9],[-16,-144],[12,-32],[0,-29],[-11,-22],[-50,-51],[8,-21]],[[5736,3500],[-39,-50]],[[6531,3109],[-31,-4],[-9,-103],[-6,-186],[6,-57],[2,-89],[-25,-16],[-5,-18],[7,-32],[30,-31],[2,-26],[-11,-22],[20,-18],[5,-23],[35,-6],[11,-39],[16,11],[26,-7],[8,-23]],[[6612,2420],[-9,-25],[-44,-62],[-20,-5],[-45,12],[-137,13],[-34,22]],[[6323,2375],[11,33],[-13,9],[25,69],[5,56],[-25,6],[-13,22],[1,21],[-16,-8],[-22,8],[-3,50],[4,44],[-33,10],[-1,34],[-42,15],[8,70],[-25,13],[8,81],[35,-2],[2,58],[-6,88],[-19,2],[-32,-19],[-18,45],[6,68],[28,-4],[10,82],[-15,52],[-16,36],[-4,36],[14,2],[3,53],[-14,73]],[[6166,3478],[55,14],[5,-10],[33,4],[20,-13],[62,-11],[84,18],[20,-2],[126,0],[5,8],[34,-3],[6,-13],[62,20],[55,1]],[[6733,3491],[-41,-75],[-28,-61],[-18,-63],[-33,-80],[-6,-32],[-32,27],[-15,-2],[-33,-35],[-7,-36],[11,-25]],[[5736,3500],[22,-34],[23,2],[19,-13],[9,12],[34,-9],[-1,-19],[33,7],[34,-6],[35,36],[25,7],[29,22],[5,-13],[40,-26],[35,28],[29,-10],[59,-6]],[[6323,2375],[-67,22],[-82,7],[-55,-1],[-90,6],[-18,46],[1,23],[-15,56],[0,33],[-16,55],[5,63],[-6,13],[-42,5],[-12,17],[-32,12],[-19,17],[-23,-30],[-22,15],[-57,23],[-45,2],[-53,-35],[-66,-34],[-25,-1],[-53,16]],[[5531,2705],[-4,25],[-17,17],[0,45],[57,-9],[15,14],[16,-10],[23,13],[12,-14],[43,11],[16,36],[18,3],[-21,22],[5,31],[-15,25],[-27,0],[-7,23],[-29,21],[-6,27],[-16,6],[-24,-12],[-14,21],[3,31],[-9,7],[-25,-23],[-31,23],[21,38],[5,26],[35,55],[4,47],[-34,-12],[-47,13],[-37,54]],[[4856,3730],[119,-36],[2,-41],[-15,-32],[-6,-36],[-18,0],[-4,-25],[-17,-26],[-46,-106],[-2,-40],[-12,-56],[17,-113],[78,-2],[30,-25]],[[4982,3192],[-11,-9],[3,-27],[-20,-6],[-57,-110],[-58,-45],[-13,-23],[13,-20],[-28,-26],[11,-44],[-16,-17],[2,-26],[-14,-19],[-48,-29],[-16,-26],[-25,15],[-10,19],[-16,-9],[-13,15],[-37,5],[-44,-63],[7,-15]],[[4592,2732],[-66,5],[-7,19],[-38,54],[-2,35],[31,47],[-20,30],[-16,56],[-29,25],[-15,26]],[[4430,3029],[-7,28],[4,30],[-15,15],[-60,-1],[-27,-6],[-14,-14],[-22,16],[-3,30],[22,34],[12,36],[-14,67],[-10,15],[-37,7],[-10,23],[7,47],[13,27],[0,28]],[[4269,3411],[-10,15],[9,32],[-15,12],[-2,35],[-14,-4],[-22,29],[29,27],[56,13],[16,-7],[4,21],[24,7],[39,-8],[24,24],[20,73],[-3,30]],[[4424,3710],[56,-10],[2,8],[70,-2],[10,10],[60,-2],[55,29],[43,-11],[51,-73],[28,13],[57,58]],[[4652,4559],[-15,-33],[13,-10],[-10,-18],[-29,-13],[3,-55],[11,-36],[29,-53],[-13,-36],[-24,15],[-19,-13],[-42,-91],[-5,-34],[-35,-30],[-74,-33],[-50,-1],[-23,-32]],[[4369,4086],[-53,2],[-36,-6],[-36,3],[-14,33],[-81,69],[-5,-12],[-69,16],[-29,-4],[-51,27],[-12,-23],[-99,1],[-97,17],[-10,-9],[-42,11],[-34,15],[-22,1],[-29,-25],[-15,25],[-77,25],[-23,29],[-45,12],[0,13],[-44,5],[-13,10]],[[3433,4321],[0,18],[-36,60],[-1,32]],[[4889,3819],[-14,-18],[-19,-71]],[[4424,3710],[9,43],[18,31],[17,48],[-20,1],[-47,30],[-20,28],[-21,43],[30,34],[-23,46],[24,9],[3,28],[-19,7],[-6,28]],[[6366,4604],[87,17],[53,15],[78,-3],[8,-10],[40,-7],[35,13],[23,-19],[4,-23],[43,-8],[42,11],[52,31],[51,8],[72,-26],[15,8],[51,-2],[18,-16],[36,-13],[-2,-89],[63,-2],[63,23],[70,14],[6,-4],[7,-51],[20,-36],[26,-30]],[[7327,4405],[17,-21],[-39,-54],[-19,15],[-14,-28],[-18,-7],[-19,-38]],[[7235,4272],[-11,5],[-18,-38],[-32,-4],[-4,-27],[-22,-11],[13,-24],[-22,-23],[-14,21],[-27,-14],[3,-18],[-22,11],[1,-36],[-72,14],[-1,-12],[-37,-23],[-34,-7],[3,-30],[-32,-11],[-8,13],[-36,-24],[-21,13],[3,-22],[-18,1],[-21,-21],[-2,-23],[-44,-31],[-25,-41],[-19,-7],[-2,-70],[11,-10],[31,1],[27,25],[33,5],[-32,-74],[-28,-32],[-24,-38],[-3,-77],[33,-44],[-6,-47],[-23,-51]],[[4269,3411],[-68,-12],[-29,1],[-28,14],[-56,13],[-19,22],[-62,20],[-18,20],[-67,44],[-36,-7],[-17,16],[8,15],[-4,50],[-49,21],[-30,1],[-78,57],[-12,-9],[-19,15],[-37,-2],[-52,-20],[-40,-26],[-36,6],[-37,17],[-4,13],[-29,-14],[-14,-17],[-18,6],[-23,65],[-19,-3],[-12,-27]],[[3364,3690],[-6,15],[-22,1],[3,37],[-9,16],[-28,12],[9,21],[26,8],[9,19],[-20,25],[26,24],[19,46],[-5,11],[8,68],[-15,1],[-35,20],[-1,71],[-20,28],[-13,59],[7,39],[53,10],[53,-24],[20,48],[3,58],[7,18]],[[5053,3248],[-26,-18],[-4,-31],[-41,-7]],[[4724,1423],[20,53],[48,51],[10,20],[-21,100],[-1,35],[62,-2],[120,-59]],[[4962,1621],[-91,-219],[-55,21],[-46,-18],[-46,18]],[[5531,2705],[-1,-27],[49,-441],[21,-132],[-34,-22],[-34,-12],[-29,-42],[-40,-14]],[[5463,2015],[-105,41],[18,48],[-31,32],[-57,47],[-71,24],[-14,22],[0,44],[-37,68],[-69,21],[-16,-7],[-54,4],[-37,29],[-98,11],[-46,17],[-73,16],[-89,27]],[[4684,2459],[37,35],[1,24],[30,12],[14,28],[-9,25],[-45,-5],[-47,40],[13,16],[6,38],[-31,9],[-15,15],[-18,-2],[-15,19],[-14,-5],[1,24]],[[4724,1423],[-13,-15],[-28,10],[-105,20],[-55,19],[-52,-10],[-22,4],[-99,-11]],[[4350,1440],[-1,46],[47,88],[7,56],[-4,47],[1,62],[-37,27],[0,20],[22,34],[13,53],[16,15],[55,27],[46,42],[28,43],[28,58],[16,46],[3,33],[17,18],[14,48],[30,61],[20,-10],[1,67],[24,20],[4,16],[21,3],[-8,24],[-27,16],[-11,37],[9,22]],[[5463,2015],[-42,-22],[-29,-7],[-33,-35],[-12,-33]],[[5347,1918],[-16,-22],[-79,-64],[-19,-12],[-107,-91]],[[5126,1729],[-40,14],[-32,-50],[0,-22],[-22,-26],[-9,-23],[-26,-16],[-35,15]],[[5126,1729],[62,-27],[9,-14],[27,-1],[8,-12],[-6,-123],[3,-54],[-70,-137]],[[5159,1361],[-21,-35],[-28,-65],[-104,-196],[-9,-32],[0,-144],[6,-132],[-21,-49],[-40,-72],[-16,-90],[-57,-123],[1,-15],[84,-139]],[[4954,269],[-42,4],[-27,17],[-45,9],[-75,-6],[-117,1],[-44,-4],[-23,-10],[-23,-30],[-44,-29],[-55,0],[-46,21],[-66,14],[-86,39],[186,454],[-36,38],[-69,35],[-29,30],[-32,22],[-22,24],[-58,6],[-40,34],[-23,-3],[0,-18],[36,-46],[3,-34],[-12,-33],[2,-45],[-52,1],[-82,35],[-21,-18],[-19,-31],[-35,-1]],[[3958,745],[-49,35],[-17,51],[-8,45],[17,18],[8,40]],[[3909,934],[82,61],[35,22],[27,32],[44,67],[31,5],[11,-23],[28,-13],[13,9],[13,44],[40,-10],[-14,56],[-25,-1]],[[4194,1183],[72,87],[14,49],[-16,40],[-1,32],[14,29],[18,7]],[[4295,1427],[55,13]],[[5159,1361],[266,-8],[178,3]],[[5603,1356],[0,-76],[-28,5],[-10,-40],[-21,-42],[-28,-21],[-19,-28],[-31,-10],[-24,-21],[-20,-35],[52,-4],[66,-26],[118,-88],[165,-12],[148,-291],[24,-10],[151,-43],[-8,-50],[-10,-23],[14,-19],[-7,-16],[-47,-39],[-60,-9],[-34,-18],[72,-73],[1,-14],[-37,-134]],[[6030,219],[-38,7],[-121,40],[-70,-16],[-66,-1],[-35,-16],[4,-72],[-42,-9],[-25,6],[18,41],[-77,32],[-18,13],[-87,9],[-41,13],[3,-53],[-71,-39],[-63,-19],[-56,-8],[-44,9],[-69,24],[-131,33],[-47,56]],[[5347,1918],[204,-15],[73,-3],[98,3],[57,-22],[79,-11],[40,-28],[43,-11],[15,48],[44,-8],[12,37],[74,-20],[-1,-12],[25,-9],[38,-25],[35,-15]],[[6183,1827],[-66,-17],[-77,-12],[-27,-94],[-4,-55],[-35,-84],[-9,-67],[9,-58],[-18,-17],[-8,-79]],[[5948,1344],[-52,-1],[-26,-15],[-29,-50],[-21,16],[-30,-3],[-56,48],[-18,33],[-46,7],[-11,-35],[-56,12]],[[5948,1344],[49,-6],[13,-11],[26,4],[45,-26],[31,-5]],[[6112,1300],[29,-10],[-1,-13],[37,3],[55,-35],[21,-35],[-17,-76],[19,-18]],[[6255,1116],[-10,-56],[16,-6],[5,-75],[38,-76],[27,-103],[-4,-118],[5,-97],[5,-54],[21,-43],[61,-86],[54,-62],[69,-31],[25,-20]],[[6567,289],[-51,-33],[-79,2],[-181,-4],[-26,-22],[-47,-14],[-42,5],[-69,-12],[-42,8]],[[6183,1827],[6,-163],[3,-27],[-6,-57],[-24,-91],[2,-17],[-32,-124],[-20,-48]],[[6612,2420],[43,14],[27,-31],[49,-38],[0,-16],[27,-22],[1,-17],[30,-27],[33,-18],[18,-46],[12,-13]],[[6852,2206],[-15,-60],[-11,-149],[-23,-209],[-22,-46],[-49,-25],[-24,-37],[-18,-76],[-24,-71],[-21,-84],[-1,-35],[-27,-30],[-24,8],[-10,-9],[26,-18],[-18,-22],[2,-17],[35,-17],[41,17],[28,-21],[40,19],[8,-74]],[[6745,1250],[-16,15],[-35,1],[-1,-25],[-33,-18],[-23,-1],[-9,-18],[-23,1],[-24,-39],[-32,-16],[-13,10],[-7,-20],[-15,6],[-21,-13],[-20,-30],[-28,6],[-29,22],[-16,-8],[-31,29],[-35,-5],[-23,-20],[-23,7],[-33,-18]],[[6183,1827],[83,-22],[40,92],[9,12],[32,98],[-2,68],[-38,33],[7,72],[-10,75],[19,120]],[[3585,2964],[-13,-44],[-19,-28],[-6,-39],[24,-68],[48,-40],[19,2],[23,21],[13,-6],[19,-34],[36,-26],[5,-28],[-7,-52],[-32,-6],[-22,-23],[-4,-50],[-12,-29],[-3,-41],[5,-72]],[[3659,2401],[29,-49],[-23,-28],[7,-39],[-22,-28]],[[3650,2257],[-30,4],[-159,-3],[-43,-6],[-72,-17],[15,-47],[-16,-28],[3,-13],[-33,-4],[-4,9],[-33,-16],[-30,-6],[1,-19],[-55,5]],[[3194,2116],[-17,69],[-4,71],[11,7],[7,29],[-13,18],[13,45],[-36,29],[-86,-38],[-21,4],[-87,52],[-51,48],[-20,-8],[-7,33],[31,45],[-12,30],[9,18],[-32,15],[22,19],[-6,29],[11,8],[-26,54]],[[2880,2693],[59,-4],[69,-45],[20,0],[77,43],[40,37],[28,37],[127,39],[9,28],[-23,60],[-15,5],[-15,39],[-25,17],[3,47],[-16,25],[7,36],[-14,15],[-5,29],[11,23],[52,58],[45,83]],[[3314,3265],[18,1]],[[3332,3266],[-15,-35],[40,-69],[22,1],[26,-20],[8,-36],[34,-3],[38,12],[39,-39],[65,0],[16,-13],[-4,-32],[-14,-20],[-2,-48]],[[2880,2693],[-3,32],[-29,-4],[-42,6],[-20,11],[4,-35],[-20,18],[-33,10],[-10,43],[-21,-8],[0,-30],[-15,-11],[-30,23],[-4,-34],[-42,24],[-16,-33],[-27,5],[-91,-12],[-43,-13],[-90,-36],[-74,-34],[-84,-44],[-17,-2]],[[2173,2569],[46,51],[44,78],[21,77],[5,38],[6,119],[-6,104],[0,51],[8,49]],[[2297,3136],[23,13],[4,39],[27,-19],[-6,-45],[17,-2],[-6,27],[19,16],[-12,28],[24,11],[15,37],[25,-3],[8,11],[-17,38],[17,30]],[[2435,3317],[0,26],[13,60],[15,4],[9,55],[-31,29],[7,56],[17,43],[15,16],[81,37],[20,16],[36,53]],[[2617,3712],[10,-7],[54,2],[130,24],[61,2],[64,9],[15,-5],[7,-31],[34,-77],[12,-2],[-5,-73],[3,-77],[7,-18],[-9,-22],[61,-18],[5,-48],[55,-35],[32,-44],[36,-18],[71,-18],[54,9]],[[3194,2116],[1,-92],[-5,-86],[-19,-43],[-21,-28]],[[3150,1867],[-35,2],[-73,-17],[-38,-2],[-39,-12],[-73,-4],[-5,10],[-36,-2],[-53,7],[-149,13],[-69,12],[-183,25],[-88,6],[-124,-24],[-57,11],[-42,0],[-108,-24],[-78,-37],[-2,-20],[26,-104],[2,-143],[-13,-167],[-1,-63],[-12,-74],[-8,-8]],[[1892,1252],[-3,18],[-34,19],[-7,35],[-41,33],[-13,68],[-13,12],[-19,70],[24,-2],[24,30],[-12,61],[-31,1],[0,29],[-14,15],[-22,-10],[-43,19],[-17,46],[-9,2],[-27,41],[-20,10],[11,14],[18,48],[-3,19],[16,23],[-14,40],[7,23],[-25,25],[9,9],[-10,29],[-17,-4],[-9,32],[-17,16],[-12,39],[13,15],[-9,43],[-28,4],[-12,19],[3,21],[27,31],[28,4]],[[1591,2199],[22,-6],[24,17],[30,-24],[10,-31],[26,-26],[33,-12],[6,-24],[38,-16],[15,51],[12,118],[19,76],[65,55],[26,8],[15,73],[19,20],[16,-5],[13,16],[13,-9],[50,24],[62,10],[31,17],[15,25],[22,13]],[[4295,1427],[-36,16],[-56,33],[-43,60],[-51,34],[-18,41],[-72,59],[-61,65],[-26,35],[-45,75],[-22,47],[-38,71],[-47,75],[-23,-8],[-33,79],[-29,19],[-21,43],[-24,86]],[[3659,2401],[46,2],[66,-12],[133,-18],[80,-5],[59,-12],[129,-12],[22,5],[33,47],[4,92],[9,84],[33,28],[-161,86],[123,2],[60,-6],[71,10],[86,-2],[54,7],[86,35]],[[3585,2964],[14,-4],[253,46],[100,-16],[27,7],[64,-6],[83,-1],[131,27],[53,19],[120,-7]],[[3150,1867],[26,-35],[20,-47],[5,-37],[32,-53]],[[3233,1695],[-8,-32],[1,-50],[56,-62],[24,-41],[15,-57],[-7,-35],[8,-9]],[[3322,1409],[-40,-39],[-36,-49],[-82,-92],[-24,11],[-10,-9],[-9,-39],[-30,9],[-21,-13],[-6,-41],[-19,-3],[-35,25],[-21,-10],[-7,-21],[-35,-14],[-38,6],[-173,-61],[-24,-37],[-26,-12],[-77,19],[-40,-11],[-15,-70],[8,-66],[-31,-10],[-122,-72],[-18,-32],[-60,-18],[-84,-84],[-16,-9],[-73,1]],[[2158,668],[18,44],[20,0],[7,21],[-23,43],[6,31],[-20,35],[-26,19],[-30,-1],[-64,88],[-15,-4],[-37,43],[-12,43],[-40,58],[-18,42],[-4,45],[-37,62],[9,15]],[[3322,1409],[1,-39],[-8,-52],[-22,-8],[-4,-54],[18,-25],[-17,-31],[-20,-17],[-28,-41],[-16,-59],[4,-55],[19,-51],[26,-31]],[[3275,946],[-22,-19],[-17,-39],[-6,-47],[-12,-3],[-18,-65],[-17,-120],[-20,-114],[-42,-116],[-13,-74],[8,-8],[118,-77]],[[3234,264],[-25,-31],[-30,-19],[-48,-13],[-34,-2],[-25,-42],[-48,-25],[-16,-24],[-66,18],[-51,-7],[-51,5],[-13,15],[-42,19],[-36,1],[-46,10],[-13,41],[-31,5],[-18,-27],[-36,-1],[-35,17],[-108,-3],[-23,-64],[-33,4],[-59,54],[-5,31],[-20,21],[11,78],[-16,14],[-28,85],[5,17],[-28,26],[-5,59],[-33,12],[-26,24],[-21,-18],[-16,14],[4,80],[-11,30]],[[3909,934],[-7,44],[20,16],[-21,30],[-22,4],[-11,-50],[-33,5],[-12,-44],[-31,12],[-29,0],[-9,-32],[-12,11],[-81,-17],[-63,-42],[-50,0],[-36,22],[-55,9],[-73,25],[-20,14],[-45,14],[-44,-9]],[[3233,1695],[88,1],[38,20],[45,9],[38,-12],[21,-39],[32,-37],[38,-59],[20,-67],[38,-60],[54,-63],[35,-49],[22,-18],[110,4],[72,-19],[60,20],[82,20],[45,-28],[96,-101],[27,-34]],[[3958,745],[1,-44],[26,-21],[5,-17],[20,-6],[0,-58],[-9,-22],[-29,-7],[-17,-22],[-32,-14],[-53,0],[-3,-15],[-27,-15],[-19,6],[-3,-22],[-31,-11],[-15,-28],[-50,-5],[-34,-14],[-22,-23],[-13,-30],[-71,-42],[-46,-3],[-12,-18],[-22,-10],[-7,-22],[-32,7],[-44,33],[14,65],[-1,27],[14,17],[-30,95],[-30,34],[-27,15],[-34,3],[-40,-10],[-38,-21],[-24,-39],[-9,-48],[-50,-73],[-4,-23],[74,-100]],[[3332,3266],[0,29],[-22,143],[48,25],[17,-1],[-2,53],[-13,102],[4,73]],[[3323,7430],[-130,7],[-73,-4],[-88,4],[-54,28],[-40,-7],[-171,-9],[-77,-2],[-177,3],[-60,16],[-178,10]],[[2275,7476],[-7,34],[-23,29],[-32,13],[4,57],[34,14],[-20,39],[-16,3],[0,43],[27,33],[30,26],[-3,29],[10,6],[7,64],[-15,30],[19,48],[-4,24],[25,5],[8,31],[83,82],[42,32],[40,17],[23,-6],[12,48],[2,51],[-16,81],[11,89]],[[2516,8398],[27,27],[17,30],[16,73]],[[2576,8528],[65,11],[66,-12],[98,3],[184,-19],[30,-27]],[[3019,8484],[37,-88],[37,-29]],[[2576,8528],[6,16],[22,195],[-20,38],[-17,62],[-17,85],[-146,50],[-158,124],[26,32],[21,50],[-2,25]],[[2291,9205],[41,-16],[34,-5],[88,-1],[27,10],[-1,26],[-16,30],[-46,47],[-29,51],[10,21],[22,11],[23,34],[40,26],[34,-20],[36,18],[31,-3],[24,8],[12,21],[-3,22],[-37,40],[14,63],[-3,23],[62,-38],[12,3],[-3,50],[21,28],[-67,40],[-44,-2],[-20,7],[3,38],[-18,23],[-5,32],[59,3],[-4,29],[-21,46],[9,29],[-22,22],[-10,45],[24,31],[11,-22],[38,-41],[27,-14],[15,8],[26,-17],[16,10],[-3,36],[49,-13],[57,2],[41,35],[10,18],[-2,-44],[-8,-4],[9,-40],[-15,-59],[20,-31],[12,-45],[-4,-30],[18,-6],[70,-45],[11,-2],[11,-67],[-12,-32],[10,-30],[51,19],[12,-18],[17,-65],[-1,-111],[6,-89],[-4,-107],[-21,-148],[1,-148],[13,-135],[7,-31],[20,-22],[7,-44],[-26,-26],[-10,-23],[-6,-57],[-22,-75]],[[2626,6344],[2,88],[-7,31],[-77,169],[-39,117],[-10,80],[0,64],[-13,84],[19,-4],[31,52],[-33,50],[-26,23],[-4,30],[9,70],[13,19],[-10,20],[-59,4],[-47,33],[-29,6]],[[2346,7280],[10,62],[-6,17],[-48,26],[-27,91]],[[1057,6002],[4,37],[-13,64],[27,93],[7,74],[17,49],[41,52],[38,77],[47,75],[23,50],[-3,41],[-26,118],[-1,55],[14,78],[86,79],[9,28],[-34,40],[146,161]],[[1439,7173],[113,47],[65,47],[95,-14],[69,-3],[121,5],[77,-14],[61,8],[116,43],[27,1],[19,-46],[58,14],[48,-21],[38,40]],[[461,5398],[-14,11],[-9,34],[-5,-20],[-34,48],[-11,24],[-30,9],[20,111],[-20,53],[-21,-8],[-21,12],[-23,-2],[-8,23],[-17,7],[-1,60],[-22,22],[1,17],[-24,9],[-24,64],[-25,84],[-24,25],[-9,25],[1,73],[-10,24],[-72,74],[-25,36],[-24,50],[-10,69],[36,115],[60,105],[22,55],[15,58],[9,76],[-13,149],[-7,137],[2,46]],[[124,7073],[106,39],[101,4],[76,-4],[13,22],[43,5],[178,31],[56,27],[19,15],[33,45],[49,33],[81,29],[20,18],[28,-1],[46,-12],[8,-42],[-6,-39],[18,-11],[39,9],[24,-21],[28,7],[119,-56],[63,-19],[60,-4],[113,25]],[[7235,4272],[26,-19],[32,-12],[24,17],[47,13],[51,-27],[8,-15],[46,-22],[16,-77],[35,-88],[-36,-112],[-3,-44],[12,-64],[40,6],[23,-17],[0,-18],[41,-19],[23,11],[46,-23],[70,-3],[28,18],[33,-3],[10,-36],[-3,-42],[-11,-23],[-26,-7],[-2,-17],[17,-55],[36,-24],[-22,-34],[-9,19],[-29,11],[-6,-24],[-18,0],[4,-24],[-17,8],[-45,-60],[-29,-55],[-19,-1],[-10,-28],[-14,8],[-19,-39],[-50,-22],[-11,-26],[-15,-5],[-19,-29],[-32,25],[-31,-14],[-12,7],[-23,-13],[-1,-17],[-22,-7],[-10,-50],[-14,7],[-18,-30],[-47,-1]],[[7280,3176],[-11,29],[-68,-17],[-10,-10],[-36,-4],[-12,21],[-8,66],[-51,-34],[-40,12],[-7,26],[-57,-19],[1,-7],[-49,2],[-49,-7],[-36,2],[-16,-16],[-24,11],[-35,2],[-8,-9],[-41,7],[-26,-27],[-30,-10],[-22,-55],[-23,-4],[-14,-18],[-74,-15],[-3,7]],[[7327,4405],[13,49],[21,-4],[21,27],[27,19],[9,-10],[61,-4],[8,16],[33,-14],[-3,19],[26,11],[23,-18],[3,37],[31,2],[18,-9],[-3,-24],[15,0],[17,23],[9,-17],[45,29],[17,-15],[11,21],[34,5],[10,-14],[24,-1],[43,27],[68,-17],[19,26],[31,-8],[39,10],[21,35],[26,-15],[14,32],[32,14],[20,45],[18,-2],[26,32],[49,8],[-2,15],[20,6],[38,28],[34,6],[11,-7],[8,21],[15,0],[33,30],[21,7],[-2,15],[43,2]],[[8422,4843],[98,-18],[-10,-28],[6,-29],[-17,-53],[2,-30],[-50,-74],[-36,-1],[-7,-9],[10,-42],[-11,-14],[-25,6],[-5,-35],[25,-6],[-4,16],[38,-1],[24,13],[11,-25],[52,-11],[26,33],[36,-2],[7,18],[78,-12],[10,-23],[28,-5],[13,25],[13,-6],[-6,31],[14,-10],[10,15],[19,-3],[16,17],[15,-5],[-24,40],[15,32],[24,30],[18,35],[30,22],[28,-2],[3,11],[61,-48],[41,-52],[21,-42],[9,-53],[-11,-1],[-53,-49],[-34,-20],[-1,-26],[-23,24],[-57,-97],[-87,-160],[-25,-61],[-31,-62],[-59,-101],[-22,-46],[-40,-61],[-44,-82],[-173,-310],[-60,-104],[-56,-92],[-93,-159],[-32,-87],[-27,-35],[1,-17],[46,-26],[4,-80],[14,-16],[64,-39],[2,-21],[-18,-81],[17,-58],[-1,-43],[18,-44],[-38,-81]],[[8209,2513],[-82,38],[-85,-2],[-57,6],[-20,-3],[-54,9],[-37,35],[-42,17],[-34,4],[-42,21],[-31,7],[-51,31],[-49,49],[-15,25],[-22,8],[-1,65],[-51,-1],[-59,7],[-40,-5],[-53,-56],[-49,24],[0,74],[8,32],[-29,126],[3,10],[-13,98],[-10,34],[-14,10]],[[7876,5482],[35,21],[11,23],[36,31],[30,-6],[27,32],[109,-40],[-2,33],[10,14],[30,2],[14,-59],[24,-62],[-1,-53],[-28,-41],[-9,-25],[14,-56],[-5,-89],[8,-48],[25,-78],[22,-20],[21,-57],[28,-27],[81,-31],[61,-14],[14,-33],[-10,-10],[7,-34],[-6,-12]],[[8209,2513],[1,-57],[-52,-176],[-59,-162],[-17,-52],[-50,-180]],[[8032,1886],[-90,50],[-47,-23],[-4,12],[-32,-9],[9,23],[-33,-7],[8,18],[-17,21],[-24,7],[-17,-30],[-18,4]],[[7767,1952],[-32,24],[4,15],[-28,32],[-47,-6],[-19,-27],[-31,-16],[-25,13],[-50,1],[-20,-11],[-8,16],[-54,-6],[-7,22],[-14,-17],[-53,18],[13,10],[-39,9],[-30,20],[-16,35],[-29,-14],[-40,11],[-17,-13],[-26,4],[-51,24],[-13,16],[-39,7],[-39,35],[-16,-5],[-45,36],[-60,-17],[-26,15],[-49,11],[-9,12]],[[5528,8224],[124,-4],[177,9],[89,15],[35,-3],[36,14],[15,16],[-4,37],[31,9],[-18,74],[-18,22],[31,4],[18,12],[15,28],[7,-9],[25,16],[22,1],[12,17],[-13,19],[25,14],[-21,41]],[[6116,8556],[34,-2],[39,-151],[26,-162],[2,-51]],[[6217,8190],[98,-78],[38,-23],[13,-27],[13,0],[6,-39],[9,0],[10,-35],[-21,-31],[2,-46],[-8,-11],[43,-30],[83,-95]],[[6503,7775],[51,-46],[41,-45],[50,-61],[19,-37],[-2,-81],[20,-4],[20,-46]],[[6217,8190],[55,4],[9,-18],[23,-1],[6,14],[21,-14],[29,-3],[36,13],[38,-1],[2,18],[35,2],[24,-19],[5,20],[26,6],[131,64],[38,22],[114,93]],[[6809,8390],[41,24],[57,17],[49,-5],[94,-24],[70,3],[77,25],[45,0],[41,-7]],[[7283,8423],[-6,-30],[10,-11],[-11,-27],[0,-58]],[[7276,8297],[-11,-37],[-17,-1],[-6,-33],[-27,-45],[-56,4],[-22,18],[-34,-19],[-30,-37],[-30,-16],[-52,-3],[-42,-22],[-20,8],[-42,-10],[-4,-15],[-27,3],[-5,20],[-27,22],[-39,-16],[-22,7],[-62,-107],[-15,-19],[-115,-63],[-16,-21],[-32,-113],[-20,-27]],[[6809,8390],[-25,16],[22,91],[16,49],[18,87],[-61,13],[21,24],[29,54],[-30,8],[7,37],[-10,25],[26,99]],[[6822,8893],[19,18],[12,-6],[32,19],[-1,12],[38,7],[57,-16],[41,15],[18,15],[16,-3],[5,20],[40,28],[27,6],[22,33],[0,16],[21,41],[66,15],[17,29],[59,-66],[7,-25],[-12,-46],[6,-53],[-12,-37],[-1,-73],[-6,-14],[26,-66],[-10,-63],[-2,-68],[6,-54],[-10,-53],[-7,-80],[-13,-21]],[[6116,8556],[-22,20],[18,17],[-2,29],[13,4],[9,26],[-16,4],[43,16],[1,39],[31,-2],[41,14],[-2,19],[14,17],[23,-17],[2,35],[33,54],[57,0],[41,5],[76,28],[34,43],[27,9],[26,-18],[48,30],[46,-64],[16,19],[47,-10],[51,16],[17,14],[34,-10]],[[7276,8297],[49,9],[10,-25],[-6,-26],[39,20],[19,-10],[8,-24],[1,-47],[-9,-11],[10,-63],[-37,-40],[-3,-46],[18,-30],[11,-123],[-18,-115],[-10,-89],[5,-57],[19,-57],[-7,-28],[-88,-45],[-27,-32],[-28,-19],[-11,13],[-22,-29],[-32,-10]],[[2297,3136],[-25,-4],[-21,32],[-12,-29],[-22,-17],[3,-33],[-16,-3],[-8,24],[-35,10],[-13,-30],[-24,-9],[-14,36],[-19,-4],[-7,-23],[8,-22],[-25,-8],[-6,18],[-33,23],[-16,-1],[-27,48],[-30,1],[-15,11],[-20,-5],[-28,-37],[-20,-7],[-41,23],[30,52],[-21,20],[2,27],[-11,19],[-36,1],[-7,-22],[-20,-11],[-27,35],[-35,-4],[-23,-21],[-34,13],[-32,-21],[-46,15],[-17,-24],[-40,-15],[-20,16],[-18,50],[-27,6],[-10,35],[-35,-7],[1,-33],[-19,0],[-2,-22],[-21,8],[-24,-5],[-6,-30],[-13,1],[-5,-30],[-13,-3],[-9,22],[-18,8],[-17,-16],[-32,31],[-24,4],[-18,22],[-35,13]],[[1149,3264],[-10,57],[-16,20],[-21,-18],[-17,4],[-64,-17],[-21,9],[-25,-26],[-36,67],[-86,46],[-36,2],[-19,-8],[-15,18],[-25,-6],[-23,8],[-34,51],[-33,9],[9,46],[-8,15]],[[669,3541],[41,39],[6,14],[44,21],[-6,19],[38,21],[36,28],[10,28],[46,23],[50,-39],[12,-32],[-11,-29],[13,-10],[42,-1],[29,-45],[32,4],[29,56],[38,-7],[1,-27],[-22,-29],[26,-29],[52,10],[29,-46],[44,32],[34,-30],[23,19],[33,4],[21,-9],[19,23],[43,-16],[33,12],[-2,11],[77,14],[55,33]],[[1584,3603],[72,35],[41,10],[96,-81],[35,-8],[33,-22],[21,8],[40,-17],[81,-22],[7,-47],[46,1],[29,-9],[-2,-26],[20,-19],[75,-13],[35,-19],[55,-6],[-1,-15],[105,-12],[22,-19],[41,-5]],[[1591,2199],[-5,16],[-32,15],[-21,24],[-28,13],[-67,64],[-6,58],[-16,19],[-35,-8],[-8,31],[-19,23],[-17,55],[29,55],[-13,21],[10,23],[-53,67],[-58,5],[-16,23],[-44,39],[-8,29],[-42,46],[-3,24],[23,11],[22,24],[4,57],[27,29],[43,88],[-14,13],[1,49],[-53,-5],[-36,3],[-17,25],[10,38],[-30,35],[19,54],[11,2]],[[1734,4498],[-14,-34],[-28,-99],[-25,-140],[-12,-118],[-1,-27],[-13,-30],[-46,-43],[-16,-22],[3,-31],[11,0],[42,-53],[33,-62],[-3,-71],[5,-38],[-62,-19],[9,-13],[-18,-29],[-15,-66]],[[669,3541],[-12,14],[7,44],[-39,38],[-25,-8],[-32,17],[-7,34],[-33,18],[-10,31],[-14,1],[111,71],[54,-1],[43,55],[-6,20],[32,25],[16,0],[-6,28],[26,23],[3,41],[-49,59],[-76,76],[-57,115],[-37,98],[-25,75],[-65,114],[-6,48],[55,46],[16,46],[-2,95],[24,54]],[[2617,3712],[-15,88],[5,149],[14,92],[-6,132],[27,58],[24,36],[45,54],[40,58],[30,28],[37,11],[-6,54]],[[8032,1886],[-26,-93],[9,-22],[-41,-16],[12,-36],[24,-25],[19,14],[33,-23],[23,29],[14,-13],[32,19],[-5,42],[19,14],[6,23],[21,3],[8,23],[36,6],[0,-27],[14,27],[28,-33],[5,-55],[8,-1],[0,-72],[15,-30],[30,-4],[21,-22],[0,-34],[22,-14],[-5,-15],[27,-17],[45,12],[16,-23],[58,11],[6,-36],[17,4],[9,-32],[20,13],[15,-38],[24,20],[29,-6],[16,36],[19,-18]],[[8655,1477],[-2,-46],[-26,-53],[-6,-31],[-3,-77],[-17,-24],[-30,-139]],[[8571,1107],[-231,180],[-63,86],[-55,104]],[[8222,1477],[-19,-23],[-24,15],[-22,-26],[-36,-17],[-11,-23],[-66,-5],[8,-20],[-28,10],[-80,12],[-45,12],[-162,67],[-51,28],[-28,1],[-3,18],[-31,-14]],[[7624,1512],[6,78],[40,18],[20,-20],[-5,239],[82,125]],[[8655,1477],[32,2],[-1,-17],[18,-17],[16,14],[24,-3],[21,-32],[7,25],[24,-15],[3,16],[36,4],[18,-12],[48,23],[37,-17],[20,15],[23,-38],[16,12],[15,-12],[19,13],[18,-13],[81,6],[0,-36],[21,-23],[23,28],[16,-30],[34,-11],[28,9],[19,-15],[19,-37],[0,-22],[13,13],[12,-27],[29,-13],[11,6],[29,-16],[47,-5],[7,10],[60,-14],[0,13],[32,-23],[-6,-12],[21,-26],[12,3],[2,-29],[13,4],[20,-20],[26,-5],[-3,-14],[18,-50],[35,17],[37,-19],[18,4],[61,-66],[39,-21],[7,-17],[-17,-23],[7,-16],[-6,-51],[-15,-28],[16,-27],[-37,-28],[-16,0],[-11,-41],[-13,-2],[3,-29],[-14,-28],[5,-21],[23,-33],[-13,-15],[28,-31],[31,-4],[20,-14],[27,-38],[47,-18],[2,-21],[26,-51],[18,-16],[-13,-54],[7,-39],[14,5],[7,-47],[25,-10],[-8,-10],[24,-30],[2,-32],[-38,-60],[-20,-8],[-21,12],[-50,4],[-15,13],[-31,-16],[-10,24],[-35,7],[-7,-21],[-48,-1],[-15,-29],[-58,-15],[-22,17],[-35,3],[18,18],[5,29],[-26,42],[-36,-4],[-26,27],[-59,35],[-12,16],[-10,107],[-14,30],[-29,31],[-7,21],[-4,63],[14,60],[-7,49],[-50,60],[-13,33],[14,54],[-33,19],[6,26],[-19,33],[-44,8],[-11,47],[-65,5],[-31,10],[-119,-23],[-42,-5],[-84,16],[-32,-6],[-74,4],[-142,49],[-35,38],[-56,50]],[[6745,1250],[11,-12],[76,12],[27,-13],[24,3],[40,-12],[24,6],[32,24],[54,-23],[10,12],[41,11],[28,16],[7,17],[27,20],[23,-3],[31,-32],[53,31]],[[7253,1307],[-84,-244],[-18,-39],[-26,-97],[8,-74],[22,-74],[29,-125],[23,-38],[-6,-34],[61,-121],[42,-93]],[[7304,368],[-31,-20],[-62,18],[-22,-34],[-26,18],[-17,-19],[-22,15],[-19,-2],[-6,-24],[-16,-11],[-8,-42],[-24,-13],[-15,-49],[-29,-29],[-38,23],[-20,0],[-11,-36],[8,-18],[-62,-60],[-24,11],[-9,17],[-27,2],[-29,-20],[2,-17],[-26,-11],[-17,23],[-17,-29],[-24,-3],[-4,-20],[-26,13],[-53,-21],[3,-19],[-27,-11],[-10,23],[-17,11],[-1,45],[25,23],[-13,15],[9,57],[59,5],[33,25],[9,43],[-66,25],[-31,1],[-27,23],[-9,-7]],[[8222,1477],[-14,-26],[-74,-67],[-50,-32],[-9,-28],[-34,-23],[-28,-53],[10,-26],[-8,-31],[-55,-6],[-55,-17],[-34,-24],[-1,-35],[-13,-14],[15,-33],[-19,-36],[-20,-4],[-11,-33],[-14,-7],[-14,-31],[-11,-47],[-46,-33],[-39,-6],[2,-41],[-31,0],[-23,-50],[-26,-7],[-13,-25],[-18,-9],[-13,-35],[-44,0],[-27,-28],[-28,-4],[-55,-56],[-7,-45],[-19,0],[-18,-42],[0,-46],[-34,-40],[-12,-24],[-18,4],[10,-28],[-11,-2],[6,-25],[-15,6]],[[7253,1307],[11,-2],[23,23],[5,31],[36,16],[43,56],[19,-7],[41,6],[29,-19],[51,8],[5,9],[40,5],[6,19],[26,5],[11,35],[25,20]],[[1439,7173],[24,86],[2,126],[-2,66],[-12,33],[-6,72],[-18,32],[-14,58],[-15,104],[-8,30],[-31,-4],[-24,-13],[-25,9],[-53,-12],[-41,-28],[-12,7],[-23,-15],[-64,140],[-4,36],[-38,130],[6,83],[30,134],[34,110],[12,3],[13,58],[15,-3],[26,48]],[[1211,8463],[20,2],[34,27],[27,-3],[11,13],[38,-11],[38,-22],[21,-21],[22,-4],[27,11],[20,-12],[7,17],[22,5],[41,-17],[14,15],[13,-28],[43,-17],[6,-13],[48,-3],[2,-26],[38,7],[44,40],[10,-26],[62,-2],[1,-13],[28,13],[24,-2],[5,-20],[18,-11],[32,20],[32,-9],[27,8],[5,-31],[28,-15],[32,1],[19,-16],[-7,-16],[34,-8],[-9,-23],[71,-33],[52,-4],[16,70],[11,-9],[16,39],[14,3],[2,22],[38,60]],[[2308,8421],[23,-20],[185,-3]],[[124,7073],[1,70],[33,82],[27,43],[2,75],[7,28],[38,103],[17,25],[75,64],[68,96],[72,80],[26,47],[82,120],[48,67],[5,22],[-35,31],[-68,96],[-17,46],[0,73],[-57,19],[-18,-19],[-42,-2],[-58,16],[13,94],[0,28],[-40,-1],[-1,10],[37,67],[10,54]],[[349,8507],[54,-34],[119,-70],[23,-5],[14,-23],[30,7],[28,-15],[29,-6],[24,45],[49,-14],[21,7],[10,30],[19,14],[24,-16],[1,24],[17,37],[-11,9],[26,9],[17,25],[17,51],[16,8],[50,-2],[17,6],[13,-21],[19,25],[23,-23],[14,2],[3,-22],[26,4],[13,15],[28,-12],[-2,-21],[25,-6],[-1,23],[13,0],[14,26],[33,-16],[16,-18],[5,14],[27,-12],[-16,-20],[15,-69]],[[349,8507],[-14,106],[13,49],[-6,43],[27,63],[1,18],[-35,21],[3,63],[11,2],[0,98],[23,13],[21,-6],[48,7],[3,28],[14,23],[18,7],[11,26],[34,11],[12,-14],[30,3],[6,37],[20,15],[49,-25],[15,-35],[43,-24],[-1,-30],[28,-33],[7,-21],[50,-11],[16,14],[22,-1],[44,13],[67,8],[-1,27],[18,13],[100,-7],[21,31],[53,-16],[6,12],[51,18],[5,43],[25,-10],[41,33],[16,29],[30,30]],[[1294,9178],[16,4],[25,-30],[31,-11],[12,-26],[58,18],[29,-18],[29,-5],[12,-14],[29,-4],[57,7],[31,-18],[50,-41],[6,-27],[35,-17],[13,-18],[23,-6],[25,-34],[30,-27],[23,0],[48,17],[8,-16],[29,-115],[13,-111],[8,-21],[31,-36],[4,-25],[-5,-66],[48,9],[68,2],[34,-7],[34,6],[17,-38],[42,-36],[49,-20],[24,-22],[28,-11]],[[1294,9178],[-19,12],[-6,40],[8,31],[-16,33],[1,18],[36,25],[19,4],[53,-10],[21,50],[8,34],[35,1],[46,-26],[6,70],[44,25],[79,19],[46,24],[93,-44],[47,-3],[3,-29],[32,-35],[6,-26],[47,-14],[5,-44],[28,-13],[56,22],[23,3],[1,75],[40,-4],[9,-11],[30,-87],[18,-25],[43,-19],[32,-26],[72,-34],[51,-9]]],"transform":{"scale":[0.00008154083518351606,0.0000729378230823064],"translate":[99.98372525000008,15.919128646000047]},"objects":{"Phichit":{"type":"GeometryCollection","geometries":[{"arcs":[[0,1,2]],"type":"Polygon","properties":{"Shape_Leng":0.187547744993,"Shape_Area":0.000882493675247,"ADM3_EN":"Nai Mueang","ADM3_TH":"ในเมือง","ADM3_PCODE":"TH660101","ADM2_EN":"Mueang Phichit","ADM2_TH":"เมืองพิจิตร","ADM2_PCODE":"TH6601","ADM1_EN":"Phichit","ADM1_TH":"พิจิตร","ADM1_PCODE":"TH66","ADM0_EN":"Thailand","ADM0_TH":"ประเทศไทย","ADM0_PCODE":"TH"}},{"arcs":[[3,4,5,6]],"type":"Polygon","properties":{"Shape_Leng":0.195837457376,"Shape_Area":0.00173295236472,"ADM3_EN":"Phai Khwang","ADM3_TH":"ไผ่ขวาง","ADM3_PCODE":"TH660102","ADM2_EN":"Mueang Phichit","ADM2_TH":"เมืองพิจิตร","ADM2_PCODE":"TH6601","ADM1_EN":"Phichit","ADM1_TH":"พิจิตร","ADM1_PCODE":"TH66","ADM0_EN":"Thailand","ADM0_TH":"ประเทศไทย","ADM0_PCODE":"TH"}},{"arcs":[[-6,7,8,9]],"type":"Polygon","properties":{"Shape_Leng":0.216862686279,"Shape_Area":0.00201160375386,"ADM3_EN":"Yan Yao","ADM3_TH":"ย่านยาว","ADM3_PCODE":"TH660103","ADM2_EN":"Mueang Phichit","ADM2_TH":"เมืองพิจิตร","ADM2_PCODE":"TH6601","ADM1_EN":"Phichit","ADM1_TH":"พิจิตร","ADM1_PCODE":"TH66","ADM0_EN":"Thailand","ADM0_TH":"ประเทศไทย","ADM0_PCODE":"TH"}},{"arcs":[[-4,10,11,12,13]],"type":"Polygon","properties":{"Shape_Leng":0.239367503678,"Shape_Area":0.00226951202646,"ADM3_EN":"Tha Lo","ADM3_TH":"ท่าฬ่อ","ADM3_PCODE":"TH660104","ADM2_EN":"Mueang Phichit","ADM2_TH":"เมืองพิจิตร","ADM2_PCODE":"TH6601","ADM1_EN":"Phichit","ADM1_TH":"พิจิตร","ADM1_PCODE":"TH66","ADM0_EN":"Thailand","ADM0_TH":"ประเทศไทย","ADM0_PCODE":"TH"}},{"arcs":[[-3,14,-13,15,16]],"type":"Polygon","properties":{"Shape_Leng":0.283607406076,"Shape_Area":0.00157110301836,"ADM3_EN":"Pak Thang","ADM3_TH":"ปากทาง","ADM3_PCODE":"TH660105","ADM2_EN":"Mueang Phichit","ADM2_TH":"เมืองพิจิตร","ADM2_PCODE":"TH6601","ADM1_EN":"Phichit","ADM1_TH":"พิจิตร","ADM1_PCODE":"TH66","ADM0_EN":"Thailand","ADM0_TH":"ประเทศไทย","ADM0_PCODE":"TH"}},{"arcs":[[-2,17,18,19,20,21,-8,-5,-14,-15]],"type":"Polygon","properties":{"Shape_Leng":0.343997959369,"Shape_Area":0.00288239759296,"ADM3_EN":"Khlong Khachen","ADM3_TH":"คลองคะเชนทร์","ADM3_PCODE":"TH660106","ADM2_EN":"Mueang Phichit","ADM2_TH":"เมืองพิจิตร","ADM2_PCODE":"TH6601","ADM1_EN":"Phichit","ADM1_TH":"พิจิตร","ADM1_PCODE":"TH66","ADM0_EN":"Thailand","ADM0_TH":"ประเทศไทย","ADM0_PCODE":"TH"}},{"arcs":[[-20,22,23,24]],"type":"Polygon","properties":{"Shape_Leng":0.286067991258,"Shape_Area":0.00299541415066,"ADM3_EN":"Rong Chang","ADM3_TH":"โรงช้าง","ADM3_PCODE":"TH660107","ADM2_EN":"Mueang Phichit","ADM2_TH":"เมืองพิจิตร","ADM2_PCODE":"TH6601","ADM1_EN":"Phichit","ADM1_TH":"พิจิตร","ADM1_PCODE":"TH66","ADM0_EN":"Thailand","ADM0_TH":"ประเทศไทย","ADM0_PCODE":"TH"}},{"arcs":[[-19,25,26,27,28,-23]],"type":"Polygon","properties":{"Shape_Leng":0.273174919359,"Shape_Area":0.00345204852917,"ADM3_EN":"Mueang Kao","ADM3_TH":"เมืองเก่า","ADM3_PCODE":"TH660108","ADM2_EN":"Mueang Phichit","ADM2_TH":"เมืองพิจิตร","ADM2_PCODE":"TH6601","ADM1_EN":"Phichit","ADM1_TH":"พิจิตร","ADM1_PCODE":"TH66","ADM0_EN":"Thailand","ADM0_TH":"ประเทศไทย","ADM0_PCODE":"TH"}},{"arcs":[[-1,-17,29,30,31,-26,-18]],"type":"Polygon","properties":{"Shape_Leng":0.27524902881,"Shape_Area":0.00211501254536,"ADM3_EN":"Tha Luang","ADM3_TH":"ท่าหลวง","ADM3_PCODE":"TH660109","ADM2_EN":"Mueang Phichit","ADM2_TH":"เมืองพิจิตร","ADM2_PCODE":"TH6601","ADM1_EN":"Phichit","ADM1_TH":"พิจิตร","ADM1_PCODE":"TH66","ADM0_EN":"Thailand","ADM0_TH":"ประเทศไทย","ADM0_PCODE":"TH"}},{"arcs":[[-31,32,33,34,35,36]],"type":"Polygon","properties":{"Shape_Leng":0.365484744613,"Shape_Area":0.00482793359054,"ADM3_EN":"Ban Bung","ADM3_TH":"บ้านบุ่ง","ADM3_PCODE":"TH660110","ADM2_EN":"Mueang Phichit","ADM2_TH":"เมืองพิจิตร","ADM2_PCODE":"TH6601","ADM1_EN":"Phichit","ADM1_TH":"พิจิตร","ADM1_PCODE":"TH66","ADM0_EN":"Thailand","ADM0_TH":"ประเทศไทย","ADM0_PCODE":"TH"}},{"arcs":[[-32,-37,37,38,39]],"type":"Polygon","properties":{"Shape_Leng":0.232126129899,"Shape_Area":0.00254922019672,"ADM3_EN":"Kha Mang","ADM3_TH":"ฆะมัง","ADM3_PCODE":"TH660111","ADM2_EN":"Mueang Phichit","ADM2_TH":"เมืองพิจิตร","ADM2_PCODE":"TH6601","ADM1_EN":"Phichit","ADM1_TH":"พิจิตร","ADM1_PCODE":"TH66","ADM0_EN":"Thailand","ADM0_TH":"ประเทศไทย","ADM0_PCODE":"TH"}},{"arcs":[[-39,40,41,42,43,44,45]],"type":"Polygon","properties":{"Shape_Leng":0.352136908568,"Shape_Area":0.00465957437977,"ADM3_EN":"Dong Pa Kham","ADM3_TH":"ดงป่าคำ","ADM3_PCODE":"TH660112","ADM2_EN":"Mueang Phichit","ADM2_TH":"เมืองพิจิตร","ADM2_PCODE":"TH6601","ADM1_EN":"Phichit","ADM1_TH":"พิจิตร","ADM1_PCODE":"TH66","ADM0_EN":"Thailand","ADM0_TH":"ประเทศไทย","ADM0_PCODE":"TH"}},{"arcs":[[-36,46,47,-41,-38]],"type":"Polygon","properties":{"Shape_Leng":0.382587475386,"Shape_Area":0.00500311140655,"ADM3_EN":"Hua Dong","ADM3_TH":"หัวดง","ADM3_PCODE":"TH660113","ADM2_EN":"Mueang Phichit","ADM2_TH":"เมืองพิจิตร","ADM2_PCODE":"TH6601","ADM1_EN":"Phichit","ADM1_TH":"พิจิตร","ADM1_PCODE":"TH66","ADM0_EN":"Thailand","ADM0_TH":"ประเทศไทย","ADM0_PCODE":"TH"}},{"arcs":[[-12,48,49,50,-33,-30,-16]],"type":"Polygon","properties":{"Shape_Leng":0.388366182863,"Shape_Area":0.00521469471455,"ADM3_EN":"Pa Makhap","ADM3_TH":"ป่ามะคาบ","ADM3_PCODE":"TH660115","ADM2_EN":"Mueang Phichit","ADM2_TH":"เมืองพิจิตร","ADM2_PCODE":"TH6601","ADM1_EN":"Phichit","ADM1_TH":"พิจิตร","ADM1_PCODE":"TH66","ADM0_EN":"Thailand","ADM0_TH":"ประเทศไทย","ADM0_PCODE":"TH"}},{"arcs":[[-35,51,52,53]],"type":"Polygon","properties":{"Shape_Leng":0.30750503142,"Shape_Area":0.00287864339798,"ADM3_EN":"Sai Kham Ho","ADM3_TH":"สายคำโห้","ADM3_PCODE":"TH660119","ADM2_EN":"Mueang Phichit","ADM2_TH":"เมืองพิจิตร","ADM2_PCODE":"TH6601","ADM1_EN":"Phichit","ADM1_TH":"พิจิตร","ADM1_PCODE":"TH66","ADM0_EN":"Thailand","ADM0_TH":"ประเทศไทย","ADM0_PCODE":"TH"}},{"arcs":[[-27,-40,-46,54]],"type":"Polygon","properties":{"Shape_Leng":0.245224433971,"Shape_Area":0.00230902707054,"ADM3_EN":"Dong Klang","ADM3_TH":"ดงกลาง","ADM3_PCODE":"TH660120","ADM2_EN":"Mueang Phichit","ADM2_TH":"เมืองพิจิตร","ADM2_PCODE":"TH6601","ADM1_EN":"Phichit","ADM1_TH":"พิจิตร","ADM1_PCODE":"TH66","ADM0_EN":"Thailand","ADM0_TH":"ประเทศไทย","ADM0_PCODE":"TH"}},{"arcs":[[55,56,57]],"type":"Polygon","properties":{"Shape_Leng":0.418195914351,"Shape_Area":0.00538836439367,"ADM3_EN":"Wang Sai Phun","ADM3_TH":"วังทรายพูน","ADM3_PCODE":"TH660201","ADM2_EN":"Wang Sai Phun","ADM2_TH":"วังทรายพูน","ADM2_PCODE":"TH6602","ADM1_EN":"Phichit","ADM1_TH":"พิจิตร","ADM1_PCODE":"TH66","ADM0_EN":"Thailand","ADM0_TH":"ประเทศไทย","ADM0_PCODE":"TH"}},{"arcs":[[-34,-51,58,59,60,-58,-52]],"type":"Polygon","properties":{"Shape_Leng":0.608352376258,"Shape_Area":0.00500892930759,"ADM3_EN":"Nong Pla Lai","ADM3_TH":"หนองปลาไหล","ADM3_PCODE":"TH660202","ADM2_EN":"Wang Sai Phun","ADM2_TH":"วังทรายพูน","ADM2_PCODE":"TH6602","ADM1_EN":"Phichit","ADM1_TH":"พิจิตร","ADM1_PCODE":"TH66","ADM0_EN":"Thailand","ADM0_TH":"ประเทศไทย","ADM0_PCODE":"TH"}},{"arcs":[[-53,-57,61,62,63]],"type":"Polygon","properties":{"Shape_Leng":0.534503672996,"Shape_Area":0.00684031804004,"ADM3_EN":"Nong Phra","ADM3_TH":"หนองพระ","ADM3_PCODE":"TH660203","ADM2_EN":"Wang Sai Phun","ADM2_TH":"วังทรายพูน","ADM2_PCODE":"TH6602","ADM1_EN":"Phichit","ADM1_TH":"พิจิตร","ADM1_PCODE":"TH66","ADM0_EN":"Thailand","ADM0_TH":"ประเทศไทย","ADM0_PCODE":"TH"}},{"arcs":[[-47,-54,-64,64,65]],"type":"Polygon","properties":{"Shape_Leng":0.309563648189,"Shape_Area":0.00444673632329,"ADM3_EN":"Nong Plong","ADM3_TH":"หนองปล้อง","ADM3_PCODE":"TH660204","ADM2_EN":"Wang Sai Phun","ADM2_TH":"วังทรายพูน","ADM2_PCODE":"TH6602","ADM1_EN":"Phichit","ADM1_TH":"พิจิตร","ADM1_PCODE":"TH66","ADM0_EN":"Thailand","ADM0_TH":"ประเทศไทย","ADM0_PCODE":"TH"}},{"arcs":[[-28,-55,-45,66,67,68]],"type":"Polygon","properties":{"Shape_Leng":0.293751866921,"Shape_Area":0.00374070106771,"ADM3_EN":"Pho Prathap Chang","ADM3_TH":"โพธิ์ประทับช้าง","ADM3_PCODE":"TH660301","ADM2_EN":"Pho Prathap Chang","ADM2_TH":"โพธิ์ประทับช้าง","ADM2_PCODE":"TH6603","ADM1_EN":"Phichit","ADM1_TH":"พิจิตร","ADM1_PCODE":"TH66","ADM0_EN":"Thailand","ADM0_TH":"ประเทศไทย","ADM0_PCODE":"TH"}},{"arcs":[[-68,69,70,71,72,73,74]],"type":"Polygon","properties":{"Shape_Leng":0.324564925596,"Shape_Area":0.00415232880314,"ADM3_EN":"Phai Tha Pho","ADM3_TH":"ไผ่ท่าโพ","ADM3_PCODE":"TH660302","ADM2_EN":"Pho Prathap Chang","ADM2_TH":"โพธิ์ประทับช้าง","ADM2_PCODE":"TH6603","ADM1_EN":"Phichit","ADM1_TH":"พิจิตร","ADM1_PCODE":"TH66","ADM0_EN":"Thailand","ADM0_TH":"ประเทศไทย","ADM0_PCODE":"TH"}},{"arcs":[[-24,-29,-69,-75,75,76]],"type":"Polygon","properties":{"Shape_Leng":0.422669760925,"Shape_Area":0.00346137855528,"ADM3_EN":"Wang Chik","ADM3_TH":"วังจิก","ADM3_PCODE":"TH660303","ADM2_EN":"Pho Prathap Chang","ADM2_TH":"โพธิ์ประทับช้าง","ADM2_PCODE":"TH6603","ADM1_EN":"Phichit","ADM1_TH":"พิจิตร","ADM1_PCODE":"TH66","ADM0_EN":"Thailand","ADM0_TH":"ประเทศไทย","ADM0_PCODE":"TH"}},{"arcs":[[-74,77,78,79,80,-76]],"type":"Polygon","properties":{"Shape_Leng":0.622962382298,"Shape_Area":0.00803082970817,"ADM3_EN":"Phai Rop","ADM3_TH":"ไผ่รอบ","ADM3_PCODE":"TH660304","ADM2_EN":"Pho Prathap Chang","ADM2_TH":"โพธิ์ประทับช้าง","ADM2_PCODE":"TH6603","ADM1_EN":"Phichit","ADM1_TH":"พิจิตร","ADM1_PCODE":"TH66","ADM0_EN":"Thailand","ADM0_TH":"ประเทศไทย","ADM0_PCODE":"TH"}},{"arcs":[[-72,81,82,83]],"type":"Polygon","properties":{"Shape_Leng":0.291644238749,"Shape_Area":0.00339935466177,"ADM3_EN":"Dong Suea Lueang","ADM3_TH":"ดงเสือเหลือง","ADM3_PCODE":"TH660305","ADM2_EN":"Pho Prathap Chang","ADM2_TH":"โพธิ์ประทับช้าง","ADM2_PCODE":"TH6603","ADM1_EN":"Phichit","ADM1_TH":"พิจิตร","ADM1_PCODE":"TH66","ADM0_EN":"Thailand","ADM0_TH":"ประเทศไทย","ADM0_PCODE":"TH"}},{"arcs":[[-73,-84,84,85,-78]],"type":"Polygon","properties":{"Shape_Leng":0.460186654036,"Shape_Area":0.00538196094015,"ADM3_EN":"Noen Sawang","ADM3_TH":"เนินสว่าง","ADM3_PCODE":"TH660306","ADM2_EN":"Pho Prathap Chang","ADM2_TH":"โพธิ์ประทับช้าง","ADM2_PCODE":"TH6603","ADM1_EN":"Phichit","ADM1_TH":"พิจิตร","ADM1_PCODE":"TH66","ADM0_EN":"Thailand","ADM0_TH":"ประเทศไทย","ADM0_PCODE":"TH"}},{"arcs":[[-83,86,87,88,-85]],"type":"Polygon","properties":{"Shape_Leng":0.387072693021,"Shape_Area":0.00501037133281,"ADM3_EN":"Thung Yai","ADM3_TH":"ทุ่งใหญ่","ADM3_PCODE":"TH660307","ADM2_EN":"Pho Prathap Chang","ADM2_TH":"โพธิ์ประทับช้าง","ADM2_PCODE":"TH6603","ADM1_EN":"Phichit","ADM1_TH":"พิจิตร","ADM1_PCODE":"TH66","ADM0_EN":"Thailand","ADM0_TH":"ประเทศไทย","ADM0_PCODE":"TH"}},{"arcs":[[89,90]],"type":"Polygon","properties":{"Shape_Leng":0.116174526936,"Shape_Area":0.000461967218038,"ADM3_EN":"Taphan Hin","ADM3_TH":"ตะพานหิน","ADM3_PCODE":"TH660401","ADM2_EN":"Taphan Hin","ADM2_TH":"ตะพานหิน","ADM2_PCODE":"TH6604","ADM1_EN":"Phichit","ADM1_TH":"พิจิตร","ADM1_PCODE":"TH66","ADM0_EN":"Thailand","ADM0_TH":"ประเทศไทย","ADM0_PCODE":"TH"}},{"arcs":[[-48,91,92,93,94,-91,95]],"type":"Polygon","properties":{"Shape_Leng":0.493756239977,"Shape_Area":0.00393750387069,"ADM3_EN":"Ngio Rai","ADM3_TH":"งิ้วราย","ADM3_PCODE":"TH660402","ADM2_EN":"Taphan Hin","ADM2_TH":"ตะพานหิน","ADM2_PCODE":"TH6604","ADM1_EN":"Phichit","ADM1_TH":"พิจิตร","ADM1_PCODE":"TH66","ADM0_EN":"Thailand","ADM0_TH":"ประเทศไทย","ADM0_PCODE":"TH"}},{"arcs":[[-42,-96,-90,-95,96,97]],"type":"Polygon","properties":{"Shape_Leng":0.288116358971,"Shape_Area":0.00216542601646,"ADM3_EN":"Huai Ket","ADM3_TH":"ห้วยเกตุ","ADM3_PCODE":"TH660403","ADM2_EN":"Taphan Hin","ADM2_TH":"ตะพานหิน","ADM2_PCODE":"TH6604","ADM1_EN":"Phichit","ADM1_TH":"พิจิตร","ADM1_PCODE":"TH66","ADM0_EN":"Thailand","ADM0_TH":"ประเทศไทย","ADM0_PCODE":"TH"}},{"arcs":[[-93,98,99,100,101]],"type":"Polygon","properties":{"Shape_Leng":0.138757380076,"Shape_Area":0.00085309076005,"ADM3_EN":"Sai Rong Khon","ADM3_TH":"ไทรโรงโขน","ADM3_PCODE":"TH660404","ADM2_EN":"Taphan Hin","ADM2_TH":"ตะพานหิน","ADM2_PCODE":"TH6604","ADM1_EN":"Phichit","ADM1_TH":"พิจิตร","ADM1_PCODE":"TH66","ADM0_EN":"Thailand","ADM0_TH":"ประเทศไทย","ADM0_PCODE":"TH"}},{"arcs":[[-66,102,103,104,-99,-92]],"type":"Polygon","properties":{"Shape_Leng":0.459687672243,"Shape_Area":0.00511833898978,"ADM3_EN":"Nong Phayom","ADM3_TH":"หนองพยอม","ADM3_PCODE":"TH660405","ADM2_EN":"Taphan Hin","ADM2_TH":"ตะพานหิน","ADM2_PCODE":"TH6604","ADM1_EN":"Phichit","ADM1_TH":"พิจิตร","ADM1_PCODE":"TH66","ADM0_EN":"Thailand","ADM0_TH":"ประเทศไทย","ADM0_PCODE":"TH"}},{"arcs":[[105,106,107,108,109]],"type":"Polygon","properties":{"Shape_Leng":0.295721406871,"Shape_Area":0.00213633409892,"ADM3_EN":"Thung Pho","ADM3_TH":"ทุ่งโพธิ์","ADM3_PCODE":"TH660406","ADM2_EN":"Taphan Hin","ADM2_TH":"ตะพานหิน","ADM2_PCODE":"TH6604","ADM1_EN":"Phichit","ADM1_TH":"พิจิตร","ADM1_PCODE":"TH66","ADM0_EN":"Thailand","ADM0_TH":"ประเทศไทย","ADM0_PCODE":"TH"}},{"arcs":[[-100,-105,110,-108,111,112]],"type":"Polygon","properties":{"Shape_Leng":0.370073767652,"Shape_Area":0.00331445676319,"ADM3_EN":"Dong Takhop","ADM3_TH":"ดงตะขบ","ADM3_PCODE":"TH660407","ADM2_EN":"Taphan Hin","ADM2_TH":"ตะพานหิน","ADM2_PCODE":"TH6604","ADM1_EN":"Phichit","ADM1_TH":"พิจิตร","ADM1_PCODE":"TH66","ADM0_EN":"Thailand","ADM0_TH":"ประเทศไทย","ADM0_PCODE":"TH"}},{"arcs":[[113,114,115,116,117,118]],"type":"Polygon","properties":{"Shape_Leng":0.28111789078,"Shape_Area":0.00292359183928,"ADM3_EN":"Khlong Khun","ADM3_TH":"คลองคูณ","ADM3_PCODE":"TH660408","ADM2_EN":"Taphan Hin","ADM2_TH":"ตะพานหิน","ADM2_PCODE":"TH6604","ADM1_EN":"Phichit","ADM1_TH":"พิจิตร","ADM1_PCODE":"TH66","ADM0_EN":"Thailand","ADM0_TH":"ประเทศไทย","ADM0_PCODE":"TH"}},{"arcs":[[-44,119,120,121,-70,-67]],"type":"Polygon","properties":{"Shape_Leng":0.363125860503,"Shape_Area":0.00511181771247,"ADM3_EN":"Wang Samrong","ADM3_TH":"วังสำโรง","ADM3_PCODE":"TH660409","ADM2_EN":"Taphan Hin","ADM2_TH":"ตะพานหิน","ADM2_PCODE":"TH6604","ADM1_EN":"Phichit","ADM1_TH":"พิจิตร","ADM1_PCODE":"TH66","ADM0_EN":"Thailand","ADM0_TH":"ประเทศไทย","ADM0_PCODE":"TH"}},{"arcs":[[-43,-98,122,-119,123,-120]],"type":"Polygon","properties":{"Shape_Leng":0.2870950587,"Shape_Area":0.00261357679409,"ADM3_EN":"Wang Wa","ADM3_TH":"วังหว้า","ADM3_PCODE":"TH660410","ADM2_EN":"Taphan Hin","ADM2_TH":"ตะพานหิน","ADM2_PCODE":"TH6604","ADM1_EN":"Phichit","ADM1_TH":"พิจิตร","ADM1_PCODE":"TH66","ADM0_EN":"Thailand","ADM0_TH":"ประเทศไทย","ADM0_PCODE":"TH"}},{"arcs":[[-104,124,125,126,-109,-111]],"type":"Polygon","properties":{"Shape_Leng":0.498019924857,"Shape_Area":0.00563838514184,"ADM3_EN":"Wang Lum","ADM3_TH":"วังหลุม","ADM3_PCODE":"TH660411","ADM2_EN":"Taphan Hin","ADM2_TH":"ตะพานหิน","ADM2_PCODE":"TH6604","ADM1_EN":"Phichit","ADM1_TH":"พิจิตร","ADM1_PCODE":"TH66","ADM0_EN":"Thailand","ADM0_TH":"ประเทศไทย","ADM0_PCODE":"TH"}},{"arcs":[[-118,127,128,-121,-124]],"type":"Polygon","properties":{"Shape_Leng":0.334005990971,"Shape_Area":0.00392842655963,"ADM3_EN":"Thap Man","ADM3_TH":"ทับหมัน","ADM3_PCODE":"TH660412","ADM2_EN":"Taphan Hin","ADM2_TH":"ตะพานหิน","ADM2_PCODE":"TH6604","ADM1_EN":"Phichit","ADM1_TH":"พิจิตร","ADM1_PCODE":"TH66","ADM0_EN":"Thailand","ADM0_TH":"ประเทศไทย","ADM0_PCODE":"TH"}},{"arcs":[[-94,-102,129,-114,-123,-97]],"type":"Polygon","properties":{"Shape_Leng":0.150008835418,"Shape_Area":0.000854360573776,"ADM3_EN":"Phai Luang","ADM3_TH":"ไผ่หลวง","ADM3_PCODE":"TH660413","ADM2_EN":"Taphan Hin","ADM2_TH":"ตะพานหิน","ADM2_PCODE":"TH6604","ADM1_EN":"Phichit","ADM1_TH":"พิจิตร","ADM1_PCODE":"TH66","ADM0_EN":"Thailand","ADM0_TH":"ประเทศไทย","ADM0_PCODE":"TH"}},{"arcs":[[130,131]],"type":"Polygon","properties":{"Shape_Leng":0.0676042285178,"Shape_Area":0.000226585284796,"ADM3_EN":"Bang Mun Nak","ADM3_TH":"บางมูลนาก","ADM3_PCODE":"TH660501","ADM2_EN":"Bang Mun Nak","ADM2_TH":"บางมูลนาก","ADM2_PCODE":"TH6605","ADM1_EN":"Phichit","ADM1_TH":"พิจิตร","ADM1_PCODE":"TH66","ADM0_EN":"Thailand","ADM0_TH":"ประเทศไทย","ADM0_PCODE":"TH"}},{"arcs":[[-101,-113,132,133,134,-115,-130]],"type":"Polygon","properties":{"Shape_Leng":0.373042364765,"Shape_Area":0.0046544325735,"ADM3_EN":"Bang Phai","ADM3_TH":"บางไผ่","ADM3_PCODE":"TH660502","ADM2_EN":"Bang Mun Nak","ADM2_TH":"บางมูลนาก","ADM2_PCODE":"TH6605","ADM1_EN":"Phichit","ADM1_TH":"พิจิตร","ADM1_PCODE":"TH66","ADM0_EN":"Thailand","ADM0_TH":"ประเทศไทย","ADM0_PCODE":"TH"}},{"arcs":[[-131,135,136,-134,137,138,139]],"type":"Polygon","properties":{"Shape_Leng":0.302505489767,"Shape_Area":0.00370782036801,"ADM3_EN":"Ho Krai","ADM3_TH":"หอไกร","ADM3_PCODE":"TH660503","ADM2_EN":"Bang Mun Nak","ADM2_TH":"บางมูลนาก","ADM2_PCODE":"TH6605","ADM1_EN":"Phichit","ADM1_TH":"พิจิตร","ADM1_PCODE":"TH66","ADM0_EN":"Thailand","ADM0_TH":"ประเทศไทย","ADM0_PCODE":"TH"}},{"arcs":[[-132,-140,140,141,142,143,144,145,146,-136]],"type":"Polygon","properties":{"Shape_Leng":0.456321320052,"Shape_Area":0.00577492208117,"ADM3_EN":"Noen Makok","ADM3_TH":"เนินมะกอก","ADM3_PCODE":"TH660504","ADM2_EN":"Bang Mun Nak","ADM2_TH":"บางมูลนาก","ADM2_PCODE":"TH6605","ADM1_EN":"Phichit","ADM1_TH":"พิจิตร","ADM1_PCODE":"TH66","ADM0_EN":"Thailand","ADM0_TH":"ประเทศไทย","ADM0_PCODE":"TH"}},{"arcs":[[-142,147,148,149]],"type":"Polygon","properties":{"Shape_Leng":0.376817172205,"Shape_Area":0.00584975189801,"ADM3_EN":"Wang Samrong","ADM3_TH":"วังสำโรง","ADM3_PCODE":"TH660505","ADM2_EN":"Bang Mun Nak","ADM2_TH":"บางมูลนาก","ADM2_PCODE":"TH6605","ADM1_EN":"Phichit","ADM1_TH":"พิจิตร","ADM1_PCODE":"TH66","ADM0_EN":"Thailand","ADM0_TH":"ประเทศไทย","ADM0_PCODE":"TH"}},{"arcs":[[-139,150,151,152,-148,-141]],"type":"Polygon","properties":{"Shape_Leng":0.256248819508,"Shape_Area":0.0025907819799,"ADM3_EN":"Phum","ADM3_TH":"ภูมิ","ADM3_PCODE":"TH660506","ADM2_EN":"Bang Mun Nak","ADM2_TH":"บางมูลนาก","ADM2_PCODE":"TH6605","ADM1_EN":"Phichit","ADM1_TH":"พิจิตร","ADM1_PCODE":"TH66","ADM0_EN":"Thailand","ADM0_TH":"ประเทศไทย","ADM0_PCODE":"TH"}},{"arcs":[[-149,-153,153,154,155,156]],"type":"Polygon","properties":{"Shape_Leng":0.338561639152,"Shape_Area":0.00307964209466,"ADM3_EN":"Wang Krot","ADM3_TH":"วังกรด","ADM3_PCODE":"TH660507","ADM2_EN":"Bang Mun Nak","ADM2_TH":"บางมูลนาก","ADM2_PCODE":"TH6605","ADM1_EN":"Phichit","ADM1_TH":"พิจิตร","ADM1_PCODE":"TH66","ADM0_EN":"Thailand","ADM0_TH":"ประเทศไทย","ADM0_PCODE":"TH"}},{"arcs":[[-152,157,-154]],"type":"Polygon","properties":{"Shape_Leng":0.101831502967,"Shape_Area":0.000532590339563,"ADM3_EN":"Huai Khen","ADM3_TH":"ห้วยเขน","ADM3_PCODE":"TH660508","ADM2_EN":"Bang Mun Nak","ADM2_TH":"บางมูลนาก","ADM2_PCODE":"TH6605","ADM1_EN":"Phichit","ADM1_TH":"พิจิตร","ADM1_PCODE":"TH66","ADM0_EN":"Thailand","ADM0_TH":"ประเทศไทย","ADM0_PCODE":"TH"}},{"arcs":[[-107,158,159,160,-155,-158,161]],"type":"Polygon","properties":{"Shape_Leng":0.344283524535,"Shape_Area":0.00365377382025,"ADM3_EN":"Wang Taku","ADM3_TH":"วังตะกู","ADM3_PCODE":"TH660509","ADM2_EN":"Bang Mun Nak","ADM2_TH":"บางมูลนาก","ADM2_PCODE":"TH6605","ADM1_EN":"Phichit","ADM1_TH":"พิจิตร","ADM1_PCODE":"TH66","ADM0_EN":"Thailand","ADM0_TH":"ประเทศไทย","ADM0_PCODE":"TH"}},{"arcs":[[-112,-162,-151,-138,-133]],"type":"Polygon","properties":{"Shape_Leng":0.29138355671,"Shape_Area":0.0033638405028,"ADM3_EN":"Lam Prada","ADM3_TH":"ลำประดา","ADM3_PCODE":"TH660514","ADM2_EN":"Bang Mun Nak","ADM2_TH":"บางมูลนาก","ADM2_PCODE":"TH6605","ADM1_EN":"Phichit","ADM1_TH":"พิจิตร","ADM1_PCODE":"TH66","ADM0_EN":"Thailand","ADM0_TH":"ประเทศไทย","ADM0_PCODE":"TH"}},{"arcs":[[162,163,164,165,166,167,168]],"type":"Polygon","properties":{"Shape_Leng":0.316200172656,"Shape_Area":0.00287975338161,"ADM3_EN":"Pho Thale","ADM3_TH":"โพทะเล","ADM3_PCODE":"TH660601","ADM2_EN":"Pho Thale","ADM2_TH":"โพทะเล","ADM2_PCODE":"TH6606","ADM1_EN":"Phichit","ADM1_TH":"พิจิตร","ADM1_PCODE":"TH66","ADM0_EN":"Thailand","ADM0_TH":"ประเทศไทย","ADM0_PCODE":"TH"}},{"arcs":[[-167,169,170,171,172,173]],"type":"Polygon","properties":{"Shape_Leng":0.360747184276,"Shape_Area":0.00471436024858,"ADM3_EN":"Thai Nam","ADM3_TH":"ท้ายน้ำ","ADM3_PCODE":"TH660602","ADM2_EN":"Pho Thale","ADM2_TH":"โพทะเล","ADM2_PCODE":"TH6606","ADM1_EN":"Phichit","ADM1_TH":"พิจิตร","ADM1_PCODE":"TH66","ADM0_EN":"Thailand","ADM0_TH":"ประเทศไทย","ADM0_PCODE":"TH"}},{"arcs":[[-166,174,175,176,177,-170]],"type":"Polygon","properties":{"Shape_Leng":0.49822705803,"Shape_Area":0.00662508563904,"ADM3_EN":"Thanong","ADM3_TH":"ทะนง","ADM3_PCODE":"TH660603","ADM2_EN":"Pho Thale","ADM2_TH":"โพทะเล","ADM2_PCODE":"TH6606","ADM1_EN":"Phichit","ADM1_TH":"พิจิตร","ADM1_PCODE":"TH66","ADM0_EN":"Thailand","ADM0_TH":"ประเทศไทย","ADM0_PCODE":"TH"}},{"arcs":[[-135,-137,-147,178,-164,179]],"type":"Polygon","properties":{"Shape_Leng":0.356739663199,"Shape_Area":0.00433019812637,"ADM3_EN":"Tha Bua","ADM3_TH":"ท่าบัว","ADM3_PCODE":"TH660604","ADM2_EN":"Pho Thale","ADM2_TH":"โพทะเล","ADM2_PCODE":"TH6606","ADM1_EN":"Phichit","ADM1_TH":"พิจิตร","ADM1_PCODE":"TH66","ADM0_EN":"Thailand","ADM0_TH":"ประเทศไทย","ADM0_PCODE":"TH"}},{"arcs":[[-116,-180,-163,180]],"type":"Polygon","properties":{"Shape_Leng":0.277842850695,"Shape_Area":0.00268883619291,"ADM3_EN":"Thung Noi","ADM3_TH":"ทุ่งน้อย","ADM3_PCODE":"TH660605","ADM2_EN":"Pho Thale","ADM2_TH":"โพทะเล","ADM2_PCODE":"TH6606","ADM1_EN":"Phichit","ADM1_TH":"พิจิตร","ADM1_PCODE":"TH66","ADM0_EN":"Thailand","ADM0_TH":"ประเทศไทย","ADM0_PCODE":"TH"}},{"arcs":[[-176,181,182,183,184]],"type":"Polygon","properties":{"Shape_Leng":0.372868865328,"Shape_Area":0.00695904185481,"ADM3_EN":"Tha Khamin","ADM3_TH":"ท่าขมิ้น","ADM3_PCODE":"TH660606","ADM2_EN":"Pho Thale","ADM2_TH":"โพทะเล","ADM2_PCODE":"TH6606","ADM1_EN":"Phichit","ADM1_TH":"พิจิตร","ADM1_PCODE":"TH66","ADM0_EN":"Thailand","ADM0_TH":"ประเทศไทย","ADM0_PCODE":"TH"}},{"arcs":[[-184,185,186,187]],"type":"Polygon","properties":{"Shape_Leng":0.364782551669,"Shape_Area":0.00478261644812,"ADM3_EN":"Tha Sao","ADM3_TH":"ท่าเสา","ADM3_PCODE":"TH660607","ADM2_EN":"Pho Thale","ADM2_TH":"โพทะเล","ADM2_PCODE":"TH6606","ADM1_EN":"Phichit","ADM1_TH":"พิจิตร","ADM1_PCODE":"TH66","ADM0_EN":"Thailand","ADM0_TH":"ประเทศไทย","ADM0_PCODE":"TH"}},{"arcs":[[-145,188,-186,-183,189]],"type":"Polygon","properties":{"Shape_Leng":0.281168681066,"Shape_Area":0.00260027131591,"ADM3_EN":"Bang Khlan","ADM3_TH":"บางคลาน","ADM3_PCODE":"TH660608","ADM2_EN":"Pho Thale","ADM2_TH":"โพทะเล","ADM2_PCODE":"TH6606","ADM1_EN":"Phichit","ADM1_TH":"พิจิตร","ADM1_PCODE":"TH66","ADM0_EN":"Thailand","ADM0_TH":"ประเทศไทย","ADM0_PCODE":"TH"}},{"arcs":[[-144,190,-187,-189]],"type":"Polygon","properties":{"Shape_Leng":0.283137022289,"Shape_Area":0.00218042003077,"ADM3_EN":"Tha Nang","ADM3_TH":"ท่านั่ง","ADM3_PCODE":"TH660611","ADM2_EN":"Pho Thale","ADM2_TH":"โพทะเล","ADM2_PCODE":"TH6606","ADM1_EN":"Phichit","ADM1_TH":"พิจิตร","ADM1_PCODE":"TH66","ADM0_EN":"Thailand","ADM0_TH":"ประเทศไทย","ADM0_PCODE":"TH"}},{"arcs":[[-146,-190,-182,-175,-165,-179]],"type":"Polygon","properties":{"Shape_Leng":0.288495311849,"Shape_Area":0.00335359977113,"ADM3_EN":"Ban Noi","ADM3_TH":"บ้านน้อย","ADM3_PCODE":"TH660612","ADM2_EN":"Pho Thale","ADM2_TH":"โพทะเล","ADM2_PCODE":"TH6606","ADM1_EN":"Phichit","ADM1_TH":"พิจิตร","ADM1_PCODE":"TH66","ADM0_EN":"Thailand","ADM0_TH":"ประเทศไทย","ADM0_PCODE":"TH"}},{"arcs":[[-117,-181,-169,191,-128]],"type":"Polygon","properties":{"Shape_Leng":0.286640528038,"Shape_Area":0.0031204090537,"ADM3_EN":"Wat Khwang","ADM3_TH":"วัดขวาง","ADM3_PCODE":"TH660613","ADM2_EN":"Pho Thale","ADM2_TH":"โพทะเล","ADM2_PCODE":"TH6606","ADM1_EN":"Phichit","ADM1_TH":"พิจิตร","ADM1_PCODE":"TH66","ADM0_EN":"Thailand","ADM0_TH":"ประเทศไทย","ADM0_PCODE":"TH"}},{"arcs":[[-9,-22,192,193,194,195,196]],"type":"Polygon","properties":{"Shape_Leng":0.328617348095,"Shape_Area":0.00524981273497,"ADM3_EN":"Sam Ngam","ADM3_TH":"สามง่าม","ADM3_PCODE":"TH660701","ADM2_EN":"Sam Ngam","ADM2_TH":"สามง่าม","ADM2_PCODE":"TH6607","ADM1_EN":"Phichit","ADM1_TH":"พิจิตร","ADM1_PCODE":"TH66","ADM0_EN":"Thailand","ADM0_TH":"ประเทศไทย","ADM0_PCODE":"TH"}},{"arcs":[[-196,197,198]],"type":"Polygon","properties":{"Shape_Leng":0.389266962474,"Shape_Area":0.00418764800475,"ADM3_EN":"Kamphaeng Din","ADM3_TH":"กำแพงดิน","ADM3_PCODE":"TH660702","ADM2_EN":"Sam Ngam","ADM2_TH":"สามง่าม","ADM2_PCODE":"TH6607","ADM1_EN":"Phichit","ADM1_TH":"พิจิตร","ADM1_PCODE":"TH66","ADM0_EN":"Thailand","ADM0_TH":"ประเทศไทย","ADM0_PCODE":"TH"}},{"arcs":[[-21,-25,-77,-81,199,200,-193]],"type":"Polygon","properties":{"Shape_Leng":0.329844597453,"Shape_Area":0.00372650415877,"ADM3_EN":"Rang Nok","ADM3_TH":"รังนก","ADM3_PCODE":"TH660703","ADM2_EN":"Sam Ngam","ADM2_TH":"สามง่าม","ADM2_PCODE":"TH6607","ADM1_EN":"Phichit","ADM1_TH":"พิจิตร","ADM1_PCODE":"TH66","ADM0_EN":"Thailand","ADM0_TH":"ประเทศไทย","ADM0_PCODE":"TH"}},{"arcs":[[-80,201,202,-200]],"type":"Polygon","properties":{"Shape_Leng":0.432123801327,"Shape_Area":0.00757655595068,"ADM3_EN":"Noen Po","ADM3_TH":"เนินปอ","ADM3_PCODE":"TH660706","ADM2_EN":"Sam Ngam","ADM2_TH":"สามง่าม","ADM2_PCODE":"TH6607","ADM1_EN":"Phichit","ADM1_TH":"พิจิตร","ADM1_PCODE":"TH66","ADM0_EN":"Thailand","ADM0_TH":"ประเทศไทย","ADM0_PCODE":"TH"}},{"arcs":[[-79,-86,-89,203,204,-202]],"type":"Polygon","properties":{"Shape_Leng":0.469963346274,"Shape_Area":0.0098173223643,"ADM3_EN":"Nong Sano","ADM3_TH":"หนองโสน","ADM3_PCODE":"TH660707","ADM2_EN":"Sam Ngam","ADM2_TH":"สามง่าม","ADM2_PCODE":"TH6607","ADM1_EN":"Phichit","ADM1_TH":"พิจิตร","ADM1_PCODE":"TH66","ADM0_EN":"Thailand","ADM0_TH":"ประเทศไทย","ADM0_PCODE":"TH"}},{"arcs":[[-110,-127,205,206]],"type":"Polygon","properties":{"Shape_Leng":0.45653684658,"Shape_Area":0.00491848433155,"ADM3_EN":"Tap Khlo","ADM3_TH":"ทับคล้อ","ADM3_PCODE":"TH660801","ADM2_EN":"Tap Khlo","ADM2_TH":"ทับคล้อ","ADM2_PCODE":"TH6608","ADM1_EN":"Phichit","ADM1_TH":"พิจิตร","ADM1_PCODE":"TH66","ADM0_EN":"Thailand","ADM0_TH":"ประเทศไทย","ADM0_PCODE":"TH"}},{"arcs":[[-126,207,208,209,-206]],"type":"Polygon","properties":{"Shape_Leng":0.843486444944,"Shape_Area":0.0118069273055,"ADM3_EN":"Khao Sai","ADM3_TH":"เขาทราย","ADM3_PCODE":"TH660802","ADM2_EN":"Tap Khlo","ADM2_TH":"ทับคล้อ","ADM2_PCODE":"TH6608","ADM1_EN":"Phichit","ADM1_TH":"พิจิตร","ADM1_PCODE":"TH66","ADM0_EN":"Thailand","ADM0_TH":"ประเทศไทย","ADM0_PCODE":"TH"}},{"arcs":[[-63,210,-208,-125,-103,-65]],"type":"Polygon","properties":{"Shape_Leng":0.607899261613,"Shape_Area":0.00858721497264,"ADM3_EN":"Khao Chet Luk","ADM3_TH":"เขาเจ็ดลูก","ADM3_PCODE":"TH660803","ADM2_EN":"Tap Khlo","ADM2_TH":"ทับคล้อ","ADM2_PCODE":"TH6608","ADM1_EN":"Phichit","ADM1_TH":"พิจิตร","ADM1_PCODE":"TH66","ADM0_EN":"Thailand","ADM0_TH":"ประเทศไทย","ADM0_PCODE":"TH"}},{"arcs":[[-106,-207,-210,211,212,213,-159]],"type":"Polygon","properties":{"Shape_Leng":0.501142970341,"Shape_Area":0.00816664026872,"ADM3_EN":"Thai Thung","ADM3_TH":"ท้ายทุ่ง","ADM3_PCODE":"TH660804","ADM2_EN":"Tap Khlo","ADM2_TH":"ทับคล้อ","ADM2_PCODE":"TH6608","ADM1_EN":"Phichit","ADM1_TH":"พิจิตร","ADM1_PCODE":"TH66","ADM0_EN":"Thailand","ADM0_TH":"ประเทศไทย","ADM0_PCODE":"TH"}},{"arcs":[[-50,214,215,216,217,-59]],"type":"Polygon","properties":{"Shape_Leng":0.484591018648,"Shape_Area":0.00628496441864,"ADM3_EN":"Sak Lek","ADM3_TH":"สากเหล็ก","ADM3_PCODE":"TH660901","ADM2_EN":"Sak Lek","ADM2_TH":"สากเหล็ก","ADM2_PCODE":"TH6609","ADM1_EN":"Phichit","ADM1_TH":"พิจิตร","ADM1_PCODE":"TH66","ADM0_EN":"Thailand","ADM0_TH":"ประเทศไทย","ADM0_PCODE":"TH"}},{"arcs":[[-217,218,219,220,221]],"type":"Polygon","properties":{"Shape_Leng":0.25999660078,"Shape_Area":0.00157226862883,"ADM3_EN":"Tha Yiam","ADM3_TH":"ท่าเยี่ยม","ADM3_PCODE":"TH660902","ADM2_EN":"Sak Lek","ADM2_TH":"สากเหล็ก","ADM2_PCODE":"TH6609","ADM1_EN":"Phichit","ADM1_TH":"พิจิตร","ADM1_PCODE":"TH66","ADM0_EN":"Thailand","ADM0_TH":"ประเทศไทย","ADM0_PCODE":"TH"}},{"arcs":[[-220,222,223]],"type":"Polygon","properties":{"Shape_Leng":0.209314072993,"Shape_Area":0.001717745353,"ADM3_EN":"Khlong Sai","ADM3_TH":"คลองทราย","ADM3_PCODE":"TH660903","ADM2_EN":"Sak Lek","ADM2_TH":"สากเหล็ก","ADM2_PCODE":"TH6609","ADM1_EN":"Phichit","ADM1_TH":"พิจิตร","ADM1_PCODE":"TH66","ADM0_EN":"Thailand","ADM0_TH":"ประเทศไทย","ADM0_PCODE":"TH"}},{"arcs":[[-216,224,-223,-219]],"type":"Polygon","properties":{"Shape_Leng":0.254600402183,"Shape_Area":0.00233424042903,"ADM3_EN":"Nong Ya Sai","ADM3_TH":"หนองหญ้าไทร","ADM3_PCODE":"TH660904","ADM2_EN":"Sak Lek","ADM2_TH":"สากเหล็ก","ADM2_PCODE":"TH6609","ADM1_EN":"Phichit","ADM1_TH":"พิจิตร","ADM1_PCODE":"TH66","ADM0_EN":"Thailand","ADM0_TH":"ประเทศไทย","ADM0_PCODE":"TH"}},{"arcs":[[-60,-218,-222,225]],"type":"Polygon","properties":{"Shape_Leng":0.302180374193,"Shape_Area":0.00316637382193,"ADM3_EN":"Wang Thap Sai","ADM3_TH":"วังทับไทร","ADM3_PCODE":"TH660905","ADM2_EN":"Sak Lek","ADM2_TH":"สากเหล็ก","ADM2_PCODE":"TH6609","ADM1_EN":"Phichit","ADM1_TH":"พิจิตร","ADM1_PCODE":"TH66","ADM0_EN":"Thailand","ADM0_TH":"ประเทศไทย","ADM0_PCODE":"TH"}},{"arcs":[[-172,226,227,228,229]],"type":"Polygon","properties":{"Shape_Leng":0.44946813664,"Shape_Area":0.00313144178726,"ADM3_EN":"Huai Kaeo","ADM3_TH":"ห้วยแก้ว","ADM3_PCODE":"TH661001","ADM2_EN":"Bueng Na Rang","ADM2_TH":"บึงนาราง","ADM2_PCODE":"TH6610","ADM1_EN":"Phichit","ADM1_TH":"พิจิตร","ADM1_PCODE":"TH66","ADM0_EN":"Thailand","ADM0_TH":"ประเทศไทย","ADM0_PCODE":"TH"}},{"arcs":[[-171,-178,230,-227]],"type":"Polygon","properties":{"Shape_Leng":0.407251282917,"Shape_Area":0.00502782408962,"ADM3_EN":"Pho Sai Ngam","ADM3_TH":"โพธิ์ไทรงาม","ADM3_PCODE":"TH661002","ADM2_EN":"Bueng Na Rang","ADM2_TH":"บึงนาราง","ADM2_PCODE":"TH6610","ADM1_EN":"Phichit","ADM1_TH":"พิจิตร","ADM1_PCODE":"TH66","ADM0_EN":"Thailand","ADM0_TH":"ประเทศไทย","ADM0_PCODE":"TH"}},{"arcs":[[-87,231,-229,232]],"type":"Polygon","properties":{"Shape_Leng":0.442519112058,"Shape_Area":0.00715438834277,"ADM3_EN":"Laem Rang","ADM3_TH":"แหลมรัง","ADM3_PCODE":"TH661003","ADM2_EN":"Bueng Na Rang","ADM2_TH":"บึงนาราง","ADM2_PCODE":"TH6610","ADM1_EN":"Phichit","ADM1_TH":"พิจิตร","ADM1_PCODE":"TH66","ADM0_EN":"Thailand","ADM0_TH":"ประเทศไทย","ADM0_PCODE":"TH"}},{"arcs":[[-71,-122,-129,-192,-168,-174,233]],"type":"Polygon","properties":{"Shape_Leng":0.327044680092,"Shape_Area":0.0038791424075,"ADM3_EN":"Bang Lai","ADM3_TH":"บางลาย","ADM3_PCODE":"TH661004","ADM2_EN":"Bueng Na Rang","ADM2_TH":"บึงนาราง","ADM2_PCODE":"TH6610","ADM1_EN":"Phichit","ADM1_TH":"พิจิตร","ADM1_PCODE":"TH66","ADM0_EN":"Thailand","ADM0_TH":"ประเทศไทย","ADM0_PCODE":"TH"}},{"arcs":[[-82,-234,-173,-230,-232]],"type":"Polygon","properties":{"Shape_Leng":0.360736541275,"Shape_Area":0.00583085694501,"ADM3_EN":"Bueng Na Rang","ADM3_TH":"บึงนาราง","ADM3_PCODE":"TH661005","ADM2_EN":"Bueng Na Rang","ADM2_TH":"บึงนาราง","ADM2_PCODE":"TH6610","ADM1_EN":"Phichit","ADM1_TH":"พิจิตร","ADM1_PCODE":"TH66","ADM0_EN":"Thailand","ADM0_TH":"ประเทศไทย","ADM0_PCODE":"TH"}},{"arcs":[[-213,234,235,236,237,238]],"type":"Polygon","properties":{"Shape_Leng":0.35481291186,"Shape_Area":0.00213453811371,"ADM3_EN":"Wang Ngio Tai","ADM3_TH":"วังงิ้วใต้","ADM3_PCODE":"TH661101","ADM2_EN":"Dong Charoen","ADM2_TH":"ดงเจริญ","ADM2_PCODE":"TH6611","ADM1_EN":"Phichit","ADM1_TH":"พิจิตร","ADM1_PCODE":"TH66","ADM0_EN":"Thailand","ADM0_TH":"ประเทศไทย","ADM0_PCODE":"TH"}},{"arcs":[[-236,239]],"type":"Polygon","properties":{"Shape_Leng":0.468846306233,"Shape_Area":0.00456733457119,"ADM3_EN":"Wang Ngio","ADM3_TH":"วังงิ้ว","ADM3_PCODE":"TH661102","ADM2_EN":"Dong Charoen","ADM2_TH":"ดงเจริญ","ADM2_PCODE":"TH6611","ADM1_EN":"Phichit","ADM1_TH":"พิจิตร","ADM1_PCODE":"TH66","ADM0_EN":"Thailand","ADM0_TH":"ประเทศไทย","ADM0_PCODE":"TH"}},{"arcs":[[-156,-161,240,241,242]],"type":"Polygon","properties":{"Shape_Leng":0.43156193096,"Shape_Area":0.00514531377664,"ADM3_EN":"Huai Ruam","ADM3_TH":"ห้วยร่วม","ADM3_PCODE":"TH661103","ADM2_EN":"Dong Charoen","ADM2_TH":"ดงเจริญ","ADM2_PCODE":"TH6611","ADM1_EN":"Phichit","ADM1_TH":"พิจิตร","ADM1_PCODE":"TH66","ADM0_EN":"Thailand","ADM0_TH":"ประเทศไทย","ADM0_PCODE":"TH"}},{"arcs":[[-238,243,-242,244]],"type":"Polygon","properties":{"Shape_Leng":0.370633196514,"Shape_Area":0.00329799036851,"ADM3_EN":"Huai Phuk","ADM3_TH":"ห้วยพุก","ADM3_PCODE":"TH661104","ADM2_EN":"Dong Charoen","ADM2_TH":"ดงเจริญ","ADM2_PCODE":"TH6611","ADM1_EN":"Phichit","ADM1_TH":"พิจิตร","ADM1_PCODE":"TH66","ADM0_EN":"Thailand","ADM0_TH":"ประเทศไทย","ADM0_PCODE":"TH"}},{"arcs":[[-160,-214,-239,-245,-241]],"type":"Polygon","properties":{"Shape_Leng":0.349344940173,"Shape_Area":0.00422114269667,"ADM3_EN":"Samnak Khun Nen","ADM3_TH":"สำนักขุนเณร","ADM3_PCODE":"TH661105","ADM2_EN":"Dong Charoen","ADM2_TH":"ดงเจริญ","ADM2_PCODE":"TH6611","ADM1_EN":"Phichit","ADM1_TH":"พิจิตร","ADM1_PCODE":"TH66","ADM0_EN":"Thailand","ADM0_TH":"ประเทศไทย","ADM0_PCODE":"TH"}},{"arcs":[[-194,-201,-203,245,246,247]],"type":"Polygon","properties":{"Shape_Leng":0.472723941338,"Shape_Area":0.00739172770569,"ADM3_EN":"Ban Na","ADM3_TH":"บ้านนา","ADM3_PCODE":"TH661201","ADM2_EN":"Wachirabarami","ADM2_TH":"วชิรบารมี","ADM2_PCODE":"TH6612","ADM1_EN":"Phichit","ADM1_TH":"พิจิตร","ADM1_PCODE":"TH66","ADM0_EN":"Thailand","ADM0_TH":"ประเทศไทย","ADM0_PCODE":"TH"}},{"arcs":[[-205,248,249,-246]],"type":"Polygon","properties":{"Shape_Leng":0.508489561635,"Shape_Area":0.00678400586483,"ADM3_EN":"Bueng Bua","ADM3_TH":"บึงบัว","ADM3_PCODE":"TH661202","ADM2_EN":"Wachirabarami","ADM2_TH":"วชิรบารมี","ADM2_PCODE":"TH6612","ADM1_EN":"Phichit","ADM1_TH":"พิจิตร","ADM1_PCODE":"TH66","ADM0_EN":"Thailand","ADM0_TH":"ประเทศไทย","ADM0_PCODE":"TH"}},{"arcs":[[-247,-250,250,251]],"type":"Polygon","properties":{"Shape_Leng":0.528666541239,"Shape_Area":0.00583432807297,"ADM3_EN":"Wang Mok","ADM3_TH":"วังโมกข์","ADM3_PCODE":"TH661203","ADM2_EN":"Wachirabarami","ADM2_TH":"วชิรบารมี","ADM2_PCODE":"TH6612","ADM1_EN":"Phichit","ADM1_TH":"พิจิตร","ADM1_PCODE":"TH66","ADM0_EN":"Thailand","ADM0_TH":"ประเทศไทย","ADM0_PCODE":"TH"}},{"arcs":[[-195,-248,-252,252,-198]],"type":"Polygon","properties":{"Shape_Leng":0.346263170289,"Shape_Area":0.00413336096057,"ADM3_EN":"Nong Lum","ADM3_TH":"หนองหลุม","ADM3_PCODE":"TH661204","ADM2_EN":"Wachirabarami","ADM2_TH":"วชิรบารมี","ADM2_PCODE":"TH6612","ADM1_EN":"Phichit","ADM1_TH":"พิจิตร","ADM1_PCODE":"TH66","ADM0_EN":"Thailand","ADM0_TH":"ประเทศไทย","ADM0_PCODE":"TH"}}]}}}