{"type":"Topology","arcs":[[[2498,5438],[25,-85],[43,6]],[[2566,5359],[3,-16],[-4,-74],[-29,-10],[1,-11],[-15,-37],[-35,28],[-32,-14],[-46,27]],[[2409,5252],[-54,26],[-199,64],[0,61],[-10,18],[7,36],[160,-35],[-5,20],[23,10],[7,19],[-19,5],[-4,41],[-11,34]],[[2304,5551],[24,37],[6,23],[55,-49],[41,-17],[61,-13],[23,7],[-3,-24],[-28,-17],[15,-60]],[[2409,5252],[-19,-31],[-17,-56],[11,-21],[15,-7],[-1,-18],[28,-56]],[[2426,5063],[-32,-23],[-52,2],[-50,6],[-20,-11],[-12,6],[-34,40],[-16,31],[-26,63],[-7,42],[13,21],[-17,50],[-10,4],[-45,-6],[-19,-14],[-12,5],[-29,-39],[-14,14],[-30,-15]],[[2014,5239],[-6,69],[-38,27],[-22,5],[-11,-7],[-51,27],[-31,32],[-18,28],[0,16],[-40,23],[-27,-20],[-13,20],[-2,28],[-9,15],[-3,52]],[[1743,5554],[116,68]],[[1859,5622],[45,16],[39,4],[26,-3],[70,-15],[14,25],[-4,30],[9,18],[26,2],[5,19],[-5,25],[17,0],[11,23],[20,1],[7,31],[13,11]],[[2152,5809],[11,-4],[-7,-29],[60,-58],[34,-21],[29,-48]],[[2279,5649],[-10,-17],[-42,-14],[-10,-12],[-18,-42],[10,-15],[-1,-28],[7,-7],[24,20],[17,28],[20,-11],[28,0]],[[2014,5239],[-11,-39],[2,-47],[8,-20],[26,-38],[18,-44],[2,-30],[-8,-30],[-35,-74],[-25,-74],[-12,-17],[-25,-18],[-35,-5],[-35,2],[-34,-5],[-76,-22],[-50,-2]],[[1724,4776],[-14,13],[-22,43],[-25,22],[-62,27],[-51,3],[-60,-6],[-10,38],[17,33],[-27,-15],[-3,24],[11,16],[-12,10],[7,14],[-28,21],[6,11],[21,-4],[7,39],[-7,19],[8,16],[20,10],[-2,37],[-19,18],[-5,18],[13,22],[-2,23],[-20,0],[-4,46],[15,5],[2,22],[-20,-1],[14,24],[-15,33],[-33,-6],[2,16]],[[1426,5367],[317,187]],[[2426,5063],[0,-25],[19,-39],[7,-34],[20,-27],[25,-23],[10,-25],[20,-13],[-3,-16],[12,-12],[8,-57],[8,-28],[28,-35]],[[2580,4729],[-23,-7],[3,-29],[-7,-11],[-34,22],[21,-57],[3,-18],[-7,-355]],[[2536,4274],[-3,-122],[-31,11],[-37,1],[-29,-6],[-5,-14],[-28,-2],[-9,-10],[-43,7],[-50,27],[6,21],[-3,28],[-16,2],[-29,32],[-27,21],[-21,4],[-45,19]],[[2166,4293],[-13,51],[-32,23],[-18,49],[5,37],[-33,57],[-9,2],[-15,-23],[-81,-18],[-50,9],[-27,17],[-26,-16],[-16,17],[-44,9],[-29,70],[1,36],[-15,10],[10,18],[-17,23],[11,22],[-4,22],[-26,56],[-14,12]],[[2566,5359],[27,9],[31,19],[23,-12],[9,-29],[14,-25],[26,-30],[20,-37],[12,-40],[41,-23],[30,-22],[27,-35],[33,-19],[42,-7],[38,-19],[29,14],[14,-8],[8,-20],[13,-7],[50,31],[19,-3],[40,-20],[17,-20],[-5,-17],[-23,0],[-5,-10],[10,-49],[-14,-16],[-20,-6],[-24,4],[-8,-12],[13,-19],[32,-16],[14,-23],[-1,-45],[16,-7],[28,9],[6,-6],[15,-57]],[[3163,4786],[-39,-4],[-56,4],[-52,-4],[-3,-16],[-36,-8],[1,-16],[-15,-4],[-28,5],[-4,-9],[-55,4],[-26,-1],[-53,-21],[-46,-28],[-10,-25],[-14,-7]],[[2727,4656],[-29,6],[-13,15],[-8,-9],[-25,-5],[-46,21],[-1,26],[-12,-1],[-13,20]],[[2498,5438],[44,-5],[19,13],[19,27],[10,-21],[33,-2],[23,-15],[25,-37],[118,-27],[26,21],[68,-22],[14,43],[-2,26],[21,0],[65,8]],[[2981,5447],[4,-22],[-15,-11],[13,-44],[21,-5],[24,-35],[3,-19],[-10,-21],[48,-13],[11,-7],[-9,-39],[15,-11],[9,27],[39,-10],[8,-36],[44,-17]],[[3186,5184],[6,-15],[28,4],[17,-51],[-14,-12],[-22,12],[-9,19],[-19,12],[-26,-23],[-7,39],[-25,-18],[-2,-26],[15,-19],[14,-33],[22,-17],[18,-27],[17,-5],[-1,-15],[15,2],[-15,-27],[12,-30],[-10,-24],[14,-25],[16,-5],[22,-20],[20,-25],[24,-13]],[[3296,4842],[-20,-2],[-17,-15],[-10,-36],[-20,-24],[-31,-22]],[[3198,4743],[-35,43]],[[2279,5649],[16,9],[9,32],[38,28],[39,20],[69,14],[46,-33],[42,-25],[12,-18],[1,-33],[15,2],[21,28],[29,0],[19,15],[22,34],[38,23],[64,8],[16,17]],[[2775,5770],[35,-11],[2,14],[31,23],[22,-5],[15,-33],[14,-1],[18,-14],[-11,-30],[-12,1],[-8,-28],[-17,-1],[-12,-33],[-4,-40],[16,-25],[0,-22],[29,-13],[-4,-17],[19,4],[48,-42],[4,-16],[22,-1]],[[2982,5480],[-9,-13],[8,-20]],[[2152,5809],[0,43],[40,-5],[2,20],[51,76],[12,49],[8,9],[-1,31],[24,10],[10,16],[-3,28],[10,6],[-3,34],[9,24],[2,35],[23,20],[-21,22],[-8,28],[-38,3],[-6,16],[10,10],[-9,13],[10,43],[6,7],[44,9],[1,9]],[[2325,6365],[23,11],[28,43],[44,27],[23,51],[25,8],[54,-10],[14,-6],[9,-21],[19,-14],[58,-12],[90,20],[18,21]],[[2730,6483],[18,-16],[15,-2],[-7,-22],[8,-45],[-8,-13],[-52,-5],[11,-33],[19,-12],[6,-14],[89,-43],[-21,-49],[9,-27],[-16,-31],[0,-28],[-9,-17],[-1,-34],[-18,-7],[1,-19],[28,-17],[12,-17],[-2,-30],[14,0],[2,-17],[-10,-12],[3,-18],[-20,-21],[9,-50],[-4,-49],[-11,-21],[-13,-8],[-7,-36]],[[1991,6528],[-11,2],[-26,-32],[-5,-64],[-15,-30],[-15,-1],[-10,-19],[-36,0],[-9,-16],[-18,2],[-39,-19],[-44,-35],[-28,-9],[10,-33],[-22,-21],[-18,13],[-14,-3],[2,-18],[-21,-19],[-1,-15],[14,-44],[-8,-55]],[[1677,6112],[-96,48],[-22,22],[-14,31],[-30,29],[-9,21],[4,19],[14,13],[-10,37],[17,27],[0,34],[7,10],[-10,39],[20,25],[-1,22],[20,2],[40,33],[-2,15],[31,-9],[-5,15],[43,33],[10,15],[9,-7],[30,22],[19,-4],[17,8],[-2,14],[12,19],[-12,2],[0,18],[12,7],[4,18],[15,0]],[[1788,6690],[59,-37],[61,-17],[31,-16],[36,-33],[25,-31],[-9,-28]],[[1859,5622],[-12,29],[-14,59],[-23,10],[-22,31],[-11,28],[-43,52],[-15,57],[10,73],[-4,16],[4,41],[-41,64],[-11,30]],[[1991,6528],[26,-19],[5,-57],[-11,-18],[-10,-59],[4,-39],[18,8],[37,-3],[2,25],[16,-7],[28,13],[19,19],[15,29],[18,11],[63,-16],[46,-33],[29,-12],[24,19],[5,-24]],[[2730,6483],[43,36],[57,59],[13,19],[31,-5],[18,-48],[15,-18],[41,9],[6,-34],[23,-25],[33,-12],[2,54],[10,6],[1,42],[7,21],[-19,17],[-22,33],[15,37],[23,24],[73,58],[2,42],[-17,41],[-3,43],[-8,29],[-29,40],[-38,45]],[[3007,6996],[71,-11],[9,-13],[41,-24],[13,12],[32,4],[26,-46],[35,-49],[5,-34],[21,-26],[11,-49],[21,-23],[3,-19],[-14,-23],[16,-68],[36,-32],[-8,-18],[13,-16],[23,-4],[-4,-51],[2,-129],[10,-34],[0,-34],[-16,-62],[0,-14]],[[3353,6233],[-100,11],[18,-34],[-47,-9],[-15,-27],[3,-65],[-7,-23],[11,-41],[29,-36],[-9,-28],[-14,-19],[-14,-33],[-49,-2],[-28,-6],[-12,-20],[-17,-5],[-7,-17],[12,-35],[-10,-23],[8,-46],[13,-1],[-10,-42],[10,-2],[-9,-65],[-11,-18],[5,-23],[-6,-19],[-38,9],[-16,-54],[-49,-8],[4,-12],[-17,-31],[1,-29]],[[1788,6690],[3,19],[29,-3],[-5,13],[33,3],[41,22],[26,-17],[14,3],[7,52],[14,31],[43,22],[5,20],[24,21],[29,7],[17,19],[2,21],[36,26],[-1,32],[29,9],[20,-3],[1,24],[39,10],[38,22],[24,-1],[9,8],[13,-19],[14,20],[28,-17],[10,22],[49,15],[18,58],[16,2],[20,18],[13,-13],[37,4],[-14,17],[12,31],[12,2],[6,24],[19,24],[-12,40],[10,26],[-17,10],[-2,24],[-19,7],[1,22],[14,20],[-15,26],[-23,12],[-15,31],[21,44],[1,23],[15,21],[-8,12],[11,18],[-10,27],[-33,55],[4,24],[26,10],[11,29],[-6,24],[15,41],[-19,24],[-5,28],[24,18],[21,-7],[44,3],[31,13],[40,-20],[21,-37],[45,-48],[23,-43],[41,-44],[34,-42],[15,-2],[111,18],[37,17],[47,-13],[71,-7]],[[3068,7642],[-2,-41],[-15,-22],[-23,-16],[-4,-32],[20,-43],[-18,-51],[-4,-27],[12,-41],[-3,-45],[-34,-40],[-21,-4],[-13,-40],[-41,-9],[-9,-14],[-7,-39],[-1,-47],[-20,-24],[-13,-26],[-2,-52],[15,-16],[40,-10],[82,-7]],[[3353,6233],[56,-6],[81,-30],[-7,-33],[40,0],[26,-18],[-1,-26],[16,-12],[-9,-45],[12,-5],[-11,-38],[43,-70],[-7,-7],[0,-45],[26,-15],[-11,-33],[-16,-17],[4,-16],[-18,-7],[-17,-44],[-5,-45],[-18,-16],[-30,-45],[5,-27],[38,-29],[25,-34],[-2,-46]],[[3573,5524],[-3,-31],[-13,2],[-10,17],[-12,-1],[2,-33],[-25,-32],[12,-17],[19,-9],[8,-17],[-18,10],[-32,4],[-9,18],[-9,-6],[-8,-27],[-23,15],[-6,-16],[-32,10],[3,-35],[-18,-12],[-25,12],[-20,-16],[-19,-1],[-3,-20],[-15,-15],[-16,41],[1,15],[-16,6],[-1,-18],[-12,-19],[-27,4],[-14,-24],[17,-7],[3,-16],[-18,5],[3,-39],[18,6],[12,-14],[-4,-14],[-52,0],[-4,-12],[30,-14],[-6,-30],[-45,-10]],[[5934,4678],[52,-43],[-46,-11],[-19,0],[-4,-14],[14,-5],[4,-17],[23,-17],[15,3],[28,-19],[-1,-16],[16,-33],[41,-33],[26,-74],[22,-7],[3,-43]],[[6108,4349],[-12,-17],[-17,0],[-36,-19],[-17,-20],[-9,-22],[3,-25],[-12,-20],[-32,-7],[-4,-23],[7,-19],[-2,-30],[8,-10],[1,-81],[-7,-66],[29,-11],[3,-43],[-17,-15],[24,-31],[-15,-16],[20,-25],[-15,-13],[32,-33],[-21,-21],[18,-27],[21,-46],[-3,-32],[29,-13],[-17,-47],[21,-12],[-17,-31],[27,-50],[18,-14],[-10,-48],[-8,-19],[19,-2],[17,-11],[-17,-49],[23,-19]],[[6140,3362],[-10,-20],[-17,-9],[-19,-30],[-25,-11],[-43,-6],[-23,-16],[-8,-18],[-24,-14],[-31,-1],[-25,-10],[-6,8],[-21,-16],[-34,-2],[-48,13],[-4,-18],[-33,6]],[[5769,3218],[1,57],[-21,52],[-4,42],[-10,15],[2,51],[-12,15],[-16,5],[5,32],[-28,20],[-1,38],[-18,28],[-8,30],[-3,47],[22,10],[-26,27],[-7,34],[-16,33],[3,64],[-5,69],[-32,11],[28,21],[31,7],[-35,48],[7,8],[-61,76],[11,22],[-40,8],[-5,30],[20,11],[-8,26],[-12,8],[0,16]],[[5531,4179],[6,25],[-24,14],[14,9],[8,23],[-5,39],[23,16],[9,23],[-17,43],[-7,72],[-18,3],[-3,20],[-14,17],[-28,-21],[-43,32],[-40,23]],[[5392,4517],[12,32],[1,36],[-7,21],[13,57],[16,45],[53,-8],[42,-17],[24,1],[9,18],[25,-7],[2,49],[29,-7],[14,17],[23,-11],[5,10]],[[5653,4753],[73,90],[28,19],[18,90],[10,39]],[[5782,4991],[32,-8],[-6,-39],[19,-29],[-13,-40],[36,-30],[-6,-28],[-14,-4],[-5,-19],[-25,-8],[-8,-29],[-23,-20],[46,-64],[19,-5],[-6,62],[11,4],[47,-49],[13,-27],[13,-9],[22,29]],[[5934,4678],[7,8],[-17,53],[38,8],[-7,22],[8,14],[41,22],[27,-3],[30,-15],[7,13],[-10,30],[5,11],[37,2],[9,31],[12,6],[39,-9],[21,16],[10,18],[-3,28],[-23,38],[10,24],[29,-3],[32,28],[31,13],[-5,37],[19,26],[-3,26]],[[6278,5122],[14,28],[26,-5],[10,7],[-18,21],[2,20],[13,15],[32,19],[14,47],[10,7],[31,-22],[28,37],[15,1]],[[6455,5297],[32,-25],[33,22],[10,-1],[13,-22],[16,-11],[69,10],[22,18],[24,9],[12,-22],[28,-17],[8,-17],[35,-16],[38,13],[19,-14],[23,-3],[28,-20]],[[6865,5201],[-8,-37],[16,-37],[-18,4],[-13,-54],[-32,-83],[6,-40],[11,-16],[23,-9],[1,-38],[-22,-3],[-8,-58],[-13,0],[1,-34],[18,-36],[9,-5],[-7,-48],[0,-23],[-46,4],[-29,-13],[-11,4],[-40,-5],[-14,-9],[-41,4],[-12,6],[-12,-12],[-16,6],[-23,-7],[-17,5],[-25,-15],[23,-19],[14,-34],[2,-29]],[[6582,4570],[19,-39],[12,-7],[-15,-63],[10,-26],[11,-6],[-10,-20],[-5,-49],[31,-17],[-2,-21],[15,-34],[0,-40],[15,-27],[0,-32],[-19,-65],[12,-13],[-9,-14]],[[6647,4097],[-37,-8],[-21,20],[-20,-3],[-17,-28],[-20,0],[-2,17],[25,8],[-3,15],[-19,11],[-8,27],[-11,-3],[-20,-29],[-26,-12],[-15,-26],[-28,27],[0,22],[21,26],[-30,11],[-1,31],[-17,13],[-32,-9],[-24,7],[2,24],[-23,1],[-24,-51],[-11,-7],[-18,17],[0,28],[-16,11],[-5,29],[18,23],[-7,14],[-31,-4],[-7,24],[-23,-4],[-17,6],[-22,-6],[-40,7],[1,26],[-11,-3]],[[5392,4517],[-39,22],[-22,-1],[-6,-26],[20,-34],[-6,-14],[-41,16],[-12,16],[-9,37],[-13,18],[-20,-3],[-40,-18],[-32,-2],[-19,-14],[1,-11],[31,-4],[8,-10],[-8,-56],[-5,-10],[-26,3],[-11,13],[-2,25],[-13,24],[-12,5],[-26,-10],[-5,-26],[10,-39],[-14,-13],[-39,1],[-23,-9],[-18,-21],[-28,-49],[-4,-50],[-31,-19],[-20,1],[-78,17],[-19,16],[-29,42],[9,20],[26,17],[8,18],[-19,42],[-26,-2]],[[4790,4429],[-7,32],[3,31],[-32,-4],[-28,12],[-18,24],[-40,10],[-4,17],[-22,11],[-9,31]],[[4633,4593],[30,25],[4,34],[37,36],[25,-7],[18,16],[-7,40],[-23,4],[-2,11],[-35,-1],[-6,-12],[-33,12],[-7,37],[9,4],[12,60],[-52,11]],[[4603,4863],[9,7],[-6,20],[17,30],[10,50],[29,25],[14,22],[-3,37],[33,28],[4,24],[20,44],[13,14],[24,60],[-2,41]],[[4765,5265],[53,-15],[45,-8],[27,-35],[0,-9],[41,-6],[28,-16],[83,-31],[20,5],[61,-27],[5,27],[52,-4],[54,-15],[-23,-32],[4,-14],[36,5],[12,-26],[38,-14],[1,-25],[40,-2],[-4,-9],[24,-7],[6,-12],[72,3],[2,-13],[49,-15],[-6,-17],[73,-75],[10,-24],[19,-2],[39,-27],[-10,-31],[33,-24],[4,-17]],[[4765,5265],[27,64],[22,32],[57,6],[25,21],[11,39],[9,2],[8,31],[10,0],[21,21],[24,14],[33,53],[42,26],[14,16],[11,44],[14,71],[8,2],[14,28],[-3,32],[29,12],[10,17],[16,48],[23,15],[7,35],[17,21],[12,48]],[[5226,5963],[-8,7],[25,23],[1,21],[14,14],[11,30],[-4,18],[12,14]],[[5277,6090],[39,-23],[4,-29],[14,-21],[33,-19],[-2,-31],[13,-28],[42,-15],[24,-1],[22,-34],[38,-33],[3,-20],[14,-13]],[[5521,5823],[-3,-20],[-21,-12],[1,-24],[9,-4],[-7,-40],[30,-29],[20,5],[8,-28],[9,-9],[8,-51],[-2,-26],[35,-82],[25,-32],[25,-41],[21,3],[36,-12],[-11,-36],[40,-33],[6,-24],[25,-9],[-9,-37],[7,-9],[-5,-33],[22,-6],[32,-32],[30,-4],[-40,-95],[-17,-74],[-13,-38]],[[6647,4097],[16,-8],[18,-26],[13,30],[49,-13],[28,1],[18,-39],[-10,-15],[-22,7],[1,-28],[11,-33],[36,-81],[14,-18],[48,13],[14,-3],[-10,-65],[27,-20],[27,9],[11,-6],[-1,-28]],[[6935,3774],[-10,-19],[2,-32],[12,5],[-14,-39],[13,-32],[16,-7],[1,-25],[9,-8],[-4,-18],[-12,-4],[-9,-19],[-19,-4],[-22,-21],[0,-52],[-11,1],[-17,-20],[-33,-3],[-17,19],[-23,-8],[-7,-22],[-31,-5],[-26,-12],[-1,-40],[24,-26],[4,-56],[17,-38],[-2,-24],[38,-19],[19,-2],[5,-14],[24,-17],[19,-28],[10,-36],[30,-39],[15,-1],[-1,-22],[-13,-49],[32,-5],[-2,-18],[19,-10],[0,-17],[40,-25],[36,16],[61,7],[14,-18],[-8,-59],[18,-17],[8,-28],[-8,-7],[-12,-45],[13,-20],[5,-25],[-11,-28],[4,-70],[-14,-34],[2,-15],[-11,-44],[-12,-16],[-4,-32],[-7,-6],[-25,7],[-16,15],[-95,23],[-7,-13],[9,-35],[-3,-43],[7,-2],[17,-52],[5,-32],[19,-25],[-7,-62],[-4,-3],[-12,-59]],[[6972,2241],[-64,25],[-34,21],[2,9],[-49,31],[-16,5],[-19,21],[-60,24],[-12,10],[-23,39],[4,31],[-9,15],[21,30],[3,20],[23,-8],[5,38],[-9,3],[9,31],[22,12],[16,-2],[11,15],[35,28],[-5,15],[10,11],[5,40],[32,22],[3,26],[-12,69],[15,36],[-5,28],[-14,12],[-10,-5],[-41,8],[-26,-5],[-10,-20],[-27,-16],[-31,2],[-21,-10],[-18,-25],[-24,6],[12,31],[17,19],[-1,14],[-32,15],[5,15],[-5,51],[7,66],[-9,17],[-46,4],[-67,30],[-21,-10],[-1,10],[-24,-4],[-53,31],[-16,20],[-27,15],[-82,21],[-5,15],[6,26],[-24,5],[3,14],[-39,11],[-16,28],[-18,20],[-59,33],[-14,32]],[[6935,3774],[8,-2],[25,27],[30,16],[15,-3],[40,-28],[-21,-38],[8,-22],[45,-2],[24,-8],[-2,-31],[-7,-14],[11,-19],[52,-3],[25,3],[-14,19],[-6,24],[25,31],[25,6],[12,59],[24,2],[37,-12],[7,-8],[0,-36],[16,-25],[29,14],[34,-11],[4,-9],[-7,-45],[10,6],[48,46],[14,53],[37,12],[4,-28],[20,-12],[33,-7],[31,-13],[12,27],[22,12],[-4,-44],[11,-5],[26,23],[71,46],[15,-10],[26,20],[18,-5]],[[7768,3780],[-7,-27],[15,-32],[-5,-19],[-20,-13],[34,4],[-3,9],[23,17],[5,-5],[-4,-70],[17,0],[-2,26],[24,-9],[13,-18],[-11,-19],[11,-6],[-3,-18],[-24,-12],[8,-30],[-29,-27],[-5,-40],[-10,-21],[-24,5],[3,-18],[-17,-40],[26,-33],[32,-21],[11,-19],[31,-38],[17,-60],[18,-21],[9,-30],[31,-21],[11,-19],[17,-7],[17,-39],[24,-5],[-17,-43],[-16,-19],[-9,-50],[4,-29],[-24,-33],[-2,-14],[-22,-76],[2,-16],[39,-39],[25,-48],[2,-15],[-29,-60]],[[7954,2662],[-17,-27],[11,-60],[-7,-54],[9,-47],[10,-20],[-9,-51],[-26,10],[-99,30],[-61,10],[1,12],[-51,-9],[-14,9],[-44,2],[-28,-26],[-1,-35],[-15,-12],[-11,-25],[-49,8],[-30,-19],[-28,8],[-13,-34],[-25,-15],[-9,-16],[-14,1],[-26,-27]],[[7408,2275],[-31,-9],[-8,5],[-11,-31],[-34,-14],[-30,-7],[-36,11],[-36,-13],[-26,-23],[-9,-26],[-27,20],[-20,-13],[-61,37],[-107,29]],[[5531,4179],[-24,10],[-3,17],[-19,9],[-4,-9],[-61,-6],[-14,-11],[-75,10],[-18,-3],[-3,-26],[-32,-7],[-32,14],[-15,13],[-43,-29],[-40,-1],[-11,-13],[-21,-6],[-28,5],[-2,9],[-40,-7],[-16,42],[-30,17],[-59,1],[-5,-22],[4,-65],[-40,3],[5,-48],[-9,-8],[4,-43],[-32,-59],[0,-19],[-12,-28],[-19,17],[-27,-22],[-21,-48],[-22,1]],[[4767,3867],[-1,24],[-18,48],[-40,3],[-15,12],[-11,67],[-21,28],[-10,44],[11,26],[17,75],[-12,13],[13,33],[-11,22],[27,9],[9,12],[-29,79],[1,16],[-16,6],[-32,1],[-5,17]],[[4624,4402],[44,-10],[26,21],[15,2],[20,-20],[25,-6],[26,17],[10,23]],[[5769,3218],[-24,-66],[2,-49],[-9,-40],[-12,-19],[-11,-71],[1,-36],[15,-40],[2,-19],[-15,-52],[5,-30],[0,-54],[-12,-41],[-17,-22],[-15,-38],[4,-51],[22,-74],[10,-23],[-3,-60],[-8,-63],[-14,5],[-9,-92],[0,-20],[-8,-82],[-43,35]],[[5630,2216],[-2,52],[-12,34],[-14,14],[-50,23],[-42,39],[-7,22],[-24,14],[-96,14],[-47,-7],[-39,6],[-21,9],[-23,-6],[-39,28],[-61,30],[-50,29],[-32,2],[-3,10],[-45,6],[-12,21],[-23,3],[-41,34],[-17,27],[9,15],[-3,28],[-34,28],[-14,24],[-18,4],[-23,31],[2,12],[-34,7],[-11,9],[-2,26],[-13,29],[-2,29],[4,45],[-15,24],[3,22],[21,61],[9,16],[26,9],[20,-6],[4,10],[32,2],[25,18],[14,2],[4,15],[-20,57],[-11,4],[13,50],[-2,47],[-11,5],[16,22],[2,19],[-11,18],[-2,37],[21,28],[5,36],[-3,31],[17,27],[-3,24],[-11,-4],[6,21],[-8,4],[-14,35],[8,40],[-16,32],[18,28],[-5,23],[15,-3],[5,17]],[[4943,3678],[-40,34],[-30,-4],[-48,35],[6,13],[-27,39],[-13,-1],[0,25],[-24,48]],[[6865,5201],[47,-8],[10,-14],[-5,-18],[6,-35],[18,9],[15,-11],[-8,-32],[25,-23],[51,16],[11,-27],[32,-40],[17,1],[12,68],[24,13],[9,-26],[23,-30],[20,15],[7,30],[31,-2],[25,-30],[9,-28],[31,-1],[26,-13],[45,52],[25,55],[-8,18],[10,50],[42,1],[22,-20],[15,24],[33,-22],[11,8],[6,35],[11,24],[28,1]],[[7541,5241],[-1,-46],[-8,-8],[13,-15],[1,-38],[16,1],[11,-13],[2,-27],[-16,-50],[13,-10],[-3,-51],[5,-20],[-34,-25],[-19,-6],[-39,12],[-37,1],[-42,-12],[1,-21],[-39,-15],[-32,-4],[-2,-20],[148,26],[61,4],[33,9],[21,12],[76,26],[24,-4],[68,3],[91,15],[19,8],[54,-6],[104,30],[24,2],[30,11],[69,16],[15,0],[57,-26],[20,5],[47,-7],[42,10]],[[8334,5008],[-38,-52],[-19,-6],[8,-49],[-15,-13],[-16,-30],[-51,-7],[9,-33],[-6,-42],[8,-23],[-17,-13],[5,-34],[-6,-49],[-16,-24],[-3,-57],[-16,-33],[1,-43],[-6,-24],[-30,-28],[-9,-27],[11,-8],[2,-46],[-16,-36],[-27,-17],[4,-34],[19,-14],[3,-42],[16,-21],[5,-21],[16,-3],[20,-29],[11,-65],[-15,-17],[18,-13],[40,11],[4,-15],[-10,-15],[13,-18],[-3,-22],[-20,-3],[-46,-24],[-30,-8],[-14,14],[-19,42],[-18,-26],[-45,6],[-22,-2],[5,12],[-18,23],[-13,-17],[-15,13],[4,31],[-23,8],[-10,-24],[-38,-19],[-46,13],[4,-20],[-12,-10],[-8,10],[-17,-12]],[[7827,4003],[-39,50],[-23,40],[-97,124],[-23,19],[-429,156],[-438,161],[-196,17]],[[7827,4003],[-10,-13],[15,-16],[2,-26],[-37,-22],[10,-10],[-23,-24],[16,-23],[-17,-59],[-16,-7],[1,-23]],[[6455,5297],[2,36],[18,-1],[6,-28],[31,2],[12,21],[20,-5],[11,20],[24,19],[40,19],[-8,23],[3,27],[-13,18],[12,55],[2,45],[16,10],[0,14],[15,19],[-3,20],[14,12],[25,-4],[6,11],[26,11],[-2,13],[33,13],[-11,5],[0,23],[11,2],[-1,21],[-16,22],[6,15],[25,24],[7,35],[22,38],[5,24]],[[6793,5876],[7,-29],[28,-2],[23,24],[19,8],[15,-14],[36,0],[16,8],[-31,-57],[29,-13],[10,-33],[21,-7],[19,29],[122,152]],[[7107,5942],[10,-6],[53,-14],[57,-7],[12,-22],[16,3],[-5,20],[5,53],[11,11],[38,-52],[24,-19],[18,-30],[9,-30],[15,24],[5,30],[-14,24],[-22,9],[2,19],[13,10],[-3,26],[-23,37],[4,18],[40,0],[22,-31],[51,-2],[10,38],[20,43],[9,8],[24,61],[21,-33],[145,-137],[146,-130],[-47,-92],[12,-11],[-8,-15],[2,-25]],[[7779,5720],[-28,-11],[8,-18],[-11,-23],[-39,-30],[-14,-6],[-6,-25],[-26,9],[-15,-29],[6,-41],[-9,-21],[-7,-60],[16,-23],[21,-4],[5,-13],[-4,-30],[13,-43],[-11,-11],[12,-17],[-43,-7],[-24,-22],[-42,18],[-20,-11],[15,-30],[-35,-31]],[[5521,5823],[21,22],[10,27],[39,13],[30,-4],[18,3],[30,23],[23,4],[13,-7],[21,-64],[39,-39],[46,6],[30,-10],[22,-16],[-2,-11],[29,-15],[6,-29],[-7,-31],[29,-23],[50,-6],[11,12],[34,11],[36,-9],[2,34],[32,-6],[2,27],[48,12]],[[6133,5747],[17,-12],[47,5],[17,-9],[-8,-31],[-32,-33],[-31,19],[-10,-1],[-6,-27],[6,-34],[26,-39],[42,-23],[41,-34],[5,-19],[-17,-28],[-65,-2],[-4,-16],[22,-33],[-3,-23],[-12,-4],[-19,20],[-23,-5],[1,-41],[-5,-26],[19,-41],[-2,-23],[14,-19],[60,-9],[9,-48],[-23,-12],[1,-11],[29,-17],[21,-28],[26,0],[2,-21]],[[7408,2275],[9,-13],[-26,-54],[8,-11],[-12,-27],[2,-20],[-19,-42],[-13,-1],[-12,-24],[0,-22],[-12,-19],[-30,-31],[-51,-14],[-16,-9],[-19,14],[-10,-17],[6,-28],[-7,-38],[-17,-8],[1,-16],[-22,-1],[-31,-45],[-18,-3],[-14,-27],[7,-24],[-12,-13],[15,-60],[-18,-37],[-2,-29],[-25,-17],[-17,6],[-15,-44],[-14,-112],[-1,-53],[-22,4],[1,-12],[-22,-4],[6,-28]],[[6986,1396],[-23,-5],[-14,6],[-33,-10],[-35,14],[-8,-31],[-31,2],[-13,-11],[-12,-40],[-20,13],[-25,44],[-82,20],[-38,-16],[-18,12],[-13,45],[7,14],[-8,64],[11,17],[-22,0],[2,28],[-20,9],[11,22],[2,29],[13,6],[0,27],[9,27],[-2,29],[-31,10],[9,31],[-38,18],[-40,41],[-24,4],[-36,19],[-2,10],[-29,19],[-61,50],[-28,2],[-22,36],[17,32],[29,-9],[21,14],[-14,56],[-13,1],[5,20],[-9,17],[0,27],[-33,3],[-33,18],[-13,32],[-196,-35],[-7,-14],[-73,-25],[-7,-34],[-30,-68],[-14,-2],[-4,-20],[-78,-3],[-69,14],[-26,1],[-84,11],[-15,-1],[-21,-20],[-45,22],[-27,-3],[-25,6]],[[5558,1991],[21,36],[7,64],[8,43],[7,69],[29,13]],[[7954,2662],[14,-21],[17,6],[2,-12],[28,0],[45,-14],[4,-9],[29,-14],[37,9],[20,-19],[0,-17],[18,-8],[9,-20],[-4,-12],[12,-19],[-10,-17],[19,-21],[-22,-85],[-3,-21],[-14,-24],[8,-46],[-10,-87],[4,-42],[-4,-47],[-16,-45],[5,-37],[-13,-53],[9,-28],[-14,-16],[1,-43],[-11,-40],[-17,-36],[-24,-24],[37,-24],[14,9],[10,-9],[-17,-43],[-14,-77],[10,-7],[-13,-19],[8,-7],[-13,-31],[19,-35],[-13,-3],[7,-23],[-20,-31],[23,-7],[-5,-12],[11,-32],[0,-22],[-13,-5],[12,-17],[17,3],[-4,-27],[9,-9],[-6,-18],[16,7],[-8,-34],[10,-21],[-8,-10],[6,-34],[-6,-16],[12,-11],[10,-27],[5,-40],[-10,-12],[9,-14],[1,-35],[-10,-27],[22,-24],[-1,-18],[16,-28],[-16,-25],[18,-21],[-2,-37],[-18,-28],[7,-12],[-11,-35],[-9,-1],[8,-25],[-15,-15],[2,-10],[-11,-39],[-39,-14],[-8,-25],[23,-30],[-17,-18],[5,-49],[-14,-19],[-15,-41],[2,-58],[17,-9],[15,-28],[21,-54],[-11,-10],[6,-22],[-12,1],[-37,-31],[-12,-1],[-17,-31],[-50,-2],[-39,4],[-6,-10],[-29,3],[-13,-10],[-8,13],[-25,-17],[-12,-20],[-25,-1],[-30,-21],[-11,-2],[-10,-39],[2,-20],[33,-42],[14,-35],[-7,-30],[3,-31],[33,-11],[3,-10],[-26,-7],[-8,15],[-37,3],[-16,-9],[-7,9],[-35,-5],[-34,-16],[-10,-16],[-23,-11],[-8,14],[-41,9],[-5,-18],[-25,-10],[1,17],[-16,42],[-10,13],[1,38],[-12,19],[-6,39],[-17,16],[-20,0],[-8,27],[-32,15],[-6,-13],[-38,6],[-21,23],[-8,26],[3,14],[-5,43],[-18,30],[-8,32],[-23,52],[1,26],[-7,22],[6,15],[0,47],[-25,31],[-15,-5],[-7,21],[-13,12],[-128,3],[-24,-6],[-25,6],[-44,3],[-57,-3],[14,62],[16,23],[-20,44],[2,15],[16,30],[-4,18],[12,22],[20,9],[-1,24],[9,22],[-6,6],[6,34],[-11,17],[2,34],[14,9],[-17,17],[-11,25],[-3,22],[30,21],[-4,15],[27,18],[3,16],[-19,24],[10,9],[-16,22],[-15,68],[-9,20],[-35,11],[5,15],[-19,70],[4,5],[-17,25],[-20,13]],[[6793,5876],[-1,24],[-20,5],[-16,-5],[0,-15],[-22,0],[-38,-10],[1,-15],[-34,-6],[-13,43],[-38,42],[-50,-5],[-31,10],[-15,-19],[-25,13],[-57,9],[4,20],[-9,28],[12,24],[2,25],[-43,63],[-20,-8],[-28,28],[-3,34],[-19,2],[-5,-17],[-19,-9],[-15,22],[-15,-5],[-1,31],[-22,-3],[5,34],[-17,18],[23,11],[-5,29],[16,8],[-10,25],[-9,2],[19,80],[-39,3],[10,33],[2,70],[-9,20],[15,15],[-12,15],[-25,-7],[-15,38],[-49,-36],[-20,-7],[-6,-13],[1,-47],[-8,-7],[-24,10],[-26,-14],[-15,13],[-32,-7],[7,19]],[[6030,6487],[-3,10],[-26,6],[-12,-20],[-18,-6],[-3,30],[27,34],[17,55],[-2,25],[-19,1],[-17,15],[-37,0],[-17,25],[-35,12],[-4,11],[17,103],[-17,21],[-1,36],[8,15],[-8,25],[-44,51],[-26,85],[12,39],[27,24],[2,22],[-16,8],[-2,14],[31,30],[16,32],[31,124],[21,51],[1,40],[-13,41],[-41,45],[-38,-3],[26,63],[30,13],[27,26],[18,31],[5,34],[-4,24],[7,24],[-11,26],[23,51],[50,24],[26,2],[8,19],[-22,11],[-2,30],[-7,6],[-21,-12],[-28,24],[-26,-10],[-14,2],[-25,16],[-22,4],[-23,14],[-3,52],[4,23],[16,18],[29,14],[44,-24],[30,-1],[28,6],[32,29],[21,46],[13,52],[-9,30],[26,63],[22,30]],[[6109,8248],[27,-33],[26,-1],[47,-32],[30,-35],[32,-18],[77,-54],[49,-38],[75,-85],[33,-30],[60,-32],[23,-21],[10,-35],[31,-16],[16,-28],[59,-15],[36,-14],[30,6],[32,-14],[31,0],[47,-13],[11,-34],[29,1],[42,-10],[18,-13],[23,0],[24,15],[15,-6],[14,-25],[22,-5],[23,3],[32,-8],[36,19],[18,-4],[8,-17],[-7,-29],[3,-27],[-5,-17],[-20,-16],[-8,-25],[-19,-18],[26,-21],[49,23],[6,-6],[-7,-24],[4,-24],[-14,-14],[5,-22],[22,-30],[19,-74],[-4,-12],[-20,-8],[3,-13],[36,-29],[1,-30],[-6,-33],[14,-17],[8,-48],[25,-33],[-13,-20],[-2,-34],[-19,-39],[1,-21],[13,-17],[19,0],[25,11],[22,-18],[2,-31],[56,-30],[4,-25],[-26,-28],[12,-29]],[[7400,6828],[-18,-23],[0,-23],[-25,-22],[5,-40],[-34,-25],[-1,-33],[-14,-34],[10,-16],[-6,-27],[12,-14],[34,6],[34,40],[18,-19],[-21,-24],[11,-20],[-10,-77],[-22,-36],[-11,-54],[-1,-22],[-14,-4],[-21,9],[-15,-33],[-23,-13],[-38,-115],[21,-48],[-13,-14],[-20,42],[-33,-5],[-31,-69],[27,-7],[-5,-22],[17,-11],[-106,-133]],[[6133,5747],[-9,17],[4,15],[34,26],[33,46],[1,31],[-7,20],[-30,12],[-13,14],[-63,32],[-2,63],[-14,13],[-6,25],[-34,13],[2,19],[-11,22],[-28,13],[-64,4],[2,25],[24,19],[20,25],[10,25],[-16,45],[39,63],[24,50],[-28,34],[1,32],[22,37],[6,0]],[[5277,6090],[-21,27],[-62,54],[-18,22],[-12,44],[-20,31],[-61,57],[-3,19],[17,35],[-6,25],[-37,47],[-5,57]],[[5049,6508],[22,57],[-2,13],[38,53],[1,36],[31,25],[18,33],[-2,29],[-11,9],[15,24],[11,41],[21,23],[3,14],[21,1],[32,35],[-3,13],[35,10],[40,17],[50,-13],[28,-18],[11,13],[-5,26],[17,8],[5,33],[10,13],[-1,44],[5,16],[-12,43],[-18,23],[-5,42],[8,2],[10,27],[-2,25],[-17,4],[7,13],[-6,20],[-19,3],[1,18],[-11,2],[-7,63],[-2,52],[20,41],[-31,23],[4,27],[-18,19],[-45,17],[34,41],[2,33],[31,24],[7,46],[26,78],[13,47],[13,12],[4,22],[-3,39],[17,34],[50,15],[26,27],[-2,25],[-20,15],[9,16],[-33,17],[9,6],[-10,20],[1,20],[-37,7],[-2,7],[46,34],[4,32],[-24,20],[-33,-29],[-17,29],[-17,52],[-13,-5],[-2,-22],[-49,70],[-12,9],[-27,-12],[1,-24],[-16,6],[-13,-11],[7,-25],[-6,-19],[-27,20],[8,27],[-29,30],[-4,25],[4,23],[-12,2],[7,18],[33,7],[14,18],[-2,17],[-15,31],[0,20],[17,0],[-6,58],[-33,10],[-13,36],[-20,19],[-26,4],[-3,25],[13,24],[25,30],[-1,24],[13,62],[0,70],[-61,27],[-18,-6],[-22,11],[-3,17],[11,9],[7,24],[-6,38],[-29,71],[-7,34],[37,50],[27,11],[28,27],[-6,36],[0,40],[12,32]],[[5173,9204],[15,-4],[40,7],[41,-31],[8,-23],[39,-47],[26,-40],[42,-37],[58,-72],[49,-52],[23,-9],[31,-28],[35,-38],[8,-21],[21,-19],[33,-60],[15,-12],[40,-63],[59,-68],[27,-45],[40,-18],[70,-55],[50,-70],[30,-29],[44,-27],[49,-47],[43,-48]],[[7400,6828],[27,-11],[1,-22],[17,-28],[29,-7],[3,-40],[17,-28],[22,-21],[29,-37],[14,-60],[17,16],[11,-12],[7,13],[6,40],[17,12],[49,-7],[43,5],[84,26],[13,-3],[33,-46],[49,16],[12,-44],[51,10],[23,17],[32,38],[13,30],[41,-3],[16,8],[11,32],[-10,15],[-35,13],[-51,4],[-5,16],[7,37],[-33,7],[-22,-5],[-42,6],[23,29],[40,19],[31,20],[25,3],[48,-14],[36,-4],[33,2],[29,-27],[21,-6],[10,-14],[20,-3],[48,-39],[58,-36],[24,-11],[45,-30],[28,-3],[31,-14],[13,10],[3,41],[-11,13],[4,36],[-18,40],[3,56],[-15,29],[7,26],[12,8],[10,32],[23,8],[5,21],[13,7],[1,24],[29,41],[16,44],[20,34],[28,9],[36,-2],[19,-27],[17,-7],[25,15]],[[8686,7145],[26,-19],[28,-36],[28,0],[12,-24],[18,-14],[35,-1],[24,-21],[22,-10],[32,9],[38,-10],[34,0],[31,-13],[30,-2]],[[9044,7004],[-11,-41],[-26,-15],[-42,16],[-17,-5],[-8,-26],[2,-24],[-22,-29],[-11,-38],[-28,-25],[-13,-28],[1,-30],[-27,-35],[-4,-36],[-14,-3],[-20,-28],[-4,-24],[-37,-17],[-4,-12],[13,-41],[47,-20],[-4,-33],[3,-27],[-12,-17],[-43,-1],[-40,-11],[-27,1],[-18,12],[-30,-2],[-28,6],[-3,51],[-7,17],[-21,7],[-36,-1],[-55,-21],[-27,2],[-37,17],[-31,-18],[-24,-25],[-11,-30],[-14,3],[-20,-17],[14,-41],[-2,-25],[12,-28],[13,-7],[2,-17],[-8,-31],[5,-22],[-24,-41],[1,-35],[-37,0],[-18,-60],[-27,-3],[-8,-30],[-6,9],[-17,-14],[-3,-27],[-17,-18],[-16,-42],[11,-16],[-21,-31],[5,-49],[-7,-12],[-22,0],[-16,-27],[-23,0],[-4,-18],[-24,-21],[-13,5],[-44,-50],[-30,-8],[-15,-29],[-9,3],[-14,-43],[10,-29],[-27,5],[-33,35],[-22,-4],[-10,18],[-48,-39],[-25,26],[-14,-24],[-24,4]],[[9044,7004],[28,-7],[17,-17],[17,-35],[0,-15],[28,-46],[21,-21],[36,-20],[21,-1],[17,-19],[25,-12],[2,-17],[21,-9],[64,-54],[28,-45],[50,-56],[39,-25],[52,-17],[56,8],[105,-56],[46,-5],[34,-12],[25,-38],[20,-17],[-14,-86],[-11,-51],[-26,-56],[-6,-43],[-24,-33],[-10,-67],[6,-75],[20,-46],[-4,-54],[-10,-31],[-32,-31],[-35,-39],[-10,-37],[-9,-14],[11,-5],[23,15],[29,-6],[32,10],[16,-4],[35,-31],[13,3],[22,-12],[15,4],[29,-9],[25,25],[29,20],[32,40],[19,13],[22,-7],[16,-28],[-13,-33],[7,-20],[-25,-20],[4,-33],[-13,-17],[5,-25],[-22,-17],[-23,-8],[-7,-19],[8,-49],[-10,-49],[7,-22],[1,-36],[19,-35],[3,-47],[-10,-13],[-10,-33],[20,-41],[-6,-5],[26,-11],[18,-23],[-21,-31],[-33,7],[-47,-11],[-19,1],[-18,-20],[-17,7],[-10,22],[-18,14],[-25,8],[-36,-9],[-17,5],[-6,16],[-32,17],[-58,-6],[-12,21],[-16,8],[-25,-24],[-21,2],[-35,-24],[-5,-42],[-12,-33],[2,-16],[-7,-41],[-7,-5],[-36,8],[-44,0],[-111,-18],[-87,9],[-72,16],[-22,-7],[-62,-7],[-75,-3],[-96,-13],[-79,-16],[-42,-2],[-28,5],[-27,-5],[-28,10],[-31,-3],[-37,-16],[-38,-3],[-48,-14],[-46,-6],[-35,-10],[-51,-33],[-54,-27]],[[6109,8248],[16,10],[47,57],[5,22],[0,52],[21,38],[0,21],[-32,59],[-5,19],[8,47],[-8,39],[3,72],[16,23],[10,1],[27,-32],[37,-25],[45,-8],[15,2],[24,17],[26,-4],[51,6],[17,28],[-7,31],[12,7],[67,15],[4,9],[-14,43],[10,7],[20,-6],[41,10],[13,21],[10,1],[40,-30],[27,16],[15,-15],[31,-15],[43,-36],[32,-44],[34,-13],[30,9],[17,17],[27,6],[39,-9],[23,13],[39,53],[8,22],[0,35],[12,20],[14,7],[40,-4],[35,27],[17,4],[15,-8],[-11,-36],[-9,-5],[-12,-33],[1,-34],[-6,-28],[32,-23],[10,1],[27,-19],[9,2],[27,-18],[12,-17],[18,-2],[44,-33],[34,-13],[8,-21],[72,-69],[16,-36],[20,-31],[22,-5],[35,-50],[19,-7],[32,11],[20,-14],[38,7],[21,-31],[28,12],[1,61],[15,44],[24,-3],[64,-35],[55,0],[21,-13],[22,14],[27,31],[14,23],[21,-5],[4,-20],[19,7],[24,-2],[-1,-23],[16,-14],[24,10],[3,-10],[20,3],[13,-10],[0,-37],[12,-13],[18,1],[18,-60],[2,-58],[26,-30],[14,-3],[27,-57],[13,-17],[-32,-43],[-34,-34],[-4,-13],[-33,-25],[-34,-3],[-10,-56],[-2,-39],[20,-14],[32,-48],[9,-33],[18,-21],[9,-38],[-5,-20],[24,-37],[7,-35],[-8,-51],[26,-17],[17,-40],[1,-26],[14,-32],[15,-11],[42,-7],[32,2],[32,-8],[18,2],[58,-29],[75,-33],[42,-10],[57,-3],[7,-10],[-26,-38],[-83,-51],[-47,-13],[0,-15],[25,-7],[5,-10],[23,-7],[23,-15],[25,-3],[28,-28],[58,-22],[51,-37],[32,-16],[30,-38]],[[1332,5440],[-1,-47],[-20,-19],[11,-18],[-8,-10],[11,-38],[-446,-263],[13,-28],[20,-12],[28,-3],[36,18],[18,26],[12,-6],[30,10],[54,-17],[50,24],[7,-31],[-1,-34],[5,-45],[0,-75],[7,-11],[5,-50],[-3,-40],[16,-14],[-4,-37],[4,-52],[-7,-7],[3,-42],[25,-83],[48,2],[35,-39],[-14,-21],[-1,-23],[-26,3],[-13,-11],[-18,11],[-9,-25],[-16,-7],[-17,-22],[-28,4],[-37,-37],[-20,-32]],[[1081,4339],[-20,21],[2,17],[-21,13],[-8,-20]],[[1034,4370],[-66,71],[-11,33],[-12,5],[-18,25],[6,16],[-27,36],[-9,28],[-5,44],[-12,-3],[-9,17],[-28,29],[-11,43],[-23,-1],[-30,14],[-19,-3],[-23,55],[-23,-8],[-30,15],[-34,4],[0,22],[-21,30],[-46,-8],[-23,13],[-10,17],[-10,46]],[[540,4910],[31,3],[23,-16],[10,21],[-11,25],[-9,42],[-17,32],[19,15],[30,-26],[21,15],[-13,22],[-15,11],[-9,21],[13,20],[17,11],[8,19],[4,49],[26,31],[-10,57],[14,8],[21,-8],[18,6],[13,30],[15,12],[26,35],[9,33],[43,-18],[19,5],[14,-16],[32,-6],[10,7],[14,-18],[28,14],[-4,20],[-11,4],[20,16],[94,15],[6,9],[73,14],[118,27],[44,-5],[20,3],[38,-9]],[[1034,4370],[6,-5],[-18,-24],[27,-29],[-15,-32],[13,-27],[-20,-17],[-11,36],[-43,-21],[-10,-16],[-36,2],[-16,21],[-27,9],[-12,-25],[-11,21],[-25,10],[-7,27],[-10,-9],[-27,5],[8,37],[-5,22],[-31,4],[-59,-46],[-36,3],[-8,-19],[-44,18],[-37,2],[-36,17],[-24,-4],[-11,11],[-93,77],[11,4],[15,25],[28,25],[8,29],[12,17],[-1,24],[27,34],[-1,31],[-22,28],[-26,20],[-37,14],[-20,-7],[-49,-5],[-7,24],[-22,11],[-52,71]],[[280,4763],[3,16],[-16,23],[-1,14],[12,24],[23,-7],[11,-34],[19,-8],[8,15],[-7,36],[16,29],[15,4],[23,-43],[18,-5],[11,18],[-6,37],[50,-2],[38,6],[43,24]],[[1081,4339],[16,-37],[13,-9],[-1,-20],[27,-23],[6,-42],[16,-7],[-6,-21],[13,-69],[-11,-32],[4,-77]],[[1158,4002],[-24,-37],[-6,-26],[-96,11],[-50,-6],[-39,11],[-47,37],[-73,12],[-50,17],[-63,7],[-36,27],[-55,-12],[-20,7],[-11,23],[-30,31],[-7,16],[2,36],[-33,15],[-7,25],[-38,6],[-9,-18],[-23,-9],[-30,4],[-13,13],[-14,37],[-33,12],[-15,30],[-24,1],[1,12],[-21,36],[-3,19],[-35,5],[-11,19],[-6,28],[-14,8],[-38,-32],[-23,-4],[-27,9],[-46,-27],[3,-27]],[[94,4318],[-38,3],[-20,9],[-33,38],[-3,25],[8,12],[21,3],[28,28],[-8,95],[-19,75],[-3,82],[-9,73],[34,12],[15,-13],[-2,-41],[25,-17],[21,19],[49,23],[21,19],[4,28],[37,-26],[28,9],[30,-11]],[[1158,4002],[19,-12],[30,12]],[[1207,4002],[19,-16],[8,-26],[30,-42]],[[1264,3918],[-17,-19],[-32,-12],[2,-15],[-7,-90],[-5,-30],[7,-9],[12,-49],[-27,-64],[-19,-26],[-26,-62],[-18,-24],[-75,-73],[-20,-64]],[[1039,3381],[-49,29],[-66,20],[-38,21],[-43,1]],[[843,3452],[-49,-19],[-6,36],[-12,32],[-12,2],[-27,-11],[-64,-6],[4,41],[23,19],[-1,35],[15,33],[-3,30],[-37,26],[-19,38],[-23,83],[-62,17],[-27,-6],[-27,4],[-36,26],[-21,31],[-87,5],[-32,16],[-52,-51],[-3,-18],[-56,7],[-30,14]],[[199,3836],[33,42],[7,22],[-9,45],[8,32],[-8,19],[-14,1],[-17,-28],[-28,-21],[-23,20],[11,30],[14,20],[5,36],[-5,54],[-21,75],[-32,50],[-9,34],[2,25],[-7,21],[-12,5]],[[843,3452],[15,-29],[12,-8],[-3,-31],[-10,-8],[3,-27],[-22,-10],[-8,7],[-18,-7],[-40,6],[-38,-7],[-14,24],[-9,-7],[-23,10],[-46,-5],[-9,-22],[8,-10],[-15,-13],[-49,-2],[2,-32],[-28,-5],[-27,-11],[-6,-28],[-32,-21],[-11,-30],[-16,-1],[-16,-19],[-25,1],[-14,11],[-25,-3],[9,-19],[-9,-20],[-29,-8],[-16,16],[-12,-7],[-33,-2],[-41,-60],[-15,7],[-28,-3],[-42,-18],[-30,-5],[-26,15],[-2,19],[22,15],[75,17],[27,21],[8,18],[0,28],[-14,15],[-44,11],[-46,30],[-45,24],[-27,29],[-29,59],[-11,36],[-1,38],[10,21],[23,16],[23,-11],[26,-48],[30,-35],[23,1],[21,18],[63,84],[11,45],[-4,28],[-9,12],[-24,-3],[-39,-53],[-34,-25],[-20,-4],[-25,22],[-12,30],[10,32],[27,10],[47,-11],[15,11],[0,24],[-27,38],[-7,17],[10,49],[-8,38],[10,43],[39,56]],[[2166,4293],[-18,-7],[-50,-10],[1,-11],[-59,18],[-20,-36],[-68,2],[-35,-36],[3,-13],[-34,-10],[-97,-19],[0,-8],[-37,-10],[4,-41],[-49,-14],[-23,-14],[-52,32],[-40,15],[-40,-11],[-3,-17],[-36,-6],[12,-85],[-41,15],[-18,13],[-31,-2],[-16,-13],[-44,-12],[-41,-5],[-19,6],[-23,-12],[-38,4],[-25,14],[-22,-18]],[[1332,5440],[67,-14],[3,-24],[24,-35]],[[2166,4293],[0,-57],[-5,-14],[-30,-40],[-17,-56],[-8,-74],[1,-59],[9,-29],[-13,-20],[2,-17],[26,-89]],[[2131,3838],[-62,-50],[-6,10],[-53,-26],[-36,-22],[-40,-10],[15,-12],[-7,-21],[12,-36],[-5,-38],[-9,-28],[-45,-14],[-40,-7],[-19,-15],[-5,-37],[-18,-28],[-40,-23],[-29,-22],[-11,-16],[-30,-9]],[[1703,3434],[-49,76],[-54,111],[-19,22],[-37,30],[-2,9],[-30,44],[-30,23],[-33,33],[-44,23],[-27,4],[-33,15],[-19,18],[-37,50],[-25,26]],[[1703,3434],[76,-119],[-24,-12]],[[1755,3303],[-52,21],[-43,-17],[-10,-21],[-7,10],[-24,0],[-7,-13],[-22,15],[-14,-9],[-25,14],[-42,13],[-1,19],[-48,2],[-13,18],[-23,10],[-46,-32],[-41,7],[-13,-13],[-29,-10],[-34,-48],[-28,-8],[-21,5],[-21,-12],[-37,-8],[-19,-24],[-30,16],[-10,36],[11,31],[-12,33],[-55,43]],[[2131,3838],[9,-61],[31,-95],[21,-47],[42,-56],[58,-37],[37,-7],[59,-25],[15,-12],[33,-47],[27,-13],[27,-21]],[[2490,3417],[13,-28],[-13,-71],[-10,-6],[-2,-29],[-11,-38],[1,-45],[5,-47],[-5,-33],[-6,-87]],[[2462,3033],[-60,38],[-64,30],[-37,45],[-43,1],[-26,40],[-19,7],[-5,36],[-21,14],[-13,21],[-28,1],[-19,-12],[-16,-27],[-23,-66],[-12,-17],[-42,8],[-24,14],[2,28],[-6,14],[11,36],[-10,25],[-24,-34],[-16,-4],[-50,2],[-29,6],[-64,3],[-17,6],[-35,46],[-17,9]],[[3573,5524],[24,3],[45,-5],[26,27],[15,0],[10,17],[16,-10],[26,34],[3,19],[22,35],[7,-18],[75,-51],[17,-25],[20,6],[3,18],[-15,10],[4,65],[16,1]],[[3887,5650],[-1,-14],[18,2],[22,27],[-10,28],[18,-5],[35,10],[23,-8],[25,-18],[13,2],[10,30]],[[4040,5704],[11,-5],[7,-23],[14,-14],[25,-10],[9,-26],[14,-8],[4,-24],[30,-2],[7,-35],[10,-8],[-1,-22]],[[4170,5527],[-42,-19],[18,-26],[0,-21],[-14,-45],[20,-13],[15,-43],[-8,-35],[7,-56],[-11,-10]],[[4155,5259],[-69,43],[-56,12],[-57,0],[-82,29],[45,-92],[-43,3],[-74,26],[-66,-9],[-27,-14],[-20,-30],[-21,4],[-41,-32],[-9,31],[-12,16],[-40,8],[-22,-7],[-10,-42],[-69,-7],[-10,-42],[-6,-42],[5,-28],[23,-35],[33,-29],[24,-5],[-12,-21],[-7,-42]],[[3532,4954],[-16,-25],[-26,2],[-19,10],[-19,-7],[-4,25],[-19,1],[-48,-24],[25,-59],[-29,-9],[-15,5],[-26,-22],[-40,-9]],[[4155,5259],[-16,-11],[-31,-37],[-15,-44],[13,-16],[51,-10],[23,-23],[28,8],[28,-13]],[[4236,5113],[-14,-14],[-27,-40],[-19,-47],[-23,-22],[-30,-9],[-33,32],[-21,-6],[-10,-51],[-40,11],[-15,12],[2,-25],[-3,-62],[-53,-123],[-43,-75]],[[3907,4694],[-19,7],[-19,-7],[-22,8],[0,13],[15,13],[2,16],[-45,-9],[-17,-20],[-10,1],[-15,19],[-20,-13]],[[3757,4722],[-29,34],[-37,33],[10,59],[1,26],[-16,6],[-15,-14],[-48,16],[-9,21],[-37,12],[-45,39]],[[4633,4593],[-16,-12],[-23,-2],[-32,-17],[-36,-6],[-15,-30],[-40,-4],[-11,30],[-44,26],[-22,-6],[-22,12],[-47,-5],[-6,-6],[-32,14],[-33,-8],[-21,17],[-14,-32],[-38,-15],[-23,18],[11,16],[2,20],[-10,6],[-23,52],[-40,11],[-12,-4],[-40,39],[-70,-6],[-27,-18],[-23,-24],[-12,0],[-7,35]],[[4236,5113],[11,-15]],[[4247,5098],[19,-18],[-9,-30],[-21,-43],[-14,2],[-17,-13],[4,-36],[49,-29],[3,-25],[17,8],[31,-14],[14,-17],[-19,-17],[-4,-14],[32,-9],[6,-22],[21,-21],[52,17],[39,-12],[66,16],[24,-8],[35,7],[28,43]],[[4170,5527],[101,46],[25,2],[97,-12]],[[4393,5563],[-44,-45],[-14,-33],[6,-57],[-5,-23],[51,-19],[43,-43],[17,-3],[28,12],[39,-20],[5,-18],[-26,-99],[-1,-38],[-13,-24],[-39,-23],[-41,-5],[-50,1],[-23,8],[-11,-16],[-15,5],[-23,-24],[-10,7],[-20,-8]],[[4393,5563],[53,-12],[288,-130],[34,36],[8,72],[6,16],[-9,8],[11,50],[19,17],[15,-2],[-2,21],[13,-1],[10,20],[3,35],[-7,14],[56,22],[16,-8],[4,15],[19,10],[24,30],[5,43],[16,11],[0,17],[14,28],[18,10],[22,38],[68,32],[12,29],[3,28],[12,-9],[20,6],[28,-19],[14,-20],[40,-7]],[[4040,5704],[16,22],[16,8],[-24,10],[-11,18],[16,22],[-6,21],[29,12],[53,-10],[22,22],[33,-13],[33,-2],[0,-14],[16,-10],[50,4],[2,41],[-15,7],[-5,60],[15,17],[1,41],[-17,9],[4,24],[-21,2],[-6,12],[-50,28],[17,44]],[[4208,6079],[17,-3],[28,19],[9,-6],[4,25],[11,13],[16,2],[13,15],[20,-4],[3,-14],[17,-7],[8,14],[16,-2],[23,30],[14,-2],[7,23],[19,27],[0,-17],[19,13],[1,19],[20,26],[1,35],[15,25],[4,25],[-7,18],[6,17],[20,14],[6,23],[37,47],[13,38],[14,4],[22,24],[9,32],[-8,33],[-16,15],[9,19],[36,1],[14,-35],[41,-1],[20,-12],[60,-12],[16,19],[12,-2],[0,39],[94,-3],[34,-25],[24,-38],[38,-2],[2,-16],[26,-3],[34,-21]],[[4208,6079],[-10,6],[-6,23],[-78,25],[0,19],[-23,13],[-42,8],[9,27],[27,44],[-17,82],[-25,23],[-6,25],[3,30],[-38,71],[-4,15],[48,29],[39,-5],[-6,29],[14,19],[-9,38],[12,16],[13,54],[39,48],[19,-4],[12,22],[-14,38],[4,33],[-18,34],[0,29],[-22,7],[-31,-5],[-14,16],[-2,47],[5,36],[29,28],[22,8]],[[4138,7007],[29,35],[5,31],[16,9],[1,14],[19,2],[17,17],[-11,24],[-30,27],[3,14],[-12,10],[-13,33],[-3,24],[-11,-10],[-25,28],[-30,8],[-12,14],[-14,-5],[6,22],[20,15],[1,15],[-18,20],[5,12],[47,17],[17,17],[-28,13],[-28,30],[-4,20],[-21,7],[1,20],[-27,18],[-17,26],[-23,1],[-35,10],[-11,34],[4,16],[-24,31],[-22,11],[2,12],[-18,8],[6,37],[-38,6],[-8,7],[25,9],[-15,62],[22,35],[22,63],[1,22],[10,19],[24,20],[9,46],[19,35],[4,20],[1,55],[-17,13],[1,56],[32,71],[-17,19],[-52,5],[-25,8],[-3,13],[6,33],[0,31],[36,29],[24,57],[34,59],[25,70],[27,32],[27,45],[23,31],[26,22],[-4,35],[44,113],[55,2],[0,24],[13,23],[17,16],[34,80],[11,-13],[16,2],[21,-26],[33,-10],[19,-18],[35,-17],[49,-6],[9,14],[23,0],[7,20],[20,0],[30,14],[5,-24],[15,15],[0,40],[-6,11],[-33,0],[-21,72],[-13,19],[11,26],[80,20],[15,-2],[17,17],[-13,23],[-21,13],[-66,56],[-37,8],[-16,19],[-2,31],[-45,29],[-11,1],[3,43],[9,14],[47,41],[62,-4],[8,11],[1,28],[10,47],[-15,44],[-13,115],[5,44],[-15,50]],[[4516,9747],[53,14],[57,3],[52,-5],[49,-12],[55,-26],[34,-24],[52,-46],[40,-47],[-8,-25],[-33,-62],[-3,-30],[14,-20],[20,-10],[49,-12],[12,-16],[7,-32],[14,-31],[12,-9],[42,2],[30,13],[27,3],[32,-5],[51,-40],[7,-21],[-15,-31],[-4,-57],[11,-17]],[[3887,5650],[6,26],[-7,38],[11,11],[-11,17],[11,21],[-14,7],[0,17],[30,15],[-3,21],[12,21],[11,-1],[15,26],[1,83],[11,33],[31,27],[-9,14],[-7,69],[-14,-1],[-12,20],[8,46],[-9,19],[-3,31],[-39,18],[-1,23],[-12,3],[10,22],[-29,9],[-9,18],[-22,-11],[-10,34],[-14,-1],[-8,28],[22,12],[2,24],[12,1],[-8,22],[13,6],[-23,10],[16,20],[-10,21],[12,13],[-12,39],[22,-10],[25,11],[-11,27],[24,16],[-3,10],[-27,-7],[-16,21],[2,40],[-19,12],[-20,25],[5,47],[-9,15],[8,9],[10,-17],[-10,40],[15,18],[31,4],[10,-6],[5,20],[14,-9],[11,12],[-5,16],[17,-4],[2,26],[12,8],[21,37],[21,10],[14,21],[-1,29],[-14,60],[41,2],[13,9],[46,0],[69,-6]],[[3068,7642],[45,13],[40,-7],[25,7],[83,54],[38,28],[52,-12],[45,5],[73,67],[45,19],[36,-10],[44,-26],[17,-1],[73,27],[-1,27],[-18,123],[19,63],[0,35],[-16,65],[3,33],[35,48],[15,36],[-1,25],[-44,25],[-66,58],[-6,10],[-10,50],[3,17],[29,25],[5,77],[-3,17],[-32,40],[-57,45],[-43,49],[-14,29],[-5,58],[-35,50],[-9,21],[0,50],[-20,25],[-32,29],[-42,21],[-41,31],[-52,46],[-57,40],[-78,37],[-30,7],[-29,21],[-70,30],[16,59],[27,34],[31,57],[-6,40],[4,26],[14,33],[13,59],[16,22],[33,19],[4,21],[-17,51],[-14,12],[-22,-3],[-14,43],[-26,39],[-23,58],[18,24],[1,16],[-15,18],[6,17],[66,24],[77,46],[30,11],[61,39],[61,13],[35,19],[47,-17],[30,30],[45,18],[36,2],[26,-11],[7,-42],[19,-19],[8,-33],[12,-19],[49,-57],[48,-69],[67,-55],[50,-32],[46,-19],[91,-48],[47,-13],[48,-7],[34,0],[14,11],[1,31],[62,83],[64,-4],[58,6],[54,-16],[60,8],[46,2],[30,8],[35,23],[24,20]],[[3619,4570],[12,-21],[56,-59],[20,-29],[14,-9],[43,0],[41,-14],[40,4],[14,-11],[-19,-30],[20,-27],[33,-5],[58,-24]],[[3951,4345],[9,-18],[24,14],[1,-36],[41,-36],[4,-27],[-15,-5],[27,-24],[3,-13],[-14,-36],[7,-17],[-13,-9],[-24,-49],[-3,-17],[21,-39],[0,-29],[19,-62],[24,-34],[17,-2],[15,-23],[0,-22],[-15,-30],[-4,-29],[-10,-4],[8,-23],[-24,-27],[-1,-35],[35,-19],[27,-30],[7,-39],[45,-3],[25,-8],[15,-15],[1,-14],[34,-6],[-2,-63],[-8,-35],[115,-39]],[[4342,3442],[-26,-39],[-31,-104],[61,-40],[28,1],[8,-17],[-20,-15],[-9,-18],[2,-23],[23,-29],[15,3],[24,-29],[17,-4],[48,-36],[0,-34],[-6,-3],[-3,-32],[16,-13],[33,-9],[22,-18],[12,-28],[-4,-23],[26,-13],[4,-34],[30,-27],[12,-47],[41,-44],[46,-13],[4,-6],[44,3],[23,16],[35,-72],[78,-156],[39,-55],[86,-52],[-10,-66],[-3,-32],[41,-8],[-1,-44],[64,-9],[8,-5],[8,-40],[12,-4],[8,-31],[-12,-16],[-9,-83],[16,-11],[-20,-5],[-23,-35],[8,-4],[-18,-38],[12,-48],[-27,-37],[-5,-38]],[[5069,1878],[-62,8],[-1,-21],[-20,-10],[-17,5],[-14,-26],[-11,-6],[-22,11],[-21,-31],[-16,-5]],[[4885,1803],[-8,14],[9,21],[-14,17],[-6,30],[-64,12],[-2,18],[-25,3],[-18,-24],[-19,16],[3,70],[-45,16],[4,8],[-52,18],[-8,44],[38,-9],[-5,30],[6,32],[38,4],[5,50],[36,-4],[1,79],[-30,14],[7,65],[-16,1],[2,50],[-12,1],[-32,24],[-16,25],[-11,3],[13,35],[-4,11],[-49,57],[-3,9],[-39,31],[10,52],[-14,39],[-26,19],[-14,1],[-2,22],[-26,20],[-10,-7],[-97,-1],[-11,53],[-34,-3],[-4,29],[-30,8],[-17,13],[0,46],[-22,23],[5,38],[-12,1],[0,43],[12,57],[-16,91],[5,31],[-8,23],[-10,3],[3,30],[-17,12],[-19,26],[-17,11],[4,39],[-13,18],[-28,9],[-1,26],[-32,0],[-28,34],[-4,39],[-22,0],[-18,19],[3,40],[-7,32],[-32,48],[-17,14],[8,22],[-6,22],[-18,13],[3,14],[-49,15],[-3,13],[-33,7],[-18,19],[9,28],[-3,56],[22,8],[11,33],[-3,20],[-18,24],[2,46],[-9,7],[-7,38],[9,29],[-4,14],[-43,27],[-5,22],[-41,10],[-6,25],[-49,111],[7,68],[-41,15],[-86,2],[-2,-11],[-36,-4],[-38,4]],[[3556,4269],[6,31],[15,3],[-2,58],[22,78],[-2,20]],[[3595,4459],[19,18],[-1,36],[-17,32],[10,32],[13,-7]],[[3757,4722],[-14,-41],[-14,-18],[-15,-62],[-25,-4],[-18,40],[0,14],[-24,15],[0,17],[-68,-25],[18,-29],[13,-8],[19,-27],[-10,-24]],[[3595,4459],[-16,5],[-21,19],[-9,-18],[-115,-11],[-16,11],[-6,52],[-24,15],[-25,28],[-72,114],[-17,9],[-17,-11],[13,-37],[-15,-8],[-32,12],[-28,-5]],[[3195,4634],[-12,2],[-37,26],[-21,7],[-3,11],[19,26],[11,36],[11,12],[28,-26],[7,15]],[[4624,4402],[-7,29],[-64,7],[-10,-50],[-18,-4],[-39,40],[-51,26],[-34,8],[-18,-13],[-1,-40],[-19,-45],[1,-19],[21,-2],[-3,-16],[-36,-23],[-21,0],[-4,20],[6,22],[-7,16],[-19,-10],[-6,-14],[6,-21],[-8,-26],[-16,-11],[-20,4],[-9,17],[-30,37],[-46,45],[-47,56],[-52,72],[-21,50],[-36,33],[-18,2],[-12,-29],[45,-14],[-13,-30],[-3,-31],[-39,-8],[6,-29],[-19,-22],[-49,9],[-2,-20],[34,-40],[21,-16],[-16,-17]],[[4943,3678],[-43,-11],[-139,-77],[-43,-8],[-139,4],[-34,-4],[-24,-11],[-127,-90],[-52,-39]],[[3556,4269],[-23,1],[-4,-34],[-17,2],[4,-32],[-26,-1],[0,-26],[-53,4],[-23,-6],[-1,10],[-44,-1],[-55,8]],[[3314,4194],[-68,-15]],[[3246,4179],[-13,82],[78,39],[-4,25],[34,10],[-7,31],[-22,-3],[0,16],[-30,3],[-10,61],[-54,5],[0,13],[-21,-6],[-7,30]],[[3190,4485],[19,37],[10,53],[-30,21],[6,38]],[[2727,4656],[9,-23],[-11,-25],[-1,-46],[12,-11],[19,-35],[24,-3],[25,7],[12,-11],[27,3],[37,-28],[26,-57],[21,8],[48,-2],[41,19],[15,13],[33,1],[5,12],[32,22],[22,-4],[5,-11],[32,20],[30,-20]],[[3246,4179],[-27,-6],[5,-32],[-40,-27],[-14,-33],[-24,-5],[-25,2],[-4,-10],[-37,11],[-4,-11],[-49,-5],[1,25],[-18,34],[-21,-9]],[[2989,4113],[-30,-15]],[[2959,4098],[-19,19],[-10,34],[-12,16],[-53,3],[0,20],[-52,-2],[-54,-7],[-2,-6],[-36,2],[-83,-17]],[[2638,4160],[-5,74],[23,57],[-44,4],[-33,-22],[-20,-6],[-23,7]],[[4885,1803],[-3,-10],[-47,-20],[-14,-18],[-32,-20],[-8,37],[-15,13],[-21,-6],[-30,12],[-10,-25],[-38,12],[-4,-17],[-28,19],[-9,-42],[-36,15],[-33,31],[8,35],[-13,10],[-5,23],[-31,31],[-19,3],[-7,37],[-22,3],[-16,23],[-17,4],[-22,37],[-3,22],[-13,18],[-62,20],[-4,19],[-30,11],[-3,13],[-28,19],[-7,59],[-30,71],[-11,49],[-18,12],[-7,38],[11,50],[-41,12]],[[4167,2403],[-53,23],[15,16],[4,60],[5,142],[-3,77],[7,26],[-55,4],[-10,34],[0,43],[8,17],[5,43],[-12,4],[-9,21],[6,19],[14,-3],[-4,38],[-28,24],[4,17],[-6,24],[-27,24],[-10,18],[4,14],[-10,31],[-14,11],[3,15],[-15,12],[1,33],[-9,17],[6,25],[18,14],[-23,34],[17,67],[-5,14],[-20,7],[-33,1],[-12,-12],[-33,40],[-9,20],[10,19],[-27,24],[-18,-15],[-12,31],[-7,-1],[-30,33],[-55,-18],[-22,55],[20,6],[11,18],[24,1],[10,19],[-2,54],[-13,57],[-21,43],[-40,28],[-47,11],[-18,1],[-2,16],[-24,-3],[-5,13],[-15,-2],[-9,27],[0,23],[-27,44],[-8,24],[-30,6],[6,25],[-14,8],[3,14],[-10,21],[2,16],[-31,38],[-17,-4],[-12,20],[-38,-17],[-19,-16],[-17,66],[-21,0],[-2,27],[-34,1],[-9,64]],[[4167,2403],[-3,-27],[-8,0],[-15,-42],[-21,-24],[-22,-4],[-38,1]],[[4060,2307],[-6,19],[-25,39],[-8,39],[-14,7],[-18,44],[-21,27],[-63,38],[-18,18],[-31,95],[-43,50],[-31,46],[-25,46],[-47,57],[-15,23],[-32,72],[0,43],[-7,9],[-98,62],[-36,29],[-39,39],[-71,42],[-46,14],[-35,20],[-22,25],[-31,20],[-40,21]],[[3238,3251],[-44,40],[-51,21],[-49,47],[-21,44],[-52,117],[-14,37],[-21,18],[-20,30],[-10,42],[2,34],[10,56],[2,36],[-8,60],[27,61],[4,62],[-4,157]],[[5558,1991],[-27,-17],[-28,-1],[-25,-13],[-46,-70],[-37,-76],[-5,-27],[-25,-16],[-33,-53],[-14,-2],[-21,29],[-22,7],[-5,15],[-73,34],[-73,44],[-13,22],[-31,3],[-11,8]],[[2490,3417],[8,15],[-11,6],[-16,81],[4,20],[-13,52],[31,27],[24,-14],[24,24],[34,-1]],[[2575,3627],[41,5],[37,29],[50,-27],[26,-19],[14,21],[48,30],[13,37],[35,67],[1,23],[-22,111],[33,36],[2,37],[-10,37],[6,30],[20,46],[18,-7],[53,6],[19,9]],[[3238,3251],[-78,-46],[-39,-36],[-31,-21],[-34,-2],[-26,16],[-21,28],[-27,-20],[-6,-20],[-13,-5],[-9,-23],[-47,42],[-1,21],[-32,-11],[-40,-5],[-7,-8],[-32,-6],[-72,15],[-38,17],[-17,-46],[2,-16],[-16,-44],[-37,-132]],[[2617,2949],[-95,49],[-60,35]],[[4060,2307],[-64,0],[-30,7],[-11,10],[-44,0],[-10,13],[-63,34],[-12,17],[-91,55],[-53,10],[-16,11],[-20,30],[-64,72],[-56,76],[-15,13],[-50,27],[-47,34],[-175,55],[-58,13],[-85,1],[-24,5],[-24,-13],[-49,11],[-6,26],[-20,3],[-8,11],[-20,-2],[-29,8],[1,23],[-35,18],[-6,15],[-33,-7],[-140,36],[-86,30]],[[2575,3627],[-7,41],[7,76],[8,31],[15,14],[9,27],[18,24],[17,48],[-53,86],[29,58],[7,21],[13,107]]],"transform":{"scale":[0.00009889221592159083,0.00008802133813380992],"translate":[101.13743832400007,13.582400162000056]},"objects":{"Prachin Buri":{"type":"GeometryCollection","geometries":[{"arcs":[[0,1,2,3]],"type":"Polygon","properties":{"Shape_Leng":0.148615127303,"Shape_Area":0.000733252538548,"ADM3_EN":"Na Mueang","ADM3_TH":"หน้าเมือง","ADM3_PCODE":"TH250101","ADM2_EN":"Mueang Prachin Buri","ADM2_TH":"เมืองปราจีนบุรี","ADM2_PCODE":"TH2501","ADM1_EN":"Prachin Buri","ADM1_TH":"ปราจีนบุรี","ADM1_PCODE":"TH25","ADM0_EN":"Thailand","ADM0_TH":"ประเทศไทย","ADM0_PCODE":"TH"}},{"arcs":[[-3,4,5,6,7,8,9,10]],"type":"Polygon","properties":{"Shape_Leng":0.305586377687,"Shape_Area":0.0018283284005,"ADM3_EN":"Rop Mueang","ADM3_TH":"รอบเมือง","ADM3_PCODE":"TH250102","ADM2_EN":"Mueang Prachin Buri","ADM2_TH":"เมืองปราจีนบุรี","ADM2_PCODE":"TH2501","ADM1_EN":"Prachin Buri","ADM1_TH":"ปราจีนบุรี","ADM1_PCODE":"TH25","ADM0_EN":"Thailand","ADM0_TH":"ประเทศไทย","ADM0_PCODE":"TH"}},{"arcs":[[-7,11,12,13]],"type":"Polygon","properties":{"Shape_Leng":0.253629682324,"Shape_Area":0.00286354059596,"ADM3_EN":"Wat Bot","ADM3_TH":"วัดโบสถ์","ADM3_PCODE":"TH250103","ADM2_EN":"Mueang Prachin Buri","ADM2_TH":"เมืองปราจีนบุรี","ADM2_PCODE":"TH2501","ADM1_EN":"Prachin Buri","ADM1_TH":"ปราจีนบุรี","ADM1_PCODE":"TH25","ADM0_EN":"Thailand","ADM0_TH":"ประเทศไทย","ADM0_PCODE":"TH"}},{"arcs":[[-6,14,15,16,17,-12]],"type":"Polygon","properties":{"Shape_Leng":0.358067838297,"Shape_Area":0.00448649858063,"ADM3_EN":"Bang Decha","ADM3_TH":"บางเดชะ","ADM3_PCODE":"TH250104","ADM2_EN":"Mueang Prachin Buri","ADM2_TH":"เมืองปราจีนบุรี","ADM2_PCODE":"TH2501","ADM1_EN":"Prachin Buri","ADM1_TH":"ปราจีนบุรี","ADM1_PCODE":"TH25","ADM0_EN":"Thailand","ADM0_TH":"ประเทศไทย","ADM0_PCODE":"TH"}},{"arcs":[[-2,18,19,20,-15,-5]],"type":"Polygon","properties":{"Shape_Leng":0.271013738873,"Shape_Area":0.00262848631206,"ADM3_EN":"Tha Ngam","ADM3_TH":"ท่างาม","ADM3_PCODE":"TH250105","ADM2_EN":"Mueang Prachin Buri","ADM2_TH":"เมืองปราจีนบุรี","ADM2_PCODE":"TH2501","ADM1_EN":"Prachin Buri","ADM1_TH":"ปราจีนบุรี","ADM1_PCODE":"TH25","ADM0_EN":"Thailand","ADM0_TH":"ประเทศไทย","ADM0_PCODE":"TH"}},{"arcs":[[-1,21,22,23,24,25,-19]],"type":"Polygon","properties":{"Shape_Leng":0.321320862986,"Shape_Area":0.00135532614285,"ADM3_EN":"Bang Boribun","ADM3_TH":"บางบริบูรณ์","ADM3_PCODE":"TH250106","ADM2_EN":"Mueang Prachin Buri","ADM2_TH":"เมืองปราจีนบุรี","ADM2_PCODE":"TH2501","ADM1_EN":"Prachin Buri","ADM1_TH":"ปราจีนบุรี","ADM1_PCODE":"TH25","ADM0_EN":"Thailand","ADM0_TH":"ประเทศไทย","ADM0_PCODE":"TH"}},{"arcs":[[-4,-11,26,27,28,-22]],"type":"Polygon","properties":{"Shape_Leng":0.253987851128,"Shape_Area":0.00148204246717,"ADM3_EN":"Dong Phraram","ADM3_TH":"ดงพระราม","ADM3_PCODE":"TH250107","ADM2_EN":"Mueang Prachin Buri","ADM2_TH":"เมืองปราจีนบุรี","ADM2_PCODE":"TH2501","ADM1_EN":"Prachin Buri","ADM1_TH":"ปราจีนบุรี","ADM1_PCODE":"TH25","ADM0_EN":"Thailand","ADM0_TH":"ประเทศไทย","ADM0_PCODE":"TH"}},{"arcs":[[-10,29,30,31,-27]],"type":"Polygon","properties":{"Shape_Leng":0.298456122905,"Shape_Area":0.00340484962761,"ADM3_EN":"Ban Phra","ADM3_TH":"บ้านพระ","ADM3_PCODE":"TH250108","ADM2_EN":"Mueang Prachin Buri","ADM2_TH":"เมืองปราจีนบุรี","ADM2_PCODE":"TH2501","ADM1_EN":"Prachin Buri","ADM1_TH":"ปราจีนบุรี","ADM1_PCODE":"TH25","ADM0_EN":"Thailand","ADM0_TH":"ประเทศไทย","ADM0_PCODE":"TH"}},{"arcs":[[32,33,34]],"type":"Polygon","properties":{"Shape_Leng":0.180828130487,"Shape_Area":0.00121726714061,"ADM3_EN":"Khok Mai Lai","ADM3_TH":"โคกไม้ลาย","ADM3_PCODE":"TH250109","ADM2_EN":"Mueang Prachin Buri","ADM2_TH":"เมืองปราจีนบุรี","ADM2_PCODE":"TH2501","ADM1_EN":"Prachin Buri","ADM1_TH":"ปราจีนบุรี","ADM1_PCODE":"TH25","ADM0_EN":"Thailand","ADM0_TH":"ประเทศไทย","ADM0_PCODE":"TH"}},{"arcs":[[-9,35,-33,36,-30]],"type":"Polygon","properties":{"Shape_Leng":0.296203853471,"Shape_Area":0.00324657701679,"ADM3_EN":"Mai Khet","ADM3_TH":"ไม้เค็ด","ADM3_PCODE":"TH250110","ADM2_EN":"Mueang Prachin Buri","ADM2_TH":"เมืองปราจีนบุรี","ADM2_PCODE":"TH2501","ADM1_EN":"Prachin Buri","ADM1_TH":"ปราจีนบุรี","ADM1_PCODE":"TH25","ADM0_EN":"Thailand","ADM0_TH":"ประเทศไทย","ADM0_PCODE":"TH"}},{"arcs":[[-28,-32,37,38,39]],"type":"Polygon","properties":{"Shape_Leng":0.456860390639,"Shape_Area":0.00437350377596,"ADM3_EN":"Dong Khi Lek","ADM3_TH":"ดงขี้เหล็ก","ADM3_PCODE":"TH250111","ADM2_EN":"Mueang Prachin Buri","ADM2_TH":"เมืองปราจีนบุรี","ADM2_PCODE":"TH2501","ADM1_EN":"Prachin Buri","ADM1_TH":"ปราจีนบุรี","ADM1_PCODE":"TH25","ADM0_EN":"Thailand","ADM0_TH":"ประเทศไทย","ADM0_PCODE":"TH"}},{"arcs":[[-31,-37,-35,40,41,-38]],"type":"Polygon","properties":{"Shape_Leng":0.584014480863,"Shape_Area":0.00847591552895,"ADM3_EN":"Noen Hom","ADM3_TH":"เนินหอม","ADM3_PCODE":"TH250112","ADM2_EN":"Mueang Prachin Buri","ADM2_TH":"เมืองปราจีนบุรี","ADM2_PCODE":"TH2501","ADM1_EN":"Prachin Buri","ADM1_TH":"ปราจีนบุรี","ADM1_PCODE":"TH25","ADM0_EN":"Thailand","ADM0_TH":"ประเทศไทย","ADM0_PCODE":"TH"}},{"arcs":[[-23,-29,-40,42,43]],"type":"Polygon","properties":{"Shape_Leng":0.364224528657,"Shape_Area":0.00350269569533,"ADM3_EN":"Non Hom","ADM3_TH":"โนนห้อม","ADM3_PCODE":"TH250113","ADM2_EN":"Mueang Prachin Buri","ADM2_TH":"เมืองปราจีนบุรี","ADM2_PCODE":"TH2501","ADM1_EN":"Prachin Buri","ADM1_TH":"ปราจีนบุรี","ADM1_PCODE":"TH25","ADM0_EN":"Thailand","ADM0_TH":"ประเทศไทย","ADM0_PCODE":"TH"}},{"arcs":[[44,45,46,47,48,49,50,51]],"type":"Polygon","properties":{"Shape_Leng":0.519359242077,"Shape_Area":0.00587446261439,"ADM3_EN":"Kabin","ADM3_TH":"กบินทร์","ADM3_PCODE":"TH250201","ADM2_EN":"Kabin Buri","ADM2_TH":"กบินทร์บุรี","ADM2_PCODE":"TH2502","ADM1_EN":"Prachin Buri","ADM1_TH":"ปราจีนบุรี","ADM1_PCODE":"TH25","ADM0_EN":"Thailand","ADM0_TH":"ประเทศไทย","ADM0_PCODE":"TH"}},{"arcs":[[-45,52,53,54,55,56,57]],"type":"Polygon","properties":{"Shape_Leng":0.470219604015,"Shape_Area":0.0057455093595,"ADM3_EN":"Mueang Kao","ADM3_TH":"เมืองเก่า","ADM3_PCODE":"TH250202","ADM2_EN":"Kabin Buri","ADM2_TH":"กบินทร์บุรี","ADM2_PCODE":"TH2502","ADM1_EN":"Prachin Buri","ADM1_TH":"ปราจีนบุรี","ADM1_PCODE":"TH25","ADM0_EN":"Thailand","ADM0_TH":"ประเทศไทย","ADM0_PCODE":"TH"}},{"arcs":[[-50,58,59,60,61,62]],"type":"Polygon","properties":{"Shape_Leng":0.420374042159,"Shape_Area":0.00498002338182,"ADM3_EN":"Wang Dan","ADM3_TH":"วังดาล","ADM3_PCODE":"TH250203","ADM2_EN":"Kabin Buri","ADM2_TH":"กบินทร์บุรี","ADM2_PCODE":"TH2502","ADM1_EN":"Prachin Buri","ADM1_TH":"ปราจีนบุรี","ADM1_PCODE":"TH25","ADM0_EN":"Thailand","ADM0_TH":"ประเทศไทย","ADM0_PCODE":"TH"}},{"arcs":[[-51,-63,63,64,65,66]],"type":"Polygon","properties":{"Shape_Leng":0.394964244894,"Shape_Area":0.0054716338317,"ADM3_EN":"Nonsi","ADM3_TH":"นนทรี","ADM3_PCODE":"TH250204","ADM2_EN":"Kabin Buri","ADM2_TH":"กบินทร์บุรี","ADM2_PCODE":"TH2502","ADM1_EN":"Prachin Buri","ADM1_TH":"ปราจีนบุรี","ADM1_PCODE":"TH25","ADM0_EN":"Thailand","ADM0_TH":"ประเทศไทย","ADM0_PCODE":"TH"}},{"arcs":[[-46,-58,67,68,69]],"type":"Polygon","properties":{"Shape_Leng":0.733261863145,"Shape_Area":0.00916093214196,"ADM3_EN":"Yan Ri","ADM3_TH":"ย่านรี","ADM3_PCODE":"TH250205","ADM2_EN":"Kabin Buri","ADM2_TH":"กบินทร์บุรี","ADM2_PCODE":"TH2502","ADM1_EN":"Prachin Buri","ADM1_TH":"ปราจีนบุรี","ADM1_PCODE":"TH25","ADM0_EN":"Thailand","ADM0_TH":"ประเทศไทย","ADM0_PCODE":"TH"}},{"arcs":[[-69,70,71,72,73]],"type":"Polygon","properties":{"Shape_Leng":0.704312074015,"Shape_Area":0.0115952498102,"ADM3_EN":"Wang Takhian","ADM3_TH":"วังตะเคียน","ADM3_PCODE":"TH250206","ADM2_EN":"Kabin Buri","ADM2_TH":"กบินทร์บุรี","ADM2_PCODE":"TH2502","ADM1_EN":"Prachin Buri","ADM1_TH":"ปราจีนบุรี","ADM1_PCODE":"TH25","ADM0_EN":"Thailand","ADM0_TH":"ประเทศไทย","ADM0_PCODE":"TH"}},{"arcs":[[-49,74,75,76,-59]],"type":"Polygon","properties":{"Shape_Leng":0.372246086714,"Shape_Area":0.0023446930026,"ADM3_EN":"Hat Nang Kaeo","ADM3_TH":"หาดนางแก้ว","ADM3_PCODE":"TH250207","ADM2_EN":"Kabin Buri","ADM2_TH":"กบินทร์บุรี","ADM2_PCODE":"TH2502","ADM1_EN":"Prachin Buri","ADM1_TH":"ปราจีนบุรี","ADM1_PCODE":"TH25","ADM0_EN":"Thailand","ADM0_TH":"ประเทศไทย","ADM0_PCODE":"TH"}},{"arcs":[[-48,77,78,79,-75]],"type":"Polygon","properties":{"Shape_Leng":0.617481325027,"Shape_Area":0.012233617103,"ADM3_EN":"Lat Takhian","ADM3_TH":"ลาดตะเคียน","ADM3_PCODE":"TH250208","ADM2_EN":"Kabin Buri","ADM2_TH":"กบินทร์บุรี","ADM2_PCODE":"TH2502","ADM1_EN":"Prachin Buri","ADM1_TH":"ปราจีนบุรี","ADM1_PCODE":"TH25","ADM0_EN":"Thailand","ADM0_TH":"ประเทศไทย","ADM0_PCODE":"TH"}},{"arcs":[[-56,80,81,82,83]],"type":"Polygon","properties":{"Shape_Leng":0.70768395613,"Shape_Area":0.00957337140481,"ADM3_EN":"Ban Na","ADM3_TH":"บ้านนา","ADM3_PCODE":"TH250209","ADM2_EN":"Kabin Buri","ADM2_TH":"กบินทร์บุรี","ADM2_PCODE":"TH2502","ADM1_EN":"Prachin Buri","ADM1_TH":"ปราจีนบุรี","ADM1_PCODE":"TH25","ADM0_EN":"Thailand","ADM0_TH":"ประเทศไทย","ADM0_PCODE":"TH"}},{"arcs":[[-57,-84,84,-71,-68]],"type":"Polygon","properties":{"Shape_Leng":0.421994965454,"Shape_Area":0.00594829000608,"ADM3_EN":"Bo Thong","ADM3_TH":"บ่อทอง","ADM3_PCODE":"TH250210","ADM2_EN":"Kabin Buri","ADM2_TH":"กบินทร์บุรี","ADM2_PCODE":"TH2502","ADM1_EN":"Prachin Buri","ADM1_TH":"ปราจีนบุรี","ADM1_PCODE":"TH25","ADM0_EN":"Thailand","ADM0_TH":"ประเทศไทย","ADM0_PCODE":"TH"}},{"arcs":[[-55,85,86,87,88,-81]],"type":"Polygon","properties":{"Shape_Leng":0.54201623439,"Shape_Area":0.0071317658258,"ADM3_EN":"Nong Ki","ADM3_TH":"หนองกี่","ADM3_PCODE":"TH250211","ADM2_EN":"Kabin Buri","ADM2_TH":"กบินทร์บุรี","ADM2_PCODE":"TH2502","ADM1_EN":"Prachin Buri","ADM1_TH":"ปราจีนบุรี","ADM1_PCODE":"TH25","ADM0_EN":"Thailand","ADM0_TH":"ประเทศไทย","ADM0_PCODE":"TH"}},{"arcs":[[-52,-67,89,90,-53]],"type":"Polygon","properties":{"Shape_Leng":0.434626473602,"Shape_Area":0.00416852073362,"ADM3_EN":"Na Khaem","ADM3_TH":"นาแขม","ADM3_PCODE":"TH250212","ADM2_EN":"Kabin Buri","ADM2_TH":"กบินทร์บุรี","ADM2_PCODE":"TH2502","ADM1_EN":"Prachin Buri","ADM1_TH":"ปราจีนบุรี","ADM1_PCODE":"TH25","ADM0_EN":"Thailand","ADM0_TH":"ประเทศไทย","ADM0_PCODE":"TH"}},{"arcs":[[-47,-70,-74,91,92,93,-78]],"type":"Polygon","properties":{"Shape_Leng":0.818933939243,"Shape_Area":0.0149427438905,"ADM3_EN":"Khao Mai Kaeo","ADM3_TH":"เขาไม้แก้ว","ADM3_PCODE":"TH250213","ADM2_EN":"Kabin Buri","ADM2_TH":"กบินทร์บุรี","ADM2_PCODE":"TH2502","ADM1_EN":"Prachin Buri","ADM1_TH":"ปราจีนบุรี","ADM1_PCODE":"TH25","ADM0_EN":"Thailand","ADM0_TH":"ประเทศไทย","ADM0_PCODE":"TH"}},{"arcs":[[-73,94,-92]],"type":"Polygon","properties":{"Shape_Leng":0.903058458717,"Shape_Area":0.0186599054653,"ADM3_EN":"Wang Tha Chang","ADM3_TH":"วังท่าช้าง","ADM3_PCODE":"TH250214","ADM2_EN":"Kabin Buri","ADM2_TH":"กบินทร์บุรี","ADM2_PCODE":"TH2502","ADM1_EN":"Prachin Buri","ADM1_TH":"ปราจีนบุรี","ADM1_PCODE":"TH25","ADM0_EN":"Thailand","ADM0_TH":"ประเทศไทย","ADM0_PCODE":"TH"}},{"arcs":[[-87,95,96,97,98]],"type":"Polygon","properties":{"Shape_Leng":0.835390054359,"Shape_Area":0.0216560605231,"ADM3_EN":"Na Di","ADM3_TH":"นาดี","ADM3_PCODE":"TH250301","ADM2_EN":"Na Di","ADM2_TH":"นาดี","ADM2_PCODE":"TH2503","ADM1_EN":"Prachin Buri","ADM1_TH":"ปราจีนบุรี","ADM1_PCODE":"TH25","ADM0_EN":"Thailand","ADM0_TH":"ประเทศไทย","ADM0_PCODE":"TH"}},{"arcs":[[-54,-91,99,-96,-86]],"type":"Polygon","properties":{"Shape_Leng":0.499776670654,"Shape_Area":0.00447876103856,"ADM3_EN":"Sam Phan Ta","ADM3_TH":"สำพันตา","ADM3_PCODE":"TH250302","ADM2_EN":"Na Di","ADM2_TH":"นาดี","ADM2_PCODE":"TH2503","ADM1_EN":"Prachin Buri","ADM1_TH":"ปราจีนบุรี","ADM1_PCODE":"TH25","ADM0_EN":"Thailand","ADM0_TH":"ประเทศไทย","ADM0_PCODE":"TH"}},{"arcs":[[-66,100,101,102,-97,-100,-90]],"type":"Polygon","properties":{"Shape_Leng":1.02413706159,"Shape_Area":0.0178945618976,"ADM3_EN":"Saphan Hin","ADM3_TH":"สะพานหิน","ADM3_PCODE":"TH250303","ADM2_EN":"Na Di","ADM2_TH":"นาดี","ADM2_PCODE":"TH2503","ADM1_EN":"Prachin Buri","ADM1_TH":"ปราจีนบุรี","ADM1_PCODE":"TH25","ADM0_EN":"Thailand","ADM0_TH":"ประเทศไทย","ADM0_PCODE":"TH"}},{"arcs":[[-88,-99,103,104,105]],"type":"Polygon","properties":{"Shape_Leng":0.85617519762,"Shape_Area":0.00955692904314,"ADM3_EN":"Thung Pho","ADM3_TH":"ทุ่งโพธิ์","ADM3_PCODE":"TH250304","ADM2_EN":"Na Di","ADM2_TH":"นาดี","ADM2_PCODE":"TH2503","ADM1_EN":"Prachin Buri","ADM1_TH":"ปราจีนบุรี","ADM1_PCODE":"TH25","ADM0_EN":"Thailand","ADM0_TH":"ประเทศไทย","ADM0_PCODE":"TH"}},{"arcs":[[-82,-89,-106,106]],"type":"Polygon","properties":{"Shape_Leng":0.971451428683,"Shape_Area":0.0248137172331,"ADM3_EN":"Kaeng Dinso","ADM3_TH":"แก่งดินสอ","ADM3_PCODE":"TH250305","ADM2_EN":"Na Di","ADM2_TH":"นาดี","ADM2_PCODE":"TH2503","ADM1_EN":"Prachin Buri","ADM1_TH":"ปราจีนบุรี","ADM1_PCODE":"TH25","ADM0_EN":"Thailand","ADM0_TH":"ประเทศไทย","ADM0_PCODE":"TH"}},{"arcs":[[-98,107,-104]],"type":"Polygon","properties":{"Shape_Leng":1.00557833305,"Shape_Area":0.0237760384097,"ADM3_EN":"Bu Phram","ADM3_TH":"บุพราหมณ์","ADM3_PCODE":"TH250306","ADM2_EN":"Na Di","ADM2_TH":"นาดี","ADM2_PCODE":"TH2503","ADM1_EN":"Prachin Buri","ADM1_TH":"ปราจีนบุรี","ADM1_PCODE":"TH25","ADM0_EN":"Thailand","ADM0_TH":"ประเทศไทย","ADM0_PCODE":"TH"}},{"arcs":[[108,109,110,111]],"type":"Polygon","properties":{"Shape_Leng":0.415425202545,"Shape_Area":0.00381602579727,"ADM3_EN":"Ban Sang","ADM3_TH":"บ้านสร้าง","ADM3_PCODE":"TH250601","ADM2_EN":"Ban Sang","ADM2_TH":"บ้านสร้าง","ADM2_PCODE":"TH2506","ADM1_EN":"Prachin Buri","ADM1_TH":"ปราจีนบุรี","ADM1_PCODE":"TH25","ADM0_EN":"Thailand","ADM0_TH":"ประเทศไทย","ADM0_PCODE":"TH"}},{"arcs":[[-111,112,113]],"type":"Polygon","properties":{"Shape_Leng":0.289183572737,"Shape_Area":0.00225831809326,"ADM3_EN":"Bang Krabao","ADM3_TH":"บางกระเบา","ADM3_PCODE":"TH250602","ADM2_EN":"Ban Sang","ADM2_TH":"บ้านสร้าง","ADM2_PCODE":"TH2506","ADM1_EN":"Prachin Buri","ADM1_TH":"ปราจีนบุรี","ADM1_PCODE":"TH25","ADM0_EN":"Thailand","ADM0_TH":"ประเทศไทย","ADM0_PCODE":"TH"}},{"arcs":[[-110,114,115,116,-113]],"type":"Polygon","properties":{"Shape_Leng":0.424981380769,"Shape_Area":0.0032812987357,"ADM3_EN":"Bang Toei","ADM3_TH":"บางเตย","ADM3_PCODE":"TH250603","ADM2_EN":"Ban Sang","ADM2_TH":"บ้านสร้าง","ADM2_PCODE":"TH2506","ADM1_EN":"Prachin Buri","ADM1_TH":"ปราจีนบุรี","ADM1_PCODE":"TH25","ADM0_EN":"Thailand","ADM0_TH":"ประเทศไทย","ADM0_PCODE":"TH"}},{"arcs":[[-116,117,118,119,120,121,122]],"type":"Polygon","properties":{"Shape_Leng":0.400968226038,"Shape_Area":0.00412764331396,"ADM3_EN":"Bang Yang","ADM3_TH":"บางยาง","ADM3_PCODE":"TH250604","ADM2_EN":"Ban Sang","ADM2_TH":"บ้านสร้าง","ADM2_PCODE":"TH2506","ADM1_EN":"Prachin Buri","ADM1_TH":"ปราจีนบุรี","ADM1_PCODE":"TH25","ADM0_EN":"Thailand","ADM0_TH":"ประเทศไทย","ADM0_PCODE":"TH"}},{"arcs":[[-122,123]],"type":"Polygon","properties":{"Shape_Leng":0.368404344241,"Shape_Area":0.00317838511799,"ADM3_EN":"Bang Taen","ADM3_TH":"บางแตน","ADM3_PCODE":"TH250605","ADM2_EN":"Ban Sang","ADM2_TH":"บ้านสร้าง","ADM2_PCODE":"TH2506","ADM1_EN":"Prachin Buri","ADM1_TH":"ปราจีนบุรี","ADM1_PCODE":"TH25","ADM0_EN":"Thailand","ADM0_TH":"ประเทศไทย","ADM0_PCODE":"TH"}},{"arcs":[[-13,-18,124,-118,-115,-109,125]],"type":"Polygon","properties":{"Shape_Leng":0.547118553924,"Shape_Area":0.00656199326864,"ADM3_EN":"Bang Phluang","ADM3_TH":"บางพลวง","ADM3_PCODE":"TH250606","ADM2_EN":"Ban Sang","ADM2_TH":"บ้านสร้าง","ADM2_PCODE":"TH2506","ADM1_EN":"Prachin Buri","ADM1_TH":"ปราจีนบุรี","ADM1_PCODE":"TH25","ADM0_EN":"Thailand","ADM0_TH":"ประเทศไทย","ADM0_PCODE":"TH"}},{"arcs":[[-119,-125,126,127,128]],"type":"Polygon","properties":{"Shape_Leng":0.303711063908,"Shape_Area":0.00342216822395,"ADM3_EN":"Bang Pla Ra","ADM3_TH":"บางปลาร้า","ADM3_PCODE":"TH250607","ADM2_EN":"Ban Sang","ADM2_TH":"บ้านสร้าง","ADM2_PCODE":"TH2506","ADM1_EN":"Prachin Buri","ADM1_TH":"ปราจีนบุรี","ADM1_PCODE":"TH25","ADM0_EN":"Thailand","ADM0_TH":"ประเทศไทย","ADM0_PCODE":"TH"}},{"arcs":[[-120,-129,129,130]],"type":"Polygon","properties":{"Shape_Leng":0.231616158501,"Shape_Area":0.00219578556282,"ADM3_EN":"Bang Kham","ADM3_TH":"บางขาม","ADM3_PCODE":"TH250608","ADM2_EN":"Ban Sang","ADM2_TH":"บ้านสร้าง","ADM2_PCODE":"TH2506","ADM1_EN":"Prachin Buri","ADM1_TH":"ปราจีนบุรี","ADM1_PCODE":"TH25","ADM0_EN":"Thailand","ADM0_TH":"ประเทศไทย","ADM0_PCODE":"TH"}},{"arcs":[[-128,131,132,133,-130]],"type":"Polygon","properties":{"Shape_Leng":0.274579317662,"Shape_Area":0.00272456191096,"ADM3_EN":"Krathum Phaeo","ADM3_TH":"กระทุ่มแพ้ว","ADM3_PCODE":"TH250609","ADM2_EN":"Ban Sang","ADM2_TH":"บ้านสร้าง","ADM2_PCODE":"TH2506","ADM1_EN":"Prachin Buri","ADM1_TH":"ปราจีนบุรี","ADM1_PCODE":"TH25","ADM0_EN":"Thailand","ADM0_TH":"ประเทศไทย","ADM0_PCODE":"TH"}},{"arcs":[[-24,-44,134,135,136,137,138,139]],"type":"Polygon","properties":{"Shape_Leng":0.465141394032,"Shape_Area":0.00310917634255,"ADM3_EN":"Prachantakham","ADM3_TH":"ประจันตคาม","ADM3_PCODE":"TH250701","ADM2_EN":"Prachantakham","ADM2_TH":"ประจันตคาม","ADM2_PCODE":"TH2507","ADM1_EN":"Prachin Buri","ADM1_TH":"ปราจีนบุรี","ADM1_PCODE":"TH25","ADM0_EN":"Thailand","ADM0_TH":"ประเทศไทย","ADM0_PCODE":"TH"}},{"arcs":[[-139,140,141,142,143]],"type":"Polygon","properties":{"Shape_Leng":0.269938558187,"Shape_Area":0.0023994732676,"ADM3_EN":"Ko Loi","ADM3_TH":"เกาะลอย","ADM3_PCODE":"TH250702","ADM2_EN":"Prachantakham","ADM2_TH":"ประจันตคาม","ADM2_PCODE":"TH2507","ADM1_EN":"Prachin Buri","ADM1_TH":"ปราจีนบุรี","ADM1_PCODE":"TH25","ADM0_EN":"Thailand","ADM0_TH":"ประเทศไทย","ADM0_PCODE":"TH"}},{"arcs":[[-61,144,-142,145,146]],"type":"Polygon","properties":{"Shape_Leng":0.28420357417,"Shape_Area":0.0018591340549,"ADM3_EN":"Ban Hoi","ADM3_TH":"บ้านหอย","ADM3_PCODE":"TH250703","ADM2_EN":"Prachantakham","ADM2_TH":"ประจันตคาม","ADM2_PCODE":"TH2507","ADM1_EN":"Prachin Buri","ADM1_TH":"ปราจีนบุรี","ADM1_PCODE":"TH25","ADM0_EN":"Thailand","ADM0_TH":"ประเทศไทย","ADM0_PCODE":"TH"}},{"arcs":[[-138,147,148,-146,-141]],"type":"Polygon","properties":{"Shape_Leng":0.163790460607,"Shape_Area":0.00109159660512,"ADM3_EN":"Nong Saeng","ADM3_TH":"หนองแสง","ADM3_PCODE":"TH250704","ADM2_EN":"Prachantakham","ADM2_TH":"ประจันตคาม","ADM2_PCODE":"TH2507","ADM1_EN":"Prachin Buri","ADM1_TH":"ปราจีนบุรี","ADM1_PCODE":"TH25","ADM0_EN":"Thailand","ADM0_TH":"ประเทศไทย","ADM0_PCODE":"TH"}},{"arcs":[[-62,-147,-149,149,-64]],"type":"Polygon","properties":{"Shape_Leng":0.425616856125,"Shape_Area":0.00315884382414,"ADM3_EN":"Dong Bang","ADM3_TH":"ดงบัง","ADM3_PCODE":"TH250705","ADM2_EN":"Prachantakham","ADM2_TH":"ประจันตคาม","ADM2_PCODE":"TH2507","ADM1_EN":"Prachin Buri","ADM1_TH":"ปราจีนบุรี","ADM1_PCODE":"TH25","ADM0_EN":"Thailand","ADM0_TH":"ประเทศไทย","ADM0_PCODE":"TH"}},{"arcs":[[-65,-150,-148,-137,150,151,-101]],"type":"Polygon","properties":{"Shape_Leng":0.474554436395,"Shape_Area":0.00671990367861,"ADM3_EN":"Kham Tanot","ADM3_TH":"คำโตนด","ADM3_PCODE":"TH250706","ADM2_EN":"Prachantakham","ADM2_TH":"ประจันตคาม","ADM2_PCODE":"TH2507","ADM1_EN":"Prachin Buri","ADM1_TH":"ปราจีนบุรี","ADM1_PCODE":"TH25","ADM0_EN":"Thailand","ADM0_TH":"ประเทศไทย","ADM0_PCODE":"TH"}},{"arcs":[[-102,-152,152,153,154]],"type":"Polygon","properties":{"Shape_Leng":1.17676415305,"Shape_Area":0.0310958485444,"ADM3_EN":"Bu Fai","ADM3_TH":"บุฝ้าย","ADM3_PCODE":"TH250707","ADM2_EN":"Prachantakham","ADM2_TH":"ประจันตคาม","ADM2_PCODE":"TH2507","ADM1_EN":"Prachin Buri","ADM1_TH":"ปราจีนบุรี","ADM1_PCODE":"TH25","ADM0_EN":"Thailand","ADM0_TH":"ประเทศไทย","ADM0_PCODE":"TH"}},{"arcs":[[-136,155,-153,-151]],"type":"Polygon","properties":{"Shape_Leng":0.461826776124,"Shape_Area":0.00255907970113,"ADM3_EN":"Nong Kaeo","ADM3_TH":"หนองแก้ว","ADM3_PCODE":"TH250708","ADM2_EN":"Prachantakham","ADM2_TH":"ประจันตคาม","ADM2_PCODE":"TH2507","ADM1_EN":"Prachin Buri","ADM1_TH":"ปราจีนบุรี","ADM1_PCODE":"TH25","ADM0_EN":"Thailand","ADM0_TH":"ประเทศไทย","ADM0_PCODE":"TH"}},{"arcs":[[-39,-42,156,-154,-156,-135,-43]],"type":"Polygon","properties":{"Shape_Leng":1.42884634749,"Shape_Area":0.0275300811884,"ADM3_EN":"Pho Ngam","ADM3_TH":"โพธิ์งาม","ADM3_PCODE":"TH250709","ADM2_EN":"Prachantakham","ADM2_TH":"ประจันตคาม","ADM2_PCODE":"TH2507","ADM1_EN":"Prachin Buri","ADM1_TH":"ปราจีนบุรี","ADM1_PCODE":"TH25","ADM0_EN":"Thailand","ADM0_TH":"ประเทศไทย","ADM0_PCODE":"TH"}},{"arcs":[[157,158,159,160,161,162,163]],"type":"Polygon","properties":{"Shape_Leng":0.80031656891,"Shape_Area":0.00593152458958,"ADM3_EN":"Si Maha Phot","ADM3_TH":"ศรีมหาโพธิ","ADM3_PCODE":"TH250801","ADM2_EN":"Si Maha Phot","ADM2_TH":"ศรีมหาโพธิ","ADM2_PCODE":"TH2508","ADM1_EN":"Prachin Buri","ADM1_TH":"ปราจีนบุรี","ADM1_PCODE":"TH25","ADM0_EN":"Thailand","ADM0_TH":"ประเทศไทย","ADM0_PCODE":"TH"}},{"arcs":[[-25,-140,-144,164,-164,165,166]],"type":"Polygon","properties":{"Shape_Leng":0.229936733069,"Shape_Area":0.00150369686809,"ADM3_EN":"Samphan","ADM3_TH":"สัมพันธ์","ADM3_PCODE":"TH250802","ADM2_EN":"Si Maha Phot","ADM2_TH":"ศรีมหาโพธิ","ADM2_PCODE":"TH2508","ADM1_EN":"Prachin Buri","ADM1_TH":"ปราจีนบุรี","ADM1_PCODE":"TH25","ADM0_EN":"Thailand","ADM0_TH":"ประเทศไทย","ADM0_PCODE":"TH"}},{"arcs":[[-60,-77,167,-158,-165,-143,-145]],"type":"Polygon","properties":{"Shape_Leng":0.405921411034,"Shape_Area":0.00199887749947,"ADM3_EN":"Ban Tham","ADM3_TH":"บ้านทาม","ADM3_PCODE":"TH250803","ADM2_EN":"Si Maha Phot","ADM2_TH":"ศรีมหาโพธิ","ADM2_PCODE":"TH2508","ADM1_EN":"Prachin Buri","ADM1_TH":"ปราจีนบุรี","ADM1_PCODE":"TH25","ADM0_EN":"Thailand","ADM0_TH":"ประเทศไทย","ADM0_PCODE":"TH"}},{"arcs":[[-76,-80,168,-159,-168]],"type":"Polygon","properties":{"Shape_Leng":0.436989236488,"Shape_Area":0.00524541901096,"ADM3_EN":"Tha Tum","ADM3_TH":"ท่าตูม","ADM3_PCODE":"TH250804","ADM2_EN":"Si Maha Phot","ADM2_TH":"ศรีมหาโพธิ","ADM2_PCODE":"TH2508","ADM1_EN":"Prachin Buri","ADM1_TH":"ปราจีนบุรี","ADM1_PCODE":"TH25","ADM0_EN":"Thailand","ADM0_TH":"ประเทศไทย","ADM0_PCODE":"TH"}},{"arcs":[[-163,169,170,171,172,-166]],"type":"Polygon","properties":{"Shape_Leng":0.184634682223,"Shape_Area":0.000965817759977,"ADM3_EN":"Bang Kung","ADM3_TH":"บางกุ้ง","ADM3_PCODE":"TH250805","ADM2_EN":"Si Maha Phot","ADM2_TH":"ศรีมหาโพธิ","ADM2_PCODE":"TH2508","ADM1_EN":"Prachin Buri","ADM1_TH":"ปราจีนบุรี","ADM1_PCODE":"TH25","ADM0_EN":"Thailand","ADM0_TH":"ประเทศไทย","ADM0_PCODE":"TH"}},{"arcs":[[-16,-21,173,-172,174,175,176,177]],"type":"Polygon","properties":{"Shape_Leng":0.294394694752,"Shape_Area":0.0023890967223,"ADM3_EN":"Dong Krathong Yam","ADM3_TH":"ดงกระทงยาม","ADM3_PCODE":"TH250806","ADM2_EN":"Si Maha Phot","ADM2_TH":"ศรีมหาโพธิ","ADM2_PCODE":"TH2508","ADM1_EN":"Prachin Buri","ADM1_TH":"ปราจีนบุรี","ADM1_PCODE":"TH25","ADM0_EN":"Thailand","ADM0_TH":"ประเทศไทย","ADM0_PCODE":"TH"}},{"arcs":[[-162,178,179,-170]],"type":"Polygon","properties":{"Shape_Leng":0.782728632271,"Shape_Area":0.00697929529978,"ADM3_EN":"Nong Phrong","ADM3_TH":"หนองโพรง","ADM3_PCODE":"TH250807","ADM2_EN":"Si Maha Phot","ADM2_TH":"ศรีมหาโพธิ","ADM2_PCODE":"TH2508","ADM1_EN":"Prachin Buri","ADM1_TH":"ปราจีนบุรี","ADM1_PCODE":"TH25","ADM0_EN":"Thailand","ADM0_TH":"ประเทศไทย","ADM0_PCODE":"TH"}},{"arcs":[[-171,-180,180,181,182,-175]],"type":"Polygon","properties":{"Shape_Leng":0.525781429556,"Shape_Area":0.00820046982924,"ADM3_EN":"Hua Wa","ADM3_TH":"หัวหว้า","ADM3_PCODE":"TH250808","ADM2_EN":"Si Maha Phot","ADM2_TH":"ศรีมหาโพธิ","ADM2_PCODE":"TH2508","ADM1_EN":"Prachin Buri","ADM1_TH":"ปราจีนบุรี","ADM1_PCODE":"TH25","ADM0_EN":"Thailand","ADM0_TH":"ประเทศไทย","ADM0_PCODE":"TH"}},{"arcs":[[-20,-26,-167,-173,-174]],"type":"Polygon","properties":{"Shape_Leng":0.161707245415,"Shape_Area":0.00104903289435,"ADM3_EN":"Hat Yang","ADM3_TH":"หาดยาง","ADM3_PCODE":"TH250809","ADM2_EN":"Si Maha Phot","ADM2_TH":"ศรีมหาโพธิ","ADM2_PCODE":"TH2508","ADM1_EN":"Prachin Buri","ADM1_TH":"ปราจีนบุรี","ADM1_PCODE":"TH25","ADM0_EN":"Thailand","ADM0_TH":"ประเทศไทย","ADM0_PCODE":"TH"}},{"arcs":[[-79,-94,183,-160,-169]],"type":"Polygon","properties":{"Shape_Leng":0.623253717298,"Shape_Area":0.00599328462587,"ADM3_EN":"Krok Sombun","ADM3_TH":"กรอกสมบูรณ์","ADM3_PCODE":"TH250810","ADM2_EN":"Si Maha Phot","ADM2_TH":"ศรีมหาโพธิ","ADM2_PCODE":"TH2508","ADM1_EN":"Prachin Buri","ADM1_TH":"ปราจีนบุรี","ADM1_PCODE":"TH25","ADM0_EN":"Thailand","ADM0_TH":"ประเทศไทย","ADM0_PCODE":"TH"}},{"arcs":[[-133,184,185,-176,-183,186,187]],"type":"Polygon","properties":{"Shape_Leng":0.340900476642,"Shape_Area":0.0033527404048,"ADM3_EN":"Khok Pip","ADM3_TH":"โคกปีบ","ADM3_PCODE":"TH250901","ADM2_EN":"Si Mahosot","ADM2_TH":"ศรีมโหสถ","ADM2_PCODE":"TH2509","ADM1_EN":"Prachin Buri","ADM1_TH":"ปราจีนบุรี","ADM1_PCODE":"TH25","ADM0_EN":"Thailand","ADM0_TH":"ประเทศไทย","ADM0_PCODE":"TH"}},{"arcs":[[-182,188,-187]],"type":"Polygon","properties":{"Shape_Leng":0.377065263992,"Shape_Area":0.00421504427909,"ADM3_EN":"Khok Thai","ADM3_TH":"โคกไทย","ADM3_PCODE":"TH250902","ADM2_EN":"Si Mahosot","ADM2_TH":"ศรีมโหสถ","ADM2_PCODE":"TH2509","ADM1_EN":"Prachin Buri","ADM1_TH":"ปราจีนบุรี","ADM1_PCODE":"TH25","ADM0_EN":"Thailand","ADM0_TH":"ประเทศไทย","ADM0_PCODE":"TH"}},{"arcs":[[-177,-186,189]],"type":"Polygon","properties":{"Shape_Leng":0.165824139954,"Shape_Area":0.00112379173629,"ADM3_EN":"Khu Lamphan","ADM3_TH":"คู้ลำพัน","ADM3_PCODE":"TH250903","ADM2_EN":"Si Mahosot","ADM2_TH":"ศรีมโหสถ","ADM2_PCODE":"TH2509","ADM1_EN":"Prachin Buri","ADM1_TH":"ปราจีนบุรี","ADM1_PCODE":"TH25","ADM0_EN":"Thailand","ADM0_TH":"ประเทศไทย","ADM0_PCODE":"TH"}},{"arcs":[[-17,-178,-190,-185,-132,-127]],"type":"Polygon","properties":{"Shape_Leng":0.263563357576,"Shape_Area":0.00268916827476,"ADM3_EN":"Phai Chalueat","ADM3_TH":"ไผ่ชะเลือด","ADM3_PCODE":"TH250904","ADM2_EN":"Si Mahosot","ADM2_TH":"ศรีมโหสถ","ADM2_PCODE":"TH2509","ADM1_EN":"Prachin Buri","ADM1_TH":"ปราจีนบุรี","ADM1_PCODE":"TH25","ADM0_EN":"Thailand","ADM0_TH":"ประเทศไทย","ADM0_PCODE":"TH"}}]}}}