{"type":"Topology","arcs":[[[7646,5238],[-73,-4],[-41,-10],[-61,-28],[-48,-31],[-41,-36],[-11,-15],[-18,-7],[11,-9],[-3,-33],[3,-33],[12,-25],[25,-25]],[[7401,4982],[-56,-6],[-8,-19],[-34,-15],[-29,-6],[-108,-7],[-29,-8],[-38,-16],[-57,-1],[89,227],[115,-2],[-2,12],[14,21],[82,72]],[[7340,5234],[62,55],[19,13],[41,1],[6,-13],[-18,-9],[-35,-9],[-6,-19],[51,-11],[16,-18],[65,22],[48,8],[31,1],[12,10],[15,-4],[-1,-23]],[[7401,4982],[25,-16],[45,-19],[26,-21],[25,-5],[21,13],[24,-3],[12,-20],[-1,-13],[-15,-22],[-45,-10],[13,27],[-6,15],[-61,2],[-28,-4],[-47,-17],[-28,-16],[-33,-35],[-7,-22],[12,-20],[24,3],[11,-6],[27,0],[6,-15],[12,-3]],[[7413,4775],[-291,21],[-18,25],[19,5],[-3,12],[-32,17],[-18,-6],[-128,-10],[-32,1],[-39,17],[-22,15],[-48,16],[-94,-8],[-43,9],[-4,9],[-83,1],[-47,9],[-30,10],[-15,-15],[-50,-13],[-49,7],[-21,-21],[-47,-2],[-42,-17],[-56,0],[-71,24],[-24,-16],[-24,14],[0,11],[-38,21],[-47,3],[-8,5],[-96,12],[-48,10],[-26,20],[-66,1],[-21,6],[-50,-4],[-19,14],[-37,13]],[[5645,4991],[9,26],[29,49],[32,15],[65,-13],[-6,10],[20,14],[-1,25],[8,9],[44,14],[-48,23]],[[5797,5163],[56,13],[41,3],[50,25],[19,4],[107,2],[66,16],[43,-1],[16,-9],[77,-12],[17,3],[-2,13],[106,11],[30,10],[14,-15],[73,-5],[52,6],[69,4],[-6,3],[48,13],[8,13],[109,6],[32,-6],[12,17],[88,-16],[9,17],[48,8],[33,-11],[22,-15],[57,-17],[45,-2],[108,-8],[54,17],[42,-16]],[[7494,4801],[-28,-2],[17,17],[11,-15]],[[7557,4943],[-11,10],[17,1],[-6,-11]],[[7539,4958],[-9,6],[14,13],[6,-13],[-11,-6]],[[7641,4982],[15,-19],[-37,-2],[7,19],[15,2]],[[7540,4980],[-7,12],[22,-4],[-15,-8]],[[7413,4775],[3,-13],[-3,-32],[-12,-8],[18,-7],[30,-37],[10,0],[36,-24],[2,-18],[-20,-8],[-36,-1],[16,20],[-23,7],[-52,-15],[-22,4],[-17,23],[-4,13],[-32,-11],[-20,12],[-38,-8],[-68,-29],[-41,-21],[-99,-44],[-77,-33],[-130,-62],[-64,-34]],[[6770,4449],[-15,17],[14,20],[-29,11],[-56,-1],[5,14],[-15,1],[-39,29],[-35,18],[-29,2],[-31,12],[-38,-4],[-24,4],[-21,-8],[-22,11],[4,8],[-21,3],[7,24],[-10,10],[-23,-1],[-13,13],[-30,0],[-29,24],[10,27],[-41,19],[-35,2],[-20,10],[-45,2],[-13,-6],[-34,3],[-31,-10],[-40,0],[-32,6],[-29,10],[4,14],[-28,16],[-27,8],[-13,13],[-14,-5],[-43,14],[1,-6],[-25,-4],[-45,9],[-40,23],[-60,6],[-33,0],[-18,11],[-62,4]],[[5607,4822],[-6,12],[13,17],[-36,23],[22,39],[-22,24],[13,13],[28,-4],[16,16],[10,29]],[[7250,4462],[-17,-4],[12,21],[5,-17]],[[7720,4778],[29,-11],[9,-12],[-33,-2],[-28,11],[1,22],[17,2],[5,-10]],[[6770,4449],[-89,-50],[-77,-48],[-52,-39],[-31,-27],[-18,-20],[-28,-45],[5,-11],[-31,-26],[-34,-35]],[[6415,4148],[-14,28],[-25,-1],[-9,13],[-71,26],[-24,-9],[-1,-9],[-42,6],[-60,1],[-20,-9],[-34,4],[-18,20],[-48,1],[-23,16],[18,9],[-3,8],[-35,3],[-29,12],[-34,-4],[-6,-6],[-28,0],[-34,-12],[-84,4],[-5,11],[-36,-1],[-44,13],[-19,-17],[-64,-9],[6,-9],[-18,-6],[-19,6],[-32,-11],[-25,-3],[-53,22],[-21,1],[-11,7],[-45,1],[-29,-6],[-15,6],[-31,-9],[-18,9],[-23,1],[-11,11],[-41,14],[-25,1],[-15,16],[-21,13],[-35,10],[-40,6],[-19,-3],[-47,5],[-57,13]],[[4978,4341],[32,15],[57,15],[37,17],[3,9],[-18,14],[39,38],[19,7],[33,-3],[53,24],[19,-7],[39,6],[4,14],[19,19],[25,10],[-24,25],[4,6],[35,-4],[55,7],[48,-1],[6,7],[40,16],[18,-3],[4,17],[17,12],[1,30],[6,14],[-10,6],[21,10],[-25,16],[30,36],[-35,30],[17,23],[22,6],[-10,21],[33,12],[15,17]],[[5797,5163],[-38,13],[-74,1],[-62,-12],[-43,-4],[-41,3],[-29,9],[-1,16],[-56,7],[-61,-7],[-37,10],[31,23],[-6,14],[0,30],[20,26],[-16,11],[-25,5],[-26,23],[-31,3],[-40,16],[1,14],[-37,20],[-6,25],[-33,3],[-39,10],[-30,43],[-13,4],[-30,-13],[-14,-23],[-38,-8],[-44,4],[-8,23],[13,9],[-3,30],[9,7],[-11,19],[-43,15],[-6,17],[-31,25],[1,21],[-19,18],[2,18],[13,4],[39,33],[16,4],[-10,9],[15,22],[-15,15],[6,23],[-3,14],[8,19],[-36,30],[-4,24],[-26,16],[-5,11],[54,19],[20,12],[60,13],[19,26]],[[5034,5925],[96,8],[38,21],[63,27],[30,5],[88,-14],[45,4],[27,-6],[35,2],[17,11],[36,9],[36,14],[55,7],[18,7],[27,20],[27,12],[28,6],[69,0],[97,2],[94,-1],[26,5],[46,-4],[151,-2],[76,1],[59,3],[62,10],[20,0],[59,-10],[214,-26],[52,-51],[16,-3],[51,3],[51,-4],[17,-31],[17,-8],[29,-5],[18,-15],[29,-5],[2,-16],[21,-6],[3,-27],[42,-13],[59,-4],[31,-8],[37,3],[52,11],[17,17],[22,-1],[41,16],[31,4],[38,-1],[38,-11],[11,-11],[96,-17],[-3,-16],[31,-22],[4,-12],[37,-1],[50,-30],[39,-2],[21,10],[14,-1]],[[7687,5779],[-47,-58],[-67,-89],[-33,-57],[-26,-58],[-8,-46],[11,-42],[16,-22],[28,-21],[45,-13],[15,0],[7,15],[24,8],[8,-11],[-18,-32],[-9,-25],[9,-19],[28,-16],[31,5],[27,-9],[22,-22],[17,-7],[5,-11],[-14,-22],[4,-13],[-13,-15],[-3,-16],[-20,-12],[-30,2],[-3,29],[23,20],[-33,14],[-37,2]],[[5034,5925],[-12,33],[-10,15],[12,35],[18,9],[-2,36]],[[5040,6053],[40,6],[53,0],[55,12],[123,39],[18,1],[85,17],[33,14],[24,20],[33,9],[58,5],[58,13],[25,4],[53,-2],[58,7],[41,11],[54,5],[54,18],[77,14],[30,11],[184,40],[58,11],[47,18],[28,5],[70,3],[111,19],[28,9]],[[6538,6362],[43,9],[101,4],[72,10],[33,2],[37,7],[13,-5],[43,4],[33,-1],[12,15],[27,-9],[9,6],[47,-15],[12,-17],[29,-6],[20,2],[27,25],[21,9],[36,7],[78,3],[34,-28],[59,-1],[19,14],[21,2],[51,-4],[83,27],[34,1],[72,7],[42,-16],[43,-8],[32,-1],[-3,-19],[63,-1],[-5,-9],[23,-8],[39,3],[25,-6],[8,-19],[27,-16],[24,-6],[110,-7],[16,12],[28,-9],[40,-1],[7,9],[50,122],[17,98]],[[8190,6548],[53,-4],[41,5],[16,-5],[14,6],[97,5],[18,-3],[5,-11],[-12,-13],[-35,0],[10,-8],[-4,-14],[9,-5],[17,8],[24,-7],[22,11],[37,-12],[-23,-1],[1,-13],[40,-5],[7,-8],[-9,-10],[37,-16],[12,-12],[41,7]],[[8608,6443],[-23,-18],[-118,-61],[-155,-85],[-179,-102],[-45,-35],[-54,-36],[-85,-64],[-97,-82],[-42,-42],[-61,-64],[-62,-75]],[[6538,6362],[11,44],[-19,30],[23,21],[29,16],[40,15],[62,5],[27,11],[26,24],[38,24],[29,6],[6,26],[17,6],[24,-2],[20,-9],[54,-1],[31,4],[9,18],[36,-16],[7,-17],[13,-7],[58,-13],[18,7],[70,-5],[16,6],[54,0],[-16,8],[27,15],[33,5],[6,7],[36,7],[12,10],[53,-25],[173,-27],[48,22],[8,8],[40,1],[2,23],[62,-8],[8,6],[-32,20],[10,17],[24,11],[0,12],[15,13]],[[7746,6680],[41,31],[-5,13],[13,62],[67,-3],[14,7],[51,-6],[27,6],[64,-3],[3,11],[32,-1],[8,5],[67,-7]],[[8128,6795],[65,-225],[-3,-22]],[[8128,6795],[-14,48],[34,0],[5,8],[37,20],[-1,11],[24,44],[-6,31],[3,23],[-23,8],[-11,12],[27,35],[18,4],[20,-11],[23,-1],[20,11],[46,-1],[-25,-11],[10,-6],[16,8],[16,-2],[-2,-12],[-20,-2],[19,-8],[7,9],[28,-9],[13,22],[18,-17],[-13,-5],[41,1],[12,22],[-13,4],[50,-1]],[[8487,7030],[93,-31],[51,-14],[-9,-11],[-40,-29],[58,-20],[17,-9],[55,-15],[-10,-25],[8,-23],[-21,-20],[26,-14],[1,-7],[40,-1],[10,-26],[-13,-27],[62,-9],[9,4],[48,-9],[27,1],[16,-9],[55,-4]],[[8970,6732],[13,11],[73,-26],[-10,-9],[14,-13],[-14,-9],[15,-26]],[[9061,6660],[-39,23],[-35,-12],[-24,-13],[-189,-120],[-109,-59],[-57,-36]],[[8970,6732],[-23,11],[-7,26],[5,13],[26,-4],[11,25],[32,24],[19,34],[7,32],[17,37],[18,87],[25,17],[2,20],[-7,13],[7,22],[-12,15],[9,8],[8,30],[-1,16],[17,13],[23,31],[20,18]],[[9166,7220],[18,10],[34,3],[20,-6],[88,-11],[-5,-21],[96,-4],[10,14],[22,0],[7,25],[16,-1],[-2,18],[44,13],[2,-12],[25,-7],[37,9],[2,10],[26,10],[37,-10],[58,2],[7,6],[42,2],[21,12],[33,-4],[41,25],[8,11]],[[9853,7314],[2,-9],[-42,-33],[-38,-5],[-23,-22],[-21,-4],[-48,-35],[2,-18],[-61,-31],[-26,-7],[-17,-16],[-28,1],[-13,-12],[-62,-30],[-17,4],[-52,-34],[-26,3],[-35,-17],[1,-13],[-63,-55],[-15,-5],[8,-21],[-36,-38],[-39,-49],[-14,-26],[17,-4],[13,-17],[13,2],[10,-12],[15,0],[-8,-17],[14,-3],[-6,-13],[10,-8],[-15,-4],[-32,-26],[5,-18],[-13,-2],[-2,-19],[-22,-12],[-13,-1],[-22,14],[-22,5],[-66,-34],[-5,-13]],[[8487,7030],[35,33],[84,66],[25,16],[66,35],[20,21],[44,14],[14,-1],[23,-15],[18,1],[24,12],[28,2],[23,10],[50,6],[34,32],[67,3],[13,14],[33,14]],[[9088,7293],[14,-9],[4,-26],[17,-7],[21,-28],[22,-3]],[[7746,6680],[-26,-4],[-26,9],[-40,4],[-11,11],[5,11],[-26,12],[21,36],[16,11],[-10,9],[-35,-2],[-13,15],[-57,10],[-12,10],[-29,6],[-26,25],[-23,7],[12,6],[-18,13],[-14,0],[2,19],[-18,5],[-32,25],[-34,-3],[-12,17],[-81,-1],[-35,3],[-20,13],[-84,14],[-30,-12],[-40,-6],[-7,14],[11,24],[16,11],[-15,28],[11,17],[-32,24],[-40,6],[-17,9],[-12,22],[-20,-4],[-24,18],[-28,-1],[-15,18],[-21,14],[-24,4],[-26,33],[-43,13],[-14,40],[0,17],[-42,23],[-42,31],[-35,16]],[[6631,7320],[22,16],[34,-12],[23,-17],[27,-2],[21,12],[68,10],[43,0],[40,-6],[30,-10],[47,-7],[19,6],[59,5],[20,24],[20,4],[-3,11],[32,23],[58,19],[26,0],[30,6],[17,9],[18,-2],[47,7],[47,-12],[12,14],[25,0],[17,-8],[34,7],[5,-7],[32,-12],[-3,-8],[20,-16],[14,-2],[8,-12],[26,-9],[4,-7],[34,-8],[28,-13],[-4,11],[40,19],[22,-6],[7,13],[47,-15],[23,1],[79,-4],[61,-21],[19,-12],[23,-6],[-32,-40],[111,-17],[106,-9],[7,9],[24,-9],[69,-1],[33,16],[19,15],[94,-19],[15,25],[80,-13],[13,2],[41,-4],[4,6],[108,-15],[35,9],[22,-8],[75,-6],[32,24],[38,6],[10,16],[13,3],[49,-1],[62,-4],[57,6],[54,-1]],[[5040,6053],[-40,21],[-1,22],[12,6],[-7,18],[17,8],[1,15],[-22,9],[-15,18],[-51,12],[-31,4],[-38,22],[-5,9],[-43,15],[-40,-4],[-40,1],[-31,19],[-96,2],[-31,7],[-136,12],[-35,0],[-17,11],[1,20],[15,12],[3,31],[32,21],[0,25],[-12,30],[-54,15],[-5,15],[3,26],[-32,26],[15,43],[3,30],[83,56],[47,11],[26,16],[4,11],[23,4],[4,44],[10,8],[54,17],[2,34],[-16,25],[12,17],[-11,8],[10,18],[-2,14],[55,36],[-5,13],[9,41],[19,17],[24,5],[29,16],[27,8],[21,44],[-6,6]],[[4779,7043],[9,16],[-23,12],[38,50],[-40,22],[-5,20],[-38,20],[2,12],[16,8],[67,-2],[90,16],[12,5],[14,43],[17,10],[12,28],[-5,27],[8,12],[1,25],[-5,13],[5,33],[-7,17],[39,34],[-11,25],[-1,21],[-34,19],[53,27],[34,10],[0,13],[29,20],[36,0],[32,5],[24,-6],[50,5],[29,11],[33,-3],[36,15],[65,-20],[44,16],[63,7],[41,2],[11,-4],[4,-19],[53,-11],[22,-11],[56,0],[17,5],[14,21],[54,3],[46,19],[86,-11],[37,10],[26,-2],[26,4],[17,-5],[1,-13],[15,-18],[-6,-7],[13,-36]],[[6001,7556],[-24,-21],[0,-13],[31,-22],[19,-25],[4,-39],[9,-14],[-19,-39],[-7,-27],[17,-15],[24,1],[23,-7],[-1,-14],[47,-1],[36,-12],[12,-25],[67,-7],[4,-10],[37,-10],[39,21],[18,-2],[32,5],[5,-12],[29,-12],[9,3],[57,-4],[27,4],[19,21],[77,20],[-1,13],[19,7],[21,0]],[[5764,3565],[-15,-14],[-75,-78],[-70,-83],[-63,-66],[-46,-71],[-20,-40],[-14,-40]],[[5461,3173],[-32,-4],[-18,4],[-10,12],[-27,-11],[-31,1],[-11,10],[-50,7],[-21,13],[-3,14],[16,8],[-35,13],[-43,-10],[0,-15],[-17,0],[-33,-12],[-30,7]],[[5116,3210],[-30,15],[27,-1],[-21,12],[5,16],[21,8],[23,0],[4,-10],[37,-4],[33,30],[-23,4],[34,42],[-11,25],[-12,6],[-24,-1],[-35,10],[4,18],[25,-4],[9,7],[29,-2],[1,7],[27,-6],[24,2],[6,8],[57,-11],[20,19]],[[5346,3400],[200,186],[34,6],[30,-1],[18,-6],[39,2],[16,-4],[19,9],[34,-1],[22,-14],[6,-12]],[[5174,2642],[-2,13],[13,0],[-11,-13]],[[5211,2844],[-35,-71],[1,-23],[-9,-13],[-22,-7],[-22,4],[-15,-10],[-12,-30],[8,-29]],[[5105,2665],[-38,2],[-11,-12],[-27,6],[-2,7],[-24,8],[-40,5],[-22,11],[-41,11],[-16,12],[-52,4],[-46,-13],[-39,7],[-44,-4],[-58,12],[-82,2]],[[4563,2723],[-68,4],[-170,27],[4,9],[-18,35],[-42,0],[-24,8],[-42,5],[-59,-14],[-57,-2],[-56,-7],[-20,2],[-41,-6],[-34,4],[-29,-1],[-24,-7],[-49,9],[-28,0],[-50,14],[-80,46],[-26,-9],[-25,6],[4,6],[-39,14],[-58,4],[-79,-3],[-13,22],[-42,-1],[-29,5],[-52,20],[-39,-6],[-37,24],[-29,8],[-21,14],[-18,27],[-31,20],[-4,8],[18,24],[-11,27],[-42,20],[-29,6]],[[3074,3085],[2,28],[52,8],[37,-2],[10,-12],[18,-6],[6,11],[29,7],[55,-6],[31,-7],[23,0],[12,9],[-21,12],[-5,21],[35,27],[14,0],[28,13],[18,-6],[40,4],[35,-17],[20,6],[-2,21],[-17,16],[-28,16],[2,10],[-52,32],[-14,6],[35,6],[7,8],[21,0],[32,13]],[[3497,3303],[30,-16],[117,-44],[43,-10],[32,-3],[55,0],[52,-11],[51,0],[100,-34],[15,-7],[26,-1],[110,-18],[10,-12],[48,-13],[43,-22],[-3,-18],[24,-14],[35,-8],[2,-15],[19,-10],[9,-16],[-18,-5],[24,-9],[43,-4],[28,-12],[14,4],[21,-8],[57,1],[76,-26],[9,-10],[34,-4],[0,-14],[25,-6],[13,-10],[24,-6],[26,10],[23,-1],[22,-23],[28,-7],[2,-6],[42,-13],[17,2],[-1,-9],[21,1],[7,-9],[30,-4],[32,13],[61,-1],[-2,10],[22,1],[44,14],[37,-3],[21,-13],[10,3],[59,-6],[43,-8],[2,-29]],[[5461,3173],[-40,-85],[3,-34],[-12,-14],[-28,3],[-46,-23],[-38,-36],[-40,-51],[-32,-49],[-17,-40]],[[3497,3303],[0,5],[37,16],[28,22],[8,15],[30,3],[6,19],[77,32],[3,29],[-8,15],[-45,21],[8,17],[-17,21],[-34,-8],[-29,7],[10,52],[20,6],[-3,14],[21,7],[7,30],[-13,4],[-9,22],[-24,24],[-40,16],[-21,19],[3,14],[22,8],[29,22]],[[3563,3755],[58,-6],[38,-8],[106,1],[66,-1],[46,-11],[27,-3],[61,2],[17,-3],[10,-12],[-8,-8],[9,-15],[40,-9],[11,-11],[46,-4],[11,-7],[33,-7],[52,-2],[35,-5],[51,-15],[44,-22],[28,1],[19,-7],[-7,-8],[12,-16],[16,1],[17,-17],[54,1],[22,-6],[64,10],[-2,-13],[17,-2],[10,-12],[22,4],[15,-7],[-9,-24],[19,-15],[1,-17],[12,-5],[-14,-24],[23,-15],[40,-2],[1,-11],[38,-6],[4,-13],[-12,-14],[13,-3],[-12,-12],[14,-4],[9,-18],[30,-29],[-14,-8],[1,-16],[30,-8],[-8,-7],[16,-13],[30,6],[45,-10],[44,-14],[32,-4],[11,-30],[16,-8],[46,3],[13,6],[18,-5],[76,-8]],[[3563,3755],[1,13],[-18,7],[1,34],[39,12],[-2,13],[26,19],[12,16],[-13,26],[22,20],[63,31],[2,10],[43,4],[55,18],[55,-8],[41,-1],[8,16],[21,14],[23,2],[23,9],[30,5],[11,10],[60,9],[117,-1],[10,-7],[6,-22],[30,-19],[20,-18],[42,-15],[41,-8],[71,12],[46,2],[42,24],[57,5],[63,-24],[22,-2],[33,5],[39,11],[20,0]],[[4725,3977],[27,-9],[34,-32],[37,-8],[79,-6],[78,-26]],[[4980,3896],[-18,-53],[7,-35],[27,-28],[6,-14],[19,-12],[-2,-16],[-21,-13],[-2,-34],[15,-24],[-13,-17],[-7,-21],[-17,-6],[43,-5],[20,1],[56,-30],[-3,-7],[24,-19],[18,-2],[37,-15],[-2,-17],[11,-26],[33,-21],[24,-1],[8,-10],[-5,-17],[38,-28],[31,-5],[39,-21]],[[6415,4148],[-50,-49],[-56,-48],[-59,-41],[-41,-33],[-86,-74],[-114,-101],[-96,-92]],[[5913,3710],[-32,12],[-102,27],[-42,16],[40,37],[-39,7],[2,6],[-39,16],[-57,8],[-38,3],[-6,-6],[-72,10],[-84,-1],[-36,-5],[-37,5],[-25,13],[0,6],[-50,-2],[9,17],[-14,-3],[-48,4],[-31,-5],[-56,15],[-43,2],[-45,-5],[-88,9]],[[4725,3977],[2,18],[33,27],[33,14],[-21,12],[-1,25],[29,16],[9,14],[41,16],[46,12],[28,14],[33,28],[-6,34],[-12,17],[4,27],[-21,12],[-1,23],[31,19],[31,5],[-12,26],[7,5]],[[5913,3710],[-149,-145]],[[3989,2099],[6,-27],[23,-37],[2,-39],[14,-28],[-10,-22],[31,-18],[3,-9],[-17,-37],[-26,-30],[18,3],[20,13],[38,-3],[46,21],[66,10],[54,0],[32,8],[92,-4]],[[4381,1900],[-111,-229],[-12,-14],[-154,-112],[28,-2],[-29,-38]],[[4103,1505],[-12,-7],[13,-12],[-42,-7],[-5,11],[11,12],[-41,12],[-4,14],[-23,28],[-30,-10],[-32,16],[4,17],[-8,5],[-29,0],[3,10],[-24,-1],[-20,-10],[17,19],[-15,4],[-18,-6],[-43,19],[-19,-3],[-17,13],[-26,2],[24,21],[18,-8],[19,7],[-18,14],[-34,-6],[-33,9]],[[3719,1668],[15,5],[-30,19],[-2,12],[-18,3],[5,12],[-26,21],[-17,-1],[-25,7],[-11,29],[3,9],[-22,10],[21,33],[32,-4],[13,16],[-13,9],[-26,7],[-42,22],[-3,12],[23,5],[-6,24],[-16,17],[19,13],[-14,2],[0,28],[10,18],[-17,4],[8,27],[-10,4],[46,23],[1,12],[22,-6],[31,1],[15,11],[-7,8],[8,24],[9,1]],[[3695,2105],[44,-4],[45,-16],[99,14],[20,6],[21,-4],[65,-2]],[[4103,1505],[29,-16],[6,-9],[21,0],[3,-8],[-20,-8],[-12,7],[-28,-3],[-3,-10],[23,-10],[37,5],[0,-19],[26,-9],[18,8],[-3,21],[33,6],[41,-16]],[[4274,1444],[-45,-12],[-34,-16],[-77,-40],[-56,-38],[-67,-50],[-51,-47],[-45,-52],[-31,-44],[-19,-33],[-14,-39],[-8,-48]],[[3827,1025],[-18,20],[13,9],[-6,20],[-22,-4],[-3,-10],[-26,-4],[1,-9],[17,-6],[-41,2],[-2,24],[-51,9],[-28,0],[-8,7],[-57,10],[-40,-4],[-26,5],[-40,-9],[-29,3],[-29,14],[-27,-4],[-31,18],[-28,11],[-47,2],[-16,-11],[-37,-5],[-36,-26],[-26,-1],[-32,7],[-13,11],[-38,3],[-18,-5],[-68,-7],[-38,5]],[[2977,1100],[-44,23],[-9,12],[7,20],[62,7],[16,9],[23,25],[15,3],[49,35],[16,27],[40,18],[13,12],[-10,49],[-8,9],[11,25],[2,32],[7,11],[36,17],[42,1],[14,9],[0,49],[38,21],[4,39],[16,27],[-34,10],[18,32],[36,16],[46,5]],[[3383,1643],[2,-8],[37,-3],[45,23],[23,-6],[-12,-12],[15,-13],[32,-1],[5,26],[35,17],[74,1],[15,-7],[38,8],[27,0]],[[3383,1643],[-13,24],[-18,18],[-54,8],[-50,-2],[-4,16],[-42,5],[-1,-11],[-22,4],[-11,-5],[-26,10],[-19,-5],[-20,8],[-33,-1],[-1,-10],[-60,-13],[-26,17],[-36,1],[-6,-9],[-27,11],[-41,-5],[-30,6],[-19,-6],[-8,-17],[-17,-3],[-19,9],[-38,5],[-10,-17],[-32,5],[-29,-11],[-25,5],[-21,-2],[-29,8],[-27,-8],[-19,11],[-39,-7],[6,-9],[-31,5],[-24,-1],[-5,9],[-46,14],[-16,11],[-33,-17],[-21,6],[-47,0],[-19,11],[-14,17],[-30,5],[-29,-8],[-25,-1],[-12,6],[-51,-1],[-22,-5],[-29,13],[-10,13],[-18,9],[-36,-1],[-60,20],[-94,51]],[[1845,1829],[5,23],[30,27],[35,6],[-5,18],[17,-1],[23,9],[41,27],[26,28],[-21,24],[8,17],[-13,26],[-18,10],[-25,30],[-38,18],[-18,22],[-18,10],[-16,23],[18,0],[19,11],[28,6],[20,25],[41,11],[37,18],[-5,12],[12,31],[44,4],[43,-17],[90,-7],[-10,22],[12,21],[-1,24],[11,18],[29,26],[22,-1],[48,13],[11,11],[22,7],[51,35],[7,14],[55,38],[74,10],[75,11],[41,26],[44,14],[49,-3],[55,8]],[[2800,2534],[26,-16],[22,-27],[9,-22],[16,-21],[32,-17],[47,-9],[56,18],[15,-5],[29,2],[54,-8],[37,1],[33,-5],[9,-27],[28,-20],[63,-18],[17,-19],[-15,-13],[-4,-22],[-59,-69],[22,-13],[-8,-14],[-79,-45],[-1,-40],[-6,-11],[21,-6],[33,9],[1,7],[43,16],[14,10],[21,34],[45,-5],[68,11],[12,14],[39,26],[28,1],[21,-6],[10,-22],[29,-14],[25,5],[38,-27],[36,-4],[0,-29],[22,-6],[27,-20],[19,-3]],[[5105,2665],[-56,-51],[-5,-20],[-25,-13],[-16,-21],[-33,-33],[-34,-39],[-37,-60],[6,-22],[-13,-24],[-26,-2],[-17,16],[-36,-8],[-29,-14],[-45,-36],[-33,-33],[-38,-44],[-23,-33],[-40,-68],[-35,-81],[-20,-85],[-4,-48],[1,-35]],[[4547,1911],[-166,-11]],[[3989,2099],[11,14],[2,18],[37,53],[38,34],[13,39],[36,33],[10,21],[71,37],[38,27],[25,26],[14,27],[55,15],[55,42],[-17,6],[20,14],[5,14],[-5,18],[18,23],[48,-5],[29,8],[32,-19],[26,1],[1,6],[30,5],[-2,28],[-19,15],[16,42],[-10,8],[10,20],[2,19],[-13,4],[-2,31]],[[2800,2534],[48,19],[26,23],[-5,29],[-42,27],[16,22],[58,17],[-5,11],[-28,15],[4,18],[12,11],[-7,27],[7,25],[-55,64],[-43,22],[3,17],[32,-3],[35,17],[-25,9],[-79,49],[-2,9],[15,23],[25,16],[32,0],[14,14],[27,-2],[17,10],[28,3],[40,-10],[18,1],[24,13],[-10,38],[29,7],[30,1],[35,9]],[[2977,1100],[-42,-31],[-40,-9],[-26,0]],[[2869,1060],[-39,-3],[-51,14],[-1,8],[-48,23],[-25,5],[-3,10],[-39,14],[-20,16],[-1,13],[-18,21],[8,16],[11,1],[-4,23],[-52,0],[-40,19],[-4,14],[-32,15],[-27,4],[-10,-10],[-26,-7],[-35,15],[-6,18],[-35,9],[-7,11],[-34,3],[-88,48],[-33,13],[4,7],[-27,15],[1,7],[-24,0],[-12,7],[-40,-4],[-66,-24],[-9,-18],[6,-10],[-24,-8],[1,-27],[-9,-19],[-25,-14],[-31,-1],[-31,14],[-33,8],[-37,-4],[-17,10],[-3,14],[-50,28],[-2,15],[-16,9],[1,9],[-20,12],[-1,9],[-46,23],[-37,39],[-45,5],[-20,7],[-34,0],[-16,6],[-16,38],[8,23],[-6,19],[-17,3],[-43,-5],[-51,2],[-35,-10],[-37,7]],[[1351,1565],[23,11],[19,16],[10,18],[25,4],[14,9],[10,23],[35,18],[10,2],[25,35],[16,11],[39,6],[49,18],[21,-3],[32,2],[6,17],[14,11],[61,17],[40,5],[16,28],[29,16]],[[4547,1911],[5,-44],[10,-38],[21,-52],[37,-69],[26,-37],[37,-42],[51,-43],[35,-20],[40,-16],[33,-7],[22,0],[21,-19],[5,-22],[-11,-2],[-23,-40],[-7,-23],[30,-12],[-15,-4],[-9,-13],[-62,-12],[-32,-17],[-25,-27],[-29,8],[-43,21],[-9,15],[25,4],[-6,29],[26,27],[-4,7],[-107,24],[-82,10],[-64,-1],[-83,-21],[-86,-31]],[[4877,1564],[24,-14],[-16,-3],[-8,17]],[[4697,771],[3,-28],[-9,-7],[11,-19],[-9,-18],[-37,-18],[-42,0],[-81,-6],[-34,-7],[-15,4],[36,5],[40,11],[15,11],[34,4],[12,22],[39,11],[-3,17],[40,18]],[[3899,780],[21,-90]],[[3920,690],[-28,-6],[-12,-19],[-42,-2],[-12,-18],[13,-20],[-33,-44],[-4,-20],[-18,-3],[-28,-16],[-12,2],[-15,-19],[-16,-6],[7,-15],[-11,-13],[-27,-2],[-35,-17],[-23,14],[-56,1],[-35,8],[-29,22],[-29,4],[-29,-3],[-4,-21],[-55,-8],[-25,16],[-11,-10],[-27,5],[-14,-8],[-17,8],[-1,10],[-59,-17],[-21,-12],[-13,-15],[-29,9],[-10,12],[-27,3],[-12,10],[-24,-5],[-4,14],[-28,-22],[-9,19],[-36,3],[-10,6],[-40,10],[-5,8],[-32,4]],[[2933,537],[4,16],[16,4],[-17,12],[18,5],[11,14],[-37,3],[-33,24],[-16,2],[-13,20],[-20,13],[-55,4],[1,11],[-68,89],[-30,45],[31,17],[7,10],[-8,10],[11,7]],[[2735,843],[94,-6],[30,-19],[7,-17],[44,-24],[37,3],[25,-4],[27,-35],[23,-12],[21,1],[49,-7],[29,9],[15,9],[30,-1],[20,-12],[14,3],[53,-2],[15,-12],[29,5],[-8,-21],[9,5],[28,-15],[19,-16],[15,-1],[27,18],[29,-9],[-13,-42],[36,1],[19,-15],[45,-2],[7,6],[37,1],[17,24],[28,-12],[13,13],[6,22],[18,8],[40,3],[11,34],[32,0],[9,6],[-6,17],[23,12],[59,13],[63,2],[39,6]],[[3827,1025],[-2,-46],[24,-99],[34,-70],[-5,-11],[21,-19]],[[2735,843],[-17,10],[15,25],[33,6],[8,24],[21,18],[1,25],[7,10],[39,3],[14,70],[13,26]],[[3920,690],[14,-64],[12,-31],[19,-31],[24,-18],[12,-45],[-8,-24],[-1,-44],[5,-18],[-7,-31],[-3,-47],[-16,-57],[9,-19],[2,-32],[31,-8],[-28,-11],[-26,4],[-48,-14],[-37,-2],[-13,7],[-65,5],[-45,-8],[-46,4],[-65,24],[-55,-22],[-40,-1],[-30,-16],[-19,-15],[1,-9],[-60,-11],[-39,-22],[-138,-31],[-3,-5],[-95,-1],[-11,-18],[-32,-9],[-31,-4],[-16,-15],[-42,-22],[-67,-22],[-32,-7],[-71,19],[-126,10],[-26,11],[-40,7],[-18,-1],[-7,10],[-20,-1],[-45,38],[-60,-6],[-10,-5],[-28,4],[-54,-1],[-38,7]],[[2388,92],[-9,12],[31,22],[47,5],[-9,43],[-33,11],[-17,17],[10,14],[-18,6],[1,18],[-20,13],[1,10],[23,29],[6,17],[-2,27],[-19,16],[4,48],[-47,11],[-27,10],[-21,2],[-19,16],[-17,7],[-46,6],[-27,12]],[[2180,464],[0,15],[17,13],[8,26],[71,11],[9,12],[47,5],[26,-4],[12,13],[26,13],[15,-5],[41,2],[43,-5],[48,-12],[36,-5],[33,-11],[50,20],[18,3],[16,16],[5,-12],[24,-4],[8,-13],[44,-11],[36,8],[32,-5],[15,5],[48,-4],[25,2]],[[2180,464],[-56,8],[-38,0],[-55,6],[-34,7],[-11,-23],[-36,-24],[-15,-29],[-27,-8],[-9,3],[-22,-11],[-46,-6],[-14,8],[-21,-1],[-7,8],[-40,6],[-67,3],[-14,-12],[-35,1],[12,8],[-22,-1],[-3,7],[-29,4],[-17,17],[15,12],[-11,8],[-13,28],[-29,9],[-43,5],[-32,28],[5,13],[-13,12],[-87,20],[-27,11],[-46,6],[-42,17],[-33,1],[-16,6],[-17,20],[-32,13],[-35,21],[-23,10],[-30,6],[14,21],[-18,3],[-40,-13],[-31,4],[-79,7],[-16,6],[-22,18],[-23,10],[-29,31],[2,16],[-52,27],[-64,20],[-70,-1],[-23,9]],[[614,839],[19,9],[-3,19],[80,-18],[19,2],[17,14],[32,3],[2,17],[10,10],[56,5],[60,31],[-5,20],[20,29],[-3,64],[-32,7],[-23,18],[12,22],[-1,19],[36,6],[33,1],[24,23],[72,41],[2,6],[35,-1],[59,51],[57,33],[2,15],[-17,16],[32,20],[34,37],[6,17],[14,7],[-21,27],[42,16],[11,22],[14,12],[11,-1],[0,18],[13,17],[-20,42],[38,30]],[[2388,92],[-17,-1],[-30,8],[-25,-2],[-33,6],[-50,19],[-42,-10],[-29,-16],[-23,-40],[-29,-1],[-23,6],[-19,16],[-106,17],[-26,-11],[-47,-3],[-36,2],[-40,-16],[-44,-1],[-21,12],[-27,6],[-67,5],[-35,0],[-16,-4],[-91,-62],[-9,1],[-52,30],[-37,4],[-18,13],[-34,10],[-68,2],[-37,-4],[-2,-15],[-24,21],[-21,-2],[-25,5],[-36,-3],[-32,21],[-59,-3],[4,23],[-10,12],[-31,-5],[-67,2],[-28,20],[-35,11],[-39,6],[-55,-8],[-31,2],[-31,12],[-66,32],[-38,-3],[1,-22],[-15,-4],[-14,24],[17,5],[-12,7],[-32,2],[18,16],[0,17],[-25,2],[-12,-6],[-17,11],[-39,7],[5,-10],[-16,-9],[-12,7],[-46,6],[11,-15],[-52,9],[-24,12],[6,17],[-29,-10],[-2,15],[-26,-7],[-5,-11],[-34,15],[-19,2],[-10,-13],[-22,17],[15,-1],[-39,28],[6,15],[-27,-5],[-50,14],[-37,3],[-18,-5],[-23,8],[11,17],[-34,-12],[-30,15],[41,14],[11,40],[-5,14],[5,22],[20,10],[54,3],[40,24],[30,8],[-3,12],[74,11],[18,13],[-28,37],[20,24],[30,16],[56,4],[-27,24],[15,29],[-3,8],[15,14],[-20,15],[-1,20],[14,25],[10,6],[50,8],[31,-5],[36,3],[30,20],[30,2],[47,15],[11,8],[13,28]],[[9147,8485],[0,-17],[31,-2],[-24,-8],[-18,-27],[75,-32],[12,-12],[51,-8],[-5,-22],[10,-11],[-24,-34],[11,-35],[-6,-9],[-34,-17],[1,-39],[-18,-8],[-36,-23]],[[9173,8181],[2,-22],[-27,-4],[-22,6],[15,-21],[-136,-5],[-59,4],[-3,-3]],[[8943,8136],[-58,9],[-17,-15],[-64,14],[-35,14],[10,6],[-94,14],[-10,-20],[-52,15],[-11,-3],[11,-16],[-54,2],[-39,21],[-47,13],[-26,-4],[-20,4]],[[8437,8190],[27,26],[7,20],[-22,4],[31,5],[-8,8],[6,22],[19,8],[59,-13],[21,-1],[14,7],[-5,13],[-31,18],[3,14]],[[8558,8321],[4,19],[67,15],[30,16],[59,13],[11,11],[7,29]],[[8736,8424],[25,14],[24,7],[39,-2],[23,8],[8,-17],[27,-25],[11,-27],[12,-6],[34,-1],[-6,14],[47,9],[75,4],[16,7],[-5,10],[9,24],[-16,16],[-24,2],[-4,7],[24,14],[39,-16],[36,3],[17,16]],[[8558,8321],[-43,5],[-180,11],[19,63],[8,9],[84,42],[-30,7],[-5,10],[-18,2],[-10,10],[-34,1],[-27,-5],[-43,6],[-53,-3],[4,19],[-32,5],[15,19],[-40,5],[16,39],[-22,3],[10,17],[-20,7],[-32,2],[-1,-13],[-18,-29],[-24,-2],[-49,23],[-2,-11],[-21,3],[8,18],[23,-2],[18,7],[-17,9],[-23,1],[-7,18],[-23,-6],[-10,9],[-26,0],[-22,10],[-13,-4],[-20,16],[17,12],[-20,35],[-13,10],[-24,5],[-4,-17],[-24,1],[-31,14],[-26,-11],[0,-6],[-41,-28],[-23,3],[20,15],[-4,21],[-40,-2],[-21,11],[26,0],[22,12],[-30,15],[-5,21],[40,-3],[48,46],[30,24],[-17,10],[-38,-5],[14,25],[-18,36],[-10,5],[-35,3],[-40,-6],[-42,18],[4,13],[-35,39]],[[7578,8958],[49,3],[6,-19],[96,-17],[17,-6],[180,-35],[44,0],[439,0]],[[8409,8884],[-2,-13],[50,-3],[-8,-14],[35,-12],[15,-16],[37,1],[-2,-16],[11,-28],[13,-11],[39,-2],[25,-22],[35,-18],[36,-12],[-7,-9],[33,-20],[36,-9],[-19,-16],[42,-7],[-18,-98],[-10,-12],[33,-10],[-6,-44],[-10,-8],[-42,-4],[-1,-16],[-31,-20],[5,-20],[38,5],[0,-6]],[[9147,8485],[36,-4],[15,4],[1,15],[54,18],[38,-12],[-3,16],[10,18],[-9,10],[-26,-10],[-36,7],[2,21],[66,44],[10,9],[-18,29],[6,19],[-17,26],[19,26],[1,13],[-23,27],[0,11],[-28,2],[8,22],[-12,9],[-11,28]],[[9230,8833],[20,-3],[12,-12],[21,-3],[7,-17],[14,-9],[-1,17],[24,9],[7,9],[-10,28],[16,-1],[31,-15],[38,0],[33,10]],[[9442,8846],[-15,-23],[5,-26],[18,-8],[-3,-9],[-40,-12],[-6,-27],[14,-31],[26,-32],[33,-28],[22,-14],[22,-6],[24,1],[-14,-9],[17,-7],[23,-31],[9,-50],[36,-53],[15,-40],[4,-65],[-27,-89],[-2,-41],[5,-38],[7,-13],[20,-13],[24,-3],[-19,-8],[-20,-27],[-19,13],[-37,-12]],[[9564,8145],[-48,6],[-18,-5],[13,29],[-84,7],[-24,4],[-67,5],[-32,-1],[-18,-15],[-34,0],[-32,6],[-47,0]],[[8437,8190],[-37,4],[-70,-3],[-31,-9],[-35,-2],[-43,14],[-27,1],[-18,6],[-15,-3],[-33,12],[-7,-6],[-46,3],[-21,-6],[-14,11],[-37,-4],[-41,1],[-22,-3],[-26,15],[-25,3],[-12,-7],[-69,-14],[-26,-13],[-54,11],[-18,-4],[-61,0],[-11,-6],[-64,-6],[-7,4],[-44,-2],[-9,-5],[-47,0],[4,14],[-16,7],[-60,10],[-29,-7],[-79,-1],[-38,4],[-58,12],[-19,10],[-57,-28],[-100,-10],[-45,3],[-15,-8],[-29,-5],[-20,-13],[-37,4],[-40,-3],[-27,3],[-51,-4],[-60,4],[-37,-5],[1,-8],[-46,-12],[-64,1],[-61,-9],[-41,3],[-39,-13],[-24,2],[-44,-13],[-43,-1],[-66,-14],[-20,-9],[-68,10],[-11,-3],[-37,5]],[[6091,8108],[31,10],[6,11],[38,-5],[18,19],[22,8],[25,-1],[42,-9],[26,1],[11,10],[14,-1],[16,23],[34,12],[46,8],[38,11],[39,-5],[7,18],[18,22],[14,3],[49,-2],[11,4],[13,28],[24,25],[9,20],[46,-5],[40,12],[29,5],[22,10],[6,11],[34,19],[78,22],[13,11],[18,1],[10,11],[35,10],[9,18],[14,4],[18,24],[22,11],[68,4],[22,17],[-1,19],[15,14],[6,23],[35,19],[17,3],[26,23],[24,13],[51,-3],[32,0],[8,8],[-34,50],[-6,12],[14,4],[20,19],[-2,22],[14,7],[3,13],[20,17],[-1,28],[17,29],[34,36],[43,25],[34,4],[29,25],[-10,19],[-1,23],[-35,38],[-31,26],[-12,25],[3,18]],[[7438,9062],[39,-21],[17,1],[27,-32],[32,-11],[31,-30],[-6,-11]],[[8409,8884],[2,5],[67,-3],[29,3],[2,16],[52,1],[22,15],[84,-21],[16,-10],[52,9],[8,-9],[44,8],[65,-17],[17,-19],[14,0],[5,15],[17,5]],[[8905,8882],[26,-9],[27,6],[27,13],[8,-16],[18,-2],[28,7],[31,15],[30,-9],[7,-16],[26,-20],[66,-17],[31,-1]],[[6091,8108],[-28,-3],[-19,-19],[-17,-1],[-59,21],[-21,4],[-36,-15],[-26,-5],[-15,10],[-34,1],[-20,11],[-37,6],[-42,-4],[-13,-9],[-28,-2],[-17,14],[-39,-5],[-21,6],[-29,0],[-23,-19],[-26,-12],[-47,4],[1,19],[-17,0],[-38,16],[-41,3],[-16,5],[-39,-6],[-46,9],[-12,6],[-48,7],[-57,3],[-14,-14],[-26,-2],[-41,-23],[-28,1],[-73,15],[-22,8],[-30,-4],[-31,2],[-26,-16],[-24,6],[-29,-10],[-58,-2],[-34,16],[-82,-8],[-29,4],[-11,12],[28,14],[-20,21],[-27,19],[-8,13],[-2,26],[13,15],[-24,3],[-19,-11],[-18,8],[-36,-10],[-24,3],[-2,-22],[-30,1],[-14,-25],[-27,6],[-5,16],[-27,-7],[-24,-19],[-37,3],[15,-20],[-49,-11],[-31,6],[0,-11],[-32,2],[15,13],[-43,-3],[-5,8],[-21,-7],[-5,10],[-46,17],[7,9],[-29,19],[-35,-12],[-4,10],[-25,-2],[-21,32],[-50,1],[1,-14],[-20,4],[-26,-6],[-51,-1],[-56,8],[-18,6],[-63,7],[-47,-5],[-52,0],[-29,19],[-40,1],[-16,-15],[-28,-1],[-29,-12],[-19,2],[-11,11],[-112,8]],[[3345,8265],[2,26],[-49,15],[-21,16],[-16,1],[-40,16],[14,26],[37,8],[8,27],[-6,8],[27,13],[11,17],[21,16],[-2,37],[12,19],[-15,19],[8,9],[-9,27],[41,33],[-32,20],[-59,9],[-36,13],[-10,14],[-75,44],[-2,36],[-6,6],[-21,-3],[5,29],[-10,11],[18,58],[-5,5]],[[3135,8840],[49,11],[32,21],[45,10],[30,14],[24,1],[36,15],[32,3],[-3,-6],[49,-4],[15,-4],[20,8],[40,2],[12,21],[21,20],[-6,8],[29,2],[5,-5],[30,7],[11,-10],[85,1],[9,7],[29,-6],[32,3],[37,-14],[6,-9],[55,15],[25,-3],[-5,16],[13,0],[4,-14],[34,5],[18,-5],[23,-14],[17,2],[3,-9],[25,5],[17,-14],[39,-7],[12,-13],[33,1],[39,-6],[20,3],[3,-31],[35,17],[30,3],[2,-12],[14,4],[0,21],[17,0],[51,-7],[31,10],[26,-7],[-20,-21],[28,-1],[2,13],[30,-1],[17,-14],[10,-21],[38,-4],[21,3],[32,15],[23,-6],[43,-1],[2,-17],[15,-12],[-3,-13],[11,-8],[20,7],[41,-13],[-16,-11],[69,-9],[36,19],[13,-12],[31,-12],[44,5],[25,-5],[-6,15],[-22,6],[27,9],[52,-16],[11,-8],[-18,-13],[23,-11],[21,23],[20,1],[27,-20],[-12,-16],[-47,-23],[3,-12],[21,-12],[33,3],[21,-4],[68,-23],[10,-11]],[[5129,8665],[-25,-3],[-29,3],[-29,-10],[-9,-30],[21,-16],[-6,-22],[-16,-6],[-23,0],[-2,-8],[-70,1],[-50,11],[-59,-2],[-15,-10],[9,-8],[-14,-24],[-45,-5],[4,-15],[-32,-9],[-28,0],[-27,-9],[-48,-12],[-1,-12],[-18,-22],[2,-6],[56,-9],[10,-18],[26,-15],[3,-16],[49,-3],[7,-12],[31,-15],[25,-22],[21,2],[22,-10],[0,-12],[17,-6],[37,3],[45,-3],[7,-17],[52,6],[104,2],[33,-18],[7,-21],[-7,-20],[27,-9],[61,15],[-4,-18],[27,-4],[27,3],[26,-6],[70,14],[20,14],[39,-10],[38,10],[-1,13],[32,3],[29,12],[40,-6],[61,19],[39,31],[19,4],[29,-5],[30,16],[-5,8],[-26,-1],[-9,6],[19,20],[79,29],[15,-6],[-2,-13],[24,-35],[23,5],[27,27],[-21,65],[13,11],[-5,17],[10,13],[30,16],[19,5],[45,-1],[16,3],[54,-15],[36,31],[30,18],[37,5],[33,19],[10,0],[18,17],[25,-9],[15,-23],[29,-12],[-11,-9],[18,-13],[40,-13],[29,-21],[12,-2],[12,15],[49,12],[29,15],[67,-13],[24,27],[18,6],[108,13],[10,7],[32,73],[15,17],[24,14],[154,74],[168,70],[29,19],[17,23],[21,38],[31,18],[167,19],[-4,3],[35,12],[15,19],[-11,21],[-25,6],[-33,25],[-26,14],[-1,12],[20,7],[35,-4],[15,8],[-47,23]],[[7348,9078],[9,8],[38,3],[29,-16]],[[7424,9073],[14,-11]],[[9233,9448],[-67,0],[-52,-5],[-3,-8],[-37,-11],[-28,6],[-4,13],[-14,0],[-1,12],[-119,2],[-3,8],[-36,0],[-14,9],[-20,-11]],[[8835,9463],[-46,91]],[[8789,9554],[-72,147],[-8,30],[10,153]],[[8719,9884],[37,-9],[25,5],[22,33],[14,5],[39,-10],[30,13],[36,-6],[71,2],[29,21],[70,5],[42,-14],[-9,-64],[6,-77],[-7,-40],[7,-83],[13,-51],[14,-19],[61,-44],[-5,-28],[8,-45],[11,-30]],[[8905,8882],[79,59],[30,39],[-13,245],[-62,51],[-28,36],[-76,151]],[[9233,9448],[27,-53],[47,-68],[16,-20],[39,-38],[20,-12],[45,-4],[34,-22],[-10,-10],[-45,3],[-42,-35],[-17,-37],[0,-85],[16,-99],[16,-45],[24,-31],[25,-6],[1,-23],[20,-8],[-7,-9]],[[8789,9554],[-33,2],[-68,-9],[-35,0],[-51,-14],[-52,-4],[-1,-17],[-30,2],[-14,-11],[-31,-12],[-21,-15],[-23,8],[-164,1],[-86,8],[-12,9],[-23,-14],[-73,12],[-28,8],[-24,-5],[-15,7],[-108,13],[-33,-1],[-5,8],[-53,0],[-13,7],[-38,0],[-31,7],[-11,8],[-66,-10],[-28,-1],[-19,29],[-48,12],[-45,6],[-10,13],[-25,11],[5,26],[-137,16],[-24,5],[-50,19]],[[7266,9678],[17,19],[-6,47],[-13,14],[0,20],[-8,12],[32,12],[-8,12],[5,15]],[[7285,9829],[15,0],[25,19],[19,4],[35,20],[24,-3],[20,5],[95,10],[30,11],[-4,8],[21,2],[8,11],[30,9],[57,4],[24,6],[11,-9],[29,-9],[14,6],[21,-12],[19,7],[20,-4],[26,-22],[44,8],[26,16],[33,-11],[57,12],[-5,-17],[19,-14],[33,-2],[62,-9],[35,3],[11,10],[38,6],[22,-4],[31,2],[27,-9],[58,-27],[18,9],[55,13],[32,28],[55,0],[14,11],[45,19],[20,14],[35,-22],[34,-6],[23,-9],[33,-26],[40,-3]],[[7348,9078],[-54,4],[-1,15],[-19,18],[-26,-1],[-34,7],[-20,-6],[-33,-1],[-37,-21],[-30,0],[-30,12],[-5,21],[22,14],[-52,12],[-29,14],[7,12],[-48,18],[-33,-9],[-60,5],[-7,14],[-26,-5],[-37,0],[-33,-21],[-40,-11],[-23,-1],[-11,-11],[-32,2],[-63,15],[-26,-8],[-40,-1],[-28,4],[-14,8],[-41,-2],[-79,10],[-10,-6],[-47,1],[-16,8],[-67,-12],[-69,10],[-22,18],[-45,7],[-44,2],[-33,11],[-8,11],[-61,7],[-5,9],[-26,3],[-23,10],[-74,3],[-44,-14],[-56,-31],[-30,-8],[-8,-15],[-24,-3],[-19,11],[-10,27],[-37,17],[-6,16],[-25,17],[-2,19],[-9,14],[-32,1],[-30,9],[-35,3],[-37,0],[-18,28],[-31,16]],[[5363,9374],[-37,11],[4,16],[-16,37],[14,12],[23,2],[20,12],[5,14],[-16,30],[-25,19],[-3,10],[38,32],[8,16],[21,21],[-16,9],[-3,12],[18,17],[-31,12],[28,23],[28,12],[14,22],[-14,11],[8,11]],[[5431,9735],[-1,11],[-54,26],[-54,9],[0,8],[-19,19],[-29,10],[-7,29],[38,10],[28,13],[1,34],[-26,13],[26,10],[5,13],[-8,16],[-28,11],[-8,11],[21,9],[25,1],[15,11],[63,-8],[32,1],[38,-9],[22,4],[30,-8],[25,8],[83,2],[25,-17],[50,-1],[23,-5],[-2,-16],[19,-16],[18,2],[28,17],[27,7],[60,-3],[21,-7],[29,7],[11,-13],[37,10],[12,-10],[58,1],[27,-22],[3,-17],[18,-17],[4,-24],[24,-13],[19,-32],[25,-5],[25,-13],[34,1],[42,-22],[61,-14],[25,4],[29,-13],[53,-14],[32,23],[3,22],[33,16],[50,6],[18,-2],[43,-15],[39,0],[20,17],[2,18],[72,6],[70,3],[5,10],[19,0],[35,-20],[41,-3],[51,1],[32,-9],[42,-5],[25,8],[88,13],[49,10],[62,-14]],[[7266,9678],[-23,-17],[-11,-32],[-31,-5],[-21,-15],[-26,-29],[25,-4],[-6,-16],[26,-4],[-9,-21],[5,-16],[-14,-28],[-37,-20],[8,-6],[-24,-17],[4,-9],[-13,-15],[-24,-11],[-21,-22],[5,-23],[9,-5],[-6,-18],[-77,-3],[-9,-22],[15,-13],[-7,-7],[14,-15],[46,-3],[54,-21],[51,-7],[4,-12],[42,-14],[19,-24],[-1,-24],[17,-2],[29,9],[39,1],[24,-18],[7,-31],[23,-11],[22,-1],[31,-24],[4,-26],[-5,-4]],[[3135,8840],[-62,6],[-20,-1],[-51,7],[-28,20],[-22,5],[-7,10],[-61,17],[-23,3],[19,11],[9,14],[3,34],[34,22],[-12,28],[8,15],[69,23],[50,27],[65,3],[6,7],[25,2],[6,33],[-17,17],[-18,8],[-28,27],[0,64],[-14,12],[3,15],[-15,16],[0,11],[31,12],[14,12],[3,18],[17,34],[2,19],[-23,28],[13,7],[-14,24],[9,22],[12,7],[37,-6],[42,1],[27,21],[11,21],[14,11],[-5,14],[-44,18],[1,15],[-26,17],[-5,21],[44,24],[15,3],[26,-10],[24,-1],[10,8],[25,-11],[45,2],[68,-9],[50,-4],[11,5],[58,11],[21,21],[28,5],[33,0],[54,16],[38,-1],[26,7],[19,-9],[35,0],[36,13],[43,-6],[47,7],[16,12],[11,-9],[-4,-79],[19,-28],[37,-6],[12,-10],[29,-11],[46,-2],[27,-17],[30,-11],[36,-1],[19,6],[50,-8],[23,13],[51,2],[3,8],[34,4],[29,29],[38,6],[-6,19],[-38,25],[17,4],[40,-21],[56,3],[29,6],[17,-5],[62,-5],[8,-3],[47,-2],[88,6],[49,-8],[35,0],[23,6],[35,-21],[31,-6],[21,-10],[42,-6],[12,9],[85,5],[65,21],[35,5],[36,13],[23,-3],[46,10],[22,15],[38,34],[29,33],[29,12],[-1,9],[24,9]],[[5363,9374],[-20,-15],[15,-10],[-34,-16],[0,-8],[30,-17],[57,-15],[20,-14],[33,-8],[21,-14],[6,-16],[16,-4],[29,-38],[33,-7],[1,-26],[14,-19],[0,-14],[17,-20],[26,-8],[15,-22],[21,-14],[-39,4],[-2,-15],[-44,7],[-28,19],[-55,0],[-9,-6],[-58,14],[-37,14],[-13,-2],[-9,-17],[30,-16],[5,-28],[45,-12],[-13,-36],[5,-20],[17,-8],[-19,-19],[12,-17],[-70,-33],[-8,-13],[11,-27],[-11,-11],[-31,-5],[5,-13],[41,-14],[8,-14],[-27,-10],[-43,-5],[-22,3],[-32,-16],[-95,-13],[-15,-16],[-16,-5],[6,-19],[-24,-14],[24,-13],[-1,-11],[-22,-17]],[[9088,7293],[-16,27],[11,8],[-9,17],[-22,14],[3,14],[-15,20],[-56,0],[-20,7],[-16,16]],[[8948,7416],[0,11],[-16,6],[27,25],[15,7],[-3,17],[-32,42],[-36,17],[-7,22],[9,8],[-6,18],[4,13]],[[8903,7602],[27,21],[36,3],[4,33],[-11,19],[8,33],[-20,2],[-34,13],[-34,1],[-13,-24],[-24,-9],[-37,-7],[-42,12]],[[8763,7699],[13,14],[-6,33],[-10,19],[24,11],[27,24],[19,10],[38,8],[20,12],[50,39],[-72,17],[18,10],[11,20],[-11,16],[-23,0],[2,11],[19,10],[-6,8],[34,16],[-44,11],[13,16],[-25,8],[27,13],[0,9],[23,14],[8,19],[-1,26],[20,17],[12,26]],[[9564,8145],[-27,-20],[-54,-62],[-40,-59],[-33,-63],[-14,-37],[1,-23],[-18,-6],[-10,-39],[-26,-7],[-9,-26],[1,-26],[19,-57],[36,-47],[24,-20],[54,-39],[42,-24],[73,-32],[56,-20],[10,-19],[26,-20],[16,3],[6,-30],[-17,-1],[-24,-27],[76,-34],[16,-5],[28,12],[-1,-18],[34,-22],[-4,-26],[7,-16],[-7,-11],[10,-10],[26,-9],[12,9]],[[9978,7404],[-32,-24],[-29,-30],[-14,-1],[15,20],[24,14],[0,23],[11,21],[37,15],[9,-9],[-21,-29]],[[9689,7563],[10,-5],[-10,-14],[-19,8],[19,11]],[[9726,7594],[-13,-13],[-19,3],[19,39],[47,38],[16,-24],[-13,-7],[-15,-26],[-22,-10]],[[8763,7699],[-16,-10],[-43,-1],[-62,16],[-51,-24],[-147,14],[-44,-2],[-31,3],[-8,7],[-24,3],[2,13],[-18,22],[-15,4],[-17,14],[-83,3],[-44,4],[14,48],[-5,9],[-40,2],[-16,-5],[-15,10],[-25,-2],[-5,8],[-44,4],[-9,14],[-40,4],[-50,0],[-35,5],[-9,-6],[-30,10],[-55,-6],[-95,-26],[-48,-1],[-33,-10],[-5,9],[-21,2],[-1,10],[-35,15],[-2,7],[-35,9],[-15,24],[7,5],[-42,15],[-1,16],[16,7],[-20,30],[-46,17],[-24,2],[-15,-8],[-31,2],[-20,-6],[-27,12],[-42,3],[-90,-13],[-34,-15],[-35,-7],[-1,-20],[-33,-6],[-31,3],[-12,-8],[-32,-7],[-56,10],[-8,29],[-23,-4],[-24,-13],[-49,7],[-30,-15],[-27,-4],[-31,6],[-17,-8],[-55,7],[-29,-15],[-88,-1],[-16,-7],[-25,1],[-43,-6],[-22,-12],[-59,11],[7,11],[-10,14],[-58,2],[-14,-4],[-43,-32],[-36,13],[-48,0],[-30,6],[-40,-7],[1,22],[-41,15],[-23,4],[-9,9],[-25,2],[-17,11],[-56,-2],[-17,5],[-50,-15],[-33,-5],[-7,-6],[-56,-4],[-35,-9],[-6,-6],[-58,-8],[-42,8],[-45,-21],[-30,6],[-51,-20],[-60,-9],[-4,-18],[-19,-2],[-15,13],[-29,-2],[-20,-25],[-16,-4],[-23,5],[-41,-7],[-28,0],[-22,7],[-22,-2],[-36,-13],[-17,6],[-6,20],[-67,7],[-41,9],[-95,6],[-48,-7],[-18,-9],[-80,-11],[-11,-8],[-44,11],[-29,-3],[-14,-14],[-23,-3],[-14,-10],[-66,-11],[-29,-16],[-40,-9],[-28,-3],[-12,5],[4,40],[-13,20],[11,25],[-15,14],[-43,16],[-40,3],[-53,-9],[-14,-15],[-23,-11],[-12,-21],[-25,-25],[-55,3],[-45,-6],[-28,6],[-106,-13],[-37,13],[-14,0],[-37,-17],[-34,7],[-50,-7],[-30,6],[-40,-25]],[[3805,7803],[-28,20],[10,12],[-75,8],[-13,17],[-38,-2],[-20,5],[-43,-6],[-15,15],[-35,8],[-4,10],[17,16],[-15,18],[12,18],[-52,17],[-14,24],[-42,24],[11,14],[-16,13],[-50,1],[-38,29],[12,10],[-7,25],[-24,8],[-2,20],[25,5],[5,20],[-20,9],[-12,12],[-30,8],[-38,21],[-21,1],[-10,13],[27,13],[14,26],[62,6],[7,4]],[[4779,7043],[-53,-2],[-25,4],[-22,14],[-52,-1],[-29,3],[-63,13],[-55,-16],[-52,-20],[-46,9],[-26,11],[-41,1],[-30,-16],[-35,3],[-9,10],[-37,-1],[-39,4],[-36,-17],[-39,-4],[-17,-6],[-40,0],[-20,4],[-27,-3],[-3,-22],[-21,-9],[-28,-31],[2,-13],[-44,-13],[-76,6],[-9,9],[-36,15],[-23,3],[-30,-8],[-8,-8],[-26,0],[-13,27],[5,31],[17,24],[-7,10],[11,47],[-21,18],[15,5],[32,28],[44,4],[64,11],[35,35],[1,18],[-16,12],[1,32],[44,30],[31,15],[-11,18],[8,17],[17,10],[-11,10],[-29,3],[-25,27],[8,23],[-10,13],[-45,14],[-5,18],[17,8],[-23,21],[-38,4],[-1,13],[-39,17],[-4,19],[-54,16],[-9,12],[-16,2],[11,35],[16,14],[35,-2],[18,16],[0,18],[36,21],[7,12],[-16,9],[15,13]],[[3779,7710],[102,0],[20,6],[31,-3],[37,7],[30,-13],[30,5],[18,-3],[45,12],[20,3],[31,-7],[9,-15],[57,-5],[-2,-18],[46,-8],[30,5],[19,-14],[-35,-27],[16,-5],[24,3],[27,-6],[22,12],[30,-3],[52,27],[5,8],[57,5],[42,-5],[18,12],[68,12],[21,12],[29,4],[11,11],[34,12],[43,-8],[56,13],[16,-14],[31,1],[36,-7],[129,5],[33,-10],[5,-16],[17,2],[10,-14],[70,6],[33,12],[15,12],[34,5],[29,15],[3,14],[29,14],[44,34],[29,3],[39,-4],[42,9],[41,-9],[55,3],[21,6],[37,-1],[8,10],[78,18],[11,-13],[49,7],[37,-6],[12,-13],[37,1],[15,6],[25,-22],[21,-3],[8,-26],[12,0],[35,29],[26,5],[-6,17],[20,13],[42,3],[21,7],[59,-3],[7,11],[33,7],[27,-22],[42,0],[10,-11],[44,-24],[32,-5],[38,-24],[32,-2],[30,-13],[18,-20],[9,-23],[40,-2],[32,7],[54,-6],[34,-1],[60,5],[17,9],[21,24],[26,12],[32,-4],[19,10],[48,-7],[57,15],[11,9],[23,3],[12,-6],[75,-2],[8,-28],[-9,-12],[12,-26],[14,-5],[42,10],[22,0],[57,18],[53,-6],[129,3],[51,0],[33,-16],[57,-7],[98,-8],[56,-10],[69,-19],[40,-7],[19,-8],[36,-7],[13,-17],[37,-9],[58,-10],[55,6],[49,1],[47,-11],[39,-17],[16,-22],[37,-4],[11,31],[75,-22],[37,4],[65,-13],[0,-4],[124,-19],[5,4],[42,1],[11,16],[30,-1],[4,11],[64,-8],[4,-28],[27,6],[142,22],[15,14],[45,28],[51,-4]],[[8948,7416],[-35,-4],[-12,-9],[-31,6],[-51,4],[-87,-3],[-5,-4],[-59,8],[-7,-3],[-102,4],[-43,4],[-40,-2],[-12,-6],[-31,5],[-4,-8],[-23,3],[-7,-6],[-55,12],[-4,-8],[-79,8],[-85,13],[-55,-3],[-43,8],[-40,11],[-84,12],[-29,20],[-39,7],[-39,2],[-31,7],[-63,2],[-33,6],[-6,21],[-27,13],[-29,36],[-26,8],[-20,-7],[-48,-4],[-27,18],[-27,4],[-31,-9],[-38,0],[-27,6],[-36,-10],[-35,0],[-14,-6],[-42,4],[-17,-5],[-28,7],[-23,-5],[-28,6],[-18,-4],[-65,3],[-6,-11],[-25,-11],[-73,31],[-22,3],[-24,-18],[2,-19],[-51,-3],[-21,13],[-37,-11],[-45,12],[-25,-4],[-12,18],[-35,23],[-15,0],[-5,17],[-17,14],[-28,0],[-23,6],[-63,1],[-27,-18],[-27,-3],[-10,-15],[-31,4],[-28,-14],[-13,-20],[-19,5],[-13,-18],[10,-9],[-42,-16],[-23,-5],[-44,27],[-27,9],[-30,-1],[-31,-12],[-34,6],[-28,-6],[-47,17],[-44,-17],[-54,7],[-20,-4]],[[3779,7710],[-4,36],[-12,19],[42,38]]],"transform":{"scale":[0.00008853530483048119,0.00016897107180718283],"translate":[99.14741807200005,10.954766665000022]},"objects":{"Prachuap Khiri Khan":{"type":"GeometryCollection","geometries":[{"arcs":[[0,1,2]],"type":"Polygon","properties":{"Shape_Leng":0.224771631221,"Shape_Area":0.00118605623731,"ADM3_EN":"Prachuap Khiri Khan","ADM3_TH":"ประจวบคีรีขันธ์","ADM3_PCODE":"TH770101","ADM2_EN":"Mueang Prachuap Khiri Khan","ADM2_TH":"เมืองประจวบคีรีข","ADM2_PCODE":"TH7701","ADM1_EN":"Prachuap Khiri Khan","ADM1_TH":"ประจวบคีรีขันธ์","ADM1_PCODE":"TH77","ADM0_EN":"Thailand","ADM0_TH":"ประเทศไทย","ADM0_PCODE":"TH"}},{"arcs":[[[-2,3,4,5,6]],[[7]],[[8]],[[9]],[[10]],[[11]]],"type":"MultiPolygon","properties":{"Shape_Leng":0.640720400086,"Shape_Area":0.00790877732877,"ADM3_EN":"Ko Lak","ADM3_TH":"เกาะหลัก","ADM3_PCODE":"TH770102","ADM2_EN":"Mueang Prachuap Khiri Khan","ADM2_TH":"เมืองประจวบคีรีข","ADM2_PCODE":"TH7701","ADM1_EN":"Prachuap Khiri Khan","ADM1_TH":"ประจวบคีรีขันธ์","ADM1_PCODE":"TH77","ADM0_EN":"Thailand","ADM0_TH":"ประเทศไทย","ADM0_PCODE":"TH"}},{"arcs":[[[-5,12,13,14]],[[15]],[[16]]],"type":"MultiPolygon","properties":{"Shape_Leng":0.563784584213,"Shape_Area":0.00637689388623,"ADM3_EN":"Khlong Wan","ADM3_TH":"คลองวาฬ","ADM3_PCODE":"TH770103","ADM2_EN":"Mueang Prachuap Khiri Khan","ADM2_TH":"เมืองประจวบคีรีข","ADM2_PCODE":"TH7701","ADM1_EN":"Prachuap Khiri Khan","ADM1_TH":"ประจวบคีรีขันธ์","ADM1_PCODE":"TH77","ADM0_EN":"Thailand","ADM0_TH":"ประเทศไทย","ADM0_PCODE":"TH"}},{"arcs":[[-14,17,18,19]],"type":"Polygon","properties":{"Shape_Leng":0.540100129523,"Shape_Area":0.00951632495615,"ADM3_EN":"Huai Sai","ADM3_TH":"ห้วยทราย","ADM3_PCODE":"TH770104","ADM2_EN":"Mueang Prachuap Khiri Khan","ADM2_TH":"เมืองประจวบคีรีข","ADM2_PCODE":"TH7701","ADM1_EN":"Prachuap Khiri Khan","ADM1_TH":"ประจวบคีรีขันธ์","ADM1_PCODE":"TH77","ADM0_EN":"Thailand","ADM0_TH":"ประเทศไทย","ADM0_PCODE":"TH"}},{"arcs":[[-3,-7,20,21,22]],"type":"Polygon","properties":{"Shape_Leng":0.887148304014,"Shape_Area":0.0287670407032,"ADM3_EN":"Ao Noi","ADM3_TH":"อ่าวน้อย","ADM3_PCODE":"TH770105","ADM2_EN":"Mueang Prachuap Khiri Khan","ADM2_TH":"เมืองประจวบคีรีข","ADM2_PCODE":"TH7701","ADM1_EN":"Prachuap Khiri Khan","ADM1_TH":"ประจวบคีรีขันธ์","ADM1_PCODE":"TH77","ADM0_EN":"Thailand","ADM0_TH":"ประเทศไทย","ADM0_PCODE":"TH"}},{"arcs":[[-22,23,24,25,26,27]],"type":"Polygon","properties":{"Shape_Leng":0.886347324987,"Shape_Area":0.0163687244208,"ADM3_EN":"Bo Nok","ADM3_TH":"บ่อนอก","ADM3_PCODE":"TH770106","ADM2_EN":"Mueang Prachuap Khiri Khan","ADM2_TH":"เมืองประจวบคีรีข","ADM2_PCODE":"TH7701","ADM1_EN":"Prachuap Khiri Khan","ADM1_TH":"ประจวบคีรีขันธ์","ADM1_PCODE":"TH77","ADM0_EN":"Thailand","ADM0_TH":"ประเทศไทย","ADM0_PCODE":"TH"}},{"arcs":[[-26,28,29,30]],"type":"Polygon","properties":{"Shape_Leng":0.486542811045,"Shape_Area":0.005747875821,"ADM3_EN":"Kui Buri","ADM3_TH":"กุยบุรี","ADM3_PCODE":"TH770201","ADM2_EN":"Kui Buri","ADM2_TH":"กุยบุรี","ADM2_PCODE":"TH7702","ADM1_EN":"Prachuap Khiri Khan","ADM1_TH":"ประจวบคีรีขันธ์","ADM1_PCODE":"TH77","ADM0_EN":"Thailand","ADM0_TH":"ประเทศไทย","ADM0_PCODE":"TH"}},{"arcs":[[-27,-31,31,32,33,34]],"type":"Polygon","properties":{"Shape_Leng":0.409603738073,"Shape_Area":0.004727682468,"ADM3_EN":"Kui Nuea","ADM3_TH":"กุยเหนือ","ADM3_PCODE":"TH770202","ADM2_EN":"Kui Buri","ADM2_TH":"กุยบุรี","ADM2_PCODE":"TH7702","ADM1_EN":"Prachuap Khiri Khan","ADM1_TH":"ประจวบคีรีขันธ์","ADM1_PCODE":"TH77","ADM0_EN":"Thailand","ADM0_TH":"ประเทศไทย","ADM0_PCODE":"TH"}},{"arcs":[[-34,35,36,37]],"type":"Polygon","properties":{"Shape_Leng":0.37275331637,"Shape_Area":0.00245236021279,"ADM3_EN":"Khao Daeng","ADM3_TH":"เขาแดง","ADM3_PCODE":"TH770203","ADM2_EN":"Kui Buri","ADM2_TH":"กุยบุรี","ADM2_PCODE":"TH7702","ADM1_EN":"Prachuap Khiri Khan","ADM1_TH":"ประจวบคีรีขันธ์","ADM1_PCODE":"TH77","ADM0_EN":"Thailand","ADM0_TH":"ประเทศไทย","ADM0_PCODE":"TH"}},{"arcs":[[-33,38,39,-36]],"type":"Polygon","properties":{"Shape_Leng":0.277951969725,"Shape_Area":0.00306009368439,"ADM3_EN":"Don Yai Nu","ADM3_TH":"ดอนยายหนู","ADM3_PCODE":"TH770204","ADM2_EN":"Kui Buri","ADM2_TH":"กุยบุรี","ADM2_PCODE":"TH7702","ADM1_EN":"Prachuap Khiri Khan","ADM1_TH":"ประจวบคีรีขันธ์","ADM1_PCODE":"TH77","ADM0_EN":"Thailand","ADM0_TH":"ประเทศไทย","ADM0_PCODE":"TH"}},{"arcs":[[-30,40,41,-39,-32]],"type":"Polygon","properties":{"Shape_Leng":0.748485826591,"Shape_Area":0.0113628273558,"ADM3_EN":"Sam Krathai","ADM3_TH":"สามกระทาย","ADM3_PCODE":"TH770206","ADM2_EN":"Kui Buri","ADM2_TH":"กุยบุรี","ADM2_PCODE":"TH7702","ADM1_EN":"Prachuap Khiri Khan","ADM1_TH":"ประจวบคีรีขันธ์","ADM1_PCODE":"TH77","ADM0_EN":"Thailand","ADM0_TH":"ประเทศไทย","ADM0_PCODE":"TH"}},{"arcs":[[-25,42,43,44,-41,-29]],"type":"Polygon","properties":{"Shape_Leng":1.10915459703,"Shape_Area":0.0444724607371,"ADM3_EN":"Hat Kham","ADM3_TH":"หาดขาม","ADM3_PCODE":"TH770207","ADM2_EN":"Kui Buri","ADM2_TH":"กุยบุรี","ADM2_PCODE":"TH7702","ADM1_EN":"Prachuap Khiri Khan","ADM1_TH":"ประจวบคีรีขันธ์","ADM1_PCODE":"TH77","ADM0_EN":"Thailand","ADM0_TH":"ประเทศไทย","ADM0_PCODE":"TH"}},{"arcs":[[45,46,47,48]],"type":"Polygon","properties":{"Shape_Leng":0.270725951286,"Shape_Area":0.00174562669487,"ADM3_EN":"Thap Sakae","ADM3_TH":"ทับสะแก","ADM3_PCODE":"TH770301","ADM2_EN":"Thap Sakae","ADM2_TH":"ทับสะแก","ADM2_PCODE":"TH7703","ADM1_EN":"Prachuap Khiri Khan","ADM1_TH":"ประจวบคีรีขันธ์","ADM1_PCODE":"TH77","ADM0_EN":"Thailand","ADM0_TH":"ประเทศไทย","ADM0_PCODE":"TH"}},{"arcs":[[[49]],[[50,51,52,53,54]]],"type":"MultiPolygon","properties":{"Shape_Leng":0.609806295573,"Shape_Area":0.00877346686554,"ADM3_EN":"Ang Thong","ADM3_TH":"อ่างทอง","ADM3_PCODE":"TH770302","ADM2_EN":"Thap Sakae","ADM2_TH":"ทับสะแก","ADM2_PCODE":"TH7703","ADM1_EN":"Prachuap Khiri Khan","ADM1_TH":"ประจวบคีรีขันธ์","ADM1_PCODE":"TH77","ADM0_EN":"Thailand","ADM0_TH":"ประเทศไทย","ADM0_PCODE":"TH"}},{"arcs":[[-47,55,-55,56,57]],"type":"Polygon","properties":{"Shape_Leng":0.696418128763,"Shape_Area":0.01235426676,"ADM3_EN":"Na Hu Kwang","ADM3_TH":"นาหูกวาง","ADM3_PCODE":"TH770303","ADM2_EN":"Thap Sakae","ADM2_TH":"ทับสะแก","ADM2_PCODE":"TH7703","ADM1_EN":"Prachuap Khiri Khan","ADM1_TH":"ประจวบคีรีขันธ์","ADM1_PCODE":"TH77","ADM0_EN":"Thailand","ADM0_TH":"ประเทศไทย","ADM0_PCODE":"TH"}},{"arcs":[[-48,-58,58,59,60]],"type":"Polygon","properties":{"Shape_Leng":0.622950701355,"Shape_Area":0.00957802763735,"ADM3_EN":"Khao Lan","ADM3_TH":"เขาล้าน","ADM3_PCODE":"TH770304","ADM2_EN":"Thap Sakae","ADM2_TH":"ทับสะแก","ADM2_PCODE":"TH7703","ADM1_EN":"Prachuap Khiri Khan","ADM1_TH":"ประจวบคีรีขันธ์","ADM1_PCODE":"TH77","ADM0_EN":"Thailand","ADM0_TH":"ประเทศไทย","ADM0_PCODE":"TH"}},{"arcs":[[-19,61,62,-60,63]],"type":"Polygon","properties":{"Shape_Leng":0.481931248609,"Shape_Area":0.00886206109876,"ADM3_EN":"Huai Yang","ADM3_TH":"ห้วยยาง","ADM3_PCODE":"TH770305","ADM2_EN":"Thap Sakae","ADM2_TH":"ทับสะแก","ADM2_PCODE":"TH7703","ADM1_EN":"Prachuap Khiri Khan","ADM1_TH":"ประจวบคีรีขันธ์","ADM1_PCODE":"TH77","ADM0_EN":"Thailand","ADM0_TH":"ประเทศไทย","ADM0_PCODE":"TH"}},{"arcs":[[-49,-61,-63,64]],"type":"Polygon","properties":{"Shape_Leng":0.309156375863,"Shape_Area":0.00399283615497,"ADM3_EN":"Saeng Arun","ADM3_TH":"แสงอรุณ","ADM3_PCODE":"TH770306","ADM2_EN":"Thap Sakae","ADM2_TH":"ทับสะแก","ADM2_PCODE":"TH7703","ADM1_EN":"Prachuap Khiri Khan","ADM1_TH":"ประจวบคีรีขันธ์","ADM1_PCODE":"TH77","ADM0_EN":"Thailand","ADM0_TH":"ประเทศไทย","ADM0_PCODE":"TH"}},{"arcs":[[65,66,67,68,69]],"type":"Polygon","properties":{"Shape_Leng":0.418628306232,"Shape_Area":0.00425883041272,"ADM3_EN":"Kamnoet Nopphakhun","ADM3_TH":"กำเนิดนพคุณ","ADM3_PCODE":"TH770401","ADM2_EN":"Bang Saphan","ADM2_TH":"บางสะพาน","ADM2_PCODE":"TH7704","ADM1_EN":"Prachuap Khiri Khan","ADM1_TH":"ประจวบคีรีขันธ์","ADM1_PCODE":"TH77","ADM0_EN":"Thailand","ADM0_TH":"ประเทศไทย","ADM0_PCODE":"TH"}},{"arcs":[[-68,70,71,72,73,74]],"type":"Polygon","properties":{"Shape_Leng":0.512000354418,"Shape_Area":0.00688721724637,"ADM3_EN":"Phong Prasat","ADM3_TH":"พงศ์ประศาสน์","ADM3_PCODE":"TH770402","ADM2_EN":"Bang Saphan","ADM2_TH":"บางสะพาน","ADM2_PCODE":"TH7704","ADM1_EN":"Prachuap Khiri Khan","ADM1_TH":"ประจวบคีรีขันธ์","ADM1_PCODE":"TH77","ADM0_EN":"Thailand","ADM0_TH":"ประเทศไทย","ADM0_PCODE":"TH"}},{"arcs":[[-69,-75,75,76,77]],"type":"Polygon","properties":{"Shape_Leng":0.760231829107,"Shape_Area":0.0165692222919,"ADM3_EN":"Ron Thong","ADM3_TH":"ร่อนทอง","ADM3_PCODE":"TH770403","ADM2_EN":"Bang Saphan","ADM2_TH":"บางสะพาน","ADM2_PCODE":"TH7704","ADM1_EN":"Prachuap Khiri Khan","ADM1_TH":"ประจวบคีรีขันธ์","ADM1_PCODE":"TH77","ADM0_EN":"Thailand","ADM0_TH":"ประเทศไทย","ADM0_PCODE":"TH"}},{"arcs":[[-52,78,79,-66,80]],"type":"Polygon","properties":{"Shape_Leng":0.449481840884,"Shape_Area":0.00660777010561,"ADM3_EN":"Thong Chai","ADM3_TH":"ธงชัย","ADM3_PCODE":"TH770404","ADM2_EN":"Bang Saphan","ADM2_TH":"บางสะพาน","ADM2_PCODE":"TH7704","ADM1_EN":"Prachuap Khiri Khan","ADM1_TH":"ประจวบคีรีขันธ์","ADM1_PCODE":"TH77","ADM0_EN":"Thailand","ADM0_TH":"ประเทศไทย","ADM0_PCODE":"TH"}},{"arcs":[[-53,-81,-70,-78,81]],"type":"Polygon","properties":{"Shape_Leng":0.679835052788,"Shape_Area":0.0147570532324,"ADM3_EN":"Chai Kasem","ADM3_TH":"ชัยเกษม","ADM3_PCODE":"TH770405","ADM2_EN":"Bang Saphan","ADM2_TH":"บางสะพาน","ADM2_PCODE":"TH7704","ADM1_EN":"Prachuap Khiri Khan","ADM1_TH":"ประจวบคีรีขันธ์","ADM1_PCODE":"TH77","ADM0_EN":"Thailand","ADM0_TH":"ประเทศไทย","ADM0_PCODE":"TH"}},{"arcs":[[-74,82,83,84,-76]],"type":"Polygon","properties":{"Shape_Leng":0.635318052195,"Shape_Area":0.0115426952729,"ADM3_EN":"Thong Mongkhon","ADM3_TH":"ทองมงคล","ADM3_PCODE":"TH770406","ADM2_EN":"Bang Saphan","ADM2_TH":"บางสะพาน","ADM2_PCODE":"TH7704","ADM1_EN":"Prachuap Khiri Khan","ADM1_TH":"ประจวบคีรีขันธ์","ADM1_PCODE":"TH77","ADM0_EN":"Thailand","ADM0_TH":"ประเทศไทย","ADM0_PCODE":"TH"}},{"arcs":[[[-67,-80,85,-71]],[[86]]],"type":"MultiPolygon","properties":{"Shape_Leng":0.344712832093,"Shape_Area":0.00296267799074,"ADM3_EN":"Mae Ramphueng","ADM3_TH":"แม่รำพึง","ADM3_PCODE":"TH770407","ADM2_EN":"Bang Saphan","ADM2_TH":"บางสะพาน","ADM2_PCODE":"TH7704","ADM1_EN":"Prachuap Khiri Khan","ADM1_TH":"ประจวบคีรีขันธ์","ADM1_PCODE":"TH77","ADM0_EN":"Thailand","ADM0_TH":"ประเทศไทย","ADM0_PCODE":"TH"}},{"arcs":[[[87]],[[88,89,90,91]]],"type":"MultiPolygon","properties":{"Shape_Leng":0.487673394343,"Shape_Area":0.0034612707431,"ADM3_EN":"Pak Phraek","ADM3_TH":"ปากแพรก","ADM3_PCODE":"TH770501","ADM2_EN":"Bang Saphan Noi","ADM2_TH":"บางสะพานน้อย","ADM2_PCODE":"TH7705","ADM1_EN":"Prachuap Khiri Khan","ADM1_TH":"ประจวบคีรีขันธ์","ADM1_PCODE":"TH77","ADM0_EN":"Thailand","ADM0_TH":"ประเทศไทย","ADM0_PCODE":"TH"}},{"arcs":[[-73,92,-92,93,-83]],"type":"Polygon","properties":{"Shape_Leng":0.404862418884,"Shape_Area":0.00571865016215,"ADM3_EN":"Bang Saphan","ADM3_TH":"บางสะพาน","ADM3_PCODE":"TH770502","ADM2_EN":"Bang Saphan Noi","ADM2_TH":"บางสะพานน้อย","ADM2_PCODE":"TH7705","ADM1_EN":"Prachuap Khiri Khan","ADM1_TH":"ประจวบคีรีขันธ์","ADM1_PCODE":"TH77","ADM0_EN":"Thailand","ADM0_TH":"ประเทศไทย","ADM0_PCODE":"TH"}},{"arcs":[[-90,94,95,96]],"type":"Polygon","properties":{"Shape_Leng":0.604178992024,"Shape_Area":0.0102911919986,"ADM3_EN":"Sai Thong","ADM3_TH":"ทรายทอง","ADM3_PCODE":"TH770503","ADM2_EN":"Bang Saphan Noi","ADM2_TH":"บางสะพานน้อย","ADM2_PCODE":"TH7705","ADM1_EN":"Prachuap Khiri Khan","ADM1_TH":"ประจวบคีรีขันธ์","ADM1_PCODE":"TH77","ADM0_EN":"Thailand","ADM0_TH":"ประเทศไทย","ADM0_PCODE":"TH"}},{"arcs":[[-84,-94,-91,-97,97,98]],"type":"Polygon","properties":{"Shape_Leng":0.845659637683,"Shape_Area":0.0230259895707,"ADM3_EN":"Chang Raek","ADM3_TH":"ช้างแรก","ADM3_PCODE":"TH770504","ADM2_EN":"Bang Saphan Noi","ADM2_TH":"บางสะพานน้อย","ADM2_PCODE":"TH7705","ADM1_EN":"Prachuap Khiri Khan","ADM1_TH":"ประจวบคีรีขันธ์","ADM1_PCODE":"TH77","ADM0_EN":"Thailand","ADM0_TH":"ประเทศไทย","ADM0_PCODE":"TH"}},{"arcs":[[-96,99,-98]],"type":"Polygon","properties":{"Shape_Leng":0.769325214461,"Shape_Area":0.0152020118684,"ADM3_EN":"Chaiyarat","ADM3_TH":"ไชยราช","ADM3_PCODE":"TH770505","ADM2_EN":"Bang Saphan Noi","ADM2_TH":"บางสะพานน้อย","ADM2_PCODE":"TH7705","ADM1_EN":"Prachuap Khiri Khan","ADM1_TH":"ประจวบคีรีขันธ์","ADM1_PCODE":"TH77","ADM0_EN":"Thailand","ADM0_TH":"ประเทศไทย","ADM0_PCODE":"TH"}},{"arcs":[[100,101,102,103,104,105]],"type":"Polygon","properties":{"Shape_Leng":0.299728098655,"Shape_Area":0.00273888478705,"ADM3_EN":"Pran Buri","ADM3_TH":"ปราณบุรี","ADM3_PCODE":"TH770601","ADM2_EN":"Pran Buri","ADM2_TH":"ปราณบุรี","ADM2_PCODE":"TH7706","ADM1_EN":"Prachuap Khiri Khan","ADM1_TH":"ประจวบคีรีขันธ์","ADM1_PCODE":"TH77","ADM0_EN":"Thailand","ADM0_TH":"ประเทศไทย","ADM0_PCODE":"TH"}},{"arcs":[[-105,106,107,108]],"type":"Polygon","properties":{"Shape_Leng":0.494944990374,"Shape_Area":0.00548405727986,"ADM3_EN":"Khao Noi","ADM3_TH":"เขาน้อย","ADM3_PCODE":"TH770602","ADM2_EN":"Pran Buri","ADM2_TH":"ปราณบุรี","ADM2_PCODE":"TH7706","ADM1_EN":"Prachuap Khiri Khan","ADM1_TH":"ประจวบคีรีขันธ์","ADM1_PCODE":"TH77","ADM0_EN":"Thailand","ADM0_TH":"ประเทศไทย","ADM0_PCODE":"TH"}},{"arcs":[[-101,109,110,111,112]],"type":"Polygon","properties":{"Shape_Leng":0.395079451673,"Shape_Area":0.00302278692637,"ADM3_EN":"Pak Nam Pran","ADM3_TH":"ปากน้ำปราณ","ADM3_PCODE":"TH770604","ADM2_EN":"Pran Buri","ADM2_TH":"ปราณบุรี","ADM2_PCODE":"TH7706","ADM1_EN":"Prachuap Khiri Khan","ADM1_TH":"ประจวบคีรีขันธ์","ADM1_PCODE":"TH77","ADM0_EN":"Thailand","ADM0_TH":"ประเทศไทย","ADM0_PCODE":"TH"}},{"arcs":[[-104,113,114,115,-107]],"type":"Polygon","properties":{"Shape_Leng":0.842380095107,"Shape_Area":0.0114077442739,"ADM3_EN":"Nong Ta Taem","ADM3_TH":"หนองตาแต้ม","ADM3_PCODE":"TH770607","ADM2_EN":"Pran Buri","ADM2_TH":"ปราณบุรี","ADM2_PCODE":"TH7706","ADM1_EN":"Prachuap Khiri Khan","ADM1_TH":"ประจวบคีรีขันธ์","ADM1_PCODE":"TH77","ADM0_EN":"Thailand","ADM0_TH":"ประเทศไทย","ADM0_PCODE":"TH"}},{"arcs":[[-106,-109,116,117,-110]],"type":"Polygon","properties":{"Shape_Leng":0.381754347196,"Shape_Area":0.00393383274512,"ADM3_EN":"Wang Phong","ADM3_TH":"วังก์พง","ADM3_PCODE":"TH770608","ADM2_EN":"Pran Buri","ADM2_TH":"ปราณบุรี","ADM2_PCODE":"TH7706","ADM1_EN":"Prachuap Khiri Khan","ADM1_TH":"ประจวบคีรีขันธ์","ADM1_PCODE":"TH77","ADM0_EN":"Thailand","ADM0_TH":"ประเทศไทย","ADM0_PCODE":"TH"}},{"arcs":[[-115,118,119,120,121,122,123]],"type":"Polygon","properties":{"Shape_Leng":1.5726766714,"Shape_Area":0.0267523114247,"ADM3_EN":"Khao Chao","ADM3_TH":"เขาจ้าว","ADM3_PCODE":"TH770609","ADM2_EN":"Pran Buri","ADM2_TH":"ปราณบุรี","ADM2_PCODE":"TH7706","ADM1_EN":"Prachuap Khiri Khan","ADM1_TH":"ประจวบคีรีขันธ์","ADM1_PCODE":"TH77","ADM0_EN":"Thailand","ADM0_TH":"ประเทศไทย","ADM0_PCODE":"TH"}},{"arcs":[[124,125,126,127]],"type":"Polygon","properties":{"Shape_Leng":0.250082525835,"Shape_Area":0.00283575242799,"ADM3_EN":"Hua Hin","ADM3_TH":"หัวหิน","ADM3_PCODE":"TH770701","ADM2_EN":"Hua Hin","ADM2_TH":"หัวหิน","ADM2_PCODE":"TH7707","ADM1_EN":"Prachuap Khiri Khan","ADM1_TH":"ประจวบคีรีขันธ์","ADM1_PCODE":"TH77","ADM0_EN":"Thailand","ADM0_TH":"ประเทศไทย","ADM0_PCODE":"TH"}},{"arcs":[[-111,-118,128,-125,129]],"type":"Polygon","properties":{"Shape_Leng":0.347076035559,"Shape_Area":0.00349126552156,"ADM3_EN":"Nong Kae","ADM3_TH":"หนองแก","ADM3_PCODE":"TH770702","ADM2_EN":"Hua Hin","ADM2_TH":"หัวหิน","ADM2_PCODE":"TH7707","ADM1_EN":"Prachuap Khiri Khan","ADM1_TH":"ประจวบคีรีขันธ์","ADM1_PCODE":"TH77","ADM0_EN":"Thailand","ADM0_TH":"ประเทศไทย","ADM0_PCODE":"TH"}},{"arcs":[[-127,130,131,132]],"type":"Polygon","properties":{"Shape_Leng":0.431012156602,"Shape_Area":0.00775489153371,"ADM3_EN":"Hin Lek Fai","ADM3_TH":"หินเหล็กไฟ","ADM3_PCODE":"TH770703","ADM2_EN":"Hua Hin","ADM2_TH":"หัวหิน","ADM2_PCODE":"TH7707","ADM1_EN":"Prachuap Khiri Khan","ADM1_TH":"ประจวบคีรีขันธ์","ADM1_PCODE":"TH77","ADM0_EN":"Thailand","ADM0_TH":"ประเทศไทย","ADM0_PCODE":"TH"}},{"arcs":[[-123,133,134,135,-132,136]],"type":"Polygon","properties":{"Shape_Leng":0.804889302469,"Shape_Area":0.0183967773389,"ADM3_EN":"Nong Phlap","ADM3_TH":"หนองพลับ","ADM3_PCODE":"TH770704","ADM2_EN":"Hua Hin","ADM2_TH":"หัวหิน","ADM2_PCODE":"TH7707","ADM1_EN":"Prachuap Khiri Khan","ADM1_TH":"ประจวบคีรีขันธ์","ADM1_PCODE":"TH77","ADM0_EN":"Thailand","ADM0_TH":"ประเทศไทย","ADM0_PCODE":"TH"}},{"arcs":[[-108,-116,-124,-137,-131,-126,-129,-117]],"type":"Polygon","properties":{"Shape_Leng":0.606986244429,"Shape_Area":0.0161080849412,"ADM3_EN":"Thap Tai","ADM3_TH":"ทับใต้","ADM3_PCODE":"TH770705","ADM2_EN":"Hua Hin","ADM2_TH":"หัวหิน","ADM2_PCODE":"TH7707","ADM1_EN":"Prachuap Khiri Khan","ADM1_TH":"ประจวบคีรีขันธ์","ADM1_PCODE":"TH77","ADM0_EN":"Thailand","ADM0_TH":"ประเทศไทย","ADM0_PCODE":"TH"}},{"arcs":[[-121,137,-135,138]],"type":"Polygon","properties":{"Shape_Leng":1.06908041257,"Shape_Area":0.0264198118858,"ADM3_EN":"Huai Sat Yai","ADM3_TH":"ห้วยสัตว์ใหญ่","ADM3_PCODE":"TH770706","ADM2_EN":"Hua Hin","ADM2_TH":"หัวหิน","ADM2_PCODE":"TH7707","ADM1_EN":"Prachuap Khiri Khan","ADM1_TH":"ประจวบคีรีขันธ์","ADM1_PCODE":"TH77","ADM0_EN":"Thailand","ADM0_TH":"ประเทศไทย","ADM0_PCODE":"TH"}},{"arcs":[[-122,-139,-134]],"type":"Polygon","properties":{"Shape_Leng":0.980501908288,"Shape_Area":0.0220092267374,"ADM3_EN":"Bueng Nakhon","ADM3_TH":"บึงนคร","ADM3_PCODE":"TH770707","ADM2_EN":"Hua Hin","ADM2_TH":"หัวหิน","ADM2_PCODE":"TH7707","ADM1_EN":"Prachuap Khiri Khan","ADM1_TH":"ประจวบคีรีขันธ์","ADM1_PCODE":"TH77","ADM0_EN":"Thailand","ADM0_TH":"ประเทศไทย","ADM0_PCODE":"TH"}},{"arcs":[[[-37,-40,139,140,141,142,-102,-113,143]],[[144]],[[145]],[[146]]],"type":"MultiPolygon","properties":{"Shape_Leng":0.673029431498,"Shape_Area":0.00847691950655,"ADM3_EN":"Sam Roi Yot","ADM3_TH":"สามร้อยยอด","ADM3_PCODE":"TH770801","ADM2_EN":"Sam Roi Yot","ADM2_TH":"สามร้อยยอด","ADM2_PCODE":"TH7708","ADM1_EN":"Prachuap Khiri Khan","ADM1_TH":"ประจวบคีรีขันธ์","ADM1_PCODE":"TH77","ADM0_EN":"Thailand","ADM0_TH":"ประเทศไทย","ADM0_PCODE":"TH"}},{"arcs":[[-103,-143,147,148,-119,-114]],"type":"Polygon","properties":{"Shape_Leng":1.50340842288,"Shape_Area":0.0250077334566,"ADM3_EN":"Sila Loi","ADM3_TH":"ศิลาลอย","ADM3_PCODE":"TH770802","ADM2_EN":"Sam Roi Yot","ADM2_TH":"สามร้อยยอด","ADM2_PCODE":"TH7708","ADM1_EN":"Prachuap Khiri Khan","ADM1_TH":"ประจวบคีรีขันธ์","ADM1_PCODE":"TH77","ADM0_EN":"Thailand","ADM0_TH":"ประเทศไทย","ADM0_PCODE":"TH"}},{"arcs":[[-44,149,150,-141,151]],"type":"Polygon","properties":{"Shape_Leng":1.48851493895,"Shape_Area":0.0208837523157,"ADM3_EN":"Rai Kao","ADM3_TH":"ไร่เก่า","ADM3_PCODE":"TH770803","ADM2_EN":"Sam Roi Yot","ADM2_TH":"สามร้อยยอด","ADM2_PCODE":"TH7708","ADM1_EN":"Prachuap Khiri Khan","ADM1_TH":"ประจวบคีรีขันธ์","ADM1_PCODE":"TH77","ADM0_EN":"Thailand","ADM0_TH":"ประเทศไทย","ADM0_PCODE":"TH"}},{"arcs":[[-142,-151,152,-148]],"type":"Polygon","properties":{"Shape_Leng":1.27251459535,"Shape_Area":0.0125365795799,"ADM3_EN":"Sala Lai","ADM3_TH":"ศาลาลัย","ADM3_PCODE":"TH770804","ADM2_EN":"Sam Roi Yot","ADM2_TH":"สามร้อยยอด","ADM2_PCODE":"TH7708","ADM1_EN":"Prachuap Khiri Khan","ADM1_TH":"ประจวบคีรีขันธ์","ADM1_PCODE":"TH77","ADM0_EN":"Thailand","ADM0_TH":"ประเทศไทย","ADM0_PCODE":"TH"}},{"arcs":[[-42,-45,-152,-140]],"type":"Polygon","properties":{"Shape_Leng":0.77197161226,"Shape_Area":0.00938071269269,"ADM3_EN":"Rai Mai","ADM3_TH":"ไร่ใหม่","ADM3_PCODE":"TH770805","ADM2_EN":"Sam Roi Yot","ADM2_TH":"สามร้อยยอด","ADM2_PCODE":"TH7708","ADM1_EN":"Prachuap Khiri Khan","ADM1_TH":"ประจวบคีรีขันธ์","ADM1_PCODE":"TH77","ADM0_EN":"Thailand","ADM0_TH":"ประเทศไทย","ADM0_PCODE":"TH"}}]}}}