{"type":"Topology","arcs":[[[3498,2378],[-30,11],[-20,-65],[-26,10],[-9,-23],[33,-4],[-1,-48],[-9,-31],[-26,12],[-34,26],[-37,1],[-26,10],[4,36],[66,-19],[39,116],[-27,20]],[[3395,2430],[6,22],[-12,21],[19,26],[-14,22],[-5,24],[-12,10],[7,103],[19,3],[27,-18],[17,2],[77,-28],[6,-17],[51,-69],[-40,-3],[-11,-26],[14,-16],[-24,-38],[-22,-70]],[[3395,2430],[-7,-6],[-60,24],[-23,-63],[-44,14],[-99,10],[-50,14],[-8,41],[11,15],[-3,26]],[[3112,2505],[16,25],[19,-13],[4,-38],[10,-18],[15,4],[19,36],[71,55],[5,58],[11,37],[86,72],[-8,63]],[[3360,2786],[-18,10],[4,28],[-18,2],[-7,14],[1,29]],[[3322,2869],[28,46],[14,-1],[2,15],[39,4],[20,-2],[26,6],[26,31],[-11,17],[-18,46],[14,105],[14,64]],[[3476,3200],[6,6],[31,-24],[15,-26],[31,1],[24,11],[22,-6],[25,2],[33,-35],[19,-6],[-3,-18],[10,-31],[19,-13],[1,-42],[20,-27],[12,-26],[19,6],[6,-20],[-7,-19],[10,-11],[-9,-14],[11,-62],[40,43],[32,1],[2,-47],[37,-11],[6,10]],[[3888,2842],[20,-20],[8,-48],[53,33],[21,8]],[[3990,2815],[5,-56],[-2,-13],[30,-49]],[[4023,2697],[20,-45],[53,-154],[-52,-29],[11,-33],[-79,-42],[-24,-104],[-19,-40],[-10,0],[-28,-51],[-12,-39],[-48,29],[-16,-51],[47,-40],[-16,-76]],[[3850,2022],[-111,52],[-5,8],[-90,46],[-63,36]],[[3581,2164],[7,18],[-21,4],[-39,22],[-65,22],[12,60],[23,88]],[[4023,2697],[75,7],[19,-13],[29,-44],[-3,-17],[11,-48],[13,-19],[16,-60],[17,-5],[34,-59],[13,34],[42,19],[8,44],[15,20],[18,8],[23,40],[15,16],[25,47],[44,-13],[25,-22],[59,-6],[35,10],[14,30],[37,5],[19,34],[28,16],[-7,8],[20,36],[46,33],[33,3],[7,-33],[18,24],[45,21],[52,-2],[-8,-23],[4,-17],[14,26],[14,8],[13,-10],[39,18],[28,-13],[55,25],[27,29],[12,33],[14,18],[30,23]],[[5110,2928],[-16,-74],[15,-58],[2,-21],[-32,-64],[-3,-40],[-18,-52],[3,-66],[-6,-46],[8,-30],[-21,-3],[26,-47],[14,-9],[-13,-11],[15,-2],[-10,-13],[29,7],[12,-4]],[[5115,2395],[-11,-5],[9,-20],[-1,-25],[16,-30],[34,-37],[1,-16],[-22,-30],[-50,7],[-34,-21],[-23,1],[1,-15],[-12,-22],[8,-16],[-14,-4],[-16,-27],[-12,2],[0,-33],[-18,-7],[-59,-130],[-84,-127],[-21,-48],[-4,-24],[-30,-45],[-13,-45],[-12,-57],[-46,-95]],[[4702,1526],[-154,110],[-58,35],[-21,8],[-113,69],[-27,14],[-100,60],[-54,28],[-192,112],[-49,26],[-26,8],[-58,26]],[[3581,2164],[-45,20],[-86,5],[-59,29],[-47,10],[-8,9],[-22,1],[-22,14],[-40,5],[-11,10],[-22,-2],[-11,10],[-22,-3],[-22,14],[-68,18],[-5,-5],[-70,27],[-44,6]],[[2977,2332],[4,21],[33,9],[-13,27],[-2,31],[13,30],[18,9],[36,-14],[28,29],[18,31]],[[5115,2395],[30,-11],[17,-15],[28,-47],[11,-4],[31,17],[29,-2],[16,12],[10,-6],[38,11],[21,16],[5,-57],[27,-79],[-5,-14],[3,-38],[20,-55],[9,10],[32,-1],[7,-28],[16,-12],[16,-37],[-19,-45],[11,-36],[-7,-20],[5,-41],[-5,-10],[15,-41],[-9,-62]],[[5467,1800],[-17,-20],[-32,-11],[-17,-11],[-27,0],[-5,-9],[-28,0],[-7,-20],[-26,-23],[-25,-35],[-29,-14],[5,-10],[-27,-21],[-11,4],[-36,-67],[-9,-32],[-1,-25],[31,-2],[-5,-27],[1,-42],[5,-4],[-19,-33],[1,-21],[12,-26],[-21,-37],[2,-36],[-12,-20],[-2,-31],[10,-20],[11,-2],[0,-18],[-31,0],[-11,-15],[-1,-28],[-18,-34],[-2,-31],[-12,18],[-40,19],[-11,16],[13,29],[12,-5],[4,40],[-26,43],[-19,20],[-68,61],[-49,40],[-113,85],[-77,51],[-22,6],[-16,24]],[[5406,50],[11,-3],[-4,-47],[-7,50]],[[5515,1072],[3,-21],[18,-46],[23,-26],[10,5],[25,-34],[32,-9],[11,10],[23,-11],[10,4],[14,-23],[36,-15],[-5,-12],[7,-27],[15,-26],[-14,-19],[-7,24],[-32,-8],[-17,-13],[-61,-24],[-21,-24],[0,-19],[-18,-14],[4,-28],[-13,-6],[-2,-26],[-14,-3],[-8,-20],[11,-31],[-16,20],[-15,-3],[-17,-32],[18,-26],[-6,-24],[-14,-1],[-19,-35],[-7,-22],[33,-73],[1,-17],[-17,-4],[-11,-23],[8,-18],[-4,-22],[8,-29],[-9,-33],[-25,-9],[-7,-18],[-4,-61],[21,-20],[-17,7],[-10,-18],[4,-28],[-12,7],[-11,-14],[-6,18],[10,29],[-17,46],[12,12],[-1,38],[21,17],[10,60],[-3,72],[8,49],[-6,24],[11,51],[-3,28],[7,75],[7,13],[-5,43],[19,36],[0,15],[-16,25],[8,25],[-13,29],[27,8],[5,19],[-10,38],[-23,15],[2,66],[-15,41],[5,14],[16,-5],[31,38],[17,-1]],[[5110,2928],[38,-48],[33,-17],[10,-18],[26,7],[21,-4],[26,-19],[26,-9],[17,-15],[50,-8],[11,-19],[75,-13],[54,28],[12,-7],[34,14],[17,-13],[21,-2],[14,-31],[13,-6],[1,-34],[37,-10],[13,7],[21,-33],[22,-14],[3,-11],[47,-18],[25,3],[13,32],[13,-15],[24,31],[33,21],[6,18],[26,8],[27,-4],[23,10],[37,-2]],[[5979,2737],[11,-13],[13,-59],[13,-1],[10,-19],[-20,-59],[24,-18],[11,1],[6,-35],[-15,-22],[4,-25],[-4,-18],[9,-16],[0,-22],[21,-30],[3,-14],[-18,-27],[5,-34],[20,-36],[23,14],[130,42],[10,6],[43,50],[27,16]],[[6305,2418],[22,-35],[13,-48],[-18,-40],[-37,-15],[-3,-21],[-15,-11],[-6,-52],[-12,-28],[14,-27],[10,-76],[2,-40],[-9,-24],[-6,-81],[-9,-37],[-24,-63]],[[6227,1820],[-90,5],[-34,-7],[-32,-14],[-13,-41],[-3,32],[-49,26],[-71,21],[-53,3],[-41,-1],[-60,9],[-70,-5],[-94,-11],[-54,-15],[-57,-4],[-39,-18]],[[6206,1107],[13,5],[3,-21],[-8,-34],[-10,29],[-15,11],[4,26],[13,-16]],[[6199,1266],[19,-27],[-31,16],[12,11]],[[6263,1357],[-10,5],[20,25],[-10,-30]],[[3990,2815],[36,11],[13,88],[45,-3],[32,8],[18,35],[21,-9],[14,4],[32,31],[3,15],[22,12],[37,46],[25,-8],[21,6],[7,18],[3,47],[31,25],[31,0],[20,-11],[31,8],[50,46],[12,-3],[7,27],[18,-20],[23,-4],[14,40],[23,42],[36,-3],[20,11],[16,31],[39,-27],[45,-17],[12,17],[8,32],[47,20],[21,42],[21,10],[11,15],[57,23],[10,11],[42,-9],[30,-38],[21,-7],[25,4],[50,37],[39,23]],[[5129,3441],[37,-38],[10,-38],[-1,-48],[-13,-46],[1,-92],[-11,-76],[-7,-28],[15,-40],[-1,-22],[-11,-25],[-20,-24],[-18,-36]],[[3888,2842],[19,39],[-6,24],[9,48],[18,34],[9,35],[-2,21],[12,4],[20,25],[-17,10],[14,24],[13,9],[23,77],[26,-2],[17,48],[9,13],[-12,32],[1,18],[41,28],[36,-11],[43,21],[-2,32],[17,18],[16,39],[31,0],[35,36],[16,33],[35,23],[16,37],[-11,38],[19,12],[27,38],[9,-4],[11,17],[12,1],[25,59],[4,23],[23,4],[10,35],[19,0],[3,49]],[[4476,3829],[16,20],[17,5],[26,-6],[29,1],[37,-26],[18,12],[15,32],[56,15],[8,41],[13,11],[56,1],[12,12],[30,5],[91,-26],[14,1]],[[4914,3927],[31,-63],[6,-55],[15,-63],[26,-17],[2,-31],[26,-33],[24,-48],[51,-47],[2,-34],[13,-13],[21,-50],[-2,-32]],[[2977,2332],[-17,10],[-36,8],[-43,0],[-44,14],[-152,17],[-56,2],[-23,9],[-149,18],[-98,0],[-51,-8]],[[2308,2402],[-3,10],[-47,15],[-8,18],[7,23],[-8,19],[3,30],[-35,60],[-17,9],[3,46],[8,19],[8,53],[-9,32],[12,37],[-12,42],[5,33],[22,37],[-5,53],[4,20],[-7,29],[27,45],[9,30],[15,20],[2,19],[51,26],[15,18],[4,59]],[[2352,3204],[87,-40],[28,-4],[5,14],[26,-3],[9,8],[19,-30],[38,-2],[-6,-26],[31,-13],[32,-7],[11,-32],[-13,-27],[19,-27],[22,-12],[12,-16],[29,-14],[27,-49],[-33,-135],[29,-18],[5,-30],[-13,-3],[7,-64],[150,15],[57,30],[39,-4],[13,-12],[27,-8],[2,23],[19,-14],[11,14],[16,-6],[20,42],[37,-7],[18,-10],[17,8],[31,-7],[17,-21],[48,-19],[33,8],[26,17],[13,24],[43,39]],[[2214,2074],[-25,0],[-1,9],[24,38],[-3,-14],[9,-23],[-4,-10]],[[5979,2737],[8,26],[-13,16],[2,52],[7,31],[9,-11],[15,10],[-1,48],[18,13],[-4,23],[-44,33],[-12,43],[7,20],[-29,55],[7,52],[-15,13],[-19,43],[-1,40],[-8,48],[6,32],[16,20],[9,49],[-18,9],[-5,25],[13,6],[-2,23],[-17,37],[6,25],[-13,7],[6,34],[-13,48],[-21,15],[-10,28],[-37,3],[-6,18],[-16,6],[-22,35],[-3,32],[-18,14],[-19,43],[-60,19],[-11,12],[-8,31],[54,20],[116,37],[15,7],[88,27],[14,52],[23,45],[4,18],[-30,-4],[-7,26],[-52,-10],[-19,21],[-19,-6],[-12,11],[-6,39],[-20,39],[-20,28],[-18,89],[0,56],[12,62],[-9,83],[8,14],[-13,24],[2,73],[-22,63],[-8,1],[-6,76],[-13,-3],[-12,73],[-33,6],[-27,11],[-32,7],[-39,-22],[-47,5],[-21,20],[-2,15]],[[5512,4866],[64,274],[31,87],[5,50],[6,-1],[10,85]],[[5628,5361],[45,24],[25,19],[-7,-38],[-3,-45],[26,-12],[50,-56],[47,-15],[13,56],[-5,11],[10,54],[14,46],[29,46]],[[5872,5451],[10,-22],[41,-19],[16,19],[29,4],[46,18],[28,3],[22,31],[39,-7],[16,-19],[10,-24],[-7,-57]],[[6122,5378],[27,-42],[17,-43],[2,-90],[-6,-43]],[[6162,5160],[-16,-47],[6,-50],[-6,-63],[2,-58],[8,-4],[16,-61]],[[6172,4877],[1,-94],[-29,-34],[-18,-39],[-1,-32],[17,-29],[0,-17],[12,-23],[5,-47],[18,-29],[-1,-14]],[[6176,4519],[-1,-28],[9,-17],[-7,-36],[7,-61],[22,-60],[34,-53],[15,-18],[32,-17],[33,-2],[24,-18],[16,-71],[-6,-24],[-28,-28],[23,-114],[5,-9],[34,-17],[11,-51],[-9,-10],[-17,-38],[-14,-15],[-17,-33],[2,-47],[9,-31],[18,-21],[-8,-29],[-24,-16],[1,-33],[9,-12],[38,-20],[-10,-59],[-31,-43],[1,-83],[-8,-80],[1,-40],[8,-16],[51,-45],[48,-37]],[[6447,3187],[-29,-49],[-24,-21],[-26,-3],[-11,-17],[-46,-49],[8,-47],[-17,-84],[0,-35],[10,-15],[5,-26],[-5,-40],[-18,-44],[-17,-25],[-2,-44],[-18,-9],[-17,-52],[-2,-19],[15,-62],[-1,-31],[-8,-11],[6,-28],[27,3],[22,-9],[-1,-35],[7,-17]],[[2352,3204],[18,33],[24,78],[14,19],[12,42],[-84,70],[57,117],[16,-7],[-2,-11],[31,-13],[35,-3],[5,33],[20,61]],[[2498,3623],[41,-62],[66,-6],[27,-24],[56,-21],[22,-16],[12,25],[24,31],[23,52],[20,-33],[34,10],[5,28],[27,-8],[24,4]],[[2879,3603],[81,-50],[34,-1],[24,-16],[23,-27],[-17,-25],[-2,-21],[12,-18],[-13,-34],[36,-36],[-3,-19],[10,-8],[19,-48],[22,-5],[7,-16],[-5,-29],[20,-18],[25,-5],[-7,-29],[22,-16],[-8,-19],[3,-19],[37,-43],[23,-9],[-6,-17],[28,-25],[-9,-27],[37,-45],[23,-63],[1,-28],[-12,-11],[19,-10],[19,3]],[[2879,3603],[30,-2],[26,-22],[12,4],[36,49],[6,31]],[[2989,3663],[33,-24],[38,-21],[14,-32],[22,-61],[15,-19],[61,-59],[14,-20],[7,-24],[22,-14],[47,-21],[1,-28],[24,-29],[16,28],[19,-9],[7,15],[22,5],[19,65],[21,-2],[20,16],[41,-39],[-5,-13],[20,-12],[2,-13],[35,-9]],[[3504,3343],[-14,-18],[-4,-48],[-9,-22],[-6,-52],[5,-3]],[[1698,4571],[23,-6],[17,-15],[-8,-35],[4,-15],[32,3],[13,8],[18,-8],[26,9],[22,-30],[21,1],[8,-12]],[[1874,4471],[0,-16],[23,-25],[-47,-68],[29,-20],[1,-24],[30,-19],[10,-18],[-6,-17],[5,-53],[6,0],[15,-53],[-1,-31],[14,6],[26,-13],[62,-59],[33,-59],[29,-24],[-23,-82],[1,-44],[10,-33],[20,-40]],[[2111,3779],[-176,-382],[-2,-39],[-32,-71],[-31,24],[-194,-424],[-24,-55],[-70,-13],[-70,3],[-86,-1],[-20,8],[-45,-6],[-36,5]],[[1325,2828],[15,21],[98,161],[2,24],[-8,78],[-7,27],[-16,25],[-21,53],[18,35],[10,84],[-2,34],[-17,38],[2,38],[-33,152],[-27,57],[-21,31],[-33,57],[-22,59],[-29,11],[-23,-7],[-9,42],[33,3],[11,23],[-4,36],[6,49],[51,28],[-4,42],[-21,30],[-8,24],[23,14],[-22,34],[19,51],[-2,45],[-14,30],[-30,13],[1,16],[41,9],[14,15],[9,28],[-1,42],[8,30],[-2,44],[-14,24]],[[1296,4478],[37,-13],[24,1],[42,24],[31,28],[20,1],[0,-52],[10,-12],[28,7],[39,53],[44,45],[10,29],[11,4],[31,31],[33,2],[42,-55]],[[2308,2402],[-94,21],[-94,16],[-24,6],[-48,-30],[2,-130],[101,-2],[-2,-330],[-110,1],[2,277],[-70,0],[2,237],[-8,-3],[-134,1],[-4,-56],[-22,0],[0,-20],[11,-5],[0,-28],[-30,-1],[0,-34],[-6,-7],[23,-29],[20,23],[35,-45],[-19,-28],[52,-69],[25,-37],[15,-69],[-3,-2],[-15,69],[-165,214],[1,81],[-5,11],[0,63],[-28,15],[-13,-1],[-32,16],[-47,10],[-19,0],[-7,-12],[-37,17],[-116,15],[-23,-11],[-46,1],[-42,-10]],[[1334,2537],[-3,21],[-23,14],[2,169],[15,87]],[[2111,3779],[43,-29],[98,3],[38,4],[2,-12],[14,12],[37,70],[117,-153],[38,-51]],[[4914,3927],[36,27],[38,13],[53,27],[30,24],[15,31],[-5,25],[-22,46],[15,23],[11,48],[7,60],[-14,44],[0,19],[20,65],[16,28],[-19,16],[9,20],[38,17],[19,15],[32,60],[18,24],[42,29],[103,114],[70,62],[25,72],[-3,24],[22,22],[42,-16]],[[1273,4490],[-20,-42],[-65,-29],[-16,-11],[-9,-20],[-3,-28],[-36,-40],[-23,-11],[-58,-37],[-21,-25],[-27,-12],[-39,1],[-35,-7],[-27,-30],[-4,-27],[-24,-16],[-9,-21],[-9,-109],[-37,-30],[-5,-18],[13,-31],[49,-71],[7,-24],[10,-90],[17,-26],[-3,-27],[-16,-21],[13,-33],[-4,-20],[-20,-20],[-55,-80],[-33,-33],[-26,-13],[3,-34],[-37,-27]],[[724,3428],[-34,-24],[-30,12],[-21,-26],[-16,-40],[-3,-28],[6,-19],[-25,-16],[-29,-11],[-42,-30],[3,-33],[-3,-29],[4,-44],[-9,-10],[29,-59],[-66,-56],[-371,-206],[-117,-44]],[[0,2765],[9,16],[-4,18],[7,20],[26,28],[-4,19],[-15,-5],[1,28],[15,-4],[-2,22],[12,10],[-3,21],[23,16],[6,28],[-9,26],[12,24],[12,-3],[2,35],[13,-2],[-1,17],[22,17],[-6,35],[-16,43],[-2,27],[-18,23],[2,21],[-8,26],[15,28],[14,-3],[28,27],[-2,13],[44,11],[10,16],[16,-7],[2,17],[27,32],[0,24],[-9,26],[7,35],[16,11],[31,66],[-1,13],[11,40],[-7,12],[12,8],[-3,31],[20,25],[21,6],[-1,27],[27,46],[14,6],[-13,38],[-14,0],[-6,16],[0,32],[-12,20],[7,41],[-9,33],[4,29],[21,9],[9,27],[-9,80],[-6,87],[32,103],[2,31],[15,13],[0,30],[28,29],[30,9],[35,20],[11,14],[11,-13],[30,13],[7,30],[10,17],[12,59],[22,11],[31,42],[22,3],[13,-17],[23,17],[36,-9],[49,30],[17,19]],[[774,4644],[13,-3],[28,37],[27,6],[25,-5],[37,4],[29,19],[14,17],[21,-11],[17,6],[39,-56],[54,-35],[8,-20],[15,3],[6,-14],[37,-25],[21,-5],[12,-17],[30,-6],[35,-31],[31,-18]],[[724,3428],[8,-51],[7,-25],[31,-72],[12,-58],[-37,-24],[20,-48],[-7,-253],[21,-37],[0,-19],[24,-29],[-1,-33],[9,-33],[22,-22],[4,-15],[19,-16],[18,-4],[7,-16],[-7,-46],[15,-37],[5,-34],[13,-27],[31,-51]],[[938,2478],[-32,-46],[-50,-18],[-34,3],[-63,-11],[-28,-18],[-15,-21],[-3,-21],[-13,0],[-74,-26],[-112,-13],[-56,-9],[-55,-14],[-31,-5],[-64,-15],[-29,-3],[-114,-30],[-56,-26],[-17,-3],[11,33],[-15,27],[14,15],[-16,32],[13,20],[-8,13],[-9,37],[-13,1],[0,28],[-12,-2],[3,35],[7,-1],[28,61],[-27,57],[5,16],[-4,27],[-13,11],[4,28],[-18,8],[-11,68],[-31,35],[0,14]],[[1334,2537],[-42,-19],[-10,-22],[-51,-7],[-74,9],[-16,-2],[-86,1],[-91,-10],[-26,-9]],[[1273,4490],[23,-12]],[[7102,5027],[9,-35],[31,-14],[12,-52],[12,-18],[1,-28],[21,2],[20,-7],[16,9],[48,8],[12,13],[26,4],[20,-9],[12,-27],[20,-8],[20,16],[17,-7],[7,10],[19,-13],[21,-1],[11,32],[21,-1],[30,8],[37,-25],[12,-1],[11,-25],[-3,-13],[24,-35],[6,-23],[22,-1],[1,19],[20,15],[25,3],[-3,14],[72,4],[59,-2],[8,9],[42,2],[67,-20]],[[7908,4830],[19,-2],[-1,-15],[-46,-17],[-13,-33],[32,-12],[-24,-32],[21,-9],[-35,-23],[15,-20],[-12,-11],[-1,-25],[9,-11],[-16,-10],[15,-19],[2,-26],[24,-18],[-25,-32],[12,-42],[10,-1],[0,-24],[-22,23],[-9,-12],[21,-39],[3,-35],[23,-11],[7,-21],[10,10],[-1,23],[19,-6],[39,5],[12,-14],[29,-13],[5,-21],[38,-7],[9,-33],[29,22],[-6,12],[25,-4],[5,-8],[43,17],[25,-13],[27,-3],[7,11],[20,-17],[10,-31],[-2,-27]],[[8260,4256],[-9,-86],[13,-12],[-13,-8],[-6,-22],[4,-38],[14,-11],[-15,-14],[2,-21],[-6,-54],[-33,-3],[-6,-18],[14,-51],[15,-23],[22,-6],[25,9],[5,-16],[-17,-28],[-36,-29],[-33,-57],[-45,-105],[5,-45],[24,-25],[23,0],[113,40],[20,0],[21,-20],[8,-23],[-1,-23],[-23,-61]],[[8345,3506],[-10,-22],[-42,-36],[-17,-21],[-7,-26],[12,-27],[20,-3],[33,10],[24,1],[53,-10],[20,-25],[-2,-28],[-9,-10],[-61,-30],[-40,-24],[-50,7],[-14,-7],[-9,-33]],[[8246,3222],[-24,11],[-11,-11],[0,-39],[-16,-13],[-27,23],[-35,-16],[-17,15],[-11,23],[-41,-14],[-14,12],[-11,30]],[[8039,3243],[22,64],[-72,52],[-29,36],[11,16],[-13,24],[-18,12],[12,48],[-4,14],[20,39],[-14,61],[20,21],[-30,41],[-28,3],[-7,25],[-14,10],[-10,34],[-29,66],[-68,12],[23,57],[-67,39],[-63,63],[25,22],[-41,33],[-39,47],[-9,17],[7,12],[-10,17],[-39,47],[-117,118],[-38,44],[-18,13],[-25,69],[-63,23],[-51,43],[-92,53],[-37,9],[-53,51],[-63,23],[-63,34],[-25,20],[-35,17],[-30,46],[-6,24],[-13,22],[-48,40],[-27,32],[-48,18],[-21,16]],[[6702,4890],[4,106],[-12,58],[43,-3],[39,-10],[29,8],[17,-12],[22,5],[30,-19],[23,12],[31,3],[52,-78],[19,-21],[14,19],[20,9],[19,39],[26,24],[24,-3]],[[6162,5160],[29,-24],[16,6],[42,-3],[23,-15],[20,-39],[36,-17],[6,-39],[11,-15],[32,-11],[31,17],[64,-26],[48,-33],[107,-52],[24,5],[26,-4],[25,-20]],[[8039,3243],[-13,22],[-42,38],[-23,-15],[-19,2],[-13,11],[-4,24],[15,14],[-7,14],[-52,-19],[-20,17],[5,25],[-21,-5],[-6,17],[-19,0],[5,19],[-28,-12],[-16,11],[-2,23],[-12,19],[-18,1],[-59,17],[-28,3],[-20,14],[-48,-10],[-23,32],[-41,3],[-9,18],[-38,-10]],[[7483,3516],[-15,23],[8,6],[-17,59],[-7,40],[-26,30],[-29,9],[-24,24],[-6,23],[-45,8],[-29,-9],[-23,29],[-61,16],[-6,36],[7,16],[-20,50],[-14,11],[-2,23],[-26,11],[-16,17],[-23,9],[-37,-3],[0,11],[-23,12],[-25,-2],[-20,-23],[-25,-3],[-7,21],[-10,1],[-26,25],[-5,26],[-19,29],[-6,27],[8,11],[-24,14],[-16,26],[-15,-7],[-18,31],[-3,21],[12,50],[-5,30],[-32,49],[-16,32],[-1,68],[-154,217],[-30,34],[-23,-39],[-23,29],[-24,14],[3,27],[-16,21],[0,18],[-16,2],[-20,30],[-2,26],[-22,18],[-14,-3],[-14,16],[-49,12],[-36,-23],[-2,11],[-37,6],[-14,13],[-10,-5],[-36,22],[-16,2],[-21,20],[-21,1],[-6,16],[-21,-1]],[[7156,3382],[23,-50],[26,-39],[30,-24],[6,-20],[19,-25],[16,-33],[25,-11],[20,66]],[[7321,3246],[34,-28],[23,-73],[-2,-41],[15,-30],[18,-24],[42,-26],[3,-28],[13,-14],[5,-48],[-6,-8],[24,-26],[51,31],[27,5],[66,-5],[68,-1],[108,-64],[13,1],[29,-20],[41,-17],[46,-37],[20,-39],[11,-8],[-18,-69],[-10,-7]],[[7942,2670],[-36,-17],[-15,9],[-83,32],[3,10],[-106,-11],[-48,-8],[-104,43],[-7,-33],[-28,-27],[-8,-20],[-17,7],[-24,-10],[-7,-32],[-17,-12],[-35,-37],[3,-20],[-41,-26],[-42,-54],[-48,35],[-62,18],[4,12],[-26,11],[-24,-7]],[[7174,2533],[-35,29],[-10,17],[-3,36],[-19,10],[11,47],[-16,36],[-35,-13],[-25,17],[-27,32],[0,24],[-31,17],[-33,4],[-9,23],[-12,-42],[-29,-19],[-56,43],[-30,-27],[-8,30],[-11,8],[6,29]],[[6802,2834],[22,50],[12,18],[32,14],[13,19],[59,34],[12,22],[9,-10],[21,12],[11,20],[16,-5],[16,51],[14,4],[7,23],[-12,34],[-16,12],[16,28],[11,35],[-5,26],[33,16],[2,42],[10,13],[-9,34],[21,37],[37,17],[22,2]],[[8246,3222],[50,-47],[35,-39],[32,-25],[19,1],[35,36],[23,11],[25,-10],[11,-15],[7,-37],[-8,-63],[0,-61],[-7,-74],[-39,-61],[-10,-10],[-15,11],[9,20],[-26,-13],[16,-46]],[[8403,2800],[-53,-8],[-30,-15],[-21,2],[5,-18],[-41,-24],[-72,-55],[-25,-25],[-50,-30],[-9,-26],[-34,-42]],[[8073,2559],[-72,65],[-9,19],[-48,20],[-2,7]],[[7321,3246],[24,42],[34,78],[34,18],[12,17],[-19,28],[-38,37],[92,53],[23,-3]],[[8073,2559],[-20,-74],[-35,-45],[-37,1],[-8,-30],[21,-8],[5,-19],[-15,-11],[7,-22],[-33,-24],[-16,-36],[-11,0],[-30,-70],[-29,-90],[-38,-30],[-9,-26],[-32,-15],[-2,-24],[11,-14],[21,1],[0,-27],[-11,-7],[-54,22],[-19,0],[-11,-13],[-20,10],[-26,-5],[-21,10],[-55,41],[-62,27],[-78,28],[-108,31],[-73,13],[-91,8]],[[7194,2161],[0,20],[46,-7],[41,-11],[15,37],[-19,1],[-18,14],[12,38],[23,8],[18,-7],[-13,17],[17,21],[16,-35],[11,15],[-9,24],[7,19],[5,-23],[16,16],[6,22],[14,5],[-14,32],[-12,12],[-56,7],[-15,-13],[-46,-5],[-7,-15],[-19,3],[-17,-27],[-36,14],[-19,48],[30,61],[16,53],[-13,28]],[[8459,819],[-26,-4],[-11,35],[12,45],[16,19],[21,4],[12,-17],[4,-36],[-9,-32],[-19,-14]],[[8369,1283],[-30,-16],[-24,23],[3,38],[20,31],[19,18],[9,27],[14,-7],[5,-58],[-16,-56]],[[8351,1457],[-34,-14],[-10,4],[-14,36],[-15,16],[-2,17],[10,28],[23,16],[4,24],[-6,31],[23,14],[14,-32],[25,-23],[19,-49],[-9,-7],[-1,-48],[-27,-13]],[[6447,3187],[36,-41],[11,-37],[33,-28],[-7,-41],[15,-36],[0,-34],[9,-28],[17,-15],[14,2],[71,81],[36,-104],[21,-37],[5,-19],[43,-11],[51,-5]],[[7194,2161],[-8,-17],[-88,4],[-34,-2],[-64,-9],[-60,-20],[-53,-32],[-27,-25],[-16,-35],[18,-42],[-2,-20],[-15,-36],[-5,-40],[27,-35],[-7,-32],[-8,6],[-43,-13],[-15,-37],[-10,3],[-29,-21],[-53,19],[-55,9],[-221,26],[-109,5],[-61,-1],[-29,4]],[[6902,641],[-25,57],[20,14],[21,-38],[-6,-26],[-10,-7]],[[7102,5027],[2,12],[-18,34],[-14,16],[6,17],[-1,101],[10,65],[76,79],[25,13],[32,26],[34,73],[44,70],[5,67],[-15,35],[5,22],[-25,-9],[-22,26]],[[7246,5674],[0,40],[-13,-7],[-11,49],[9,44],[-3,30],[-9,21],[-14,-4],[-6,25],[-13,4],[-14,19],[-27,53],[18,-1],[11,18],[-2,20],[-17,17],[-25,-1],[-5,26],[6,9],[-9,19],[18,5],[-12,20],[0,31],[-13,9],[4,37],[-16,13],[-7,23],[-17,6],[6,41],[-11,16]],[[7074,6256],[10,32],[-2,16],[20,6],[3,11],[42,1],[-4,25],[-9,-8],[-19,30],[14,28],[-12,0],[-8,52],[-29,-7],[-16,23],[8,14],[17,4],[-9,12],[-2,23],[-13,10],[-2,-17],[-21,10],[-19,19],[-1,13],[-33,7],[9,41],[-11,8],[4,25],[-6,26],[7,29],[-19,-1],[-8,15],[31,65],[-13,9],[4,38],[-11,51],[-28,-3],[0,-11],[-18,20],[-4,27],[-17,39],[-25,12],[-15,35],[6,40],[-13,10],[1,31],[-13,14],[-3,31],[28,8],[1,25],[-10,10],[32,7]],[[6898,7161],[95,23],[5,-6],[38,-2],[32,-31],[33,-15],[20,0],[117,33],[93,20],[78,22],[5,-32],[-9,-36],[9,-97],[10,-7],[14,-38],[18,-24],[-6,-39],[35,-47],[11,-46],[-13,-30],[-1,-31],[-13,-25],[-4,-49],[-12,-14],[-1,-38],[13,-21],[-13,-37],[-19,-16],[1,-22],[-36,-29],[9,-23],[-13,-17],[4,-31],[-28,-24],[11,-19],[-14,-11],[2,-26],[19,2],[-11,-16],[-12,-56],[16,-2],[-5,-23],[14,-20],[-16,-13],[1,-18],[-16,-6],[22,-25],[-7,-28],[17,5],[22,-59],[1,-18],[16,1],[11,-37],[19,-15],[9,-35],[32,-41],[-14,-16],[0,-15],[13,-1],[4,-51],[21,-10],[-10,17],[23,-10],[-7,-20],[12,-9],[23,-36],[3,-32],[12,0],[14,17],[23,-16],[18,-27],[11,-5],[-1,-26],[13,4],[13,-18],[3,-27],[11,-9],[5,14],[22,-4],[8,-33],[7,5],[10,-29],[14,8],[20,-10],[23,5]],[[7795,5638],[9,-26],[-13,-12],[8,-16],[-17,-17],[23,-22],[-16,-41],[19,-14],[-6,-21],[-14,-11],[-5,-26],[13,-26],[8,3],[11,-30],[2,-35],[19,-17],[-9,-56],[7,-19],[15,5],[2,-37],[25,-22],[6,-29],[-8,-19],[20,6],[8,-25],[26,-20],[-23,-4],[16,-35],[-1,-35],[9,-27],[13,-5],[-7,-52],[28,-2],[7,-33],[-25,-38],[-9,18],[-16,-2],[-6,-19],[7,-26],[-13,-21]],[[7795,5638],[-21,31],[1,55],[15,17],[9,29],[18,23],[16,-3],[35,23],[20,-10],[9,-19],[-6,-21],[23,-19],[56,-19],[13,5],[53,-37],[0,55],[6,93],[5,41],[22,3],[28,39],[17,-10],[37,27],[51,-24],[21,0],[22,20],[26,1],[1,-22],[24,-17],[10,-52],[9,-15],[17,-6],[17,-19],[-8,-26],[35,-35],[5,-23],[22,-55],[44,-45],[30,-45],[10,-52],[42,-37]],[[8529,5489],[-9,-33],[-20,-52]],[[8500,5404],[-41,-63],[-26,-9],[30,-27],[-29,-84],[-12,-8],[-10,-40],[-1,-71],[-6,-34],[-2,-63],[-11,-13],[49,-37],[-6,-39],[10,-20],[-8,-15],[14,-30],[-26,-18],[-14,-26],[-6,-38],[-2,-82],[-26,-31],[-25,-13],[-9,-21],[-1,-38],[15,-22],[-1,-48],[-9,-83],[-18,-22],[9,-91],[18,-80],[-1,-32],[-24,-28],[-5,15],[-9,-30],[-12,4],[-7,42],[-23,-8],[-15,55]],[[8500,5404],[19,-14],[8,7],[27,-27],[-10,-69],[-12,-52],[19,-31],[26,-24],[35,-102],[24,-64],[20,-45],[65,-2],[-11,49],[-14,44],[28,-9],[38,-37],[5,-15],[27,-2],[23,14],[19,-38],[5,-34],[12,1],[11,-16],[-4,-30],[-12,-29],[33,3],[-5,36],[15,-13],[2,16],[19,3],[-2,15],[9,40],[7,8],[-1,38],[44,-1],[-4,13],[21,20],[6,36],[-8,15],[-15,-1],[1,26],[-10,7],[3,17],[17,2],[0,21],[24,18],[-1,25],[20,16],[-5,29],[17,7],[-7,35],[4,16],[23,0],[13,13],[5,-22],[20,13],[8,-8],[16,15],[0,26],[15,12],[34,3],[61,51],[79,41],[98,80],[64,46]],[[9468,5596],[10,-40],[25,-64],[11,-4],[9,-30],[-28,-67],[-16,-27],[-13,-36],[-22,-48],[-2,-38],[-16,-75],[-46,-35],[-11,-3],[-25,-45],[-16,-21],[-13,-51],[-18,-26],[-23,-3],[-45,-76],[1,-8],[-27,-10],[-3,-12],[11,-31],[-7,-28],[18,-6],[5,-13],[-8,-20],[24,-14],[5,-52],[5,-8],[-20,-42],[-19,-17],[14,-57],[11,-15],[-4,-33],[3,-23],[-42,-104],[-46,-76],[-7,-26],[6,-23],[5,-54],[-66,-26]],[[9088,4209],[-408,-157],[1,-15],[-29,-56],[-51,-156],[23,-23],[-6,-26],[-18,-34],[6,-23],[-42,-60],[-28,-90],[1,-16],[-16,-15],[28,-71],[-22,-33]],[[8527,3434],[-47,46],[-11,-17],[-9,16],[-13,-10],[-31,27],[-17,-16],[-16,22],[-10,-9],[-28,13]],[[9468,5596],[22,19],[30,15],[59,9],[9,10],[26,6],[15,24],[66,-25],[24,16],[7,19],[23,27]],[[9749,5716],[24,11],[10,18],[1,32],[8,34],[-10,27],[11,36],[-5,55],[25,36],[26,-4],[8,-15],[-1,-49],[11,-28],[-7,-25],[-13,-3],[6,-17],[-12,-5],[6,-24],[0,-31],[8,-51],[9,-23],[12,-57],[-1,-18],[-15,-14],[1,-18],[-9,-22],[-9,10],[-12,-41],[15,-19],[10,-39],[11,-4],[4,-36],[13,-26],[47,-64],[12,-47],[0,-19],[18,-17],[3,-20],[-12,-20],[14,-20],[-9,-9],[11,-21],[-11,-6],[-6,-42],[10,-18],[-15,-7],[-14,-40],[13,-18],[16,10],[0,-32],[21,-4],[1,-45],[-14,-12],[14,-23],[1,-25],[-11,-7],[21,-23],[-16,0],[-9,-15],[4,-29],[13,-8],[0,-16],[13,5],[10,-19],[-21,-9],[1,-20],[-14,-6],[-7,-20],[15,-3],[-7,-14],[5,-19],[-16,-30],[15,-9],[-12,-18],[8,-21],[-14,7],[8,-61],[-14,4],[1,-29],[-21,3],[-1,-38],[-18,2],[-3,-16],[-16,-14],[-11,-30],[17,-24],[-35,-20],[-4,19],[-13,-2],[10,-23],[3,-32],[26,-36],[-1,-40],[15,-22],[-30,-61],[-4,-27],[14,-14],[-11,-16],[20,-31],[-13,-55],[-20,6],[-6,-14],[5,-29],[-10,-16],[2,-56],[-9,-56],[38,-34],[-29,-50],[-5,-39],[0,-36],[23,-25],[2,-18],[-56,-46],[-35,-10],[-11,18],[5,47],[-7,14],[-28,14],[-23,-1],[-15,-16],[-8,-43],[-36,-16],[-24,-24],[-5,-46]],[[9619,3594],[-20,6],[-10,17],[-36,21],[12,18],[-26,27],[-16,27],[-111,-37],[-16,37],[-55,68],[7,14],[-12,8],[-27,2],[-20,-8],[-17,9],[-18,25],[-16,6],[-19,21]],[[9219,3855],[-10,63],[-12,10],[-4,27],[-24,26],[-1,22],[-10,2],[-24,56],[-13,14],[-33,134]],[[9219,3855],[-16,-24],[9,-23],[-19,-33],[-21,14],[-19,-24],[-39,-15],[-22,-21],[-13,-27],[3,-16],[-8,-73],[-50,-39],[-9,-44],[17,-7],[-8,-23],[-15,-11],[-26,-53],[7,-30],[-5,-7],[68,-81],[-31,-35],[-23,-59],[-7,-44],[7,-6],[-25,-31],[1,-27],[-15,-30],[20,-30],[5,-20],[-7,-54]],[[8978,2982],[-68,-4],[-81,-16],[-20,5],[-83,-13]],[[8726,2954],[-24,37],[-12,-28],[-28,-19],[-7,5],[4,26],[-23,28],[21,20],[-1,19],[13,21],[27,28],[12,31],[14,3],[0,26],[14,1],[-6,25],[8,13],[58,14],[19,-8],[16,-20],[33,-1],[11,19],[-16,34],[9,22],[-9,18],[-1,31],[-12,22],[6,30],[-17,15],[-15,32],[1,39],[-35,-35],[-36,-18],[-25,-7],[-14,-39],[-41,-1],[-15,41],[-24,-14],[-28,14],[0,18],[-20,15],[-17,-2],[-39,25]],[[9619,3594],[48,-73],[-4,-36],[-9,-16],[-31,-24],[-30,1],[-19,-6],[-5,-13],[5,-23],[35,-26],[14,-26],[0,-32],[5,-68],[-5,-31],[-20,-38],[-51,-68],[-43,-41],[-45,-28],[-7,-35],[21,-57],[30,-31],[13,-36],[-10,-32],[-45,-44],[-19,-41],[-29,6],[-43,20],[-53,37],[-44,50],[0,16],[-30,28],[-23,-6],[-21,8],[-30,38],[-92,16],[-39,17],[-24,-2],[-41,-16]],[[8726,2954],[-29,-14],[-49,-31],[-8,-12],[-42,-20],[-57,-12],[-36,-16],[7,-22],[32,-22],[-35,7],[-9,36],[-31,-22],[-3,-17],[-63,-9]],[[7156,3382],[10,6],[-23,51],[-13,18],[-37,33],[-32,44],[-54,36],[-23,52],[-3,27],[-15,29],[-8,35],[-22,77],[-51,57],[-51,52],[-51,30],[-14,-24],[-24,2],[-35,32],[-4,50],[-9,19],[-2,32],[-9,17],[1,20],[11,30],[-33,31],[-95,-34],[-8,49],[-38,34],[-2,21],[17,10],[0,92],[-9,22],[-1,31],[-29,39],[-43,-27],[-35,13],[-22,33],[-47,5],[-11,16],[-4,27],[-15,13],[-15,-3],[-16,13],[-37,8],[-26,22],[-53,-3]],[[6122,5378],[33,31],[35,7],[17,19],[20,6],[10,25],[19,-4],[1,26],[17,-1],[30,27],[33,9],[11,33],[23,23],[52,30],[23,30],[3,13],[20,10],[40,-2],[3,20],[23,12],[26,-14],[-13,64],[31,-10],[35,15],[7,-24],[27,-8],[35,-29],[14,-5],[25,5],[15,-6],[27,-34],[5,-25],[-6,-11],[2,-28],[22,-13],[14,12],[3,30],[28,59],[22,77],[15,68],[33,-26],[27,13],[31,-5],[43,-32],[15,-3],[33,-25],[56,-6],[17,-18],[33,-23],[23,4],[14,-15],[33,4],[19,-9]],[[7074,6256],[-20,49],[-12,9],[-1,-33],[-15,-15],[-45,49],[-100,104],[-32,19],[-56,18],[-3,-45],[-7,-20],[-42,23],[-22,4],[-12,61],[-13,18],[1,27],[-8,13],[-35,9],[-54,3],[-30,-10],[-25,6],[-8,-16],[-19,-6],[-3,-23],[-29,-17],[-7,-13],[1,-41],[-55,11],[-7,-5],[-26,-46],[-4,-18],[-43,0],[-7,-16],[2,-49],[-16,-8],[-20,49],[-26,-19],[-8,14],[-21,-13],[-7,7],[-29,-22],[2,-30],[15,-22],[6,3],[21,-46],[-3,-15],[-22,-18],[-11,-33],[-15,11],[-22,-6],[-25,-27],[-14,-26],[-2,-26],[-31,-4],[-11,-32],[15,-44],[-4,-30],[11,-39],[37,-36],[-16,-12],[-20,15],[-21,-15],[-16,8],[-1,-27],[-16,1],[-18,-14],[-13,3],[-2,-55],[-23,-9],[-5,-14],[-25,-17],[-25,-39]],[[5957,5719],[-21,-33],[-31,0],[-19,-7],[-38,19],[-20,-3],[-37,11],[-18,22],[-27,-8],[-10,-17],[-25,-9],[-23,20],[-20,4],[-24,53],[-16,18],[-34,5],[-63,45],[-24,6],[-26,24],[-10,47]],[[5471,5916],[3,73],[32,31],[18,10],[1,12],[52,77],[3,18],[44,11],[-3,19],[47,25],[14,-19],[23,8],[4,17],[26,12],[11,34],[19,15],[31,12],[-6,12],[17,6],[10,19],[28,4],[27,20],[13,-12],[13,53],[35,41],[-4,18],[20,12],[2,20],[13,-4],[24,21],[12,26],[-15,19],[-38,18],[-20,-8],[-20,13],[-10,-6],[-29,10],[-14,-7],[-28,36],[0,15],[-16,-2],[-12,14],[-15,-14],[-21,12],[-38,10],[-2,9]],[[5722,6626],[11,22],[5,74],[21,55],[-5,29],[-20,23],[-10,31],[28,3],[84,23],[18,27],[44,53],[36,-5],[41,-51],[14,-5],[22,-33],[19,40],[46,47],[-20,33],[-27,58],[-24,77],[12,49],[18,19],[29,12],[22,24],[29,-9],[18,-18],[33,3],[25,10],[-1,40],[10,8],[60,-11],[16,-13],[25,1],[22,-34],[11,-32],[-1,-17],[29,-8],[22,32],[-1,14],[22,25],[-5,49],[14,51],[-7,19],[-1,37],[-9,35],[60,16],[18,16],[39,9],[18,38],[17,6],[0,16],[-18,16],[5,31],[19,28],[10,2],[31,24],[24,5],[43,37],[15,-1],[11,22],[44,6],[8,-24],[36,3],[5,-7],[18,17],[20,-12],[-3,35],[19,-5],[10,16],[-9,6],[1,24],[-20,3],[3,25],[-15,15],[17,5],[3,29],[-28,-1],[1,16],[-18,-7],[-2,25],[-12,19],[-5,53],[-10,8],[15,25],[-14,29],[9,19],[-20,17],[-13,-17],[-18,3],[-9,29],[22,36],[14,-4],[5,18],[7,-18],[19,12],[-9,57],[-14,-11],[-22,-2],[-4,38],[-30,0],[-11,45],[-13,-5],[-8,15],[9,24],[-2,18],[11,44],[-3,23],[11,-4],[13,23],[-9,27],[-12,7],[15,55],[-15,-9],[-18,24],[15,-3],[-3,19],[-12,-5],[-6,19],[-12,2],[7,57],[-13,17],[6,26],[-11,7]],[[6629,8584],[17,9],[20,-2],[7,14],[27,4],[27,14],[39,42],[13,-5],[36,37],[47,60],[12,22],[15,60],[26,-1],[25,-22],[20,6],[9,49],[-6,39],[4,11],[36,32],[1,14],[-16,68],[12,28],[4,31],[0,43],[7,28]],[[7011,9165],[15,-15],[3,-24],[10,-11],[3,-76],[16,-54],[21,-20],[44,-29],[29,6],[16,-20],[8,-24],[-6,-49],[-12,-44],[9,-12],[0,-29],[-13,-18],[8,-23],[-13,-31],[3,-23],[-8,-48],[3,-30],[-10,-6],[-4,-29],[-14,-21],[-38,-4],[8,-16],[-7,-12],[1,-39],[-12,-26],[25,-17],[33,1],[2,-16],[17,-31],[3,-18],[15,-4],[13,-18],[22,-3],[25,25],[18,7],[18,-8],[-12,-42],[13,-11],[-1,-22],[12,-1],[3,-30],[-7,-22],[20,-50],[-11,-15],[4,-34],[-6,-25],[-12,-9],[-2,-17],[34,-28],[3,-43],[-15,-24],[-3,-25],[5,-24],[-35,-58],[-18,-13],[-9,6],[-5,-31],[-11,-2],[2,-53],[-27,-22],[6,-29],[-12,-16],[2,-28],[-17,-43]],[[7163,7645],[-52,6],[-53,-7],[2,-23],[-6,-57],[11,-6],[27,-45],[-14,-20],[3,-21],[-30,-58],[-33,-2],[-19,-15],[6,-14],[-18,-5],[-16,24],[-23,-20],[1,-23],[-9,1],[16,-29],[-24,-29],[-17,-3],[3,-20],[17,-4],[1,-34],[-23,-7],[7,-16],[-5,-34],[-20,5],[3,-28]],[[5722,6626],[-2,26],[-23,3],[2,-18],[-14,-6],[-33,3],[-12,20],[-18,10],[-21,-26],[1,-29],[-15,3],[-5,18],[-25,7],[-21,25],[-8,25],[-14,16],[-24,-7],[-39,23],[-12,-1],[-28,19],[0,13],[-37,-1],[-21,-9],[-7,18],[-25,19],[-9,18],[-30,23],[-21,24],[-7,19],[-18,20],[1,23],[-15,12],[-15,56],[-10,-6],[-35,3],[-40,32],[-26,8]],[[5096,7009],[16,45],[-2,21],[-33,65],[-10,32],[7,21],[6,56],[17,10],[1,14],[-16,18],[-46,23],[-39,46],[-12,66],[12,20],[-13,17],[-11,39],[1,47],[-8,12],[8,38],[-14,28],[-1,23],[-17,51],[-15,21],[-14,46],[-20,18],[-3,33],[-41,30],[-11,18]],[[4838,7867],[19,8],[44,2],[10,7],[16,36],[14,-14],[16,-41],[25,-19],[22,0],[41,33],[55,22],[9,9],[13,65],[15,16],[-8,48],[16,49],[27,7],[35,45],[13,36],[8,8],[27,1],[40,19],[22,38],[6,35],[39,-9],[10,6],[16,-21],[20,-4],[7,11],[17,-15],[6,-30],[21,-5],[13,-31],[26,-27],[14,-47],[15,-4],[14,-41],[11,-1],[4,-22],[17,10],[21,-17],[7,-20],[46,-26],[19,-33],[-9,-4],[25,-19],[9,13],[15,-23],[34,-30],[26,29],[5,31],[-13,14],[8,20],[-34,48],[-64,106],[13,56],[17,50],[24,41],[58,-52],[13,7],[25,-15],[8,25],[20,-17],[41,35],[70,4],[-29,24],[-9,33],[-2,37],[-6,19],[72,-7],[44,0],[92,5],[141,14],[11,18],[-20,11],[-5,27],[7,26],[-17,37],[26,35],[24,-9],[53,51],[0,30],[-13,17],[26,32],[35,-34],[40,-15],[19,-40],[44,6],[20,13],[6,-21],[47,18],[44,-1],[7,-19],[15,7]],[[5872,5451],[17,52],[-5,16],[11,34],[23,7],[4,21],[43,70],[0,32],[-8,36]],[[4058,4369],[-32,-26],[8,-55],[-8,-63],[-24,0],[-13,-56],[-34,7],[-20,-5],[-14,-83],[-21,-41],[-11,-94],[-34,-128],[-2,-29]],[[3853,3796],[-53,8],[8,-14],[-3,-26],[-12,0],[0,-47],[8,-1],[-7,-54],[9,-16],[-24,-29],[-39,-13],[-3,-11],[-20,-1],[1,-12],[-27,-39],[-12,49],[-37,-25],[-12,7]],[[3630,3572],[-7,61],[18,33],[-8,15],[-16,1],[-6,37],[-23,7]],[[3588,3726],[22,100],[23,140],[16,84],[12,75],[-52,5],[0,19],[10,6],[5,67],[33,-9],[0,21],[-10,13],[-8,31],[8,20],[17,2],[1,52],[-7,22]],[[3658,4374],[15,-17],[26,26],[17,-34],[23,-8],[9,12],[27,-19],[34,0],[12,27],[58,9],[31,-12],[14,13],[21,-18],[24,5],[24,24],[17,0],[2,21],[33,-9],[-6,-14],[19,-11]],[[3588,3726],[-2,-6],[-60,18],[-5,-8],[-42,15],[-37,7],[-5,15],[-38,19],[-5,-11],[-27,16],[-10,-14],[-27,0],[-12,13],[6,24],[-29,35],[-4,41],[11,48],[-52,21],[-21,13],[-14,35],[-42,33],[-35,2],[-13,32],[1,34],[-25,8],[8,27],[-59,35],[-14,30],[-23,8],[1,25],[-55,40],[-11,25],[-52,-6],[-44,10]],[[2852,4310],[-11,14],[2,24],[-35,15],[36,94],[-39,62],[8,59],[-24,2],[-26,-8],[-3,17],[-27,5],[-50,24],[-6,-11],[-31,12]],[[2646,4619],[18,46],[-17,11],[24,49],[-24,12],[1,25],[9,16],[5,45],[17,66],[7,5],[50,124],[109,259],[-60,17],[44,98]],[[2829,5392],[99,234],[54,-36],[6,11],[30,-30],[-4,-20],[19,-24],[53,-13],[10,-18],[9,13],[48,-9],[19,-44],[44,-5],[7,-8],[32,0],[51,-7],[4,25],[19,1],[12,59],[13,31],[25,21],[12,34],[13,14],[54,-34],[7,8],[26,-12],[22,9],[-5,61],[40,22],[12,-7],[24,33],[20,48],[-23,19],[22,60],[23,-14],[18,27],[4,40],[26,9],[1,11],[19,6]],[[3694,5907],[13,-17],[22,-14],[7,-17],[-25,-12],[2,-14],[-14,-6],[-12,-57],[-14,0],[2,-30],[29,-27],[14,-58],[22,-23],[-2,-44],[-9,-12],[14,-24],[-8,-11],[-3,-34],[-13,-19],[11,-10],[9,-28],[20,-6],[-7,-37],[28,-30],[5,-19],[-14,-35],[0,-41],[-21,-5],[-9,-28],[6,-17],[-12,-32],[7,-28],[-13,-33],[12,-25],[2,-32],[14,-35],[0,-114],[-4,-12]],[[3753,4921],[-6,-17],[6,-33],[-21,-29],[0,-24],[-20,-5],[10,-29],[-19,-41],[-16,-10],[-7,-16],[15,-41],[0,-25],[-18,-12],[5,-39],[-22,-84],[6,-14],[20,-10],[5,-30],[-4,-21],[-15,-24],[-14,-43]],[[2989,3663],[19,44],[-13,34],[-37,26],[11,33],[0,23],[-11,33],[-13,8],[2,36],[7,13],[12,63],[-39,18],[-5,-10],[-22,13],[3,11],[-25,19],[18,35],[-27,37],[-49,1],[13,86],[-4,13],[5,62],[18,49]],[[3630,3572],[-36,-3],[-13,-12],[5,-21],[-4,-30],[17,-40],[-12,-20],[-15,-2],[-7,-26],[-28,2],[-10,-20],[-15,-8],[-8,-49]],[[3853,3796],[124,-31],[-10,-44],[34,0],[32,-6],[38,0],[85,5],[32,0],[30,21],[1,10],[34,7],[12,10],[16,-7],[48,21],[28,-5],[24,7],[1,14],[28,-5],[6,36],[37,-17],[23,17]],[[5628,5361],[-29,-5],[-51,-27],[-25,4],[-36,-26],[-24,9],[-23,-14],[-21,28],[-43,36],[-45,4],[-37,7],[-11,-19],[3,-52],[-9,-22],[20,-61],[19,-39],[-6,-30],[-12,-18],[11,-49],[-6,-25],[-20,-50],[9,-16],[-8,-40],[9,-25],[16,-14],[11,-32],[-4,-10],[30,-32],[3,-15],[-8,-23],[-58,25],[-22,26],[-42,4],[1,-44],[-21,-6],[-4,-11],[4,-51],[-2,-21],[-31,-22],[-51,-18],[-12,-18],[3,-41],[-13,-42],[4,-27],[-3,-23],[-21,-32],[-46,36],[-19,25],[-27,15],[-33,-9],[-33,34],[-22,1],[-44,-40],[-14,-34],[-28,-29],[-16,-35],[-41,5],[-20,34],[-21,5],[-14,20],[-15,-31],[-47,-62],[-22,-9],[-18,7],[-11,36],[-16,13],[-40,15],[-19,16],[-16,-4],[-16,12],[-2,14],[-17,14],[-33,6],[-4,12],[-35,0],[-5,-19],[-48,1],[-7,-33],[-38,26],[-11,-42],[-42,-2],[-3,-24],[-17,4],[-8,-30],[-23,-11],[-26,9],[-3,-8],[-23,5],[-13,-50],[-23,22],[-8,-25],[-17,-1],[-11,-24]],[[3753,4921],[26,-6],[15,-13],[30,0],[36,-9],[27,-23],[38,1],[16,15],[27,0],[13,14],[18,52],[33,-13],[23,33],[2,22],[15,15],[17,-1],[8,25],[60,31],[58,77],[3,22],[33,6],[26,-8],[3,26],[18,30],[19,2],[18,47],[-5,27],[39,21],[7,20],[18,0],[23,22],[21,13],[19,22],[12,0],[23,21],[12,1],[6,29],[10,3],[12,-19],[27,-8],[9,7],[3,36],[32,19],[8,14],[8,38],[8,6],[40,-15],[16,8],[-2,18],[21,22],[24,12],[28,1],[16,13],[60,5],[12,13],[-6,36],[8,30],[-3,45],[15,27],[-8,31],[23,23],[10,22],[-2,33],[-18,51],[5,39],[-1,42],[6,36],[10,12],[31,11],[66,-2],[11,5],[29,49],[34,4],[11,11],[18,1],[-12,-22],[-6,-63],[23,-50],[34,-40],[42,-1],[17,18],[22,-19],[23,6],[12,-11],[5,27],[15,9],[38,-11],[29,-27],[36,-4],[63,25],[49,-42]],[[3694,5907],[-2,59],[-7,32],[5,6],[-5,55],[-6,20],[4,23],[-21,18],[-5,22],[-13,-2],[-15,27]],[[3629,6167],[17,47],[-1,16],[19,6],[32,0],[3,30],[31,-15],[6,19],[70,-33],[4,-26],[41,-5],[33,-13],[29,-30],[37,-24],[29,39],[-14,38],[11,25],[19,-3],[-4,44],[10,28],[1,28],[-14,1],[1,16],[-13,8],[5,59],[-6,34],[21,11],[22,-1],[45,-11],[-2,30],[14,11],[1,29],[7,9],[3,36],[-7,21],[22,36],[22,11],[51,49],[29,-9],[22,20],[34,-6],[12,10],[26,51],[27,15],[15,1],[28,17],[15,23],[-3,29],[21,24],[19,49],[2,21]],[[4421,6932],[39,-27],[56,-32],[25,-55],[26,-18],[10,-27],[21,-6],[5,-31],[-21,-19],[-12,-21],[2,-26],[12,-24],[-13,-21],[-4,-35],[7,-11],[55,-3],[14,-27],[28,-15],[-7,-36],[-17,-35],[5,-19],[15,-13],[36,-1],[18,18],[23,-16],[19,-43],[37,6],[4,32],[41,21],[12,35],[-3,29],[8,20],[27,18],[16,29],[7,26],[25,-2],[38,-39],[-6,-25],[27,-26],[6,6],[-15,52],[37,22],[17,3],[10,14],[11,41],[-6,20],[2,27],[18,5],[33,36],[6,45],[10,17],[24,21],[-2,32],[-14,25],[-30,26],[-16,24],[6,28],[-10,50],[13,2]],[[2245,7793],[18,-37],[19,-61],[21,-30],[25,-27],[57,6],[41,45],[2,15],[16,5],[1,44],[30,20],[28,10],[18,-37],[23,-20],[10,-21],[30,37],[14,2],[27,31],[42,27],[14,-58],[-12,-61],[12,-31],[20,-17],[9,-26],[30,-40],[5,-32],[19,-23],[12,38],[19,12],[11,59],[75,-20],[1,-8],[31,-10],[57,20],[-1,-13],[-40,-37],[-4,-14],[68,-95],[5,10],[23,-25],[7,9],[51,-2],[32,5],[33,15],[30,19]],[[3174,7477],[35,-60],[34,-42],[32,-32],[276,-224],[-44,-94],[-13,3],[-20,-27],[9,-84],[29,-23],[17,4],[50,-32],[4,-83],[8,-37],[27,12],[37,-2],[10,-35],[8,-59],[0,-32],[12,-5],[6,-46],[-58,-21],[-65,-31],[-17,-13],[-15,-34],[-3,-28],[5,-44],[11,-42]],[[3549,6366],[-17,-14],[-23,13],[-5,15],[-22,-9],[-15,14],[-43,-5],[-37,-11],[-9,25],[-44,71],[-25,37],[-36,45],[-151,140],[-85,67],[-37,26]],[[3000,6780],[-28,34],[-27,12],[-23,2],[-60,-7],[-20,10],[-34,32],[-40,-3],[3,-17],[-43,-47],[-15,9],[-30,1],[-32,-7],[-34,8],[-31,-15],[-48,-7],[-4,8],[-53,33],[-17,20],[-20,53],[-48,-12],[-2,16],[-21,33],[4,41],[1,46],[5,41],[-46,14],[-13,9],[-22,-2],[-9,34],[-19,-2],[0,38],[-8,34],[2,25],[-11,29],[-13,11],[-8,57],[-25,14],[-8,20],[-34,28],[-13,-19],[-9,20],[-24,16],[-2,22],[-19,3],[-30,21],[-6,27],[-28,10],[-7,14],[-9,-10],[-29,10],[-19,-15],[-31,1],[-12,31],[-17,-14],[-8,8],[-28,-1],[-36,57],[10,19],[-19,26],[4,13],[-7,33],[-55,95]],[[1775,7740],[5,0],[70,51],[28,23],[81,112],[33,29],[17,1],[14,-10],[20,-42],[16,-17],[52,-11],[39,4],[13,-19],[69,-47],[13,-21]],[[2245,7793],[-7,122],[21,-4],[11,9],[10,-10],[76,-13],[21,116],[30,83],[38,48],[44,23],[-12,159],[-68,37],[-23,0],[-21,-8],[-6,-13],[-26,-6],[-10,6],[-38,-13],[-5,29],[-38,7],[-28,20],[2,21],[12,6],[3,29],[13,5],[4,49],[-8,57],[-12,37],[7,51],[11,15],[6,40],[16,31],[20,27],[18,33],[33,8],[5,8],[44,24],[74,9],[24,17],[43,-40],[13,-4],[36,-29],[32,-19],[31,-37],[28,-5],[0,-23],[-11,-22],[5,-29],[10,29],[13,-1],[11,14],[35,-13],[12,14],[25,-3],[43,-40],[44,-30],[37,-30],[71,-79],[26,-17],[27,-2],[23,15],[38,51],[71,77],[20,19],[29,-13],[53,0],[20,-13],[25,-42],[8,-59],[17,-26],[33,-38],[31,-23],[84,-37],[95,0],[33,-6]],[[3597,8391],[3,-20],[9,1],[-5,-25],[11,-24],[-6,-21],[24,-9],[1,-20],[-66,34],[-9,-8],[-26,11],[-37,35],[-25,6],[-5,-11],[-49,-8],[-11,-12],[-28,-54],[-12,-15],[-22,-8],[-21,4],[-41,-2],[-35,16],[-35,-35],[-18,-42],[2,-21],[-10,-13],[20,-14],[4,-16],[23,-35],[36,-23],[8,-12],[7,-49],[-5,-37],[19,-11]],[[3298,7953],[-6,-145],[2,-87],[17,-39],[-17,-11],[-20,-29],[-9,-29],[-19,-9],[-15,-46],[-17,-25],[-8,-26],[-32,-30]],[[3629,6167],[-8,-9],[-40,59],[-6,19],[9,14],[-29,39],[13,21],[0,49],[-19,7]],[[3298,7953],[67,-88],[16,-13],[47,-6],[17,-17],[69,-48],[80,-59],[27,3],[100,-48],[63,-62],[25,15],[7,-19],[12,-60],[1,-48],[11,-17],[52,-9],[-2,16],[40,62],[1,50],[50,-13],[33,5],[46,-12],[51,-28],[46,-37],[2,10],[31,-4],[38,-20],[26,0],[27,-32],[51,-26],[2,-21],[34,11],[0,-16],[13,-8],[33,-2],[49,-39],[19,-1],[-1,-14],[22,-43],[35,-32],[-17,-6],[4,-25],[-19,-14],[-30,-73],[8,-27],[-16,-45],[6,-68],[-5,-23],[-28,-31],[-20,-39]],[[2829,5392],[-89,70],[-9,-22],[-50,9],[-47,-1],[-54,-41],[-23,4],[-13,-23],[-30,12],[-17,36],[-2,18],[-42,28],[-4,35],[-25,34],[-5,60],[-11,15],[-16,4],[32,17],[10,12],[9,35],[20,40],[-11,3],[-78,-33],[-55,13],[-23,14],[0,18]],[[2296,5749],[21,-13],[32,-7],[25,4],[30,21],[36,45],[-69,33],[-47,39],[1,43],[42,69],[40,23],[6,12],[-55,7],[-20,7],[-27,-7],[-9,-16],[-14,38],[-16,4],[-18,-18],[-13,41],[-12,-5],[-11,12],[2,25],[-25,20],[-24,-6],[-64,-2],[-34,49],[-29,3],[-23,-19],[-31,-2],[2,63],[0,73],[-13,78],[-5,59]],[[1974,6422],[32,12],[24,-7],[11,7],[30,-10],[33,-52],[18,-6],[17,-25],[59,-46],[22,-2],[14,19],[3,34],[59,143],[18,32],[25,7],[34,56],[25,20],[56,-4],[18,-33],[8,28],[14,13],[41,-5],[26,-10],[24,18],[23,8],[55,-78],[13,34],[22,0],[34,15],[36,28],[23,10],[62,42],[44,46],[19,11],[79,30],[5,23]],[[1974,6422],[-27,-5],[-25,15],[-29,31],[-35,1],[-39,15],[-50,-6],[-24,16],[-37,3],[2,28],[-50,43],[-20,-33],[-3,-25],[-33,-61],[-56,-5],[-10,-6],[-40,6],[-18,-19],[-10,-27],[2,-41],[-3,-35],[-15,-24],[-19,-5],[-39,-36],[-33,40],[-11,1],[-29,-16],[-32,21],[-18,-11],[-16,-24],[-15,9],[-17,-7]],[[1225,6265],[5,63],[-24,96],[26,20],[11,59],[-5,41],[8,33],[20,20],[-14,25],[-1,20],[-17,37],[1,34],[10,-3],[13,33],[-7,30],[7,6],[-4,25],[10,63],[22,12],[7,19],[19,-9],[38,44],[13,46],[21,32],[-8,6],[21,16],[-3,15],[13,22],[-16,14],[-68,14],[-19,46],[-8,4],[-12,56],[16,37],[1,57],[-5,28],[-19,22],[-16,42],[-6,62],[-14,8],[-20,31],[-35,40],[-25,19],[23,10],[4,11],[-2,56],[14,57],[28,63],[11,16],[6,49],[19,40],[6,36],[0,40],[31,78],[26,-9],[40,-46],[53,-42],[37,47],[33,30],[16,-1],[37,19],[39,-9],[36,-23],[12,-28],[23,-20],[14,-22],[30,-3],[21,-28],[21,-39],[12,-39],[24,-53]],[[3597,8391],[20,-10],[14,-21],[13,33],[-9,36],[3,60],[24,26],[10,-3],[35,15],[4,16],[24,53],[14,12],[28,5],[17,24],[16,-5],[12,-19],[32,0],[9,7],[7,43],[23,32],[40,41],[59,29],[27,18],[23,-6],[50,-31],[25,-46],[9,-35],[18,-18],[43,3],[17,-6],[31,-42],[4,-38],[8,-20],[46,-53],[15,-31],[17,-58],[34,-28],[36,-1],[23,-22],[37,-77],[21,-76],[11,-18],[60,-34],[32,6],[55,-47],[33,-8],[12,-11],[25,-49],[30,-40],[28,-18],[49,-46],[27,-66]],[[8529,5489],[50,-41],[10,50],[-13,48],[-23,123],[0,36],[-12,54],[0,41],[24,65],[46,93],[-26,4],[-4,18],[-18,21],[6,38],[-7,18],[-20,20],[-30,9],[-17,-11],[-23,17],[-24,45],[22,0],[-16,17],[-8,37],[-16,26],[-12,4],[14,35],[-15,3],[-14,36],[16,18],[-2,40],[-11,-1],[6,26],[-9,37]],[[8403,6415],[19,31],[-7,27],[20,29],[1,14],[16,1],[19,-16],[26,-2],[17,8],[17,41],[-4,14],[10,23],[35,17],[50,6],[17,13],[5,16],[17,15],[3,37],[22,22],[16,0],[32,-42],[24,1],[66,68],[6,29],[13,17],[10,35],[48,24],[9,14]],[[8910,6857],[41,-5],[2,-19],[-7,-39],[28,-14],[16,-23],[12,-51],[17,-4],[20,26],[19,13],[15,-6],[11,-53],[-12,-17],[-1,-18],[25,-57],[23,-22],[26,1],[38,27],[67,37],[18,26],[34,67],[23,19],[27,5],[14,19],[20,1],[26,-52],[20,-7],[8,-38],[78,-48],[10,-27],[11,-74],[1,-37],[-12,-12],[-6,-26],[3,-28],[17,-40],[20,-16],[62,-5],[16,-34],[2,-37],[16,-53],[5,-69],[-6,-48],[13,-38],[-2,-21],[14,-13],[3,-45],[17,-10],[13,-31],[-8,-78],[11,-18],[-8,-75],[2,-35],[20,-31],[17,-8]],[[8403,6415],[-32,6],[-11,-21],[-8,7],[-5,27],[-12,-4],[-1,26],[-13,14],[1,20],[-29,15],[-13,28],[15,25],[-23,9],[-22,32],[-16,12],[8,18],[-17,2],[-17,23],[-1,15],[-16,32],[9,8],[-39,22],[-14,31],[0,15],[-19,-5],[9,18],[-12,17],[-2,30],[-24,11],[-6,33],[16,14],[-19,20],[-22,4],[8,32],[-12,15],[0,36],[10,17],[-6,22],[9,10],[-8,17],[12,13],[-27,56],[-6,-5],[-20,34],[13,26],[5,30],[-8,13],[8,19],[-6,24],[4,23]],[[8044,7301],[-25,18],[12,4],[3,32],[-13,-2],[1,26],[16,18],[0,18],[-12,10],[5,31],[-4,22],[-25,23],[-5,-26],[-18,12],[-25,43],[-15,-12],[-28,24],[13,18],[-17,33],[8,26],[-2,19],[31,6],[-3,29],[-24,6],[-1,13],[15,3],[4,23],[-8,13],[0,23],[-14,9],[7,32],[-12,3],[7,18],[-28,13],[-3,15],[-25,-20],[-18,8],[2,12],[-18,8],[-13,-11],[-22,7],[-4,43],[-10,15],[-12,-3],[-17,23],[2,24],[-20,4],[15,25],[-13,9],[3,23],[-6,18],[0,43],[-33,12],[14,23],[-9,16],[3,26],[-15,-3],[-17,18],[1,77],[7,12],[39,19],[4,20],[-11,36],[16,48],[-8,18],[10,19],[15,63],[-4,27],[-13,9],[14,16],[-32,67],[-10,91],[-10,17],[-5,63],[0,55],[-9,50],[1,31],[-7,17],[42,3],[8,-15],[15,-2],[9,34],[-73,208],[-33,54],[-149,243],[-11,16],[-41,26],[-114,67]],[[7322,9553],[22,25],[29,-7],[52,5],[33,22],[15,25],[9,31],[52,-4],[3,51],[18,29],[27,11],[22,39],[69,74],[14,87],[60,9],[18,9],[18,25],[36,13],[21,2],[16,-33],[40,-17],[39,22],[10,-11],[3,-30],[25,-3],[12,-26],[6,-40],[48,17],[14,-4],[13,-26],[19,-6],[54,35],[18,-26],[19,-16],[31,-52],[24,-15],[35,-1],[14,-7],[49,-2],[11,-17],[20,-6],[41,4],[-4,-19],[8,-54],[9,-29],[-2,-32],[-16,-60],[-35,-9],[-28,-32],[-15,-27],[-2,-38],[-9,-20],[-30,-28],[-6,-19],[11,-36],[6,-67],[-6,-28],[16,-37],[44,-32],[28,-9],[74,7],[14,-28],[-4,-21],[-37,-28],[-16,-20],[-9,-71],[-28,-10],[4,-70],[17,-77],[34,-72],[15,-45],[52,-31],[41,0],[7,-23],[-6,-15],[-28,-23],[-14,-27],[3,-37],[25,-52],[17,-44],[9,-73],[15,-25],[21,-17],[7,-21],[-10,-84],[11,-22],[31,-19],[-1,-24],[16,-35],[-1,-44],[13,-30],[2,-48],[10,-19],[26,-28],[62,-39],[19,4],[33,27],[23,3],[17,27],[34,-8],[30,3],[40,43],[41,25],[6,23],[0,35],[11,18],[10,37],[21,13],[16,32],[30,18],[60,-3],[19,-32],[-4,-29],[-10,-19],[3,-20],[23,-28],[6,-78],[-7,-13],[-44,-29],[-8,-32],[-37,-31],[-4,-12],[11,-22],[-9,-39],[18,-52],[-3,-61],[1,-38],[24,-36],[1,-71],[-6,-17],[-39,-21],[-10,-56],[-17,-56],[-15,-24],[-43,-44],[-10,-26],[-19,-16],[-13,-53],[-34,-50],[-10,-42],[19,-32],[28,-21],[-7,-37],[-2,-53],[-12,-28],[-7,-40],[7,-38],[-15,-53],[2,-39]],[[7163,7645],[174,-26],[142,5],[49,6],[10,-7],[34,-48],[51,-17],[6,-10],[0,-80],[6,-63],[6,-147],[224,17],[98,-1],[16,2],[48,23],[17,2]],[[7011,9165],[17,34],[8,30],[2,44],[-10,9],[63,90],[-4,32],[-27,54],[2,10],[41,33],[110,72],[30,-24],[79,4]],[[1698,4571],[8,6],[167,370],[153,346]],[[2026,5293],[62,145],[63,152],[53,148],[5,19],[30,11],[57,-19]],[[2646,4619],[-34,23],[-61,-39],[-52,9],[-80,62],[-107,76],[-111,84],[-64,-143],[-75,-163],[-51,33],[-33,-36],[7,-46],[-3,-31],[25,-48],[-8,-33],[-56,22],[-13,28],[-56,54]],[[2026,5293],[-284,211],[-66,48],[-79,53],[-186,149],[-181,149],[-34,51],[-78,107]],[[1118,6061],[29,8],[32,23],[16,22],[35,71],[3,31],[-8,49]],[[774,4644],[-7,38],[30,37],[4,31],[25,36],[27,16],[10,-2],[3,41],[49,69],[-1,13],[14,9],[8,30],[0,48],[-18,34],[17,62],[0,44],[14,67],[-35,22],[-5,29],[6,47],[32,32],[10,16],[12,57],[7,2],[0,38],[19,53],[29,44],[-4,10],[43,77],[-13,15],[-16,35],[24,29],[-18,19],[-5,19],[27,77],[28,13],[36,29],[-10,44],[20,23],[-54,60],[6,19],[30,35]]],"transform":{"scale":[0.00008466845204520992,0.00006506005660565886],"translate":[100.98445505300003,12.512953175000064]},"objects":{"Rayong":{"type":"GeometryCollection","geometries":[{"arcs":[[0,1]],"type":"Polygon","properties":{"Shape_Leng":0.102546373304,"Shape_Area":0.000252412867327,"ADM3_EN":"Tha Pradu","ADM3_TH":"ท่าประดู่","ADM3_PCODE":"TH210101","ADM2_EN":"Mueang Rayong","ADM2_TH":"เมืองระยอง","ADM2_PCODE":"TH2101","ADM1_EN":"Rayong","ADM1_TH":"ระยอง","ADM1_PCODE":"TH21","ADM0_EN":"Thailand","ADM0_TH":"ประเทศไทย","ADM0_PCODE":"TH"}},{"arcs":[[-2,2,3,4,5,6,7,8,9,10,11]],"type":"Polygon","properties":{"Shape_Leng":0.36015024515,"Shape_Area":0.00287428920946,"ADM3_EN":"Choeng Noen","ADM3_TH":"เชิงเนิน","ADM3_PCODE":"TH210102","ADM2_EN":"Mueang Rayong","ADM2_TH":"เมืองระยอง","ADM2_PCODE":"TH2101","ADM1_EN":"Rayong","ADM1_TH":"ระยอง","ADM1_PCODE":"TH21","ADM0_EN":"Thailand","ADM0_TH":"ประเทศไทย","ADM0_PCODE":"TH"}},{"arcs":[[-10,12,13,14,15]],"type":"Polygon","properties":{"Shape_Leng":0.404228919855,"Shape_Area":0.00543036022198,"ADM3_EN":"Taphong","ADM3_TH":"ตะพง","ADM3_PCODE":"TH210103","ADM2_EN":"Mueang Rayong","ADM2_TH":"เมืองระยอง","ADM2_PCODE":"TH2101","ADM1_EN":"Rayong","ADM1_TH":"ระยอง","ADM1_PCODE":"TH21","ADM0_EN":"Thailand","ADM0_TH":"ประเทศไทย","ADM0_PCODE":"TH"}},{"arcs":[[-1,-12,16,17,-3]],"type":"Polygon","properties":{"Shape_Leng":0.187190026639,"Shape_Area":0.000378929351207,"ADM3_EN":"Pak Nam","ADM3_TH":"ปากน้ำ","ADM3_PCODE":"TH210104","ADM2_EN":"Mueang Rayong","ADM2_TH":"เมืองระยอง","ADM2_PCODE":"TH2101","ADM1_EN":"Rayong","ADM1_TH":"ระยอง","ADM1_PCODE":"TH21","ADM0_EN":"Thailand","ADM0_TH":"ประเทศไทย","ADM0_PCODE":"TH"}},{"arcs":[[[-15,18,19]],[[20]],[[21]]],"type":"MultiPolygon","properties":{"Shape_Leng":0.486003206866,"Shape_Area":0.00309524540264,"ADM3_EN":"Phe","ADM3_TH":"เพ","ADM3_PCODE":"TH210105","ADM2_EN":"Mueang Rayong","ADM2_TH":"เมืองระยอง","ADM2_PCODE":"TH2101","ADM1_EN":"Rayong","ADM1_TH":"ระยอง","ADM1_PCODE":"TH21","ADM0_EN":"Thailand","ADM0_TH":"ประเทศไทย","ADM0_PCODE":"TH"}},{"arcs":[[[-14,22,23,24,25,-19]],[[26]],[[27]],[[28]]],"type":"MultiPolygon","properties":{"Shape_Leng":0.429977316622,"Shape_Area":0.00458851675768,"ADM3_EN":"Klaeng","ADM3_TH":"แกลง","ADM3_PCODE":"TH210106","ADM2_EN":"Mueang Rayong","ADM2_TH":"เมืองระยอง","ADM2_PCODE":"TH2101","ADM1_EN":"Rayong","ADM1_TH":"ระยอง","ADM1_PCODE":"TH21","ADM0_EN":"Thailand","ADM0_TH":"ประเทศไทย","ADM0_PCODE":"TH"}},{"arcs":[[-9,29,30,-13]],"type":"Polygon","properties":{"Shape_Leng":0.303720891996,"Shape_Area":0.00316585633081,"ADM3_EN":"Ban Laeng","ADM3_TH":"บ้านแลง","ADM3_PCODE":"TH210107","ADM2_EN":"Mueang Rayong","ADM2_TH":"เมืองระยอง","ADM2_PCODE":"TH2101","ADM1_EN":"Rayong","ADM1_TH":"ระยอง","ADM1_PCODE":"TH21","ADM0_EN":"Thailand","ADM0_TH":"ประเทศไทย","ADM0_PCODE":"TH"}},{"arcs":[[-8,31,32,33,-30]],"type":"Polygon","properties":{"Shape_Leng":0.324737329829,"Shape_Area":0.00311536702169,"ADM3_EN":"Na Ta Khwan","ADM3_TH":"นาตาขวัญ","ADM3_PCODE":"TH210108","ADM2_EN":"Mueang Rayong","ADM2_TH":"เมืองระยอง","ADM2_PCODE":"TH2101","ADM1_EN":"Rayong","ADM1_TH":"ระยอง","ADM1_PCODE":"TH21","ADM0_EN":"Thailand","ADM0_TH":"ประเทศไทย","ADM0_PCODE":"TH"}},{"arcs":[[[-4,-18,34,35,36]],[[37]]],"type":"MultiPolygon","properties":{"Shape_Leng":0.332404475155,"Shape_Area":0.00281572428153,"ADM3_EN":"Noen Phra","ADM3_TH":"เนินพระ","ADM3_PCODE":"TH210109","ADM2_EN":"Mueang Rayong","ADM2_TH":"เมืองระยอง","ADM2_PCODE":"TH2101","ADM1_EN":"Rayong","ADM1_TH":"ระยอง","ADM1_PCODE":"TH21","ADM0_EN":"Thailand","ADM0_TH":"ประเทศไทย","ADM0_PCODE":"TH"}},{"arcs":[[-24,38,39,40,41,42,43,44,45,46]],"type":"Polygon","properties":{"Shape_Leng":0.639877241103,"Shape_Area":0.00740987993719,"ADM3_EN":"Kachet","ADM3_TH":"กะเฉด","ADM3_PCODE":"TH210110","ADM2_EN":"Mueang Rayong","ADM2_TH":"เมืองระยอง","ADM2_PCODE":"TH2101","ADM1_EN":"Rayong","ADM1_TH":"ระยอง","ADM1_PCODE":"TH21","ADM0_EN":"Thailand","ADM0_TH":"ประเทศไทย","ADM0_PCODE":"TH"}},{"arcs":[[-5,-37,47,48,49]],"type":"Polygon","properties":{"Shape_Leng":0.303059185362,"Shape_Area":0.00301218849948,"ADM3_EN":"Thap Ma","ADM3_TH":"ทับมา","ADM3_PCODE":"TH210111","ADM2_EN":"Mueang Rayong","ADM2_TH":"เมืองระยอง","ADM2_PCODE":"TH2101","ADM1_EN":"Rayong","ADM1_TH":"ระยอง","ADM1_PCODE":"TH21","ADM0_EN":"Thailand","ADM0_TH":"ประเทศไทย","ADM0_PCODE":"TH"}},{"arcs":[[-6,-50,50,51,52]],"type":"Polygon","properties":{"Shape_Leng":0.200071929776,"Shape_Area":0.000918128372933,"ADM3_EN":"Nam Khok","ADM3_TH":"น้ำคอก","ADM3_PCODE":"TH210112","ADM2_EN":"Mueang Rayong","ADM2_TH":"เมืองระยอง","ADM2_PCODE":"TH2101","ADM1_EN":"Rayong","ADM1_TH":"ระยอง","ADM1_PCODE":"TH21","ADM0_EN":"Thailand","ADM0_TH":"ประเทศไทย","ADM0_PCODE":"TH"}},{"arcs":[[53,54,55,56,57]],"type":"Polygon","properties":{"Shape_Leng":0.374471683553,"Shape_Area":0.00548269962558,"ADM3_EN":"Huai Pong","ADM3_TH":"ห้วยโป่ง","ADM3_PCODE":"TH210113","ADM2_EN":"Mueang Rayong","ADM2_TH":"เมืองระยอง","ADM2_PCODE":"TH2101","ADM1_EN":"Rayong","ADM1_TH":"ระยอง","ADM1_PCODE":"TH21","ADM0_EN":"Thailand","ADM0_TH":"ประเทศไทย","ADM0_PCODE":"TH"}},{"arcs":[[-36,58,59,-56,60,-48]],"type":"Polygon","properties":{"Shape_Leng":0.516173250085,"Shape_Area":0.00450108534923,"ADM3_EN":"Maptaphut","ADM3_TH":"มาบตาพุด","ADM3_PCODE":"TH210114","ADM2_EN":"Mueang Rayong","ADM2_TH":"เมืองระยอง","ADM2_PCODE":"TH2101","ADM1_EN":"Rayong","ADM1_TH":"ระยอง","ADM1_PCODE":"TH21","ADM0_EN":"Thailand","ADM0_TH":"ประเทศไทย","ADM0_PCODE":"TH"}},{"arcs":[[-23,-31,-34,61,-39]],"type":"Polygon","properties":{"Shape_Leng":0.496871414239,"Shape_Area":0.00836626547585,"ADM3_EN":"Samnak Thong","ADM3_TH":"สำนักทอง","ADM3_PCODE":"TH210115","ADM2_EN":"Mueang Rayong","ADM2_TH":"เมืองระยอง","ADM2_PCODE":"TH2101","ADM1_EN":"Rayong","ADM1_TH":"ระยอง","ADM1_PCODE":"TH21","ADM0_EN":"Thailand","ADM0_TH":"ประเทศไทย","ADM0_PCODE":"TH"}},{"arcs":[[62,63,64,65]],"type":"Polygon","properties":{"Shape_Leng":0.441072953551,"Shape_Area":0.0052535449408,"ADM3_EN":"Samnak Thon","ADM3_TH":"สำนักท้อน","ADM3_PCODE":"TH210201","ADM2_EN":"Ban Chang","ADM2_TH":"บ้านฉาง","ADM2_PCODE":"TH2102","ADM1_EN":"Rayong","ADM1_TH":"ระยอง","ADM1_PCODE":"TH21","ADM0_EN":"Thailand","ADM0_TH":"ประเทศไทย","ADM0_PCODE":"TH"}},{"arcs":[[-64,66,67]],"type":"Polygon","properties":{"Shape_Leng":0.294842819639,"Shape_Area":0.00319465007702,"ADM3_EN":"Phla","ADM3_TH":"พลา","ADM3_PCODE":"TH210202","ADM2_EN":"Ban Chang","ADM2_TH":"บ้านฉาง","ADM2_PCODE":"TH2102","ADM1_EN":"Rayong","ADM1_TH":"ระยอง","ADM1_PCODE":"TH21","ADM0_EN":"Thailand","ADM0_TH":"ประเทศไทย","ADM0_PCODE":"TH"}},{"arcs":[[-57,-60,68,-67,-63,69]],"type":"Polygon","properties":{"Shape_Leng":0.375526755791,"Shape_Area":0.00516929710619,"ADM3_EN":"Ban Chang","ADM3_TH":"บ้านฉาง","ADM3_PCODE":"TH210203","ADM2_EN":"Ban Chang","ADM2_TH":"บ้านฉาง","ADM2_PCODE":"TH2102","ADM1_EN":"Rayong","ADM1_TH":"ระยอง","ADM1_PCODE":"TH21","ADM0_EN":"Thailand","ADM0_TH":"ประเทศไทย","ADM0_PCODE":"TH"}},{"arcs":[[70,71,72,73,74,75,76]],"type":"Polygon","properties":{"Shape_Leng":0.600713069172,"Shape_Area":0.0055808669194,"ADM3_EN":"Thang Kwian","ADM3_TH":"ทางเกวียน","ADM3_PCODE":"TH210301","ADM2_EN":"Klaeng","ADM2_TH":"แกลง","ADM2_PCODE":"TH2103","ADM1_EN":"Rayong","ADM1_TH":"ระยอง","ADM1_PCODE":"TH21","ADM0_EN":"Thailand","ADM0_TH":"ประเทศไทย","ADM0_PCODE":"TH"}},{"arcs":[[-44,77,-76,78,79]],"type":"Polygon","properties":{"Shape_Leng":0.516772738527,"Shape_Area":0.00493365921021,"ADM3_EN":"Wang Wa","ADM3_TH":"วังหว้า","ADM3_PCODE":"TH210302","ADM2_EN":"Klaeng","ADM2_TH":"แกลง","ADM2_PCODE":"TH2103","ADM1_EN":"Rayong","ADM1_TH":"ระยอง","ADM1_PCODE":"TH21","ADM0_EN":"Thailand","ADM0_TH":"ประเทศไทย","ADM0_PCODE":"TH"}},{"arcs":[[80,81,82,83,84]],"type":"Polygon","properties":{"Shape_Leng":0.299025038557,"Shape_Area":0.00236677227225,"ADM3_EN":"Chak Don","ADM3_TH":"ชากโดน","ADM3_PCODE":"TH210303","ADM2_EN":"Klaeng","ADM2_TH":"แกลง","ADM2_PCODE":"TH2103","ADM1_EN":"Rayong","ADM1_TH":"ระยอง","ADM1_PCODE":"TH21","ADM0_EN":"Thailand","ADM0_TH":"ประเทศไทย","ADM0_PCODE":"TH"}},{"arcs":[[-75,85,86,87,-82,88,-79]],"type":"Polygon","properties":{"Shape_Leng":0.309101671952,"Shape_Area":0.00309019094608,"ADM3_EN":"Noen Kho","ADM3_TH":"เนินฆ้อ","ADM3_PCODE":"TH210304","ADM2_EN":"Klaeng","ADM2_TH":"แกลง","ADM2_PCODE":"TH2103","ADM1_EN":"Rayong","ADM1_TH":"ระยอง","ADM1_PCODE":"TH21","ADM0_EN":"Thailand","ADM0_TH":"ประเทศไทย","ADM0_PCODE":"TH"}},{"arcs":[[[-83,-88,89,90]],[[91]],[[92]],[[93]]],"type":"MultiPolygon","properties":{"Shape_Leng":0.365565728925,"Shape_Area":0.00233506193978,"ADM3_EN":"Kram","ADM3_TH":"กร่ำ","ADM3_PCODE":"TH210305","ADM2_EN":"Klaeng","ADM2_TH":"แกลง","ADM2_PCODE":"TH2103","ADM1_EN":"Rayong","ADM1_TH":"ระยอง","ADM1_PCODE":"TH21","ADM0_EN":"Thailand","ADM0_TH":"ประเทศไทย","ADM0_PCODE":"TH"}},{"arcs":[[[-25,-47,94,-84,-91,95]],[[96]]],"type":"MultiPolygon","properties":{"Shape_Leng":0.415777549788,"Shape_Area":0.00494632231523,"ADM3_EN":"Chak Phong","ADM3_TH":"ชากพง","ADM3_PCODE":"TH210306","ADM2_EN":"Klaeng","ADM2_TH":"แกลง","ADM2_PCODE":"TH2103","ADM1_EN":"Rayong","ADM1_TH":"ระยอง","ADM1_PCODE":"TH21","ADM0_EN":"Thailand","ADM0_TH":"ประเทศไทย","ADM0_PCODE":"TH"}},{"arcs":[[-71,97,98,99,100,101]],"type":"Polygon","properties":{"Shape_Leng":0.659682621723,"Shape_Area":0.0063676590408,"ADM3_EN":"Krasae Bon","ADM3_TH":"กระแสบน","ADM3_PCODE":"TH210307","ADM2_EN":"Klaeng","ADM2_TH":"แกลง","ADM2_PCODE":"TH2103","ADM1_EN":"Rayong","ADM1_TH":"ระยอง","ADM1_PCODE":"TH21","ADM0_EN":"Thailand","ADM0_TH":"ประเทศไทย","ADM0_PCODE":"TH"}},{"arcs":[[-72,-102,102,103,104]],"type":"Polygon","properties":{"Shape_Leng":0.427407219452,"Shape_Area":0.00463688759166,"ADM3_EN":"Ban Na","ADM3_TH":"บ้านนา","ADM3_PCODE":"TH210308","ADM2_EN":"Klaeng","ADM2_TH":"แกลง","ADM2_PCODE":"TH2103","ADM1_EN":"Rayong","ADM1_TH":"ระยอง","ADM1_PCODE":"TH21","ADM0_EN":"Thailand","ADM0_TH":"ประเทศไทย","ADM0_PCODE":"TH"}},{"arcs":[[-73,-105,105,106,107,108]],"type":"Polygon","properties":{"Shape_Leng":0.601318021709,"Shape_Area":0.00662605089457,"ADM3_EN":"Thung Khwai Kin","ADM3_TH":"ทุ่งควายกิน","ADM3_PCODE":"TH210309","ADM2_EN":"Klaeng","ADM2_TH":"แกลง","ADM2_PCODE":"TH2103","ADM1_EN":"Rayong","ADM1_TH":"ระยอง","ADM1_PCODE":"TH21","ADM0_EN":"Thailand","ADM0_TH":"ประเทศไทย","ADM0_PCODE":"TH"}},{"arcs":[[-107,109,110,111,112]],"type":"Polygon","properties":{"Shape_Leng":0.502206864108,"Shape_Area":0.00677666877754,"ADM3_EN":"Kong Din","ADM3_TH":"กองดิน","ADM3_PCODE":"TH210310","ADM2_EN":"Klaeng","ADM2_TH":"แกลง","ADM2_PCODE":"TH2103","ADM1_EN":"Rayong","ADM1_TH":"ระยอง","ADM1_PCODE":"TH21","ADM0_EN":"Thailand","ADM0_TH":"ประเทศไทย","ADM0_PCODE":"TH"}},{"arcs":[[-108,-113,113,114,115]],"type":"Polygon","properties":{"Shape_Leng":0.313993412342,"Shape_Area":0.00262278956417,"ADM3_EN":"Khlong Pun","ADM3_TH":"คลองปูน","ADM3_PCODE":"TH210311","ADM2_EN":"Klaeng","ADM2_TH":"แกลง","ADM2_PCODE":"TH2103","ADM1_EN":"Rayong","ADM1_TH":"ระยอง","ADM1_PCODE":"TH21","ADM0_EN":"Thailand","ADM0_TH":"ประเทศไทย","ADM0_PCODE":"TH"}},{"arcs":[[-112,116,-114]],"type":"Polygon","properties":{"Shape_Leng":0.24792874796,"Shape_Area":0.00264185021785,"ADM3_EN":"Phang Rat","ADM3_TH":"พังราด","ADM3_PCODE":"TH210312","ADM2_EN":"Klaeng","ADM2_TH":"แกลง","ADM2_PCODE":"TH2103","ADM1_EN":"Rayong","ADM1_TH":"ระยอง","ADM1_PCODE":"TH21","ADM0_EN":"Thailand","ADM0_TH":"ประเทศไทย","ADM0_PCODE":"TH"}},{"arcs":[[-74,-109,-116,117,-86]],"type":"Polygon","properties":{"Shape_Leng":0.269677427303,"Shape_Area":0.00111980153709,"ADM3_EN":"Pak Nam Krasae","ADM3_TH":"ปากน้ำกระแส","ADM3_PCODE":"TH210313","ADM2_EN":"Klaeng","ADM2_TH":"แกลง","ADM2_PCODE":"TH2103","ADM1_EN":"Rayong","ADM1_TH":"ระยอง","ADM1_PCODE":"TH21","ADM0_EN":"Thailand","ADM0_TH":"ประเทศไทย","ADM0_PCODE":"TH"}},{"arcs":[[-45,-80,-89,-81,118]],"type":"Polygon","properties":{"Shape_Leng":0.406838859982,"Shape_Area":0.00289409093149,"ADM3_EN":"Huai Yang","ADM3_TH":"ห้วยยาง","ADM3_PCODE":"TH210317","ADM2_EN":"Klaeng","ADM2_TH":"แกลง","ADM2_PCODE":"TH2103","ADM1_EN":"Rayong","ADM1_TH":"ระยอง","ADM1_PCODE":"TH21","ADM0_EN":"Thailand","ADM0_TH":"ประเทศไทย","ADM0_PCODE":"TH"}},{"arcs":[[-46,-119,-85,-95]],"type":"Polygon","properties":{"Shape_Leng":0.361847324906,"Shape_Area":0.00427421382626,"ADM3_EN":"Song Salueng","ADM3_TH":"สองสลึง","ADM3_PCODE":"TH210318","ADM2_EN":"Klaeng","ADM2_TH":"แกลง","ADM2_PCODE":"TH2103","ADM1_EN":"Rayong","ADM1_TH":"ระยอง","ADM1_PCODE":"TH21","ADM0_EN":"Thailand","ADM0_TH":"ประเทศไทย","ADM0_PCODE":"TH"}},{"arcs":[[-43,119,-98,-77,-78]],"type":"Polygon","properties":{"Shape_Leng":0.318927633875,"Shape_Area":0.00360675108908,"ADM3_EN":"Wang Chan","ADM3_TH":"วังจันทร์","ADM3_PCODE":"TH210401","ADM2_EN":"Wang Chan","ADM2_TH":"วังจันทร์","ADM2_PCODE":"TH2104","ADM1_EN":"Rayong","ADM1_TH":"ระยอง","ADM1_PCODE":"TH21","ADM0_EN":"Thailand","ADM0_TH":"ประเทศไทย","ADM0_PCODE":"TH"}},{"arcs":[[-100,120,121,122,123,124,125,126]],"type":"Polygon","properties":{"Shape_Leng":1.10608691137,"Shape_Area":0.0111256339198,"ADM3_EN":"Chum Saeng","ADM3_TH":"ชุมแสง","ADM3_PCODE":"TH210402","ADM2_EN":"Wang Chan","ADM2_TH":"วังจันทร์","ADM2_PCODE":"TH2104","ADM1_EN":"Rayong","ADM1_TH":"ระยอง","ADM1_PCODE":"TH21","ADM0_EN":"Thailand","ADM0_TH":"ประเทศไทย","ADM0_PCODE":"TH"}},{"arcs":[[-124,127,128,129]],"type":"Polygon","properties":{"Shape_Leng":0.763470162496,"Shape_Area":0.0119021856975,"ADM3_EN":"Pa Yup Nai","ADM3_TH":"ป่ายุบใน","ADM3_PCODE":"TH210403","ADM2_EN":"Wang Chan","ADM2_TH":"วังจันทร์","ADM2_PCODE":"TH2104","ADM1_EN":"Rayong","ADM1_TH":"ระยอง","ADM1_PCODE":"TH21","ADM0_EN":"Thailand","ADM0_TH":"ประเทศไทย","ADM0_PCODE":"TH"}},{"arcs":[[-42,130,-121,-99,-120]],"type":"Polygon","properties":{"Shape_Leng":0.44813690078,"Shape_Area":0.00455285010071,"ADM3_EN":"Phlong Ta Iam","ADM3_TH":"พลงตาเอี่ยม","ADM3_PCODE":"TH210404","ADM2_EN":"Wang Chan","ADM2_TH":"วังจันทร์","ADM2_PCODE":"TH2104","ADM1_EN":"Rayong","ADM1_TH":"ระยอง","ADM1_PCODE":"TH21","ADM0_EN":"Thailand","ADM0_TH":"ประเทศไทย","ADM0_PCODE":"TH"}},{"arcs":[[131,132,133,134,135]],"type":"Polygon","properties":{"Shape_Leng":0.201079368011,"Shape_Area":0.00114511665414,"ADM3_EN":"Ban Khai","ADM3_TH":"บ้านค่าย","ADM3_PCODE":"TH210501","ADM2_EN":"Ban Khai","ADM2_TH":"บ้านค่าย","ADM2_PCODE":"TH2105","ADM1_EN":"Rayong","ADM1_TH":"ระยอง","ADM1_PCODE":"TH21","ADM0_EN":"Thailand","ADM0_TH":"ประเทศไทย","ADM0_PCODE":"TH"}},{"arcs":[[-135,136,137,138,139,140,141]],"type":"Polygon","properties":{"Shape_Leng":0.496273920092,"Shape_Area":0.00812271931014,"ADM3_EN":"Nong Lalok","ADM3_TH":"หนองละลอก","ADM3_PCODE":"TH210502","ADM2_EN":"Ban Khai","ADM2_TH":"บ้านค่าย","ADM2_PCODE":"TH2105","ADM1_EN":"Rayong","ADM1_TH":"ระยอง","ADM1_PCODE":"TH21","ADM0_EN":"Thailand","ADM0_TH":"ประเทศไทย","ADM0_PCODE":"TH"}},{"arcs":[[-52,142,-137,-134,143]],"type":"Polygon","properties":{"Shape_Leng":0.256144965537,"Shape_Area":0.00189954709475,"ADM3_EN":"Nong Taphan","ADM3_TH":"หนองตะพาน","ADM3_PCODE":"TH210503","ADM2_EN":"Ban Khai","ADM2_TH":"บ้านค่าย","ADM2_PCODE":"TH2105","ADM1_EN":"Rayong","ADM1_TH":"ระยอง","ADM1_PCODE":"TH21","ADM0_EN":"Thailand","ADM0_TH":"ประเทศไทย","ADM0_PCODE":"TH"}},{"arcs":[[-7,-53,-144,-133,144,-32]],"type":"Polygon","properties":{"Shape_Leng":0.30150157812,"Shape_Area":0.00239465566821,"ADM3_EN":"Ta Khan","ADM3_TH":"ตาขัน","ADM3_PCODE":"TH210504","ADM2_EN":"Ban Khai","ADM2_TH":"บ้านค่าย","ADM2_PCODE":"TH2105","ADM1_EN":"Rayong","ADM1_TH":"ระยอง","ADM1_PCODE":"TH21","ADM0_EN":"Thailand","ADM0_TH":"ประเทศไทย","ADM0_PCODE":"TH"}},{"arcs":[[-41,145,-136,-142,146,-122,-131]],"type":"Polygon","properties":{"Shape_Leng":0.683927195374,"Shape_Area":0.0097358136791,"ADM3_EN":"Bang But","ADM3_TH":"บางบุตร","ADM3_PCODE":"TH210505","ADM2_EN":"Ban Khai","ADM2_TH":"บ้านค่าย","ADM2_PCODE":"TH2105","ADM1_EN":"Rayong","ADM1_TH":"ระยอง","ADM1_PCODE":"TH21","ADM0_EN":"Thailand","ADM0_TH":"ประเทศไทย","ADM0_PCODE":"TH"}},{"arcs":[[-123,-147,-141,147,148,149,-128]],"type":"Polygon","properties":{"Shape_Leng":0.81955796894,"Shape_Area":0.0118906773859,"ADM3_EN":"Nong Bua","ADM3_TH":"หนองบัว","ADM3_PCODE":"TH210506","ADM2_EN":"Ban Khai","ADM2_TH":"บ้านค่าย","ADM2_PCODE":"TH2105","ADM1_EN":"Rayong","ADM1_TH":"ระยอง","ADM1_PCODE":"TH21","ADM0_EN":"Thailand","ADM0_TH":"ประเทศไทย","ADM0_PCODE":"TH"}},{"arcs":[[-33,-145,-132,-146,-40,-62]],"type":"Polygon","properties":{"Shape_Leng":0.524903285933,"Shape_Area":0.0052280796853,"ADM3_EN":"Chak Bok","ADM3_TH":"ชากบก","ADM3_PCODE":"TH210507","ADM2_EN":"Ban Khai","ADM2_TH":"บ้านค่าย","ADM2_PCODE":"TH2105","ADM1_EN":"Rayong","ADM1_TH":"ระยอง","ADM1_PCODE":"TH21","ADM0_EN":"Thailand","ADM0_TH":"ประเทศไทย","ADM0_PCODE":"TH"}},{"arcs":[[150,151,152,153,154]],"type":"Polygon","properties":{"Shape_Leng":0.535036327234,"Shape_Area":0.00672978308183,"ADM3_EN":"Pluak Daeng","ADM3_TH":"ปลวกแดง","ADM3_PCODE":"TH210601","ADM2_EN":"Pluak Daeng","ADM2_TH":"ปลวกแดง","ADM2_PCODE":"TH2106","ADM1_EN":"Rayong","ADM1_TH":"ระยอง","ADM1_PCODE":"TH21","ADM0_EN":"Thailand","ADM0_TH":"ประเทศไทย","ADM0_PCODE":"TH"}},{"arcs":[[-151,155,156,157]],"type":"Polygon","properties":{"Shape_Leng":0.505804332521,"Shape_Area":0.00585463918644,"ADM3_EN":"Ta Sit","ADM3_TH":"ตาสิทธิ์","ADM3_PCODE":"TH210602","ADM2_EN":"Pluak Daeng","ADM2_TH":"ปลวกแดง","ADM2_PCODE":"TH2106","ADM1_EN":"Rayong","ADM1_TH":"ระยอง","ADM1_PCODE":"TH21","ADM0_EN":"Thailand","ADM0_TH":"ประเทศไทย","ADM0_PCODE":"TH"}},{"arcs":[[-149,158,-152,-158,159]],"type":"Polygon","properties":{"Shape_Leng":0.483783464433,"Shape_Area":0.00646417674166,"ADM3_EN":"Lahan","ADM3_TH":"ละหาร","ADM3_PCODE":"TH210603","ADM2_EN":"Pluak Daeng","ADM2_TH":"ปลวกแดง","ADM2_PCODE":"TH2106","ADM1_EN":"Rayong","ADM1_TH":"ระยอง","ADM1_PCODE":"TH21","ADM0_EN":"Thailand","ADM0_TH":"ประเทศไทย","ADM0_PCODE":"TH"}},{"arcs":[[-140,160,161,162,-153,-159,-148]],"type":"Polygon","properties":{"Shape_Leng":0.534411776044,"Shape_Area":0.00795095545094,"ADM3_EN":"Maenam Khu","ADM3_TH":"แม่น้ำคู้","ADM3_PCODE":"TH210604","ADM2_EN":"Pluak Daeng","ADM2_TH":"ปลวกแดง","ADM2_PCODE":"TH2106","ADM1_EN":"Rayong","ADM1_TH":"ระยอง","ADM1_PCODE":"TH21","ADM0_EN":"Thailand","ADM0_TH":"ประเทศไทย","ADM0_PCODE":"TH"}},{"arcs":[[-154,-163,163,164]],"type":"Polygon","properties":{"Shape_Leng":0.587242145264,"Shape_Area":0.00825526802902,"ADM3_EN":"Map Yang Phon","ADM3_TH":"มาบยางพร","ADM3_PCODE":"TH210605","ADM2_EN":"Pluak Daeng","ADM2_TH":"ปลวกแดง","ADM2_PCODE":"TH2106","ADM1_EN":"Rayong","ADM1_TH":"ระยอง","ADM1_PCODE":"TH21","ADM0_EN":"Thailand","ADM0_TH":"ประเทศไทย","ADM0_PCODE":"TH"}},{"arcs":[[-129,-150,-160,-157,165]],"type":"Polygon","properties":{"Shape_Leng":0.622727862153,"Shape_Area":0.0102154349281,"ADM3_EN":"Nong Rai","ADM3_TH":"หนองไร่","ADM3_PCODE":"TH210606","ADM2_EN":"Pluak Daeng","ADM2_TH":"ปลวกแดง","ADM2_PCODE":"TH2106","ADM1_EN":"Rayong","ADM1_TH":"ระยอง","ADM1_PCODE":"TH21","ADM0_EN":"Thailand","ADM0_TH":"ประเทศไทย","ADM0_PCODE":"TH"}},{"arcs":[[-104,166,167,168,-110,-106]],"type":"Polygon","properties":{"Shape_Leng":0.53193253948,"Shape_Area":0.00861847161689,"ADM3_EN":"Nam Pen","ADM3_TH":"น้ำเป็น","ADM3_PCODE":"TH210701","ADM2_EN":"Khao Chamao","ADM2_TH":"เขาชะเมา","ADM2_PCODE":"TH2107","ADM1_EN":"Rayong","ADM1_TH":"ระยอง","ADM1_PCODE":"TH21","ADM0_EN":"Thailand","ADM0_TH":"ประเทศไทย","ADM0_PCODE":"TH"}},{"arcs":[[-168,169,170,171]],"type":"Polygon","properties":{"Shape_Leng":0.859162848193,"Shape_Area":0.0160420012654,"ADM3_EN":"Huai Thap Mon","ADM3_TH":"ห้วยทับมอญ","ADM3_PCODE":"TH210702","ADM2_EN":"Khao Chamao","ADM2_TH":"เขาชะเมา","ADM2_PCODE":"TH2107","ADM1_EN":"Rayong","ADM1_TH":"ระยอง","ADM1_PCODE":"TH21","ADM0_EN":"Thailand","ADM0_TH":"ประเทศไทย","ADM0_PCODE":"TH"}},{"arcs":[[-101,-127,172,-170,-167,-103]],"type":"Polygon","properties":{"Shape_Leng":0.741984629179,"Shape_Area":0.00862005812508,"ADM3_EN":"Cham Kho","ADM3_TH":"ชำฆ้อ","ADM3_PCODE":"TH210703","ADM2_EN":"Khao Chamao","ADM2_TH":"เขาชะเมา","ADM2_PCODE":"TH2107","ADM1_EN":"Rayong","ADM1_TH":"ระยอง","ADM1_PCODE":"TH21","ADM0_EN":"Thailand","ADM0_TH":"ประเทศไทย","ADM0_PCODE":"TH"}},{"arcs":[[-126,173,-171,-173]],"type":"Polygon","properties":{"Shape_Leng":0.558296793776,"Shape_Area":0.00648581433526,"ADM3_EN":"Khao Noi","ADM3_TH":"เขาน้อย","ADM3_PCODE":"TH210704","ADM2_EN":"Khao Chamao","ADM2_TH":"เขาชะเมา","ADM2_PCODE":"TH2107","ADM1_EN":"Rayong","ADM1_TH":"ระยอง","ADM1_PCODE":"TH21","ADM0_EN":"Thailand","ADM0_TH":"ประเทศไทย","ADM0_PCODE":"TH"}},{"arcs":[[-54,174,175,-161,-139,176]],"type":"Polygon","properties":{"Shape_Leng":0.360698889805,"Shape_Area":0.0042527310858,"ADM3_EN":"Nikhom Phatthana","ADM3_TH":"นิคมพัฒนา","ADM3_PCODE":"TH210801","ADM2_EN":"Nikhom Phatthana","ADM2_TH":"นิคมพัฒนา","ADM2_PCODE":"TH2108","ADM1_EN":"Rayong","ADM1_TH":"ระยอง","ADM1_PCODE":"TH21","ADM0_EN":"Thailand","ADM0_TH":"ประเทศไทย","ADM0_PCODE":"TH"}},{"arcs":[[-49,-61,-55,-177,-138,-143,-51]],"type":"Polygon","properties":{"Shape_Leng":0.35835246626,"Shape_Area":0.00484759472907,"ADM3_EN":"Map Kha","ADM3_TH":"มาบข่า","ADM3_PCODE":"TH210802","ADM2_EN":"Nikhom Phatthana","ADM2_TH":"นิคมพัฒนา","ADM2_PCODE":"TH2108","ADM1_EN":"Rayong","ADM1_TH":"ระยอง","ADM1_PCODE":"TH21","ADM0_EN":"Thailand","ADM0_TH":"ประเทศไทย","ADM0_PCODE":"TH"}},{"arcs":[[-162,-176,177,178,-164]],"type":"Polygon","properties":{"Shape_Leng":0.345563046815,"Shape_Area":0.0044945007167,"ADM3_EN":"Phana Nikhom","ADM3_TH":"พนานิคม","ADM3_PCODE":"TH210803","ADM2_EN":"Nikhom Phatthana","ADM2_TH":"นิคมพัฒนา","ADM2_PCODE":"TH2108","ADM1_EN":"Rayong","ADM1_TH":"ระยอง","ADM1_PCODE":"TH21","ADM0_EN":"Thailand","ADM0_TH":"ประเทศไทย","ADM0_PCODE":"TH"}},{"arcs":[[-58,-70,-66,179,-178,-175]],"type":"Polygon","properties":{"Shape_Leng":0.368275281657,"Shape_Area":0.00595421965373,"ADM3_EN":"Makham Khu","ADM3_TH":"มะขามคู่","ADM3_PCODE":"TH210804","ADM2_EN":"Nikhom Phatthana","ADM2_TH":"นิคมพัฒนา","ADM2_PCODE":"TH2108","ADM1_EN":"Rayong","ADM1_TH":"ระยอง","ADM1_PCODE":"TH21","ADM0_EN":"Thailand","ADM0_TH":"ประเทศไทย","ADM0_PCODE":"TH"}}]}}}