{"type":"Topology","arcs":[[[1634,6392],[261,-247],[108,-102],[30,-19],[97,-34]],[[2130,5990],[-8,-21],[-10,-8],[8,-6],[0,-23],[-5,-8],[10,-31],[8,-9],[-1,-18],[7,-2],[4,-19],[15,1],[8,-10],[-4,-15],[0,-45],[-5,-12],[8,-4],[10,-26],[19,-25],[11,-9],[-3,-14],[12,-18],[9,-38],[-2,-16],[6,-11],[-2,-24],[34,-6],[36,-31],[31,-30],[24,-20],[48,-66],[34,-18],[-20,-36],[34,-27],[15,-29],[-8,-30],[-19,-22],[-4,-15],[-15,5],[-13,-18],[-7,-30]],[[2395,5206],[-11,-1],[-26,7],[-6,15],[-19,4],[-25,13],[-14,25],[-32,33],[-10,19],[-15,5],[-13,14],[5,12],[-20,8],[-4,12],[-13,8],[-6,19],[-21,14],[-8,-3],[-25,5],[6,13],[-23,6],[-10,-14],[-13,6],[8,5],[-10,8],[-5,14],[-13,4],[1,20],[-23,1],[-8,7],[-5,-13],[-13,8],[-14,0]],[[2010,5480],[-2,20],[4,13],[-16,3],[6,13],[-15,14],[9,41],[-17,7],[-10,23],[-17,4],[8,26],[20,18],[-1,11],[-27,9],[-8,-10],[9,-7],[-30,-11],[1,19],[13,13],[-2,15],[-16,5],[-10,-8],[-9,9],[3,14],[-25,-10],[-27,-7],[-6,4],[-24,41],[-19,-7],[-13,5],[-10,19],[-22,10],[3,16],[27,-4],[-6,15],[2,17],[-8,19],[-9,4],[5,16],[9,-8],[11,2],[-8,17],[-13,9],[-26,-4],[-25,-41],[-1,15],[-16,34],[-17,-8],[-2,11],[18,11],[7,28],[0,17],[12,10],[-43,27],[1,9],[21,19],[-1,17],[-10,-18],[-14,1],[-13,16],[-18,12],[-13,21],[-23,1],[-6,32],[12,16],[-16,7],[3,26],[-15,12],[-9,-4],[-22,9],[0,11],[-12,22],[-4,47],[-11,9],[-9,-28],[-11,8],[5,22],[8,19],[-13,-1],[-20,-35],[-13,-7],[-11,8],[14,50],[-31,-6],[-2,24],[-12,5],[-14,-6],[-9,28],[-9,-5],[-12,10],[-7,16],[-1,22],[-16,25],[9,23],[-12,17],[-22,-17],[-20,0],[-9,7],[8,21],[-8,3]],[[1310,6447],[11,18],[14,9],[2,21],[20,8],[-1,16],[13,4],[35,35],[13,26],[7,5]],[[1424,6589],[210,-197]],[[1889,8316],[-8,-25],[2,-14],[-19,-35],[-5,-16],[6,-7],[14,4],[1,-14],[-21,-34],[9,-11],[5,-22],[-6,-8],[-14,-3],[3,-15],[10,-19],[-2,-28],[15,-17],[-8,-16],[10,-10],[15,-25],[-23,-5],[-13,-17],[-15,-5],[-2,-11],[-22,-18],[-13,-19],[-49,10],[-9,-7],[-71,28],[-31,-13],[-8,-21],[-15,-5],[-15,-19],[-8,-2],[-27,4],[-3,-7],[-20,4],[-21,-15],[-3,-20],[-21,-7],[-4,4],[-18,-7],[-10,-19],[-19,-12],[4,-28],[-9,-8],[11,-5],[-23,-31],[7,-8],[-10,-17],[-23,-3],[-16,-12],[-2,13],[-21,-14],[2,-11],[-8,-11],[-32,-4],[-12,3],[-18,-20],[-9,-5],[11,-26],[-14,-10],[-14,-30],[10,2],[-1,-20],[-18,3],[0,-11],[-19,-1],[-3,-17],[9,-12],[-16,-14],[-24,25],[-11,-11],[1,14],[-28,13],[-5,-9],[-18,-6],[-13,7],[-4,-15],[-19,1],[-1,-12],[-17,2],[-30,-21],[-1,-11],[-9,-2],[3,-12],[-10,-7],[6,-31],[-4,-13],[5,-26],[-13,-5],[0,-27],[9,-19],[-16,-3],[-4,-13],[-22,3],[1,-9],[-16,-25],[8,-12],[19,11],[8,-4],[1,-22],[15,-22],[9,-6],[-13,-18],[16,-15],[0,-18],[-12,-9],[1,-15],[11,-2],[14,8],[11,-12],[2,-15],[-17,-8],[-12,-14],[9,-16],[12,7],[16,1],[12,-5],[6,-12],[-9,-3],[-15,6],[1,-14],[15,-9],[-2,-27],[-8,0],[-9,-38],[-37,-22],[-13,-50],[2,-9]],[[1043,6949],[10,-35],[18,-15],[7,-14],[11,-40],[-12,-8],[-13,30],[-18,22],[-153,97],[-20,6],[-176,17],[-22,12],[-62,95],[-73,114],[-21,24],[-63,45]],[[456,7299],[17,29],[22,-7],[3,-14],[-7,-15],[14,-11],[12,15],[9,-4],[8,-17],[-5,-11],[20,2],[43,-5],[16,24],[9,-3],[-3,-11],[11,-25],[13,-13],[28,8],[42,21],[20,3],[2,20],[-12,16],[9,15],[-3,13],[-18,-9],[-20,-1],[-16,12],[13,15],[-3,40],[-10,12],[4,8],[-19,27],[-15,2],[-5,20],[-14,19],[0,30],[-3,8],[-18,13],[1,28],[-4,3],[18,16],[6,0],[16,33],[-2,42],[-10,7],[8,26],[27,25],[6,22],[-3,18],[2,22],[15,30],[4,30],[-1,22],[15,22],[-1,17],[7,28],[-6,31],[17,12],[-8,22],[1,27],[4,11],[-8,30],[15,5],[32,2],[15,27],[14,12],[-5,11],[-2,34],[17,5],[36,48],[49,24],[47,31],[33,9],[42,5],[45,13],[35,3],[35,15],[28,3],[26,-10],[25,5],[26,-5],[39,3],[73,14],[67,8],[22,4],[44,3],[25,0],[58,6],[20,6],[67,-15],[37,-5],[43,-3],[63,10],[16,-1],[24,8],[41,0],[33,-8]],[[1310,6447],[-30,8],[-15,-2],[-23,17],[-6,9],[4,19],[-27,5],[-14,-5],[-6,-12],[-15,6],[-13,-33],[-9,-2],[6,-20],[13,-18],[10,-7],[6,-16],[-5,-6],[8,-16],[-7,-19],[10,-12],[-11,-2],[8,-7],[3,-19],[7,7],[6,-16],[-2,-16],[7,-2],[-15,-32],[10,-10],[-16,-34],[-1,-9],[-12,-8],[-2,-25],[-22,-15],[-58,24],[-38,-44],[-12,-23],[-8,-23],[-4,6],[-16,-13],[-14,-45],[-20,-13],[9,-11],[-24,-11],[6,-14],[-9,-15],[-21,0],[-17,-47],[-2,-31],[-9,-1],[-11,-13],[0,-27],[-11,-30],[42,-10],[51,9],[-3,-32],[-15,6],[-6,-18],[-10,5],[-17,-47],[-33,-27],[-11,-3],[-12,-30],[-7,-1],[-17,-39],[-17,-25],[-2,-14],[10,-17],[6,-28],[-5,-24],[-8,-4],[-21,-32],[-13,-39],[-1,-20],[6,-50],[-19,-2],[-9,-8],[-9,-24],[-9,-2],[-10,-31],[-31,-1],[4,-18],[-12,-14],[-12,-5],[-5,-19],[-16,-9],[-31,-4],[-22,-12]],[[634,5235],[-16,-6],[-21,19],[-13,4],[22,22],[16,32],[10,37],[-1,40],[13,14],[-8,25],[6,38],[5,12],[-4,33],[15,42],[-2,16],[5,27],[-3,39],[9,80],[-7,42],[13,21],[2,19],[14,60],[7,1],[0,18],[-6,1],[-11,18],[8,15],[-11,18],[4,11],[-8,18],[-17,7],[0,16],[-19,17],[-34,-8],[-6,8],[-21,5],[-3,9],[-17,0],[-7,7],[-14,-4],[-4,9],[-25,0],[-2,11],[-17,-5],[-3,9],[-12,2],[30,63],[-2,14],[-24,44],[-36,35],[-2,15],[21,69],[1,13],[23,31],[-4,27],[8,46],[15,17],[3,16],[13,23],[-22,4],[-12,21],[-4,15],[-15,7],[-10,17],[-14,-1],[0,10],[-16,11],[-9,17],[2,10],[-17,19],[-7,16],[-9,40],[-17,20],[-3,12],[-9,2],[-10,18],[-29,19],[-13,4],[1,7],[-12,19],[15,37],[-3,16],[22,-4],[3,17],[7,2],[5,37],[27,24],[-8,28],[22,11],[3,16],[-11,6],[11,17],[-12,5],[0,12],[-22,8],[1,-24],[-15,0],[2,26],[-5,7],[6,11],[1,21],[-5,4],[-9,-11],[-13,-5],[3,-8],[-31,-4],[18,12],[5,17],[-4,17],[-10,14],[10,26],[-4,19],[14,6],[8,29],[11,4],[-10,7],[7,15],[-2,13],[-12,8],[21,22],[-9,9],[23,18],[11,2],[-2,24],[-14,15],[16,21],[9,2],[8,-10],[11,10],[-5,18],[43,-12],[27,10]],[[1043,6949],[20,-18],[361,-342]],[[1889,8316],[7,5],[6,38],[-2,14],[11,31],[-1,13],[6,25],[32,23],[20,-2],[23,22],[14,-8],[12,-19],[12,5],[13,-4],[11,5],[17,-1],[30,-15],[6,-15],[15,-5],[34,9],[14,-10],[9,2],[17,-13],[9,-19],[16,-7],[16,18],[12,6],[6,-7],[43,11],[17,-9],[14,2],[19,29],[-17,20],[-24,11],[6,5],[-10,25],[-9,12],[10,30],[9,12],[-3,44],[-17,31],[-1,34],[-7,20],[9,23],[1,22],[-8,44],[7,18],[21,7],[20,16],[-4,23],[12,15],[-4,31],[23,17],[-6,19],[9,14],[3,16],[-13,13],[-2,13],[-21,7],[-17,-13],[-30,-36],[-27,-18],[-22,-23],[-14,0],[-13,8],[-14,-3],[-21,10],[-12,-3],[-16,18],[-16,11],[-15,3],[-30,-9],[-26,6],[-22,-13],[-10,4],[9,12],[9,34],[32,37],[30,27],[9,29],[4,49],[-19,43],[-3,33],[2,15],[-4,20],[4,41],[5,21],[22,30],[5,39],[5,16],[11,12],[9,24],[3,31],[7,16],[13,79],[14,-12],[14,-4],[19,3],[23,-16],[34,6],[26,-7],[17,-15],[13,-21],[24,-18],[18,-23],[3,-17],[39,-20],[27,3],[17,-11],[56,8],[19,-1],[13,-7],[42,-1],[44,16],[24,4],[22,10],[40,6]],[[2727,9415],[-8,-15],[4,-11],[-6,-10],[4,-23],[12,-10],[-1,-33],[-12,-49],[2,-35],[-8,-13],[-2,-20],[10,-18],[-15,-5],[-1,-7],[41,-16],[3,-14],[-5,-18],[18,-11],[9,-30],[-12,-32],[-16,-12],[0,-6],[19,-21],[-4,-17],[7,-25],[-8,-12],[4,-14],[-9,-11],[-2,-21],[-28,-11],[-10,-11],[5,-20],[-1,-17],[-8,-16],[4,-12],[14,-18],[10,-59],[8,-31],[-4,-31],[2,-23],[-17,-22],[-4,-21],[6,-20],[-18,-15],[-2,-11],[24,-14],[-1,-12],[-15,-16],[-3,-18],[17,-24],[0,-20],[20,-11],[8,-15],[-7,-18],[-23,-17],[4,-23],[-8,-26],[10,-11],[-4,-35],[16,-39],[1,-12],[-7,-37],[11,-21],[6,-21],[4,-33],[0,-29],[10,-39],[-9,-22],[-22,-16],[-9,-43],[22,-32],[-2,-7],[-23,-26],[-4,-10],[-19,-11],[-2,-9],[-17,-7],[-3,-20],[-7,-7],[-18,-4],[-10,-17],[-24,-16],[-1,-13],[-20,-18],[-5,-14],[-18,-8],[-31,-4],[-21,-5],[-42,-18],[-20,-16],[-15,-4],[-5,-10],[-21,-6],[-18,-16],[-16,-3],[-1,-21],[-17,-15],[-22,3],[-34,-8],[3,-9],[-22,-26],[-21,-7],[-25,-2],[-17,-8],[-14,-30],[-20,-8],[-11,-15],[-19,-17],[-10,4],[-18,-17],[-43,-21],[-1,-23],[-7,-6],[8,-17],[0,-31],[12,-26],[-35,-23],[4,-6],[-56,-16],[-10,-25],[15,-4],[14,-48],[-6,-14],[10,-6],[6,-27],[11,-18],[7,-27],[-4,-9],[7,-10],[-10,-35],[5,-3],[7,-23],[-3,-11],[12,-4],[7,-11],[-1,-13],[-13,-3],[-2,-21],[-12,-4],[-2,-24],[8,-25],[-25,-2],[-15,-28],[1,-30],[-19,-29],[1,-23],[-9,-15],[23,-3],[1,-23],[16,-16],[-4,-9],[14,-11]],[[2055,6796],[-27,-55],[-10,-33],[-32,-8],[-8,12],[-23,11],[-10,-22],[-17,11],[-14,-1],[-64,-10],[-57,4],[-16,-22],[21,-16],[-8,-44],[-22,-20],[-2,-13],[-28,-40],[-19,0],[-3,-13],[5,-27],[-1,-17],[-22,-31],[-9,-4],[-28,-34],[-9,-15],[-18,-17]],[[2727,9415],[27,27],[2,48],[8,50],[11,31],[11,20],[4,32],[-13,12],[-15,5],[-16,18],[-2,18],[-9,13],[5,34],[-1,17],[5,13],[14,15],[-1,21],[11,13],[-1,15],[19,19],[21,13],[6,18],[-3,22],[8,34],[8,12],[26,16],[8,15],[29,27],[37,6],[45,-9],[19,-12],[31,-32],[2,-8],[-6,-24],[16,-43],[27,-13],[5,-35],[18,-26],[18,-9],[44,-9],[19,-9],[21,-55],[2,-18],[-6,-47],[-7,-13],[-3,-24],[-12,-23],[-5,-24],[2,-14],[23,-51],[18,-18],[6,-13],[20,-13],[13,-1],[19,9],[42,-8],[14,-5],[23,3],[19,11],[35,-1],[20,-6],[23,0],[13,-18],[47,-27],[28,-1],[19,15],[22,7],[52,36],[18,-5],[15,2],[28,17],[26,0],[13,-11],[15,-65],[16,-37],[-4,-9],[1,-24],[-10,-17],[-2,-26],[13,-4],[39,13],[22,16],[31,-4],[17,8],[7,15],[16,16],[22,2],[40,-31],[35,-15],[13,-11],[17,-37],[-1,-27],[35,-15],[21,-16],[16,-2],[39,14],[43,24],[11,13],[27,10],[16,16],[29,8]],[[4236,9289],[-8,-25],[0,-36],[5,-30],[-3,-37],[-6,-15],[-15,-8],[-12,-17],[-2,-18],[5,-12],[10,-3],[8,-25],[4,-30],[-3,-12],[11,-7],[-1,-21],[-6,-14],[-7,-47],[-14,-19],[-16,-7],[-9,-12],[-10,0],[-19,-16],[-38,-6],[-11,-20],[2,-28],[-12,-7],[-7,-32],[2,-26],[-5,-12],[-11,-70],[-20,-28],[4,-23],[20,-9],[7,-13],[-3,-14],[25,-14],[-12,-20],[11,-5],[-2,-14],[-8,-3],[-8,-25],[16,-7],[-3,-26],[-10,-10],[4,-10],[-14,-34],[21,-73],[-9,-24],[2,-33],[5,-18],[0,-23],[5,-15],[-2,-16],[-18,-15],[-49,-17],[-17,-20],[-38,-15],[-16,-30],[-1,-17],[-19,-7],[-11,-25],[-14,-14],[-32,2],[-17,-14],[-6,-15]],[[3859,8033],[-16,-9],[0,-12],[-13,-8],[-21,-3],[-19,-16],[-20,-4],[-1,-50],[3,-16],[-10,-28],[-11,-8],[-13,-29],[-8,-10],[-4,-31],[-11,-10],[0,-12],[-17,-11],[-13,-2],[-14,-13],[-17,-6],[-16,-27],[0,-11],[29,-32],[2,-12],[-6,-31],[-23,-2],[14,-19],[-15,-17],[-12,-6],[0,-9],[-26,-15],[-18,-3],[-10,-21],[-19,-7],[-9,-23],[-26,4],[-12,-16],[0,-9],[18,-5],[-3,-11],[-13,-14],[-36,-25],[-1,-20],[-8,-5],[-4,-19],[-20,-15],[-18,8],[-18,-7],[1,-10],[-44,2],[-11,-16],[-20,-19],[-22,7],[-8,-9],[-11,8],[-13,0],[-20,9],[-15,-15],[-17,4],[-17,-2],[-4,-15],[-26,-1],[-11,-5],[-41,-29],[2,-11],[-11,-18],[1,-11],[-11,-4],[-5,-17],[-21,-3],[10,-11],[-3,-14],[-13,1],[2,-8],[-17,2],[5,-9],[-37,-16],[0,-23],[-13,-11]],[[3014,7142],[-13,-1],[-2,-14],[-7,12],[-12,-10],[-16,2],[-3,-7],[-12,6],[1,-10],[-10,-3],[-6,-25],[-22,-3],[-3,-8],[-19,-10],[-16,3],[-18,-8],[3,-4],[-9,-27],[-11,-13],[7,-10],[-3,-39],[-12,-8],[5,-11],[-12,-6],[13,-10],[0,-21],[-10,1],[-21,-20],[-14,-4],[-30,8],[-29,-7],[-17,24],[-30,25],[-34,15],[-9,-2],[-22,-24],[-15,3],[-11,-21],[-15,-16],[-30,10],[-5,-15],[-21,4],[-17,-17],[-1,-20],[-40,0],[-8,-8],[-5,-27],[-11,-16],[-17,-11],[-21,-4],[-23,2],[-15,-15],[-24,14],[-15,-50],[-25,6],[-25,-8],[-22,8],[-13,14],[-45,5],[-35,-23],[-23,5],[-23,15],[0,6],[-46,11],[-15,11]],[[2130,5990],[5,21],[-9,0],[7,19],[-10,2],[-2,33],[15,2],[-2,29],[22,-9],[2,-11],[32,1],[9,-7],[27,-4],[15,17],[7,25],[17,6],[6,-9],[35,-13],[63,0],[27,-3],[21,-11],[9,24],[20,0],[4,13],[-1,22],[6,40],[-3,41],[10,-1],[28,29],[-4,33],[9,17],[26,23],[32,-13],[8,14],[-4,8],[14,14],[22,-1],[13,-8],[7,24],[31,-7],[11,-11],[10,4],[35,-18],[-14,-25],[8,-1],[6,11],[18,-7]],[[2718,6303],[-17,-15],[7,-12],[15,-6],[15,-26],[3,-14],[29,-20],[8,6],[-9,-29],[18,3],[9,-21],[20,-4],[9,-20],[6,-1],[13,-23],[6,6],[13,-22],[-4,-29],[6,0],[-7,-26],[11,-5],[8,-29],[-10,-6],[3,-13],[-15,-14],[6,-13],[-8,-2],[3,-15],[7,0],[-1,-15],[13,-4],[1,-28],[7,1],[0,-24],[-12,-9],[4,-9],[-1,-22],[-10,-21],[9,-18],[-9,-1],[1,-16]],[[2865,5787],[-3,-6],[17,-1],[7,-8],[-5,-8],[18,0],[3,-11],[31,2],[8,-5],[-4,-32],[23,-9],[-1,-6],[17,-4],[-5,-13],[10,-22],[-11,-13],[26,-23],[22,-32],[14,7],[-1,-23],[14,-6],[14,-16],[15,5],[14,-5],[5,6],[18,-27],[0,-7],[16,-1],[25,30],[14,-1],[11,-16],[17,-3],[14,-8],[17,-2],[9,-16],[16,14],[-7,9],[36,-2],[19,-13],[-2,-36],[16,-17],[-15,-15],[16,-10],[5,-13],[11,5],[14,-5],[-11,-13],[4,-15],[13,-5],[17,-14],[3,-9],[1,-34],[-15,-17],[-8,3],[-9,-17],[12,-9],[-5,-5],[2,-17],[15,-15],[-1,-27],[-11,-30],[-24,-19],[3,-20],[-4,-12],[6,-18],[-14,-41],[-15,3],[-10,-22],[-12,4],[-9,-23],[-24,-2],[-5,-15],[-26,6],[-12,-29],[-31,-32],[-14,-1],[-21,-51],[-40,-2],[-1,-9],[-14,-3],[-21,3],[-28,-10],[-28,0],[-10,-8],[-7,-30],[-31,11],[-27,-1],[-9,-42],[-20,-18],[-28,-7],[-22,-23],[-35,-15],[-37,-9],[-14,-7]],[[2766,4764],[-15,-3],[-9,-13],[-20,-10],[-26,-17],[-7,-11],[-38,-26],[-26,-14]],[[2625,4670],[0,28],[-5,11],[-51,7],[-6,13],[5,5],[-8,15],[3,9],[-10,20],[3,34],[8,3],[12,15],[2,18],[-6,20],[-12,9],[2,20],[-7,0],[6,65],[-4,13],[-23,21],[-4,14],[-19,-2],[1,33],[7,4],[-3,12],[6,12],[-7,16],[11,19],[3,16],[-22,25],[-41,27],[-37,15],[-34,19]],[[2010,5480],[2,-11],[17,-21],[-4,-9]],[[2025,5439],[-29,14],[-35,2],[-16,-28],[-25,-22],[-3,-23],[15,-11],[-1,-18],[-19,-27],[-2,-19],[6,-6],[14,6],[-1,-13],[-26,-4],[-8,-13]],[[1895,5277],[-10,1],[-10,-24],[-24,-2],[-10,10],[-44,11],[2,21],[-13,3],[-18,13],[-18,23],[-9,2],[-15,-11],[-31,14],[-9,-14],[-33,-2],[-15,-6],[-4,-22],[-35,0],[-2,-53],[-6,-1],[-2,-24],[-23,-10],[-3,-22],[-12,-27],[-3,-16],[6,-18],[0,-41],[-32,6],[-6,-20],[13,-17],[-12,-16],[0,-25],[13,-24],[24,-8],[-1,-18],[-22,-65],[-31,-36],[-17,3],[-44,20],[-17,1],[-3,-21],[-17,-13],[-15,14],[-13,-4],[-20,20],[-13,-4],[-12,11],[-8,-2],[1,-12],[-12,-14],[-12,-1],[-8,18],[-13,40],[1,13],[-18,8],[-81,40],[-2,-31],[-15,-40],[-2,-12],[-15,-11],[-1,-11],[-34,-20],[-25,-35],[-11,-44],[-1,-21],[-13,-27],[-3,-41],[2,-12],[-13,-49],[-23,1],[-36,11],[-3,-3],[-30,20],[0,5],[-44,-1],[-2,8],[-12,0],[-15,10],[-45,21],[-24,-9],[-21,2],[-18,14],[2,28],[-3,6],[-64,-1],[-11,8],[-12,-1],[-35,5]],[[650,4746],[13,11],[-10,1],[-5,32],[7,9],[-9,19],[7,31],[-15,-7],[6,17],[-8,8],[3,25],[-16,-3],[-10,16],[12,5],[-5,8],[5,11],[-11,30],[5,11],[-21,6],[12,14],[-3,18],[9,-3],[-7,21],[12,3],[-17,31],[13,29],[-8,7],[12,17],[-9,6],[6,44],[6,12],[0,15],[17,39],[-7,6]],[[3014,7142],[8,-14],[14,1],[17,-22],[25,-15],[20,-3],[11,-9],[10,-42],[9,-25],[-4,-9],[8,-36]],[[3132,6968],[-14,-7],[-16,-20],[-11,-30],[-5,-22],[-33,-51],[-25,-3],[-12,-10],[0,-43],[-16,-32],[-5,-21],[-37,-96],[-8,-14],[2,-20],[-15,-26],[-41,-16],[-17,0],[-12,-16],[-12,-2],[-6,11],[-16,-10],[-16,-1],[-16,-24],[-15,-15],[-13,6],[-23,-28],[-5,3],[-19,-15],[-28,-11],[-3,-18],[-23,13],[-4,-11],[8,-3],[10,-24],[12,-16],[33,-23],[8,-10],[-1,-16],[-8,-15],[1,-29],[-13,0]],[[4073,2776],[10,-22],[15,-11],[13,-27],[-1,-34],[29,-44],[1,-12],[-16,-47],[-1,-27],[10,-7],[-3,-9],[-45,-9],[-26,-24],[-2,-34],[6,-14],[31,-22],[-6,-18],[15,-11],[21,-8],[13,33],[74,-25],[20,182],[158,0],[76,-2],[31,-3],[-5,-23],[54,-9]],[[4545,2549],[-17,-22],[8,-10],[1,-20],[-14,-21],[14,2],[-7,-17],[9,-22],[-13,-13],[0,-24],[-6,-15],[-1,-34],[-7,-17],[2,-14],[10,-14],[-8,-18],[1,-39],[10,-4],[-12,-9],[11,-28],[-15,-17],[16,-8],[13,5],[6,-26],[13,-16],[-11,-19],[0,-12],[-10,-14],[3,-19],[-5,-8],[10,-13],[-6,-15],[6,-18],[23,-12],[-9,-24],[1,-10],[14,0],[4,-25],[-18,-11],[-1,-8],[14,-7],[2,-13],[-22,-22],[-2,-10],[8,-20],[0,-14],[-7,-16],[0,-28],[8,-8],[-16,-8],[18,-30],[-9,-35],[5,-8],[-8,-19],[2,-10],[-13,-13],[-11,2],[6,-19],[-11,-10],[2,-37],[-8,-2],[2,-16],[-14,-14],[4,-49],[14,-16],[-4,-21],[-14,-5],[7,-22],[-15,-17],[-15,-10],[-12,-30]],[[4471,1413],[-16,6],[-17,-25],[-18,3],[-15,-10],[-29,7],[-17,-8],[-7,-14],[-16,-8],[-27,45],[-37,39],[-33,22],[-17,21],[-3,43],[3,30],[-13,31],[5,29],[21,15],[3,16],[-9,-4],[-225,-2],[-19,39],[2,27],[17,24],[-5,13],[-15,6],[-18,26],[-12,10],[-19,-37],[-8,-9],[-42,-12],[-13,9],[-8,-13],[-15,-59]],[[3849,1673],[-27,33],[-27,38],[-6,16],[-20,25],[-5,13],[-5,38],[20,0],[9,-5],[6,-18],[25,20],[2,17],[-5,13],[-2,23],[-16,12],[15,33],[-21,7],[16,42],[-11,7],[2,16],[-18,16],[3,28],[-7,2],[4,19],[11,15],[-14,36],[-10,-4],[-3,11],[-17,9],[-26,30],[-21,-4],[-1,21],[-10,6],[-9,20],[-15,12],[8,6],[-150,55],[-20,-2],[-120,-59]],[[3384,2220],[11,23],[-7,19],[2,15],[9,11],[-1,9],[-19,19],[4,86],[36,-19],[30,39],[-5,13],[-39,18],[8,8]],[[3413,2461],[11,6],[13,-2],[11,9],[10,-4],[20,5],[3,18],[10,20],[24,10],[18,3],[15,10],[2,14],[18,1],[10,8],[14,1],[17,-13],[21,15],[4,23],[24,3],[14,14],[21,0],[0,16],[7,6],[5,40]],[[3705,2664],[10,1],[36,-7],[2,51],[24,3],[10,-14],[25,5],[38,19],[10,0],[8,15],[-6,11],[23,-1],[2,20],[7,-11],[25,-7],[13,3],[27,-6],[5,7],[41,4],[36,23],[32,-4]],[[3849,1673],[-5,-4],[-26,-47],[0,-12],[-9,-10],[-6,-18],[-11,-7],[-2,-18],[-36,-31],[1,-31],[-15,-16],[-7,-17],[-61,-19],[-16,-14],[0,-43],[8,-24],[-12,-27],[-31,-3],[5,-15],[-18,-23],[0,-12],[-9,-2],[2,-11],[-17,-21],[-16,-9],[-6,-47],[-23,-14],[-15,17],[-24,-17],[-8,-16],[-14,6],[-3,-8],[-14,8],[-21,-10],[-8,-10]],[[3432,1148],[-11,-8],[-6,6],[-29,2],[-12,45],[-33,-7],[-5,19],[-13,4],[-5,9],[5,18],[-29,27],[0,7],[-14,3],[-11,-9],[1,32],[-6,4],[3,28],[-4,10],[12,7],[10,14],[0,16],[15,80],[-1,78]],[[3299,1533],[3,84],[-1,18],[-9,29],[2,35],[-11,9],[3,36],[-6,22],[2,14],[17,63],[5,4],[41,-2],[16,8],[14,24],[-1,25],[-11,18],[6,38],[7,9],[3,36],[16,5],[4,17],[-20,26],[21,36],[-19,41],[0,22],[5,23],[-6,8],[4,39]],[[3413,2461],[-8,6],[-3,19],[-8,-7],[-4,14],[-15,4],[1,7],[-13,4],[-12,15],[-30,-8],[-9,19],[-15,1],[-19,9],[0,20],[-6,3],[-27,-8],[-14,-17]],[[3231,2542],[-11,7],[2,14],[-8,6],[-14,-5],[-27,9],[1,13],[-24,13],[3,11],[-13,-2],[-11,13],[-14,43],[16,10],[4,10],[-4,19],[-8,2],[-9,15],[1,10],[-13,40],[4,8],[-7,15],[-12,7],[7,12],[-12,18],[-17,11],[-6,23],[-18,2],[-1,12],[-9,-9],[-2,18],[-25,-4],[-9,19],[4,14],[-11,28],[4,7],[-13,6],[10,14],[6,-6],[6,19],[-4,10],[-31,10],[4,9],[-17,4],[-17,13],[-5,-5],[-12,9],[-12,-11],[-5,11],[27,76],[-3,6],[14,38],[37,8],[15,13],[27,10],[13,13],[-3,37],[-9,10],[0,16],[-6,2],[-11,24],[3,12],[-7,18],[0,17],[-8,1],[-6,26],[-26,6],[-15,20],[-5,28]],[[2939,3415],[8,3],[20,-10],[-2,-10],[16,5],[11,-24],[7,9],[12,-4],[-6,-9],[10,-21],[10,-5],[20,11],[13,-22],[7,6],[21,-1],[17,18],[16,-16],[1,18],[11,15],[33,8],[-1,-20],[15,0],[17,-8],[2,-8],[19,-13],[17,-3],[6,-15],[23,13],[17,-7],[11,15],[30,16]],[[3320,3356],[2,-25],[8,-15],[13,-7],[0,-19],[6,-7],[25,4],[17,-12],[12,-27],[25,2],[28,-15]],[[3456,3235],[-7,-13],[3,-11],[13,-3],[1,-14],[12,-1],[1,-11],[19,-9],[5,-13],[-8,-3],[6,-20],[10,-3],[13,-15],[5,-17],[-4,-7],[26,-38],[10,-1],[-4,-9],[8,-11],[-5,-11],[21,-1],[13,-9],[6,-22],[37,-10],[13,-17],[7,2],[6,-47],[20,-17],[5,-21],[-4,-11],[-14,-5],[7,-22],[-17,-10],[-9,-16],[-16,-9],[-7,-16],[0,-12],[15,-16],[9,-17],[-4,-24],[6,-38],[16,-27],[12,3],[9,-6],[14,7]],[[2939,3415],[-14,21],[-16,-4],[-17,10],[10,9],[-11,7],[-11,18],[-1,12],[7,12],[-22,17]],[[2864,3517],[11,28],[-4,9],[9,4],[5,13],[-7,9],[6,13],[-13,1],[6,15],[-11,-2],[-1,12],[-15,1],[-12,15],[7,17],[-11,19],[-18,4],[-4,15],[-13,2],[-3,13],[-9,-5],[-8,26],[-24,-9],[-19,2],[8,10],[-23,14],[-7,-14],[-9,25],[-10,17],[-21,16],[4,31],[-6,9],[6,13],[-12,12],[-5,-12],[-12,13],[-10,-1],[2,36],[-12,9],[-7,17]],[[2622,3914],[18,1],[7,-16],[23,-9],[3,-13],[9,7],[19,1],[17,-16],[17,-3],[-2,-8],[17,-5],[3,-13],[14,3],[4,-10],[27,0],[18,-12],[9,12],[-3,17],[13,7],[0,18],[20,10],[-2,22],[6,-2],[1,21],[33,22],[5,-9],[17,-4],[13,14],[50,-14],[12,4],[7,-7],[7,15],[27,24],[32,17],[12,-4],[16,19],[25,8],[26,13],[24,33],[25,6],[18,21],[21,4],[20,-2],[6,6],[12,-5],[6,-13],[26,-30],[19,6],[28,-8],[45,-5],[37,-10],[44,6],[25,-5],[0,-7],[54,-9],[11,-9],[6,-23],[30,-12],[3,-13],[27,17],[6,17],[25,17]],[[3660,4006],[9,-8],[1,-27],[-5,-7],[0,-20],[-7,0],[9,-26],[-6,-28],[6,-33],[9,-27],[15,-8],[25,-3],[10,-19],[-1,-18],[5,-28],[-7,-16],[-5,-60],[1,-25],[-24,-31],[-7,-24],[1,-23],[-10,-13],[-26,-20],[-7,-10],[-57,-29],[-23,1],[-12,-28],[-12,-1],[-6,-16],[9,-4],[-7,-13],[-7,4],[-10,-11],[-19,-6],[-9,10],[-5,-6],[-25,14],[-10,-8],[-29,0],[-12,-25],[-12,2],[-18,-21],[-8,1],[-1,-15],[-8,-17],[-15,-8],[-30,0]],[[4471,1413],[6,-11],[-14,-18],[4,-30],[-16,-23],[4,-22],[-6,-31],[-19,-27],[-1,-14],[5,-34],[-4,-16],[-13,-24],[1,-18],[28,-19],[11,-23],[8,1],[15,-22],[-11,-33],[-1,-17],[15,-24],[-8,-17],[5,-11],[17,-8],[14,-25],[3,-13],[14,-15],[4,-12],[-2,-22],[11,-15],[2,-27],[9,-38],[-1,-23],[-16,-59],[-12,-21],[-21,-30],[-8,-24],[-29,35],[-22,10],[-16,11],[-22,36],[-21,12],[-29,28],[-7,11],[-28,31],[-22,12],[-20,-6],[5,-79],[-55,-6],[22,-33],[-33,-4],[1,-4],[-24,-15],[5,-23],[9,-2],[-3,-47],[6,-11],[-17,-4],[-13,8],[-19,-3],[-14,-26],[2,-9],[-15,-8],[0,-16],[-15,-7],[-11,3],[-3,-11],[-14,-7],[-14,4],[-1,10],[-15,-7],[-5,9],[-19,6],[-14,13],[-14,-13],[-19,14],[-20,-7],[-8,4],[-6,23],[11,19],[6,20],[-9,0],[-11,15],[0,15],[-8,-4],[-8,9],[-22,11],[-16,0],[-16,-10],[-3,-9],[-13,22],[2,11],[12,9],[-10,16],[-18,1],[-13,-8]],[[3841,697],[-5,3],[5,24],[18,16],[-33,20],[4,19],[-8,13],[-8,-3],[-11,26],[10,34],[-41,-8],[-3,4],[-25,-2],[-4,5],[2,26],[7,8],[-7,14],[-22,4],[-1,7],[13,12],[25,-5],[3,21],[-17,10],[4,20],[-2,15],[-18,7],[1,8],[-15,-2],[-10,-15],[-28,38],[8,9],[-20,4],[-13,-11],[-13,-1],[-4,25],[-7,12],[-47,20],[-7,-7],[-9,12],[-13,-1],[3,-13],[-13,-13],[-7,8],[-13,-7],[2,14],[-14,-6],[-19,12],[-12,-2],[9,24],[-25,0],[-9,27],[-17,1],[-3,25]],[[3456,3235],[16,0],[19,-12],[13,6],[17,-16],[4,-29],[7,-9],[12,7],[13,-11],[26,7],[16,-9],[5,-20],[9,-4],[21,1],[7,12],[17,-16],[3,9],[18,3],[17,-9],[8,8],[17,4],[17,20],[10,2],[13,-7],[37,18],[7,10],[32,28],[6,27],[-4,25],[4,13],[-6,9],[-4,45],[-33,16],[-6,9],[-11,-1],[-13,12],[-21,12],[-18,3],[-9,-7],[-18,4],[-3,13],[9,20],[21,24],[-7,30],[-11,10],[7,14],[19,8],[25,2],[16,-9],[24,1],[1,12],[32,66],[21,49],[24,10],[9,13],[75,-21],[35,-8],[16,-14],[7,9],[26,-6],[14,5],[47,-16],[11,6],[12,-19],[46,19]],[[4180,3613],[-7,-22],[23,-12],[2,-26],[17,-30],[20,-28],[13,-8],[-1,-25],[-18,-27],[-25,-52],[6,-126],[-26,-60],[-1,-38],[12,-83],[-9,-13],[-19,-6],[-25,1],[-5,-17],[-21,-6],[0,-23],[-8,-4],[-10,-20],[3,-29],[-13,-7],[-3,-51],[2,-15],[12,-18],[-8,-46],[-12,-16],[-6,-30]],[[3660,4006],[14,27],[50,4],[17,27],[28,21],[4,19],[26,-8],[2,16],[29,0],[4,34],[3,5],[15,-11],[11,0],[3,12],[-3,33],[7,8],[22,-15],[16,15],[26,14],[-3,15],[4,14],[23,-7],[1,6],[21,-8],[3,11],[14,-12],[33,7],[3,9],[18,5],[10,-5],[35,8],[15,-9],[5,5],[28,-19],[10,-12],[8,1],[26,-25],[56,-3],[19,25],[30,2],[16,8]],[[4309,4223],[14,-1]],[[4323,4222],[11,-21],[0,-15],[-17,-9],[14,-6],[4,-30],[-7,-4],[15,-18],[-10,-22],[8,-10],[-15,-28],[2,-23],[11,-18]],[[4339,4018],[-11,-6],[-12,-23],[7,-10],[-4,-17],[4,-10],[-12,-2],[-6,-18],[0,-25],[-19,-8],[-10,-13],[2,-18],[-7,-9],[15,-37],[-9,-11],[-5,-18],[7,-1],[-3,-15],[-17,-2],[-8,-8],[-4,-19],[-10,-16],[23,-30],[-13,-17],[0,-15]],[[4247,3670],[-4,-12],[-31,-14],[-7,-15],[-25,-16]],[[9193,7878],[-20,-27],[-42,-46],[-72,-48],[-75,-52],[-64,-42],[-99,-71],[-20,-67],[-14,-38],[-43,-75],[-40,-52],[-83,-47],[-39,-28],[-66,-33],[-45,-235],[-17,-93],[-78,-406],[-12,-60]],[[8364,6458],[-67,37],[-49,12],[-41,54],[-20,20],[-17,9],[-45,1],[-14,4],[-40,23],[-36,24],[-17,16],[-35,50],[-8,15],[-18,49],[-17,35],[-20,28],[-29,17],[-26,18],[-34,13],[-41,30],[-32,9],[-26,2],[-28,-8],[-17,-25],[-13,-10],[-57,-5],[-18,-12],[-24,-4],[-19,11],[-34,11],[-9,-4],[-22,24],[10,11],[-1,18],[-11,38],[-21,18],[-6,12],[16,42],[23,40],[23,46],[19,52],[3,25]],[[7546,7204],[94,133],[30,32],[39,32],[12,18],[8,23],[32,27],[8,13],[-3,39],[-6,28],[-11,98],[0,42],[8,31],[15,27],[22,31],[14,27],[23,37],[26,32],[40,45],[2,15],[-8,16],[-21,10],[4,70],[9,21]],[[7883,8051],[-3,13],[43,16],[23,2],[11,47],[4,5],[5,41],[12,8],[4,22],[57,-1],[9,5],[3,16],[17,17],[2,17],[15,2],[22,8],[17,20],[17,11],[16,5],[21,-1],[-2,23],[22,1],[17,97],[6,11],[39,10],[48,23],[103,69],[37,23],[25,9]],[[8473,8570],[4,-17],[-10,-23],[7,-12],[2,-25],[14,0],[22,-11],[28,1],[21,-30],[82,-92],[19,-24],[14,-13],[0,-16],[17,-3],[1,-14],[29,-9],[9,-14],[13,-4],[18,-38],[31,-32],[23,-30],[52,-36],[238,-186],[48,-38],[38,-26]],[[8473,8570],[37,14],[53,38],[44,14],[39,18],[4,-16],[16,-22],[25,-13],[12,12],[30,8],[9,15],[20,20],[17,7],[57,0],[71,-6],[3,-9],[-15,-59],[42,-31],[13,-5],[29,-5],[47,-11],[7,12],[-11,8],[-26,40],[-8,35],[6,45],[-25,-6],[-20,11],[3,23],[13,25],[23,1],[10,-8],[37,0],[22,-8],[20,7],[5,-22],[-10,-18],[14,-8],[18,9],[11,-8],[-2,-17],[13,-2],[4,-41],[8,-2],[24,14],[27,3],[-10,15],[-5,34],[-15,16],[-15,0],[-19,10],[-27,6],[-8,6],[-8,20],[-33,22],[-4,34],[-10,22],[-5,25],[-7,12],[2,17],[30,44],[20,12],[24,35],[41,10],[5,-15],[11,22],[7,4],[68,-5],[6,20],[23,2],[10,15],[13,0],[7,-13],[9,0],[18,-40],[-2,-19],[8,-7],[-2,-18],[8,-18],[-1,-13],[12,-14],[31,-18],[6,1],[6,23],[38,11],[18,18],[43,-16],[18,-24],[38,-34],[11,0],[4,14],[-6,22],[17,24],[20,-4],[18,17],[7,15],[19,2],[9,-15],[14,-3],[10,8],[17,1]],[[9678,8915],[-20,-26],[1,-19],[-18,-30],[-20,-25],[4,-19],[-5,-43],[8,-54],[-7,-16],[15,-21],[-6,-16],[-19,-21],[-6,-25],[-8,-15],[7,-25],[0,-16],[-15,-28],[0,-30],[23,-39],[2,-12],[-6,-29],[27,-20],[9,-27],[-10,-29],[4,-7],[6,-35],[11,-20],[21,-14],[0,-8],[10,-31],[-1,-16],[5,-23],[13,1],[21,-11],[-6,-31],[-17,-18],[-11,4],[-14,-6],[-21,0],[-33,-7],[-17,-20],[-2,-15],[-26,-17],[-19,-28],[-11,-2],[-36,18],[-17,12],[-16,2],[-28,-15],[1,-24],[-15,-17],[-17,-12],[-27,-7],[-41,0],[-21,17],[-15,1],[-15,-12],[-61,-60],[-28,-28],[-18,-23]],[[7883,8051],[-27,-9],[-7,2],[-6,-11],[-13,-4],[-10,14],[-20,-4],[-9,10],[-7,-7],[-11,13],[-18,-8],[-25,19],[-13,-8],[-4,-11],[-12,-5],[-16,-16],[-19,1],[-3,14],[-18,2],[-28,-7],[-9,6],[-11,-9],[-11,-1],[-6,-53],[-3,-2],[-58,10],[-11,4],[-30,2],[-11,6],[-78,14],[-62,15],[-25,0],[-67,9],[-28,2],[-38,-3],[-19,-4],[-7,-12],[-58,1],[-91,-16],[-84,-31],[-30,-8],[-43,-8],[-11,-7],[-29,-39],[-45,-82],[-19,-26],[-24,-41],[-10,-21]],[[6699,7742],[-31,15],[-17,1],[-9,-6],[-19,-23],[-39,5],[-79,29],[-25,17],[-10,11],[-22,50],[-19,23],[-14,34],[1,32],[-5,9],[6,15],[-1,25],[2,75],[3,20],[-13,29],[7,27],[-7,8],[-37,-3],[-16,6],[-26,22],[-18,35],[-18,55],[0,19],[11,19],[6,23],[-1,26],[-5,16],[-50,28],[-33,11],[-17,14],[-10,16],[-3,19],[1,33],[6,12],[1,24],[-4,8],[3,32],[-5,41],[4,21],[-6,23],[0,20],[6,16],[-5,8],[9,11],[4,-7],[23,31],[-15,14],[-27,3],[-11,21],[5,9],[-4,19],[10,6],[7,18],[-22,18],[0,8],[17,29],[-8,28],[2,13],[-5,14],[-2,39],[-6,8],[-20,-4],[-23,-10],[-58,-33],[-22,-10],[-49,6],[-14,-5],[-20,1],[-16,13],[-4,24],[-12,23],[-19,22],[-63,58],[-7,36],[5,41],[-8,48],[3,40],[24,19],[14,20],[13,27],[3,19],[-10,31]],[[5886,9330],[33,-1],[21,9],[42,50],[34,35],[23,14],[26,7],[25,-3],[30,-13],[33,-33],[23,-9],[62,-8],[62,-19],[35,-3],[13,6],[30,29],[51,54],[77,59],[27,16],[68,34],[42,18],[33,22],[20,25],[20,50],[16,19],[34,20],[47,16],[43,11],[29,2],[28,-12],[43,-46],[50,-75],[55,-70],[37,-24],[17,-8],[20,-3],[13,5],[20,15],[17,26],[18,52],[15,25],[14,16],[48,28],[23,8],[11,-15],[1,-23],[6,-18],[23,-41],[24,-20],[20,4],[44,43],[6,2],[34,-22],[26,-12],[61,-34],[52,-36],[25,-19],[8,-11],[8,-25],[0,-17],[-18,-39],[-8,-26],[4,-19],[15,-13],[54,-25],[15,-2],[29,9],[24,3],[41,14],[33,6],[36,18],[16,2],[25,16],[44,4],[22,13],[93,8],[42,-1],[33,3],[22,-9],[47,-9],[19,0],[16,-5],[32,6],[34,10],[30,17]],[[8352,9411],[12,-79],[16,-86],[7,-57],[2,-46],[-6,-43],[4,-48],[15,-99],[13,-45],[-6,-37],[8,-27],[6,-52],[24,-48],[9,-39],[18,-44],[1,-16],[-3,-59],[1,-16]],[[8352,9411],[16,13],[24,33],[21,50],[30,44],[12,12],[13,6],[16,-5],[14,-24],[8,-1],[28,16],[16,15],[16,23],[31,28],[20,2],[28,-9],[27,-18],[33,-6],[27,7],[32,24],[18,0],[13,15],[5,33],[14,55],[17,-32],[38,-26],[50,-52],[29,-19],[17,-3],[12,14],[0,15],[-20,26],[-12,21],[0,16],[10,12],[23,-5],[36,-25],[32,-35],[15,-39],[4,-5],[40,14],[20,-1],[25,-21],[39,-21],[25,-28],[14,-22],[11,-6],[31,-3],[19,-10],[48,-11],[22,10],[6,90],[-1,64],[-8,48],[4,23],[32,42],[11,19],[11,11],[31,-1],[35,-18],[32,-9],[16,-12],[7,-12],[12,-48],[33,-29],[19,-2],[35,12],[19,0],[19,14],[57,26],[27,5],[40,17],[39,20],[25,4],[33,29],[14,-11],[20,-25],[15,-34],[3,-17],[27,-43],[4,-40],[12,-17],[10,-23],[1,-17],[-7,-19],[4,-8],[-7,-14],[-2,-30],[-20,-18],[-10,-22],[-15,-8],[-20,-34],[-29,-21],[-46,-52],[-10,-50],[2,-61],[-4,-7],[-1,-34],[6,-15],[0,-54],[4,-10],[-10,-23],[-3,-19],[-10,-12],[-21,-9],[-14,-25],[-19,-24],[-18,-7],[-14,-22],[-26,-16],[-27,4],[-4,-29]],[[7546,7204],[-18,-18],[-18,-5],[-28,-15],[-12,-38],[-19,-12],[-15,-16],[-52,-21],[-24,-25],[-25,-34],[-47,-32],[-25,-23],[-9,6],[-5,20],[-6,92],[-8,23],[-5,44],[-9,29],[-10,14],[-27,6],[-17,16],[-30,22],[-11,3],[-48,4],[-20,3],[-39,15],[-17,2],[-40,9],[-64,5],[-22,7],[-25,4],[-15,14],[-19,30],[-13,28],[-26,22],[-42,14],[-19,-1],[-24,-5],[-42,-2],[-21,3]],[[6630,7392],[2,6],[48,23],[16,5],[-4,32],[13,25],[5,2],[5,41],[5,15],[-13,7],[-33,6],[-17,22],[20,12],[27,25],[-4,23],[12,38],[1,20],[-7,24],[0,20],[-7,4]],[[3231,2542],[-76,-53],[-14,-12],[-20,-10],[-43,-30],[-23,-12],[7,-15],[-67,-25],[-19,4],[-21,-14],[-18,1],[-5,10],[-9,-4],[-7,16],[-15,-1],[-7,7],[-80,-9],[-10,5],[-19,-11],[-18,6],[-12,-9],[-24,11],[-10,11],[-8,38]],[[2713,2446],[-8,9],[-20,7],[-10,13],[-36,6],[-9,11],[-15,4],[-1,-6],[-27,12],[-5,14],[-12,2],[-3,10],[-17,8],[-11,13],[5,13],[-19,15],[3,9],[-24,19],[-8,23],[-7,8],[5,11],[-15,9],[-7,-1],[-14,12],[-20,2],[-11,-5],[-22,7],[0,9],[19,49],[12,41],[14,34],[22,28],[-13,8],[-14,18],[-22,10],[-44,0],[-4,6],[-37,14],[-14,16],[-26,-1],[-31,4],[-22,18],[-17,-4],[-12,8],[-2,13],[-19,19],[-28,11],[-8,-5],[-17,9],[2,10],[-19,30],[6,9],[23,4],[15,12],[16,31],[4,21],[36,0],[10,33],[16,5],[25,-3],[20,10],[27,4],[6,16],[19,28],[8,6],[18,35]],[[2374,3227],[28,2],[3,10],[26,40],[31,39],[-4,36],[14,15],[10,-2],[14,13],[9,19],[-4,24],[7,19],[20,3],[19,-7],[-5,-8],[15,-1],[10,10],[24,-3],[12,-12],[19,5],[6,30],[18,-2],[7,20],[20,1],[14,31],[47,-21],[31,4],[19,18],[36,-3],[14,12],[30,-2]],[[2713,2446],[-53,-64],[-21,-37],[-65,-82],[-5,-22],[-35,-4],[-1,-22],[-10,-2],[-22,21],[-43,-24],[-8,10],[-3,18],[-29,-16],[-83,-1],[-55,5],[-13,-11],[-29,2],[-16,7],[-24,4],[-28,-11],[-16,6],[-29,-32],[-37,-49],[-24,1],[-43,20],[-39,29],[-29,6],[-44,0],[1,49],[-12,5],[-11,-30],[-8,5]],[[1879,2227],[-20,29],[-10,1],[4,14],[-1,29],[-9,16],[12,20],[-12,5],[-6,15],[4,13],[0,32],[10,20],[-18,7],[14,19],[3,14],[-6,25],[4,12],[13,-14],[0,25],[-11,17],[12,9],[-15,18],[7,18],[31,-2],[8,10],[13,2],[-12,149],[-10,62],[-12,95],[-4,20],[-33,84],[-9,-15],[-41,60],[2,15],[-8,44],[-17,18],[-24,-19],[-10,12],[-8,-10],[-15,2],[-16,13],[-11,-1],[-16,13],[3,8],[15,-5],[-3,19],[-8,10],[-17,8],[-25,3],[-12,-8],[-5,9],[6,22],[10,16],[-3,18],[-20,-9],[7,13],[-1,16],[-11,7],[4,11],[19,-6],[3,7],[-11,44],[-22,22],[-15,4],[4,24],[19,6],[-4,12],[-22,1],[-20,15],[-6,-3],[-15,-27]],[[1532,3360],[-14,11],[14,19],[1,15],[-10,19],[9,9],[12,-3],[1,24],[17,21],[-1,16],[-10,11],[10,13],[18,-4],[4,14],[8,-3],[12,-20],[1,-11],[12,-6],[42,-1],[7,-11],[28,5],[26,-7],[13,19],[26,-1],[3,6],[21,-6],[33,8],[84,-32],[58,55],[11,13],[26,-5],[12,-7],[22,10]],[[2028,3531],[20,-22],[45,-69],[30,-43],[9,-28],[22,-10],[7,-19],[32,-31],[40,-18],[13,24],[23,21],[3,11],[16,5],[13,-12],[9,-36],[20,-20],[13,-20],[-5,-17],[36,-20]],[[2028,3531],[9,9],[1,17],[17,2],[10,-10],[15,8],[11,18],[4,14],[-19,54],[-7,7],[-11,-4],[-7,7],[-3,19],[-15,17],[-16,3],[-21,17],[-4,15],[-11,10],[-10,-4],[-9,12],[1,10],[-15,6],[-1,27],[-17,-5],[-17,9],[30,20],[-2,20],[-15,22],[35,24],[21,10],[9,19],[15,-2],[3,7],[29,-9],[10,41],[21,18],[5,18],[-8,12],[-2,17],[-29,38],[2,15],[-21,14],[-20,-1],[-8,27],[-7,10],[-20,11],[0,14],[16,46],[3,29],[-8,9]],[[1972,4218],[18,13],[6,12],[18,-26],[8,18],[8,-13],[2,-23],[5,8],[11,-4],[4,10],[18,5],[-1,12],[12,19],[19,7],[11,-2],[20,20],[17,27],[16,10],[17,26],[15,14],[6,16],[29,9],[9,18],[16,9],[22,23],[34,-11],[27,2],[42,11]],[[2381,4428],[15,0],[10,-13],[36,8],[22,-2],[3,-6],[26,10],[9,-15],[17,-9],[3,-13],[21,-5],[28,0],[-5,-39],[51,-5],[0,-15]],[[2617,4324],[-6,-5],[-14,-35],[-20,-20],[-11,-43],[-30,-18],[-18,-46],[9,-9],[-8,-37],[-11,-36],[-27,-10],[-12,-12],[-19,-4],[-24,6],[-12,-6],[15,-6],[9,-18],[13,-3],[-1,-16],[14,2],[3,-14],[15,-3],[1,-23],[8,8],[10,-10],[9,1],[5,-15],[12,6],[8,-22],[13,6],[10,-12],[12,2],[11,-10],[17,7],[17,-5],[7,-10]],[[1879,2227],[7,-54],[-39,-4],[0,5],[-27,-7],[-4,-27],[5,-14],[-13,-6],[-3,-14],[-22,-20],[-16,-10],[-14,1],[-2,8],[-14,3],[-36,-20],[-19,7],[-9,13],[-15,0],[-10,18],[-15,-2],[-7,10],[-29,1],[-11,14],[-17,8],[-11,-1],[-20,8],[-3,-12],[-18,-20],[-21,-2],[-13,8],[-25,-4],[2,-11],[-46,-15],[-21,-12],[-25,-3],[-59,-1],[-3,8],[-39,1],[-17,-16],[-39,-4],[-74,-2],[-6,-8],[-33,4],[-36,-26],[4,-24],[-13,-2],[-18,4],[-1,8],[-24,8],[-9,19],[-11,-15],[-13,0],[-44,28],[-67,10],[-17,7],[-28,19],[-12,24],[-33,-9],[0,-9],[-22,-15],[-17,-31],[-2,-11]],[[735,2040],[-23,-4],[-12,6],[-35,39],[-35,35],[-21,37],[-9,30],[6,15],[-1,33],[11,34],[20,29],[4,25],[16,14],[-4,30],[-15,10],[-5,27],[-18,13],[-10,24],[-20,6],[13,70]],[[597,2513],[12,16],[-3,16],[6,18],[-5,19],[12,13],[1,11],[17,22],[4,14],[17,23],[21,7],[10,11],[17,-4],[23,2],[22,-7],[21,16],[10,21],[-11,14],[3,23],[-13,37],[12,20],[9,1],[15,-9],[22,2],[4,16],[-3,34],[6,21],[8,7],[-4,17],[22,19],[29,41],[-3,15],[13,16],[38,-6],[84,7],[14,8],[-3,23],[12,14],[2,12],[31,26],[-3,8],[8,23],[0,33],[-4,10],[18,3],[14,13],[23,-3],[11,25],[20,-7],[19,74],[0,57],[10,38],[8,3],[36,-6],[45,1],[14,-6],[9,5],[41,0],[16,7],[47,8],[20,9],[10,51],[58,-20],[-3,-54],[16,-2],[7,10],[23,11]],[[4261,5610],[75,-10],[0,-9],[38,-12],[34,-23],[18,-3],[2,-12],[45,-7],[3,-16],[37,2],[35,-8],[38,0],[0,-9],[45,0],[3,-22],[39,20],[34,25],[3,8],[19,8],[11,-4],[17,4],[38,-12],[6,11],[18,8],[18,29],[10,3],[3,18],[13,8],[5,-17],[14,15],[6,-25],[15,-6],[35,-2],[15,4],[8,-11],[6,6],[14,-4],[15,-16],[4,21],[7,3],[14,-12],[17,-26],[9,0],[4,-10],[8,15]],[[5059,5542],[5,-15],[21,-7],[-7,-10],[5,-13],[23,-4],[16,-19],[-6,0],[-5,-17],[13,-5],[-5,-20],[6,-19]],[[5125,5413],[-24,1],[-14,-9],[-11,8],[-17,-2],[-19,-16],[-11,5],[-9,-11],[-24,-10],[-15,7],[-24,-4],[-27,2],[-3,-7],[-24,-6],[-4,-8],[-22,-11],[-19,-4],[1,-7],[-20,-3],[-6,-6],[-20,2],[-17,-23],[-13,-3],[-20,3],[-18,-23],[-7,2],[-17,-9],[-9,5],[-5,-9],[1,-21],[-15,-6],[-8,-9],[-22,-13],[-11,1],[-26,-26],[-40,-17],[-12,-17],[-14,-11],[-32,-7],[-56,17],[-7,-27],[-9,-20],[-9,2],[-13,-46],[-14,-14],[-11,-4],[-4,-10],[-27,-2],[-8,-29],[-1,-32],[-17,-2],[-4,-8],[-29,-5],[-13,-13],[-20,11],[-52,6],[-30,-15],[-22,4],[-6,24],[-10,12],[-4,-21],[-22,-15],[-3,-15]],[[4137,4949],[-8,-5],[-12,6],[-15,-21],[-21,-4],[-6,-8],[-10,2],[-11,-17],[-20,0],[-13,-12],[-1,-16],[-16,-13],[-17,-3],[-5,-9],[-28,-6],[-6,13],[-27,5],[-11,-3],[-43,7],[-18,10],[-40,-2],[-5,-11],[-15,-5],[-43,13],[-55,12],[-21,-1],[0,19],[-17,-9],[-10,2],[-10,15],[-19,5],[-14,-2],[-9,8],[-21,-8],[-12,36],[-41,3],[-25,-7],[-16,5]],[[3476,4948],[12,34],[-10,11],[24,-1],[17,9],[30,6],[9,14],[23,47],[-11,45],[41,-1],[3,25],[35,8],[13,12],[25,3],[15,15],[12,-8],[39,44],[7,48],[10,39],[1,41],[10,42],[19,-9],[7,2],[15,32],[24,8],[20,2],[43,18],[98,17],[8,3],[127,116],[2,17],[-10,21],[-12,1],[6,33],[31,-2],[10,38]],[[4169,5678],[35,-8],[-6,-24],[27,4],[-8,-25],[22,0],[5,-15],[17,0]],[[2766,4764],[13,-12],[25,0],[18,5],[9,-15],[32,-18],[29,-30],[26,-38],[13,-13],[17,-7],[5,-15],[13,-7],[12,2],[32,-17],[7,-13],[29,-18],[32,2],[17,-8],[16,1],[6,24],[11,8],[9,19],[41,20],[53,29],[11,2],[20,26],[23,44],[15,14],[9,23],[6,27],[4,3],[4,24],[25,0],[22,26],[0,16],[39,-6],[7,37],[24,-3],[9,27],[17,11],[10,14]],[[4137,4949],[12,-27],[1,-16],[17,8],[29,-8],[10,-25],[27,-11],[23,-55],[21,-43],[6,-21],[25,-58],[10,-18],[3,-49],[-2,-28],[9,-12],[-3,-45],[7,-7],[-6,-13],[-12,-67],[-8,-16],[-2,-24],[-7,-20],[6,-43],[-5,-27],[4,-35],[-3,-26],[6,-33],[4,-7]],[[2617,4324],[36,11],[4,28],[-2,29],[5,6],[-2,48],[-39,17],[-14,19],[-6,19],[-9,2],[-6,18],[-12,-5],[-44,23],[-3,12],[-13,-4],[-20,10],[-3,-6],[-29,0],[-8,24],[35,21],[18,7],[27,2],[8,25],[9,5],[29,1],[14,12],[17,7],[16,15]],[[5125,5413],[14,-5],[6,-19],[19,-1],[10,-15],[2,-21],[9,-20],[18,13],[7,-19],[11,0],[26,21],[14,-12],[12,-31],[21,12],[10,-26],[18,7],[17,-1],[-9,-14],[3,-12],[27,-6],[-2,14],[18,-1],[11,-13],[1,-12],[-9,-7],[14,-18],[14,12],[2,-19],[11,-6],[11,8],[21,-29],[28,3]],[[5480,5196],[11,-24],[-5,-16],[-14,3],[-2,-19],[22,-1],[4,-19],[-29,-19],[-14,4],[-24,-14],[-9,-27],[-28,-19],[-7,10],[-10,-11],[-7,4],[-20,-13],[-2,5],[-24,-5],[-10,17],[-31,-3],[-3,-17],[4,-22],[-11,-9],[-22,-5],[-13,-9],[-1,-17],[-13,-10],[2,-8],[-8,-25],[-30,-3],[-33,-35],[-23,6],[-9,-7],[-13,0]],[[5108,4888],[-42,-9],[-1,-14],[-14,0],[-9,-17],[-13,-5],[-11,9],[-13,-11],[-12,-2],[-10,-15],[-34,-1],[-17,-20],[-9,-3],[-23,-25],[-6,-3],[-11,-24],[-5,-21],[-27,-14],[0,-11],[-17,-13],[-8,1],[-21,-12],[16,-43],[27,-5],[-6,-20],[-25,-28],[-19,1],[-8,-17],[-13,-8],[7,-13],[8,2],[1,-14],[-12,2],[-1,-18],[-26,-2],[-10,-15],[-14,6],[-9,-21],[6,-5],[-13,-6],[7,-6],[-20,-5],[-3,-9],[-16,-1],[-15,-11],[-18,-2],[-13,-12],[-16,-3],[-7,-9],[-18,7],[-22,0],[-7,-6],[-15,14],[6,17],[-12,1],[-12,11],[-1,9],[-12,-2],[-10,7],[-12,-2],[3,-11],[-28,-3],[-17,-15],[0,-16],[-12,3],[-9,-10],[-21,3],[4,-18],[-7,-13],[8,-1],[-1,-23],[-9,-1],[-17,-17],[10,-10],[-9,-8],[-3,-20],[-16,-13],[-10,-26],[-13,-1],[4,-9],[13,-5],[-6,-12],[-16,-4],[-12,3],[-2,-13],[-9,-10]],[[3132,6968],[5,-5],[20,2],[3,-46],[-3,-20],[27,-6],[-17,-17],[-2,-13],[39,-22],[-3,-20],[60,-22],[-2,-8],[15,-13],[-6,-24],[18,-7],[3,-17],[43,-13],[0,-14],[11,-15],[19,-46],[0,-29],[33,-13],[-7,-35],[10,-18],[10,-6],[2,-17],[-8,-15],[2,-9],[-21,-28],[1,-20],[8,-15],[-11,-4],[10,-13],[19,6],[14,-15],[18,3],[32,-10],[8,21],[12,2],[8,-21],[32,2],[4,12],[7,-3],[11,18],[21,-6],[-1,22],[14,-4],[33,26],[16,-21],[8,12],[21,14],[6,-9],[26,5],[-1,24],[9,4],[18,23],[24,2],[16,-13],[18,2],[21,7],[30,-2],[17,-12],[9,-37],[2,-24],[29,-10],[31,1],[12,-24],[27,-5],[31,-33],[39,40],[16,25],[20,24],[27,24],[7,18],[2,63]],[[4104,6571],[17,-16],[7,-17],[25,-30],[6,-13],[1,-32],[7,-7],[5,-23],[11,-9],[11,10],[29,-8],[36,30],[28,1],[42,6],[15,-1],[94,-25],[22,2],[1,12],[19,9],[18,46],[18,8],[17,-20],[32,-4],[-1,-30],[4,-34],[-1,-29],[-28,-31],[1,-17],[12,-38],[17,-21],[16,-10],[14,-16],[-8,-32],[0,-13],[24,-32]],[[4615,6187],[-56,-45],[-14,-21],[-28,-49],[-69,-122],[-6,-9],[-41,-31],[-16,-17],[-33,-44],[-17,-26],[-29,-63],[-13,-37],[-32,-113]],[[4169,5678],[0,26],[-27,6],[-9,-10],[-47,10],[-19,-8],[-4,25],[-27,5],[-1,10],[-43,0],[-21,-20],[-4,8],[-23,-5],[-9,-13],[-43,4],[-8,22],[-16,-1],[-6,-30],[-38,8],[3,21],[-27,2],[-94,25],[-15,8],[-22,-2],[-3,-6],[-21,-12],[-7,-10],[-19,-2],[-13,6],[-37,7],[-33,2],[-35,7],[-17,10],[-5,-7],[-18,1],[-8,-18],[-19,8],[-5,22],[4,32],[6,3],[6,19],[-11,21],[4,43],[-12,31],[20,19],[-13,15],[-3,54],[12,22],[6,18],[-14,2],[-10,14],[-29,0],[-12,3],[-11,-14],[-31,-5],[4,-25],[-46,-21],[5,-16],[-40,-1],[-6,-20],[-25,-2],[-61,3],[-41,-6],[-3,-28],[-38,10],[-7,-33],[-25,5],[-3,-8],[-41,4],[-3,-40],[-20,-11],[-3,-18],[2,-25],[-10,-20],[-46,-6],[-33,2],[-36,-11]],[[4104,6571],[-21,8],[-20,25],[-27,13],[10,31],[11,63],[16,12],[28,12],[10,17],[12,0],[6,15]],[[4129,6767],[24,-6],[9,-17],[17,-5],[2,16],[11,-6],[16,14],[13,-7],[4,12],[18,-23],[-11,-16],[20,4],[0,-12],[11,2],[4,12],[16,-2],[8,11],[22,-7],[-6,12],[4,11],[30,17],[-7,-14],[10,5],[6,-14],[5,10],[11,1],[7,-13],[18,21],[1,-12],[13,-15],[1,19],[13,-9],[14,9],[14,25],[6,20],[-8,12],[8,8],[20,2],[-4,17],[-11,-12],[-7,3],[8,25],[-5,15],[3,12],[11,-14],[18,-4],[-8,14],[5,4],[30,-16],[-1,10],[10,19],[6,-12],[24,0],[11,14],[4,-8],[16,-1],[-2,15],[14,-5],[5,8],[25,3],[9,18],[24,-7],[8,3],[24,-4],[1,-36],[23,-29],[8,-2],[-6,-64],[1,-40],[41,-13],[5,-5],[4,-28],[0,-34],[21,0],[30,-15],[15,-12],[1,-11],[25,3],[3,-13],[37,-3],[6,8],[18,-4],[35,-22],[8,11],[17,3],[16,13],[19,26],[-3,18],[8,40],[11,18],[13,4],[1,10],[16,2],[-2,15],[18,12],[11,47],[2,28]],[[5093,6856],[24,-10],[12,-21],[12,-4],[34,-1],[7,-7],[19,2],[1,-13],[46,-14],[19,-8],[45,-11],[47,-3],[3,-9],[-7,-34],[15,-12],[-1,-11],[13,-31],[-7,-3],[3,-34],[-7,-29],[-3,-33]],[[5368,6570],[-27,7],[-22,-12],[-3,-19],[-11,-30],[-24,4],[-19,-23],[-11,-4],[-11,-23],[-11,-40],[-15,-3],[-16,-25],[-25,-12],[-11,-41],[-4,-40],[-22,-26],[-38,-23],[-12,-35],[-11,-11],[-35,4],[-15,-44],[-13,-27],[-29,2]],[[4983,6149],[-5,14],[-16,1],[-14,18],[0,13],[-21,0],[-7,8],[-10,28],[-35,-2],[0,22],[-25,38],[-28,-5],[-3,20],[-19,32],[-44,-31],[-141,-118]],[[5093,6856],[8,16],[-31,14],[-1,15],[-20,3],[4,10],[1,58],[7,48],[23,20],[7,28],[-2,14],[13,24],[1,14],[-15,8],[4,7],[-46,27],[-12,15],[-24,-4],[-7,-11],[-15,-6],[-20,1],[-24,-5],[9,12],[-8,16],[9,23],[15,2],[-9,22],[-18,17],[13,2],[6,16],[-18,15],[19,2],[5,-9],[9,12],[-5,16],[17,27],[-16,8],[-1,14],[7,11],[10,2],[9,13],[-22,7],[-4,23],[1,25],[11,6],[-6,15],[19,0],[-4,9],[18,22],[14,2],[-18,12],[20,11],[0,7],[20,4],[-8,9],[2,12],[25,-13],[-1,30],[16,1],[9,-9],[7,6],[-4,19],[8,8],[-13,9],[15,11],[-17,16],[36,-1],[-7,18],[19,-6],[19,17],[-7,21],[-14,4],[16,5],[1,12],[-9,-9],[5,31],[-13,0],[0,16],[17,10],[-17,13],[-10,43],[12,12],[-10,59],[15,40],[-4,8],[0,32],[4,10],[40,50],[28,38],[6,18],[-3,10],[-64,103],[-10,26],[-1,32],[-4,35],[-11,33],[4,13],[55,44],[32,28],[9,20],[-6,24],[-11,7],[11,6],[4,16],[7,2],[-4,20],[23,-6],[9,8],[-6,12],[16,1],[6,22],[-9,12],[9,4],[3,13],[-47,23],[-1,11],[12,15],[1,9],[-17,12],[-14,41],[-21,9],[-8,11],[14,12],[3,13],[16,23],[5,62],[-16,23],[2,17],[-8,23],[-29,3],[-12,7],[-11,46],[-42,14],[-11,-2],[-7,-12],[-10,2],[-9,11],[-44,42],[-34,19],[-3,8],[12,28],[-1,24],[-14,47],[-12,47],[-17,19],[7,15],[4,24],[-6,15],[4,18],[0,62],[2,14],[-18,21],[-2,20],[8,28],[0,15],[-14,14],[-2,13],[13,34],[-11,17],[1,11]],[[4934,9469],[16,17],[39,74],[17,17],[16,6],[14,-2],[54,-17],[16,2],[4,21],[40,11],[11,-2],[10,-10],[10,-32],[6,-8],[25,0],[25,16],[15,-1],[-17,-32],[1,-41],[18,-20],[25,-21],[19,-3],[25,4],[18,-3],[24,-15],[26,1],[29,18],[11,-5]],[[5431,9444],[-2,-45],[-10,-19],[5,-21],[-6,-19],[-8,-4],[-2,-19],[-12,-14],[-1,-15],[-11,-21],[-15,-11],[2,-42],[12,-27],[40,-33],[4,-13],[14,-9],[3,-20],[14,-24],[10,-51],[13,-12],[7,-18],[28,-19],[16,-31],[17,-18],[-4,-14],[2,-31],[-10,-29],[17,-26],[15,-32],[10,-14],[18,-40],[15,-13],[5,-13],[23,-25],[30,-52],[7,-33],[14,-26],[16,-74],[12,-21],[-11,-11],[9,-5],[2,-22],[19,-4],[2,-12],[17,-14],[-2,-15],[20,-7],[8,-26],[-4,-26],[-8,-22],[6,-18],[35,-19],[20,-32],[-9,-17],[0,-23],[-7,-17],[7,-20],[-3,-16],[8,-10],[3,-39],[-4,-68],[-6,-31],[-16,-24],[-23,-15],[-34,-6],[-8,-17],[-12,-48],[-25,-44],[-5,-16],[0,-63],[8,-18],[12,-43],[5,-34],[9,-27],[9,-41],[2,-106],[0,-43],[4,-18],[-2,-24],[9,-18],[10,-33],[2,-33],[1,-76],[4,-59],[8,-28],[13,-81],[-7,-54],[-46,-167],[-9,-38],[-10,-28],[1,-32],[-6,-50],[5,-85],[4,-43]],[[5724,6610],[-46,-10],[-48,45],[-35,5],[-17,-18],[-24,-4],[-14,-9],[-9,-13],[-2,-26],[-8,-55],[-49,3],[-35,12],[-43,19],[-18,2],[-8,9]],[[4983,6149],[-4,-36],[-13,-20],[-11,-4],[-10,-42],[-13,-21],[0,-29],[-10,-19],[-14,-6],[-9,-27],[-5,-2],[-8,-29],[9,-16],[-16,-7],[15,-17],[30,-15],[3,-17],[12,4],[11,-6],[5,-17],[20,-6],[4,-37],[9,-20],[1,-22],[14,-32],[13,-11],[-2,-8],[8,-13],[2,-21],[8,-5],[-3,-26],[7,-21],[7,0],[14,-39],[2,-20]],[[6630,7392],[10,-13],[13,-7],[-15,-8],[-1,-13]],[[6637,7351],[-21,-2],[-13,-11],[-38,-13],[4,-23],[-14,-10],[-25,6],[-41,2],[-117,27],[-44,7],[-19,7],[-10,-7],[-13,-25],[-18,9],[-33,6],[-63,-1],[-28,-101],[19,5],[34,-19],[-2,-6],[26,-17],[4,-20],[-18,-47],[1,-28],[38,-27],[17,-15],[16,-7],[6,-20],[-12,-12],[17,-43],[-7,-19],[-42,-40],[-11,-21],[-18,3],[-27,-65],[51,-26],[-5,-121],[-4,-36],[19,-16],[27,-39],[13,-11],[-7,-19],[-24,-40],[-54,11],[-8,-2],[-7,-19],[8,-27],[0,-29],[4,-30]],[[6198,6420],[-64,5],[-39,-4],[-39,9],[-19,12],[-40,9],[-26,16],[-31,8],[-38,23],[-21,6],[-2,11],[8,20],[-12,11],[-13,-1],[-35,12],[-21,0],[-40,7],[-36,11]],[[5730,6575],[-6,35]],[[5431,9444],[9,-11],[11,-59],[12,-6],[28,7],[41,-20],[20,-5],[23,-20],[33,-11],[27,1],[10,11],[2,23],[6,11],[29,25],[17,43],[18,0],[34,-14],[12,-11],[21,-39],[10,-5],[28,3],[25,9],[13,-8],[12,-23],[14,-15]],[[4236,9289],[23,-5],[20,-48],[22,-24],[16,-5],[9,6],[27,46],[18,5],[41,-12],[20,-2],[14,4],[9,15],[15,12],[12,22],[9,8],[32,13],[13,26],[-2,18],[-9,27],[1,30],[27,33],[10,38],[3,53],[-10,50],[-12,40],[-2,14],[6,26],[25,6],[20,-4],[25,-31],[35,-51],[30,-47],[19,-21],[34,-22],[51,-38],[27,-12],[17,-4],[32,4],[37,14],[13,2],[21,-6]],[[4129,6767],[10,43],[-8,28],[14,21],[-4,22],[8,0],[10,23],[-5,27],[11,4],[-8,37],[1,13],[-15,36],[-23,5],[-27,25],[0,5],[-55,10],[-22,-2],[-22,6],[-8,12],[-14,4],[-3,10],[8,16],[-30,17],[1,29],[-12,3],[1,23],[-16,6],[-2,24],[-6,-1],[-5,16],[0,21],[-12,16],[-6,16],[-15,3],[3,28],[-7,22],[-37,28],[8,30],[-17,8],[-24,4],[15,18],[-2,14],[-8,3],[5,20],[-2,17],[10,13],[21,4],[14,17],[9,23],[1,23],[11,34],[5,7],[-8,26],[21,23],[9,4],[25,25],[23,6],[21,19],[9,-1],[6,18],[17,31],[7,29],[12,11],[24,5],[13,31],[14,10],[3,21],[10,16],[4,21],[-5,23],[-14,19],[2,16],[-45,27],[-27,3],[-7,-6],[-25,1],[-8,9],[-21,5],[-22,12],[6,11],[-18,6],[-11,-8],[-27,0],[-9,4],[0,18]],[[5987,4721],[94,-67],[261,-204]],[[6342,4450],[-3,-20],[-14,-21]],[[6325,4409],[-21,14],[-8,-3],[-12,-19],[-19,27],[-12,-14],[-8,5],[2,14],[-13,-11],[-11,0],[-2,16],[-16,7],[-11,-14],[-2,12],[-12,0],[-5,14],[-14,-1],[-13,25],[-34,7],[-8,-4],[-39,15],[-6,10],[16,-1],[-9,17],[-12,-6],[-2,23],[-40,-11],[-13,-11],[-8,2],[10,12],[-2,17],[-11,-11],[-9,8],[-5,-13],[-9,12],[-12,5],[-9,13],[-3,-17],[-17,16],[-10,-4]],[[5916,4560],[-10,15],[2,11],[-13,13],[-3,13],[6,8],[13,2],[-4,17],[-12,4],[-5,-13],[-9,12],[-5,22],[-10,1],[-13,-12],[-5,51],[-6,12],[-4,-15],[-8,2]],[[5830,4703],[2,13],[-15,4],[0,16],[-22,22],[-14,-8],[-9,11],[7,7],[-5,9],[-13,-2],[18,80],[26,-4],[30,-8],[15,-9],[110,-93],[27,-20]],[[5442,4555],[-8,-5],[-13,-39],[-12,-14],[1,-19],[-18,-32],[-10,-11],[-1,-20],[-12,-5],[5,-22],[-18,-18],[17,-22],[-38,-25],[-15,-21],[-14,-26],[-15,-49],[255,-90],[-5,-18],[1,-13],[11,-16],[29,-20],[-9,-33],[-14,-6],[-13,8],[-17,-2],[-5,-17],[33,-11],[38,40],[12,3],[19,-36],[-1,-20],[4,-14],[12,-12],[-2,-6],[-26,-3],[-3,-20],[7,-3],[-9,-14],[-26,4],[-17,-52]],[[5565,3876],[-98,36],[-214,74],[-5,8],[-17,6],[-30,-49],[-16,-2],[-4,-14],[-21,-6],[-5,-15],[-16,-2],[-43,-23],[-15,-16],[-25,9],[-26,-16],[-10,1]],[[5020,3867],[10,47],[-1,26],[11,32],[19,26],[-1,37],[11,21],[6,55],[8,45],[3,42],[-8,38],[-10,62],[-5,97],[0,56],[-4,19],[-5,150],[-6,16],[2,12],[-8,5],[13,17],[30,1],[2,7],[24,-16],[13,20],[4,-9],[12,-2],[9,16],[11,7],[17,-14],[35,-2],[5,-15],[34,21],[22,7],[41,-1],[-2,15]],[[5312,4705],[24,1],[3,11],[13,3],[8,-17],[14,6],[38,7],[22,0],[8,-161]],[[5730,6575],[2,-27],[7,-23],[20,-22],[17,-14],[23,-36],[27,-22],[2,-9],[-3,-76],[0,-35],[-20,-12],[-8,-13],[2,-57],[12,-47],[0,-11],[-17,-29],[0,-40],[-7,-28],[-1,-33],[9,-81],[-6,-72],[7,-29],[3,-71],[-5,-56],[-3,-69],[-7,-39],[-6,-20],[-9,-47]],[[5769,5557],[-31,0],[-11,-10],[-1,-11],[-13,-12],[-10,-20],[-9,-26],[-13,-14],[-8,-37],[-10,-15],[-24,-4],[-30,-35],[-16,-3],[-11,-11],[-6,-22],[-13,-9],[-11,-27],[2,-8],[-38,-43],[-14,-5],[-22,-49]],[[6565,3812],[2,-23],[-6,-2],[-16,11],[8,-24],[1,-17],[-13,-15],[8,-24],[-18,-44],[-12,-11],[4,-26],[-5,-10],[-36,-22],[-16,-3],[-13,-40],[-23,1],[-36,-4],[-20,-15],[-1,-15],[-10,-7],[-19,8],[-5,13],[-13,0],[-27,-28],[-11,11],[-2,-21],[-42,-34],[5,-14],[-21,-6],[-16,-19],[-41,2],[1,-9],[-13,9],[-19,-6],[-13,9],[0,-13],[-10,-12],[-11,11],[-14,-7],[-23,21],[-24,-3],[-12,9],[-21,0],[-27,15],[-18,1],[2,-10],[-14,1],[-14,-9],[-12,8],[-26,5],[-6,14],[-16,8],[-19,3],[-19,-17],[-11,3],[0,13],[-11,-3],[-14,11],[-4,-11],[-5,18],[-32,5],[-8,-16],[-7,8],[-37,-11],[-21,14],[-17,-4],[-11,-9],[-14,-25],[-14,-8],[-15,1],[-10,-10],[1,-13],[-9,-7],[-23,6],[-2,20],[-17,-11],[0,-6],[-16,0],[-20,-6],[-6,5],[-2,-17],[-14,3],[-13,-18],[-7,3]],[[5484,3397],[-12,63],[-6,13],[11,5],[-8,53],[8,8],[0,27],[-10,3],[2,12],[-30,25],[-10,16],[14,32],[-6,42],[11,15],[18,-4],[15,16],[9,2],[11,22],[29,4]],[[5530,3751],[10,-4],[7,8],[20,1],[25,-8],[19,10],[14,1],[10,25],[-1,26],[15,20],[-2,36],[14,1],[24,44],[19,10],[63,10],[61,1],[27,6],[70,-2],[54,-22],[23,2],[11,22]],[[6013,3938],[13,-49],[19,-50],[20,5],[26,15],[18,2],[3,-10],[15,-7],[22,-5],[46,3],[18,7],[7,10],[23,-6],[29,7],[10,-6],[-3,-27],[23,-2],[3,-4],[24,-3],[8,-17],[22,12],[18,4],[15,-7],[13,13],[5,-3],[25,6],[6,6],[20,2],[43,13],[8,-9],[43,-15],[10,-11]],[[6325,4409],[-7,-14],[18,-3],[19,-23],[8,-20],[16,-8],[1,-14],[24,1],[5,-10],[-11,-7],[11,-6],[-4,-13],[18,-4],[9,11],[9,-23],[19,5],[7,-20],[13,5],[7,-20],[25,-2],[13,-12],[9,-76],[11,0],[1,-27],[12,-2],[0,-14],[10,-6],[3,-12],[12,-2],[13,8],[8,-8],[-1,-13],[25,-2],[17,24],[17,-14],[12,11],[15,-16],[12,-19],[5,-18],[10,6],[10,-7],[0,23],[4,2],[16,-26],[4,-22],[19,11],[17,-9],[14,3],[5,-10],[8,3],[6,-27],[11,-8],[5,8],[12,-5],[1,-12],[16,-18],[33,-13],[4,24],[16,-15],[8,7],[4,-22],[15,-5],[9,-10],[20,3],[20,-3],[13,-7],[10,-18],[15,-4],[1,-26],[-27,6],[-11,-11],[-11,7],[-7,-8],[-16,1],[-15,-19],[-3,28],[-14,-5],[-3,-25],[-49,-5],[-15,11],[-16,-3],[-19,7],[-41,0],[-1,12],[-24,0],[-21,-13],[-35,-2],[-10,3],[-30,-1],[-3,-7],[-29,-1],[-30,-16],[-7,-9],[-22,-10],[-8,3]],[[6013,3938],[-40,162],[-75,309],[-29,125],[26,-7],[8,34],[13,-1]],[[5987,4721],[3,35],[-8,46],[11,38],[11,20],[15,43],[2,32],[21,52],[33,40],[48,35],[15,21],[26,25],[9,23],[21,39]],[[6194,5170],[5,8],[-6,25],[3,18],[9,9],[24,11],[13,11],[3,24],[-1,31],[15,7],[-4,38],[-1,42],[6,6]],[[6260,5400],[117,0],[10,16],[13,41],[18,26],[9,24],[9,14],[25,72],[277,202]],[[6738,5795],[11,-9],[12,5],[38,-23],[5,-13],[18,-21],[-1,-12],[17,-4],[9,-17],[-3,-7],[17,-5],[0,-16],[50,-27],[18,5],[16,-33],[14,-8],[5,-9],[12,-1],[7,-23],[13,2],[10,-18],[10,-1],[2,-12],[27,-6],[7,-15],[-7,-53],[19,-26],[12,-9],[15,7],[14,-10],[1,-7],[24,-8],[16,-30],[-10,-18],[14,-5],[-5,-6],[19,-33],[9,5],[18,-31],[47,-15],[19,-14],[8,6],[5,-19],[5,4],[28,-17],[5,-20],[14,-22]],[[7322,5206],[-133,-77],[-49,-28],[-132,-78],[-111,-63],[-88,-51],[-33,-15],[-27,8],[-32,-7],[-4,-15],[-10,-11],[-21,-5],[-33,-24],[-18,-7],[-27,-31],[-7,-15],[5,-15],[-12,-18],[-25,-13],[-14,2],[-35,-9],[-13,-21],[-2,-16],[-9,-12],[-29,-20],[-12,-14],[-6,-20],[-22,-38],[-10,-29],[-14,-25],[-8,-22],[-29,-27],[-18,-28],[-2,-12]],[[4247,3670],[56,-37],[32,-16],[51,-35],[75,-59],[38,-19],[30,-13],[19,-12]],[[4548,3479],[7,-16],[-7,-4],[0,-15],[6,-11],[-9,-17],[-6,11],[-10,-13],[-8,10],[-5,-18],[-12,-6],[-11,5],[-31,-15],[-16,-2],[-29,-13],[-21,-1],[-1,-11],[-10,-1],[-23,-23],[-10,-17],[9,-4],[-10,-17],[10,-15],[-6,-20],[0,-22],[-15,-16],[11,-4],[-11,-10],[-1,-17],[11,-15],[13,-3],[32,-41],[19,-31],[2,-33],[7,-20],[13,-9],[-3,-22],[9,2],[2,-26],[21,0],[-5,-14],[4,-15],[10,-11],[-4,-6],[21,-13],[39,-44],[1,-10],[22,-23],[6,-13],[0,-30],[9,8],[15,-13],[-8,-6],[9,-8],[-10,-9],[0,-14],[-8,-34],[11,-8],[1,-17],[-12,-9],[5,-16],[-7,-30],[19,-3],[-3,-24],[-16,-15],[3,-28],[-4,-24],[-18,-7],[0,-14]],[[5830,4703],[-12,-7],[-2,8],[-20,3],[-13,-9],[-1,-9],[-15,-13],[-7,-23],[-7,2],[-8,-12],[-20,-13],[-15,-2],[-13,-9],[-29,-3],[-12,3],[-14,-12],[-49,-20],[-7,-7],[-23,-9],[-28,-1],[-45,-11],[-13,-8],[-35,4]],[[5312,4705],[-5,4],[-7,28]],[[5300,4737],[43,-2],[33,19],[47,12],[13,-6],[12,5],[21,-2],[14,4],[42,18],[21,1],[-3,-19],[38,-10],[26,-4],[0,78],[9,39],[20,23],[-11,15],[-11,2],[5,9],[-24,24],[-2,-19],[-16,10],[4,15],[-5,5],[6,21],[17,5],[18,22],[-4,4],[56,126],[4,20],[-1,33],[50,-1],[10,3],[39,23],[69,30],[10,13],[51,-5],[67,-16],[43,-16],[42,-9],[55,0],[26,-17],[32,-6],[28,-14]],[[4339,4018],[12,-24],[19,-5],[25,-23],[46,-4],[8,3],[20,-18],[9,8],[21,7],[25,-6],[14,2],[27,-19],[22,-8],[47,-12],[16,-1],[12,-14],[31,-15],[21,-17],[3,-18],[17,-18],[0,-10],[17,-12],[6,-14],[20,-1],[35,-18],[45,-6],[39,9],[18,12],[16,34],[18,22],[6,-5],[41,6],[6,10],[19,4]],[[5565,3876],[-13,-42],[18,-9],[7,-17],[11,12],[10,-4],[-5,-19],[6,-11],[-15,-19],[-35,-3],[-6,5],[-13,-18]],[[5484,3397],[-10,-19],[-20,6],[1,19],[-14,-13],[-16,2],[-15,-22],[-14,1],[-17,14],[0,-13],[-13,12],[-6,-11],[-20,10],[-6,16],[-13,-3],[-25,-28],[-9,11],[-5,-6],[-16,13],[-23,-7],[-7,15],[-12,-9],[-12,11],[-3,15],[-11,9],[1,15],[-19,0],[-2,17],[-12,-4],[4,12],[-30,12],[-13,1],[0,7],[-19,5],[-15,-11],[-17,-2],[-3,-12],[-15,3],[-9,-5],[-8,-19],[-23,-4],[-9,7],[-17,-1],[-14,-8],[-7,6],[-26,8],[-16,-9],[-24,4],[-3,-8],[-11,7],[-4,-7],[-16,10],[-10,-3],[-4,10],[-9,-6],[-10,14],[0,12],[-12,9],[-22,8],[-12,12],[-11,-7],[-14,0],[-5,10],[-14,0],[-43,13],[-18,-3],[-10,13],[-17,-2],[6,17],[-22,-3],[-7,14],[-35,-1],[-9,-16],[6,-9],[-16,-20],[-17,-4],[-8,-23],[-10,0]],[[6198,6420],[35,-6],[3,-40],[23,-4],[24,-24],[48,-29],[63,-56],[28,-31],[42,-40],[92,-107],[29,-41],[52,-86],[47,-72],[19,-47],[10,-18],[16,-7],[9,-17]],[[6260,5400],[-38,8],[-30,10],[-57,25],[-24,8],[-29,5],[-74,32],[-59,22],[-64,27],[-25,9],[-49,8],[-42,3]],[[5108,4888],[7,-43],[16,11],[4,-28],[30,3],[-1,-15],[26,2],[5,-18],[-2,-21],[32,-9],[30,10],[13,-36],[26,-3],[6,-4]],[[2025,5439],[2,-61],[5,-12],[14,-8],[0,-17],[25,-24],[10,-21],[1,-17],[7,-6],[21,-34],[3,-19],[-26,-23],[-17,-7],[-1,-32],[8,-17],[-5,-6],[-7,-30],[20,-2],[0,-11],[17,-10],[-2,-13],[34,-11],[0,-8],[32,-12],[-15,-34],[-14,-42],[12,-15],[-4,-62],[20,-12],[-44,-22],[-62,-5],[-21,5],[6,-16],[-7,-19],[8,0],[1,-52],[6,-2],[1,-22],[9,-16],[-3,-11],[10,-17],[15,-10],[4,-15],[9,0],[7,-11],[-1,-33],[11,-24],[13,-2],[7,-12],[3,-27],[20,-15],[29,4],[21,-6],[4,12],[24,-6],[26,7],[4,-9],[20,-3],[35,2],[53,-28],[1,-29],[14,-5],[10,-31],[-17,-27]],[[1972,4218],[-16,-1],[12,12],[-4,9],[-35,15]],[[1929,4253],[-20,8],[-26,30],[3,8],[16,7],[0,11],[-10,24],[2,20],[-7,14],[4,8],[23,20],[3,16],[-30,4],[-19,15],[-3,14],[11,10],[17,29],[-5,18],[-15,9],[-1,28],[6,41],[-12,11],[-28,-3],[-16,4],[13,47],[-18,8],[-2,22],[8,19],[7,69],[-10,20],[3,20],[-10,32],[4,20],[14,24],[7,26],[-3,31],[25,8],[-4,18],[12,21],[10,0],[12,16],[22,3],[3,21],[12,13],[-1,12],[-16,14],[-6,18],[-1,20],[-7,13],[8,11],[6,36],[-5,15],[5,33],[8,12],[2,20],[-20,-4],[-9,14],[4,26]],[[1929,4253],[-18,-30],[-11,18],[-7,-3],[-18,-30],[-21,11],[-7,-3],[-1,-31],[-10,-15],[-5,-22],[3,-16],[1,-47],[-9,-1],[-13,16],[-4,-12],[4,-19],[-7,-8],[-15,-1],[-4,-21],[8,-17],[-3,-10],[-30,7],[-16,-27],[-24,20],[-9,-1],[-10,-22],[-24,22],[-16,-8],[-2,-9],[11,-36],[-15,18],[-19,9],[-22,-40],[-24,19],[-21,28],[-31,-5],[-9,3],[-30,-5],[-13,1],[-6,22],[-43,-20],[-31,14],[-31,3],[-5,-13],[-24,20],[-55,9],[-12,-39],[-19,3],[-11,-5],[-4,13],[-29,21],[-11,-5],[-9,-19],[-16,-49],[-8,2],[-18,-26],[-18,-2],[-14,-8],[-7,4],[-19,-9],[-3,-9],[-16,-17],[11,-26],[17,-13],[6,-14],[-7,-36],[-6,-3],[1,-17],[22,-8],[5,-18],[10,-4],[-1,-17],[15,-29],[1,-18],[-8,-7],[-17,6],[-6,-10],[-6,9],[-5,-10],[-18,-4],[-8,8],[-15,-5],[1,13],[-31,-2],[-11,-33],[0,-32],[6,-22],[-64,-28],[-34,-12],[-44,8],[4,-49],[-7,-5],[4,-22],[33,-22],[-38,-23],[-36,25],[-28,-44],[-7,9],[-10,-17],[-16,9],[-15,-28],[41,-39],[-7,-17],[-30,-23],[-25,30],[-30,-38],[-31,40],[-31,33],[-14,11],[-36,6],[-25,19],[-32,8],[-30,-5],[-17,5],[-2,11],[-20,-1],[-9,5],[-24,1],[-19,21],[-16,-18],[-10,5],[-27,0],[-32,8],[-29,25],[-7,11]],[[315,3483],[16,5],[4,16],[-3,13],[11,11],[3,22],[15,11],[5,18],[9,5],[1,19],[17,36],[12,1],[-4,9],[-30,9],[-3,29],[7,27],[-12,20],[-2,12],[-30,39],[-2,19],[9,35],[11,2],[27,19],[23,2],[11,17],[24,16],[8,-12],[11,10],[16,2],[11,-5],[5,9],[36,-4],[12,4],[35,-1],[16,28],[11,1],[7,11],[11,3],[16,14],[12,-1],[-6,20],[10,9],[-20,50],[-14,25],[-15,9],[-2,53],[8,3],[-3,13],[9,21],[12,18],[-4,13],[1,32],[14,17],[-7,15],[-14,12],[8,23],[19,3],[17,10],[10,35],[-2,10],[14,13],[-7,24],[9,0],[9,32],[-6,11],[17,26],[2,34],[-17,19],[6,17],[9,6],[-5,18],[-11,8],[2,16],[-11,0],[4,11],[-14,11],[10,25],[-5,14],[4,18],[-9,13],[10,11],[-5,24],[8,7],[-8,6],[-18,37]],[[597,2513],[-22,-22],[-14,-7],[-34,-4],[-26,2],[-15,-20],[-39,11],[-24,-4],[-44,10],[-21,-3],[-15,-12],[-41,6],[-21,-11],[-36,-3],[-5,-13],[-34,0],[-16,4],[-16,13],[-2,17],[-25,22],[-19,43],[-32,38],[-13,10],[1,19],[5,6],[-8,17],[0,20],[14,40],[8,12],[14,-5],[9,13],[7,24],[11,8],[24,30],[11,20],[-7,6],[18,12],[25,28],[7,-2],[13,19],[-22,5],[4,35],[-24,23],[-6,13],[-8,-1],[-4,18],[-23,4],[3,16],[-13,4],[-16,19],[-13,3],[-4,11],[-21,-7],[-10,2],[-29,-11],[-26,-4],[-20,2],[-3,7],[17,27],[-5,19],[24,21],[-4,10],[19,31],[31,-6],[7,22],[16,5],[13,18],[21,-6],[22,20],[20,7],[2,22],[-6,7],[18,34],[22,11],[2,9],[15,10],[7,20],[9,8],[12,25],[10,3],[-3,12],[7,18],[-3,14],[10,8],[2,21],[6,10],[7,28],[-9,13],[26,22],[0,24]],[[8249,6331],[-45,-69],[-30,-67],[-42,-76],[-36,-59],[-33,-65]],[[8063,5995],[-25,6],[-134,-3],[-52,-11],[-21,-12],[-9,-15],[-33,-5],[-15,2],[-4,-10],[-16,1],[-14,-21],[-26,-22],[-20,-8],[-24,2],[-36,-12],[1,-20],[-17,4],[-24,-3],[-2,-14],[-16,0],[-18,14],[-18,-7],[-25,17],[-44,11],[-47,3],[-17,-5],[-48,19],[-5,-7],[-37,16],[-27,18],[-10,-1],[-18,8],[-61,2],[-15,6],[-8,13],[-46,7],[0,7],[-72,7],[0,5],[-45,4],[-27,-1],[-8,18]],[[6980,6008],[-13,10],[-1,29],[-7,9],[7,27],[-11,3],[-15,42],[-8,39],[-19,47],[14,8],[-4,6],[16,52],[17,44],[13,-4],[5,22],[3,32],[37,-3],[21,1],[1,-16],[22,0]],[[7058,6356],[5,-8],[18,-5],[5,-17],[9,5],[20,-12],[29,1],[18,-13],[13,-1],[6,-9],[25,13],[6,-14],[19,5],[14,-12],[10,0],[29,-30],[1,-20],[9,8],[24,-7],[6,-19],[11,-7],[16,11],[2,-11],[12,8],[5,-9],[14,10],[9,-6],[13,4],[28,1],[5,-5],[21,4],[48,-8],[31,9],[8,-9],[23,-11],[4,-15],[21,-8],[-13,-40],[0,-42],[9,-12],[28,7],[-3,30],[22,4],[-5,4],[6,18],[9,5],[4,19],[7,-1],[20,17],[-4,10],[8,11],[3,20],[-4,7],[11,5],[5,23],[29,-15],[31,-11],[16,27],[17,7],[42,57],[16,11],[17,20],[20,30],[56,1],[68,-30],[31,-20],[43,-12],[14,0],[8,8],[36,1],[22,-15],[21,13],[42,-9],[22,4]],[[6637,7351],[2,-49],[-8,-17],[-2,-21],[14,-7],[5,-19],[-6,-9],[25,-29],[20,-1],[4,-12],[-4,-13],[16,-27],[22,-4],[18,-24],[24,-1],[13,-12],[1,-27],[-11,-13],[7,-13],[14,1],[6,-11],[21,2],[6,-17],[10,-1],[21,7],[14,-8],[-2,-23],[20,-1],[8,-6],[18,-1],[9,-10],[12,7],[40,6],[16,10],[1,-19],[13,-20],[6,-16],[4,-60],[-11,-29],[-14,-1],[-2,-29],[18,-11],[1,-35],[7,-6],[-7,-46],[15,-8],[3,-32],[-5,-22],[9,-14],[0,-33],[-8,-31],[26,-18],[1,-31],[13,-22],[-2,-6],[24,-17],[32,-14],[3,-13],[-13,-7],[-5,-19],[-19,-33],[5,-6],[4,-29],[-17,-2],[-13,-11],[-1,-12]],[[6980,6008],[-26,-20],[-29,0],[-10,-18],[-35,-8],[-17,-21],[-11,-39],[-21,1],[-16,6],[-16,-22],[0,-11],[-10,5],[-24,-35],[-27,-51]],[[8364,6458],[-96,-99],[-19,-28]],[[8063,5995],[-29,-53],[-36,-61],[-19,-36],[-21,-51],[2,-20],[22,-26],[33,-16],[24,-13],[11,-36],[-7,-26],[-3,-63],[-14,-17],[-174,-26],[-206,-175],[-24,-24],[-36,-4],[-29,-8],[-72,-39],[-55,-32],[-42,-26],[-66,-37]],[[3841,697],[-5,-25],[-9,3],[-22,-49],[2,-29],[-18,-19],[-2,-19],[-17,-8],[-12,2],[-17,-7],[-3,-7],[-49,8],[-11,-3],[-9,-10],[-22,-8],[-16,8],[-20,-8],[-29,-25],[-13,5],[-42,-3],[-51,6],[-21,14],[-22,23],[-16,21],[-19,9],[-31,2],[-11,6],[-3,36],[-7,17],[-18,24],[-2,14],[-39,8],[-13,16],[-33,-1],[-9,2],[-12,36],[-8,7],[6,21],[-9,11],[-15,-36],[-13,-18],[-6,0],[-2,-24],[-24,-9],[-18,1],[-16,-27],[-14,-8],[-8,3],[-15,-9],[-13,4],[-14,-19],[-25,-15],[-11,6],[-25,-15],[-14,-30],[-13,-4],[-12,12],[11,27],[3,39],[-6,16],[-23,12],[-28,21],[-6,21],[-19,42],[4,27],[-9,19],[-75,40],[-24,17],[-10,31],[-37,11]],[[2732,910],[1,35],[10,24],[87,121],[-37,27],[-35,23],[-41,5],[-41,-5],[-23,28],[-22,13],[-45,-11],[-19,16],[-17,0],[-10,24],[-4,48],[-19,24],[-4,34],[-8,15],[-24,70],[1,6],[24,15],[6,14],[-8,14],[1,16],[-12,14],[-2,15],[-7,12],[-13,0],[-4,10],[3,23],[32,4],[9,6],[-2,50],[-11,44],[-18,21]],[[2480,1665],[11,13],[14,0],[14,-15],[19,14],[19,1],[38,-16],[15,8],[11,-10],[8,4],[13,-9],[18,3],[6,10],[29,-10],[14,0],[13,11],[20,10],[23,-15],[15,-3],[3,-9],[15,-3],[11,11],[15,1],[7,19],[24,6],[2,41],[9,5],[-13,29],[-11,15],[-2,17],[-11,-5],[3,22],[18,30],[2,19],[-4,12],[19,2],[35,-14],[9,-12],[-6,-17],[9,-15],[9,3],[15,-26],[3,-16],[11,-5],[8,-16],[3,-20],[16,-6],[6,-14],[28,-12],[7,-8],[21,3],[32,-13],[2,-8],[24,-10],[6,-12],[13,-10],[26,-27],[5,-10],[28,-8],[8,-11],[13,4],[10,-16],[26,-7],[13,-16],[15,-10],[15,7],[18,-7],[4,-11]],[[2480,1665],[-21,48],[-2,25],[4,18],[16,5],[2,16],[-11,25],[2,39],[-48,2],[-42,14],[-12,0],[-17,20],[-12,2],[-7,-9],[-33,5],[-15,-29],[-15,-7],[-9,-16],[2,-16],[-6,-2],[-8,-18],[-15,-6],[-16,4],[-24,13],[-15,-2],[-9,8],[-8,-5],[-4,22],[-20,9],[-5,-10],[-18,12],[-14,26],[1,15],[-19,-11],[-15,3],[-20,19],[-24,-4],[-9,35],[-23,-2],[10,15],[-19,-8],[-12,1],[-9,-22],[-26,3],[-18,-5],[1,-16],[7,-9],[-14,-35],[-20,-1],[2,-23],[-9,-15],[0,-22],[-31,-14],[-4,-15],[-11,-7],[-24,1],[-27,-16],[4,-12],[-9,-9],[4,-12],[-14,-11],[0,-13],[-8,-15],[-21,-5],[-6,-8],[-14,4],[-25,-5],[-7,6],[-16,-6],[-1,-11],[-32,-32],[-21,-5],[-3,-10],[-21,-9],[-6,-10],[-22,1],[-21,-9],[-13,1],[-9,-9],[-16,-1],[-1,-10],[8,-15],[-1,-22],[14,-11],[-10,-7],[-27,-8],[-9,20],[-46,-15],[-20,0],[-16,-10],[12,-41],[-11,-9],[-12,5],[-1,-17],[-11,0],[-21,10],[-20,-14],[-7,7],[-43,-32],[1,-10],[-15,-7],[2,-14],[-9,-13],[2,-12],[-28,-17],[1,-10],[-9,-11],[-39,8],[-15,-3],[-14,4],[-23,-13],[-12,-16],[-14,-30],[-25,-24]],[[1091,1208],[-40,-1],[-26,23],[-11,35],[-11,54],[3,35],[16,30],[4,22],[-6,35],[-3,56],[-17,10],[-7,10],[-17,7],[-17,36],[-17,9],[-12,32],[3,52],[7,12],[29,28],[4,15],[0,56],[-5,26],[-10,3],[-25,20],[-47,16],[-17,21],[-12,40],[-15,89],[-16,17],[-55,32],[-36,12]],[[2732,910],[-21,-5],[-16,1],[-35,-21],[-14,5],[-12,-15],[-43,-17],[-30,25],[0,9],[-23,6],[-11,10],[-7,22],[-8,-2],[-4,17],[-23,7],[-3,17],[-15,12],[9,17],[-15,1],[-3,11],[-9,-6],[-18,10],[-6,15],[-10,6],[-7,-6],[-11,6],[-3,-13],[-14,-1],[-1,-16],[-7,-6],[0,-24],[9,-3],[-13,-30],[9,4],[16,-12],[0,-13],[-9,-12],[-2,-17],[-7,-7],[8,-16],[-7,-13],[-18,-5],[6,-22],[-6,-11],[-1,-16],[-13,0],[-3,-13],[-11,-10],[16,-9],[-19,-29],[-2,-14],[-9,-4],[-21,-31],[11,-12],[-14,-11],[3,-39],[11,1],[-16,-15],[16,-5],[-3,-40],[-9,-7],[5,-18],[-13,-1],[9,-9],[-2,-14],[7,-7],[-1,-14],[-15,-8],[16,-9],[-14,-8],[6,-23],[-10,-7],[8,-17],[-18,-11],[0,-19],[-11,-6],[-8,8],[1,-24],[-12,3],[-6,-16],[6,-17],[-12,-9],[-5,-21],[-8,4],[-11,-27],[-18,-14],[-13,-3],[-22,-18],[-41,-1],[-8,-10],[-27,-7],[-41,5],[-28,-1],[-33,-21],[-12,-4],[-24,9],[-12,-3],[-27,-54],[-11,-2],[-19,8],[-17,13],[-11,-5],[-1,-31],[-6,-8],[-42,1],[-32,10],[-12,-21],[7,-24],[-2,-21],[-8,-3],[-22,3],[-5,-7],[4,-30],[-5,-12],[-13,10],[-28,6],[-18,-13],[-2,-19],[-18,0],[-15,8],[-24,23],[-9,1],[-35,-30],[-31,-10],[-40,-2],[-17,-5],[-18,-12],[-19,24],[14,19],[7,20],[-6,41],[17,28],[-2,29],[2,30],[-10,21],[1,13],[11,22],[0,25],[-16,33],[2,12],[12,14],[20,33],[24,10],[14,23],[3,58],[-7,29],[-8,14],[-17,20],[-44,16],[-25,0],[-40,-14],[-15,5],[-24,21],[-16,22],[-15,2],[-4,-15],[-15,4],[-14,44],[-34,101],[-12,58],[-34,70],[-17,23],[-31,5],[-14,15],[-18,36],[-39,95],[-19,13],[-8,12],[-1,19],[-14,37],[2,16],[37,34],[12,31],[1,40]]],"transform":{"scale":[0.00010683159515951654,0.00009599793569356962],"translate":[101.87342699000004,13.236708263000025]},"objects":{"Sa Kaeo":{"type":"GeometryCollection","geometries":[{"arcs":[[0,1,2,3,4,5]],"type":"Polygon","properties":{"Shape_Leng":0.530851163007,"Shape_Area":0.00403165902417,"ADM3_EN":"Sa Kaeo","ADM3_TH":"สระแก้ว","ADM3_PCODE":"TH270101","ADM2_EN":"Mueang Sa Kaeo","ADM2_TH":"เมืองสระแก้ว","ADM2_PCODE":"TH2701","ADM1_EN":"Sa Kaeo","ADM1_TH":"สระแก้ว","ADM1_PCODE":"TH27","ADM0_EN":"Thailand","ADM0_TH":"ประเทศไทย","ADM0_PCODE":"TH"}},{"arcs":[[6,7,8]],"type":"Polygon","properties":{"Shape_Leng":0.701619423745,"Shape_Area":0.00957004226206,"ADM3_EN":"Ban Kaeng","ADM3_TH":"บ้านแก้ง","ADM3_PCODE":"TH270102","ADM2_EN":"Mueang Sa Kaeo","ADM2_TH":"เมืองสระแก้ว","ADM2_PCODE":"TH2701","ADM1_EN":"Sa Kaeo","ADM1_TH":"สระแก้ว","ADM1_PCODE":"TH27","ADM0_EN":"Thailand","ADM0_TH":"ประเทศไทย","ADM0_PCODE":"TH"}},{"arcs":[[-5,9,10,-8,11]],"type":"Polygon","properties":{"Shape_Leng":0.734236077688,"Shape_Area":0.0102251791964,"ADM3_EN":"Sala Lamduan","ADM3_TH":"ศาลาลำดวน","ADM3_PCODE":"TH270103","ADM2_EN":"Mueang Sa Kaeo","ADM2_TH":"เมืองสระแก้ว","ADM2_PCODE":"TH2701","ADM1_EN":"Sa Kaeo","ADM1_TH":"สระแก้ว","ADM1_PCODE":"TH27","ADM0_EN":"Thailand","ADM0_TH":"ประเทศไทย","ADM0_PCODE":"TH"}},{"arcs":[[-6,-12,-7,12,13,14]],"type":"Polygon","properties":{"Shape_Leng":1.16369614762,"Shape_Area":0.0232743147092,"ADM3_EN":"Khok Pi Khong","ADM3_TH":"โคกปี่ฆ้อง","ADM3_PCODE":"TH270104","ADM2_EN":"Mueang Sa Kaeo","ADM2_TH":"เมืองสระแก้ว","ADM2_PCODE":"TH2701","ADM1_EN":"Sa Kaeo","ADM1_TH":"สระแก้ว","ADM1_PCODE":"TH27","ADM0_EN":"Thailand","ADM0_TH":"ประเทศไทย","ADM0_PCODE":"TH"}},{"arcs":[[-14,15,16,17,18]],"type":"Polygon","properties":{"Shape_Leng":1.18344200099,"Shape_Area":0.0346278082602,"ADM3_EN":"Tha Yaek","ADM3_TH":"ท่าแยก","ADM3_PCODE":"TH270105","ADM2_EN":"Mueang Sa Kaeo","ADM2_TH":"เมืองสระแก้ว","ADM2_PCODE":"TH2701","ADM1_EN":"Sa Kaeo","ADM1_TH":"สระแก้ว","ADM1_PCODE":"TH27","ADM0_EN":"Thailand","ADM0_TH":"ประเทศไทย","ADM0_PCODE":"TH"}},{"arcs":[[-2,19,20,21,22,23]],"type":"Polygon","properties":{"Shape_Leng":0.687849586942,"Shape_Area":0.0109726431571,"ADM3_EN":"Tha Kasem","ADM3_TH":"ท่าเกษม","ADM3_PCODE":"TH270106","ADM2_EN":"Mueang Sa Kaeo","ADM2_TH":"เมืองสระแก้ว","ADM2_PCODE":"TH2701","ADM1_EN":"Sa Kaeo","ADM1_TH":"สระแก้ว","ADM1_PCODE":"TH27","ADM0_EN":"Thailand","ADM0_TH":"ประเทศไทย","ADM0_PCODE":"TH"}},{"arcs":[[-4,24,25,26,27,-10]],"type":"Polygon","properties":{"Shape_Leng":0.798589519276,"Shape_Area":0.0137092216408,"ADM3_EN":"Sa Khwan","ADM3_TH":"สระขวัญ","ADM3_PCODE":"TH270108","ADM2_EN":"Mueang Sa Kaeo","ADM2_TH":"เมืองสระแก้ว","ADM2_PCODE":"TH2701","ADM1_EN":"Sa Kaeo","ADM1_TH":"สระแก้ว","ADM1_PCODE":"TH27","ADM0_EN":"Thailand","ADM0_TH":"ประเทศไทย","ADM0_PCODE":"TH"}},{"arcs":[[-1,-15,-19,28,29,-20]],"type":"Polygon","properties":{"Shape_Leng":0.563205498281,"Shape_Area":0.00799047610342,"ADM3_EN":"Nong Bon","ADM3_TH":"หนองบอน","ADM3_PCODE":"TH270111","ADM2_EN":"Mueang Sa Kaeo","ADM2_TH":"เมืองสระแก้ว","ADM2_PCODE":"TH2701","ADM1_EN":"Sa Kaeo","ADM1_TH":"สระแก้ว","ADM1_PCODE":"TH27","ADM0_EN":"Thailand","ADM0_TH":"ประเทศไทย","ADM0_PCODE":"TH"}},{"arcs":[[30,31,32,33,34,35,36]],"type":"Polygon","properties":{"Shape_Leng":0.650924753691,"Shape_Area":0.00938671695628,"ADM3_EN":"Khlong Hat","ADM3_TH":"คลองหาด","ADM3_PCODE":"TH270201","ADM2_EN":"Khlong Hat","ADM2_TH":"คลองหาด","ADM2_PCODE":"TH2702","ADM1_EN":"Sa Kaeo","ADM1_TH":"สระแก้ว","ADM1_PCODE":"TH27","ADM0_EN":"Thailand","ADM0_TH":"ประเทศไทย","ADM0_PCODE":"TH"}},{"arcs":[[-34,37,38,39]],"type":"Polygon","properties":{"Shape_Leng":0.365681424167,"Shape_Area":0.00455116201325,"ADM3_EN":"Thai Udom","ADM3_TH":"ไทยอุดม","ADM3_PCODE":"TH270202","ADM2_EN":"Khlong Hat","ADM2_TH":"คลองหาด","ADM2_PCODE":"TH2702","ADM1_EN":"Sa Kaeo","ADM1_TH":"สระแก้ว","ADM1_PCODE":"TH27","ADM0_EN":"Thailand","ADM0_TH":"ประเทศไทย","ADM0_PCODE":"TH"}},{"arcs":[[-36,40,41,42,43,44]],"type":"Polygon","properties":{"Shape_Leng":0.430822827844,"Shape_Area":0.00457282029468,"ADM3_EN":"Sap Makrut","ADM3_TH":"ซับมะกรูด","ADM3_PCODE":"TH270203","ADM2_EN":"Khlong Hat","ADM2_TH":"คลองหาด","ADM2_PCODE":"TH2702","ADM1_EN":"Sa Kaeo","ADM1_TH":"สระแก้ว","ADM1_PCODE":"TH27","ADM0_EN":"Thailand","ADM0_TH":"ประเทศไทย","ADM0_PCODE":"TH"}},{"arcs":[[-43,45,46,47,48]],"type":"Polygon","properties":{"Shape_Leng":0.463351589802,"Shape_Area":0.00538020458339,"ADM3_EN":"Sai Diao","ADM3_TH":"ไทรเดี่ยว","ADM3_PCODE":"TH270204","ADM2_EN":"Khlong Hat","ADM2_TH":"คลองหาด","ADM2_PCODE":"TH2702","ADM1_EN":"Sa Kaeo","ADM1_TH":"สระแก้ว","ADM1_PCODE":"TH27","ADM0_EN":"Thailand","ADM0_TH":"ประเทศไทย","ADM0_PCODE":"TH"}},{"arcs":[[-33,49,50,-38]],"type":"Polygon","properties":{"Shape_Leng":0.565614743636,"Shape_Area":0.0075473593656,"ADM3_EN":"Khlong Kai Thuean","ADM3_TH":"คลองไก่เถื่อน","ADM3_PCODE":"TH270205","ADM2_EN":"Khlong Hat","ADM2_TH":"คลองหาด","ADM2_PCODE":"TH2702","ADM1_EN":"Sa Kaeo","ADM1_TH":"สระแก้ว","ADM1_PCODE":"TH27","ADM0_EN":"Thailand","ADM0_TH":"ประเทศไทย","ADM0_PCODE":"TH"}},{"arcs":[[-37,-45,51,52]],"type":"Polygon","properties":{"Shape_Leng":0.419737302211,"Shape_Area":0.00426356393109,"ADM3_EN":"Benchakhon","ADM3_TH":"เบญจขร","ADM3_PCODE":"TH270206","ADM2_EN":"Khlong Hat","ADM2_TH":"คลองหาด","ADM2_PCODE":"TH2702","ADM1_EN":"Sa Kaeo","ADM1_TH":"สระแก้ว","ADM1_PCODE":"TH27","ADM0_EN":"Thailand","ADM0_TH":"ประเทศไทย","ADM0_PCODE":"TH"}},{"arcs":[[-44,-49,53,54,55,56,57,-52]],"type":"Polygon","properties":{"Shape_Leng":0.519194622183,"Shape_Area":0.00484175206844,"ADM3_EN":"Sai Thong","ADM3_TH":"ไทรทอง","ADM3_PCODE":"TH270207","ADM2_EN":"Khlong Hat","ADM2_TH":"คลองหาด","ADM2_PCODE":"TH2702","ADM1_EN":"Sa Kaeo","ADM1_TH":"สระแก้ว","ADM1_PCODE":"TH27","ADM0_EN":"Thailand","ADM0_TH":"ประเทศไทย","ADM0_PCODE":"TH"}},{"arcs":[[58,59,60,61,62]],"type":"Polygon","properties":{"Shape_Leng":0.62782932532,"Shape_Area":0.0173851592357,"ADM3_EN":"Ta Phraya","ADM3_TH":"ตาพระยา","ADM3_PCODE":"TH270301","ADM2_EN":"Ta Phraya","ADM2_TH":"ตาพระยา","ADM2_PCODE":"TH2703","ADM1_EN":"Sa Kaeo","ADM1_TH":"สระแก้ว","ADM1_PCODE":"TH27","ADM0_EN":"Thailand","ADM0_TH":"ประเทศไทย","ADM0_PCODE":"TH"}},{"arcs":[[-63,63,64]],"type":"Polygon","properties":{"Shape_Leng":0.549679288572,"Shape_Area":0.00790257422548,"ADM3_EN":"Thap Sadet","ADM3_TH":"ทัพเสด็จ","ADM3_PCODE":"TH270302","ADM2_EN":"Ta Phraya","ADM2_TH":"ตาพระยา","ADM2_PCODE":"TH2703","ADM1_EN":"Sa Kaeo","ADM1_TH":"สระแก้ว","ADM1_PCODE":"TH27","ADM0_EN":"Thailand","ADM0_TH":"ประเทศไทย","ADM0_PCODE":"TH"}},{"arcs":[[-62,65,66,67,68]],"type":"Polygon","properties":{"Shape_Leng":0.909255544437,"Shape_Area":0.033856308855,"ADM3_EN":"Thap Rat","ADM3_TH":"ทัพราช","ADM3_PCODE":"TH270306","ADM2_EN":"Ta Phraya","ADM2_TH":"ตาพระยา","ADM2_PCODE":"TH2703","ADM1_EN":"Sa Kaeo","ADM1_TH":"สระแก้ว","ADM1_PCODE":"TH27","ADM0_EN":"Thailand","ADM0_TH":"ประเทศไทย","ADM0_PCODE":"TH"}},{"arcs":[[-64,-69,69]],"type":"Polygon","properties":{"Shape_Leng":0.715894296612,"Shape_Area":0.0128244282242,"ADM3_EN":"Thap Thai","ADM3_TH":"ทัพไทย","ADM3_PCODE":"TH270307","ADM2_EN":"Ta Phraya","ADM2_TH":"ตาพระยา","ADM2_PCODE":"TH2703","ADM1_EN":"Sa Kaeo","ADM1_TH":"สระแก้ว","ADM1_PCODE":"TH27","ADM0_EN":"Thailand","ADM0_TH":"ประเทศไทย","ADM0_PCODE":"TH"}},{"arcs":[[-61,70,71,-66]],"type":"Polygon","properties":{"Shape_Leng":0.436616706998,"Shape_Area":0.00853776171351,"ADM3_EN":"Kho Khlan","ADM3_TH":"โคคลาน","ADM3_PCODE":"TH270309","ADM2_EN":"Ta Phraya","ADM2_TH":"ตาพระยา","ADM2_PCODE":"TH2703","ADM1_EN":"Sa Kaeo","ADM1_TH":"สระแก้ว","ADM1_PCODE":"TH27","ADM0_EN":"Thailand","ADM0_TH":"ประเทศไทย","ADM0_PCODE":"TH"}},{"arcs":[[-42,72,73,74,-46]],"type":"Polygon","properties":{"Shape_Leng":0.488957459319,"Shape_Area":0.00687798606119,"ADM3_EN":"Wang Nam Yen","ADM3_TH":"วังน้ำเย็น","ADM3_PCODE":"TH270401","ADM2_EN":"Wang Nam Yen","ADM2_TH":"วังน้ำเย็น","ADM2_PCODE":"TH2704","ADM1_EN":"Sa Kaeo","ADM1_TH":"สระแก้ว","ADM1_PCODE":"TH27","ADM0_EN":"Thailand","ADM0_TH":"ประเทศไทย","ADM0_PCODE":"TH"}},{"arcs":[[-74,75,76,77,78]],"type":"Polygon","properties":{"Shape_Leng":0.610672734945,"Shape_Area":0.0080508262533,"ADM3_EN":"Ta Lang Nai","ADM3_TH":"ตาหลังใน","ADM3_PCODE":"TH270403","ADM2_EN":"Wang Nam Yen","ADM2_TH":"วังน้ำเย็น","ADM2_PCODE":"TH2704","ADM1_EN":"Sa Kaeo","ADM1_TH":"สระแก้ว","ADM1_PCODE":"TH27","ADM0_EN":"Thailand","ADM0_TH":"ประเทศไทย","ADM0_PCODE":"TH"}},{"arcs":[[-47,-75,-79,79,80,81,82]],"type":"Polygon","properties":{"Shape_Leng":0.520003131087,"Shape_Area":0.00647201613406,"ADM3_EN":"Khlong Hin Pun","ADM3_TH":"คลองหินปูน","ADM3_PCODE":"TH270405","ADM2_EN":"Wang Nam Yen","ADM2_TH":"วังน้ำเย็น","ADM2_PCODE":"TH2704","ADM1_EN":"Sa Kaeo","ADM1_TH":"สระแก้ว","ADM1_PCODE":"TH27","ADM0_EN":"Thailand","ADM0_TH":"ประเทศไทย","ADM0_PCODE":"TH"}},{"arcs":[[-77,83,84,85]],"type":"Polygon","properties":{"Shape_Leng":0.595663556142,"Shape_Area":0.0131220278143,"ADM3_EN":"Thung Mahacharoen","ADM3_TH":"ทุ่งมหาเจริญ","ADM3_PCODE":"TH270406","ADM2_EN":"Wang Nam Yen","ADM2_TH":"วังน้ำเย็น","ADM2_PCODE":"TH2704","ADM1_EN":"Sa Kaeo","ADM1_TH":"สระแก้ว","ADM1_PCODE":"TH27","ADM0_EN":"Thailand","ADM0_TH":"ประเทศไทย","ADM0_PCODE":"TH"}},{"arcs":[[86,87,88,89,90,91]],"type":"Polygon","properties":{"Shape_Leng":0.54195333873,"Shape_Area":0.00638401662399,"ADM3_EN":"Watthana Nakhon","ADM3_TH":"วัฒนานคร","ADM3_PCODE":"TH270501","ADM2_EN":"Watthana Nakhon","ADM2_TH":"วัฒนานคร","ADM2_PCODE":"TH2705","ADM1_EN":"Sa Kaeo","ADM1_TH":"สระแก้ว","ADM1_PCODE":"TH27","ADM0_EN":"Thailand","ADM0_TH":"ประเทศไทย","ADM0_PCODE":"TH"}},{"arcs":[[-23,92,-90,93,-54,-48,-83,94]],"type":"Polygon","properties":{"Shape_Leng":0.742535966398,"Shape_Area":0.013361284507,"ADM3_EN":"Tha Kwian","ADM3_TH":"ท่าเกวียน","ADM3_PCODE":"TH270502","ADM2_EN":"Watthana Nakhon","ADM2_TH":"วัฒนานคร","ADM2_PCODE":"TH2705","ADM1_EN":"Sa Kaeo","ADM1_TH":"สระแก้ว","ADM1_PCODE":"TH27","ADM0_EN":"Thailand","ADM0_TH":"ประเทศไทย","ADM0_PCODE":"TH"}},{"arcs":[[-55,-94,-89,95,96,97]],"type":"Polygon","properties":{"Shape_Leng":0.585529465584,"Shape_Area":0.00692460797959,"ADM3_EN":"Phak Kha","ADM3_TH":"ผักขะ","ADM3_PCODE":"TH270503","ADM2_EN":"Watthana Nakhon","ADM2_TH":"วัฒนานคร","ADM2_PCODE":"TH2705","ADM1_EN":"Sa Kaeo","ADM1_TH":"สระแก้ว","ADM1_PCODE":"TH27","ADM0_EN":"Thailand","ADM0_TH":"ประเทศไทย","ADM0_PCODE":"TH"}},{"arcs":[[-21,-30,98,99,100,-92,101]],"type":"Polygon","properties":{"Shape_Leng":0.81390565369,"Shape_Area":0.0130541651108,"ADM3_EN":"Non Mak Kheng","ADM3_TH":"โนนหมากเค็ง","ADM3_PCODE":"TH270504","ADM2_EN":"Watthana Nakhon","ADM2_TH":"วัฒนานคร","ADM2_PCODE":"TH2705","ADM1_EN":"Sa Kaeo","ADM1_TH":"สระแก้ว","ADM1_PCODE":"TH27","ADM0_EN":"Thailand","ADM0_TH":"ประเทศไทย","ADM0_PCODE":"TH"}},{"arcs":[[-100,102,103,104,105,106]],"type":"Polygon","properties":{"Shape_Leng":0.526448301351,"Shape_Area":0.0053874606008,"ADM3_EN":"Nong Nam Sai","ADM3_TH":"หนองน้ำใส","ADM3_PCODE":"TH270505","ADM2_EN":"Watthana Nakhon","ADM2_TH":"วัฒนานคร","ADM2_PCODE":"TH2705","ADM1_EN":"Sa Kaeo","ADM1_TH":"สระแก้ว","ADM1_PCODE":"TH27","ADM0_EN":"Thailand","ADM0_TH":"ประเทศไทย","ADM0_PCODE":"TH"}},{"arcs":[[-105,107,108,109,110]],"type":"Polygon","properties":{"Shape_Leng":0.896623819597,"Shape_Area":0.017068933685,"ADM3_EN":"Chong Kum","ADM3_TH":"ช่องกุ่ม","ADM3_PCODE":"TH270506","ADM2_EN":"Watthana Nakhon","ADM2_TH":"วัฒนานคร","ADM2_PCODE":"TH2705","ADM1_EN":"Sa Kaeo","ADM1_TH":"สระแก้ว","ADM1_PCODE":"TH27","ADM0_EN":"Thailand","ADM0_TH":"ประเทศไทย","ADM0_PCODE":"TH"}},{"arcs":[[-87,-101,-107,111]],"type":"Polygon","properties":{"Shape_Leng":0.332497313308,"Shape_Area":0.00400613466435,"ADM3_EN":"Nong Waeng","ADM3_TH":"หนองแวง","ADM3_PCODE":"TH270507","ADM2_EN":"Watthana Nakhon","ADM2_TH":"วัฒนานคร","ADM2_PCODE":"TH2705","ADM1_EN":"Sa Kaeo","ADM1_TH":"สระแก้ว","ADM1_PCODE":"TH27","ADM0_EN":"Thailand","ADM0_TH":"ประเทศไทย","ADM0_PCODE":"TH"}},{"arcs":[[-67,-72,112,113,114,115,-110,116]],"type":"Polygon","properties":{"Shape_Leng":0.9226931237,"Shape_Area":0.0172042955234,"ADM3_EN":"Sae-O","ADM3_TH":"แซร์ออ","ADM3_PCODE":"TH270508","ADM2_EN":"Watthana Nakhon","ADM2_TH":"วัฒนานคร","ADM2_PCODE":"TH2705","ADM1_EN":"Sa Kaeo","ADM1_TH":"สระแก้ว","ADM1_PCODE":"TH27","ADM0_EN":"Thailand","ADM0_TH":"ประเทศไทย","ADM0_PCODE":"TH"}},{"arcs":[[-17,117,-108,-104,118]],"type":"Polygon","properties":{"Shape_Leng":1.11247104871,"Shape_Area":0.0281439911017,"ADM3_EN":"Nong Mak Fai","ADM3_TH":"หนองหมากฝ้าย","ADM3_PCODE":"TH270509","ADM2_EN":"Watthana Nakhon","ADM2_TH":"วัฒนานคร","ADM2_PCODE":"TH2705","ADM1_EN":"Sa Kaeo","ADM1_TH":"สระแก้ว","ADM1_PCODE":"TH27","ADM0_EN":"Thailand","ADM0_TH":"ประเทศไทย","ADM0_PCODE":"TH"}},{"arcs":[[-18,-119,-103,-99,-29]],"type":"Polygon","properties":{"Shape_Leng":0.645120938259,"Shape_Area":0.0098023984499,"ADM3_EN":"Nong Takhian Bon","ADM3_TH":"หนองตะเคียนบอน","ADM3_PCODE":"TH270510","ADM2_EN":"Watthana Nakhon","ADM2_TH":"วัฒนานคร","ADM2_PCODE":"TH2705","ADM1_EN":"Sa Kaeo","ADM1_TH":"สระแก้ว","ADM1_PCODE":"TH27","ADM0_EN":"Thailand","ADM0_TH":"ประเทศไทย","ADM0_PCODE":"TH"}},{"arcs":[[-22,-102,-91,-93]],"type":"Polygon","properties":{"Shape_Leng":0.718880155576,"Shape_Area":0.00761786780254,"ADM3_EN":"Huai Chot","ADM3_TH":"ห้วยโจด","ADM3_PCODE":"TH270511","ADM2_EN":"Watthana Nakhon","ADM2_TH":"วัฒนานคร","ADM2_PCODE":"TH2705","ADM1_EN":"Sa Kaeo","ADM1_TH":"สระแก้ว","ADM1_PCODE":"TH27","ADM0_EN":"Thailand","ADM0_TH":"ประเทศไทย","ADM0_PCODE":"TH"}},{"arcs":[[119,120,121,122,123]],"type":"Polygon","properties":{"Shape_Leng":0.212176438195,"Shape_Area":0.000791840142486,"ADM3_EN":"Aranyaprathet","ADM3_TH":"อรัญประเทศ","ADM3_PCODE":"TH270601","ADM2_EN":"Aranyaprathet","ADM2_TH":"อรัญประเทศ","ADM2_PCODE":"TH2706","ADM1_EN":"Sa Kaeo","ADM1_TH":"สระแก้ว","ADM1_PCODE":"TH27","ADM0_EN":"Thailand","ADM0_TH":"ประเทศไทย","ADM0_PCODE":"TH"}},{"arcs":[[124,125,126,127]],"type":"Polygon","properties":{"Shape_Leng":0.363686156829,"Shape_Area":0.00300326239539,"ADM3_EN":"Mueang Phai","ADM3_TH":"เมืองไผ่","ADM3_PCODE":"TH270602","ADM2_EN":"Aranyaprathet","ADM2_TH":"อรัญประเทศ","ADM2_PCODE":"TH2706","ADM1_EN":"Sa Kaeo","ADM1_TH":"สระแก้ว","ADM1_PCODE":"TH27","ADM0_EN":"Thailand","ADM0_TH":"ประเทศไทย","ADM0_PCODE":"TH"}},{"arcs":[[-88,-112,-106,-111,-116,128,129,-96]],"type":"Polygon","properties":{"Shape_Leng":0.45825541277,"Shape_Area":0.009254274326,"ADM3_EN":"Han Sai","ADM3_TH":"หันทราย","ADM3_PCODE":"TH270603","ADM2_EN":"Aranyaprathet","ADM2_TH":"อรัญประเทศ","ADM2_PCODE":"TH2706","ADM1_EN":"Sa Kaeo","ADM1_TH":"สระแก้ว","ADM1_PCODE":"TH27","ADM0_EN":"Thailand","ADM0_TH":"ประเทศไทย","ADM0_PCODE":"TH"}},{"arcs":[[130,131,132,133]],"type":"Polygon","properties":{"Shape_Leng":0.388268906366,"Shape_Area":0.00415896329355,"ADM3_EN":"Khlong Nam Sai","ADM3_TH":"คลองน้ำใส","ADM3_PCODE":"TH270604","ADM2_EN":"Aranyaprathet","ADM2_TH":"อรัญประเทศ","ADM2_PCODE":"TH2706","ADM1_EN":"Sa Kaeo","ADM1_TH":"สระแก้ว","ADM1_PCODE":"TH27","ADM0_EN":"Thailand","ADM0_TH":"ประเทศไทย","ADM0_PCODE":"TH"}},{"arcs":[[-122,134,-134,135]],"type":"Polygon","properties":{"Shape_Leng":0.43237153061,"Shape_Area":0.00430299748623,"ADM3_EN":"Tha Kham","ADM3_TH":"ท่าข้าม","ADM3_PCODE":"TH270605","ADM2_EN":"Aranyaprathet","ADM2_TH":"อรัญประเทศ","ADM2_PCODE":"TH2706","ADM1_EN":"Sa Kaeo","ADM1_TH":"สระแก้ว","ADM1_PCODE":"TH27","ADM0_EN":"Thailand","ADM0_TH":"ประเทศไทย","ADM0_PCODE":"TH"}},{"arcs":[[-120,136,137,138,139,140]],"type":"Polygon","properties":{"Shape_Leng":0.456154462412,"Shape_Area":0.00858951684022,"ADM3_EN":"Pa Rai","ADM3_TH":"ป่าไร่","ADM3_PCODE":"TH270606","ADM2_EN":"Aranyaprathet","ADM2_TH":"อรัญประเทศ","ADM2_PCODE":"TH2706","ADM1_EN":"Sa Kaeo","ADM1_TH":"สระแก้ว","ADM1_PCODE":"TH27","ADM0_EN":"Thailand","ADM0_TH":"ประเทศไทย","ADM0_PCODE":"TH"}},{"arcs":[[-31,-53,-58,141,142]],"type":"Polygon","properties":{"Shape_Leng":0.416883716017,"Shape_Area":0.00358774886565,"ADM3_EN":"Thap Phrik","ADM3_TH":"ทับพริก","ADM3_PCODE":"TH270607","ADM2_EN":"Aranyaprathet","ADM2_TH":"อรัญประเทศ","ADM2_PCODE":"TH2706","ADM1_EN":"Sa Kaeo","ADM1_TH":"สระแก้ว","ADM1_PCODE":"TH27","ADM0_EN":"Thailand","ADM0_TH":"ประเทศไทย","ADM0_PCODE":"TH"}},{"arcs":[[-124,143,-128,144,145,-137]],"type":"Polygon","properties":{"Shape_Leng":0.343148968925,"Shape_Area":0.00264039724207,"ADM3_EN":"Ban Mai Nong Sai","ADM3_TH":"บ้านใหม่หนองไทร","ADM3_PCODE":"TH270608","ADM2_EN":"Aranyaprathet","ADM2_TH":"อรัญประเทศ","ADM2_PCODE":"TH2706","ADM1_EN":"Sa Kaeo","ADM1_TH":"สระแก้ว","ADM1_PCODE":"TH27","ADM0_EN":"Thailand","ADM0_TH":"ประเทศไทย","ADM0_PCODE":"TH"}},{"arcs":[[-57,146,-126,147,-132,148,-142]],"type":"Polygon","properties":{"Shape_Leng":0.509573099766,"Shape_Area":0.00542496242672,"ADM3_EN":"Phan Suek","ADM3_TH":"ผ่านศึก","ADM3_PCODE":"TH270609","ADM2_EN":"Aranyaprathet","ADM2_TH":"อรัญประเทศ","ADM2_PCODE":"TH2706","ADM1_EN":"Sa Kaeo","ADM1_TH":"สระแก้ว","ADM1_PCODE":"TH27","ADM0_EN":"Thailand","ADM0_TH":"ประเทศไทย","ADM0_PCODE":"TH"}},{"arcs":[[-115,149,-139,150,-129]],"type":"Polygon","properties":{"Shape_Leng":0.372560695134,"Shape_Area":0.00732322399078,"ADM3_EN":"Nong Sang","ADM3_TH":"หนองสังข์","ADM3_PCODE":"TH270610","ADM2_EN":"Aranyaprathet","ADM2_TH":"อรัญประเทศ","ADM2_PCODE":"TH2706","ADM1_EN":"Sa Kaeo","ADM1_TH":"สระแก้ว","ADM1_PCODE":"TH27","ADM0_EN":"Thailand","ADM0_TH":"ประเทศไทย","ADM0_PCODE":"TH"}},{"arcs":[[-56,-98,151,-145,-127,-147]],"type":"Polygon","properties":{"Shape_Leng":0.485834250209,"Shape_Area":0.00531685823283,"ADM3_EN":"Khlong Thap Chan","ADM3_TH":"คลองทับจันทร์","ADM3_PCODE":"TH270611","ADM2_EN":"Aranyaprathet","ADM2_TH":"อรัญประเทศ","ADM2_PCODE":"TH2706","ADM1_EN":"Sa Kaeo","ADM1_TH":"สระแก้ว","ADM1_PCODE":"TH27","ADM0_EN":"Thailand","ADM0_TH":"ประเทศไทย","ADM0_PCODE":"TH"}},{"arcs":[[-123,-136,-133,-148,-125,-144]],"type":"Polygon","properties":{"Shape_Leng":0.377033822508,"Shape_Area":0.00361148621844,"ADM3_EN":"Fak Huai","ADM3_TH":"ฟากห้วย","ADM3_PCODE":"TH270612","ADM2_EN":"Aranyaprathet","ADM2_TH":"อรัญประเทศ","ADM2_PCODE":"TH2706","ADM1_EN":"Sa Kaeo","ADM1_TH":"สระแก้ว","ADM1_PCODE":"TH27","ADM0_EN":"Thailand","ADM0_TH":"ประเทศไทย","ADM0_PCODE":"TH"}},{"arcs":[[-97,-130,-151,-138,-146,-152]],"type":"Polygon","properties":{"Shape_Leng":0.409436308829,"Shape_Area":0.00341045753264,"ADM3_EN":"Ban Dan","ADM3_TH":"บ้านด่าน","ADM3_PCODE":"TH270613","ADM2_EN":"Aranyaprathet","ADM2_TH":"อรัญประเทศ","ADM2_PCODE":"TH2706","ADM1_EN":"Sa Kaeo","ADM1_TH":"สระแก้ว","ADM1_PCODE":"TH27","ADM0_EN":"Thailand","ADM0_TH":"ประเทศไทย","ADM0_PCODE":"TH"}},{"arcs":[[-26,152,-81,153,154]],"type":"Polygon","properties":{"Shape_Leng":0.416871777381,"Shape_Area":0.00319031667587,"ADM3_EN":"Khao Chakan","ADM3_TH":"เขาฉกรรจ์","ADM3_PCODE":"TH270701","ADM2_EN":"Khao Chakan","ADM2_TH":"เขาฉกรรจ์","ADM2_PCODE":"TH2707","ADM1_EN":"Sa Kaeo","ADM1_TH":"สระแก้ว","ADM1_PCODE":"TH27","ADM0_EN":"Thailand","ADM0_TH":"ประเทศไทย","ADM0_PCODE":"TH"}},{"arcs":[[-27,-155,155,156]],"type":"Polygon","properties":{"Shape_Leng":0.910853622523,"Shape_Area":0.0155094209159,"ADM3_EN":"Nong Wa","ADM3_TH":"หนองหว้า","ADM3_PCODE":"TH270702","ADM2_EN":"Khao Chakan","ADM2_TH":"เขาฉกรรจ์","ADM2_PCODE":"TH2707","ADM1_EN":"Sa Kaeo","ADM1_TH":"สระแก้ว","ADM1_PCODE":"TH27","ADM0_EN":"Thailand","ADM0_TH":"ประเทศไทย","ADM0_PCODE":"TH"}},{"arcs":[[-78,-86,157,-156,-154,-80]],"type":"Polygon","properties":{"Shape_Leng":0.950881863884,"Shape_Area":0.0132340628751,"ADM3_EN":"Phra Phloeng","ADM3_TH":"พระเพลิง","ADM3_PCODE":"TH270703","ADM2_EN":"Khao Chakan","ADM2_TH":"เขาฉกรรจ์","ADM2_PCODE":"TH2707","ADM1_EN":"Sa Kaeo","ADM1_TH":"สระแก้ว","ADM1_PCODE":"TH27","ADM0_EN":"Thailand","ADM0_TH":"ประเทศไทย","ADM0_PCODE":"TH"}},{"arcs":[[-3,-24,-95,-82,-153,-25]],"type":"Polygon","properties":{"Shape_Leng":0.45521745882,"Shape_Area":0.00379395027818,"ADM3_EN":"Khao Sam Sip","ADM3_TH":"เขาสามสิบ","ADM3_PCODE":"TH270704","ADM2_EN":"Khao Chakan","ADM2_TH":"เขาฉกรรจ์","ADM2_PCODE":"TH2707","ADM1_EN":"Sa Kaeo","ADM1_TH":"สระแก้ว","ADM1_PCODE":"TH27","ADM0_EN":"Thailand","ADM0_TH":"ประเทศไทย","ADM0_PCODE":"TH"}},{"arcs":[[158,159,160,161]],"type":"Polygon","properties":{"Shape_Leng":0.422068543841,"Shape_Area":0.00420684734742,"ADM3_EN":"Khok Sung","ADM3_TH":"โคกสูง","ADM3_PCODE":"TH270801","ADM2_EN":"Khok Sung","ADM2_TH":"โคกสูง","ADM2_PCODE":"TH2708","ADM1_EN":"Sa Kaeo","ADM1_TH":"สระแก้ว","ADM1_PCODE":"TH27","ADM0_EN":"Thailand","ADM0_TH":"ประเทศไทย","ADM0_PCODE":"TH"}},{"arcs":[[-114,162,-161,163,-150]],"type":"Polygon","properties":{"Shape_Leng":0.514562904777,"Shape_Area":0.00902913749538,"ADM3_EN":"Nong Muang","ADM3_TH":"หนองม่วง","ADM3_PCODE":"TH270802","ADM2_EN":"Khok Sung","ADM2_TH":"โคกสูง","ADM2_PCODE":"TH2708","ADM1_EN":"Sa Kaeo","ADM1_TH":"สระแก้ว","ADM1_PCODE":"TH27","ADM0_EN":"Thailand","ADM0_TH":"ประเทศไทย","ADM0_PCODE":"TH"}},{"arcs":[[-60,164,-162,-163,-113,-71]],"type":"Polygon","properties":{"Shape_Leng":0.656956259812,"Shape_Area":0.00900455480527,"ADM3_EN":"Nong Waeng","ADM3_TH":"หนองแวง","ADM3_PCODE":"TH270803","ADM2_EN":"Khok Sung","ADM2_TH":"โคกสูง","ADM2_PCODE":"TH2708","ADM1_EN":"Sa Kaeo","ADM1_TH":"สระแก้ว","ADM1_PCODE":"TH27","ADM0_EN":"Thailand","ADM0_TH":"ประเทศไทย","ADM0_PCODE":"TH"}},{"arcs":[[-140,-164,-160,165]],"type":"Polygon","properties":{"Shape_Leng":0.431620381703,"Shape_Area":0.00627210094816,"ADM3_EN":"Non Mak Mun","ADM3_TH":"โนนหมากมุ่น","ADM3_PCODE":"TH270804","ADM2_EN":"Khok Sung","ADM2_TH":"โคกสูง","ADM2_PCODE":"TH2708","ADM1_EN":"Sa Kaeo","ADM1_TH":"สระแก้ว","ADM1_PCODE":"TH27","ADM0_EN":"Thailand","ADM0_TH":"ประเทศไทย","ADM0_PCODE":"TH"}},{"arcs":[[-39,-51,166,167,168]],"type":"Polygon","properties":{"Shape_Leng":0.629032441081,"Shape_Area":0.00927152489913,"ADM3_EN":"Wang Sombun","ADM3_TH":"วังสมบูรณ์","ADM3_PCODE":"TH270901","ADM2_EN":"Wang Sombun","ADM2_TH":"วังสมบูรณ์","ADM2_PCODE":"TH2709","ADM1_EN":"Sa Kaeo","ADM1_TH":"สระแก้ว","ADM1_PCODE":"TH27","ADM0_EN":"Thailand","ADM0_TH":"ประเทศไทย","ADM0_PCODE":"TH"}},{"arcs":[[-35,-40,-169,169,170,-84,-76,-73,-41]],"type":"Polygon","properties":{"Shape_Leng":1.03427274175,"Shape_Area":0.0150142998335,"ADM3_EN":"Wang Mai","ADM3_TH":"วังใหม่","ADM3_PCODE":"TH270902","ADM2_EN":"Wang Sombun","ADM2_TH":"วังสมบูรณ์","ADM2_PCODE":"TH2709","ADM1_EN":"Sa Kaeo","ADM1_TH":"สระแก้ว","ADM1_PCODE":"TH27","ADM0_EN":"Thailand","ADM0_TH":"ประเทศไทย","ADM0_PCODE":"TH"}},{"arcs":[[-168,171,-170]],"type":"Polygon","properties":{"Shape_Leng":0.82297499469,"Shape_Area":0.01860120688,"ADM3_EN":"Wang Thong","ADM3_TH":"วังทอง","ADM3_PCODE":"TH270903","ADM2_EN":"Wang Sombun","ADM2_TH":"วังสมบูรณ์","ADM2_PCODE":"TH2709","ADM1_EN":"Sa Kaeo","ADM1_TH":"สระแก้ว","ADM1_PCODE":"TH27","ADM0_EN":"Thailand","ADM0_TH":"ประเทศไทย","ADM0_PCODE":"TH"}}]}}}