{"type":"Topology","arcs":[[[6444,3901],[-65,-73]],[[6379,3828],[-40,59],[-123,71],[-41,-1],[-65,-64],[-34,-85],[-42,-190],[-78,-59]],[[5956,3559],[-24,61],[306,881]],[[6238,4501],[337,-54]],[[6575,4447],[347,-49],[43,-121],[-48,-13],[-88,-65]],[[6829,4199],[-123,-61],[-272,-171],[10,-66]],[[6379,3828],[10,-150],[-52,-69],[-192,-77],[-72,-94]],[[6073,3438],[-53,5],[-43,75]],[[5977,3518],[-21,41]],[[6444,3901],[32,-255],[-85,-85],[-161,-139],[-157,16]],[[4789,1335],[-26,9],[-130,-47],[-1,-47],[-39,-24],[-17,67],[-99,-29],[4,-43],[-55,-18],[-30,33],[-108,-33],[-29,-59],[-43,38],[-28,-48],[-94,11],[-14,-39]],[[4080,1106],[-29,35],[-59,255],[-75,542],[-30,169],[-76,-15],[-28,253],[15,87],[86,202],[-23,84],[-41,-9],[-25,155],[-56,67],[-67,162],[-13,62]],[[3659,3155],[428,190]],[[4087,3345],[45,-81],[-37,-158],[22,-100],[-10,-38],[88,-159],[74,-67],[46,-127],[40,-196],[53,-184],[57,-61],[87,-143],[105,-353],[59,-214],[45,-13],[28,-116]],[[4080,1106],[-43,-33],[-204,-80],[-95,0],[-1,-23],[-83,-31],[-7,41],[-51,-56],[-195,-53],[-14,-26],[-141,-43],[-2,23],[-87,-53]],[[3157,772],[-71,319],[-20,69],[-96,404],[-54,212],[3,21],[-50,264],[24,22],[-16,64],[29,150],[40,75],[-8,96],[-63,156],[-28,9],[1,112],[-64,115],[-70,14],[-110,-55],[-179,67],[-53,55]],[[2372,2941],[48,38],[35,168],[119,-103],[186,242],[1,26],[201,164],[140,140]],[[3102,3616],[75,26],[40,106],[81,-37],[64,66]],[[3362,3777],[48,-107],[-80,-74],[31,-28],[55,19],[63,-27],[59,-95],[-26,-69],[30,-70],[73,-68],[44,-103]],[[3157,772],[-26,-25],[-39,35],[-46,-60],[-56,-17],[-290,-127]],[[2700,578],[-98,375],[-93,296],[-75,257],[-50,202],[-35,54],[10,93],[-109,37],[-18,26],[-49,298],[16,113],[0,112],[-160,-55],[-91,-67],[2,165],[27,100]],[[1977,2584],[37,15],[45,-37],[70,-11],[72,-45],[19,111],[88,35],[-24,99],[58,145],[30,45]],[[2700,578],[-135,-58],[-67,9],[3,-30],[-85,-37],[-14,35],[-106,-72],[-53,-5],[4,-32],[-121,-52],[-96,7],[-55,-73],[-118,-41],[-16,-21],[-155,-65],[-44,26],[-75,-65],[-130,-43],[-36,-37],[-77,-24],[-26,117],[19,275],[-64,325],[-68,320],[-87,163],[-425,819]],[[673,2019],[360,181],[117,80],[267,85],[58,32],[502,187]],[[5977,3518],[-482,-174]],[[5495,3344],[-25,7],[22,116],[-29,58],[-43,-25],[-30,52],[19,79],[-6,71],[-75,74],[-57,-18],[-18,71],[-48,55],[7,87]],[[5212,3971],[160,27],[74,33],[129,6],[115,-29],[59,202],[2,90],[125,13],[136,-59],[57,20],[68,133],[22,89],[79,5]],[[7265,6487],[-29,-209]],[[7236,6278],[-6,-49],[101,-5],[124,-107],[-83,-15],[-35,-303],[43,-9],[-6,-99],[-31,-62],[-15,-132],[12,-128],[32,-31],[139,72],[2,-34],[-93,-97],[48,-108],[-27,-23]],[[7441,5148],[-37,120],[-30,-29],[2,-66],[47,0],[-20,-73],[-80,30],[-6,56],[-120,-118],[-377,-470],[-48,59],[-69,-85],[-53,75]],[[6650,4647],[-32,46],[-19,87],[-141,150],[58,118],[-84,29],[67,75],[-41,68],[-35,-12],[-50,34],[-41,64],[6,118],[-67,41],[-36,68]],[[6235,5533],[-47,244],[13,221]],[[6201,5998],[8,142],[77,-6],[-10,77],[82,6],[7,39],[70,-3],[42,221]],[[6477,6474],[7,37],[91,-9],[12,79],[36,-28],[116,3],[115,-22],[252,13],[69,-26],[1,-31],[89,-3]],[[5212,3971],[-54,27],[-59,-24],[-53,57],[-80,-48],[-272,-106],[-30,-28],[-31,104],[-186,-21],[-10,53],[-72,105],[7,28]],[[4372,4118],[84,29],[57,-20],[16,50],[-27,235],[24,-5],[35,75],[43,15],[41,66],[3,72],[51,-23],[109,60],[20,100],[61,-46],[82,-23],[68,9],[128,229],[65,52],[75,-25],[70,4],[4,170],[67,2],[41,48],[90,-76],[75,-19],[-4,45],[47,44],[72,0],[102,25],[15,26],[155,14],[18,231],[176,51]],[[6650,4647],[-101,7],[-9,-21],[35,-186]],[[7236,6278],[116,-41],[225,62],[149,-3],[19,50],[58,5],[23,44],[51,-18],[71,275],[58,-25],[49,-50],[34,89],[109,-29],[32,38],[57,-103],[-69,-80],[-208,-379],[71,-36],[11,-97],[78,-11],[-1,-47],[135,-125],[-390,-460]],[[7914,5337],[-367,-436],[-106,247]],[[7265,6487],[29,138],[81,-1],[16,42]],[[7391,6666],[105,20],[61,72],[-10,96],[52,-13],[100,94],[53,91],[113,103],[102,9],[257,47]],[[8224,7185],[104,13],[32,-145],[79,26],[9,-152],[149,37],[27,-9],[31,-115],[36,-2],[20,-85],[55,-89],[6,-72],[119,-101],[17,-444],[30,-169]],[[8938,5878],[-164,-34],[-93,-6],[-146,-193],[-125,-104],[-215,-127],[-199,-79],[-44,-44]],[[7952,5291],[-38,46]],[[8938,5878],[19,-178],[-15,-55],[101,-138],[48,-24],[-4,-63],[37,-61],[1,-141],[-18,-80],[41,-44],[7,-123],[51,-55],[18,-97],[48,-28],[-22,-41],[17,-144],[47,-66],[-14,-17],[38,-84],[3,-73],[42,-87],[87,-25],[105,27],[24,51],[56,-22],[134,35],[17,59],[69,-2],[-11,-197],[43,-29],[73,-110],[19,-62],[-15,-80],[-43,-90],[-80,-57],[-15,-86],[-197,-2],[4,-208],[4,-681],[5,-232],[51,-295],[-121,-17],[-40,17],[-150,-53],[-17,-25],[-94,-2],[-37,67],[-68,-9],[-92,-55],[-57,39],[-19,-67],[-36,-28],[-80,-5],[-21,45],[-120,-3],[-112,-27],[-71,-63],[-121,14],[-23,-16]],[[8434,2085],[-15,861],[-247,0],[-64,566],[47,171],[0,95],[48,307],[16,545],[-52,43],[27,40],[-59,-6],[-44,34],[-17,76],[28,138],[38,22],[-89,143],[-41,24],[14,39],[-68,71],[-4,37]],[[8434,2085],[-81,-28],[-263,-19],[-209,10],[-77,14],[-76,57],[-15,-77],[-58,20],[-27,40],[-71,-7],[-120,38],[-54,35],[-115,29],[-183,108],[-59,18],[-282,191]],[[6744,2514],[58,113],[0,308],[92,0],[-40,204],[37,10],[14,122],[40,71],[29,119],[95,-24],[43,146],[-84,-7],[-13,26],[-105,-35],[-64,30],[23,113],[45,1],[-11,64],[-39,28],[8,126],[-32,74],[23,27],[-34,169]],[[4372,4118],[-83,-21],[-30,-33]],[[4259,4064],[-84,94],[19,98],[-69,-16],[-48,69],[9,88],[-53,20],[-16,54],[-60,-13],[-39,24],[1,68],[57,-22],[27,21],[6,160],[60,53],[2,98],[26,64],[-54,54],[5,41]],[[4048,5019],[-52,33],[-53,149],[-135,8],[-20,20]],[[3788,5229],[-28,63],[93,-1],[76,38],[-1,47],[44,33],[36,-42],[-20,-63],[64,-5],[40,52],[33,-68],[61,26],[9,42],[88,-9],[70,-35],[54,69],[-2,53],[47,18],[14,81],[-52,-15],[-7,57],[59,35],[39,-7],[162,-325],[35,146],[124,-2],[141,217],[40,33],[-9,53],[106,190],[10,73]],[[5114,5983],[2,34],[99,-6],[227,-68],[93,-17],[128,41],[56,-1],[24,127],[73,-35],[67,11],[4,27],[106,13]],[[5993,6109],[75,14],[6,-145],[127,20]],[[4087,3345],[-4,37],[78,120],[48,154],[36,160],[-15,186],[29,62]],[[5495,3344],[-236,-85],[-9,-74],[-54,-25],[46,-118],[1,-221],[-9,-41],[39,-94],[-11,-23],[133,-280],[-205,-220],[58,-141],[-33,-31],[78,-244],[23,-142]],[[5316,1605],[-32,-31],[-130,2],[-70,-127],[-54,57],[-59,-37],[23,-82],[-132,-7],[-11,-32],[-62,-13]],[[6744,2514],[-183,127],[-75,74],[-173,-51],[-45,-79],[-26,-111],[-29,-207],[-25,-85],[-104,-180],[-150,-160],[-124,-83],[-235,-118],[-81,-21],[-28,26],[-36,-42],[-114,1]],[[3362,3777],[111,137],[-27,28],[40,126],[-34,51],[-7,120],[-45,-15],[-3,53],[-35,18],[22,53],[-75,43],[-21,-20],[-28,133],[-70,153],[78,24],[147,-29],[55,28],[-28,300],[-13,68],[619,-29]],[[6139,7784],[109,-57]],[[6248,7727],[-39,-45],[-26,-75],[-60,22],[-17,-48]],[[6106,7581],[-26,-27],[-46,51],[-453,-191]],[[5581,7414],[-351,-149]],[[5230,7265],[-41,47]],[[5189,7312],[24,92],[451,222],[37,11],[-61,62],[22,64]],[[5662,7763],[58,-55],[72,-2],[138,47],[105,85],[104,-54]],[[7761,8885],[-136,-5],[-34,-18],[-178,-39],[-71,-39],[14,-53],[-69,-32],[-29,42],[-106,-28],[-3,-21],[-169,45],[-40,-110],[-69,21],[-26,-61]],[[6845,8587],[-160,19],[-6,-57],[-57,24],[-22,-82],[-83,-44],[-41,-73],[-136,-23],[6,77],[-38,-10],[-26,72],[-40,-34],[-107,57],[-135,10],[3,98],[-64,26]],[[5939,8647],[44,37],[155,-75],[65,8],[103,84],[55,78],[26,72],[5,81],[105,0],[116,49],[-21,95],[-59,6],[2,144],[36,-7],[10,85],[-36,6],[12,119],[47,17],[-26,117],[-50,3],[3,75],[36,26],[99,8],[27,90],[80,26],[37,-60],[60,33],[28,-118],[151,33],[-82,156],[163,-1],[-20,66],[4,76],[59,23],[6,-103],[94,5],[70,39],[11,-97],[111,27],[47,-28],[9,-49],[37,8],[4,-51],[226,118],[92,-146],[52,-124],[-93,-52],[-24,62],[-47,-20],[30,-136],[-30,-141],[1,-142],[-42,-8],[34,-276]],[[5662,7763],[-23,48],[-38,173],[-41,56],[-70,25],[-120,309],[99,63]],[[5469,8437],[47,-112],[213,143],[59,-3],[46,62],[58,-36],[50,96],[-3,60]],[[6845,8587],[-21,-59],[-41,5],[-37,-139],[-10,5],[-55,-205],[-14,-166],[-187,-71],[10,-57],[-52,33],[-218,18],[-27,-21],[-13,-111],[-41,-35]],[[7761,8885],[10,-102],[36,-162],[-5,-76],[63,-142],[36,13],[18,-80],[14,-180],[34,-99],[29,-192],[-38,-104],[-10,-92]],[[7948,7669],[-5,-37],[-162,7],[-102,-10],[-9,26],[-91,21],[-101,-13],[-155,-43],[-26,26],[-140,-15],[-45,15]],[[7112,7646],[-79,14],[-11,93],[-340,-87],[-30,9],[-6,-55],[-129,24],[-269,83]],[[5189,7312],[-73,-18],[-174,-160],[-60,-20],[-107,73],[-66,117],[-122,-51]],[[4587,7253],[-31,29]],[[4556,7282],[27,263],[-141,0]],[[4442,7545],[78,104],[56,348],[-192,347],[-13,64]],[[4371,8408],[118,42],[164,215],[55,-31],[12,-72],[297,-11],[68,-151],[10,-139],[345,238],[29,-62]],[[6477,6474],[-8,185],[-25,206],[-33,95],[-11,115],[-55,237],[-46,86],[-54,27],[-90,117],[-49,39]],[[7112,7646],[-19,-159],[49,-7],[-36,-94],[-7,-100],[28,-11],[-24,-99],[3,-59],[66,-84],[117,-44],[21,-210],[-15,-105],[96,-8]],[[4442,7545],[-36,-6],[8,99],[-242,121],[-49,45],[4,45],[-141,61],[-80,76],[-117,142],[-34,85],[-121,109],[95,134],[-52,69]],[[3677,8525],[49,70],[42,-20],[35,86],[18,111],[120,32],[36,-111],[151,-389],[27,29],[103,-25],[52,76],[61,24]],[[5993,6109],[-25,153],[-66,881],[-30,63],[-250,139],[-41,69]],[[7948,7669],[144,-10],[45,22],[-13,-206],[-42,1],[20,-150],[44,11],[36,-44],[-2,-91],[44,-17]],[[5114,5983],[4,381],[-15,136],[-56,77],[-53,-3],[-64,-35],[-104,-17],[-47,13],[-39,144]],[[4740,6679],[14,99],[34,33],[89,-6],[103,-82],[112,-16],[67,32],[46,59],[36,107],[7,233],[-18,127]],[[1955,7488],[89,-227],[71,-210],[204,-514],[64,-174],[97,-154],[126,-180],[45,-128]],[[2651,5901],[-434,-295],[-433,-289]],[[1784,5317],[-25,86],[-3,121],[27,69],[-23,66],[-16,262],[40,31],[22,61],[0,79],[-95,86],[26,64],[-71,122],[-65,207],[-244,545],[-81,635]],[[1276,7751],[82,10],[102,-18],[61,-215],[170,77],[38,-91],[126,59],[68,-76],[32,-9]],[[3102,3616],[-38,67],[-78,-14],[-71,20],[-52,-48],[-59,-11],[-23,67],[-54,14],[25,78],[-62,37],[-60,-17],[-52,33],[-72,3],[-27,65],[-54,-20],[-30,46],[-29,-32],[-15,52],[-48,-25],[-14,51],[28,88],[-36,38],[-16,93],[-40,-30],[-47,43],[0,48],[-50,39],[-78,141],[22,38],[-24,59],[-58,31],[-21,51],[-85,42],[-27,-13],[-8,69],[34,8],[15,60],[-6,123],[28,130],[-13,136],[-20,50],[-89,44],[-14,47]],[[2651,5901],[406,277]],[[3057,6178],[-2,-91],[-35,-126],[90,-127],[70,-130]],[[3180,5704],[154,-26],[30,-69],[28,-159],[71,-27],[63,4],[124,-144],[55,1],[45,-152],[38,-5],[22,51],[-22,51]],[[2372,2941],[-26,119],[-95,39],[-162,206],[-57,-13],[-119,55],[-65,78],[-80,33],[-96,-64],[-64,101],[3,97],[-135,20],[-36,85],[-25,165],[-61,198],[-94,202],[-96,188],[-73,160],[-74,193]],[[1017,4803],[234,165]],[[1251,4968],[533,349]],[[673,2019],[-112,217],[-57,158],[-34,-5],[-56,62],[-23,116],[13,44],[-83,12],[-49,46],[-74,-7],[-144,118],[-3,154],[-51,168],[32,73],[86,16],[16,127],[-44,33],[-32,105],[59,85],[66,21],[35,54],[170,97],[38,105],[18,161],[-8,328],[-32,110],[87,57]],[[491,4474],[526,329]],[[491,4474],[-122,400],[-43,205],[-58,169],[78,21],[-33,172],[-5,166],[99,17],[11,36],[-45,95],[-3,68],[-74,154],[-87,110],[-45,36],[-9,59],[-42,72],[75,49],[22,-49],[50,36],[23,-42],[133,87],[87,25],[60,100],[64,20],[65,-12],[-15,100],[15,130],[-35,43],[49,67]],[[706,6808],[116,-79],[75,-98],[143,-211],[67,-61],[-32,-105],[-14,-451],[-15,-133],[3,-161],[121,-287],[81,-254]],[[706,6808],[80,113],[25,83],[-4,144],[-29,58],[-12,206],[31,117],[72,198],[-15,118],[114,-7],[64,22],[77,-16],[5,-40],[135,5],[27,-58]],[[1955,7488],[48,-11],[220,103]],[[2223,7580],[125,-181],[182,-139],[114,-118],[159,-265],[123,-154],[75,-62],[241,125],[47,-57],[117,48],[58,-33]],[[3464,6744],[12,-93],[103,-29],[57,-39]],[[3636,6583],[-579,-405]],[[2223,7580],[194,50],[-109,419],[151,23],[-53,183],[51,20],[-61,200],[282,86],[97,9]],[[2775,8570],[0,-89],[21,-155],[-60,-21],[62,-108],[-34,-27],[23,-64],[-15,-102],[77,-120],[42,5],[55,-136],[-10,-98],[62,-213],[40,-94],[155,128]],[[3193,7476],[46,-46],[85,-165],[83,-198],[56,-110],[1,-213]],[[4587,7253],[-166,-126],[-785,-544]],[[3193,7476],[128,100],[111,46],[96,198],[86,-40],[33,32],[270,-191],[125,-97],[163,-147],[43,-22],[87,-114],[18,31],[104,49],[42,-35],[57,-4]],[[3180,5704],[48,76],[56,133],[13,66],[53,30],[-1,78],[106,71],[171,-25],[51,14],[39,-45],[79,53],[30,61],[111,86],[49,61],[115,17],[183,71],[202,118],[255,110]],[[2775,8570],[151,37],[191,25],[173,13],[8,-120],[182,-129],[58,66],[139,63]]],"transform":{"scale":[0.00003934491449144636,0.000029947151315129968],"translate":[100.02667992900008,13.425330343000041]},"objects":{"Samut Sakhon":{"type":"GeometryCollection","geometries":[{"arcs":[[0,1,2,3,4,5]],"type":"Polygon","properties":{"Shape_Leng":0.115564128724,"Shape_Area":0.000422933505932,"ADM3_EN":"Mahachai","ADM3_TH":"มหาชัย","ADM3_PCODE":"TH740101","ADM2_EN":"Mueang Samut Sakhon","ADM2_TH":"เมืองสมุทรสาคร","ADM2_PCODE":"TH7401","ADM1_EN":"Samut Sakhon","ADM1_TH":"สมุทรสาคร","ADM1_PCODE":"TH74","ADM0_EN":"Thailand","ADM0_TH":"ประเทศไทย","ADM0_PCODE":"TH"}},{"arcs":[[-2,6,7,8]],"type":"Polygon","properties":{"Shape_Leng":0.0509695792785,"Shape_Area":0.000150548750695,"ADM3_EN":"Tha Chalom","ADM3_TH":"ท่าฉลอม","ADM3_PCODE":"TH740102","ADM2_EN":"Mueang Samut Sakhon","ADM2_TH":"เมืองสมุทรสาคร","ADM2_PCODE":"TH7401","ADM1_EN":"Samut Sakhon","ADM1_TH":"สมุทรสาคร","ADM1_PCODE":"TH74","ADM0_EN":"Thailand","ADM0_TH":"ประเทศไทย","ADM0_PCODE":"TH"}},{"arcs":[[-1,9,-7]],"type":"Polygon","properties":{"Shape_Leng":0.0486395411881,"Shape_Area":0.000062310565463,"ADM3_EN":"Krok Krak","ADM3_TH":"โกรกกราก","ADM3_PCODE":"TH740103","ADM2_EN":"Mueang Samut Sakhon","ADM2_TH":"เมืองสมุทรสาคร","ADM2_PCODE":"TH7401","ADM1_EN":"Samut Sakhon","ADM1_TH":"สมุทรสาคร","ADM1_PCODE":"TH74","ADM0_EN":"Thailand","ADM0_TH":"ประเทศไทย","ADM0_PCODE":"TH"}},{"arcs":[[10,11,12,13]],"type":"Polygon","properties":{"Shape_Leng":0.207876136898,"Shape_Area":0.001393971685,"ADM3_EN":"Ban Bo","ADM3_TH":"บ้านบ่อ","ADM3_PCODE":"TH740104","ADM2_EN":"Mueang Samut Sakhon","ADM2_TH":"เมืองสมุทรสาคร","ADM2_PCODE":"TH7401","ADM1_EN":"Samut Sakhon","ADM1_TH":"สมุทรสาคร","ADM1_PCODE":"TH74","ADM0_EN":"Thailand","ADM0_TH":"ประเทศไทย","ADM0_PCODE":"TH"}},{"arcs":[[-12,14,15,16,17,18]],"type":"Polygon","properties":{"Shape_Leng":0.299151657325,"Shape_Area":0.00304803672346,"ADM3_EN":"Bang Thorat","ADM3_TH":"บางโทรัด","ADM3_PCODE":"TH740105","ADM2_EN":"Mueang Samut Sakhon","ADM2_TH":"เมืองสมุทรสาคร","ADM2_PCODE":"TH7401","ADM1_EN":"Samut Sakhon","ADM1_TH":"สมุทรสาคร","ADM1_PCODE":"TH74","ADM0_EN":"Thailand","ADM0_TH":"ประเทศไทย","ADM0_PCODE":"TH"}},{"arcs":[[-16,19,20,21]],"type":"Polygon","properties":{"Shape_Leng":0.230761381973,"Shape_Area":0.00156056555812,"ADM3_EN":"Kalong","ADM3_TH":"กาหลง","ADM3_PCODE":"TH740106","ADM2_EN":"Mueang Samut Sakhon","ADM2_TH":"เมืองสมุทรสาคร","ADM2_PCODE":"TH7401","ADM1_EN":"Samut Sakhon","ADM1_TH":"สมุทรสาคร","ADM1_PCODE":"TH74","ADM0_EN":"Thailand","ADM0_TH":"ประเทศไทย","ADM0_PCODE":"TH"}},{"arcs":[[-21,22,23]],"type":"Polygon","properties":{"Shape_Leng":0.283375912676,"Shape_Area":0.00351734367827,"ADM3_EN":"Na Khok","ADM3_TH":"นาโคก","ADM3_PCODE":"TH740107","ADM2_EN":"Mueang Samut Sakhon","ADM2_TH":"เมืองสมุทรสาคร","ADM2_PCODE":"TH7401","ADM1_EN":"Samut Sakhon","ADM1_TH":"สมุทรสาคร","ADM1_PCODE":"TH74","ADM0_EN":"Thailand","ADM0_TH":"ประเทศไทย","ADM0_PCODE":"TH"}},{"arcs":[[-3,-9,24,25,26]],"type":"Polygon","properties":{"Shape_Leng":0.139541740498,"Shape_Area":0.000590722843705,"ADM3_EN":"Tha Chin","ADM3_TH":"ท่าจีน","ADM3_PCODE":"TH740108","ADM2_EN":"Mueang Samut Sakhon","ADM2_TH":"เมืองสมุทรสาคร","ADM2_PCODE":"TH7401","ADM1_EN":"Samut Sakhon","ADM1_TH":"สมุทรสาคร","ADM1_PCODE":"TH74","ADM0_EN":"Thailand","ADM0_TH":"ประเทศไทย","ADM0_PCODE":"TH"}},{"arcs":[[27,28,29,30,31,32,33]],"type":"Polygon","properties":{"Shape_Leng":0.237296401445,"Shape_Area":0.00201888649028,"ADM3_EN":"Na Di","ADM3_TH":"นาดี","ADM3_PCODE":"TH740109","ADM2_EN":"Mueang Samut Sakhon","ADM2_TH":"เมืองสมุทรสาคร","ADM2_PCODE":"TH7401","ADM1_EN":"Samut Sakhon","ADM1_TH":"สมุทรสาคร","ADM1_PCODE":"TH74","ADM0_EN":"Thailand","ADM0_TH":"ประเทศไทย","ADM0_PCODE":"TH"}},{"arcs":[[-4,-27,34,35,-31,36]],"type":"Polygon","properties":{"Shape_Leng":0.281363541658,"Shape_Area":0.00218055635192,"ADM3_EN":"Tha Sai","ADM3_TH":"ท่าทราย","ADM3_PCODE":"TH740110","ADM2_EN":"Mueang Samut Sakhon","ADM2_TH":"เมืองสมุทรสาคร","ADM2_PCODE":"TH7401","ADM1_EN":"Samut Sakhon","ADM1_TH":"สมุทรสาคร","ADM1_PCODE":"TH74","ADM0_EN":"Thailand","ADM0_TH":"ประเทศไทย","ADM0_PCODE":"TH"}},{"arcs":[[-29,37,38]],"type":"Polygon","properties":{"Shape_Leng":0.198316388716,"Shape_Area":0.00111404585827,"ADM3_EN":"Khok Krabue","ADM3_TH":"คอกกระบือ","ADM3_PCODE":"TH740111","ADM2_EN":"Mueang Samut Sakhon","ADM2_TH":"เมืองสมุทรสาคร","ADM2_PCODE":"TH7401","ADM1_EN":"Samut Sakhon","ADM1_TH":"สมุทรสาคร","ADM1_PCODE":"TH74","ADM0_EN":"Thailand","ADM0_TH":"ประเทศไทย","ADM0_PCODE":"TH"}},{"arcs":[[-28,39,40,41,42,43,-38]],"type":"Polygon","properties":{"Shape_Leng":0.276777720305,"Shape_Area":0.00170007656654,"ADM3_EN":"Bang Nam Chuet","ADM3_TH":"บางน้ำจืด","ADM3_PCODE":"TH740112","ADM2_EN":"Mueang Samut Sakhon","ADM2_TH":"เมืองสมุทรสาคร","ADM2_PCODE":"TH7401","ADM1_EN":"Samut Sakhon","ADM1_TH":"สมุทรสาคร","ADM1_PCODE":"TH74","ADM0_EN":"Thailand","ADM0_TH":"ประเทศไทย","ADM0_PCODE":"TH"}},{"arcs":[[-43,44,45]],"type":"Polygon","properties":{"Shape_Leng":0.407964489469,"Shape_Area":0.00540248427724,"ADM3_EN":"Phanthai Norasing","ADM3_TH":"พันท้ายนรสิงห์","ADM3_PCODE":"TH740113","ADM2_EN":"Mueang Samut Sakhon","ADM2_TH":"เมืองสมุทรสาคร","ADM2_PCODE":"TH7401","ADM1_EN":"Samut Sakhon","ADM1_TH":"สมุทรสาคร","ADM1_PCODE":"TH74","ADM0_EN":"Thailand","ADM0_TH":"ประเทศไทย","ADM0_PCODE":"TH"}},{"arcs":[[-5,-37,-30,-39,-44,-46,46,47]],"type":"Polygon","properties":{"Shape_Leng":0.407662620163,"Shape_Area":0.00473596726197,"ADM3_EN":"Khok Kham","ADM3_TH":"โคกขาม","ADM3_PCODE":"TH740114","ADM2_EN":"Mueang Samut Sakhon","ADM2_TH":"เมืองสมุทรสาคร","ADM2_PCODE":"TH7401","ADM1_EN":"Samut Sakhon","ADM1_TH":"สมุทรสาคร","ADM1_PCODE":"TH74","ADM0_EN":"Thailand","ADM0_TH":"ประเทศไทย","ADM0_PCODE":"TH"}},{"arcs":[[-32,-36,48,49,50,51,52,53]],"type":"Polygon","properties":{"Shape_Leng":0.355553534501,"Shape_Area":0.00242606683013,"ADM3_EN":"Ban Ko","ADM3_TH":"บ้านเกาะ","ADM3_PCODE":"TH740115","ADM2_EN":"Mueang Samut Sakhon","ADM2_TH":"เมืองสมุทรสาคร","ADM2_PCODE":"TH7401","ADM1_EN":"Samut Sakhon","ADM1_TH":"สมุทรสาคร","ADM1_PCODE":"TH74","ADM0_EN":"Thailand","ADM0_TH":"ประเทศไทย","ADM0_PCODE":"TH"}},{"arcs":[[-14,54,-49,-35,-26,55,56]],"type":"Polygon","properties":{"Shape_Leng":0.280132524497,"Shape_Area":0.00285792630514,"ADM3_EN":"Bang Krachao","ADM3_TH":"บางกระเจ้า","ADM3_PCODE":"TH740116","ADM2_EN":"Mueang Samut Sakhon","ADM2_TH":"เมืองสมุทรสาคร","ADM2_PCODE":"TH7401","ADM1_EN":"Samut Sakhon","ADM1_TH":"สมุทรสาคร","ADM1_PCODE":"TH74","ADM0_EN":"Thailand","ADM0_TH":"ประเทศไทย","ADM0_PCODE":"TH"}},{"arcs":[[-6,-48,57,-56,-25,-8,-10]],"type":"Polygon","properties":{"Shape_Leng":0.306144354705,"Shape_Area":0.0028183900029,"ADM3_EN":"Bang Ya Phraek","ADM3_TH":"บางหญ้าแพรก","ADM3_PCODE":"TH740117","ADM2_EN":"Mueang Samut Sakhon","ADM2_TH":"เมืองสมุทรสาคร","ADM2_PCODE":"TH7401","ADM1_EN":"Samut Sakhon","ADM1_TH":"สมุทรสาคร","ADM1_PCODE":"TH74","ADM0_EN":"Thailand","ADM0_TH":"ประเทศไทย","ADM0_PCODE":"TH"}},{"arcs":[[-13,-19,58,-50,-55]],"type":"Polygon","properties":{"Shape_Leng":0.211946890043,"Shape_Area":0.00147962708288,"ADM3_EN":"Chai Mongkhon","ADM3_TH":"ชัยมงคล","ADM3_PCODE":"TH740118","ADM2_EN":"Mueang Samut Sakhon","ADM2_TH":"เมืองสมุทรสาคร","ADM2_PCODE":"TH7401","ADM1_EN":"Samut Sakhon","ADM1_TH":"สมุทรสาคร","ADM1_PCODE":"TH74","ADM0_EN":"Thailand","ADM0_TH":"ประเทศไทย","ADM0_PCODE":"TH"}},{"arcs":[[59,60,61,62,63,64,65]],"type":"Polygon","properties":{"Shape_Leng":0.104050505401,"Shape_Area":0.000222533545828,"ADM3_EN":"Talat Krathum Baen","ADM3_TH":"ตลาดกระทุ่มแบน","ADM3_PCODE":"TH740201","ADM2_EN":"Krathum Baen","ADM2_TH":"กระทุ่มแบน","ADM2_PCODE":"TH7402","ADM1_EN":"Samut Sakhon","ADM1_TH":"สมุทรสาคร","ADM1_PCODE":"TH74","ADM0_EN":"Thailand","ADM0_TH":"ประเทศไทย","ADM0_PCODE":"TH"}},{"arcs":[[66,67,68]],"type":"Polygon","properties":{"Shape_Leng":0.286236328736,"Shape_Area":0.00176966623238,"ADM3_EN":"Om Noi","ADM3_TH":"อ้อมน้อย","ADM3_PCODE":"TH740202","ADM2_EN":"Krathum Baen","ADM2_TH":"กระทุ่มแบน","ADM2_PCODE":"TH7402","ADM1_EN":"Samut Sakhon","ADM1_TH":"สมุทรสาคร","ADM1_PCODE":"TH74","ADM0_EN":"Thailand","ADM0_TH":"ประเทศไทย","ADM0_PCODE":"TH"}},{"arcs":[[-66,69,70,-68,71]],"type":"Polygon","properties":{"Shape_Leng":0.175042952041,"Shape_Area":0.0008877165647,"ADM3_EN":"Tha Mai","ADM3_TH":"ท่าไม้","ADM3_PCODE":"TH740203","ADM2_EN":"Krathum Baen","ADM2_TH":"กระทุ่มแบน","ADM2_PCODE":"TH7402","ADM1_EN":"Samut Sakhon","ADM1_TH":"สมุทรสาคร","ADM1_PCODE":"TH74","ADM0_EN":"Thailand","ADM0_TH":"ประเทศไทย","ADM0_PCODE":"TH"}},{"arcs":[[-60,-72,-67,72,73,74]],"type":"Polygon","properties":{"Shape_Leng":0.213415498001,"Shape_Area":0.00169665566275,"ADM3_EN":"Suan Luang","ADM3_TH":"สวนหลวง","ADM3_PCODE":"TH740204","ADM2_EN":"Krathum Baen","ADM2_TH":"กระทุ่มแบน","ADM2_PCODE":"TH7402","ADM1_EN":"Samut Sakhon","ADM1_TH":"สมุทรสาคร","ADM1_PCODE":"TH74","ADM0_EN":"Thailand","ADM0_TH":"ประเทศไทย","ADM0_PCODE":"TH"}},{"arcs":[[-65,75,76,77,78,79,-70]],"type":"Polygon","properties":{"Shape_Leng":0.191400736519,"Shape_Area":0.00142042275846,"ADM3_EN":"Bang Yang","ADM3_TH":"บางยาง","ADM3_PCODE":"TH740205","ADM2_EN":"Krathum Baen","ADM2_TH":"กระทุ่มแบน","ADM2_PCODE":"TH7402","ADM1_EN":"Samut Sakhon","ADM1_TH":"สมุทรสาคร","ADM1_PCODE":"TH74","ADM0_EN":"Thailand","ADM0_TH":"ประเทศไทย","ADM0_PCODE":"TH"}},{"arcs":[[-34,80,-61,-75,81,-40]],"type":"Polygon","properties":{"Shape_Leng":0.174312770241,"Shape_Area":0.00113812128273,"ADM3_EN":"Khlong Maduea","ADM3_TH":"คลองมะเดื่อ","ADM3_PCODE":"TH740206","ADM2_EN":"Krathum Baen","ADM2_TH":"กระทุ่มแบน","ADM2_PCODE":"TH7402","ADM1_EN":"Samut Sakhon","ADM1_TH":"สมุทรสาคร","ADM1_PCODE":"TH74","ADM0_EN":"Thailand","ADM0_TH":"ประเทศไทย","ADM0_PCODE":"TH"}},{"arcs":[[-79,82,83]],"type":"Polygon","properties":{"Shape_Leng":0.126675367765,"Shape_Area":0.000622514518065,"ADM3_EN":"Nong Nok Khai","ADM3_TH":"หนองนกไข่","ADM3_PCODE":"TH740207","ADM2_EN":"Krathum Baen","ADM2_TH":"กระทุ่มแบน","ADM2_PCODE":"TH7402","ADM1_EN":"Samut Sakhon","ADM1_TH":"สมุทรสาคร","ADM1_PCODE":"TH74","ADM0_EN":"Thailand","ADM0_TH":"ประเทศไทย","ADM0_PCODE":"TH"}},{"arcs":[[-33,-54,84,-62,-81]],"type":"Polygon","properties":{"Shape_Leng":0.145097722328,"Shape_Area":0.000878517019834,"ADM3_EN":"Don Kai Di","ADM3_TH":"ดอนไก่ดี","ADM3_PCODE":"TH740208","ADM2_EN":"Krathum Baen","ADM2_TH":"กระทุ่มแบน","ADM2_PCODE":"TH7402","ADM1_EN":"Samut Sakhon","ADM1_TH":"สมุทรสาคร","ADM1_PCODE":"TH74","ADM0_EN":"Thailand","ADM0_TH":"ประเทศไทย","ADM0_PCODE":"TH"}},{"arcs":[[-41,-82,-74,85]],"type":"Polygon","properties":{"Shape_Leng":0.1478760489,"Shape_Area":0.000834309127834,"ADM3_EN":"Khae Rai","ADM3_TH":"แคราย","ADM3_PCODE":"TH740209","ADM2_EN":"Krathum Baen","ADM2_TH":"กระทุ่มแบน","ADM2_PCODE":"TH7402","ADM1_EN":"Samut Sakhon","ADM1_TH":"สมุทรสาคร","ADM1_PCODE":"TH74","ADM0_EN":"Thailand","ADM0_TH":"ประเทศไทย","ADM0_PCODE":"TH"}},{"arcs":[[-53,86,87,-63,-85]],"type":"Polygon","properties":{"Shape_Leng":0.174223581286,"Shape_Area":0.00128646487826,"ADM3_EN":"Tha Sao","ADM3_TH":"ท่าเสา","ADM3_PCODE":"TH740210","ADM2_EN":"Krathum Baen","ADM2_TH":"กระทุ่มแบน","ADM2_PCODE":"TH7402","ADM1_EN":"Samut Sakhon","ADM1_TH":"สมุทรสาคร","ADM1_PCODE":"TH74","ADM0_EN":"Thailand","ADM0_TH":"ประเทศไทย","ADM0_PCODE":"TH"}},{"arcs":[[88,89,90,91]],"type":"Polygon","properties":{"Shape_Leng":0.210229298772,"Shape_Area":0.00177171393891,"ADM3_EN":"Ban Phaeo","ADM3_TH":"บ้านแพ้ว","ADM3_PCODE":"TH740301","ADM2_EN":"Ban Phaeo","ADM2_TH":"บ้านแพ้ว","ADM2_PCODE":"TH7403","ADM1_EN":"Samut Sakhon","ADM1_TH":"สมุทรสาคร","ADM1_PCODE":"TH74","ADM0_EN":"Thailand","ADM0_TH":"ประเทศไทย","ADM0_PCODE":"TH"}},{"arcs":[[-18,92,-90,93,94,95,-51,-59]],"type":"Polygon","properties":{"Shape_Leng":0.33504066101,"Shape_Area":0.00343457353617,"ADM3_EN":"Lak Sam","ADM3_TH":"หลักสาม","ADM3_PCODE":"TH740302","ADM2_EN":"Ban Phaeo","ADM2_TH":"บ้านแพ้ว","ADM2_PCODE":"TH7403","ADM1_EN":"Samut Sakhon","ADM1_TH":"สมุทรสาคร","ADM1_PCODE":"TH74","ADM0_EN":"Thailand","ADM0_TH":"ประเทศไทย","ADM0_PCODE":"TH"}},{"arcs":[[-17,96,97,98,-93]],"type":"Polygon","properties":{"Shape_Leng":0.270286411296,"Shape_Area":0.0022822546403,"ADM3_EN":"Yok Krabat","ADM3_TH":"ยกกระบัตร","ADM3_PCODE":"TH740303","ADM2_EN":"Ban Phaeo","ADM2_TH":"บ้านแพ้ว","ADM2_PCODE":"TH7403","ADM1_EN":"Samut Sakhon","ADM1_TH":"สมุทรสาคร","ADM1_PCODE":"TH74","ADM0_EN":"Thailand","ADM0_TH":"ประเทศไทย","ADM0_PCODE":"TH"}},{"arcs":[[-22,-24,99,100,-97]],"type":"Polygon","properties":{"Shape_Leng":0.308409325449,"Shape_Area":0.0040013377109,"ADM3_EN":"Rong Khe","ADM3_TH":"โรงเข้","ADM3_PCODE":"TH740304","ADM2_EN":"Ban Phaeo","ADM2_TH":"บ้านแพ้ว","ADM2_PCODE":"TH7403","ADM1_EN":"Samut Sakhon","ADM1_TH":"สมุทรสาคร","ADM1_PCODE":"TH74","ADM0_EN":"Thailand","ADM0_TH":"ประเทศไทย","ADM0_PCODE":"TH"}},{"arcs":[[-98,-101,101,102]],"type":"Polygon","properties":{"Shape_Leng":0.205951271806,"Shape_Area":0.00171575264974,"ADM3_EN":"Nong Song Hong","ADM3_TH":"หนองสองห้อง","ADM3_PCODE":"TH740305","ADM2_EN":"Ban Phaeo","ADM2_TH":"บ้านแพ้ว","ADM2_PCODE":"TH7403","ADM1_EN":"Samut Sakhon","ADM1_TH":"สมุทรสาคร","ADM1_PCODE":"TH74","ADM0_EN":"Thailand","ADM0_TH":"ประเทศไทย","ADM0_PCODE":"TH"}},{"arcs":[[-91,-99,-103,103]],"type":"Polygon","properties":{"Shape_Leng":0.225453729739,"Shape_Area":0.00198948811325,"ADM3_EN":"Nong Bua","ADM3_TH":"หนองบัว","ADM3_PCODE":"TH740306","ADM2_EN":"Ban Phaeo","ADM2_TH":"บ้านแพ้ว","ADM2_PCODE":"TH7403","ADM1_EN":"Samut Sakhon","ADM1_TH":"สมุทรสาคร","ADM1_PCODE":"TH74","ADM0_EN":"Thailand","ADM0_TH":"ประเทศไทย","ADM0_PCODE":"TH"}},{"arcs":[[-89,104,105,106,107,-94]],"type":"Polygon","properties":{"Shape_Leng":0.18134559051,"Shape_Area":0.0012504410511,"ADM3_EN":"Lak Song","ADM3_TH":"หลักสอง","ADM3_PCODE":"TH740307","ADM2_EN":"Ban Phaeo","ADM2_TH":"บ้านแพ้ว","ADM2_PCODE":"TH7403","ADM1_EN":"Samut Sakhon","ADM1_TH":"สมุทรสาคร","ADM1_PCODE":"TH74","ADM0_EN":"Thailand","ADM0_TH":"ประเทศไทย","ADM0_PCODE":"TH"}},{"arcs":[[-106,108,109,110]],"type":"Polygon","properties":{"Shape_Leng":0.197994933557,"Shape_Area":0.00121906287537,"ADM3_EN":"Chet Rio","ADM3_TH":"เจ็ดริ้ว","ADM3_PCODE":"TH740308","ADM2_EN":"Ban Phaeo","ADM2_TH":"บ้านแพ้ว","ADM2_PCODE":"TH7403","ADM1_EN":"Samut Sakhon","ADM1_TH":"สมุทรสาคร","ADM1_PCODE":"TH74","ADM0_EN":"Thailand","ADM0_TH":"ประเทศไทย","ADM0_PCODE":"TH"}},{"arcs":[[-77,111,-107,-111,112]],"type":"Polygon","properties":{"Shape_Leng":0.14467095127,"Shape_Area":0.000979368973064,"ADM3_EN":"Khlong Tan","ADM3_TH":"คลองตัน","ADM3_PCODE":"TH740309","ADM2_EN":"Ban Phaeo","ADM2_TH":"บ้านแพ้ว","ADM2_PCODE":"TH7403","ADM1_EN":"Samut Sakhon","ADM1_TH":"สมุทรสาคร","ADM1_PCODE":"TH74","ADM0_EN":"Thailand","ADM0_TH":"ประเทศไทย","ADM0_PCODE":"TH"}},{"arcs":[[-52,-96,113,-87]],"type":"Polygon","properties":{"Shape_Leng":0.249442544027,"Shape_Area":0.00206931033595,"ADM3_EN":"Amphaeng","ADM3_TH":"อำแพง","ADM3_PCODE":"TH740310","ADM2_EN":"Ban Phaeo","ADM2_TH":"บ้านแพ้ว","ADM2_PCODE":"TH7403","ADM1_EN":"Samut Sakhon","ADM1_TH":"สมุทรสาคร","ADM1_PCODE":"TH74","ADM0_EN":"Thailand","ADM0_TH":"ประเทศไทย","ADM0_PCODE":"TH"}},{"arcs":[[-64,-88,-114,-95,-108,-112,-76]],"type":"Polygon","properties":{"Shape_Leng":0.226998786479,"Shape_Area":0.00125630424754,"ADM3_EN":"Suan Som","ADM3_TH":"สวนส้ม","ADM3_PCODE":"TH740311","ADM2_EN":"Ban Phaeo","ADM2_TH":"บ้านแพ้ว","ADM2_PCODE":"TH7403","ADM1_EN":"Samut Sakhon","ADM1_TH":"สมุทรสาคร","ADM1_PCODE":"TH74","ADM0_EN":"Thailand","ADM0_TH":"ประเทศไทย","ADM0_PCODE":"TH"}},{"arcs":[[-78,-113,-110,114,-83]],"type":"Polygon","properties":{"Shape_Leng":0.226025045635,"Shape_Area":0.00135284237265,"ADM3_EN":"Kaset Phatthana","ADM3_TH":"เกษตรพัฒนา","ADM3_PCODE":"TH740312","ADM2_EN":"Ban Phaeo","ADM2_TH":"บ้านแพ้ว","ADM2_PCODE":"TH7403","ADM1_EN":"Samut Sakhon","ADM1_TH":"สมุทรสาคร","ADM1_PCODE":"TH74","ADM0_EN":"Thailand","ADM0_TH":"ประเทศไทย","ADM0_PCODE":"TH"}}]}}}