{"type":"Topology","arcs":[[[4257,3470],[-95,-65],[-79,-84],[-42,-24],[-30,-7],[-85,-5],[19,-86],[4,-70],[-5,-39],[-162,5],[8,55]],[[3790,3150],[-41,202],[-107,-10],[-4,56]],[[3638,3398],[-4,60],[-52,12],[-35,16],[-41,30],[-6,60],[57,106]],[[3557,3682],[6,4],[206,78],[50,12]],[[3819,3776],[19,2],[138,48]],[[3976,3826],[-11,-82],[21,-51],[15,-86],[-6,-40],[-43,-80],[50,-33],[9,15],[61,-33],[25,43],[50,44],[24,3],[69,-26],[0,-20],[17,-10]],[[3557,3682],[-10,57],[-15,15]],[[3532,3754],[-17,14],[0,50],[10,4],[9,37],[29,22]],[[3563,3881],[31,13],[24,41],[58,40],[14,46],[76,-5],[25,16]],[[3791,4032],[49,8],[-1,-57],[14,-79],[18,-4],[-3,-89],[-49,-35]],[[3638,3398],[-153,-16]],[[3485,3382],[-13,36],[-11,60],[5,108],[-20,108]],[[3446,3694],[37,18],[49,42]],[[3790,3150],[-77,-51],[-49,-54]],[[3664,3045],[-48,-30],[-54,-1],[-184,25]],[[3378,3039],[-40,6],[-21,66],[20,5],[52,47],[1,31],[46,37],[0,44],[-161,-17],[-17,101]],[[3258,3359],[227,23]],[[3378,3039],[19,-16],[36,-83],[-78,-62],[15,-62],[23,-118],[-39,8],[-48,57],[-9,0],[6,-170],[10,-43]],[[3313,2550],[-39,-8],[-57,27],[-70,5],[-30,9]],[[3117,2583],[-46,22]],[[3071,2605],[28,70],[-34,52],[7,54],[20,40]],[[3092,2821],[24,55],[23,29],[16,3],[3,33],[13,3],[-5,38],[-25,24],[-6,23],[9,90],[-3,48]],[[3141,3167],[-3,79],[-21,9],[11,90]],[[3128,3345],[102,11]],[[3230,3356],[28,3]],[[3664,3045],[125,-138],[48,-48],[88,-66],[3,-25]],[[3928,2768],[-2,-53],[-33,-75]],[[3893,2640],[-68,-4],[-48,-8],[-129,-47],[-32,-16],[-80,-52],[-46,-10],[-30,-29],[-15,-38]],[[3445,2436],[-66,1]],[[3379,2437],[-37,4],[7,78],[-7,28],[-29,3]],[[4257,3470],[29,-21]],[[4286,3449],[-6,-22],[14,-10],[5,-34],[-22,-3],[-13,-23],[-2,-38],[-17,4],[8,-39],[42,-40],[20,-4],[5,-35],[14,-5],[-10,-26],[15,-23],[-5,-14],[35,-35],[-158,4],[-40,-20],[-19,-36],[-21,-97],[-2,-32]],[[4129,2921],[-80,21],[-43,-4],[-19,-29],[1,-32],[-17,-21],[-24,-70],[-19,-18]],[[4129,2921],[164,25],[81,0],[24,18]],[[4398,2964],[6,-20],[29,-17],[14,-41],[27,-6],[20,19],[12,-27],[44,-28],[-12,-44],[25,-34],[51,-6],[24,-13],[16,-26],[50,-18],[25,-24],[72,-104],[16,-39],[31,-102],[-2,-83],[-17,-117],[-9,-25],[0,-46],[14,-59]],[[4834,2104],[-31,22],[-28,38],[-26,-9],[-15,-40]],[[4734,2115],[-8,4],[-17,54],[-54,64],[-26,11],[-47,3],[-27,-19],[-31,-57],[-25,-30],[-31,10],[-38,51],[-23,8],[-38,29],[-96,47],[-40,36],[-40,1],[-52,-28]],[[4141,2299],[-23,0],[-24,18],[-4,47],[-11,17],[10,51],[-2,31],[-23,33],[-22,15],[-17,97],[-23,10],[-8,20],[-26,7],[-75,-5]],[[4286,3449],[18,11],[4,-24],[20,21],[21,-14],[23,51]],[[4372,3494],[21,21],[79,-7],[38,21],[38,-11],[17,-16],[50,-12]],[[4615,3490],[-40,-13],[-20,-19],[-11,-60],[11,-52],[36,-35],[-5,-52],[22,-46],[46,-22],[19,-46],[3,-38],[49,-12],[-25,-43],[1,-91],[16,-13],[-13,-39],[-23,-43],[-33,10],[-15,-13],[-48,23],[4,20],[-77,28],[5,19],[-57,5],[-58,24],[-4,-18]],[[4372,3494],[-44,10],[-23,-17],[-19,1],[-27,54],[-23,-21],[-23,48],[-12,74],[10,78],[0,37]],[[4211,3758],[29,7],[27,19],[27,49],[16,46],[22,14],[15,-10],[-4,-31],[-40,-49],[-28,-56],[9,-15],[25,-5],[54,19],[8,37],[16,25],[41,17],[-28,62]],[[4400,3887],[25,-3],[42,12],[6,-43],[46,-49],[74,-56],[38,-11],[27,-27],[-2,-14],[40,-16],[2,-21],[30,-31],[52,-38]],[[4780,3590],[-50,-82],[-25,-33],[-47,17],[-43,-2]],[[3976,3826],[3,93],[8,21],[33,26]],[[4020,3966],[23,-15],[30,-54],[19,-68],[41,-5],[18,-13],[18,-32],[42,-21]],[[4928,4187],[18,-41],[27,-21],[5,-24],[-20,-12]],[[4958,4089],[-145,-82],[-82,254]],[[4731,4261],[66,-36],[36,1],[77,-37],[18,-2]],[[6077,4999],[33,-13],[44,2],[12,-49],[48,-13],[12,-39],[18,24],[9,42]],[[6253,4953],[85,-46],[7,-30],[-26,-87],[-27,-49],[23,-15],[9,-21],[-21,-43],[-70,-64],[1,-36],[18,-28],[21,-6],[18,12],[13,-15],[-11,-69],[43,-93],[34,-56],[10,-61],[-13,-30],[7,-43],[12,-18],[51,-33],[6,-27],[27,-18],[51,-10],[64,-47],[50,-53],[33,-17],[27,-29],[2,-28],[30,-35],[7,-37],[-9,-22],[-52,-41]],[[6673,3758],[-69,21],[-58,8],[-36,29],[-17,36],[-17,15],[-24,-10],[-45,50],[-34,22],[-35,2],[-3,28],[-22,-4],[-73,11],[-21,19],[-18,-1],[-37,-33],[-41,-10],[-53,11],[-22,-56],[-40,-31],[-97,-55],[-15,-4],[-118,3],[-107,-9],[-100,21],[-22,-17],[-35,-3],[-60,5],[-22,-20],[-1,-71],[-6,-13],[-66,-45],[-32,4],[-6,-57],[23,-18],[-2,-25],[-52,20],[0,39],[-61,46],[-10,15]],[[5219,3681],[1,54],[11,25],[-27,15],[23,27],[-45,38],[-61,15],[-40,37]],[[5081,3892],[47,-1],[42,-18],[45,1],[12,22],[0,47],[61,90],[9,56],[1,62],[-16,31],[-20,-6],[-28,22],[-66,19],[-13,18],[-13,-15],[-25,14],[14,12],[162,38],[-30,101],[-6,71],[47,67],[16,90],[43,33],[-10,25],[51,27],[4,56],[28,35],[-6,57],[8,17],[-11,24],[26,58],[-7,29],[-2,55]],[[5444,5029],[26,12],[39,-13],[53,-86],[69,1],[106,-11],[22,19],[61,13],[19,-17],[-12,-38],[55,-21],[49,27],[5,36],[32,32],[32,18],[68,-9],[9,7]],[[4400,3887],[-1,45]],[[4399,3932],[-2,70],[5,21],[41,28],[0,20],[-58,45],[11,31],[36,11]],[[4432,4158],[51,51],[47,6],[22,-6],[28,-41],[26,-2],[18,24],[7,39],[15,15],[55,25],[30,-8]],[[4958,4089],[33,-75],[1,-62],[35,-29],[54,-31]],[[5219,3681],[-25,-53],[-42,-23],[-3,-50],[-49,-64],[11,-30],[-37,-54]],[[5074,3407],[-21,12],[-21,30],[-1,27],[-21,9],[-55,46],[-50,11],[-21,13],[-51,1],[-22,32],[-31,2]],[[5074,3407],[-8,-20],[13,-41],[-14,-35],[-51,-34],[-39,-1],[-34,-19],[-16,-33],[22,-86],[75,-104],[34,-40],[81,-14],[55,-24],[72,-20],[6,-52],[49,-43],[16,-36],[2,-48]],[[5337,2757],[-23,-16],[2,-84],[17,-44],[8,-79],[20,-31],[-2,-32],[20,-61],[-16,-22],[-23,-93],[-70,-64],[-7,-25],[62,-20],[-18,-42],[-16,-53],[1,-40]],[[5292,2051],[-18,-7],[-67,14]],[[5207,2058],[-56,-4],[-15,-20],[1,-30],[-16,-9],[-31,19],[-47,2],[-18,-8],[-60,34],[-4,24],[-39,27],[-65,-4],[-23,15]],[[5444,5029],[-72,8],[-54,33],[-20,-5],[-16,21],[-32,18],[-53,0],[-21,12],[-11,-17],[-46,18],[-2,-39]],[[5117,5078],[-46,5],[-50,21],[-26,18],[-61,24],[-52,13],[-32,41],[4,34],[32,22],[-15,24],[-46,5],[-20,27],[-42,6],[-39,-10],[-29,13],[-53,6],[-31,14],[-82,18],[-50,25],[-43,1],[-41,30]],[[4395,5415],[-26,10],[-49,2],[-37,-25],[-80,10],[-19,-4],[-32,20],[-59,15]],[[4093,5443],[39,4],[32,16],[69,72],[3,23],[-9,42],[5,21],[82,53],[23,31],[0,33],[-14,43],[5,36],[-23,34],[7,30],[-11,25],[13,32],[37,16],[14,19],[6,51]],[[4371,6024],[40,22],[15,46],[22,25],[45,-30],[45,8],[33,-8],[13,-28],[23,-17],[40,-2],[77,-52],[15,-4]],[[4739,5984],[117,-18],[70,-18],[54,-27],[44,-73],[89,-106],[108,-113],[55,-22],[-8,-31],[52,-24],[145,29],[88,4],[61,-13],[41,-1]],[[5655,5571],[5,-69],[-7,-45],[7,-44],[46,-55],[37,-13],[8,-28],[-19,-6],[6,-21],[61,-46],[24,-56],[40,-10],[61,-35],[20,-36],[51,-38],[60,-33],[22,-37]],[[4739,5984],[-10,44],[1,47],[-7,31],[21,53],[-14,41],[-2,56],[16,31],[2,34],[30,22],[33,89],[23,11],[30,44],[38,26],[19,29],[32,26],[32,59],[20,13],[2,42],[16,27],[39,23],[5,22],[24,24],[14,41],[20,4],[25,-35],[8,12],[47,-86],[16,5],[48,-8],[43,-30],[-4,-15],[38,-29],[53,-26],[25,-27],[27,-1],[-21,-15],[24,-16],[-5,-15],[55,-105],[-32,-11],[-21,-26],[21,-8],[6,-28],[14,-2],[1,-36],[22,11],[28,-43],[-22,-22],[5,-51]],[[5524,6216],[31,-42],[-25,-31],[-70,-50],[-6,-10],[25,-32],[-2,-32],[29,-26],[13,-77],[-27,-38],[4,-75],[-44,-24],[-11,-35],[100,-10],[12,15],[-19,53],[19,14],[36,8],[8,12],[-12,34],[12,12],[38,2],[54,-18]],[[5689,5866],[-2,-126],[-11,-43],[8,-15],[30,0],[10,-22],[-18,-29],[-42,-31],[-9,-29]],[[5055,4767],[22,-35],[-8,-21],[-38,-25],[-67,-77],[-17,-82],[4,-116],[8,-31]],[[4959,4380],[-24,-17],[-90,-19],[-47,-20],[-47,5],[-13,-9],[-20,45],[-10,69],[-33,118],[-10,65],[-8,122],[-6,38],[1,63],[-8,42]],[[4644,4882],[28,-4],[-8,-25],[14,-9],[-3,-26],[64,-18],[33,-24],[18,27],[64,-17],[182,-23],[19,4]],[[4928,4187],[42,78],[3,25],[-14,90]],[[5055,4767],[-16,16],[-24,112],[5,34],[31,74],[31,2],[9,-26],[-7,-28],[45,2],[21,24],[3,57],[-36,44]],[[4644,4882],[-8,27],[-26,7],[-17,19],[-21,55],[-19,10],[-9,37],[-17,25],[-8,75],[-16,28],[-18,68],[-27,25],[-40,3],[-56,32],[-1,32],[34,90]],[[7226,2087],[7,-33],[-69,-76],[-31,-51],[29,-64],[-9,-80],[21,-20],[33,-49],[10,-34],[22,-11],[-20,-115],[-38,-14],[-41,4],[-35,-20],[-37,-1],[-47,14],[-42,-38],[-29,-15],[-2,-71],[-12,-27],[4,-45],[-77,-61],[-7,-25],[-74,11],[-39,11],[-21,-11],[-7,-68],[-21,33],[-72,28],[-13,88],[14,31],[-56,100],[-18,56],[-39,23],[-12,18],[-32,-4],[-39,15],[-90,24],[-30,22],[-16,45],[-31,18],[-46,8],[-61,-22],[-20,35],[-25,-29],[-67,24],[-13,-8],[-47,2],[-1,-16],[-34,1],[3,-40],[-33,20],[-60,5],[-54,14],[-9,24],[-34,8],[-57,30],[-40,99],[-16,55],[1,48],[-48,13],[-39,45],[2,19],[-27,36],[-40,-18],[-15,15]],[[5480,2063],[1,45],[-11,39],[7,17],[69,11],[16,16],[1,34],[-12,58],[22,37],[27,-28],[33,17],[19,26],[32,14],[7,27],[102,41],[39,39],[119,86],[27,15],[31,0],[15,-43],[40,-27],[29,16],[32,-3],[15,-23],[49,-5],[25,36],[74,-4],[23,22],[14,48],[29,38],[28,2],[34,24],[3,37],[50,15],[18,41],[62,8],[10,33],[65,57],[36,13],[29,-13],[26,0],[33,-20],[51,6],[18,-6],[14,-41],[25,-13],[32,-61],[34,-19],[19,5],[73,-24],[33,-38],[9,-29],[5,-57],[-20,-38],[-64,-41],[-99,-42],[-4,-11],[2,-147],[-10,-19],[28,-37],[40,-18],[20,5],[29,-17],[23,26],[25,-29],[41,6],[29,-16],[44,-10],[64,-37],[17,-20]],[[4432,4158],[-30,40],[-14,94],[-12,56],[11,77],[-8,125],[-79,20],[-33,0],[-25,12],[-56,-11]],[[4186,4571],[-24,32]],[[4162,4603],[-16,24],[21,74],[-18,12],[38,45],[23,51],[13,75],[31,68],[0,16]],[[4254,4968],[12,47],[6,52],[-13,17],[15,53],[6,64],[-57,21],[-44,32],[3,17],[-21,13],[1,16],[-30,98],[-39,45]],[[4399,3932],[-26,4],[-63,165],[-10,68],[-26,69],[-2,27],[-30,110],[-43,143],[-13,53]],[[6673,3758],[-12,-48],[8,-16],[-22,-40],[-55,11],[-70,-16],[-33,-55],[-36,-17],[-3,-36],[48,-143],[81,-75],[90,-27],[44,-37],[14,-76],[55,-103],[-2,-50],[15,-35],[-2,-22]],[[6793,2973],[-82,-30],[-37,2],[-16,23],[-21,5],[-11,22],[-37,27],[-12,37],[-44,42],[-35,5],[-27,16],[-9,21],[-17,1],[-45,37],[-53,8],[-33,-9],[-7,41],[-32,-8],[-13,-24],[-60,-11],[-72,33],[-20,19],[-42,-1],[-8,32],[-39,-13],[-14,-36],[-32,7],[-33,-9],[-25,-33],[-57,8],[-20,-25],[-63,23],[-18,1],[-61,-31],[-20,-23],[-39,1],[-17,10],[-36,-5],[-15,60],[-21,24],[-56,7],[-55,-16],[-28,-38],[-16,-46],[-16,-11],[-27,-42],[-5,-25],[-45,-40],[-3,-21],[24,-27],[101,-60],[22,-29],[14,-47],[36,-24],[3,-28],[-26,-10],[-20,-45],[-49,-6],[-17,15],[-33,4],[-17,26]],[[6793,2973],[25,-16],[16,7],[99,-7],[35,-30],[44,7],[33,-5],[80,-45],[41,7],[46,-29],[26,-5],[43,12],[142,-22],[95,-36],[24,-15],[50,-50]],[[7592,2746],[-43,0],[-61,15],[-53,20],[-37,-12],[-9,-22],[22,-56],[-12,-33],[14,-14],[45,4],[23,-21],[13,-29],[-2,-27],[-31,-56],[-44,-4],[-16,-24],[-30,-22],[-11,-29],[23,-18],[47,-75],[16,-46],[-37,-37],[-35,40],[-46,26],[-53,17],[-36,-45],[-11,-39],[-19,-29],[13,-34],[8,-53],[-4,-56]],[[5480,2063],[-43,-24]],[[5437,2039],[-22,18],[-56,-7],[-19,6],[-48,-5]],[[3473,1203],[68,-108],[-56,-163]],[[3485,932],[-129,70],[-209,131]],[[3147,1133],[-24,100]],[[3123,1233],[252,86],[98,-116]],[[3485,932],[71,37],[76,-159],[-39,-19]],[[3593,791],[-600,-303],[-1,126],[-27,1]],[[2965,615],[28,36],[-1,21],[29,42],[-30,56],[0,45],[55,-3],[115,202],[-52,62],[38,57]],[[2852,1920],[21,-2],[-21,-85],[23,-50],[-25,-39],[27,-16],[-5,-15]],[[2872,1713],[-13,5],[-12,-27],[-31,-3],[-25,-20],[-21,-47],[20,-19],[-19,-62],[-51,-48],[-26,4],[-98,37],[25,20],[24,7],[8,17],[-70,58],[-50,2],[-18,-12],[-44,9],[-17,-6],[-34,19]],[[2420,1647],[12,26],[22,16],[13,45],[0,29],[57,8],[-39,54],[-85,8],[-23,19],[-40,11],[6,28],[23,32],[-10,42]],[[2356,1965],[78,44],[23,-18],[2,-21],[153,60],[19,0]],[[2631,2030],[-19,-75],[38,-11],[56,4],[117,-16],[29,-12]],[[2356,1965],[-21,61],[-30,10],[-1,19],[-35,-23],[-32,-58],[-31,0],[-74,29],[-35,29],[0,21],[27,30],[44,27],[31,53],[-31,35],[-35,23],[111,86]],[[2244,2307],[29,-47],[35,25],[60,65],[23,35]],[[2391,2385],[54,15]],[[2445,2400],[50,-37],[21,-39],[-15,-41],[23,-12],[11,-40],[-43,-41],[-36,-56],[65,-17],[83,55],[46,-72],[-19,-70]],[[4207,2033],[37,-13],[10,-29],[27,-14],[10,-22],[58,-34],[16,-26],[-7,-25],[41,-4],[-4,-38],[-34,-42],[-33,-22],[-20,-81],[-71,-84],[-25,-63],[-30,-47],[-36,-45],[-49,0],[-24,-20],[-21,-51],[10,-13],[-3,-38]],[[4059,1322],[-33,4],[0,64],[-28,17],[-75,5],[-46,32],[-59,19],[4,16],[-102,15]],[[3720,1494],[5,37],[21,61],[-52,18],[8,85],[37,141],[-48,16],[-11,11]],[[3680,1863],[8,19],[29,14],[13,34],[23,15],[-8,39],[-7,124],[49,-10],[48,-26],[2,-18],[25,-19],[1,-15],[44,-30],[18,-37],[100,-20],[62,22],[18,51],[35,-15],[39,8],[28,34]],[[3117,2583],[-21,-72],[-29,-65],[34,-8],[-11,-63],[18,-4],[17,15],[-11,-53],[46,-2],[-85,-75],[60,-113],[-32,-5],[-45,-48],[13,-6],[4,-35],[24,-12],[37,-2],[24,28],[25,-55],[49,-8]],[[3234,2000],[-11,-50],[17,-66],[1,-41],[-135,4],[-19,-121],[-33,-6],[-63,0],[-1,-51]],[[2990,1669],[-63,0],[-61,20],[6,24]],[[2852,1920],[3,27],[-11,45],[16,75],[3,33],[21,49],[-6,27],[9,53],[29,27],[-26,20],[3,20]],[[2893,2296],[35,32],[29,9],[-16,20],[7,37],[-3,38],[22,21],[5,35],[15,35],[60,45],[24,37]],[[2965,615],[-23,0],[-42,-37],[-38,-20],[-41,-36]],[[2821,522],[1,218],[-1,305],[-44,-11],[-44,-27]],[[2733,1007],[15,83],[5,102]],[[2753,1192],[62,6],[12,96],[-5,45],[22,62],[16,1],[19,-48],[96,-94],[3,17],[31,-2],[-1,23],[24,21],[17,-3]],[[3049,1316],[48,-8],[9,-33],[17,-4]],[[3123,1271],[0,-38]],[[2445,2400],[35,10],[90,-15],[109,-13],[90,-5],[54,-15]],[[2823,2362],[3,-27],[15,-23],[52,-16]],[[3445,2436],[29,-107],[29,-14],[69,-8],[8,-34],[33,1]],[[3613,2274],[11,-11],[-10,-74],[23,-16],[5,-65],[-36,-41],[24,-20],[-6,-33],[-27,-1],[-12,-65],[-47,7],[11,-22],[32,-5],[-21,-124],[30,2],[30,-11]],[[3620,1795],[-9,-20],[-1,-92],[-22,-49],[-28,-2],[-15,-38],[-37,-1],[-76,-21],[-43,11],[-110,1]],[[3279,1584],[18,79],[19,39],[30,19],[-1,18],[30,18],[3,35],[15,14],[-15,36],[-32,8],[-12,29],[7,35],[32,63],[-14,16],[5,92],[58,2],[30,29],[-9,18],[-52,2],[-9,7],[-20,62],[-11,12],[3,32],[-36,17]],[[3318,2266],[66,79],[10,19],[-15,73]],[[3680,1863],[-25,-19],[-35,-49]],[[3613,2274],[10,28],[27,31],[58,27],[7,22],[48,4],[15,-20],[52,-14],[25,-23],[30,-9],[39,26],[62,8],[39,11],[22,-35],[68,-41],[26,10]],[[4141,2299],[14,-24],[16,-59],[65,-38],[6,-21],[-8,-62],[-27,-62]],[[3123,1271],[10,-2],[13,49],[20,0],[-1,61],[39,16],[-9,36],[21,86],[42,15],[21,52]],[[3720,1494],[-31,-7],[-27,7],[-8,35],[-34,-3],[-11,28],[-26,0],[-52,-34],[-26,6],[-8,-18],[46,-106],[-10,-47],[6,-16],[50,-15],[-3,-24],[-32,-24],[-15,-40],[-24,8],[-26,-9],[-16,-32]],[[2733,1007],[-47,-17],[-94,-2],[-204,-21],[-109,-55],[-37,80],[61,30],[-37,76],[-4,34],[31,10],[50,38],[-6,33],[12,49],[24,28]],[[2373,1290],[54,-21],[32,9],[42,32],[34,10],[-9,82],[31,-6],[21,24],[29,-3],[75,-37],[-9,-122],[12,-57],[34,-13],[34,4]],[[3318,2266],[-38,-45],[1,-50],[-41,-67],[-6,-104]],[[4059,1322],[-14,-83]],[[4045,1239],[-121,4],[19,-19],[6,-34],[22,-6],[74,-155],[8,-7]],[[4053,1022],[70,-152],[1,-9],[-353,-179]],[[3771,682],[-102,-50],[-76,159]],[[3049,1316],[-44,27],[10,21],[26,92],[-9,18],[-38,13],[-5,13],[1,169]],[[2373,1290],[-3,61],[52,20],[33,71],[22,16],[-63,13],[-8,23],[1,56],[15,43],[-32,2],[-2,52],[32,0]],[[3771,682],[-1,-196],[-172,-87]],[[3598,399],[-148,-73],[-588,-298],[-60,-28],[18,31],[1,76],[0,415]],[[4053,1022],[208,104],[33,14],[9,22],[42,2],[6,-26],[-12,-11],[9,-82],[-22,-42],[-7,-40],[-24,-33],[-7,-65],[37,-71]],[[4325,794],[7,-12],[63,-26],[46,10],[44,-12],[13,-15],[4,-69],[27,-25],[37,-55],[20,-14]],[[4586,576],[-21,-18],[-140,-89],[15,-27],[-73,-48],[-760,-382],[-8,-1],[-1,388]],[[4734,2115],[-17,-48],[39,-38],[17,-25],[-6,-17],[29,-64],[-11,-24],[25,-5],[2,-23],[-15,-30],[-43,-36],[17,-79],[-24,-16],[4,-18],[-26,-59],[11,-10],[-9,-45],[-19,-28],[-22,-5],[-6,-29],[-52,-21],[-32,-1],[-11,-16],[-20,6],[-4,-45],[61,-58],[59,-78]],[[4681,1303],[-41,5],[-14,32],[-38,-20],[-23,-3],[-1,26],[-40,14],[-23,-19],[-54,6],[-57,-80],[-22,-4],[-4,-18],[-42,11],[-17,58],[-29,-11],[10,-22],[-43,-4],[-81,-24],[-8,20],[9,56],[-27,-7],[-63,-42],[8,-57],[-12,-21],[-24,40]],[[5437,2039],[36,-21],[9,-25],[-2,-67],[12,-59],[-22,-22],[-19,-53],[13,-15],[17,-59],[21,-29],[47,-46],[-4,-86],[-20,-34],[-52,-67],[-15,-59],[-45,0],[-10,-61],[-18,-19],[5,-25],[-5,-59],[3,-44],[-9,-21],[-42,-30],[-20,6],[-24,-50],[-24,-10],[-15,-24],[-40,-25],[-4,-39],[-18,-12],[-28,2],[-5,-13],[-39,-31],[0,-16],[-21,-28],[-14,1],[-3,-26],[-40,-6]],[[5042,867],[-169,191],[-2,48],[-32,78]],[[4839,1184],[23,14],[7,76],[-16,32]],[[4853,1306],[23,66],[27,24],[133,100],[126,83],[1,85],[19,47],[28,103],[5,103],[-28,39],[7,67],[15,10],[-2,25]],[[4325,794],[339,255],[29,24],[47,65],[39,-14],[23,27],[2,30],[35,3]],[[5042,867],[-9,-30],[-34,-74],[8,-48],[-47,-26],[-86,-3],[-64,-10],[-16,12],[-73,-28],[-18,-2],[14,-45],[0,-38],[-16,-37],[-16,-5],[-16,17],[-13,33],[-45,3],[-25,-10]],[[4681,1303],[53,-75],[14,18],[-6,16],[36,39],[75,5]],[[2424,3011],[-173,-114]],[[2251,2897],[-84,8],[9,48],[11,18],[28,-4],[23,31],[-2,25],[-39,16],[-11,34],[-42,-4],[8,-48],[-43,4],[-2,64],[-16,29],[-19,0],[-6,38],[-59,9],[-5,20],[-21,18],[-21,49],[27,63],[38,-5],[15,15],[56,-4],[30,48],[39,20],[14,-2]],[[2179,3387],[24,-67],[35,-5],[9,-20],[70,-22],[-3,-17],[23,-3],[3,-50],[-9,-48],[22,-42],[22,-3],[10,-32],[26,-4],[1,-42],[12,-21]],[[2424,3011],[233,156]],[[2657,3167],[52,-24],[22,-32]],[[2731,3111],[-2,-63],[-120,-58],[-12,-33],[3,-45],[30,-16],[-3,-18],[-45,-11],[-20,-36],[-64,-13],[-17,-41]],[[2481,2777],[-5,-33]],[[2476,2744],[-16,14],[-44,-19],[-48,10],[-31,21],[3,51],[-59,21],[-22,-2],[-7,19]],[[2252,2859],[-1,38]],[[2731,3111],[81,-12],[17,7],[45,-13]],[[2874,3093],[38,-74],[-11,-20]],[[2901,2999],[-24,-19],[6,-74],[17,-3],[22,-64],[-22,-77],[-14,-23],[-13,-51],[-19,-17],[-27,12],[-22,-16]],[[2805,2667],[0,29],[-42,37],[-57,15],[-14,-16],[-152,27],[-16,-14],[-43,32]],[[3141,3167],[-33,41],[-18,3],[-7,-22],[-49,-1],[-26,10],[-18,-7],[-14,-56],[-25,4],[-37,-15],[-22,-28],[-18,-3]],[[2657,3167],[116,77]],[[2773,3244],[95,61],[60,20],[91,9]],[[3019,3334],[109,11]],[[2244,2307],[-128,203],[7,34],[51,-4],[4,82],[25,20],[16,51],[-23,26],[-1,42],[13,35],[-26,5],[-7,33],[35,-2],[42,27]],[[2476,2744],[-18,-51],[-4,-38],[-40,-101],[-19,-18],[-25,-1],[-38,13],[-1,-36],[17,-14],[12,-32],[-4,-32],[23,-5],[12,-44]],[[2179,3387],[8,-3],[48,25],[42,8],[38,45]],[[2315,3462],[7,12],[25,-16],[59,7],[29,39],[45,-20]],[[2480,3484],[30,-27],[49,11],[26,-30],[37,-16],[23,-27]],[[2645,3395],[50,-62],[78,-89]],[[2805,2667],[-20,-64],[5,-57],[-20,-28],[16,-72],[32,-22],[5,-62]],[[2901,2999],[20,-6],[2,-20],[27,-43],[22,-6],[-2,-25],[53,-18],[17,7],[-2,-35],[17,-2],[-3,-31],[40,1]],[[1988,4686],[14,-15],[-108,-215]],[[1894,4456],[-40,18],[-31,-11],[-15,-17],[-63,-20],[-17,-38],[-29,-16],[-81,-5],[-13,-17],[-92,8]],[[1513,4358],[24,40],[-4,19],[-60,-7],[-31,4],[-21,-14],[-18,6]],[[1403,4406],[-12,158],[15,107]],[[1406,4671],[38,11],[34,-1],[18,-35],[50,-3],[30,-11],[9,28],[70,-14],[-3,-28],[74,-10],[32,-35],[30,-1],[10,58],[47,84],[104,18],[39,-46]],[[1894,4456],[63,-31],[57,-113],[49,-13],[27,-14]],[[2090,4285],[37,-20],[-38,-75],[-13,-72],[-11,-23],[12,-16],[-21,-23],[4,-40],[16,-30],[-6,-63]],[[2070,3923],[-124,12],[-93,-8],[-82,0],[-4,18],[-72,9],[2,52],[-22,7],[-56,-1],[-3,-13],[-27,6],[-26,-11],[-79,22],[-26,-2],[-24,30],[-67,18],[-39,3],[-44,14],[-32,2],[-28,20]],[[1224,4101],[30,28],[-3,33],[27,5],[4,16],[65,32],[30,36],[21,9],[8,59],[52,4],[-2,21],[28,-6],[29,20]],[[1988,4686],[79,178],[-47,-30],[-80,15],[-115,52],[-57,33],[-54,10]],[[1714,4944],[8,30],[20,4],[64,-8],[46,11],[87,7],[30,-6]],[[1969,4982],[42,-14],[5,-13],[86,-14],[19,42],[66,-17],[16,-21],[45,-7],[41,10],[53,-27]],[[2342,4921],[14,-59]],[[2356,4862],[-49,-34],[-1,-36],[-13,-24],[-14,4],[-21,-25],[0,-26],[-17,-52],[-23,-44],[-15,-8],[-15,-38],[-7,-47],[-10,-1],[-22,-104],[20,-47],[-12,-32]],[[2157,4348],[-29,0],[-38,-63]],[[1406,4671],[-20,10],[6,45],[-51,30],[-2,45],[-22,5],[12,59],[-22,4],[3,33],[-19,14],[3,27],[-71,42],[1,14],[-42,35]],[[1182,5034],[9,61],[-5,81]],[[1186,5176],[34,31],[100,-39],[108,-11],[46,-36],[66,-39],[5,-46],[45,6],[28,-70],[96,-28]],[[1403,4406],[-90,28],[-346,125]],[[967,4559],[-23,36],[-61,55],[-112,68],[-22,9]],[[749,4727],[19,31],[30,-19],[16,28],[20,-11],[13,20],[47,-31],[92,-37],[17,31],[13,-15],[57,45],[47,9],[70,22],[-64,182],[50,34],[6,18]],[[1224,4101],[-34,36],[-5,59],[-29,30],[1,16],[-46,33],[-80,18],[-72,33],[-1,35],[-51,11]],[[907,4372],[-40,22],[6,8],[-49,16]],[[824,4418],[9,29],[23,25],[69,7],[12,13],[30,67]],[[907,4372],[21,-35],[2,-44],[25,-39],[8,-51],[31,-28],[-8,-14],[82,-76],[30,-84],[36,-14],[-9,-113],[33,-11],[3,-31],[-9,-40],[-109,-19],[-20,-19],[-47,-30],[-8,-19],[-27,-15],[-113,-14],[-63,11],[-37,21],[-70,14],[-22,42],[-38,7],[-16,33],[-45,40]],[[537,3844],[142,67],[-6,125]],[[673,4036],[10,57],[-7,7],[28,71],[27,-6],[20,45],[23,19],[3,45]],[[777,4274],[10,37],[-18,13],[2,20],[29,42],[-5,8],[29,24]],[[2157,4348],[81,-66],[15,14],[30,-5],[66,-32],[82,-4],[22,-22],[3,-27],[25,15],[53,-10]],[[2534,4211],[-5,-47],[-13,-34]],[[2516,4130],[-37,-10],[-49,-24],[-53,-10],[-7,-14],[-42,0],[17,-33],[7,-97],[9,-43]],[[2361,3899],[-101,-1],[-55,-10],[-63,14],[-2,14],[-70,7]],[[2356,4862],[21,-14],[11,12],[50,-5],[82,-41],[38,-31],[48,-30],[-6,-52],[-17,-62],[-20,-1],[-21,-79],[-74,-71],[13,-26],[133,-100],[-14,-70]],[[2600,4292],[-41,-6],[-8,-48],[-17,-27]],[[673,4036],[-118,8],[-44,8],[-61,28],[-47,44],[-113,141]],[[290,4265],[21,25],[77,46],[90,77]],[[478,4413],[38,21],[94,-55],[111,-83],[56,-22]],[[478,4413],[-44,98],[-52,21],[4,32],[40,22],[-18,16],[51,39],[27,-5],[-28,71],[48,12],[33,38],[-69,64],[-22,40]],[[448,4861],[18,25],[36,-5],[30,23],[2,21],[57,30],[40,-59]],[[631,4896],[83,-128],[35,-41]],[[537,3844],[-31,21],[-40,-12],[-85,-63],[-28,-12],[-48,-33],[-7,57],[19,101],[5,66],[-7,9],[8,61],[-62,33],[-9,16],[-30,6],[-38,41],[-27,6],[-14,37],[-32,-13],[-15,39],[-40,-16],[-52,58],[-4,35],[35,-6],[11,16],[-8,27],[-17,6],[0,31]],[[21,4355],[52,-7],[50,10],[41,-9],[78,-44],[48,-40]],[[21,4355],[10,61],[57,43],[6,28],[-36,42],[29,45],[-7,15],[20,69],[113,192],[37,51],[60,56],[42,-20],[33,-64],[33,-14],[30,2]],[[1186,5176],[-49,143],[-61,117],[109,30]],[[1185,5466],[-6,-14],[22,-21],[33,-13],[13,-53],[18,-3],[-3,-25],[157,47],[46,-16],[132,65],[-70,145],[54,34]],[[1581,5612],[116,-236],[20,-30],[130,-97],[135,-6],[12,16],[95,1]],[[2089,5260],[13,-22],[8,-50],[-33,-26],[-42,-2],[-30,-14],[0,-39],[-11,-38],[-4,-52],[-16,-10],[-5,-25]],[[1700,6220],[-9,-20],[-75,-55]],[[1616,6145],[-88,-70],[-15,-37]],[[1513,6038],[-97,-155],[21,-8],[15,20],[27,-24],[31,-44],[-127,-69],[24,-44],[-140,-75],[61,-71],[-55,-56],[-88,-46]],[[1185,5466],[-183,65],[-70,20]],[[932,5551],[-73,25],[8,46],[159,300],[32,-39],[28,102],[17,32],[30,16],[65,0],[36,54],[26,3],[8,81],[23,1],[7,37],[66,16],[85,2],[111,15],[78,-24],[62,2]],[[631,4896],[36,100],[26,55],[51,68],[-18,14],[-33,7],[66,73],[9,32],[42,95],[43,67],[10,69],[47,6],[3,46],[19,23]],[[1513,6038],[29,-2],[47,-28],[40,-11],[17,-33],[-4,-46],[15,-10],[6,-29],[36,-5],[7,-30],[-14,-104],[5,-33],[-17,-38],[-4,-39],[-81,-8],[-14,-10]],[[2640,5888],[-18,5],[-12,25],[-27,-14],[-18,15],[1,-26],[-13,-24],[-53,-14],[-24,-27],[13,-7],[-40,-68],[-32,11],[-18,-41],[-38,-122]],[[2361,5601],[-60,18]],[[2301,5619],[-41,11],[32,105],[-218,92],[17,24],[44,21],[-18,19],[16,38],[-2,52]],[[2131,5981],[13,33],[-7,10],[16,30],[-2,31],[17,17]],[[2168,6102],[132,-69],[141,-67],[51,108],[189,-95],[-41,-91]],[[2640,5888],[-8,-16],[97,-42]],[[2729,5830],[356,-155],[22,-11]],[[3107,5664],[-13,-12],[-30,-87]],[[3064,5565],[-4,-79],[-339,109]],[[2721,5595],[-227,75],[-32,-101],[-101,32]],[[2168,6102],[35,14],[33,31],[22,-10],[20,21],[15,41],[19,100],[38,71],[74,147],[28,43],[37,37]],[[2489,6597],[73,7],[43,28],[47,-7],[69,19],[41,49],[17,46],[94,1],[24,13],[25,-5],[58,8],[53,-6],[48,-18],[17,-21],[2,-39],[10,-18],[-5,-32],[-32,-30],[5,-20],[73,-29]],[[3151,6543],[-22,-13],[-31,4],[-45,-28],[-75,-157],[-190,-393],[-59,-126]],[[1700,6220],[34,34],[66,93],[48,74],[145,25],[33,20],[50,61],[48,20],[39,48],[16,64],[89,-25],[52,9],[61,-16],[53,0],[20,-22],[35,-8]],[[2131,5981],[-104,29],[-97,17],[-35,16],[-89,23],[-46,23],[-72,6],[-37,44],[-35,6]],[[3151,6543],[68,-23],[39,-30],[37,-3],[3,-58],[26,-113],[35,36],[72,-8],[101,16],[34,14],[24,-27],[37,-15],[62,9],[27,-5],[30,-29],[14,-30],[11,-49],[35,-18],[37,-31],[37,-3],[92,-55],[44,-15],[53,23],[92,-26],[28,-71],[2,-30]],[[4191,6002],[-91,14],[-36,29],[-22,-13],[-32,-1],[-23,-14],[-32,-3],[-44,25],[-16,-4],[-7,-31],[-18,-20],[-73,-17],[-5,-37],[-31,-10],[-54,31],[-54,5],[-39,-15],[-38,3],[-34,24],[-70,-14],[-33,-58],[-49,-20],[-35,-32],[-62,-34],[-78,-2],[-30,26],[-29,9],[-8,-51],[-28,-30],[-13,-98]],[[3064,5565],[15,-6],[13,-64],[24,-40],[-14,-9],[22,-10],[52,-108],[0,-65],[13,-38],[42,-14],[-3,-17]],[[3228,5194],[-12,-35],[10,-9],[12,-52],[-11,-15]],[[3227,5083],[3,-19],[-18,-28],[-12,-52],[-62,-28],[-24,-40],[-23,-4]],[[3091,4912],[-65,46],[-22,-6],[-30,20],[-21,-18],[-30,6],[-11,-22],[-29,11],[-23,-13],[-66,20],[-5,-8],[-102,35],[-32,-12],[-32,10],[-21,28],[-43,-3]],[[2559,5006],[162,589]],[[2342,4921],[2,52],[24,25],[1,17],[28,23],[33,-5],[11,10],[51,-18],[37,0],[30,-19]],[[3091,4912],[-8,-42],[-7,-122],[-23,-65],[-30,-36],[-29,-17],[-4,-72],[-23,-7],[-85,-9],[-61,3],[-6,-31],[4,-117],[-18,-31],[-64,-62]],[[2737,4304],[-137,-12]],[[2089,5260],[72,14],[25,33],[32,88],[-16,82],[-13,23],[5,45],[17,29],[26,9],[64,36]],[[3019,3334],[3,75],[7,12],[-10,88],[27,136],[-1,42],[7,24]],[[3052,3711],[48,23],[100,35]],[[3200,3769],[21,-254],[9,-159]],[[2737,4304],[22,-16],[17,15],[14,-17],[36,11],[71,-14],[-15,-76],[92,-2],[13,63],[99,-3]],[[3086,4265],[-22,-48],[-13,-51],[-17,-3],[-5,-33],[-32,-15],[0,-40],[-45,-24],[-44,-41],[-21,-38],[17,-27],[-2,-59],[-18,-2],[24,-24],[-25,-13]],[[2883,3847],[-37,11],[-37,-18],[-22,7]],[[2787,3847],[-28,43],[-47,-76],[-37,14],[-49,4],[-20,69],[-33,-11],[-7,-45],[12,-39],[-10,-13],[-35,6],[-41,28]],[[2492,3827],[12,57],[-1,58],[12,71],[-5,47],[10,20],[-4,50]],[[3227,5083],[104,12],[17,-77],[-24,-110],[37,-12],[5,-38],[-13,-64]],[[3353,4794],[-4,-37],[36,-18],[11,-24],[-23,-25],[-7,-41],[-30,-42],[-12,-34]],[[3324,4573],[-17,-4],[-35,-40],[-7,-23],[-23,-20],[-21,-39]],[[3221,4447],[-58,-38],[-31,-36],[-15,-31],[5,-22],[-16,-28],[-1,-29],[-19,2]],[[3221,4447],[-16,-81],[10,-11],[-16,-40],[2,-65],[-8,-53],[11,-33],[-6,-57],[-16,-98],[-17,-65]],[[3165,3944],[-10,-2],[-35,42],[-16,5],[-18,35],[-25,3],[-52,-58],[-9,-68],[15,-17],[-1,-44],[-14,-71]],[[3000,3769],[-23,-16],[-29,-4],[-30,27],[-9,32],[-26,39]],[[3052,3711],[-28,0],[-9,20],[12,41],[-27,-3]],[[3165,3944],[25,-21],[5,-106],[5,-48]],[[3446,3694],[-41,-3]],[[3405,3691],[14,25],[-11,24],[12,78],[21,38],[8,86],[-4,60],[10,97],[-3,24],[11,73],[14,34],[22,20]],[[3499,4250],[19,-31],[-7,-33],[31,-10],[-34,-8],[0,-25],[18,-11],[27,12],[3,45],[19,-22],[35,-22],[19,-28],[-18,-11],[-38,-50],[2,-45],[-16,-43],[5,-19],[-8,-62],[7,-6]],[[3324,4573],[-15,-71]],[[3309,4502],[2,-87],[18,-49],[69,-23],[3,-32],[14,-2],[4,-31],[-37,-73],[-40,-16],[-8,-138],[5,-77],[8,-46],[-5,-127],[-12,-20]],[[3330,3781],[-21,19],[-41,-9],[-29,-35],[-39,13]],[[3405,3691],[-67,47],[-8,43]],[[3309,4502],[143,-25],[54,-20],[-2,-30],[22,-51],[2,-43],[20,-22],[30,-8],[-15,-35],[-33,-3],[-10,-18],[-21,3]],[[2480,3484],[-2,37],[-19,87],[26,21],[8,36],[-7,42],[-2,78],[8,42]],[[2787,3847],[-26,-61],[-8,-66],[10,-10],[-7,-47],[-21,-26],[-17,-41],[-3,-30],[15,-58],[-2,-34],[-25,-18],[-41,-54],[-17,-7]],[[2315,3462],[-18,37],[4,20],[-15,95],[-18,34],[26,12],[-4,79],[8,33],[41,43],[6,47],[16,37]],[[5689,5866],[40,-37],[33,-18],[-5,-81],[20,-40],[37,30],[19,1],[20,-55],[-19,-43],[8,-9],[52,-15],[36,-53],[29,-14],[68,9],[99,-45],[48,25],[16,51],[-3,42],[41,25],[6,48],[18,5],[-5,24],[19,14],[55,88],[32,29],[32,10],[9,31],[46,55],[34,62],[23,14],[52,11],[63,35],[10,21],[-16,78],[8,54],[-15,24],[6,70],[10,16],[79,53],[65,-19],[20,18],[40,15],[22,23],[20,51],[-6,82],[22,30]],[[6877,6581],[-2,-20],[25,-22],[2,-45],[45,-4],[54,-42],[20,9],[16,-32],[-7,-21],[-27,7],[0,-47],[43,-20],[-12,-82],[42,-8],[-58,-72],[5,-11],[40,5],[21,-8]],[[7084,6168],[-15,-19],[16,-45],[-12,-15],[-29,23],[-17,0],[-13,-25],[-38,2],[-3,-45],[31,-18],[33,-49],[-19,-56],[-20,-18],[38,-24],[-16,-44],[-20,-27],[6,-20],[-46,15],[-25,-43],[28,-18],[1,-37],[18,-33],[-31,-38],[21,-19],[25,-3],[17,-38],[35,-11],[-16,-21],[25,-8],[-10,-19],[19,-17],[-10,-48],[35,-14],[26,-68],[-4,-57],[34,-13],[-30,-43],[10,-55],[-13,-2],[-8,-30],[3,-84],[-15,-25],[25,5],[15,-18],[-1,-30],[17,-25],[15,-58],[-21,-5],[6,-28]],[[7151,4900],[-96,21],[-26,11],[-207,137],[-18,7],[-49,-1],[-116,30],[-76,-2],[-19,9],[-39,-3],[-43,17],[-29,-1],[-54,-27],[-32,-46],[-39,-19],[-24,-50],[-31,-30]],[[7151,4900],[25,-30],[-15,-43],[8,-24],[-4,-35],[19,-8],[-5,-50],[21,-15],[-5,-39],[-22,-5],[-8,-22],[3,-37],[-16,-10],[11,-56],[-7,-41],[13,-19],[25,-3],[2,-15],[-43,-52],[26,-26],[-1,-16],[45,-66],[-21,-53],[29,8],[11,-34],[19,-4],[24,-24],[-10,-55],[-17,4],[-52,-28],[-13,-19],[6,-20],[-35,-6],[18,-35],[-25,-8],[-26,-46],[-19,-19],[-11,-36],[16,-21],[-4,-20],[-32,-3],[-14,-30],[-29,-4],[-6,-55],[17,-24],[-5,-20],[-49,11],[-19,-33],[-37,3],[-45,-54],[-4,-46],[30,-46],[10,-46],[-13,-15],[27,-32],[51,-47],[48,37],[14,-8],[15,-64],[40,-18],[33,-23],[77,-19],[8,-18],[-3,-42],[39,-48],[28,-49],[25,-19],[48,-18],[19,-79],[14,-36],[96,-121],[47,-68],[49,-92]],[[6877,6581],[9,42],[29,23],[109,57],[28,69],[12,16]],[[7064,6788],[39,13],[23,67],[69,-8],[27,8],[19,24],[30,12],[14,20],[36,10],[63,77],[33,65],[9,42],[-34,106],[4,8]],[[7396,7232],[21,-15],[44,0],[42,-21],[37,-31],[49,15],[21,-9],[42,6],[28,-8],[18,13],[15,-9],[60,6],[46,-29],[16,7],[50,-30],[87,2],[16,22],[27,14],[8,38],[-4,60],[67,18],[15,33],[50,9],[32,13],[76,-18],[12,13]],[[8271,7331],[45,-17],[37,13],[70,-29],[37,-3],[52,-14],[6,-12],[51,-6],[28,-20],[32,-5],[16,11],[35,-25],[-24,-40],[0,-45],[8,-53],[24,-19],[-4,-33],[33,-20],[50,-6],[9,-39],[-4,-41],[83,-46],[56,-16],[46,4],[34,-25],[2,-35],[23,-43]],[[9016,6767],[-30,-34],[-85,-34],[-13,-28],[-36,-21],[-1,-15],[-37,5],[-13,-21],[-20,3],[8,-44],[-7,-25],[-58,-8],[-32,8],[-23,-7],[-29,-44],[19,-32],[-9,-42],[32,-36],[-12,-43],[-20,-4],[-17,-47],[-76,-81],[0,-14],[-33,-4],[-22,24],[-22,3],[-6,16],[-40,-27],[-39,6],[-8,-20],[-35,-6],[-8,11],[-45,-25],[-40,-76],[7,-50],[15,-18],[-10,-44],[-25,2],[6,-16],[-27,-35],[-76,-11],[-12,27],[-22,17],[0,23],[-20,50],[-38,0],[-16,-13],[9,-46],[-15,-13],[12,-21],[-10,-60],[9,-40],[-22,-44],[-32,-3],[-16,16],[-17,-21],[-11,14],[-35,-3],[-10,23],[-36,3],[-3,25],[-22,-1],[-21,34],[-29,-12],[-17,-28],[-24,0],[-19,31],[-13,-13],[-40,6],[-2,20],[-26,12],[-5,-33],[-51,0],[1,12],[-34,7],[-6,-16],[-25,2],[-19,21],[-22,7],[-25,-34],[-18,47],[-10,-6],[-31,27],[3,19],[-26,11],[-3,29],[-62,40],[-30,10],[13,24],[-16,22],[-3,36],[-26,15],[-28,-4],[2,30],[-24,-34],[-6,-37],[-45,24],[-2,14],[-25,-6],[-19,25],[-10,-14],[-15,14]],[[9730,8747],[-29,-27],[-36,13],[-49,-9],[-47,-27],[-1,-17],[-44,-13],[-27,-1],[-32,-14],[-37,-31],[-40,-9],[-27,-45],[-30,-27],[-64,-14],[-23,-21],[-20,4],[-91,-67],[-19,-53],[-13,-5],[-8,-47],[-48,-8],[-35,-38],[-16,-36],[-20,-15],[-42,-1],[8,39],[-61,-2],[-61,17],[-30,33],[-39,7],[-60,-32]],[[8689,8301],[-14,61],[1,64],[-31,61],[44,36],[4,14],[-14,54],[-15,18],[-41,-3],[-28,15],[-1,45],[-27,18]],[[8567,8684],[18,59],[-2,30],[30,30],[13,38],[-25,57],[35,22],[4,34],[17,34],[50,0],[46,12],[29,18],[21,85],[-8,49],[-1,66],[7,35],[94,213],[44,28],[18,50],[-5,53],[6,72],[42,-22],[53,12],[-2,43],[20,44],[39,36],[15,101],[44,41],[32,6],[24,16],[72,17],[34,36],[50,-7],[1,-49],[35,-74],[32,-57],[33,-23],[-3,-12],[31,-49],[-3,-14],[18,-24],[1,-27],[34,-70],[-14,-20],[5,-21],[-16,-6],[10,-37],[24,-31],[-3,-48],[21,-33],[18,-69],[16,-18],[21,-47],[18,-12],[-27,-10],[7,-80],[-13,-7],[-15,-68],[2,-27],[36,-14],[12,-80],[31,-26],[-7,-18],[31,-25],[-20,-30],[7,-36],[19,-1],[24,-63],[-17,-19]],[[8271,7331],[-71,92],[-8,45],[-98,48],[-21,76],[14,36],[8,54],[-13,15],[6,117],[28,45],[17,42],[49,6],[51,20],[50,3],[49,-24],[3,25],[20,4],[49,30],[38,-1],[28,15],[60,57],[18,63],[33,52],[-4,26],[23,89],[18,11],[39,1],[32,23]],[[9730,8747],[25,-52],[-8,-61],[-29,-10],[7,-55],[24,-45],[-19,-24],[33,-16],[-10,-25],[6,-25],[27,-15],[8,-54],[-15,5],[24,-34],[18,5],[-10,-30],[25,-21],[-25,-20],[14,-11],[-1,-27],[29,-27],[35,-17],[6,-21],[-13,-38],[47,-60],[11,-37],[-25,-22],[18,-31],[-6,-48],[22,-75],[-2,-35],[18,-52],[-4,-32],[14,-17],[9,-45],[11,-12],[5,-54],[-28,-1],[-12,-16],[25,-56],[-10,-31],[17,-47],[-26,-29],[-17,-41],[-56,-20],[-45,-2],[-56,-34],[-29,-26],[-41,-2],[-16,-15],[-41,-1],[-47,-40],[-12,-20],[-55,6],[-38,-39],[-3,-35],[-29,-15],[-31,-77],[-18,-10],[-36,-76],[-41,-11],[-16,-30],[-70,-62],[-15,-29],[-13,2],[-75,-38],[-56,-47],[-30,5],[-63,-5]],[[7396,7232],[3,9],[-69,21],[-36,57],[-11,100],[-54,-9],[40,141],[4,36],[2,112],[5,84],[35,104],[13,93],[-8,134],[4,20]],[[7324,8134],[16,-10],[33,3],[30,15],[28,-2],[30,-14],[14,21],[63,-31],[51,3],[11,-15],[46,-22],[13,16],[26,-20],[24,12],[2,-28],[50,-10],[37,27],[19,3],[4,19],[41,28],[2,35],[19,36],[38,22],[6,50],[11,34],[36,16],[39,32],[23,42],[47,45],[76,24],[4,13],[71,50],[23,2],[31,20],[20,31],[56,48],[10,-1],[63,31],[35,23],[25,4],[49,-12],[21,10]],[[5524,6216],[18,27],[4,-28],[39,-3],[45,10],[38,52],[-9,29],[-39,50],[-46,74],[2,17],[-17,22],[-22,106],[8,31],[19,7],[59,-1],[27,-22],[8,7]],[[5658,6594],[8,-18],[-30,-28],[34,1],[11,13],[-6,-43],[28,-13],[-8,-21],[28,10],[-4,28],[19,-29],[29,12],[15,-9],[5,23],[32,28],[57,5],[-7,34],[26,7],[0,-32],[31,15],[2,14],[36,23],[-12,48],[22,-5],[20,17],[14,-37],[28,-8],[-20,20],[9,18],[64,-24],[23,-2],[-6,-43],[37,-13],[41,-27],[20,17],[-15,37],[45,-17],[42,28],[4,14],[28,-10],[21,23],[37,-3],[8,29],[28,7],[9,26],[47,2],[77,-15],[5,23],[39,35],[22,-34],[33,-16],[6,-44],[50,-19],[4,37],[43,-12],[26,16],[31,-33],[-10,-32],[38,-41],[22,9],[33,-4]],[[5658,6594],[-40,137],[-13,94],[13,51],[23,15],[40,-20],[3,-30],[29,-16],[46,6],[-2,22],[-21,0],[-15,64],[19,32],[48,60],[36,27],[17,24],[1,25],[-42,28],[-79,14],[-27,-10],[-51,-40],[-39,-3],[-14,30],[-15,79],[20,14],[14,30],[39,10],[57,-13],[11,5],[-29,36],[12,19],[51,31],[30,-19],[0,-24],[-20,-22],[12,-29],[37,30],[31,4],[30,55],[20,-14]],[[5890,7296],[10,-8],[48,10],[46,-16],[38,-3],[21,12],[22,-26],[29,-11],[26,2],[67,-23],[17,12],[30,-12],[14,-21],[38,7],[37,-26],[15,-23],[56,5],[-1,-19],[18,-11],[25,-80],[54,-14],[25,-15],[93,-15],[38,-34],[1,-47],[30,-42],[47,-28],[21,-58],[47,-1],[82,12],[32,24],[72,8],[30,-16],[18,-40],[28,-11]],[[5890,7296],[7,88],[-8,29],[-34,72],[-92,150],[-4,62],[37,94],[33,14],[30,-3],[6,25],[-7,31],[10,76],[31,49],[36,25],[35,3],[23,-9],[3,-24],[26,0],[33,24],[67,-40],[9,-14],[23,3],[12,22],[34,-11],[1,-22],[23,11],[1,-25],[65,18],[35,-20],[64,-7],[36,-46],[21,5],[33,-13],[15,6],[71,0],[35,14],[11,24],[25,-1],[49,28],[22,-1],[35,39],[26,13],[4,20],[75,50],[36,40],[47,-6],[36,36],[21,5],[32,27],[44,0],[10,-14],[39,3],[30,-15],[32,0],[28,-20],[14,18],[37,2],[5,15],[49,-1],[17,-11]],[[4162,4603],[-55,-13],[-18,3],[-7,-34]],[[4082,4559],[-80,21],[-36,-8],[33,-11],[-5,-23],[-19,-7],[-14,-52],[7,-63],[17,-14],[-15,-33],[-2,-40],[-13,-82],[-118,-35]],[[3837,4212],[0,30],[-52,11],[2,39],[10,25],[-89,28],[-70,9],[-28,127],[9,9],[-2,47]],[[3617,4537],[57,-38],[37,10],[16,38],[30,-2],[5,13],[50,20],[33,5],[16,32],[14,-2],[9,50],[20,8],[2,36],[22,55],[-5,30],[89,-1],[5,39],[52,-23],[28,45],[-15,41],[52,-16],[21,31],[12,56],[24,18],[63,-14]],[[4020,3966],[0,38],[-19,65],[7,33],[-15,6],[58,121],[2,34],[51,18],[6,36],[-9,62],[22,76],[27,-2],[-3,16],[-34,33],[-31,57]],[[3791,4032],[-8,62],[12,26],[-13,30],[8,51],[47,11]],[[3617,4537],[-13,51],[13,17],[-13,27],[19,12],[-7,24],[-54,31],[-45,-4],[-32,15],[-48,12],[-23,16],[0,26],[-49,16],[-12,14]],[[3228,5194],[64,-19],[34,-3],[50,37],[32,4],[30,36],[72,30],[42,2],[19,45],[65,4],[75,60],[14,16],[41,-25],[44,27],[63,-28],[58,-6],[25,8],[60,55],[35,-2],[42,8]],[[4191,6002],[-1,-15],[37,26],[18,-2],[31,36],[48,10],[47,-33]]],"transform":{"scale":[0.00008797255455545237,0.00008317332673267295],"translate":[100.57498189300009,14.242746399000056]},"objects":{"Saraburi":{"type":"GeometryCollection","geometries":[{"arcs":[[0,1,2,3,4,5]],"type":"Polygon","properties":{"Shape_Leng":0.241492801098,"Shape_Area":0.0018312580523,"ADM3_EN":"Pak Phriao","ADM3_TH":"ปากเพรียว","ADM3_PCODE":"TH190101","ADM2_EN":"Mueang Saraburi","ADM2_TH":"เมืองสระบุรี","ADM2_PCODE":"TH1901","ADM1_EN":"Saraburi","ADM1_TH":"สระบุรี","ADM1_PCODE":"TH19","ADM0_EN":"Thailand","ADM0_TH":"ประเทศไทย","ADM0_PCODE":"TH"}},{"arcs":[[-4,6,7,8,9]],"type":"Polygon","properties":{"Shape_Leng":0.105040219772,"Shape_Area":0.000569300710487,"ADM3_EN":"Dao Rueang","ADM3_TH":"ดาวเรือง","ADM3_PCODE":"TH190105","ADM2_EN":"Mueang Saraburi","ADM2_TH":"เมืองสระบุรี","ADM2_PCODE":"TH1901","ADM1_EN":"Saraburi","ADM1_TH":"สระบุรี","ADM1_PCODE":"TH19","ADM0_EN":"Thailand","ADM0_TH":"ประเทศไทย","ADM0_PCODE":"TH"}},{"arcs":[[-3,10,11,12,-7]],"type":"Polygon","properties":{"Shape_Leng":0.0887337267065,"Shape_Area":0.00022786840863,"ADM3_EN":"Na Chong","ADM3_TH":"นาโฉง","ADM3_PCODE":"TH190106","ADM2_EN":"Mueang Saraburi","ADM2_TH":"เมืองสระบุรี","ADM2_PCODE":"TH1901","ADM1_EN":"Saraburi","ADM1_TH":"สระบุรี","ADM1_PCODE":"TH19","ADM0_EN":"Thailand","ADM0_TH":"ประเทศไทย","ADM0_PCODE":"TH"}},{"arcs":[[-2,13,14,15,16,-11]],"type":"Polygon","properties":{"Shape_Leng":0.156514093565,"Shape_Area":0.00102837996623,"ADM3_EN":"Khok Sawang","ADM3_TH":"โคกสว่าง","ADM3_PCODE":"TH190107","ADM2_EN":"Mueang Saraburi","ADM2_TH":"เมืองสระบุรี","ADM2_PCODE":"TH1901","ADM1_EN":"Saraburi","ADM1_TH":"สระบุรี","ADM1_PCODE":"TH19","ADM0_EN":"Thailand","ADM0_TH":"ประเทศไทย","ADM0_PCODE":"TH"}},{"arcs":[[-16,17,18,19,20,21,22,23,24]],"type":"Polygon","properties":{"Shape_Leng":0.217045884728,"Shape_Area":0.00135423697892,"ADM3_EN":"Nong No","ADM3_TH":"หนองโน","ADM3_PCODE":"TH190108","ADM2_EN":"Mueang Saraburi","ADM2_TH":"เมืองสระบุรี","ADM2_PCODE":"TH1901","ADM1_EN":"Saraburi","ADM1_TH":"สระบุรี","ADM1_PCODE":"TH19","ADM0_EN":"Thailand","ADM0_TH":"ประเทศไทย","ADM0_PCODE":"TH"}},{"arcs":[[-15,25,26,27,28,29,-18]],"type":"Polygon","properties":{"Shape_Leng":0.198887083861,"Shape_Area":0.00171900307398,"ADM3_EN":"Nong Yao","ADM3_TH":"หนองยาว","ADM3_PCODE":"TH190109","ADM2_EN":"Mueang Saraburi","ADM2_TH":"เมืองสระบุรี","ADM2_PCODE":"TH1901","ADM1_EN":"Saraburi","ADM1_TH":"สระบุรี","ADM1_PCODE":"TH19","ADM0_EN":"Thailand","ADM0_TH":"ประเทศไทย","ADM0_PCODE":"TH"}},{"arcs":[[-1,30,31,32,-26,-14]],"type":"Polygon","properties":{"Shape_Leng":0.237882890395,"Shape_Area":0.00137791455645,"ADM3_EN":"Pak Khao San","ADM3_TH":"ปากข้าวสาร","ADM3_PCODE":"TH190110","ADM2_EN":"Mueang Saraburi","ADM2_TH":"เมืองสระบุรี","ADM2_PCODE":"TH1901","ADM1_EN":"Saraburi","ADM1_TH":"สระบุรี","ADM1_PCODE":"TH19","ADM0_EN":"Thailand","ADM0_TH":"ประเทศไทย","ADM0_PCODE":"TH"}},{"arcs":[[-27,-33,33,34,35,36,37]],"type":"Polygon","properties":{"Shape_Leng":0.294030173079,"Shape_Area":0.00365539297157,"ADM3_EN":"Nong Pla Lai","ADM3_TH":"หนองปลาไหล","ADM3_PCODE":"TH190111","ADM2_EN":"Mueang Saraburi","ADM2_TH":"เมืองสระบุรี","ADM2_PCODE":"TH1901","ADM1_EN":"Saraburi","ADM1_TH":"สระบุรี","ADM1_PCODE":"TH19","ADM0_EN":"Thailand","ADM0_TH":"ประเทศไทย","ADM0_PCODE":"TH"}},{"arcs":[[-32,38,39,40,-34]],"type":"Polygon","properties":{"Shape_Leng":0.259182224041,"Shape_Area":0.00157316352584,"ADM3_EN":"Kut Nok Plao","ADM3_TH":"กุดนกเปล้า","ADM3_PCODE":"TH190112","ADM2_EN":"Mueang Saraburi","ADM2_TH":"เมืองสระบุรี","ADM2_PCODE":"TH1901","ADM1_EN":"Saraburi","ADM1_TH":"สระบุรี","ADM1_PCODE":"TH19","ADM0_EN":"Thailand","ADM0_TH":"ประเทศไทย","ADM0_PCODE":"TH"}},{"arcs":[[-40,41,42,43,44]],"type":"Polygon","properties":{"Shape_Leng":0.194272546935,"Shape_Area":0.00105069845444,"ADM3_EN":"Taling Chan","ADM3_TH":"ตลิ่งชัน","ADM3_PCODE":"TH190113","ADM2_EN":"Mueang Saraburi","ADM2_TH":"เมืองสระบุรี","ADM2_PCODE":"TH1901","ADM1_EN":"Saraburi","ADM1_TH":"สระบุรี","ADM1_PCODE":"TH19","ADM0_EN":"Thailand","ADM0_TH":"ประเทศไทย","ADM0_PCODE":"TH"}},{"arcs":[[-6,45,46,-42,-39,-31]],"type":"Polygon","properties":{"Shape_Leng":0.167645629881,"Shape_Area":0.00068562372686,"ADM3_EN":"Takut","ADM3_TH":"ตะกุด","ADM3_PCODE":"TH190114","ADM2_EN":"Mueang Saraburi","ADM2_TH":"เมืองสระบุรี","ADM2_PCODE":"TH1901","ADM1_EN":"Saraburi","ADM1_TH":"สระบุรี","ADM1_PCODE":"TH19","ADM0_EN":"Thailand","ADM0_TH":"ประเทศไทย","ADM0_PCODE":"TH"}},{"arcs":[[47,48,49]],"type":"Polygon","properties":{"Shape_Leng":0.0669134251934,"Shape_Area":0.000226662939258,"ADM3_EN":"Kaeng Khoi","ADM3_TH":"แก่งคอย","ADM3_PCODE":"TH190201","ADM2_EN":"Kaeng Khoi","ADM2_TH":"แก่งคอย","ADM2_PCODE":"TH1902","ADM1_EN":"Saraburi","ADM1_TH":"สระบุรี","ADM1_PCODE":"TH19","ADM0_EN":"Thailand","ADM0_TH":"ประเทศไทย","ADM0_PCODE":"TH"}},{"arcs":[[50,51,52,53,54,55]],"type":"Polygon","properties":{"Shape_Leng":0.598646086009,"Shape_Area":0.00910734613621,"ADM3_EN":"Thap Kwang","ADM3_TH":"ทับกวาง","ADM3_PCODE":"TH190202","ADM2_EN":"Kaeng Khoi","ADM2_TH":"แก่งคอย","ADM2_PCODE":"TH1902","ADM1_EN":"Saraburi","ADM1_TH":"สระบุรี","ADM1_PCODE":"TH19","ADM0_EN":"Thailand","ADM0_TH":"ประเทศไทย","ADM0_PCODE":"TH"}},{"arcs":[[-44,56,57,58,-49,59,-54,60,61]],"type":"Polygon","properties":{"Shape_Leng":0.270018105494,"Shape_Area":0.00261114527203,"ADM3_EN":"Tan Diao","ADM3_TH":"ตาลเดี่ยว","ADM3_PCODE":"TH190203","ADM2_EN":"Kaeng Khoi","ADM2_TH":"แก่งคอย","ADM2_PCODE":"TH1902","ADM1_EN":"Saraburi","ADM1_TH":"สระบุรี","ADM1_PCODE":"TH19","ADM0_EN":"Thailand","ADM0_TH":"ประเทศไทย","ADM0_PCODE":"TH"}},{"arcs":[[-35,-41,-45,-62,62,63,64,65]],"type":"Polygon","properties":{"Shape_Leng":0.465933027668,"Shape_Area":0.00541206913627,"ADM3_EN":"Huai Haeng","ADM3_TH":"ห้วยแห้ง","ADM3_PCODE":"TH190204","ADM2_EN":"Kaeng Khoi","ADM2_TH":"แก่งคอย","ADM2_PCODE":"TH1902","ADM1_EN":"Saraburi","ADM1_TH":"สระบุรี","ADM1_PCODE":"TH19","ADM0_EN":"Thailand","ADM0_TH":"ประเทศไทย","ADM0_PCODE":"TH"}},{"arcs":[[-56,66,67,68,69,70,71,72]],"type":"Polygon","properties":{"Shape_Leng":0.494035365592,"Shape_Area":0.00725670666632,"ADM3_EN":"Tha Khlo","ADM3_TH":"ท่าคล้อ","ADM3_PCODE":"TH190205","ADM2_EN":"Kaeng Khoi","ADM2_TH":"แก่งคอย","ADM2_PCODE":"TH1902","ADM1_EN":"Saraburi","ADM1_TH":"สระบุรี","ADM1_PCODE":"TH19","ADM0_EN":"Thailand","ADM0_TH":"ประเทศไทย","ADM0_PCODE":"TH"}},{"arcs":[[-72,73,74,75]],"type":"Polygon","properties":{"Shape_Leng":0.435644433135,"Shape_Area":0.00511219045252,"ADM3_EN":"Hin Son","ADM3_TH":"หินซ้อน","ADM3_PCODE":"TH190206","ADM2_EN":"Kaeng Khoi","ADM2_TH":"แก่งคอย","ADM2_PCODE":"TH1902","ADM1_EN":"Saraburi","ADM1_TH":"สระบุรี","ADM1_PCODE":"TH19","ADM0_EN":"Thailand","ADM0_TH":"ประเทศไทย","ADM0_PCODE":"TH"}},{"arcs":[[76,77,78]],"type":"Polygon","properties":{"Shape_Leng":0.15198682351,"Shape_Area":0.000997463053369,"ADM3_EN":"Ban That","ADM3_TH":"บ้านธาตุ","ADM3_PCODE":"TH190207","ADM2_EN":"Kaeng Khoi","ADM2_TH":"แก่งคอย","ADM2_PCODE":"TH1902","ADM1_EN":"Saraburi","ADM1_TH":"สระบุรี","ADM1_PCODE":"TH19","ADM0_EN":"Thailand","ADM0_TH":"ประเทศไทย","ADM0_PCODE":"TH"}},{"arcs":[[-48,79,-77,80,-67,-55,-60]],"type":"Polygon","properties":{"Shape_Leng":0.329026811549,"Shape_Area":0.00282546023977,"ADM3_EN":"Ban Pa","ADM3_TH":"บ้านป่า","ADM3_PCODE":"TH190208","ADM2_EN":"Kaeng Khoi","ADM2_TH":"แก่งคอย","ADM2_PCODE":"TH1902","ADM1_EN":"Saraburi","ADM1_TH":"สระบุรี","ADM1_PCODE":"TH19","ADM0_EN":"Thailand","ADM0_TH":"ประเทศไทย","ADM0_PCODE":"TH"}},{"arcs":[[-68,-81,-79,81]],"type":"Polygon","properties":{"Shape_Leng":0.230326476171,"Shape_Area":0.00183674470332,"ADM3_EN":"Tha Tum","ADM3_TH":"ท่าตูม","ADM3_PCODE":"TH190209","ADM2_EN":"Kaeng Khoi","ADM2_TH":"แก่งคอย","ADM2_PCODE":"TH1902","ADM1_EN":"Saraburi","ADM1_TH":"สระบุรี","ADM1_PCODE":"TH19","ADM0_EN":"Thailand","ADM0_TH":"ประเทศไทย","ADM0_PCODE":"TH"}},{"arcs":[[82,83]],"type":"Polygon","properties":{"Shape_Leng":0.577113933596,"Shape_Area":0.011380277703,"ADM3_EN":"Cha-Om","ADM3_TH":"ชะอม","ADM3_PCODE":"TH190210","ADM2_EN":"Kaeng Khoi","ADM2_TH":"แก่งคอย","ADM2_PCODE":"TH1902","ADM1_EN":"Saraburi","ADM1_TH":"สระบุรี","ADM1_PCODE":"TH19","ADM0_EN":"Thailand","ADM0_TH":"ประเทศไทย","ADM0_PCODE":"TH"}},{"arcs":[[-50,-59,84,85,86,87,-69,-82,-78,-80]],"type":"Polygon","properties":{"Shape_Leng":0.368758795749,"Shape_Area":0.0032184840182,"ADM3_EN":"Song Khon","ADM3_TH":"สองคอน","ADM3_PCODE":"TH190211","ADM2_EN":"Kaeng Khoi","ADM2_TH":"แก่งคอย","ADM2_PCODE":"TH1902","ADM1_EN":"Saraburi","ADM1_TH":"สระบุรี","ADM1_PCODE":"TH19","ADM0_EN":"Thailand","ADM0_TH":"ประเทศไทย","ADM0_PCODE":"TH"}},{"arcs":[[-58,88,-85]],"type":"Polygon","properties":{"Shape_Leng":0.136092082433,"Shape_Area":0.000558105253073,"ADM3_EN":"Tao Pun","ADM3_TH":"เตาปูน","ADM3_PCODE":"TH190212","ADM2_EN":"Kaeng Khoi","ADM2_TH":"แก่งคอย","ADM2_PCODE":"TH1902","ADM1_EN":"Saraburi","ADM1_TH":"สระบุรี","ADM1_PCODE":"TH19","ADM0_EN":"Thailand","ADM0_TH":"ประเทศไทย","ADM0_PCODE":"TH"}},{"arcs":[[-53,89,90,-63,-61]],"type":"Polygon","properties":{"Shape_Leng":0.617827924186,"Shape_Area":0.00803187971283,"ADM3_EN":"Cham Phak Phaeo","ADM3_TH":"ชำผักแพว","ADM3_PCODE":"TH190213","ADM2_EN":"Kaeng Khoi","ADM2_TH":"แก่งคอย","ADM2_PCODE":"TH1902","ADM1_EN":"Saraburi","ADM1_TH":"สระบุรี","ADM1_PCODE":"TH19","ADM0_EN":"Thailand","ADM0_TH":"ประเทศไทย","ADM0_PCODE":"TH"}},{"arcs":[[-64,-91,91,92,-84,93,94]],"type":"Polygon","properties":{"Shape_Leng":0.803634232066,"Shape_Area":0.00943845362934,"ADM3_EN":"Tha Maprang","ADM3_TH":"ท่ามะปราง","ADM3_PCODE":"TH190215","ADM2_EN":"Kaeng Khoi","ADM2_TH":"แก่งคอย","ADM2_PCODE":"TH1902","ADM1_EN":"Saraburi","ADM1_TH":"สระบุรี","ADM1_PCODE":"TH19","ADM0_EN":"Thailand","ADM0_TH":"ประเทศไทย","ADM0_PCODE":"TH"}},{"arcs":[[95,96,97,98]],"type":"Polygon","properties":{"Shape_Leng":0.104201327636,"Shape_Area":0.000661740516822,"ADM3_EN":"Nong Khae","ADM3_TH":"หนองแค","ADM3_PCODE":"TH190301","ADM2_EN":"Nong Khae","ADM2_TH":"หนองแค","ADM2_PCODE":"TH1903","ADM1_EN":"Saraburi","ADM1_TH":"สระบุรี","ADM1_PCODE":"TH19","ADM0_EN":"Thailand","ADM0_TH":"ประเทศไทย","ADM0_PCODE":"TH"}},{"arcs":[[-97,99,100,101]],"type":"Polygon","properties":{"Shape_Leng":0.187608063779,"Shape_Area":0.00148581784769,"ADM3_EN":"Kum Hak","ADM3_TH":"กุ่มหัก","ADM3_PCODE":"TH190302","ADM2_EN":"Nong Khae","ADM2_TH":"หนองแค","ADM2_PCODE":"TH1903","ADM1_EN":"Saraburi","ADM1_TH":"สระบุรี","ADM1_PCODE":"TH19","ADM0_EN":"Thailand","ADM0_TH":"ประเทศไทย","ADM0_PCODE":"TH"}},{"arcs":[[102,103,104,105,106]],"type":"Polygon","properties":{"Shape_Leng":0.195205965587,"Shape_Area":0.00119317062046,"ADM3_EN":"Khotchasit","ADM3_TH":"คชสิทธิ์","ADM3_PCODE":"TH190303","ADM2_EN":"Nong Khae","ADM2_TH":"หนองแค","ADM2_PCODE":"TH1903","ADM1_EN":"Saraburi","ADM1_TH":"สระบุรี","ADM1_PCODE":"TH19","ADM0_EN":"Thailand","ADM0_TH":"ประเทศไทย","ADM0_PCODE":"TH"}},{"arcs":[[-106,107,108,109,110]],"type":"Polygon","properties":{"Shape_Leng":0.179645975605,"Shape_Area":0.000964752262622,"ADM3_EN":"Khok Tum","ADM3_TH":"โคกตูม","ADM3_PCODE":"TH190304","ADM2_EN":"Nong Khae","ADM2_TH":"หนองแค","ADM2_PCODE":"TH1903","ADM1_EN":"Saraburi","ADM1_TH":"สระบุรี","ADM1_PCODE":"TH19","ADM0_EN":"Thailand","ADM0_TH":"ประเทศไทย","ADM0_PCODE":"TH"}},{"arcs":[[111,112,113,114]],"type":"Polygon","properties":{"Shape_Leng":0.24149679148,"Shape_Area":0.00236361069179,"ADM3_EN":"Khok Yae","ADM3_TH":"โคกแย้","ADM3_PCODE":"TH190305","ADM2_EN":"Nong Khae","ADM2_TH":"หนองแค","ADM2_PCODE":"TH1903","ADM1_EN":"Saraburi","ADM1_TH":"สระบุรี","ADM1_PCODE":"TH19","ADM0_EN":"Thailand","ADM0_TH":"ประเทศไทย","ADM0_PCODE":"TH"}},{"arcs":[[-20,115,116,117,-103,118,119]],"type":"Polygon","properties":{"Shape_Leng":0.24896326348,"Shape_Area":0.00147226517485,"ADM3_EN":"Bua Loi","ADM3_TH":"บัวลอย","ADM3_PCODE":"TH190306","ADM2_EN":"Nong Khae","ADM2_TH":"หนองแค","ADM2_PCODE":"TH1903","ADM1_EN":"Saraburi","ADM1_TH":"สระบุรี","ADM1_PCODE":"TH19","ADM0_EN":"Thailand","ADM0_TH":"ประเทศไทย","ADM0_PCODE":"TH"}},{"arcs":[[-98,-102,120,121,122,123,124,125]],"type":"Polygon","properties":{"Shape_Leng":0.213092889351,"Shape_Area":0.00148222483963,"ADM3_EN":"Phai Tam","ADM3_TH":"ไผ่ต่ำ","ADM3_PCODE":"TH190307","ADM2_EN":"Nong Khae","ADM2_TH":"หนองแค","ADM2_PCODE":"TH1903","ADM1_EN":"Saraburi","ADM1_TH":"สระบุรี","ADM1_PCODE":"TH19","ADM0_EN":"Thailand","ADM0_TH":"ประเทศไทย","ADM0_PCODE":"TH"}},{"arcs":[[-107,-111,126,127,-119]],"type":"Polygon","properties":{"Shape_Leng":0.166111607246,"Shape_Area":0.00100042728965,"ADM3_EN":"Phon Thong","ADM3_TH":"โพนทอง","ADM3_PCODE":"TH190308","ADM2_EN":"Nong Khae","ADM2_TH":"หนองแค","ADM2_PCODE":"TH1903","ADM1_EN":"Saraburi","ADM1_TH":"สระบุรี","ADM1_PCODE":"TH19","ADM0_EN":"Thailand","ADM0_TH":"ประเทศไทย","ADM0_PCODE":"TH"}},{"arcs":[[-29,128,129,130,131,132]],"type":"Polygon","properties":{"Shape_Leng":0.238069603394,"Shape_Area":0.00138407667957,"ADM3_EN":"Huai Khamin","ADM3_TH":"ห้วยขมิ้น","ADM3_PCODE":"TH190309","ADM2_EN":"Nong Khae","ADM2_TH":"หนองแค","ADM2_PCODE":"TH1903","ADM1_EN":"Saraburi","ADM1_TH":"สระบุรี","ADM1_PCODE":"TH19","ADM0_EN":"Thailand","ADM0_TH":"ประเทศไทย","ADM0_PCODE":"TH"}},{"arcs":[[-115,133,-130,134,135]],"type":"Polygon","properties":{"Shape_Leng":0.230615699628,"Shape_Area":0.00162346809678,"ADM3_EN":"Huai Sai","ADM3_TH":"ห้วยทราย","ADM3_PCODE":"TH190310","ADM2_EN":"Nong Khae","ADM2_TH":"หนองแค","ADM2_PCODE":"TH1903","ADM1_EN":"Saraburi","ADM1_TH":"สระบุรี","ADM1_PCODE":"TH19","ADM0_EN":"Thailand","ADM0_TH":"ประเทศไทย","ADM0_PCODE":"TH"}},{"arcs":[[-99,-126,136,-131,-134,-114,137]],"type":"Polygon","properties":{"Shape_Leng":0.231132665562,"Shape_Area":0.00109277878575,"ADM3_EN":"Nong Khai Nam","ADM3_TH":"หนองไข่น้ำ","ADM3_PCODE":"TH190311","ADM2_EN":"Nong Khae","ADM2_TH":"หนองแค","ADM2_PCODE":"TH1903","ADM1_EN":"Saraburi","ADM1_TH":"สระบุรี","ADM1_PCODE":"TH19","ADM0_EN":"Thailand","ADM0_TH":"ประเทศไทย","ADM0_PCODE":"TH"}},{"arcs":[[-123,138,139]],"type":"Polygon","properties":{"Shape_Leng":0.15918373303,"Shape_Area":0.00110345519754,"ADM3_EN":"Nong Khaem","ADM3_TH":"หนองแขม","ADM3_PCODE":"TH190312","ADM2_EN":"Nong Khae","ADM2_TH":"หนองแค","ADM2_PCODE":"TH1903","ADM1_EN":"Saraburi","ADM1_TH":"สระบุรี","ADM1_PCODE":"TH19","ADM0_EN":"Thailand","ADM0_TH":"ประเทศไทย","ADM0_PCODE":"TH"}},{"arcs":[[-19,-30,-133,140,-116]],"type":"Polygon","properties":{"Shape_Leng":0.162160631218,"Shape_Area":0.000855984256808,"ADM3_EN":"Nong Chik","ADM3_TH":"หนองจิก","ADM3_PCODE":"TH190313","ADM2_EN":"Nong Khae","ADM2_TH":"หนองแค","ADM2_PCODE":"TH1903","ADM1_EN":"Saraburi","ADM1_TH":"สระบุรี","ADM1_PCODE":"TH19","ADM0_EN":"Thailand","ADM0_TH":"ประเทศไทย","ADM0_PCODE":"TH"}},{"arcs":[[-96,-138,-113,141,142,143,144,-100]],"type":"Polygon","properties":{"Shape_Leng":0.26841319502,"Shape_Area":0.00270672189261,"ADM3_EN":"Nong Chorakhe","ADM3_TH":"หนองจรเข้","ADM3_PCODE":"TH190314","ADM2_EN":"Nong Khae","ADM2_TH":"หนองแค","ADM2_PCODE":"TH1903","ADM1_EN":"Saraburi","ADM1_TH":"สระบุรี","ADM1_PCODE":"TH19","ADM0_EN":"Thailand","ADM0_TH":"ประเทศไทย","ADM0_PCODE":"TH"}},{"arcs":[[-28,-38,-135,-129]],"type":"Polygon","properties":{"Shape_Leng":0.172505415295,"Shape_Area":0.00114642668617,"ADM3_EN":"Nong Nak","ADM3_TH":"หนองนาก","ADM3_PCODE":"TH190315","ADM2_EN":"Nong Khae","ADM2_TH":"หนองแค","ADM2_PCODE":"TH1903","ADM1_EN":"Saraburi","ADM1_TH":"สระบุรี","ADM1_PCODE":"TH19","ADM0_EN":"Thailand","ADM0_TH":"ประเทศไทย","ADM0_PCODE":"TH"}},{"arcs":[[-117,-141,-132,-137,-125,145]],"type":"Polygon","properties":{"Shape_Leng":0.238150492027,"Shape_Area":0.00131453249844,"ADM3_EN":"Nong Pla Mo","ADM3_TH":"หนองปลาหมอ","ADM3_PCODE":"TH190316","ADM2_EN":"Nong Khae","ADM2_TH":"หนองแค","ADM2_PCODE":"TH1903","ADM1_EN":"Saraburi","ADM1_TH":"สระบุรี","ADM1_PCODE":"TH19","ADM0_EN":"Thailand","ADM0_TH":"ประเทศไทย","ADM0_PCODE":"TH"}},{"arcs":[[-104,-118,-146,-124,-140,146]],"type":"Polygon","properties":{"Shape_Leng":0.27835111143,"Shape_Area":0.00137425686919,"ADM3_EN":"Nong Pling","ADM3_TH":"หนองปลิง","ADM3_PCODE":"TH190317","ADM2_EN":"Nong Khae","ADM2_TH":"หนองแค","ADM2_PCODE":"TH1903","ADM1_EN":"Saraburi","ADM1_TH":"สระบุรี","ADM1_PCODE":"TH19","ADM0_EN":"Thailand","ADM0_TH":"ประเทศไทย","ADM0_PCODE":"TH"}},{"arcs":[[-101,-145,147,148,-121]],"type":"Polygon","properties":{"Shape_Leng":0.266152552589,"Shape_Area":0.00270747707975,"ADM3_EN":"Nong Rong","ADM3_TH":"หนองโรง","ADM3_PCODE":"TH190318","ADM2_EN":"Nong Khae","ADM2_TH":"หนองแค","ADM2_PCODE":"TH1903","ADM1_EN":"Saraburi","ADM1_TH":"สระบุรี","ADM1_PCODE":"TH19","ADM0_EN":"Thailand","ADM0_TH":"ประเทศไทย","ADM0_PCODE":"TH"}},{"arcs":[[-144,149,150,151,-148]],"type":"Polygon","properties":{"Shape_Leng":0.314695973973,"Shape_Area":0.00367928565338,"ADM3_EN":"Nong Mu","ADM3_TH":"หนองหมู","ADM3_PCODE":"TH190401","ADM2_EN":"Wihan Daeng","ADM2_TH":"วิหารแดง","ADM2_PCODE":"TH1904","ADM1_EN":"Saraburi","ADM1_TH":"สระบุรี","ADM1_PCODE":"TH19","ADM0_EN":"Thailand","ADM0_TH":"ประเทศไทย","ADM0_PCODE":"TH"}},{"arcs":[[-37,152,153,-142,-112,-136]],"type":"Polygon","properties":{"Shape_Leng":0.383055029842,"Shape_Area":0.00331588505976,"ADM3_EN":"Ban Lam","ADM3_TH":"บ้านลำ","ADM3_PCODE":"TH190402","ADM2_EN":"Wihan Daeng","ADM2_TH":"วิหารแดง","ADM2_PCODE":"TH1904","ADM1_EN":"Saraburi","ADM1_TH":"สระบุรี","ADM1_PCODE":"TH19","ADM0_EN":"Thailand","ADM0_TH":"ประเทศไทย","ADM0_PCODE":"TH"}},{"arcs":[[-65,-95,154,155,156,157]],"type":"Polygon","properties":{"Shape_Leng":0.293140595354,"Shape_Area":0.00317703818473,"ADM3_EN":"Khlong Ruea","ADM3_TH":"คลองเรือ","ADM3_PCODE":"TH190403","ADM2_EN":"Wihan Daeng","ADM2_TH":"วิหารแดง","ADM2_PCODE":"TH1904","ADM1_EN":"Saraburi","ADM1_TH":"สระบุรี","ADM1_PCODE":"TH19","ADM0_EN":"Thailand","ADM0_TH":"ประเทศไทย","ADM0_PCODE":"TH"}},{"arcs":[[-151,158,-156,159]],"type":"Polygon","properties":{"Shape_Leng":0.202775945388,"Shape_Area":0.00161568165825,"ADM3_EN":"Wihan Daeng","ADM3_TH":"วิหารแดง","ADM3_PCODE":"TH190404","ADM2_EN":"Wihan Daeng","ADM2_TH":"วิหารแดง","ADM2_PCODE":"TH1904","ADM1_EN":"Saraburi","ADM1_TH":"สระบุรี","ADM1_PCODE":"TH19","ADM0_EN":"Thailand","ADM0_TH":"ประเทศไทย","ADM0_PCODE":"TH"}},{"arcs":[[-143,-154,160,-157,-159,-150]],"type":"Polygon","properties":{"Shape_Leng":0.296382793911,"Shape_Area":0.00167688682996,"ADM3_EN":"Nong Suang","ADM3_TH":"หนองสรวง","ADM3_PCODE":"TH190405","ADM2_EN":"Wihan Daeng","ADM2_TH":"วิหารแดง","ADM2_PCODE":"TH1904","ADM1_EN":"Saraburi","ADM1_TH":"สระบุรี","ADM1_PCODE":"TH19","ADM0_EN":"Thailand","ADM0_TH":"ประเทศไทย","ADM0_PCODE":"TH"}},{"arcs":[[-36,-66,-158,-161,-153]],"type":"Polygon","properties":{"Shape_Leng":0.256574731095,"Shape_Area":0.00224555454366,"ADM3_EN":"Charoen Tham","ADM3_TH":"เจริญธรรม","ADM3_PCODE":"TH190406","ADM2_EN":"Wihan Daeng","ADM2_TH":"วิหารแดง","ADM2_PCODE":"TH1904","ADM1_EN":"Saraburi","ADM1_TH":"สระบุรี","ADM1_PCODE":"TH19","ADM0_EN":"Thailand","ADM0_TH":"ประเทศไทย","ADM0_PCODE":"TH"}},{"arcs":[[161,162,163]],"type":"Polygon","properties":{"Shape_Leng":0.165014947649,"Shape_Area":0.000823396331037,"ADM3_EN":"Nong Saeng","ADM3_TH":"หนองแซง","ADM3_PCODE":"TH190501","ADM2_EN":"Nong Saeng","ADM2_TH":"หนองแซง","ADM2_PCODE":"TH1905","ADM1_EN":"Saraburi","ADM1_TH":"สระบุรี","ADM1_PCODE":"TH19","ADM0_EN":"Thailand","ADM0_TH":"ประเทศไทย","ADM0_PCODE":"TH"}},{"arcs":[[-162,164,165,166,167,168,169]],"type":"Polygon","properties":{"Shape_Leng":0.132766229251,"Shape_Area":0.000671548669142,"ADM3_EN":"Nong Khwai So","ADM3_TH":"หนองควายโซ","ADM3_PCODE":"TH190502","ADM2_EN":"Nong Saeng","ADM2_TH":"หนองแซง","ADM2_PCODE":"TH1905","ADM1_EN":"Saraburi","ADM1_TH":"สระบุรี","ADM1_PCODE":"TH19","ADM0_EN":"Thailand","ADM0_TH":"ประเทศไทย","ADM0_PCODE":"TH"}},{"arcs":[[-167,170,171,172,173]],"type":"Polygon","properties":{"Shape_Leng":0.145172720298,"Shape_Area":0.000811743844466,"ADM3_EN":"Nong Hua Pho","ADM3_TH":"หนองหัวโพ","ADM3_PCODE":"TH190503","ADM2_EN":"Nong Saeng","ADM2_TH":"หนองแซง","ADM2_PCODE":"TH1905","ADM1_EN":"Saraburi","ADM1_TH":"สระบุรี","ADM1_PCODE":"TH19","ADM0_EN":"Thailand","ADM0_TH":"ประเทศไทย","ADM0_PCODE":"TH"}},{"arcs":[[-23,174,-171,-166,175,176,177]],"type":"Polygon","properties":{"Shape_Leng":0.117540845695,"Shape_Area":0.000505905710205,"ADM3_EN":"Nong Sida","ADM3_TH":"หนองสีดา","ADM3_PCODE":"TH190504","ADM2_EN":"Nong Saeng","ADM2_TH":"หนองแซง","ADM2_PCODE":"TH1905","ADM1_EN":"Saraburi","ADM1_TH":"สระบุรี","ADM1_PCODE":"TH19","ADM0_EN":"Thailand","ADM0_TH":"ประเทศไทย","ADM0_PCODE":"TH"}},{"arcs":[[-109,178,-169,179]],"type":"Polygon","properties":{"Shape_Leng":0.158660350403,"Shape_Area":0.000814712378359,"ADM3_EN":"Nong Kop","ADM3_TH":"หนองกบ","ADM3_PCODE":"TH190505","ADM2_EN":"Nong Saeng","ADM2_TH":"หนองแซง","ADM2_PCODE":"TH1905","ADM1_EN":"Saraburi","ADM1_TH":"สระบุรี","ADM1_PCODE":"TH19","ADM0_EN":"Thailand","ADM0_TH":"ประเทศไทย","ADM0_PCODE":"TH"}},{"arcs":[[-164,180,181,182,183,-176,-165]],"type":"Polygon","properties":{"Shape_Leng":0.153521437263,"Shape_Area":0.00109337170716,"ADM3_EN":"Kai Sao","ADM3_TH":"ไก่เส่า","ADM3_PCODE":"TH190506","ADM2_EN":"Nong Saeng","ADM2_TH":"หนองแซง","ADM2_PCODE":"TH1905","ADM1_EN":"Saraburi","ADM1_TH":"สระบุรี","ADM1_PCODE":"TH19","ADM0_EN":"Thailand","ADM0_TH":"ประเทศไทย","ADM0_PCODE":"TH"}},{"arcs":[[-110,-180,-168,-174,184,-127]],"type":"Polygon","properties":{"Shape_Leng":0.150966937584,"Shape_Area":0.00100068354442,"ADM3_EN":"Khok Sa-At","ADM3_TH":"โคกสะอาด","ADM3_PCODE":"TH190507","ADM2_EN":"Nong Saeng","ADM2_TH":"หนองแซง","ADM2_PCODE":"TH1905","ADM1_EN":"Saraburi","ADM1_TH":"สระบุรี","ADM1_PCODE":"TH19","ADM0_EN":"Thailand","ADM0_TH":"ประเทศไทย","ADM0_PCODE":"TH"}},{"arcs":[[-21,-120,-128,-185,-173,185]],"type":"Polygon","properties":{"Shape_Leng":0.166216759343,"Shape_Area":0.000849208027742,"ADM3_EN":"Muang Wan","ADM3_TH":"ม่วงหวาน","ADM3_PCODE":"TH190508","ADM2_EN":"Nong Saeng","ADM2_TH":"หนองแซง","ADM2_PCODE":"TH1905","ADM1_EN":"Saraburi","ADM1_TH":"สระบุรี","ADM1_PCODE":"TH19","ADM0_EN":"Thailand","ADM0_TH":"ประเทศไทย","ADM0_PCODE":"TH"}},{"arcs":[[-22,-186,-172,-175]],"type":"Polygon","properties":{"Shape_Leng":0.106600420967,"Shape_Area":0.000508313687491,"ADM3_EN":"Khao Din","ADM3_TH":"เขาดิน","ADM3_PCODE":"TH190509","ADM2_EN":"Nong Saeng","ADM2_TH":"หนองแซง","ADM2_PCODE":"TH1905","ADM1_EN":"Saraburi","ADM1_TH":"สระบุรี","ADM1_PCODE":"TH19","ADM0_EN":"Thailand","ADM0_TH":"ประเทศไทย","ADM0_PCODE":"TH"}},{"arcs":[[186,187,188,189,190]],"type":"Polygon","properties":{"Shape_Leng":0.173801045057,"Shape_Area":0.00100245738976,"ADM3_EN":"Ban Mo","ADM3_TH":"บ้านหมอ","ADM3_PCODE":"TH190601","ADM2_EN":"Ban Mo","ADM2_TH":"บ้านหมอ","ADM2_PCODE":"TH1906","ADM1_EN":"Saraburi","ADM1_TH":"สระบุรี","ADM1_PCODE":"TH19","ADM0_EN":"Thailand","ADM0_TH":"ประเทศไทย","ADM0_PCODE":"TH"}},{"arcs":[[-188,191,192,193,194]],"type":"Polygon","properties":{"Shape_Leng":0.226009086497,"Shape_Area":0.00221123115165,"ADM3_EN":"Bang Khamot","ADM3_TH":"บางโขมด","ADM3_PCODE":"TH190602","ADM2_EN":"Ban Mo","ADM2_TH":"บ้านหมอ","ADM2_PCODE":"TH1906","ADM1_EN":"Saraburi","ADM1_TH":"สระบุรี","ADM1_PCODE":"TH19","ADM0_EN":"Thailand","ADM0_TH":"ประเทศไทย","ADM0_PCODE":"TH"}},{"arcs":[[-187,195,196,197,198,199,200,-192]],"type":"Polygon","properties":{"Shape_Leng":0.231410563385,"Shape_Area":0.00135946716498,"ADM3_EN":"Sang Sok","ADM3_TH":"สร่างโศก","ADM3_PCODE":"TH190603","ADM2_EN":"Ban Mo","ADM2_TH":"บ้านหมอ","ADM2_PCODE":"TH1906","ADM1_EN":"Saraburi","ADM1_TH":"สระบุรี","ADM1_PCODE":"TH19","ADM0_EN":"Thailand","ADM0_TH":"ประเทศไทย","ADM0_PCODE":"TH"}},{"arcs":[[-191,201,202,203,-196]],"type":"Polygon","properties":{"Shape_Leng":0.237373735353,"Shape_Area":0.00187051673023,"ADM3_EN":"Talat Noi","ADM3_TH":"ตลาดน้อย","ADM3_PCODE":"TH190604","ADM2_EN":"Ban Mo","ADM2_TH":"บ้านหมอ","ADM2_PCODE":"TH1906","ADM1_EN":"Saraburi","ADM1_TH":"สระบุรี","ADM1_PCODE":"TH19","ADM0_EN":"Thailand","ADM0_TH":"ประเทศไทย","ADM0_PCODE":"TH"}},{"arcs":[[-190,204,205,206,-202]],"type":"Polygon","properties":{"Shape_Leng":0.20357282807,"Shape_Area":0.00125733899697,"ADM3_EN":"Horathep","ADM3_TH":"หรเทพ","ADM3_PCODE":"TH190605","ADM2_EN":"Ban Mo","ADM2_TH":"บ้านหมอ","ADM2_PCODE":"TH1906","ADM1_EN":"Saraburi","ADM1_TH":"สระบุรี","ADM1_PCODE":"TH19","ADM0_EN":"Thailand","ADM0_TH":"ประเทศไทย","ADM0_PCODE":"TH"}},{"arcs":[[-189,-195,207,208,209,-205]],"type":"Polygon","properties":{"Shape_Leng":0.171499869432,"Shape_Area":0.000974438731061,"ADM3_EN":"Khok Yai","ADM3_TH":"โคกใหญ่","ADM3_PCODE":"TH190606","ADM2_EN":"Ban Mo","ADM2_TH":"บ้านหมอ","ADM2_PCODE":"TH1906","ADM1_EN":"Saraburi","ADM1_TH":"สระบุรี","ADM1_PCODE":"TH19","ADM0_EN":"Thailand","ADM0_TH":"ประเทศไทย","ADM0_PCODE":"TH"}},{"arcs":[[-209,210,211,212,213]],"type":"Polygon","properties":{"Shape_Leng":0.201551931293,"Shape_Area":0.00180181960948,"ADM3_EN":"Phai Khwang","ADM3_TH":"ไผ่ขวาง","ADM3_PCODE":"TH190607","ADM2_EN":"Ban Mo","ADM2_TH":"บ้านหมอ","ADM2_PCODE":"TH1906","ADM1_EN":"Saraburi","ADM1_TH":"สระบุรี","ADM1_PCODE":"TH19","ADM0_EN":"Thailand","ADM0_TH":"ประเทศไทย","ADM0_PCODE":"TH"}},{"arcs":[[-193,-201,214,215,216,217]],"type":"Polygon","properties":{"Shape_Leng":0.15523279325,"Shape_Area":0.000965107876021,"ADM3_EN":"Ban Khrua","ADM3_TH":"บ้านครัว","ADM3_PCODE":"TH190608","ADM2_EN":"Ban Mo","ADM2_TH":"บ้านหมอ","ADM2_PCODE":"TH1906","ADM1_EN":"Saraburi","ADM1_TH":"สระบุรี","ADM1_PCODE":"TH19","ADM0_EN":"Thailand","ADM0_TH":"ประเทศไทย","ADM0_PCODE":"TH"}},{"arcs":[[-200,218,219,-215]],"type":"Polygon","properties":{"Shape_Leng":0.182273633066,"Shape_Area":0.00149207757315,"ADM3_EN":"Nong Bua","ADM3_TH":"หนองบัว","ADM3_PCODE":"TH190609","ADM2_EN":"Ban Mo","ADM2_TH":"บ้านหมอ","ADM2_PCODE":"TH1906","ADM1_EN":"Saraburi","ADM1_TH":"สระบุรี","ADM1_PCODE":"TH19","ADM0_EN":"Thailand","ADM0_TH":"ประเทศไทย","ADM0_PCODE":"TH"}},{"arcs":[[-213,220,221,222]],"type":"Polygon","properties":{"Shape_Leng":0.11874780846,"Shape_Area":0.000848376137763,"ADM3_EN":"Don Phut","ADM3_TH":"ดอนพุด","ADM3_PCODE":"TH190701","ADM2_EN":"Don Phut","ADM2_TH":"ดอนพุด","ADM2_PCODE":"TH1907","ADM1_EN":"Saraburi","ADM1_TH":"สระบุรี","ADM1_PCODE":"TH19","ADM0_EN":"Thailand","ADM0_TH":"ประเทศไทย","ADM0_PCODE":"TH"}},{"arcs":[[-206,-210,-214,-223,223,224,225]],"type":"Polygon","properties":{"Shape_Leng":0.191641230117,"Shape_Area":0.00142084638711,"ADM3_EN":"Phai Lio","ADM3_TH":"ไผ่หลิ่ว","ADM3_PCODE":"TH190702","ADM2_EN":"Don Phut","ADM2_TH":"ดอนพุด","ADM2_PCODE":"TH1907","ADM1_EN":"Saraburi","ADM1_TH":"สระบุรี","ADM1_PCODE":"TH19","ADM0_EN":"Thailand","ADM0_TH":"ประเทศไทย","ADM0_PCODE":"TH"}},{"arcs":[[-212,226,227,-221]],"type":"Polygon","properties":{"Shape_Leng":0.19463090688,"Shape_Area":0.0010607695116,"ADM3_EN":"Ban Luang","ADM3_TH":"บ้านหลวง","ADM3_PCODE":"TH190703","ADM2_EN":"Don Phut","ADM2_TH":"ดอนพุด","ADM2_PCODE":"TH1907","ADM1_EN":"Saraburi","ADM1_TH":"สระบุรี","ADM1_PCODE":"TH19","ADM0_EN":"Thailand","ADM0_TH":"ประเทศไทย","ADM0_PCODE":"TH"}},{"arcs":[[-222,-228,228,-224]],"type":"Polygon","properties":{"Shape_Leng":0.186226112654,"Shape_Area":0.00145664682083,"ADM3_EN":"Dong Ta-Ngao","ADM3_TH":"ดงตะงาว","ADM3_PCODE":"TH190704","ADM2_EN":"Don Phut","ADM2_TH":"ดอนพุด","ADM2_PCODE":"TH1907","ADM1_EN":"Saraburi","ADM1_TH":"สระบุรี","ADM1_PCODE":"TH19","ADM0_EN":"Thailand","ADM0_TH":"ประเทศไทย","ADM0_PCODE":"TH"}},{"arcs":[[-197,-204,229,230,231,232]],"type":"Polygon","properties":{"Shape_Leng":0.278040334579,"Shape_Area":0.00197803232072,"ADM3_EN":"Nong Don","ADM3_TH":"หนองโดน","ADM3_PCODE":"TH190801","ADM2_EN":"Nong Don","ADM2_TH":"หนองโดน","ADM2_PCODE":"TH1908","ADM1_EN":"Saraburi","ADM1_TH":"สระบุรี","ADM1_PCODE":"TH19","ADM0_EN":"Thailand","ADM0_TH":"ประเทศไทย","ADM0_PCODE":"TH"}},{"arcs":[[233,234,235,236,237]],"type":"Polygon","properties":{"Shape_Leng":0.249537438253,"Shape_Area":0.00214158957165,"ADM3_EN":"Ban Klap","ADM3_TH":"บ้านกลับ","ADM3_PCODE":"TH190802","ADM2_EN":"Nong Don","ADM2_TH":"หนองโดน","ADM2_PCODE":"TH1908","ADM1_EN":"Saraburi","ADM1_TH":"สระบุรี","ADM1_PCODE":"TH19","ADM0_EN":"Thailand","ADM0_TH":"ประเทศไทย","ADM0_PCODE":"TH"}},{"arcs":[[-203,-207,-226,238,-237,-230]],"type":"Polygon","properties":{"Shape_Leng":0.228484948652,"Shape_Area":0.00231374103001,"ADM3_EN":"Don Thong","ADM3_TH":"ดอนทอง","ADM3_PCODE":"TH190803","ADM2_EN":"Nong Don","ADM2_TH":"หนองโดน","ADM2_PCODE":"TH1908","ADM1_EN":"Saraburi","ADM1_TH":"สระบุรี","ADM1_PCODE":"TH19","ADM0_EN":"Thailand","ADM0_TH":"ประเทศไทย","ADM0_PCODE":"TH"}},{"arcs":[[-231,-236,239]],"type":"Polygon","properties":{"Shape_Leng":0.205578374558,"Shape_Area":0.00129636857886,"ADM3_EN":"Ban Prong","ADM3_TH":"บ้านโปร่ง","ADM3_PCODE":"TH190804","ADM2_EN":"Nong Don","ADM2_TH":"หนองโดน","ADM2_PCODE":"TH1908","ADM1_EN":"Saraburi","ADM1_TH":"สระบุรี","ADM1_PCODE":"TH19","ADM0_EN":"Thailand","ADM0_TH":"ประเทศไทย","ADM0_PCODE":"TH"}},{"arcs":[[240,241,242,243,244]],"type":"Polygon","properties":{"Shape_Leng":0.192118358022,"Shape_Area":0.0010173159086,"ADM3_EN":"Phra Phutthabat","ADM3_TH":"พระพุทธบาท","ADM3_PCODE":"TH190901","ADM2_EN":"Phra Phutthabat","ADM2_TH":"พระพุทธบาท","ADM2_PCODE":"TH1909","ADM1_EN":"Saraburi","ADM1_TH":"สระบุรี","ADM1_PCODE":"TH19","ADM0_EN":"Thailand","ADM0_TH":"ประเทศไทย","ADM0_PCODE":"TH"}},{"arcs":[[-241,245,246,247,248,249]],"type":"Polygon","properties":{"Shape_Leng":0.188754564362,"Shape_Area":0.00110617922651,"ADM3_EN":"Khun Khlon","ADM3_TH":"ขุนโขลน","ADM3_PCODE":"TH190902","ADM2_EN":"Phra Phutthabat","ADM2_TH":"พระพุทธบาท","ADM2_PCODE":"TH1909","ADM1_EN":"Saraburi","ADM1_TH":"สระบุรี","ADM1_PCODE":"TH19","ADM0_EN":"Thailand","ADM0_TH":"ประเทศไทย","ADM0_PCODE":"TH"}},{"arcs":[[-245,250,251,252,-246]],"type":"Polygon","properties":{"Shape_Leng":0.2885178885,"Shape_Area":0.00323947309634,"ADM3_EN":"Than Kasem","ADM3_TH":"ธารเกษม","ADM3_PCODE":"TH190903","ADM2_EN":"Phra Phutthabat","ADM2_TH":"พระพุทธบาท","ADM2_PCODE":"TH1909","ADM1_EN":"Saraburi","ADM1_TH":"สระบุรี","ADM1_PCODE":"TH19","ADM0_EN":"Thailand","ADM0_TH":"ประเทศไทย","ADM0_PCODE":"TH"}},{"arcs":[[-234,253,-251,-244,254]],"type":"Polygon","properties":{"Shape_Leng":0.219334045761,"Shape_Area":0.00208924300788,"ADM3_EN":"Na Yao","ADM3_TH":"นายาว","ADM3_PCODE":"TH190904","ADM2_EN":"Phra Phutthabat","ADM2_TH":"พระพุทธบาท","ADM2_PCODE":"TH1909","ADM1_EN":"Saraburi","ADM1_TH":"สระบุรี","ADM1_PCODE":"TH19","ADM0_EN":"Thailand","ADM0_TH":"ประเทศไทย","ADM0_PCODE":"TH"}},{"arcs":[[-247,-253,255,256]],"type":"Polygon","properties":{"Shape_Leng":0.357435879299,"Shape_Area":0.00417699816975,"ADM3_EN":"Phu Kham Chan","ADM3_TH":"พุคำจาน","ADM3_PCODE":"TH190905","ADM2_EN":"Phra Phutthabat","ADM2_TH":"พระพุทธบาท","ADM2_PCODE":"TH1909","ADM1_EN":"Saraburi","ADM1_TH":"สระบุรี","ADM1_PCODE":"TH19","ADM0_EN":"Thailand","ADM0_TH":"ประเทศไทย","ADM0_PCODE":"TH"}},{"arcs":[[-249,257,258,259,260,261]],"type":"Polygon","properties":{"Shape_Leng":0.219018123358,"Shape_Area":0.0023484722186,"ADM3_EN":"Khao Wong","ADM3_TH":"เขาวง","ADM3_PCODE":"TH190906","ADM2_EN":"Phra Phutthabat","ADM2_TH":"พระพุทธบาท","ADM2_PCODE":"TH1909","ADM1_EN":"Saraburi","ADM1_TH":"สระบุรี","ADM1_PCODE":"TH19","ADM0_EN":"Thailand","ADM0_TH":"ประเทศไทย","ADM0_PCODE":"TH"}},{"arcs":[[-199,262,-261,263,264,-219]],"type":"Polygon","properties":{"Shape_Leng":0.250811334519,"Shape_Area":0.00223707187365,"ADM3_EN":"Huai Pa Wai","ADM3_TH":"ห้วยป่าหวาย","ADM3_PCODE":"TH190907","ADM2_EN":"Phra Phutthabat","ADM2_TH":"พระพุทธบาท","ADM2_PCODE":"TH1909","ADM1_EN":"Saraburi","ADM1_TH":"สระบุรี","ADM1_PCODE":"TH19","ADM0_EN":"Thailand","ADM0_TH":"ประเทศไทย","ADM0_PCODE":"TH"}},{"arcs":[[-198,-233,265,-242,-250,-262,-263]],"type":"Polygon","properties":{"Shape_Leng":0.239965343272,"Shape_Area":0.00238962996482,"ADM3_EN":"Phu Krang","ADM3_TH":"พุกร่าง","ADM3_PCODE":"TH190908","ADM2_EN":"Phra Phutthabat","ADM2_TH":"พระพุทธบาท","ADM2_PCODE":"TH1909","ADM1_EN":"Saraburi","ADM1_TH":"สระบุรี","ADM1_PCODE":"TH19","ADM0_EN":"Thailand","ADM0_TH":"ประเทศไทย","ADM0_PCODE":"TH"}},{"arcs":[[-232,-240,-235,-255,-243,-266]],"type":"Polygon","properties":{"Shape_Leng":0.27950716789,"Shape_Area":0.00307085620713,"ADM3_EN":"Nong Kae","ADM3_TH":"หนองแก","ADM3_PCODE":"TH190909","ADM2_EN":"Phra Phutthabat","ADM2_TH":"พระพุทธบาท","ADM2_PCODE":"TH1909","ADM1_EN":"Saraburi","ADM1_TH":"สระบุรี","ADM1_PCODE":"TH19","ADM0_EN":"Thailand","ADM0_TH":"ประเทศไทย","ADM0_PCODE":"TH"}},{"arcs":[[-24,-178,266,267,268]],"type":"Polygon","properties":{"Shape_Leng":0.100427395256,"Shape_Area":0.000536959481103,"ADM3_EN":"Sao Hai","ADM3_TH":"เสาไห้","ADM3_PCODE":"TH191001","ADM2_EN":"Sao Hai","ADM2_TH":"เสาไห้","ADM2_PCODE":"TH1910","ADM1_EN":"Saraburi","ADM1_TH":"สระบุรี","ADM1_PCODE":"TH19","ADM0_EN":"Thailand","ADM0_TH":"ประเทศไทย","ADM0_PCODE":"TH"}},{"arcs":[[-216,-220,-265,269,270,271,272,273]],"type":"Polygon","properties":{"Shape_Leng":0.218678453868,"Shape_Area":0.00143345319425,"ADM3_EN":"Ban Yang","ADM3_TH":"บ้านยาง","ADM3_PCODE":"TH191002","ADM2_EN":"Sao Hai","ADM2_TH":"เสาไห้","ADM2_PCODE":"TH1910","ADM1_EN":"Saraburi","ADM1_TH":"สระบุรี","ADM1_PCODE":"TH19","ADM0_EN":"Thailand","ADM0_TH":"ประเทศไทย","ADM0_PCODE":"TH"}},{"arcs":[[-260,274,275,276,277,-270,-264]],"type":"Polygon","properties":{"Shape_Leng":0.242722596241,"Shape_Area":0.00181375367464,"ADM3_EN":"Hua Pluak","ADM3_TH":"หัวปลวก","ADM3_PCODE":"TH191003","ADM2_EN":"Sao Hai","ADM2_TH":"เสาไห้","ADM2_PCODE":"TH1910","ADM1_EN":"Saraburi","ADM1_TH":"สระบุรี","ADM1_PCODE":"TH19","ADM0_EN":"Thailand","ADM0_TH":"ประเทศไทย","ADM0_PCODE":"TH"}},{"arcs":[[-271,-278,278,279,280]],"type":"Polygon","properties":{"Shape_Leng":0.181737876191,"Shape_Area":0.000647039442255,"ADM3_EN":"Ngio Ngam","ADM3_TH":"งิ้วงาม","ADM3_PCODE":"TH191004","ADM2_EN":"Sao Hai","ADM2_TH":"เสาไห้","ADM2_PCODE":"TH1910","ADM1_EN":"Saraburi","ADM1_TH":"สระบุรี","ADM1_PCODE":"TH19","ADM0_EN":"Thailand","ADM0_TH":"ประเทศไทย","ADM0_PCODE":"TH"}},{"arcs":[[-268,281,-280,282]],"type":"Polygon","properties":{"Shape_Leng":0.0784635551714,"Shape_Area":0.00032944724143,"ADM3_EN":"Sala Ri Thai","ADM3_TH":"ศาลารีไทย","ADM3_PCODE":"TH191005","ADM2_EN":"Sao Hai","ADM2_TH":"เสาไห้","ADM2_PCODE":"TH1910","ADM1_EN":"Saraburi","ADM1_TH":"สระบุรี","ADM1_PCODE":"TH19","ADM0_EN":"Thailand","ADM0_TH":"ประเทศไทย","ADM0_PCODE":"TH"}},{"arcs":[[-8,-13,283,284,285]],"type":"Polygon","properties":{"Shape_Leng":0.137977630194,"Shape_Area":0.000415625081112,"ADM3_EN":"Ton Tan","ADM3_TH":"ต้นตาล","ADM3_PCODE":"TH191006","ADM2_EN":"Sao Hai","ADM2_TH":"เสาไห้","ADM2_PCODE":"TH1910","ADM1_EN":"Saraburi","ADM1_TH":"สระบุรี","ADM1_PCODE":"TH19","ADM0_EN":"Thailand","ADM0_TH":"ประเทศไทย","ADM0_PCODE":"TH"}},{"arcs":[[-277,286,287,288,-283,-279]],"type":"Polygon","properties":{"Shape_Leng":0.165681664591,"Shape_Area":0.000805246308179,"ADM3_EN":"Tha Chang","ADM3_TH":"ท่าช้าง","ADM3_PCODE":"TH191007","ADM2_EN":"Sao Hai","ADM2_TH":"เสาไห้","ADM2_PCODE":"TH1910","ADM1_EN":"Saraburi","ADM1_TH":"สระบุรี","ADM1_PCODE":"TH19","ADM0_EN":"Thailand","ADM0_TH":"ประเทศไทย","ADM0_PCODE":"TH"}},{"arcs":[[-285,289,-288,290]],"type":"Polygon","properties":{"Shape_Leng":0.176161102209,"Shape_Area":0.000692506566752,"ADM3_EN":"Phraya Thot","ADM3_TH":"พระยาทด","ADM3_PCODE":"TH191008","ADM2_EN":"Sao Hai","ADM2_TH":"เสาไห้","ADM2_PCODE":"TH1910","ADM1_EN":"Saraburi","ADM1_TH":"สระบุรี","ADM1_PCODE":"TH19","ADM0_EN":"Thailand","ADM0_TH":"ประเทศไทย","ADM0_PCODE":"TH"}},{"arcs":[[-183,291,-273,292]],"type":"Polygon","properties":{"Shape_Leng":0.14117592555,"Shape_Area":0.000760076495698,"ADM3_EN":"Muang Ngam","ADM3_TH":"ม่วงงาม","ADM3_PCODE":"TH191009","ADM2_EN":"Sao Hai","ADM2_TH":"เสาไห้","ADM2_PCODE":"TH1910","ADM1_EN":"Saraburi","ADM1_TH":"สระบุรี","ADM1_PCODE":"TH19","ADM0_EN":"Thailand","ADM0_TH":"ประเทศไทย","ADM0_PCODE":"TH"}},{"arcs":[[-182,293,-217,-274,-292]],"type":"Polygon","properties":{"Shape_Leng":0.154084438073,"Shape_Area":0.000793059044121,"ADM3_EN":"Roeng Rang","ADM3_TH":"เริงราง","ADM3_PCODE":"TH191010","ADM2_EN":"Sao Hai","ADM2_TH":"เสาไห้","ADM2_PCODE":"TH1910","ADM1_EN":"Saraburi","ADM1_TH":"สระบุรี","ADM1_PCODE":"TH19","ADM0_EN":"Thailand","ADM0_TH":"ประเทศไทย","ADM0_PCODE":"TH"}},{"arcs":[[-177,-184,-293,-272,-281,-282,-267]],"type":"Polygon","properties":{"Shape_Leng":0.15502789949,"Shape_Area":0.00113899571797,"ADM3_EN":"Mueang Kao","ADM3_TH":"เมืองเก่า","ADM3_PCODE":"TH191011","ADM2_EN":"Sao Hai","ADM2_TH":"เสาไห้","ADM2_PCODE":"TH1910","ADM1_EN":"Saraburi","ADM1_TH":"สระบุรี","ADM1_PCODE":"TH19","ADM0_EN":"Thailand","ADM0_TH":"ประเทศไทย","ADM0_PCODE":"TH"}},{"arcs":[[-12,-17,-25,-269,-289,-290,-284]],"type":"Polygon","properties":{"Shape_Leng":0.112112099252,"Shape_Area":0.000672809148115,"ADM3_EN":"Suan Dokmai","ADM3_TH":"สวนดอกไม้","ADM3_PCODE":"TH191012","ADM2_EN":"Sao Hai","ADM2_TH":"เสาไห้","ADM2_PCODE":"TH1910","ADM1_EN":"Saraburi","ADM1_TH":"สระบุรี","ADM1_PCODE":"TH19","ADM0_EN":"Thailand","ADM0_TH":"ประเทศไทย","ADM0_PCODE":"TH"}},{"arcs":[[-51,-73,-76,294,295,296,297]],"type":"Polygon","properties":{"Shape_Leng":0.643834796816,"Shape_Area":0.00886554526458,"ADM3_EN":"Muak Lek","ADM3_TH":"มวกเหล็ก","ADM3_PCODE":"TH191101","ADM2_EN":"Muak Lek","ADM2_TH":"มวกเหล็ก","ADM2_PCODE":"TH1911","ADM1_EN":"Saraburi","ADM1_TH":"สระบุรี","ADM1_PCODE":"TH19","ADM0_EN":"Thailand","ADM0_TH":"ประเทศไทย","ADM0_PCODE":"TH"}},{"arcs":[[-52,-298,298,-92,-90]],"type":"Polygon","properties":{"Shape_Leng":0.683527292514,"Shape_Area":0.01048990372,"ADM3_EN":"Mittraphap","ADM3_TH":"มิตรภาพ","ADM3_PCODE":"TH191102","ADM2_EN":"Muak Lek","ADM2_TH":"มวกเหล็ก","ADM2_PCODE":"TH1911","ADM1_EN":"Saraburi","ADM1_TH":"สระบุรี","ADM1_PCODE":"TH19","ADM0_EN":"Thailand","ADM0_TH":"ประเทศไทย","ADM0_PCODE":"TH"}},{"arcs":[[-296,299,300,301,302,303]],"type":"Polygon","properties":{"Shape_Leng":0.704345146612,"Shape_Area":0.0143587927003,"ADM3_EN":"Nong Yang Suea","ADM3_TH":"หนองย่างเสือ","ADM3_PCODE":"TH191104","ADM2_EN":"Muak Lek","ADM2_TH":"มวกเหล็ก","ADM2_PCODE":"TH1911","ADM1_EN":"Saraburi","ADM1_TH":"สระบุรี","ADM1_PCODE":"TH19","ADM0_EN":"Thailand","ADM0_TH":"ประเทศไทย","ADM0_PCODE":"TH"}},{"arcs":[[304,305,306]],"type":"Polygon","properties":{"Shape_Leng":0.508578390471,"Shape_Area":0.00850250645418,"ADM3_EN":"Lam Somphung","ADM3_TH":"ลำสมพุง","ADM3_PCODE":"TH191105","ADM2_EN":"Muak Lek","ADM2_TH":"มวกเหล็ก","ADM2_PCODE":"TH1911","ADM1_EN":"Saraburi","ADM1_TH":"สระบุรี","ADM1_PCODE":"TH19","ADM0_EN":"Thailand","ADM0_TH":"ประเทศไทย","ADM0_PCODE":"TH"}},{"arcs":[[-303,307,-305,308]],"type":"Polygon","properties":{"Shape_Leng":0.688219061301,"Shape_Area":0.0159817481624,"ADM3_EN":"Lam Phaya Klang","ADM3_TH":"ลำพญากลาง","ADM3_PCODE":"TH191107","ADM2_EN":"Muak Lek","ADM2_TH":"มวกเหล็ก","ADM2_PCODE":"TH1911","ADM1_EN":"Saraburi","ADM1_TH":"สระบุรี","ADM1_PCODE":"TH19","ADM0_EN":"Thailand","ADM0_TH":"ประเทศไทย","ADM0_PCODE":"TH"}},{"arcs":[[-302,309,310,-306,-308]],"type":"Polygon","properties":{"Shape_Leng":0.521797992413,"Shape_Area":0.00838242095482,"ADM3_EN":"Sap Sanun","ADM3_TH":"ซับสนุ่น","ADM3_PCODE":"TH191109","ADM2_EN":"Muak Lek","ADM2_TH":"มวกเหล็ก","ADM2_PCODE":"TH1911","ADM1_EN":"Saraburi","ADM1_TH":"สระบุรี","ADM1_PCODE":"TH19","ADM0_EN":"Thailand","ADM0_TH":"ประเทศไทย","ADM0_PCODE":"TH"}},{"arcs":[[-75,311,312,-295]],"type":"Polygon","properties":{"Shape_Leng":0.554089679659,"Shape_Area":0.00728116769506,"ADM3_EN":"Salaeng Phan","ADM3_TH":"แสลงพัน","ADM3_PCODE":"TH191201","ADM2_EN":"Wang Muang","ADM2_TH":"วังม่วง","ADM2_PCODE":"TH1912","ADM1_EN":"Saraburi","ADM1_TH":"สระบุรี","ADM1_PCODE":"TH19","ADM0_EN":"Thailand","ADM0_TH":"ประเทศไทย","ADM0_PCODE":"TH"}},{"arcs":[[-300,-313,313,314]],"type":"Polygon","properties":{"Shape_Leng":0.529224232797,"Shape_Area":0.00469516275856,"ADM3_EN":"Kham Phran","ADM3_TH":"คำพราน","ADM3_PCODE":"TH191202","ADM2_EN":"Wang Muang","ADM2_TH":"วังม่วง","ADM2_PCODE":"TH1912","ADM1_EN":"Saraburi","ADM1_TH":"สระบุรี","ADM1_PCODE":"TH19","ADM0_EN":"Thailand","ADM0_TH":"ประเทศไทย","ADM0_PCODE":"TH"}},{"arcs":[[-301,-315,315,-310]],"type":"Polygon","properties":{"Shape_Leng":0.552057687049,"Shape_Area":0.0104697973746,"ADM3_EN":"Wang Muang","ADM3_TH":"วังม่วง","ADM3_PCODE":"TH191203","ADM2_EN":"Wang Muang","ADM2_TH":"วังม่วง","ADM2_PCODE":"TH1912","ADM1_EN":"Saraburi","ADM1_TH":"สระบุรี","ADM1_PCODE":"TH19","ADM0_EN":"Thailand","ADM0_TH":"ประเทศไทย","ADM0_PCODE":"TH"}},{"arcs":[[-87,316,317,318,319]],"type":"Polygon","properties":{"Shape_Leng":0.242443867505,"Shape_Area":0.0012542403849,"ADM3_EN":"Khao Din Phatthana","ADM3_TH":"เขาดินพัฒนา","ADM3_PCODE":"TH191301","ADM2_EN":"Chaloem Phra Kiat","ADM2_TH":"เฉลิมพระเกียรติ","ADM2_PCODE":"TH1913","ADM1_EN":"Saraburi","ADM1_TH":"สระบุรี","ADM1_PCODE":"TH19","ADM0_EN":"Thailand","ADM0_TH":"ประเทศไทย","ADM0_PCODE":"TH"}},{"arcs":[[-43,-47,320,-317,-86,-89,-57]],"type":"Polygon","properties":{"Shape_Leng":0.220252848889,"Shape_Area":0.00135401213198,"ADM3_EN":"Ban Kaeng","ADM3_TH":"บ้านแก้ง","ADM3_PCODE":"TH191302","ADM2_EN":"Chaloem Phra Kiat","ADM2_TH":"เฉลิมพระเกียรติ","ADM2_PCODE":"TH1913","ADM1_EN":"Saraburi","ADM1_TH":"สระบุรี","ADM1_PCODE":"TH19","ADM0_EN":"Thailand","ADM0_TH":"ประเทศไทย","ADM0_PCODE":"TH"}},{"arcs":[[-5,-10,321,-318,-321,-46]],"type":"Polygon","properties":{"Shape_Leng":0.197028091188,"Shape_Area":0.000882575739298,"ADM3_EN":"Phueng Ruang","ADM3_TH":"ผึ้งรวง","ADM3_PCODE":"TH191303","ADM2_EN":"Chaloem Phra Kiat","ADM2_TH":"เฉลิมพระเกียรติ","ADM2_PCODE":"TH1913","ADM1_EN":"Saraburi","ADM1_TH":"สระบุรี","ADM1_PCODE":"TH19","ADM0_EN":"Thailand","ADM0_TH":"ประเทศไทย","ADM0_PCODE":"TH"}},{"arcs":[[-88,-320,322,-275,-259,323]],"type":"Polygon","properties":{"Shape_Leng":0.330407185956,"Shape_Area":0.00418375531562,"ADM3_EN":"Phu Khae","ADM3_TH":"พุแค","ADM3_PCODE":"TH191304","ADM2_EN":"Chaloem Phra Kiat","ADM2_TH":"เฉลิมพระเกียรติ","ADM2_PCODE":"TH1913","ADM1_EN":"Saraburi","ADM1_TH":"สระบุรี","ADM1_PCODE":"TH19","ADM0_EN":"Thailand","ADM0_TH":"ประเทศไทย","ADM0_PCODE":"TH"}},{"arcs":[[-9,-286,-291,-287,-276,-323,-319,-322]],"type":"Polygon","properties":{"Shape_Leng":0.27013064938,"Shape_Area":0.00121254516575,"ADM3_EN":"Huai Bong","ADM3_TH":"ห้วยบง","ADM3_PCODE":"TH191305","ADM2_EN":"Chaloem Phra Kiat","ADM2_TH":"เฉลิมพระเกียรติ","ADM2_PCODE":"TH1913","ADM1_EN":"Saraburi","ADM1_TH":"สระบุรี","ADM1_PCODE":"TH19","ADM0_EN":"Thailand","ADM0_TH":"ประเทศไทย","ADM0_PCODE":"TH"}},{"arcs":[[-70,-324,-258,-248,-257,324]],"type":"Polygon","properties":{"Shape_Leng":0.349143225723,"Shape_Area":0.00519966897203,"ADM3_EN":"Na Phralan","ADM3_TH":"หน้าพระลาน","ADM3_PCODE":"TH191306","ADM2_EN":"Chaloem Phra Kiat","ADM2_TH":"เฉลิมพระเกียรติ","ADM2_PCODE":"TH1913","ADM1_EN":"Saraburi","ADM1_TH":"สระบุรี","ADM1_PCODE":"TH19","ADM0_EN":"Thailand","ADM0_TH":"ประเทศไทย","ADM0_PCODE":"TH"}}]}}}