{"type":"Topology","arcs":[[[6514,2911],[13,-13],[-14,-10],[21,-29],[-13,-22],[-19,-1],[-5,-56]],[[6497,2780],[-56,0],[-107,41],[-20,3]],[[6314,2824],[-60,11],[-43,4],[5,49],[32,-1]],[[6248,2887],[86,57],[16,2],[-5,18],[5,20],[-15,14],[8,23],[24,24],[17,-10],[17,13],[41,-12],[-8,-30],[-36,-33],[-13,-26],[80,-27],[-1,-6],[50,-3]],[[8177,3424],[-13,-30],[-96,-95],[-24,-40],[-9,-31],[-5,-70],[-19,-76],[-2,-36],[-7,-7],[-11,-53],[6,-62],[-33,-103],[-26,-23]],[[7938,2798],[-7,9],[-59,35],[-63,15],[-21,0],[-58,7],[-67,2],[-43,-29]],[[7620,2837],[-71,13],[-58,3],[-2,-8],[-46,2],[-5,-18],[-22,-2],[-65,2],[-48,6],[-27,0],[-3,7],[-72,6],[-26,7],[-71,40],[-71,-2],[-4,-14],[-55,-4],[-31,17],[-31,9],[-1,9],[-35,0],[-18,55],[-7,-4],[-85,2],[-143,19],[-34,7]],[[6589,2989],[11,10],[-2,28],[18,14],[7,16]],[[6623,3057],[152,-1],[34,-2],[4,14],[73,4],[52,17],[36,18],[33,7],[33,55],[28,-12],[22,3],[17,55],[13,16],[32,22],[21,21],[26,6],[51,-8],[22,21],[4,55],[-3,62],[8,43],[57,14],[48,51],[20,11],[25,49]],[[7431,3578],[146,-44],[75,-27],[93,-29],[72,-14],[61,-7],[51,10],[42,19],[31,-19],[32,29],[11,2],[33,-12],[17,-30],[27,-31],[16,-7],[39,6]],[[5357,3417],[0,-68],[-4,-1],[0,-68],[7,-44],[49,-82],[15,-48],[2,-37],[7,1],[8,-44],[-14,-71],[5,-39],[-5,-29],[3,-32],[-14,-29],[-2,-26],[-12,-23],[-17,-14],[-59,-78],[-32,-50],[-16,-43],[0,-49],[47,-57],[25,-48]],[[5350,2438],[-158,-7],[-69,-12],[-65,-5],[-42,16],[-54,14],[-108,33],[-61,3],[-12,4],[-93,4],[-105,-17],[-14,-6],[-47,4],[-33,11],[-34,-16],[-45,-8],[-36,-17],[-50,-11],[-22,1],[-38,17],[-47,15],[-31,29],[-53,16],[-62,4],[-61,-6],[-71,-37],[-15,14],[-27,6],[-35,-9],[-25,-15]],[[3837,2463],[-34,50],[-7,39],[2,19],[-18,32],[8,25],[34,11],[15,18],[33,3],[31,23],[2,23],[-12,27],[-21,19],[-3,22],[10,17],[-14,45],[-5,34],[-34,18],[7,18],[60,39],[22,31],[23,14],[13,20],[-13,41],[7,30],[26,12],[-7,18],[28,21],[20,22],[32,54],[8,20],[37,2],[41,14],[4,14],[25,3],[25,23],[-12,7],[-35,1],[4,41],[-4,32],[-14,19],[22,10]],[[4143,3394],[18,3],[52,21],[38,-15],[61,16],[28,-8],[85,1],[32,19],[62,-9],[59,12],[16,-2],[-3,38],[47,-1],[65,11],[17,10],[27,0],[39,13],[18,-6],[33,4],[25,-4],[30,11],[34,-6],[9,-124],[12,-4],[160,22],[124,4],[94,19],[32,-2]],[[6248,2887],[-48,27],[-7,29],[-30,9],[14,27],[35,13],[-19,24],[-9,61],[-6,98],[4,23],[36,59],[40,41],[-52,17],[13,45],[-25,3],[8,40],[48,1],[7,5],[46,-12],[10,10]],[[6313,3407],[50,-26],[28,-10],[16,-24],[46,-23],[28,-9],[14,3],[25,-9],[15,21],[32,4],[33,-7]],[[6600,3327],[44,-21],[13,-25],[26,-14],[-10,-18],[6,-23],[-11,0],[-51,15],[-15,13],[-21,-24],[24,-37],[43,10],[27,-3],[5,-15],[-40,-14],[-12,4],[-31,-15],[5,-27],[33,-23],[15,-2],[-27,-51]],[[6589,2989],[-39,2],[-28,-43],[9,-26],[-17,-11]],[[6497,2780],[69,-3],[41,5],[65,-9],[61,-4],[10,-31],[-11,-45],[9,-2],[-10,-26],[-37,6],[-13,-26],[14,-5],[-32,-30],[-30,-55],[9,-1],[-8,-34],[12,-40],[-31,-23],[-5,-21],[25,-3],[6,-17],[53,-17],[31,9],[37,-30],[20,-3],[22,-21],[5,-21],[46,-26],[13,-18],[78,-53],[45,-17]],[[6991,2219],[-112,27],[-63,3],[-58,10],[-63,6],[-49,13],[9,16],[-19,17],[-27,10],[-86,8],[-62,2],[-60,-9],[-6,-9],[-59,6],[-31,0],[-13,-7],[-61,-4],[-11,-6]],[[6220,2302],[0,36],[-18,38],[-22,20],[-48,12]],[[6132,2408],[-1,23],[8,2],[4,70],[-17,9],[0,30],[50,29],[44,6],[7,38],[37,18],[21,22],[-16,45],[0,33],[6,23],[39,68]],[[6132,2408],[-50,1],[-9,8],[-51,-1],[-37,-6],[-25,74],[-59,-1],[-107,5],[-160,-2],[-90,-10],[-47,4],[-74,-2],[-41,-32],[-32,-8]],[[5357,3417],[0,28],[-9,66],[6,40],[-4,66],[2,43],[31,11],[-21,34],[-7,38]],[[5355,3743],[21,-23],[28,-9],[26,-16],[7,-22],[18,-14],[32,-12],[77,-9],[71,-2],[29,-19],[80,-10],[25,-11],[22,-32],[-8,-28],[22,-22],[23,-12],[76,-7],[94,-15],[57,9],[35,13],[74,15]],[[6164,3517],[12,-9],[14,-32],[17,-18],[29,-7],[46,-17],[31,-27]],[[7620,2837],[-60,-46],[-72,-61],[-60,-38],[-59,-52],[-68,-43],[-81,-72],[-15,-10],[12,-11],[-8,-28],[-22,-13],[5,-20],[-7,-25],[-27,-27],[5,-40],[-13,-61],[20,-10],[10,-22],[17,-7],[18,-21]],[[7215,2230],[-1,-15],[-37,9],[-22,-1]],[[7155,2223],[-32,-8],[-26,-11],[-67,4],[-39,11]],[[6600,3327],[40,18],[43,26],[27,33],[103,-8],[15,2],[34,43],[21,19],[22,10],[50,12]],[[6955,3482],[35,19],[20,16],[27,54],[38,36],[25,31],[37,14],[25,-23],[39,1],[16,-19],[24,8],[30,-3],[102,-22],[58,-16]],[[7155,2223],[-4,-15],[-52,-24],[-48,-17],[-40,-20],[-50,-36],[-10,-15],[-2,-30],[24,-47],[-5,-24],[-48,-28],[-51,-37],[-28,-13],[-48,-40],[-48,-24],[-21,-17],[-36,-11],[-23,-21],[-4,-21],[13,-19],[-19,-14],[6,-13],[-21,-18]],[[6640,1719],[-41,35],[-85,3],[-112,7],[-32,-1],[-57,7],[-59,26],[-11,8],[-38,11],[-6,13],[-23,23],[-39,5]],[[6137,1856],[15,12],[13,61],[5,3],[13,54],[5,54],[15,52],[0,38],[7,31],[1,57],[9,84]],[[4143,3394],[-2,18],[-37,18],[-31,29],[-1,22],[21,29],[1,45],[-21,124],[-52,80],[-2,24],[-28,52],[-7,20],[3,32]],[[3987,3887],[18,-2],[34,17],[44,-10],[73,-6],[72,25],[26,-4],[6,-11],[45,-26],[35,4],[40,-10],[26,6],[1,18],[26,1],[25,23],[29,9],[10,-3],[43,13],[35,21],[23,1],[4,10],[33,-4],[24,4],[23,22],[13,-5],[36,9],[-8,25],[49,11],[18,-9],[24,2]],[[4814,4018],[2,-17],[104,3],[32,8],[1,40],[31,27],[21,0],[37,10],[40,2],[10,17],[45,-15],[37,5],[26,13],[40,-25],[30,-27],[39,-53],[16,-38],[26,-9],[4,-34],[14,-24],[5,-29]],[[5374,3872],[-7,-43],[-44,-10],[-8,-29],[19,-23],[21,-11],[0,-13]],[[3838,2069],[-31,-30],[-24,-9],[-55,-7],[-21,-17],[5,-18],[53,-5],[65,0],[55,-14],[15,-18],[9,-57],[45,-52],[23,-61],[14,-26]],[[3991,1755],[5,-16],[-5,-33]],[[3991,1706],[-9,-48],[1,-19],[29,-50],[-8,-52],[-13,-24],[-24,-20],[-35,-21],[-37,-13],[-41,-49],[-3,-31],[-30,-41],[6,-13],[-17,-10],[-1,-31],[-30,-22],[-26,-10],[-17,-29],[13,-22],[-16,-19],[-18,-41],[-18,-5],[-5,-18],[-18,-16],[-2,-20],[15,0],[-4,-53],[-15,-3],[0,-38],[-13,-8],[2,-26],[22,-31],[-20,-26]],[[3659,897],[-18,7],[-25,37],[-40,8],[-9,-9],[-22,8],[-22,-1],[-1,13],[-25,5],[-7,23],[-23,10],[-2,21],[-32,3],[-17,20],[-12,0],[-31,16],[4,15],[-33,22],[-8,52],[9,7],[-10,24],[24,7],[0,32],[-24,24],[-29,13],[-5,15],[-29,24],[15,15],[-27,14],[-7,17],[13,12],[4,28],[-14,10],[20,11],[-13,31],[14,2],[-24,21],[17,-2],[-1,15],[-13,9],[-3,28],[-13,20],[-7,28],[-28,-8],[-34,1],[0,-39],[-73,-8],[-42,19],[3,21],[-38,11],[-2,8],[-45,12],[-12,20]],[[2962,1589],[10,44],[51,31],[1,47],[8,38],[-13,24],[1,15],[17,8],[-56,46],[-23,31],[-17,13],[1,16],[-14,11],[-1,36],[22,38],[34,35],[23,56],[-50,63],[-15,7],[4,17],[-124,40],[-23,41],[-4,33],[15,16],[81,39],[74,54],[25,4],[4,54],[16,21],[6,28],[-25,26],[-1,23],[-15,65],[12,40],[24,28],[-10,20],[9,35],[-18,45],[3,35]],[[2994,2812],[85,10],[-4,46],[2,49]],[[3077,2917],[89,-3],[27,-5],[137,-4],[33,-6],[75,23],[111,3],[-1,-48],[-11,-1],[13,-36],[-9,-7],[-5,-38],[-19,-11],[9,-13],[-3,-26],[-22,-14],[-2,-29],[9,-18],[30,-22],[13,2],[17,-28],[48,-38],[9,-25],[-12,-9],[-30,-5],[7,-32],[1,-42],[12,-9],[7,-35],[27,-52],[6,-60],[4,-10],[38,-26],[27,-8],[7,-18],[-19,-16],[-2,-25],[14,-35],[30,-35],[-1,-22],[-22,-37],[15,-25],[104,-3]],[[3837,2463],[-27,-17],[2,-24],[64,-17],[-11,-37],[-36,-21],[0,-12],[21,-28],[-24,-18],[-1,-49],[20,-106],[0,-37],[-7,-28]],[[3077,2917],[-1,18],[-13,29],[-10,3],[5,51],[-1,27],[-29,4],[8,-14],[-37,-6],[-6,-14],[-20,-5],[3,-13],[-20,5],[-10,-8],[-22,5],[-21,-7],[-1,11],[-56,0],[-2,8],[-24,-5],[-29,-14],[-2,20],[-15,14]],[[2774,3026],[0,30],[-27,9],[-25,27],[-19,67],[-15,31],[26,38],[-47,9],[-6,10],[23,36],[-43,8],[-17,14],[-40,0],[-25,18],[-39,7],[-16,7],[-8,17],[-19,11],[-13,31],[22,21],[15,51]],[[2501,3468],[24,-9],[31,3],[20,9],[61,-11],[48,15],[25,-1],[70,11],[23,17],[54,23],[23,19],[39,4],[27,-12],[30,20],[13,19],[61,-7],[18,-17],[15,0],[63,-41],[8,-21],[32,-14],[39,-11],[17,-19],[17,-47],[20,-9],[9,10],[70,-22],[18,-13],[-7,-11],[31,-12],[40,-3],[16,-9],[21,12],[48,8],[44,34],[18,20],[66,3],[47,24],[39,-6],[61,-3],[21,-9],[18,12],[10,-7],[34,2],[43,-34],[17,-6],[25,24],[31,-18],[19,-20],[69,2],[-5,13],[9,18],[34,-7],[18,3]],[[2962,1589],[-55,-13],[-28,-40],[0,-18],[22,-39],[-4,-34],[-14,-20],[-13,-45],[-25,-16],[-26,-6],[-7,-11],[-4,-41],[-20,-34],[-16,-15],[-37,-6],[-14,49],[-4,43],[-28,23],[-2,22],[-48,52],[0,36],[-11,20],[-33,17],[-31,23],[-10,25],[-9,39],[-16,24],[-1,17],[-14,28],[4,18],[-9,36],[18,19],[-1,11],[-21,14],[-66,33],[-42,15],[-59,15],[-22,11],[-6,24],[-45,47],[-13,39],[-13,19],[-32,29],[-24,-8],[-35,-1],[-15,-19],[-39,7],[-4,-10],[-20,-1],[-56,-23],[-10,-16],[-36,-15],[4,-7],[-15,-17],[-28,-14],[-11,-19],[12,-14],[3,-25],[-26,-24],[-20,-2],[-10,-26],[-8,1],[-21,-24],[-28,-9],[-20,-17],[-36,-10],[-47,-19],[-25,-44],[-63,7],[-74,13],[-27,14],[-23,18],[6,23],[13,11],[33,10],[-2,46],[-24,31],[25,40],[-8,19],[16,6],[-1,27],[21,19],[16,24],[130,42],[0,12],[58,14],[17,21],[-9,14],[7,12],[-26,18],[-7,22],[9,17],[-7,24],[-23,-10],[-6,7],[-58,27],[-51,20],[-12,9],[-5,37],[20,32],[20,13],[-6,9],[-33,8],[-11,17],[-30,18]],[[1577,2334],[35,1],[112,19],[346,106],[12,22],[10,38],[59,54],[50,21],[5,19],[19,13],[29,10],[31,44],[9,47],[-8,25],[46,10],[224,59],[99,-6],[110,-28],[18,-2],[211,26]],[[2501,3468],[-7,24],[16,40],[-3,24],[13,17]],[[2520,3573],[-4,81],[-33,11],[2,28],[37,12],[14,12],[110,22],[-9,19],[44,7],[-10,37],[-2,31],[-24,8],[8,106],[9,30],[-20,3],[2,18],[-34,5],[3,18],[-17,13],[-40,9],[-30,13],[14,30],[-13,4],[16,39],[-2,26],[-18,29],[-7,33],[-25,52],[18,10],[9,16],[0,29],[-16,20],[-11,67],[-30,46],[-15,12],[3,30],[9,12],[42,8],[3,15]],[[2503,4534],[71,-2],[5,-16],[57,-23],[10,-35],[42,-25],[28,-8],[5,-19],[-9,-20],[23,-11],[-23,-35],[65,-12],[21,-14],[22,-3],[-2,-18],[35,-28],[28,-6],[14,7],[41,-26],[29,0],[19,-24],[26,-16],[46,2],[58,13],[24,-11],[-5,-11],[20,-12],[21,-25],[60,3],[15,-5],[9,10],[40,1],[34,-26],[6,9],[30,-13],[-8,-20],[24,6],[-7,-15],[17,-8],[11,-37],[-6,-9],[31,-20],[12,-23],[31,-18],[18,-37],[33,-16],[-3,-10],[19,-8],[13,-31],[60,-16],[29,11],[50,-12],[25,-1],[-1,9],[89,8],[33,10],[25,-4],[16,7],[108,-14]],[[2520,3573],[-23,-20],[-43,4],[-19,-13],[-39,-3],[-17,19],[2,9],[-31,9],[-28,-12],[-30,4],[-28,-10],[-48,-8],[-17,-11],[-30,-3],[-29,7],[-5,-33],[2,-29],[-7,-33],[-34,-41],[-41,-19],[-82,-13],[-53,-6],[-180,13],[-49,-13],[-82,-3],[-1,-16],[-82,-18],[-14,22],[-43,-13],[-36,11],[-16,11],[-9,25],[-27,17],[-40,3],[-80,23],[-18,13],[-51,18],[-36,3],[5,11],[-17,9],[-47,-1],[-20,14],[-64,12]],[[1013,3512],[-22,10],[-31,-4],[-21,-14],[-32,8],[-4,26],[-26,6],[6,9],[-18,23],[-20,-2],[-29,23],[-36,9],[-4,11],[-22,5],[-28,-3],[5,18],[-25,1],[-28,-14],[5,-7],[-35,-25],[-60,-1],[-4,15],[-29,-4],[-22,23],[-12,-15],[-39,12],[-23,-4],[-10,-10],[-75,9],[-39,-14],[-12,19],[-15,4],[-15,16],[-24,1],[-1,9],[-33,13],[-5,21],[-15,24],[-93,79],[-18,31],[-2,21],[8,24],[-8,38],[29,23],[7,16],[14,7],[50,7],[16,34],[-12,20],[-118,14],[-42,14],[-20,27],[19,24],[21,11],[5,30],[14,38],[-9,41],[9,24],[-12,27],[-4,27],[-58,50],[16,25],[-8,26],[-11,13],[15,3],[-21,23],[-2,16],[15,22],[16,9],[2,20],[33,79],[5,39],[19,37],[-21,30],[-42,13],[-6,25],[13,12],[37,18],[23,53],[2,22],[-12,58],[22,23],[9,67],[-22,40],[-10,27],[1,53],[-16,28],[-31,37],[72,1],[42,-30],[35,10],[44,-14],[53,4],[30,11],[28,-2],[12,-11],[-6,-21],[31,-31],[39,-14],[34,-27],[37,-4],[18,-9],[39,-32],[33,-13],[21,-35],[2,-28],[34,-28],[11,-23],[30,-20],[24,-31],[39,-8],[3,-7],[-17,-18],[-6,-47],[18,-15],[14,-43],[18,-20],[2,-16],[117,-31],[81,-12],[43,-1],[26,13],[18,44],[48,70],[15,5],[38,-13],[52,0],[26,-4],[41,8],[46,-3],[25,-8],[12,6],[-1,16],[-21,17],[-4,33],[34,-6],[44,11],[16,25],[35,18],[36,-1],[16,-16],[24,-6],[11,-12],[40,4],[8,6],[3,56],[48,28],[16,31],[-9,27],[-22,19],[-4,18],[-21,18],[3,7],[35,6],[31,-14],[26,-6],[65,10],[22,23]],[[1790,5020],[52,-24],[7,-37],[-12,-47]],[[1837,4912],[14,-36],[-16,-24],[22,-30],[23,-8],[20,-33],[-3,-25],[14,-20],[55,-26],[14,-44],[27,-30],[42,-30],[45,-19],[19,-25],[28,-8],[69,8],[45,-11],[34,-16],[39,-2],[37,-10],[35,1],[47,10],[50,-5],[6,5]],[[1577,2334],[-11,50],[26,-1],[88,41],[31,21],[41,5],[39,35],[-9,17],[11,14],[28,15],[-1,9],[28,19],[43,17],[10,16],[13,-2],[3,16],[17,11],[0,14],[-27,-3],[-25,-26],[-62,-20],[-28,4],[-38,13],[-2,-9],[-74,-6],[-29,8],[-9,-13],[-36,-4],[-35,6],[-5,10],[-23,0],[-34,14],[-47,34],[-5,23],[-1,49],[-7,16],[-28,28],[-48,22],[-6,94],[-6,16],[-33,44]],[[1326,2931],[51,6],[16,-27],[-12,-8],[32,0],[-7,-12],[22,8],[22,-1],[11,-10],[31,6],[9,15],[33,-9],[27,-1],[15,10],[43,-20],[31,0],[4,9],[25,2],[16,-8],[46,-5],[8,6],[23,-9],[6,11],[31,-25],[12,15],[28,-11],[28,7],[-3,-15],[22,-17],[47,1],[23,12],[19,-6],[20,10],[39,3],[17,10],[-10,8],[40,8],[6,-5],[32,9],[17,-16],[33,1],[-11,19],[26,-2],[26,-23],[22,3],[3,17],[32,12],[3,-12],[31,21],[13,-17],[32,-3],[38,25],[5,-13],[36,-5],[2,12],[16,-3],[32,24],[36,14],[38,21],[24,7],[-8,13],[16,-1],[22,14],[28,-4],[22,5],[21,16],[19,6],[24,-5],[16,8],[31,-6]],[[1326,2931],[-14,18],[-17,-11],[-47,14],[-32,0],[-4,12],[14,19],[-73,-10],[-28,11],[-19,-7],[-49,3],[-24,-4],[20,14],[-16,0],[0,16],[-13,5],[-8,22],[-19,19],[10,2],[-2,21],[-11,12],[4,24],[14,6],[-13,9],[4,19],[-15,12],[23,6],[-13,23],[16,10],[-17,15],[-11,-6],[-9,20],[12,6],[-1,16],[-20,23],[13,19],[-18,16],[-21,6],[-9,21],[9,22],[-5,50],[15,8],[0,14],[32,12],[-1,13],[33,19],[-3,42]],[[7152,1246],[-12,-4],[-86,1],[-27,-4],[-161,-44],[-20,-3],[-253,-15],[-31,4],[-175,47],[-116,6],[-8,3],[3,-53],[-4,-31]],[[6262,1153],[-21,3],[-69,-2],[-42,9],[-18,19],[-33,16],[-50,6],[-37,-2],[-12,-23],[-54,11],[-66,-19],[-54,-12],[-47,0],[-41,-23],[-38,-9],[-43,10],[-17,-6],[-69,-7]],[[5551,1124],[-7,10],[14,25],[20,-8],[15,8],[0,16],[13,17],[42,6],[21,21],[44,12],[4,17],[45,20],[17,37],[10,36],[27,7],[42,25],[11,12],[-8,13],[2,33],[-5,24],[22,9],[-10,24],[-36,15],[-9,14],[13,24],[-19,17]],[[5819,1558],[56,0],[20,-8],[47,-3],[27,6],[140,2],[58,2],[79,14],[23,-4],[54,2],[63,-7],[26,0],[47,9],[99,4],[67,0]],[[6625,1575],[32,-14],[40,-23],[88,-29],[65,-13],[162,-6],[128,-31],[24,4],[22,-11],[-7,-44],[4,-40],[-13,-32],[-6,-57],[8,-11],[-20,-22]],[[6640,1719],[6,-32],[-32,-34],[-13,-30],[-1,-21],[25,-27]],[[5819,1558],[-37,-2],[-66,-10],[-56,-2],[-61,8],[-21,39],[-22,3],[-16,66],[-3,46],[5,26],[-12,32],[4,15],[-14,24]],[[5520,1803],[49,30],[39,32],[17,31]],[[5625,1896],[59,-4],[23,8],[79,4],[30,-3],[81,-28],[56,-15],[57,4],[58,10],[13,6],[47,-4],[9,-18]],[[5625,1896],[-275,542]],[[6262,1153],[0,-12],[46,-17],[44,-9],[18,-14],[62,-35]],[[6432,1066],[-17,-18],[-38,6],[-19,-12],[28,-17],[-23,-22],[26,-14],[-4,-18],[10,-16],[-2,-19],[29,-18],[-16,-21],[8,-12],[-32,-15],[14,-19],[23,0],[-24,-17],[3,-16],[-22,-21],[2,-31],[-18,-18],[-13,-30],[-41,-5],[-20,-39]],[[6286,674],[-73,10],[-93,4],[-35,7],[-88,-2],[17,43],[11,14],[15,57],[-21,-3],[-31,-14],[-51,2],[-33,16],[-69,7],[-8,4],[-9,29],[-30,-5],[-37,12],[-12,15],[-52,13],[4,40],[10,9],[-4,31],[-39,33],[-8,38],[-21,1],[-14,13],[-12,36],[-69,6]],[[5534,1090],[17,34]],[[3991,1755],[177,77],[72,23],[42,5],[47,-5],[144,-26],[45,-6],[72,-3],[44,4],[75,-22],[40,-2],[58,9],[8,-16],[77,-4],[25,7],[37,2],[7,-21],[17,-7],[103,-9],[54,3],[73,20],[2,23],[61,12],[10,12],[18,-1],[20,16],[24,10],[23,-2],[2,-8],[28,-3],[49,-11],[30,14],[20,-31],[25,-12]],[[5534,1090],[-38,-36],[-39,-19],[-25,-24],[-23,-5],[-7,-12],[-24,-12],[-6,-33],[-31,-32],[-9,-28],[7,-33],[-57,-34],[-7,-9],[-25,-2],[-19,-14],[-14,8],[-27,-2],[-15,8],[-31,-1],[-18,-19],[-5,-24],[-262,-100],[-29,-19],[-182,-193],[-22,-16],[-91,-42]],[[4535,397],[-6,16],[-27,4],[-15,22],[-6,24],[-63,20],[-29,21],[-46,1]],[[4343,505],[18,19],[-13,24],[-46,36],[-55,29],[-2,12],[30,-2],[49,12],[11,8],[47,19],[-5,29],[7,21],[-6,27],[-10,11],[27,17],[-27,27],[-1,14],[18,22],[-6,40],[16,9],[-17,23],[8,24],[-34,28],[-7,33],[19,21],[-10,14],[14,29],[59,26],[43,2],[43,16],[18,27],[24,10],[-4,28],[-25,50],[-3,19],[10,14],[4,65],[-8,60],[-9,114],[0,27],[-8,13],[-51,20],[-55,3],[-49,10],[-56,31],[-43,10],[-122,-3],[-24,14],[-44,51],[-21,10],[-30,24],[-26,14]],[[6286,674],[-23,-24],[-27,-46],[11,-57],[-3,-45],[-7,-6],[-9,-59],[11,-2],[9,-54],[46,-46]],[[6294,335],[-24,-12],[-3,-16],[-16,-19],[-48,-9],[-35,-11],[-24,-24],[53,-41],[18,-20],[10,-34],[-9,-14],[-49,6],[-22,-4],[-18,-16],[-2,-18],[-16,-25],[-17,-10],[-64,-16],[-10,-15],[-78,-16],[-33,1],[-51,20],[-55,0],[-21,-23],[-24,-14],[-39,-5],[-49,5],[-22,9],[-51,5],[10,25],[-5,41],[-13,52],[-3,58],[7,48],[-21,53],[-17,20],[-8,25],[-22,0],[-31,-10],[-15,3],[-24,23],[11,17],[-35,19],[-50,8],[-9,11],[10,16],[-3,19],[18,25],[16,4],[11,21],[-13,25],[2,17],[-27,-7],[-2,-16],[-19,-9],[-17,2],[-39,-6],[-18,-13],[-10,-41],[-17,-3],[-37,-34],[-24,0],[-34,-8],[-16,-13],[-13,1],[-16,-19],[-26,-15],[-1,-9],[-73,-9],[-29,10],[-33,19],[-48,-23],[10,-26],[-23,-17],[-31,12],[-26,-16],[-56,10],[8,24],[-24,17],[12,46],[9,7],[-13,20],[-15,2],[-100,-9],[-72,-10],[-49,-12],[-7,3]],[[7152,1246],[14,-10],[2,-15],[22,-20],[41,-6],[14,-8],[0,-25],[-14,-43],[-7,-67],[-10,-27],[5,-16]],[[7219,1009],[-22,-12],[9,-5],[4,-31],[-36,-22],[-32,4],[-21,-6],[-25,-24],[11,-29],[-28,-12],[-5,-43],[-11,-20],[16,-24],[17,-11],[-27,-23],[-5,-12]],[[7064,739],[-101,20],[-81,19],[-49,15],[-28,21],[-36,39],[-21,10],[-75,24],[-31,24],[-60,37],[-89,77],[-61,41]],[[4343,505],[-11,4],[-3,21],[-58,30],[-51,4],[-13,-8],[-22,2],[-15,-29],[-56,14],[-8,20],[-38,23],[-20,-6],[-54,28],[-8,30],[-38,7],[-3,-8],[-31,15],[-31,1],[-19,18],[9,2],[-35,20],[-14,25],[-30,5],[-14,9],[-6,19],[-22,13],[-11,26],[-13,8],[14,8],[-13,12],[-22,-10],[0,12],[-18,8],[2,11],[-22,1],[0,23],[-14,0],[10,23],[-6,11]],[[7064,739],[-2,-14],[-40,0],[1,-7],[-29,2],[-17,-26],[-3,-17],[-24,2],[-19,-6],[-30,-44],[-5,-43],[-14,-5],[20,-29],[-10,-13],[9,-21],[-10,-8],[-62,-6],[-31,-17],[-46,-41],[0,-6],[-32,-33],[-30,-18],[2,-37],[-22,-20],[4,-17],[-5,-28],[-30,-4],[-18,11],[-37,-13],[-41,-8],[-35,8],[-43,22],[-4,58],[-20,2],[-64,-33],[-41,8],[-42,-3]],[[7704,2254],[83,-35],[77,7],[22,41],[16,-3],[42,6],[12,10],[33,0],[40,-11],[82,-7],[43,-8],[43,-46],[-5,-54],[16,-8],[-9,-21],[25,-13],[42,14],[18,-3],[14,-15],[14,3],[-2,16]],[[8310,2127],[27,-12],[27,3],[21,-7],[22,-27],[17,-7],[3,-14],[25,-3],[19,-14],[-10,-15],[-40,-6],[-6,-7],[-2,-46],[71,-14],[13,-19],[37,20],[31,2],[9,-6],[-12,-23],[31,-3],[3,-17],[-16,-28],[81,-35],[2,-8],[41,-22],[30,-10]],[[8734,1809],[-40,-26],[-2,-48],[11,-47],[-6,-40],[-16,-18],[-71,-49],[-35,5],[-40,34],[-26,5],[-17,-10],[-34,-6],[-95,-4],[-33,7],[-23,-10],[-2,-23],[-36,-18],[-31,-3],[-23,4],[-21,13],[-40,14],[-62,8]],[[8092,1597],[-2,38],[16,17],[-8,53],[4,19],[22,14],[-22,12],[-9,30],[-53,7],[-47,21],[-17,-7],[-2,-26],[-24,-22],[-56,-5],[-61,-25],[-11,0],[-66,29],[-34,0],[15,-32],[-4,-21],[-24,-13],[-33,18],[-21,-12],[-34,1],[3,10],[-28,16],[-21,31],[-10,42],[11,69],[-39,112],[-15,17]],[[7522,1990],[-64,52],[12,20],[-20,15],[-28,33],[7,22],[7,57]],[[7436,2189],[11,12],[15,-9],[-1,-11],[33,2],[6,29],[23,2],[-21,19],[1,16],[84,17],[11,-1],[23,20],[36,-15],[27,-1],[20,-15]],[[7704,2254],[27,21],[15,28],[37,43],[73,48],[28,7],[92,14],[114,25],[57,-11],[59,3],[90,-1],[49,-10],[67,-6]],[[8412,2415],[-23,-49],[-34,-40],[-23,-6],[-35,-19],[-11,-14],[15,-16],[-6,-24],[13,-41],[-4,-24],[-15,-39],[21,-16]],[[9105,2510],[2,-31],[16,-27],[155,-158],[112,-62],[30,-5],[22,-20],[15,5],[16,-9],[3,-27],[58,-51],[7,-27],[39,15],[42,-6],[38,28],[17,-7],[31,19],[18,-11],[35,-1],[5,6],[53,-3],[117,24],[2,3]],[[9938,2165],[16,-4],[-13,-17],[1,-14],[23,-18],[4,-12],[30,-24],[-20,-17],[8,-21],[-38,10],[-19,-3],[-19,6],[-40,-11],[-13,-12],[0,-27],[-23,-12],[3,-26],[15,-9],[-7,-12],[6,-37],[-73,-42],[-22,26],[-28,-5],[-8,-15],[23,-16],[-42,-11],[-13,-26],[-66,-10],[-30,18],[0,9],[-22,13],[-15,0],[-24,-14],[-25,-28],[-27,-14],[-37,-5],[2,-11],[-36,-5],[-35,6],[-34,26],[-44,-4],[-34,11],[-34,21],[-25,10]],[[9203,1839],[0,19],[-29,13],[4,12],[-11,19],[-23,-8],[-14,12],[-19,2],[1,16],[45,15],[-4,30],[12,12],[-12,4],[-11,19],[-12,0],[22,19],[23,39],[-16,12],[-55,-9],[4,25],[60,108],[-40,14],[-4,16],[-25,9],[-40,3],[-16,14],[-23,3],[-13,24],[-12,6],[-89,11],[-27,14],[1,9]],[[8880,2321],[49,3],[34,14],[-22,51],[-58,28],[-7,13],[-53,6],[-81,1],[-93,9],[-31,7],[-11,16],[-20,-1],[-4,29],[10,21],[13,8],[0,18],[16,12],[2,22],[25,15],[-16,47],[20,23],[38,13],[16,41],[11,-1],[0,18],[22,51]],[[8740,2785],[23,-19],[26,-3],[-18,-39],[61,-15],[35,-13],[38,-30],[23,10],[14,-5],[7,-19],[-8,-12],[23,-40],[-5,-8],[-5,-46],[9,-24],[142,-12]],[[8880,2321],[-18,5],[-18,19],[12,16],[-9,12],[-42,-3],[-15,-6],[-31,2],[-50,-13],[-116,5],[-45,11],[-22,19],[-10,29],[-53,25],[-37,11]],[[8426,2453],[6,13],[-38,16],[-31,41],[-54,55]],[[8309,2578],[-8,3],[-6,30],[9,35],[8,10],[66,47],[44,36],[13,26],[-11,46],[-52,29],[10,42],[15,15],[22,4],[-6,30],[1,27],[8,0],[3,56],[5,15],[23,0],[3,10],[63,64],[108,58],[0,99],[15,18],[28,13]],[[8670,3291],[15,-18],[-1,-16],[-22,-41],[9,-28],[-12,-5],[3,-14],[43,-10],[31,-15]],[[8736,3144],[-28,-47],[-12,-32],[4,-34],[-15,-56],[-18,-26],[-25,-48],[36,-13],[-3,-17],[11,-22],[-3,-29],[24,-5],[19,-29],[14,-1]],[[8177,3424],[12,-21],[61,28],[5,24],[19,6],[109,49],[11,2]],[[8394,3512],[13,-10],[6,-27],[60,-3],[18,13],[19,-7],[15,11],[-9,9],[0,25],[9,2],[31,-19],[6,30],[25,-8],[-2,-12],[24,-9],[36,-27],[20,3],[-1,-29],[8,-22],[10,-5],[92,0],[-1,-29],[-16,-15],[25,-24],[-3,-34],[-20,-9],[-36,2],[-25,-8],[-28,-19]],[[8309,2578],[-25,-37],[-61,-4],[-50,28],[-68,61],[-48,10],[-49,13],[-23,13],[4,32],[-63,72],[12,32]],[[8412,2415],[14,38]],[[9203,1839],[-16,-5],[-42,27],[-28,-8],[-51,-6],[-10,-24],[-44,-4],[-75,-3],[-72,-5],[-87,2],[-44,-4]],[[7436,2189],[-12,7],[-41,3],[2,6],[-42,20],[-15,29],[-30,4],[1,-21],[-14,-12],[-22,2],[-28,14],[-20,-11]],[[8736,3144],[1,-17],[16,-3],[2,-13],[23,-10],[27,-32],[18,0],[32,-10],[9,-22],[24,-22],[79,-1],[5,-16],[20,-21],[15,3],[30,-8],[3,13],[17,-14],[51,6],[-12,-16],[13,-8],[3,-45],[23,-11],[12,-16],[4,12],[27,2],[1,-13],[55,-6],[41,-15],[23,6],[14,19],[27,-2],[18,16],[15,-8],[1,-14],[20,-8],[0,-16],[45,3],[2,-13],[-17,-3],[11,-11],[43,-6],[-13,-12],[19,-1],[15,-16],[13,15],[14,-5],[6,-18],[16,0],[0,-14],[16,8],[0,17],[16,7],[17,-5],[15,-18],[-16,-14],[0,-13],[-31,-29],[2,-7],[81,-1],[20,-14],[21,4],[-4,-26],[18,-1],[39,33],[40,2],[4,-13],[-9,-21],[7,-21]],[[9783,2661],[-6,-26],[-74,-51],[-27,-1],[-14,18],[3,10],[-16,21],[-49,18],[-16,-13],[12,-17],[32,-27],[-25,-21],[-18,-3],[-64,10],[-38,-3],[-15,6],[-8,26],[-13,10],[-43,-2],[-29,-24],[-69,1],[-26,5],[-134,-4],[-27,-12],[-14,-72]],[[7522,1990],[-11,-56],[-18,-34],[-27,-25],[-9,-18],[10,-26],[-18,-54],[-11,-75],[-19,-26],[-16,-67],[0,-106],[4,-10],[72,-28],[37,-3],[4,-15],[-14,-9],[1,-44],[24,-19],[4,-55],[-21,-24],[-36,-28],[-43,-81],[-4,-33],[-24,-28],[-7,-19],[3,-23],[-18,-17],[-2,-25]],[[7383,1042],[-65,-23],[-81,-3],[-18,-7]],[[8092,1597],[-40,-12],[-16,-11],[-107,12],[-8,-7],[-53,9],[-24,-75],[11,-33],[44,-3],[-7,-35],[6,-6],[-5,-43],[4,-19],[19,-16],[-16,-30],[-1,-37],[-18,-31],[-47,-6],[-12,-37],[-12,4],[-39,-19],[-20,-1],[-13,-45],[-14,-30],[-67,-17],[-105,-30],[-71,0],[-98,-37]],[[9783,2661],[18,0],[1,-26],[61,-10],[8,-12],[-27,-36],[22,-20],[25,-2],[12,9],[13,-7],[21,8],[11,-6],[7,-23],[-18,-8],[-47,8],[-41,-2],[-17,-16],[33,-15],[38,0],[22,-56],[6,-32],[38,-107],[7,-6],[-19,-10],[13,-31],[-25,-2],[2,-11],[18,-4],[9,-17],[20,-11],[-13,-9],[-28,12],[-13,-7],[22,-24],[-30,-14],[6,-9]],[[5151,7645],[17,-3],[56,-35],[25,-39],[22,-6],[0,16],[30,3],[5,13],[117,-19],[228,-86],[208,-30],[4,-13],[150,19],[53,-33],[31,-13],[12,-39],[12,-14],[33,-6],[45,-42],[28,-9],[18,-19],[80,-18],[15,-12],[17,-46],[25,-34],[21,-14],[1,-14],[78,-25],[9,-21]],[[6491,7106],[-23,-5],[-26,-20],[-18,-45],[10,-47],[-24,-2],[-61,11]],[[6349,6998],[2,10],[-34,20],[-74,20],[-42,-10],[-47,0],[-26,4],[-89,55],[-75,52],[-70,64],[-34,22],[-25,10],[-15,15],[-87,30],[-13,2],[-29,-24],[-48,0],[-45,15],[-15,0],[-61,14],[-17,-22],[-32,7],[-19,-11],[-48,11],[-84,4],[-42,-7],[-31,-12],[-49,15],[-24,-13],[-5,-34],[-13,13],[-25,1],[-18,13],[-4,30],[-14,4],[-18,20],[6,27],[-12,22],[8,12]],[[5081,7377],[-2,15],[-51,13],[-30,22],[-6,19],[-20,24],[-7,25],[-19,-2],[-11,13],[-25,7],[2,24],[16,15],[-19,11],[-21,0],[-42,97]],[[4846,7660],[79,-5],[56,1],[19,-18],[36,9],[58,-18],[32,16],[25,0]],[[5151,7645],[24,30],[41,8],[19,25],[33,2],[9,12],[33,3],[21,-10],[35,7],[-1,-21],[38,-4],[-11,20],[37,2],[-14,-13],[28,-16],[8,4],[-9,20],[18,-9],[22,2],[13,-24],[43,-4],[81,13],[66,0],[44,-38],[36,11],[25,16],[47,44],[16,22],[11,28],[5,38],[-2,37]],[[5867,7850],[22,-22],[41,-3],[40,-19],[51,-17],[14,3],[33,34],[31,12],[26,1],[60,-23],[3,-29],[-6,-13],[32,-13],[19,-16],[17,10],[24,-16],[25,8],[28,0],[17,11],[23,0],[49,-11],[16,10],[5,-15],[27,-25],[22,-37],[24,-21],[41,-21],[7,-14],[-9,-26],[20,-26],[200,31]],[[6769,7603],[-4,-8],[14,-34],[19,-10],[-10,-9],[-4,-30],[15,-12],[21,1],[10,-37],[25,-14],[10,-18],[-8,-22],[-15,-15],[56,0],[-6,-41],[17,-3],[0,-23],[-11,-13],[8,-17],[-11,-22],[11,-10],[-5,-29],[17,-49],[-14,0],[-9,-62]],[[6895,7126],[-22,4],[-42,-1],[-21,5],[-59,-14],[-40,25],[-18,-12],[-18,-1],[-82,20],[-18,-20],[-47,-30],[-9,16],[-28,-12]],[[4846,7660],[-56,-22],[-32,-8],[-14,-12],[-31,-3],[-57,-20],[-17,1],[-28,-11],[-21,-19],[-28,-10],[-62,-2],[-18,4],[-17,17],[-53,4],[-60,15],[-39,4],[-19,28],[-42,10],[-15,-17],[-4,-19],[-43,-12],[-43,-64],[-28,6],[-11,-20],[-27,10],[-30,39],[-16,4],[-15,32],[-17,0],[-19,-13],[-18,11],[-43,-8],[41,50],[13,28],[2,25],[-8,22],[-28,12],[-53,59],[37,31],[-5,18],[-35,18],[-4,21],[40,19],[6,8],[2,54],[-7,26],[-25,1],[-43,29],[14,18],[-24,2],[-32,12],[-11,-19],[-24,16],[-31,-1],[-27,-8],[-29,9],[-6,-13],[-15,8],[-51,-7],[-48,-17],[-19,-31],[-16,-10],[-74,-16],[-83,0],[-27,5],[-42,20],[-49,28],[-43,40],[-69,49],[-56,32],[-110,41],[-107,51],[-18,-2],[-15,18],[-22,-8],[-39,10],[-59,-8],[-46,0],[-18,6],[-27,-1],[7,10],[-99,30],[-87,10],[-51,-4],[-28,1],[-54,20],[-23,0],[-49,-32],[-37,-17],[-69,-8],[-8,-29],[-28,-16],[-26,-7],[-6,-11],[-31,-24],[-54,-29],[-75,-23],[-69,-48],[-13,-15],[-18,-4],[-38,3]],[[1777,8037],[-3,21],[-13,16],[8,26],[-7,16],[25,9],[-38,29],[-32,16],[15,33],[-34,12],[8,24],[-21,20],[31,45],[6,18],[-11,33],[-1,22],[-14,44],[-4,24],[20,18],[7,47],[11,25],[35,-3],[29,3],[33,24],[41,19],[44,10],[36,20],[15,18],[18,5],[-7,21],[20,36],[31,12],[27,30]],[[2052,8730],[55,-2],[25,6],[28,-5],[29,6],[37,-10],[47,-8],[31,-12],[28,7],[36,-19],[38,-1],[40,-14],[40,-1],[24,-17],[68,1],[35,-15],[81,1],[50,-15],[41,-7],[95,1],[42,3],[105,14],[33,-3],[13,-13],[31,-7],[44,-29],[54,-16],[51,-4],[18,-25],[30,-4],[28,15],[32,6],[31,-7],[18,4],[42,-12],[24,-1],[31,9],[31,-2],[47,-16],[50,-31],[42,-20],[20,-5],[23,-18],[5,-13],[65,-9],[16,2],[39,-15],[33,0],[13,-10],[28,17],[27,-8],[21,-28],[45,-5],[23,4],[27,-5],[10,11],[26,4],[26,30],[28,10],[118,15],[66,27],[35,-1],[15,8],[20,-9],[32,-4],[13,-17],[34,4],[13,-13],[-3,-15],[25,3],[0,10],[53,21],[-4,7],[45,-6],[3,-12],[19,7],[30,1],[49,16],[13,-9],[28,3],[2,10],[40,9],[64,44],[40,-4],[31,14],[25,-3],[14,6],[48,-16],[25,8],[17,-15],[65,-11],[27,9],[45,-38],[37,-9],[19,-13],[35,-11],[28,20],[29,47],[21,21],[29,17],[19,-1],[16,-15],[20,-4],[20,-16],[24,-10],[18,17],[6,20],[27,-10],[49,-36],[51,-16],[38,-25],[20,2],[29,16],[19,1],[70,-29],[43,9],[21,28],[31,29],[-16,15],[5,8],[31,-8],[17,-13],[22,-3],[18,-14],[49,-1]],[[6044,8514],[10,-21],[-52,-26],[12,-41],[15,-22],[-6,-12],[8,-21],[-9,-22],[-48,-27],[-16,-30],[-30,-9],[-31,-28],[-15,-25],[16,-34],[-47,-28],[-14,-19],[-3,-39],[-70,-40],[-14,-16],[-41,-11],[-17,-19],[9,-11],[30,-13],[-33,-23],[-27,-6],[-35,4],[-5,-12],[27,-23],[84,-38],[33,-1],[29,-26],[37,-5],[26,-20]],[[2052,8730],[-13,22],[-2,24],[-24,10],[-12,39],[-24,13],[4,30],[24,12],[1,18],[30,8],[2,24],[-17,44],[-3,40],[9,37],[0,33],[37,45],[8,29],[16,31],[-16,16],[-45,20],[-25,31],[-16,8],[43,32],[41,12],[30,17],[22,4],[24,47],[6,35],[39,31],[-9,41],[66,29],[6,14],[47,12],[25,41],[74,37],[21,15],[57,25],[43,-8],[19,13],[2,23],[-11,28],[15,4],[19,22],[-11,24],[35,26],[54,10],[22,9],[39,1],[24,13],[41,5],[47,20],[27,5],[27,30],[4,13],[29,11],[41,9],[51,3],[29,-5],[59,-3],[18,9],[44,-8],[29,-1],[32,8],[36,34],[38,-5],[23,4],[40,-3],[51,7],[19,10],[63,13],[27,11],[62,-3],[14,14],[28,-10],[18,2],[58,-14],[15,-25],[50,0],[12,14],[26,-1],[19,-14],[39,-10],[13,-14],[63,-9],[15,17],[38,0],[7,-14],[58,-36],[0,-17],[23,-13],[35,1],[20,-11],[12,-20],[32,5],[23,-26],[34,-24],[28,-7],[38,2],[61,18],[31,5],[56,-3],[52,8],[7,-30],[29,-43],[18,-15],[47,-15],[24,-16],[70,-74],[2,-16],[-18,-19],[27,-12],[42,-30],[18,-34],[-1,-21],[-15,-25],[21,-7],[22,13],[32,-29],[15,-5],[42,11],[68,1],[13,-12],[16,-55],[-12,-15],[18,-16],[8,-28],[-13,-20],[16,-33],[38,-3],[22,-17],[6,-24],[25,2],[29,-6],[8,-16],[25,-1],[7,-19],[20,-14],[-4,-30],[23,-10],[16,7],[38,-3],[-1,11],[44,4],[22,-8],[11,11],[-24,12],[2,10],[47,14],[30,5],[12,28],[34,10],[0,26],[19,7],[25,-15],[10,2],[17,23],[17,4],[15,19],[-8,14],[11,28],[41,21],[-2,14],[-61,3],[-12,23],[25,4],[24,-6],[20,30],[23,0],[41,27],[-2,29],[17,-3],[5,-18],[29,11],[1,14],[28,21],[-3,14],[23,25],[5,24],[26,-5],[16,16],[-6,17],[28,13],[32,6],[-14,21],[-14,6],[-16,-11],[-9,22],[37,0],[-4,30],[12,18],[26,13],[48,1],[4,22],[41,-2],[26,20],[16,-3],[9,-14],[31,15],[30,-10],[23,5],[30,23],[37,3],[1,21],[17,24],[28,4],[23,16],[25,-11],[20,1],[2,22],[17,-16],[24,-5],[24,11],[33,-14],[19,1],[13,12],[17,-1],[21,-17],[34,8],[29,-9],[10,17],[22,3],[25,-22],[-1,-17],[17,-12],[28,1],[-3,20],[24,4],[17,-18],[36,9],[21,21],[33,-2],[15,9],[20,-10],[3,-24],[31,3],[11,15],[10,-6],[18,20],[6,-30],[39,-1],[5,16],[29,-3],[5,6],[56,15],[-2,15],[21,9],[15,-25],[20,15],[43,-21],[6,13],[29,23],[11,-12],[-8,-18],[49,6],[-9,11],[15,9],[-10,16],[8,22],[17,4],[10,-23],[16,-10],[56,-17],[18,2],[27,25],[21,-16],[-2,-13],[21,-21],[18,-38],[35,6],[4,-13],[45,-24],[21,9],[52,4],[19,-12],[-13,-16],[23,-9],[24,12],[32,-26],[46,-26],[-11,-8],[-10,-33],[10,-15],[26,-17],[-1,-14],[19,-8],[-9,-24],[-13,-9],[-4,-19],[-30,-26],[-39,4],[-34,-15],[-18,3],[-20,-15],[25,-31],[10,-27],[36,-38],[11,-6],[27,-39],[37,-12],[40,-32]],[[7680,9309],[-16,-33],[-50,-27],[-52,-8],[-64,8],[-20,-7],[-5,-14],[-48,-15],[-16,-30],[-47,1],[-29,-11],[-53,9],[-38,-1],[-48,-11],[-24,3],[-45,-17],[-49,-4],[-5,-13],[-33,-19],[-9,-18],[-15,-8],[-51,1],[-32,15],[-26,-12],[-82,36],[-26,0],[-13,16],[-17,4],[-36,-7],[-88,-5],[-19,-16],[-54,-6],[-18,-14],[-31,-52],[-13,-11],[-34,13],[-42,4],[3,-20],[21,-20],[3,-32],[-35,-5],[-12,-8],[5,-52],[-60,-11],[-49,-16],[0,-17],[-70,-9],[-75,-22],[-27,-20],[-1,-12],[22,-25],[-12,-55],[-12,-16],[2,-16],[22,-33],[1,-20],[11,-41],[-9,-21],[-13,-8],[-35,-7],[-36,-14],[-26,-21],[-6,-25]],[[7680,9309],[24,15],[23,-3],[33,-36],[21,-32],[17,-12],[28,2],[16,-8],[14,-35],[28,-37],[11,-23],[43,-12],[62,-29],[48,-7],[13,-17],[81,-44],[3,-36],[36,-41],[-12,-52],[2,-8],[39,-28],[-10,-51],[13,-18],[6,-28],[24,-25],[43,-65],[-19,-33],[12,-61],[37,-31],[-20,-33],[6,-21],[-21,-33],[-20,-18],[-38,-20],[-13,-34],[-34,-57],[8,-33],[42,-18],[37,-31],[49,-8],[-50,-29],[-89,-48],[-65,-26]],[[8108,8145],[-65,-10],[-64,-18],[-90,-34],[-47,-6],[-50,2],[-55,-30],[-43,-9],[-59,21],[-36,-2],[-18,-17],[-43,-56],[-18,-8],[-89,12],[-29,-7],[-37,13],[-32,-2],[-25,7],[-61,4],[-10,-5],[-11,-36],[-15,-22],[-26,-23],[-16,-26],[-34,-27],[-64,-22],[-49,-30],[-61,-9],[-59,1],[-28,4],[-6,-25],[18,-26],[-4,-27],[-16,-23],[-7,-38],[10,-18],[-9,-28],[5,-7],[-96,-15]],[[6349,6998],[-10,-30],[37,-4],[26,-11],[-42,-37],[-21,-8],[-9,-24],[-79,22],[9,12],[-26,21],[-43,42],[-47,-3],[-62,6],[-16,-2],[36,-44],[47,-37],[2,-12],[33,-10],[26,-17],[14,-34],[-20,-30],[-15,-7],[-13,-22],[-17,-1],[-29,-12],[-36,-2],[-17,-46],[7,-15],[-40,-16],[-49,1],[-14,-12],[-36,-3],[-4,-31]],[[5941,6632],[-28,4],[-72,-27],[-52,-3],[-18,11],[-17,-7],[-5,-14],[-16,7],[-54,9],[-27,-9],[6,-22]],[[5658,6581],[-26,-4],[-24,4],[-26,20],[-23,10],[6,30],[-5,32],[-30,35],[-31,-1],[-5,17],[-19,16],[-2,32],[-17,0],[-10,22],[-12,-1],[-13,20],[-7,34],[-64,-3],[-50,-21],[-58,21],[-2,15],[-41,16],[6,9],[-19,24],[-20,-3],[-40,18]],[[5126,6923],[-28,26],[-4,12],[-24,10],[4,13],[-10,14],[-49,18],[-29,1],[-37,-5],[-41,8],[-16,13],[-66,-1],[-18,9],[-28,-2],[-66,22],[-25,-4],[-23,19],[-43,8],[-6,23],[-38,15],[-36,34],[-30,19],[-25,7],[-12,14],[12,38],[45,17],[24,30],[30,8],[63,26],[13,14],[32,7],[-2,15],[25,8],[48,25],[51,-6],[49,-24],[77,-19],[22,0],[72,24],[44,18]],[[6895,7126],[14,-6],[61,0],[86,10],[-5,48],[136,9],[7,-18],[37,-1],[1,8],[34,-2],[6,-16],[43,6],[20,13],[23,-31],[87,17],[17,-7]],[[7462,7156],[-11,-21],[37,-17],[46,0],[92,-30]],[[7626,7088],[-29,-20],[0,-25],[-12,-12],[-33,-10],[-38,-21],[-73,-20],[-92,-15],[-49,-13],[-154,-54],[-1,-119],[-35,-22],[-27,-2],[-52,17],[-27,14],[-29,-4],[78,-91],[-64,-36],[-29,-39],[24,-6],[14,-18],[11,-52],[27,6],[44,19],[26,2],[31,-5],[21,-26],[-10,-12],[-36,-10],[4,-28],[-35,-27],[10,-15],[24,-7],[114,-13],[33,0],[4,-24],[-14,-47],[-44,-40],[2,-75],[-10,-21],[-22,-10],[-51,-4]],[[7127,6203],[-45,25],[-52,-4],[-62,5],[-22,6],[-43,1],[-122,-20],[-18,-9],[-72,-16],[-20,6],[-77,5],[-51,-16],[-27,-15],[-18,-1],[-55,-25],[-78,16],[-28,18],[-33,8],[-33,-6],[-87,-5],[-68,-10],[-24,5],[-61,2]],[[6031,6173],[27,6],[12,12],[29,51],[-4,32],[33,50],[0,41],[5,31],[-11,55],[16,68],[18,13],[44,12],[34,0],[21,-12],[1,-35],[14,-12],[30,-7],[29,8],[3,26],[-15,11],[-17,36],[-21,8],[-37,-3],[-154,9],[-53,14],[-44,-4],[-33,21],[-17,28]],[[6031,6173],[-34,3],[-53,-11],[-123,-16],[-26,-7],[-91,-12],[-55,3],[-36,-17],[-13,9],[-35,-12],[-38,-41],[-21,-2],[-30,-24],[-50,-10],[-22,-13],[-29,-7],[-1,9],[-93,2],[-35,25]],[[5246,6052],[-10,32],[21,21],[-7,29],[14,13],[-5,14],[26,2],[41,12],[5,24],[43,-6],[22,23],[19,10],[63,24],[35,34],[57,47],[10,-4],[6,17],[7,87],[51,26],[4,8],[-15,21],[-67,36],[62,26],[25,-5],[27,2],[36,-16],[20,14],[1,12],[-20,11],[-59,15]],[[8108,8145],[-29,-38],[-28,-22],[-41,-17],[-61,-35],[-96,-48],[-67,-15],[-36,-12],[-61,-5],[-31,-9],[-11,-14],[6,-31],[-9,-20],[16,-32],[17,-52],[-17,-17],[20,-37],[97,-46],[-2,-11],[24,-12],[25,-40],[35,-13],[0,-26],[25,-20],[-12,-13],[-20,-35],[2,-22],[23,-5],[-32,-7],[-28,-24],[5,-7],[-28,-36],[-14,-5],[-10,-21],[-22,-5],[-27,-26],[-16,-4]],[[7705,7363],[-40,-20],[-31,-38],[-29,-12],[-31,-22],[-10,-17],[-28,-12],[12,-22],[-27,-12],[-48,-54],[-11,2]],[[5126,6923],[-59,-52],[-20,-4],[-45,-44],[-17,-10],[-48,-68],[-41,-3],[-4,-34],[18,-6],[-12,-28],[27,-7],[-26,-55],[-14,-10],[-40,12],[-40,3],[-15,6],[-5,-34],[-17,-31],[-40,10],[-13,-27],[0,-25],[-25,-72],[-4,-44],[85,5],[61,10],[-10,-47],[11,-10],[-9,-29],[-11,-3],[-2,-26],[-18,-37],[2,-38],[8,-3],[-3,-27],[13,-65],[59,17],[5,-24],[-7,-27]],[[4870,6096],[-139,-28],[1,-15],[-22,-7],[-52,-31],[-67,-31],[-52,-12],[-58,-8]],[[4481,5964],[-67,-8],[-61,-25],[-80,-10],[-59,-17],[-41,6],[-82,-1],[-13,9],[10,8],[-3,18],[-32,7],[-20,14],[-6,31]],[[4027,5996],[-26,13],[-66,48],[-8,20],[-34,12],[-40,-2],[-17,23],[10,17],[-10,10],[2,20],[-53,34],[-27,5],[6,9],[-11,23],[-38,-3],[-14,17],[-32,15],[-6,12],[8,17],[-7,26],[16,32],[-7,2],[13,33],[-30,29],[-12,-1],[-22,17],[-15,-1],[1,22],[-59,20],[-15,31],[-47,22],[11,13],[-39,65],[-52,7],[-9,17],[-36,24],[2,8],[-40,26],[-17,25],[1,35],[-16,8],[1,26],[-14,24],[-28,16],[-74,3],[-16,23],[-35,4],[-27,-8],[-35,-4],[-15,-36],[-33,-20],[-4,-15],[-52,-14]],[[2960,6745],[-35,31],[-40,19],[-9,17],[10,44],[13,28],[-8,12],[-33,8],[-29,25],[-41,8],[-18,8],[-6,24],[-24,5],[-18,18],[-23,9],[-35,1],[-13,10],[7,26],[20,33],[35,43],[-14,29],[4,11],[37,24],[1,7],[-64,18],[-3,10],[8,37],[-30,13],[-19,-1],[-11,-19],[-54,22],[-48,1],[0,10],[-33,5],[-5,-9],[-48,4],[-21,18],[-30,-12],[-4,15],[-29,3],[-9,-15],[-28,-5],[-3,-15],[-16,-14],[-38,16],[-41,4],[-22,-12],[-1,19],[-12,19],[-39,9],[-16,-10],[-38,-7],[-5,-17],[-30,1],[-18,-17],[-69,19],[-21,-21],[19,-15],[-17,2],[-16,-14],[-43,5],[0,-11],[18,-16],[-20,-2],[-2,-10],[-29,-19],[-91,-1],[-21,-14],[-18,0],[-22,12],[-31,-5],[-61,-19],[4,-11],[-38,-14],[-44,-8],[-20,-16],[-44,-14],[-20,-16],[-42,-7],[-72,14]],[[1334,7075],[-9,17],[0,36],[24,21],[18,36],[-11,20],[-24,13],[10,13],[-6,15],[12,15],[4,23],[28,28],[-17,23],[26,16],[55,-1],[45,10],[42,22],[24,9],[35,25],[-1,28],[-9,15],[-72,74],[-1,34],[-25,34],[12,48],[20,9],[-5,11],[17,21],[4,17],[17,20],[-23,16],[-41,11],[-11,28],[-42,2],[-31,-10],[-54,6],[-27,11],[-30,1],[-6,19],[-21,15],[37,32],[-12,15],[3,30],[36,39],[23,9],[4,22],[28,10],[-7,13],[-31,7],[-10,20],[5,35],[29,17],[3,21],[53,38],[104,-1],[59,5],[30,-5],[12,-20],[0,-34],[45,-12],[14,-17],[32,-11],[59,-2]],[[5246,6052],[-78,35],[-6,6]],[[5162,6093],[-80,55],[-51,-7],[-102,-36],[-59,-9]],[[7102,4265],[22,-30],[-11,-31],[-90,1],[-41,-17],[9,-12],[7,-34],[-19,-16],[-1,-13],[-25,-17],[-30,-5],[-33,5],[-24,-15],[-45,3],[-36,-12]],[[6785,4072],[-31,26],[-37,25],[-41,11],[-19,-9],[-18,17],[-38,-9]],[[6601,4133],[-18,21],[-25,8],[-1,18],[-42,19]],[[6515,4199],[21,16],[40,11],[31,-11],[21,4],[15,20],[29,9]],[[6672,4248],[50,4],[55,21],[53,-21],[16,1],[14,13],[13,27],[1,35]],[[6874,4328],[25,-4],[21,-11],[45,-2],[20,-13],[62,-16],[25,-14],[28,7],[2,-10]],[[7102,4265],[27,-6],[52,9],[32,-4],[57,-17],[54,6],[43,-1],[4,16],[44,4],[51,14],[21,-2],[6,-23],[75,2],[63,-2],[3,6],[45,-1],[87,-7],[67,3],[26,12],[63,-15],[55,-3],[15,-5]],[[7992,4251],[2,-11],[24,-15],[23,-4],[-2,-27],[-27,-10],[-11,-32],[19,-15],[19,-1],[-4,-22],[29,-23],[23,-11],[4,-57],[-14,-19],[11,-17],[-10,-16],[28,-33],[-2,-18],[-17,-16],[30,-6],[2,-10],[-25,-11],[-7,-29]],[[8087,3848],[-50,-17],[-22,-21],[-33,4],[-15,-25],[-81,16],[-65,22],[-90,28],[-5,7],[-47,11],[-53,-8],[-17,27],[-31,2],[0,20],[-49,6],[-54,15],[-36,-6],[-13,9],[-28,3],[1,9],[-84,-9],[-47,-1],[-24,-28],[-29,8],[-67,-39],[-24,12],[1,8],[-26,14],[-51,44],[-15,19],[-53,18],[0,9],[-36,11],[-30,-6],[-22,6],[-21,-9],[-46,8],[-82,6],[1,8],[30,37],[11,6]],[[6874,4328],[-9,11],[-53,21],[-1,24],[-25,26],[0,13],[46,41],[1,14],[-33,42],[-32,7],[-11,12],[15,17]],[[6772,4556],[27,-4],[20,-17],[25,-5],[18,5]],[[6862,4535],[12,-13],[27,0],[21,-8],[12,-14],[36,-8],[22,9],[41,6],[44,-22],[4,-12],[33,-4],[48,31],[39,-15],[16,16],[0,28],[14,42],[20,10]],[[7251,4581],[8,-2],[4,-43],[19,-21],[51,-18],[7,-6],[92,-7],[35,8],[55,-41],[47,-3],[50,-37],[21,-9],[15,7],[62,-5],[16,10],[31,-5],[30,17],[63,-26],[19,0],[-1,-12],[17,-12],[43,4],[3,-15],[33,-13],[22,0],[2,-39],[7,-21],[35,2],[2,-6]],[[8039,4288],[-7,-13],[-27,-1],[-13,-23]],[[6515,4199],[-9,-17],[4,-56],[-16,-10],[1,-11],[-151,24],[-59,7],[2,11],[-69,2],[-4,6],[-42,7],[-4,-3],[-50,9],[-31,10],[8,33],[-11,9],[-70,-7]],[[6014,4213],[8,21]],[[6022,4234],[74,21],[5,31],[-16,1],[0,19]],[[6085,4306],[18,12],[10,30],[32,-6],[40,14],[68,4],[-3,-6],[31,-9],[8,-20],[38,-1],[39,-18],[35,-3],[11,19],[-8,12],[5,23],[28,15],[4,22],[70,-7],[138,-35],[20,3],[14,-21],[-13,-29],[-23,-17],[26,-8],[-1,-32]],[[6601,4133],[11,-9],[-9,-43],[15,-8],[-6,-13],[16,-4],[-16,-24],[0,-20],[24,-25]],[[6636,3987],[-93,-1],[-13,-18],[-25,3],[-29,-3],[-38,-16],[-40,-23],[-3,-29],[-42,-5],[-25,3],[-31,-16],[-32,-1],[-41,12],[-37,-2],[-5,-12],[-13,6],[-17,-13],[-18,4],[3,11],[-23,11],[-43,-15],[-15,14]],[[6056,3897],[34,6],[-14,15],[-26,1],[-23,20],[13,14],[-7,15],[-33,-13],[-2,18],[-29,-6],[8,13],[-10,32],[-14,6],[-28,-2],[-6,16],[-16,10],[-23,-8],[-13,29],[-15,-10],[-15,8],[-62,-16],[1,12],[-20,6],[3,22],[13,15],[18,3],[5,13],[60,34],[14,18],[51,7],[17,11],[28,2],[11,-32],[40,-2],[31,12],[-27,14],[7,13],[-13,20]],[[1837,4912],[94,31],[75,-13],[26,-1],[83,17],[35,-2],[27,7],[3,-11],[29,-10],[38,-4],[13,-20],[43,-24],[33,18],[94,39],[26,14],[36,32],[43,31],[14,17],[9,26],[17,16],[91,-5],[126,27]],[[2792,5097],[193,52],[47,25],[38,5],[41,-10],[23,-25],[20,-7],[79,-9],[18,-13],[14,-22],[10,2]],[[3275,5095],[-15,-14],[11,-16],[-4,-22],[22,-15],[-8,-15],[-30,-7],[-9,-13],[-41,-11],[9,-12],[-12,-8],[-6,-27],[-50,-14],[-1,-7],[33,-10],[60,2],[10,-14],[38,-8],[53,-31],[-2,-8],[28,-7],[20,-12],[43,9],[15,-3],[28,22],[45,11],[5,5],[30,-5],[35,-16],[42,2],[8,-10],[27,-1],[16,-9],[17,7],[55,-12],[49,2],[2,4],[44,4],[39,-13],[41,-41],[38,-2],[18,-10],[33,-2],[42,-22],[27,-2],[7,-15],[-6,-20],[9,-17],[27,-14],[35,-3],[38,-27],[11,3],[35,-17],[12,7],[43,-4],[33,-9],[35,3],[19,-16],[15,2],[38,-24],[42,-3],[20,-10],[-4,-17],[33,-5],[11,-15],[-117,-25],[-50,-13],[-93,-18],[-85,-6],[-80,15],[-26,-2],[-35,-10],[-8,-10],[-66,-10],[0,-9],[-21,-5],[-11,6],[-45,-12],[0,-21],[-24,-7],[4,-12],[-5,-40],[26,-5],[45,4],[7,-11],[44,2],[-6,-31],[61,-6],[42,5],[9,16],[71,-8],[72,8],[56,-2],[30,2],[31,-4],[92,-5],[52,-10],[104,-12],[38,-9],[59,-4],[-1,-15],[-76,3],[3,-23],[-5,-42],[4,-24],[-59,4],[-45,-2],[-1,-10],[-52,-8],[-2,-38],[29,2],[21,-83],[31,0],[2,-8],[66,1],[43,8],[0,5],[88,9],[31,11],[27,3],[6,-69]],[[6955,3482],[-63,11],[-21,-1],[-19,-14],[-12,12],[-64,-18],[-68,-3],[8,27],[-22,4],[1,17],[26,-1],[45,28],[28,0],[5,12],[-20,10],[-16,23],[-38,-4],[-9,12],[17,14],[-27,10],[7,20],[-2,18],[-18,11],[-31,6],[-26,-2],[-28,-17],[-23,8],[10,21],[-21,4],[-1,25],[-10,1]],[[6563,3716],[4,32],[-35,6],[5,45],[10,3],[5,21],[-21,3],[15,31],[73,-11],[22,7],[15,28],[34,14],[8,18],[-8,17],[-19,5],[-2,30],[-33,22]],[[8087,3848],[3,-17],[25,-35],[-2,-19],[26,-13],[13,-21],[23,-5],[36,-25],[51,-14],[2,-17],[22,-5],[44,7],[23,-19],[20,9],[14,-4],[-15,-18],[23,-17],[-6,-15],[17,-10],[0,-17],[-11,-3],[-15,-24],[15,-15],[4,-27],[-5,-12]],[[6085,4306],[-23,12],[-30,4],[-1,37],[-16,9],[-33,6],[-1,14],[-29,11],[-3,10],[20,-2],[25,12],[42,-5],[15,25],[26,24],[11,33],[-19,4],[3,34],[23,0],[5,47],[-6,5],[11,32]],[[6105,4618],[30,-15],[51,-3],[61,-19],[73,-11],[6,-15],[42,7],[26,-3],[42,-12],[103,-6],[23,-12],[55,9],[12,23],[31,19],[28,-6],[25,3],[57,-16],[2,-5]],[[6056,3897],[-11,-12],[11,-23],[-11,-6],[-16,11],[-8,25],[-49,7],[-30,12],[-21,-9],[-4,18],[-11,-10],[-32,8],[-7,18],[-22,0],[-10,11],[-40,-3],[-23,10],[22,22],[-22,55],[-16,0],[-24,26],[-26,4],[-16,-10],[3,-16],[-32,-8]],[[5661,4027],[-37,8],[-36,22],[-62,17],[-23,15],[-15,-1],[-25,19],[25,48],[-46,22],[9,-20],[-20,0],[-30,13],[-60,-2],[-2,24],[-27,13],[5,16],[-13,1],[8,26],[-23,12],[8,9],[-2,23],[24,21],[4,20],[25,23],[-18,14],[2,12],[-25,-5],[-13,17],[4,9],[-21,6],[-6,17],[11,13],[-9,22],[-14,10],[3,16],[-10,31],[-13,12]],[[5239,4530],[1,7],[75,-8],[28,11],[51,1],[43,15],[26,-1]],[[5463,4555],[11,-13],[-3,-14],[52,-12],[7,-13],[34,-3],[0,-33],[39,-5],[-3,-17],[37,0],[31,-18],[4,-18],[45,-5],[17,5],[27,-38],[32,-3],[38,-13],[-4,-15],[20,-16],[-3,-20],[13,-22],[17,-5],[21,7],[-4,-21],[15,-14],[67,-2],[49,-13]],[[6164,3517],[-17,31],[-19,15],[-7,51],[19,15],[-11,23],[97,-11],[53,7],[-1,22],[17,71],[-6,16],[33,0],[-5,-20],[50,-6],[17,15],[18,-9],[161,-21]],[[5463,4555],[-14,35],[-2,24],[-15,3],[-32,38]],[[5400,4655],[154,42],[72,16],[121,21],[54,-3],[40,-15],[17,-19],[57,-34],[99,-42],[62,-9],[29,6]],[[5374,3872],[22,3],[3,14],[57,8],[5,18],[17,2],[-10,20],[4,14],[35,19],[34,3],[5,-7],[26,3],[6,13],[43,1],[2,13],[38,31]],[[3275,5095],[66,7],[32,-3],[19,17],[18,3],[-16,10],[39,21],[19,1],[2,36],[11,-3],[6,23],[-11,11],[3,27],[11,17],[26,-2],[31,7],[10,11]],[[3541,5278],[13,-5],[20,14],[37,10],[9,11],[27,-1],[42,25],[27,5],[46,28]],[[3762,5365],[16,-27],[58,-36],[1,-35],[34,-27],[58,-3],[5,-34],[30,1],[11,-17],[116,-47],[19,9],[30,-16],[32,3],[32,-22],[28,0],[45,-22],[26,-27],[31,-2],[5,9],[26,-11],[-3,-25],[14,-2],[0,-23],[22,-30],[-4,-11],[23,1],[14,-14],[0,-21]],[[4431,4936],[24,-17],[-17,-33],[-15,-3],[-3,-15],[41,-46],[-23,-10],[7,-46],[18,-14],[1,-30],[17,-26],[18,-3],[-1,-18],[25,-24],[27,3],[14,15],[37,-6],[14,-22],[60,-8],[81,-27],[36,-23],[34,-13],[110,-12],[29,-13],[85,-15],[58,-8],[44,0],[87,8]],[[6482,5434],[-87,5],[-106,51],[6,7],[-2,31],[50,5],[45,8],[47,69]],[[6435,5610],[64,51],[-6,48],[39,4]],[[6532,5713],[112,12],[6,-26],[-1,-27],[-15,-32],[-14,-149],[-5,-20],[10,-18],[-123,-20],[-20,1]],[[6532,5713],[16,27],[-8,14],[-24,18],[-4,24],[-12,7],[-43,8]],[[6457,5811],[0,28],[-18,12],[25,29],[2,17],[38,18],[4,-3],[47,12],[11,15],[39,11],[76,41],[43,35],[17,5],[47,2],[88,11],[30,-14],[33,1],[20,-13],[62,-1],[22,12],[45,34],[37,18],[41,34],[12,4]],[[7178,6119],[5,-9],[-9,-33],[-23,-46],[-25,-7],[-17,-13],[11,-24],[-12,-19],[27,-12],[74,-6],[-33,-132],[-4,-39],[20,-22],[20,-63],[-4,-26],[23,-6],[12,-24],[16,-54],[23,-2],[55,13],[36,2],[4,-13],[21,-16],[40,-3],[5,-13],[44,-13]],[[7487,5539],[-2,-30]],[[7485,5509],[-6,-104],[24,-1],[73,11],[28,-2],[81,10],[28,-131],[-44,-6],[-5,-20],[-13,-10]],[[7651,5256],[-17,-13],[-223,-28],[-52,29],[-45,5],[-16,32],[-36,9],[-51,-9],[-49,1],[4,38],[-36,2],[3,11],[-51,5],[-71,24],[-50,1],[-8,17],[-87,-5],[-55,1],[-85,-7],[-12,29],[-95,-20],[-5,5],[-27,-10],[-47,-3],[-32,9],[-22,15]],[[6486,5394],[-8,16],[4,24]],[[6955,5006],[-9,1],[-39,-34],[-22,-28],[4,-8],[55,-8],[30,-18],[40,-5],[17,-17]],[[7031,4889],[-117,-77],[-37,-18],[-41,-10],[-30,-21],[-54,8],[-7,-8]],[[6745,4763],[-41,-27],[-253,-2],[-6,14],[-31,-8],[-15,16]],[[6399,4756],[-30,4],[-14,9],[-39,-23],[-70,67],[-29,-8],[-6,13],[-20,4],[-3,38],[-10,1],[10,51],[-25,5],[-6,29],[6,25],[18,35],[-13,8],[7,24],[8,2]],[[6183,5040],[9,-4],[70,-7],[57,15],[59,22],[53,30],[23,5],[68,6],[17,-11],[20,15],[51,11],[98,17],[172,-76],[87,-35],[-12,-22]],[[6435,5610],[-51,15],[-34,15],[-23,17],[-60,16],[-39,-4],[-30,7],[-44,-4],[-62,5],[-41,14],[-41,-3],[-34,2]],[[5976,5690],[-2,19],[-20,40],[0,27],[-11,26],[23,21],[45,-12],[15,31],[32,3],[29,27],[25,-3],[1,-12],[28,-18],[34,-9],[11,14],[-8,18],[19,45],[22,9],[34,-29],[51,-5],[-4,-22],[12,-22],[24,-18],[33,-5],[34,7],[39,-2],[15,-9]],[[6486,5394],[-35,-7],[-58,-3],[-54,-30],[-29,-7],[-67,-8],[-32,-12],[-37,-3],[-34,-17],[-30,-3],[12,-25],[-49,-18],[-2,7],[-64,-16],[-37,-2]],[[5970,5250],[-24,-5],[-10,16],[-19,4]],[[5917,5265],[8,18],[-2,20],[-20,15],[-30,7],[-4,14],[31,-5],[25,9],[8,34],[-30,5],[-2,9],[35,27],[42,13],[5,15],[-12,22],[13,20],[-37,0],[-3,8],[63,8],[-26,78],[-12,48],[7,60]],[[7651,5256],[31,-14],[-13,-14],[27,-23],[0,-15],[-23,-19],[13,-30],[19,-14],[62,-4],[59,19],[51,-5],[7,-17],[-33,-8]],[[7851,5112],[-341,-81],[-12,22],[-41,7],[-49,0],[-25,4],[-40,-13],[-55,6],[-25,54],[-3,21],[-91,-26],[-12,-10],[-37,-16],[-53,-8],[-20,-11],[-33,-35],[-41,-18],[-18,-2]],[[6183,5040],[-30,2],[-85,12],[2,22],[-38,-1],[-12,-7],[-65,-13],[-54,10],[31,9],[96,47],[16,12],[-30,31],[5,10],[-28,5],[12,27],[-16,8],[-17,36]],[[5917,5265],[-33,-2],[-1,-7],[-47,3],[2,-40],[-24,-9],[-11,-13],[-53,-7],[-36,0],[-29,-8],[-57,2],[-7,-9],[-51,9],[-44,-7],[-537,110],[-15,-28]],[[4974,5259],[-39,5],[-28,9],[-26,20],[-1,21],[36,50],[6,25],[-53,-1],[-1,14],[-68,-4],[-37,3]],[[4763,5401],[22,48],[45,67],[34,37],[25,35],[37,94],[51,112]],[[4977,5794],[53,7],[48,0],[73,-19],[30,3],[56,-6],[22,2],[29,23],[78,20],[76,-22],[19,-13],[37,-14],[71,11],[62,0],[-49,-22],[-4,-16],[16,-12],[49,2],[42,25],[13,-9],[-17,-37],[26,-8],[46,27],[33,3],[14,-14],[-22,-32],[16,-11],[47,22],[15,-2],[18,-20],[40,1],[36,14],[26,-7]],[[7626,7088],[12,-13],[21,-7],[42,-2],[47,2],[38,6],[76,28],[-36,-98],[19,-2],[-8,-96],[-35,-66],[-43,-105],[-23,-46],[98,-35]],[[7834,6654],[-12,-12],[16,-34],[-15,-29],[-28,-17],[-11,-16],[-18,-9],[-37,8],[-6,-7],[12,-42],[-10,-15],[-2,-23],[30,-17],[25,1],[23,-12],[32,-7],[27,13],[30,-7],[8,-16],[19,-13],[24,2],[22,-27],[30,-2],[30,-10],[11,-22],[17,-12],[32,-3],[59,-21],[0,-23],[11,-21]],[[8153,6261],[10,-10],[7,-58],[-4,-35],[-28,-27],[-21,-4],[-10,-26],[-45,3],[-12,-22],[-21,-17],[-21,0],[-15,-24],[42,-51],[-5,-15],[9,-18],[-7,-16],[23,-14],[-1,-26],[49,-20],[-21,-13],[-11,-22],[12,-9],[-26,-28],[-32,-3],[14,-27]],[[8039,5779],[-138,-20],[-404,-28],[-10,-192]],[[7178,6119],[3,36],[-28,-2],[-2,19],[-24,31]],[[6862,4535],[19,10],[31,31],[8,56],[-10,15],[-53,1],[-11,11],[10,26],[-13,45],[-17,18],[-30,10],[-51,5]],[[7031,4889],[10,-8],[2,-47],[37,-32],[38,5],[42,-32],[21,-52],[24,8],[9,-19],[55,15],[9,-3],[-1,-21],[-9,-16],[18,-15],[4,-13],[-34,-54],[-5,-24]],[[6105,4618],[35,6],[56,1],[19,5],[4,12],[34,-3],[1,16],[25,5],[77,44],[0,16],[43,36]],[[7851,5112],[66,-126],[42,2],[71,19],[1,-6],[77,-6],[29,5]],[[8137,5000],[-6,-24],[-40,-13],[-49,-34],[-3,-22],[22,-7],[20,6],[106,5],[76,-3],[7,-8],[-15,-18],[-71,-30],[-57,-20],[-29,-4],[-22,-11],[6,-15],[37,-8],[35,-16],[69,-20],[41,-27],[50,-22],[42,-12],[22,-19],[-46,-28],[-52,9],[-42,-19],[13,-18],[34,-4],[4,-26],[-14,-19],[-8,-34],[8,-12],[26,-17],[18,5],[7,-11],[47,-23],[-4,-15],[24,-14],[-5,-37],[-1,-41],[-20,-35],[-3,-20],[-19,-6],[-6,-14],[-23,-6],[-10,-23],[-17,-9],[-27,-25],[-40,19],[-11,11],[-26,5],[-61,-1],[-61,23],[-24,-5]],[[4977,5794],[53,113],[8,0],[29,68],[41,61],[54,57]],[[4431,4936],[20,13],[74,26],[114,-4],[58,3],[-4,30],[-23,-1],[-6,11],[5,30],[-15,4],[12,16],[-24,1],[12,22],[32,-7],[5,26],[-14,9],[-3,18],[-27,18],[17,9],[-12,21],[-17,-3],[-21,6],[68,114],[27,42],[43,45],[11,16]],[[4974,5259],[5,-33],[9,-19],[17,-10],[-11,-6],[23,-74],[-3,-33],[-23,-43],[-29,-23],[-8,-17],[28,-4],[13,16],[34,23],[58,-6],[41,0],[50,-12],[57,-2],[44,2],[36,-12],[4,-24],[-14,-5],[-20,-29],[33,-22],[18,-2],[13,-21],[19,3],[9,-31],[-8,-11],[17,-10],[-4,-11],[-23,1],[-7,-19],[-14,-5],[-2,-15],[18,-10],[25,3],[8,-8],[-18,-27],[21,-6],[-14,-14],[24,-4],[-17,-30],[26,-1],[-9,-28],[8,-4],[-8,-21]],[[8153,6261],[50,8],[68,5],[17,11],[44,9],[37,2],[28,-8],[31,20],[63,-2]],[[8491,6306],[31,-16],[16,-28],[15,-12],[32,-12],[34,-3],[29,-8],[14,-12],[23,-40],[21,-13],[14,-28],[-2,-30],[-33,-35],[-43,-24],[-30,-4],[-12,-18],[67,-14],[7,-7],[-11,-29],[36,-14],[2,-17],[-61,-23],[-28,-24],[48,-50]],[[8660,5845],[-253,-38],[-13,17],[-36,-5],[-3,7],[-316,-47]],[[7705,7363],[41,-11],[-15,-17],[8,-18],[43,-25],[120,-37],[59,-27],[91,-34],[23,-1],[28,-16],[0,-25],[43,-7],[32,-30],[25,-8],[24,25],[17,8],[28,-14],[20,-18],[-5,-26],[49,-7],[24,-10],[13,-22],[2,-47],[-18,-36],[1,-17],[13,-7],[51,-11],[28,-25],[41,-18],[44,11],[49,-8],[42,-39],[9,-39]],[[8635,6807],[-37,4],[-42,-18],[-6,-15],[-20,-12],[-10,-17],[-19,4],[-2,-32],[-22,-18],[9,-18],[40,4],[-10,-35],[9,-23],[14,0],[4,-27],[-8,-10],[-67,-6],[-16,5],[-16,-20],[-1,-38],[-77,7],[-13,10],[-67,-1],[1,-23],[-103,30],[-95,18],[-81,18],[-49,16],[-117,44]],[[8635,6807],[43,-10],[21,3],[65,-1],[4,5],[70,10],[13,-2],[29,-29],[48,-20],[35,-32],[11,-35],[12,-14],[-12,-20],[-9,-32],[18,-16],[-42,-42],[2,-15],[-50,-20],[-30,-29],[-33,-12],[-5,-31],[-10,-6],[-83,4],[-51,-2],[-46,-6],[-19,-11],[-53,0],[-12,-6],[0,-19],[-21,-34],[-14,-13],[-28,-1],[-4,-16],[35,-16],[0,-10],[-24,-12],[-4,-11]],[[8660,5845],[-8,-26],[10,-10],[39,-8],[40,-60],[19,-10],[24,-1],[22,12],[35,-17],[0,-10],[-38,-23],[-5,-10],[-33,-2],[-49,16],[-32,-4],[-52,1],[-4,-23],[-55,-6],[-29,-10],[-3,-18],[16,-23],[-27,-32],[0,-16],[-13,-32]],[[8517,5533],[-159,-23],[-19,-2],[-27,-75],[-300,-41],[-12,47],[-17,-2],[-38,92],[-8,-5],[-51,-3],[-26,-6],[-307,4],[-68,-10]],[[8517,5533],[16,-23],[2,-37],[33,-42],[31,-10],[22,-18],[18,-1],[17,-15],[-64,-9],[0,-14],[-22,-35],[-18,-9],[-96,-7],[-114,-3],[-28,-3],[-42,-17],[-61,-34],[4,-13],[71,-17],[7,-17],[-41,-36],[-26,-9],[-42,11],[-26,1],[11,-15],[-14,-16],[16,-47],[-6,-12],[-26,-14],[-16,-32],[14,-40]],[[3762,5365],[10,-7],[78,10],[32,11],[28,16],[-4,13],[25,18],[17,-1]],[[3948,5425],[20,26],[26,10],[41,38],[30,17],[35,-1],[23,-9],[13,-31],[25,-24],[5,-13],[27,-3],[19,11],[22,2],[12,20],[-5,30],[33,-20],[29,-10],[13,-15],[49,12],[31,-10],[28,19],[29,-2],[11,16],[-49,8],[-2,16],[22,-4],[-37,34],[-41,10],[-10,16],[90,3],[-3,32],[58,-1],[20,17],[-12,15],[-30,0],[-11,8],[13,13],[-42,15],[36,199],[-2,16],[11,6],[6,73]],[[4027,5996],[-83,-121],[-1,-24],[-22,1],[-14,-22],[-21,-3],[-20,-39],[9,-24],[-14,4],[-6,-30],[-9,-14],[-66,-28],[-35,12],[-25,-16],[-32,-11],[56,-14],[1,-14],[22,-11],[13,-27],[13,-3],[23,11],[25,19],[35,-8],[29,-16],[32,1],[-11,-112],[13,-18],[5,-26],[-12,-18],[16,-20]],[[3541,5278],[-17,29],[-11,74],[-6,17],[1,28],[-11,30],[-4,70],[-6,19],[-38,42],[6,18],[-12,19],[-12,51],[-22,19],[4,29],[30,-5],[2,15],[-32,9],[-17,42],[-13,1],[-8,29],[-15,12],[-17,1],[-8,23],[-23,22],[12,30],[-24,20],[-6,41],[-19,0],[-28,17],[-6,35],[-13,0],[-20,25],[-22,4],[-33,-6],[-7,23],[-18,7],[1,18],[-40,12],[-22,12]],[[3067,6110],[-14,38],[-31,43],[-8,37],[-34,43],[-9,24],[-12,66],[0,19],[9,74],[-2,10],[-26,21],[-53,21],[-12,15],[-1,61],[11,32],[20,24],[60,49],[-9,30],[4,28]],[[2792,5097],[-7,12],[-7,39],[-40,25],[-8,27],[-39,56],[-6,55],[2,127],[-3,24],[74,49],[27,3],[18,26],[97,0],[15,22],[-8,20],[17,6],[24,-4],[22,42],[-5,37],[9,41],[-8,61],[-14,32],[12,18],[-5,30],[3,36],[44,65],[32,-9],[38,-3],[36,43],[-41,6],[5,14],[38,42],[-41,8],[12,24],[-18,39]],[[1790,5020],[-4,29],[10,10],[-12,73],[-17,5],[-10,20],[6,47],[-20,30],[-3,25],[11,39],[-3,29],[-10,27],[7,39],[29,11],[20,33],[-7,18],[22,19],[-18,28],[23,22],[32,-26],[44,26],[12,24],[34,18],[30,23],[39,18],[11,20],[47,22],[10,22],[-16,47],[1,56],[-20,24],[-13,29],[-10,77],[-34,21],[10,38],[-6,36],[-10,16],[-21,10],[-35,1],[-82,7],[-36,-5],[-7,21],[-17,15],[-67,28],[-15,30],[-38,8],[-2,26],[-26,44],[-8,3],[-116,-3],[-22,15],[-33,93],[-13,71],[32,24],[6,38],[18,20],[33,9],[64,8],[14,12],[10,29],[1,54],[-8,21],[-18,3],[-46,-6],[-33,13],[-50,44],[-33,22],[-29,4],[-37,-5],[-12,17],[-16,7],[-18,28],[-31,10],[-4,11],[46,57],[-6,10],[-39,9],[-33,28],[-62,46],[-9,11],[0,28],[14,37],[42,20],[65,3],[3,23],[40,45],[-7,16]]],"transform":{"scale":[0.00007996299959996026,0.0001138929957995814],"translate":[99.31224060700004,16.682764208000037]},"objects":{"Sukhothai":{"type":"GeometryCollection","geometries":[{"arcs":[[0,1,2,3]],"type":"Polygon","properties":{"Shape_Leng":0.10815765126,"Shape_Area":0.000372445825156,"ADM3_EN":"Thani","ADM3_TH":"ธานี","ADM3_PCODE":"TH640101","ADM2_EN":"Mueang Sukhothai","ADM2_TH":"เมืองสุโขทัย","ADM2_PCODE":"TH6401","ADM1_EN":"Sukhothai","ADM1_TH":"สุโขทัย","ADM1_PCODE":"TH64","ADM0_EN":"Thailand","ADM0_TH":"ประเทศไทย","ADM0_PCODE":"TH"}},{"arcs":[[4,5,6,7,8,9]],"type":"Polygon","properties":{"Shape_Leng":0.392854184529,"Shape_Area":0.00593198756329,"ADM3_EN":"Ban Suan","ADM3_TH":"บ้านสวน","ADM3_PCODE":"TH640102","ADM2_EN":"Mueang Sukhothai","ADM2_TH":"เมืองสุโขทัย","ADM2_PCODE":"TH6401","ADM1_EN":"Sukhothai","ADM1_TH":"สุโขทัย","ADM1_PCODE":"TH64","ADM0_EN":"Thailand","ADM0_TH":"ประเทศไทย","ADM0_PCODE":"TH"}},{"arcs":[[10,11,12,13]],"type":"Polygon","properties":{"Shape_Leng":0.516862665725,"Shape_Area":0.0126065476852,"ADM3_EN":"Mueang Kao","ADM3_TH":"เมืองเก่า","ADM3_PCODE":"TH640103","ADM2_EN":"Mueang Sukhothai","ADM2_TH":"เมืองสุโขทัย","ADM2_PCODE":"TH6401","ADM1_EN":"Sukhothai","ADM1_TH":"สุโขทัย","ADM1_PCODE":"TH64","ADM0_EN":"Thailand","ADM0_TH":"ประเทศไทย","ADM0_PCODE":"TH"}},{"arcs":[[-4,14,15,16,-8,17]],"type":"Polygon","properties":{"Shape_Leng":0.25779710641,"Shape_Area":0.00159333098679,"ADM3_EN":"Pak Khwae","ADM3_TH":"ปากแคว","ADM3_PCODE":"TH640104","ADM2_EN":"Mueang Sukhothai","ADM2_TH":"เมืองสุโขทัย","ADM2_PCODE":"TH6401","ADM1_EN":"Sukhothai","ADM1_TH":"สุโขทัย","ADM1_PCODE":"TH64","ADM0_EN":"Thailand","ADM0_TH":"ประเทศไทย","ADM0_PCODE":"TH"}},{"arcs":[[-2,18,19,20,21]],"type":"Polygon","properties":{"Shape_Leng":0.273109625731,"Shape_Area":0.00220972344594,"ADM3_EN":"Yang Sai","ADM3_TH":"ยางซ้าย","ADM3_PCODE":"TH640105","ADM2_EN":"Mueang Sukhothai","ADM2_TH":"เมืองสุโขทัย","ADM2_PCODE":"TH6401","ADM1_EN":"Sukhothai","ADM1_TH":"สุโขทัย","ADM1_PCODE":"TH64","ADM0_EN":"Thailand","ADM0_TH":"ประเทศไทย","ADM0_PCODE":"TH"}},{"arcs":[[-3,-22,22,-11,23,24,25,-15]],"type":"Polygon","properties":{"Shape_Leng":0.491574919603,"Shape_Area":0.00850333109396,"ADM3_EN":"Ban Kluai","ADM3_TH":"บ้านกล้วย","ADM3_PCODE":"TH640106","ADM2_EN":"Mueang Sukhothai","ADM2_TH":"เมืองสุโขทัย","ADM2_PCODE":"TH6401","ADM1_EN":"Sukhothai","ADM1_TH":"สุโขทัย","ADM1_PCODE":"TH64","ADM0_EN":"Thailand","ADM0_TH":"ประเทศไทย","ADM0_PCODE":"TH"}},{"arcs":[[-1,-18,-7,26,27,28,-19]],"type":"Polygon","properties":{"Shape_Leng":0.353848031422,"Shape_Area":0.00391993192388,"ADM3_EN":"Ban Lum","ADM3_TH":"บ้านหลุม","ADM3_PCODE":"TH640107","ADM2_EN":"Mueang Sukhothai","ADM2_TH":"เมืองสุโขทัย","ADM2_PCODE":"TH6401","ADM1_EN":"Sukhothai","ADM1_TH":"สุโขทัย","ADM1_PCODE":"TH64","ADM0_EN":"Thailand","ADM0_TH":"ประเทศไทย","ADM0_PCODE":"TH"}},{"arcs":[[-9,-17,29,30]],"type":"Polygon","properties":{"Shape_Leng":0.261589628201,"Shape_Area":0.00230079850268,"ADM3_EN":"Tan Tia","ADM3_TH":"ตาลเตี้ย","ADM3_PCODE":"TH640108","ADM2_EN":"Mueang Sukhothai","ADM2_TH":"เมืองสุโขทัย","ADM2_PCODE":"TH6401","ADM1_EN":"Sukhothai","ADM1_TH":"สุโขทัย","ADM1_PCODE":"TH64","ADM0_EN":"Thailand","ADM0_TH":"ประเทศไทย","ADM0_PCODE":"TH"}},{"arcs":[[-20,-29,31,32,33]],"type":"Polygon","properties":{"Shape_Leng":0.261388682089,"Shape_Area":0.00340897120533,"ADM3_EN":"Pak Phra","ADM3_TH":"ปากพระ","ADM3_PCODE":"TH640109","ADM2_EN":"Mueang Sukhothai","ADM2_TH":"เมืองสุโขทัย","ADM2_PCODE":"TH6401","ADM1_EN":"Sukhothai","ADM1_TH":"สุโขทัย","ADM1_PCODE":"TH64","ADM0_EN":"Thailand","ADM0_TH":"ประเทศไทย","ADM0_PCODE":"TH"}},{"arcs":[[-14,34,35,36,37,-24]],"type":"Polygon","properties":{"Shape_Leng":0.415902418931,"Shape_Area":0.0065016278042,"ADM3_EN":"Wang Thong Daeng","ADM3_TH":"วังทองแดง","ADM3_PCODE":"TH640110","ADM2_EN":"Mueang Sukhothai","ADM2_TH":"เมืองสุโขทัย","ADM2_PCODE":"TH6401","ADM1_EN":"Sukhothai","ADM1_TH":"สุโขทัย","ADM1_PCODE":"TH64","ADM0_EN":"Thailand","ADM0_TH":"ประเทศไทย","ADM0_PCODE":"TH"}},{"arcs":[[38,39,40,41,42,43,44]],"type":"Polygon","properties":{"Shape_Leng":0.728501436903,"Shape_Area":0.0120515257765,"ADM3_EN":"Lan Hoi","ADM3_TH":"ลานหอย","ADM3_PCODE":"TH640201","ADM2_EN":"Ban Dan Lan Hoi","ADM2_TH":"บ้านด่านลานหอย","ADM2_PCODE":"TH6402","ADM1_EN":"Sukhothai","ADM1_TH":"สุโขทัย","ADM1_PCODE":"TH64","ADM0_EN":"Thailand","ADM0_TH":"ประเทศไทย","ADM0_PCODE":"TH"}},{"arcs":[[-13,45,-45,46,47,48]],"type":"Polygon","properties":{"Shape_Leng":0.670708628129,"Shape_Area":0.00802648261924,"ADM3_EN":"Ban Dan","ADM3_TH":"บ้านด่าน","ADM3_PCODE":"TH640202","ADM2_EN":"Ban Dan Lan Hoi","ADM2_TH":"บ้านด่านลานหอย","ADM2_PCODE":"TH6402","ADM1_EN":"Sukhothai","ADM1_TH":"สุโขทัย","ADM1_PCODE":"TH64","ADM0_EN":"Thailand","ADM0_TH":"ประเทศไทย","ADM0_PCODE":"TH"}},{"arcs":[[-43,49,50]],"type":"Polygon","properties":{"Shape_Leng":0.672526355468,"Shape_Area":0.0112478956899,"ADM3_EN":"Wang Takhro","ADM3_TH":"วังตะคร้อ","ADM3_PCODE":"TH640203","ADM2_EN":"Ban Dan Lan Hoi","ADM2_TH":"บ้านด่านลานหอย","ADM2_PCODE":"TH6402","ADM1_EN":"Sukhothai","ADM1_TH":"สุโขทัย","ADM1_PCODE":"TH64","ADM0_EN":"Thailand","ADM0_TH":"ประเทศไทย","ADM0_PCODE":"TH"}},{"arcs":[[-35,-49,51,52,53]],"type":"Polygon","properties":{"Shape_Leng":0.615327818053,"Shape_Area":0.00919491332538,"ADM3_EN":"Wang Nam Khao","ADM3_TH":"วังน้ำขาว","ADM3_PCODE":"TH640204","ADM2_EN":"Ban Dan Lan Hoi","ADM2_TH":"บ้านด่านลานหอย","ADM2_PCODE":"TH6402","ADM1_EN":"Sukhothai","ADM1_TH":"สุโขทัย","ADM1_PCODE":"TH64","ADM0_EN":"Thailand","ADM0_TH":"ประเทศไทย","ADM0_PCODE":"TH"}},{"arcs":[[-53,54,55,56,57]],"type":"Polygon","properties":{"Shape_Leng":0.938988217951,"Shape_Area":0.0287081130599,"ADM3_EN":"Taling Chan","ADM3_TH":"ตลิ่งชัน","ADM3_PCODE":"TH640205","ADM2_EN":"Ban Dan Lan Hoi","ADM2_TH":"บ้านด่านลานหอย","ADM2_PCODE":"TH6402","ADM1_EN":"Sukhothai","ADM1_TH":"สุโขทัย","ADM1_PCODE":"TH64","ADM0_EN":"Thailand","ADM0_TH":"ประเทศไทย","ADM0_PCODE":"TH"}},{"arcs":[[-44,-51,58,59,-47]],"type":"Polygon","properties":{"Shape_Leng":0.578984107233,"Shape_Area":0.00419490581153,"ADM3_EN":"Nong Ya Plong","ADM3_TH":"หนองหญ้าปล้อง","ADM3_PCODE":"TH640206","ADM2_EN":"Ban Dan Lan Hoi","ADM2_TH":"บ้านด่านลานหอย","ADM2_PCODE":"TH6402","ADM1_EN":"Sukhothai","ADM1_TH":"สุโขทัย","ADM1_PCODE":"TH64","ADM0_EN":"Thailand","ADM0_TH":"ประเทศไทย","ADM0_PCODE":"TH"}},{"arcs":[[-48,-60,60,-55,-52]],"type":"Polygon","properties":{"Shape_Leng":0.59032235045,"Shape_Area":0.00790967862383,"ADM3_EN":"Wang Luek","ADM3_TH":"วังลึก","ADM3_PCODE":"TH640207","ADM2_EN":"Ban Dan Lan Hoi","ADM2_TH":"บ้านด่านลานหอย","ADM2_PCODE":"TH6402","ADM1_EN":"Sukhothai","ADM1_TH":"สุโขทัย","ADM1_PCODE":"TH64","ADM0_EN":"Thailand","ADM0_TH":"ประเทศไทย","ADM0_PCODE":"TH"}},{"arcs":[[61,62,63,64,65]],"type":"Polygon","properties":{"Shape_Leng":0.357299761437,"Shape_Area":0.00434082578847,"ADM3_EN":"Tanot","ADM3_TH":"โตนด","ADM3_PCODE":"TH640301","ADM2_EN":"Khiri Mat","ADM2_TH":"คีรีมาศ","ADM2_PCODE":"TH6403","ADM1_EN":"Sukhothai","ADM1_TH":"สุโขทัย","ADM1_PCODE":"TH64","ADM0_EN":"Thailand","ADM0_TH":"ประเทศไทย","ADM0_PCODE":"TH"}},{"arcs":[[-33,66,-65,67,68,69]],"type":"Polygon","properties":{"Shape_Leng":0.238708145104,"Shape_Area":0.00268434444441,"ADM3_EN":"Thung Luang","ADM3_TH":"ทุ่งหลวง","ADM3_PCODE":"TH640302","ADM2_EN":"Khiri Mat","ADM2_TH":"คีรีมาศ","ADM2_PCODE":"TH6403","ADM1_EN":"Sukhothai","ADM1_TH":"สุโขทัย","ADM1_PCODE":"TH64","ADM0_EN":"Thailand","ADM0_TH":"ประเทศไทย","ADM0_PCODE":"TH"}},{"arcs":[[-21,-34,-70,70,-23]],"type":"Polygon","properties":{"Shape_Leng":0.249995438424,"Shape_Area":0.00376086221885,"ADM3_EN":"Ban Pom","ADM3_TH":"บ้านป้อม","ADM3_PCODE":"TH640303","ADM2_EN":"Khiri Mat","ADM2_TH":"คีรีมาศ","ADM2_PCODE":"TH6403","ADM1_EN":"Sukhothai","ADM1_TH":"สุโขทัย","ADM1_PCODE":"TH64","ADM0_EN":"Thailand","ADM0_TH":"ประเทศไทย","ADM0_PCODE":"TH"}},{"arcs":[[-63,71,72,73,74]],"type":"Polygon","properties":{"Shape_Leng":0.257289849615,"Shape_Area":0.00269097040993,"ADM3_EN":"Sam Phuang","ADM3_TH":"สามพวง","ADM3_PCODE":"TH640304","ADM2_EN":"Khiri Mat","ADM2_TH":"คีรีมาศ","ADM2_PCODE":"TH6403","ADM1_EN":"Sukhothai","ADM1_TH":"สุโขทัย","ADM1_PCODE":"TH64","ADM0_EN":"Thailand","ADM0_TH":"ประเทศไทย","ADM0_PCODE":"TH"}},{"arcs":[[-40,75,-68,-64,-75,76,77,78]],"type":"Polygon","properties":{"Shape_Leng":0.625652134516,"Shape_Area":0.0128791806075,"ADM3_EN":"Si Khiri Mat","ADM3_TH":"ศรีคีรีมาศ","ADM3_PCODE":"TH640305","ADM2_EN":"Khiri Mat","ADM2_TH":"คีรีมาศ","ADM2_PCODE":"TH6403","ADM1_EN":"Sukhothai","ADM1_TH":"สุโขทัย","ADM1_PCODE":"TH64","ADM0_EN":"Thailand","ADM0_TH":"ประเทศไทย","ADM0_PCODE":"TH"}},{"arcs":[[-74,79,80,-77]],"type":"Polygon","properties":{"Shape_Leng":0.56623760824,"Shape_Area":0.00797847735627,"ADM3_EN":"Nong Chik","ADM3_TH":"หนองจิก","ADM3_PCODE":"TH640306","ADM2_EN":"Khiri Mat","ADM2_TH":"คีรีมาศ","ADM2_PCODE":"TH6403","ADM1_EN":"Sukhothai","ADM1_TH":"สุโขทัย","ADM1_PCODE":"TH64","ADM0_EN":"Thailand","ADM0_TH":"ประเทศไทย","ADM0_PCODE":"TH"}},{"arcs":[[-12,-71,-69,-76,-39,-46]],"type":"Polygon","properties":{"Shape_Leng":0.462460214313,"Shape_Area":0.0097553223435,"ADM3_EN":"Na Choeng Khiri","ADM3_TH":"นาเชิงคีรี","ADM3_PCODE":"TH640307","ADM2_EN":"Khiri Mat","ADM2_TH":"คีรีมาศ","ADM2_PCODE":"TH6403","ADM1_EN":"Sukhothai","ADM1_TH":"สุโขทัย","ADM1_PCODE":"TH64","ADM0_EN":"Thailand","ADM0_TH":"ประเทศไทย","ADM0_PCODE":"TH"}},{"arcs":[[-62,81,82,83,-72]],"type":"Polygon","properties":{"Shape_Leng":0.240875347978,"Shape_Area":0.00255332949607,"ADM3_EN":"Nong Krading","ADM3_TH":"หนองกระดิ่ง","ADM3_PCODE":"TH640308","ADM2_EN":"Khiri Mat","ADM2_TH":"คีรีมาศ","ADM2_PCODE":"TH6403","ADM1_EN":"Sukhothai","ADM1_TH":"สุโขทัย","ADM1_PCODE":"TH64","ADM0_EN":"Thailand","ADM0_TH":"ประเทศไทย","ADM0_PCODE":"TH"}},{"arcs":[[-41,-79,84]],"type":"Polygon","properties":{"Shape_Leng":0.433303688521,"Shape_Area":0.00606064448708,"ADM3_EN":"Ban Namphu","ADM3_TH":"บ้านน้ำพุ","ADM3_PCODE":"TH640309","ADM2_EN":"Khiri Mat","ADM2_TH":"คีรีมาศ","ADM2_PCODE":"TH6403","ADM1_EN":"Sukhothai","ADM1_TH":"สุโขทัย","ADM1_PCODE":"TH64","ADM0_EN":"Thailand","ADM0_TH":"ประเทศไทย","ADM0_PCODE":"TH"}},{"arcs":[[-73,-84,85,-80]],"type":"Polygon","properties":{"Shape_Leng":0.2887514362,"Shape_Area":0.00310475243281,"ADM3_EN":"Thung Yang Mueang","ADM3_TH":"ทุ่งยางเมือง","ADM3_PCODE":"TH640310","ADM2_EN":"Khiri Mat","ADM2_TH":"คีรีมาศ","ADM2_PCODE":"TH6403","ADM1_EN":"Sukhothai","ADM1_TH":"สุโขทัย","ADM1_PCODE":"TH64","ADM0_EN":"Thailand","ADM0_TH":"ประเทศไทย","ADM0_PCODE":"TH"}},{"arcs":[[86,87,88,89,90,91]],"type":"Polygon","properties":{"Shape_Leng":0.409468969475,"Shape_Area":0.00519635078799,"ADM3_EN":"Kong","ADM3_TH":"กง","ADM3_PCODE":"TH640401","ADM2_EN":"Kong Krailat","ADM2_TH":"กงไกรลาศ","ADM2_PCODE":"TH6404","ADM1_EN":"Sukhothai","ADM1_TH":"สุโขทัย","ADM1_PCODE":"TH64","ADM0_EN":"Thailand","ADM0_TH":"ประเทศไทย","ADM0_PCODE":"TH"}},{"arcs":[[-87,92,93]],"type":"Polygon","properties":{"Shape_Leng":0.177473423559,"Shape_Area":0.00101386407162,"ADM3_EN":"Ban Krang","ADM3_TH":"บ้านกร่าง","ADM3_PCODE":"TH640402","ADM2_EN":"Kong Krailat","ADM2_TH":"กงไกรลาศ","ADM2_PCODE":"TH6404","ADM1_EN":"Sukhothai","ADM1_TH":"สุโขทัย","ADM1_PCODE":"TH64","ADM0_EN":"Thailand","ADM0_TH":"ประเทศไทย","ADM0_PCODE":"TH"}},{"arcs":[[94,95,96,97,98]],"type":"Polygon","properties":{"Shape_Leng":0.47002383604,"Shape_Area":0.00383999032366,"ADM3_EN":"Krai Nok","ADM3_TH":"ไกรนอก","ADM3_PCODE":"TH640403","ADM2_EN":"Kong Krailat","ADM2_TH":"กงไกรลาศ","ADM2_PCODE":"TH6404","ADM1_EN":"Sukhothai","ADM1_TH":"สุโขทัย","ADM1_PCODE":"TH64","ADM0_EN":"Thailand","ADM0_TH":"ประเทศไทย","ADM0_PCODE":"TH"}},{"arcs":[[-98,99,100,101,102,103]],"type":"Polygon","properties":{"Shape_Leng":0.331205576901,"Shape_Area":0.00209251768575,"ADM3_EN":"Krai Klang","ADM3_TH":"ไกรกลาง","ADM3_PCODE":"TH640404","ADM2_EN":"Kong Krailat","ADM2_TH":"กงไกรลาศ","ADM2_PCODE":"TH6404","ADM1_EN":"Sukhothai","ADM1_TH":"สุโขทัย","ADM1_PCODE":"TH64","ADM0_EN":"Thailand","ADM0_TH":"ประเทศไทย","ADM0_PCODE":"TH"}},{"arcs":[[-5,104,105,-102,106]],"type":"Polygon","properties":{"Shape_Leng":0.331968495508,"Shape_Area":0.00396523344919,"ADM3_EN":"Krai Nai","ADM3_TH":"ไกรใน","ADM3_PCODE":"TH640405","ADM2_EN":"Kong Krailat","ADM2_TH":"กงไกรลาศ","ADM2_PCODE":"TH6404","ADM1_EN":"Sukhothai","ADM1_TH":"สุโขทัย","ADM1_PCODE":"TH64","ADM0_EN":"Thailand","ADM0_TH":"ประเทศไทย","ADM0_PCODE":"TH"}},{"arcs":[[-88,-94,107,-100,-97,108]],"type":"Polygon","properties":{"Shape_Leng":0.300938364439,"Shape_Area":0.00342094034098,"ADM3_EN":"Dong Dueai","ADM3_TH":"ดงเดือย","ADM3_PCODE":"TH640406","ADM2_EN":"Kong Krailat","ADM2_TH":"กงไกรลาศ","ADM2_PCODE":"TH6404","ADM1_EN":"Sukhothai","ADM1_TH":"สุโขทัย","ADM1_PCODE":"TH64","ADM0_EN":"Thailand","ADM0_TH":"ประเทศไทย","ADM0_PCODE":"TH"}},{"arcs":[[-6,-107,-101,-108,-93,-92,109,-27]],"type":"Polygon","properties":{"Shape_Leng":0.324393586077,"Shape_Area":0.00396258072345,"ADM3_EN":"Pa Faek","ADM3_TH":"ป่าแฝก","ADM3_PCODE":"TH640407","ADM2_EN":"Kong Krailat","ADM2_TH":"กงไกรลาศ","ADM2_PCODE":"TH6404","ADM1_EN":"Sukhothai","ADM1_TH":"สุโขทัย","ADM1_PCODE":"TH64","ADM0_EN":"Thailand","ADM0_TH":"ประเทศไทย","ADM0_PCODE":"TH"}},{"arcs":[[-99,-104,110,111]],"type":"Polygon","properties":{"Shape_Leng":0.367451196283,"Shape_Area":0.00281847345199,"ADM3_EN":"Kok Raet","ADM3_TH":"กกแรต","ADM3_PCODE":"TH640408","ADM2_EN":"Kong Krailat","ADM2_TH":"กงไกรลาศ","ADM2_PCODE":"TH6404","ADM1_EN":"Sukhothai","ADM1_TH":"สุโขทัย","ADM1_PCODE":"TH64","ADM0_EN":"Thailand","ADM0_TH":"ประเทศไทย","ADM0_PCODE":"TH"}},{"arcs":[[-28,-110,-91,112,113,-82,-66,-67,-32]],"type":"Polygon","properties":{"Shape_Leng":0.402979219054,"Shape_Area":0.00541883524363,"ADM3_EN":"Tha Chanuan","ADM3_TH":"ท่าฉนวน","ADM3_PCODE":"TH640409","ADM2_EN":"Kong Krailat","ADM2_TH":"กงไกรลาศ","ADM2_PCODE":"TH6404","ADM1_EN":"Sukhothai","ADM1_TH":"สุโขทัย","ADM1_PCODE":"TH64","ADM0_EN":"Thailand","ADM0_TH":"ประเทศไทย","ADM0_PCODE":"TH"}},{"arcs":[[-90,114,-113]],"type":"Polygon","properties":{"Shape_Leng":0.3542447675,"Shape_Area":0.00289070400106,"ADM3_EN":"Nong Tum","ADM3_TH":"หนองตูม","ADM3_PCODE":"TH640410","ADM2_EN":"Kong Krailat","ADM2_TH":"กงไกรลาศ","ADM2_PCODE":"TH6404","ADM1_EN":"Sukhothai","ADM1_TH":"สุโขทัย","ADM1_PCODE":"TH64","ADM0_EN":"Thailand","ADM0_TH":"ประเทศไทย","ADM0_PCODE":"TH"}},{"arcs":[[-95,-112,115]],"type":"Polygon","properties":{"Shape_Leng":0.290855873242,"Shape_Area":0.00292139434493,"ADM3_EN":"Ban Mai Suk Kasem","ADM3_TH":"บ้านใหม่สุขเกษม","ADM3_PCODE":"TH640411","ADM2_EN":"Kong Krailat","ADM2_TH":"กงไกรลาศ","ADM2_PCODE":"TH6404","ADM1_EN":"Sukhothai","ADM1_TH":"สุโขทัย","ADM1_PCODE":"TH64","ADM0_EN":"Thailand","ADM0_TH":"ประเทศไทย","ADM0_PCODE":"TH"}},{"arcs":[[116,117,118,119,120]],"type":"Polygon","properties":{"Shape_Leng":0.387495718678,"Shape_Area":0.00373232833063,"ADM3_EN":"Hat Siao","ADM3_TH":"หาดเสี้ยว","ADM3_PCODE":"TH640501","ADM2_EN":"Si Satchanalai","ADM2_TH":"ศรีสัชนาลัย","ADM2_PCODE":"TH6405","ADM1_EN":"Sukhothai","ADM1_TH":"สุโขทัย","ADM1_PCODE":"TH64","ADM0_EN":"Thailand","ADM0_TH":"ประเทศไทย","ADM0_PCODE":"TH"}},{"arcs":[[-117,121,122,123,124]],"type":"Polygon","properties":{"Shape_Leng":0.483787491461,"Shape_Area":0.00520961650294,"ADM3_EN":"Pa Ngio","ADM3_TH":"ป่างิ้ว","ADM3_PCODE":"TH640502","ADM2_EN":"Si Satchanalai","ADM2_TH":"ศรีสัชนาลัย","ADM2_PCODE":"TH6405","ADM1_EN":"Sukhothai","ADM1_TH":"สุโขทัย","ADM1_PCODE":"TH64","ADM0_EN":"Thailand","ADM0_TH":"ประเทศไทย","ADM0_PCODE":"TH"}},{"arcs":[[-121,125,126,127,128,-122]],"type":"Polygon","properties":{"Shape_Leng":1.14726598019,"Shape_Area":0.024736991713,"ADM3_EN":"Mae Sam","ADM3_TH":"แม่สำ","ADM3_PCODE":"TH640503","ADM2_EN":"Si Satchanalai","ADM2_TH":"ศรีสัชนาลัย","ADM2_PCODE":"TH6405","ADM1_EN":"Sukhothai","ADM1_TH":"สุโขทัย","ADM1_PCODE":"TH64","ADM0_EN":"Thailand","ADM0_TH":"ประเทศไทย","ADM0_PCODE":"TH"}},{"arcs":[[-128,129,130]],"type":"Polygon","properties":{"Shape_Leng":1.54203993295,"Shape_Area":0.0516072921694,"ADM3_EN":"Mae Sin","ADM3_TH":"แม่สิน","ADM3_PCODE":"TH640504","ADM2_EN":"Si Satchanalai","ADM2_TH":"ศรีสัชนาลัย","ADM2_PCODE":"TH6405","ADM1_EN":"Sukhothai","ADM1_TH":"สุโขทัย","ADM1_PCODE":"TH64","ADM0_EN":"Thailand","ADM0_TH":"ประเทศไทย","ADM0_PCODE":"TH"}},{"arcs":[[-123,-129,-131,131,132]],"type":"Polygon","properties":{"Shape_Leng":0.767952688711,"Shape_Area":0.0250569121282,"ADM3_EN":"Ban Tuek","ADM3_TH":"บ้านตึก","ADM3_PCODE":"TH640505","ADM2_EN":"Si Satchanalai","ADM2_TH":"ศรีสัชนาลัย","ADM2_PCODE":"TH6405","ADM1_EN":"Sukhothai","ADM1_TH":"สุโขทัย","ADM1_PCODE":"TH64","ADM0_EN":"Thailand","ADM0_TH":"ประเทศไทย","ADM0_PCODE":"TH"}},{"arcs":[[-119,133,134,135,136]],"type":"Polygon","properties":{"Shape_Leng":0.494229411681,"Shape_Area":0.00666171304429,"ADM3_EN":"Nong O","ADM3_TH":"หนองอ้อ","ADM3_PCODE":"TH640506","ADM2_EN":"Si Satchanalai","ADM2_TH":"ศรีสัชนาลัย","ADM2_PCODE":"TH6405","ADM1_EN":"Sukhothai","ADM1_TH":"สุโขทัย","ADM1_PCODE":"TH64","ADM0_EN":"Thailand","ADM0_TH":"ประเทศไทย","ADM0_PCODE":"TH"}},{"arcs":[[-118,-125,137,138,139,140,141,-134]],"type":"Polygon","properties":{"Shape_Leng":0.639021298171,"Shape_Area":0.00887266933904,"ADM3_EN":"Tha Chai","ADM3_TH":"ท่าชัย","ADM3_PCODE":"TH640507","ADM2_EN":"Si Satchanalai","ADM2_TH":"ศรีสัชนาลัย","ADM2_PCODE":"TH6405","ADM1_EN":"Sukhothai","ADM1_TH":"สุโขทัย","ADM1_PCODE":"TH64","ADM0_EN":"Thailand","ADM0_TH":"ประเทศไทย","ADM0_PCODE":"TH"}},{"arcs":[[-135,-142,142,143]],"type":"Polygon","properties":{"Shape_Leng":0.312839798463,"Shape_Area":0.00273075970148,"ADM3_EN":"Si Satchanalai","ADM3_TH":"ศรีสัชนาลัย","ADM3_PCODE":"TH640508","ADM2_EN":"Si Satchanalai","ADM2_TH":"ศรีสัชนาลัย","ADM2_PCODE":"TH6405","ADM1_EN":"Sukhothai","ADM1_TH":"สุโขทัย","ADM1_PCODE":"TH64","ADM0_EN":"Thailand","ADM0_TH":"ประเทศไทย","ADM0_PCODE":"TH"}},{"arcs":[[-124,-133,144,145,-138]],"type":"Polygon","properties":{"Shape_Leng":0.467224732933,"Shape_Area":0.00630450770832,"ADM3_EN":"Dong Khu","ADM3_TH":"ดงคู่","ADM3_PCODE":"TH640509","ADM2_EN":"Si Satchanalai","ADM2_TH":"ศรีสัชนาลัย","ADM2_PCODE":"TH6405","ADM1_EN":"Sukhothai","ADM1_TH":"สุโขทัย","ADM1_PCODE":"TH64","ADM0_EN":"Thailand","ADM0_TH":"ประเทศไทย","ADM0_PCODE":"TH"}},{"arcs":[[-120,-137,146,147,148,149,150,151,-126]],"type":"Polygon","properties":{"Shape_Leng":1.42306310879,"Shape_Area":0.0407194126178,"ADM3_EN":"Ban Kaeng","ADM3_TH":"บ้านแก่ง","ADM3_PCODE":"TH640510","ADM2_EN":"Si Satchanalai","ADM2_TH":"ศรีสัชนาลัย","ADM2_PCODE":"TH6405","ADM1_EN":"Sukhothai","ADM1_TH":"สุโขทัย","ADM1_PCODE":"TH64","ADM0_EN":"Thailand","ADM0_TH":"ประเทศไทย","ADM0_PCODE":"TH"}},{"arcs":[[-136,-144,152,153,-147]],"type":"Polygon","properties":{"Shape_Leng":0.361639572985,"Shape_Area":0.00466707179269,"ADM3_EN":"Sarachit","ADM3_TH":"สารจิตร","ADM3_PCODE":"TH640511","ADM2_EN":"Si Satchanalai","ADM2_TH":"ศรีสัชนาลัย","ADM2_PCODE":"TH6405","ADM1_EN":"Sukhothai","ADM1_TH":"สุโขทัย","ADM1_PCODE":"TH64","ADM0_EN":"Thailand","ADM0_TH":"ประเทศไทย","ADM0_PCODE":"TH"}},{"arcs":[[154,155,156,157,158,159]],"type":"Polygon","properties":{"Shape_Leng":0.141745430367,"Shape_Area":0.000714304034671,"ADM3_EN":"Khlong Tan","ADM3_TH":"คลองตาล","ADM3_PCODE":"TH640601","ADM2_EN":"Si Samrong","ADM2_TH":"ศรีสำโรง","ADM2_PCODE":"TH6406","ADM1_EN":"Sukhothai","ADM1_TH":"สุโขทัย","ADM1_PCODE":"TH64","ADM0_EN":"Thailand","ADM0_TH":"ประเทศไทย","ADM0_PCODE":"TH"}},{"arcs":[[-155,160,161,162]],"type":"Polygon","properties":{"Shape_Leng":0.330756982527,"Shape_Area":0.00374949360771,"ADM3_EN":"Wang Luek","ADM3_TH":"วังลึก","ADM3_PCODE":"TH640602","ADM2_EN":"Si Samrong","ADM2_TH":"ศรีสำโรง","ADM2_PCODE":"TH6406","ADM1_EN":"Sukhothai","ADM1_TH":"สุโขทัย","ADM1_PCODE":"TH64","ADM0_EN":"Thailand","ADM0_TH":"ประเทศไทย","ADM0_PCODE":"TH"}},{"arcs":[[-160,163,164,165,166,167,-161]],"type":"Polygon","properties":{"Shape_Leng":0.290810269598,"Shape_Area":0.00206235672348,"ADM3_EN":"Sam Ruean","ADM3_TH":"สามเรือน","ADM3_PCODE":"TH640603","ADM2_EN":"Si Samrong","ADM2_TH":"ศรีสำโรง","ADM2_PCODE":"TH6406","ADM1_EN":"Sukhothai","ADM1_TH":"สุโขทัย","ADM1_PCODE":"TH64","ADM0_EN":"Thailand","ADM0_TH":"ประเทศไทย","ADM0_PCODE":"TH"}},{"arcs":[[-158,168,169,170,171]],"type":"Polygon","properties":{"Shape_Leng":0.173813252699,"Shape_Area":0.00102570129206,"ADM3_EN":"Ban Na","ADM3_TH":"บ้านนา","ADM3_PCODE":"TH640604","ADM2_EN":"Si Samrong","ADM2_TH":"ศรีสำโรง","ADM2_PCODE":"TH6406","ADM1_EN":"Sukhothai","ADM1_TH":"สุโขทัย","ADM1_PCODE":"TH64","ADM0_EN":"Thailand","ADM0_TH":"ประเทศไทย","ADM0_PCODE":"TH"}},{"arcs":[[-157,172,173,174,-169]],"type":"Polygon","properties":{"Shape_Leng":0.257706773059,"Shape_Area":0.00153996903445,"ADM3_EN":"Wang Thong","ADM3_TH":"วังทอง","ADM3_PCODE":"TH640605","ADM2_EN":"Si Samrong","ADM2_TH":"ศรีสำโรง","ADM2_PCODE":"TH6406","ADM1_EN":"Sukhothai","ADM1_TH":"สุโขทัย","ADM1_PCODE":"TH64","ADM0_EN":"Thailand","ADM0_TH":"ประเทศไทย","ADM0_PCODE":"TH"}},{"arcs":[[-36,-54,-58,175,176,177]],"type":"Polygon","properties":{"Shape_Leng":0.949887396896,"Shape_Area":0.0164318875954,"ADM3_EN":"Na Khun Krai","ADM3_TH":"นาขุนไกร","ADM3_PCODE":"TH640606","ADM2_EN":"Si Samrong","ADM2_TH":"ศรีสำโรง","ADM2_PCODE":"TH6406","ADM1_EN":"Sukhothai","ADM1_TH":"สุโขทัย","ADM1_PCODE":"TH64","ADM0_EN":"Thailand","ADM0_TH":"ประเทศไทย","ADM0_PCODE":"TH"}},{"arcs":[[-10,-31,178,179,-173,-156,-163,180,-105]],"type":"Polygon","properties":{"Shape_Leng":0.528306558674,"Shape_Area":0.00598740097927,"ADM3_EN":"Ko Ta Liang","ADM3_TH":"เกาะตาเลี้ยง","ADM3_PCODE":"TH640607","ADM2_EN":"Si Samrong","ADM2_TH":"ศรีสำโรง","ADM2_PCODE":"TH6406","ADM1_EN":"Sukhothai","ADM1_TH":"สุโขทัย","ADM1_PCODE":"TH64","ADM0_EN":"Thailand","ADM0_TH":"ประเทศไทย","ADM0_PCODE":"TH"}},{"arcs":[[-159,-172,181,182,-164]],"type":"Polygon","properties":{"Shape_Leng":0.256754587716,"Shape_Area":0.00165722860736,"ADM3_EN":"Wat Ko","ADM3_TH":"วัดเกาะ","ADM3_PCODE":"TH640608","ADM2_EN":"Si Samrong","ADM2_TH":"ศรีสำโรง","ADM2_PCODE":"TH6406","ADM1_EN":"Sukhothai","ADM1_TH":"สุโขทัย","ADM1_PCODE":"TH64","ADM0_EN":"Thailand","ADM0_TH":"ประเทศไทย","ADM0_PCODE":"TH"}},{"arcs":[[-170,-175,183,184,185,186]],"type":"Polygon","properties":{"Shape_Leng":0.382493753384,"Shape_Area":0.00222948219204,"ADM3_EN":"Ban Rai","ADM3_TH":"บ้านไร่","ADM3_PCODE":"TH640609","ADM2_EN":"Si Samrong","ADM2_TH":"ศรีสำโรง","ADM2_PCODE":"TH6406","ADM1_EN":"Sukhothai","ADM1_TH":"สุโขทัย","ADM1_PCODE":"TH64","ADM0_EN":"Thailand","ADM0_TH":"ประเทศไทย","ADM0_PCODE":"TH"}},{"arcs":[[-16,-26,187,-179,-30]],"type":"Polygon","properties":{"Shape_Leng":0.244317932767,"Shape_Area":0.00178629514868,"ADM3_EN":"Thap Phueng","ADM3_TH":"ทับผึ้ง","ADM3_PCODE":"TH640610","ADM2_EN":"Si Samrong","ADM2_TH":"ศรีสำโรง","ADM2_PCODE":"TH6406","ADM1_EN":"Sukhothai","ADM1_TH":"สุโขทัย","ADM1_PCODE":"TH64","ADM0_EN":"Thailand","ADM0_TH":"ประเทศไทย","ADM0_PCODE":"TH"}},{"arcs":[[-171,-187,188,189,-182]],"type":"Polygon","properties":{"Shape_Leng":0.22474395409,"Shape_Area":0.00176806664843,"ADM3_EN":"Ban San","ADM3_TH":"บ้านซ่าน","ADM3_PCODE":"TH640611","ADM2_EN":"Si Samrong","ADM2_TH":"ศรีสำโรง","ADM2_PCODE":"TH6406","ADM1_EN":"Sukhothai","ADM1_TH":"สุโขทัย","ADM1_PCODE":"TH64","ADM0_EN":"Thailand","ADM0_TH":"ประเทศไทย","ADM0_PCODE":"TH"}},{"arcs":[[-25,-38,190,-184,-174,-180,-188]],"type":"Polygon","properties":{"Shape_Leng":0.395183211911,"Shape_Area":0.00355024692081,"ADM3_EN":"Wang Yai","ADM3_TH":"วังใหญ่","ADM3_PCODE":"TH640612","ADM2_EN":"Si Samrong","ADM2_TH":"ศรีสำโรง","ADM2_PCODE":"TH6406","ADM1_EN":"Sukhothai","ADM1_TH":"สุโขทัย","ADM1_PCODE":"TH64","ADM0_EN":"Thailand","ADM0_TH":"ประเทศไทย","ADM0_PCODE":"TH"}},{"arcs":[[-37,-178,191,192,193,194,-185,-191]],"type":"Polygon","properties":{"Shape_Leng":0.924828333282,"Shape_Area":0.00954794015544,"ADM3_EN":"Rao Ton Chan","ADM3_TH":"ราวต้นจันทร์","ADM3_PCODE":"TH640613","ADM2_EN":"Si Samrong","ADM2_TH":"ศรีสำโรง","ADM2_PCODE":"TH6406","ADM1_EN":"Sukhothai","ADM1_TH":"สุโขทัย","ADM1_PCODE":"TH64","ADM0_EN":"Thailand","ADM0_TH":"ประเทศไทย","ADM0_PCODE":"TH"}},{"arcs":[[195,196,197]],"type":"Polygon","properties":{"Shape_Leng":0.107109912156,"Shape_Area":0.000567455763982,"ADM3_EN":"Mueang Sawankhalok","ADM3_TH":"เมืองสวรรคโลก","ADM3_PCODE":"TH640701","ADM2_EN":"Sawankhalok","ADM2_TH":"สวรรคโลก","ADM2_PCODE":"TH6407","ADM1_EN":"Sukhothai","ADM1_TH":"สุโขทัย","ADM1_PCODE":"TH64","ADM0_EN":"Thailand","ADM0_TH":"ประเทศไทย","ADM0_PCODE":"TH"}},{"arcs":[[-198,198,199,200,201,202,203,204]],"type":"Polygon","properties":{"Shape_Leng":0.419104722413,"Shape_Area":0.0049825077664,"ADM3_EN":"Nai Mueang","ADM3_TH":"ในเมือง","ADM3_PCODE":"TH640702","ADM2_EN":"Sawankhalok","ADM2_TH":"สวรรคโลก","ADM2_PCODE":"TH6407","ADM1_EN":"Sukhothai","ADM1_TH":"สุโขทัย","ADM1_PCODE":"TH64","ADM0_EN":"Thailand","ADM0_TH":"ประเทศไทย","ADM0_PCODE":"TH"}},{"arcs":[[205,206,207,208,209]],"type":"Polygon","properties":{"Shape_Leng":0.212543338398,"Shape_Area":0.00226555151017,"ADM3_EN":"Khlong Krachong","ADM3_TH":"คลองกระจง","ADM3_PCODE":"TH640703","ADM2_EN":"Sawankhalok","ADM2_TH":"สวรรคโลก","ADM2_PCODE":"TH6407","ADM1_EN":"Sukhothai","ADM1_TH":"สุโขทัย","ADM1_PCODE":"TH64","ADM0_EN":"Thailand","ADM0_TH":"ประเทศไทย","ADM0_PCODE":"TH"}},{"arcs":[[-197,210,211,-199]],"type":"Polygon","properties":{"Shape_Leng":0.151871322277,"Shape_Area":0.000921002559395,"ADM3_EN":"Wang Phin Phat","ADM3_TH":"วังพิณพาทย์","ADM3_PCODE":"TH640704","ADM2_EN":"Sawankhalok","ADM2_TH":"สวรรคโลก","ADM2_PCODE":"TH6407","ADM1_EN":"Sukhothai","ADM1_TH":"สุโขทัย","ADM1_PCODE":"TH64","ADM0_EN":"Thailand","ADM0_TH":"ประเทศไทย","ADM0_PCODE":"TH"}},{"arcs":[[-196,-205,212,213,214,-211]],"type":"Polygon","properties":{"Shape_Leng":0.210533292356,"Shape_Area":0.00142592010232,"ADM3_EN":"Wang Mai Khon","ADM3_TH":"วังไม้ขอน","ADM3_PCODE":"TH640705","ADM2_EN":"Sawankhalok","ADM2_TH":"สวรรคโลก","ADM2_PCODE":"TH6407","ADM1_EN":"Sukhothai","ADM1_TH":"สุโขทัย","ADM1_PCODE":"TH64","ADM0_EN":"Thailand","ADM0_TH":"ประเทศไทย","ADM0_PCODE":"TH"}},{"arcs":[[-204,215,216,-210,217,-213]],"type":"Polygon","properties":{"Shape_Leng":0.422321602258,"Shape_Area":0.00387072795919,"ADM3_EN":"Yan Yao","ADM3_TH":"ย่านยาว","ADM3_PCODE":"TH640706","ADM2_EN":"Sawankhalok","ADM2_TH":"สวรรคโลก","ADM2_PCODE":"TH6407","ADM1_EN":"Sukhothai","ADM1_TH":"สุโขทัย","ADM1_PCODE":"TH64","ADM0_EN":"Thailand","ADM0_TH":"ประเทศไทย","ADM0_PCODE":"TH"}},{"arcs":[[-215,218,219,220,221]],"type":"Polygon","properties":{"Shape_Leng":0.358294505287,"Shape_Area":0.00529699844887,"ADM3_EN":"Na Thung","ADM3_TH":"นาทุ่ง","ADM3_PCODE":"TH640707","ADM2_EN":"Sawankhalok","ADM2_TH":"สวรรคโลก","ADM2_PCODE":"TH6407","ADM1_EN":"Sukhothai","ADM1_TH":"สุโขทัย","ADM1_PCODE":"TH64","ADM0_EN":"Thailand","ADM0_TH":"ประเทศไทย","ADM0_PCODE":"TH"}},{"arcs":[[-140,222,223,224,225,-201,226]],"type":"Polygon","properties":{"Shape_Leng":0.593806541747,"Shape_Area":0.0095582064018,"ADM3_EN":"Khlong Yang","ADM3_TH":"คลองยาง","ADM3_PCODE":"TH640708","ADM2_EN":"Sawankhalok","ADM2_TH":"สวรรคโลก","ADM2_PCODE":"TH6407","ADM1_EN":"Sukhothai","ADM1_TH":"สุโขทัย","ADM1_PCODE":"TH64","ADM0_EN":"Thailand","ADM0_TH":"ประเทศไทย","ADM0_PCODE":"TH"}},{"arcs":[[-166,227,-207,228]],"type":"Polygon","properties":{"Shape_Leng":0.168975879486,"Shape_Area":0.00107475004753,"ADM3_EN":"Mueang Bang Yom","ADM3_TH":"เมืองบางยม","ADM3_PCODE":"TH640709","ADM2_EN":"Sawankhalok","ADM2_TH":"สวรรคโลก","ADM2_PCODE":"TH6407","ADM1_EN":"Sukhothai","ADM1_TH":"สุโขทัย","ADM1_PCODE":"TH64","ADM0_EN":"Thailand","ADM0_TH":"ประเทศไทย","ADM0_PCODE":"TH"}},{"arcs":[[-165,-183,229,-208,-228]],"type":"Polygon","properties":{"Shape_Leng":0.173449592567,"Shape_Area":0.00105129884283,"ADM3_EN":"Tha Thong","ADM3_TH":"ท่าทอง","ADM3_PCODE":"TH640710","ADM2_EN":"Sawankhalok","ADM2_TH":"สวรรคโลก","ADM2_PCODE":"TH6407","ADM1_EN":"Sukhothai","ADM1_TH":"สุโขทัย","ADM1_PCODE":"TH64","ADM0_EN":"Thailand","ADM0_TH":"ประเทศไทย","ADM0_PCODE":"TH"}},{"arcs":[[-167,-229,-206,-217,230,231]],"type":"Polygon","properties":{"Shape_Leng":0.470900942001,"Shape_Area":0.0067070619602,"ADM3_EN":"Pak Nam","ADM3_TH":"ปากน้ำ","ADM3_PCODE":"TH640711","ADM2_EN":"Sawankhalok","ADM2_TH":"สวรรคโลก","ADM2_PCODE":"TH6407","ADM1_EN":"Sukhothai","ADM1_TH":"สุโขทัย","ADM1_PCODE":"TH64","ADM0_EN":"Thailand","ADM0_TH":"ประเทศไทย","ADM0_PCODE":"TH"}},{"arcs":[[-141,-227,-200,-212,-222,232,-153,-143]],"type":"Polygon","properties":{"Shape_Leng":0.504407288013,"Shape_Area":0.00548809199117,"ADM3_EN":"Pa Kum Ko","ADM3_TH":"ป่ากุมเกาะ","ADM3_PCODE":"TH640712","ADM2_EN":"Sawankhalok","ADM2_TH":"สวรรคโลก","ADM2_PCODE":"TH6407","ADM1_EN":"Sukhothai","ADM1_TH":"สุโขทัย","ADM1_PCODE":"TH64","ADM0_EN":"Thailand","ADM0_TH":"ประเทศไทย","ADM0_PCODE":"TH"}},{"arcs":[[-186,-195,233,-220,234,-189]],"type":"Polygon","properties":{"Shape_Leng":0.408053446652,"Shape_Area":0.00461247044118,"ADM3_EN":"Mueang Bang Khlang","ADM3_TH":"เมืองบางขลัง","ADM3_PCODE":"TH640713","ADM2_EN":"Sawankhalok","ADM2_TH":"สวรรคโลก","ADM2_PCODE":"TH6407","ADM1_EN":"Sukhothai","ADM1_TH":"สุโขทัย","ADM1_PCODE":"TH64","ADM0_EN":"Thailand","ADM0_TH":"ประเทศไทย","ADM0_PCODE":"TH"}},{"arcs":[[-190,-235,-219,-214,-218,-209,-230]],"type":"Polygon","properties":{"Shape_Leng":0.441770126201,"Shape_Area":0.00466692455102,"ADM3_EN":"Nong Klap","ADM3_TH":"หนองกลับ","ADM3_PCODE":"TH640714","ADM2_EN":"Sawankhalok","ADM2_TH":"สวรรคโลก","ADM2_PCODE":"TH6407","ADM1_EN":"Sukhothai","ADM1_TH":"สุโขทัย","ADM1_PCODE":"TH64","ADM0_EN":"Thailand","ADM0_TH":"ประเทศไทย","ADM0_PCODE":"TH"}},{"arcs":[[-225,235,236,237]],"type":"Polygon","properties":{"Shape_Leng":0.236254281223,"Shape_Area":0.00245165928286,"ADM3_EN":"Si Nakhon","ADM3_TH":"ศรีนคร","ADM3_PCODE":"TH640801","ADM2_EN":"Si Nakhon","ADM2_TH":"ศรีนคร","ADM2_PCODE":"TH6408","ADM1_EN":"Sukhothai","ADM1_TH":"สุโขทัย","ADM1_PCODE":"TH64","ADM0_EN":"Thailand","ADM0_TH":"ประเทศไทย","ADM0_PCODE":"TH"}},{"arcs":[[-139,-146,238,239,-223]],"type":"Polygon","properties":{"Shape_Leng":0.364296609875,"Shape_Area":0.00417673811412,"ADM3_EN":"Nakhon Doet","ADM3_TH":"นครเดิฐ","ADM3_PCODE":"TH640802","ADM2_EN":"Si Nakhon","ADM2_TH":"ศรีนคร","ADM2_PCODE":"TH6408","ADM1_EN":"Sukhothai","ADM1_TH":"สุโขทัย","ADM1_PCODE":"TH64","ADM0_EN":"Thailand","ADM0_TH":"ประเทศไทย","ADM0_PCODE":"TH"}},{"arcs":[[-224,-240,240,-236]],"type":"Polygon","properties":{"Shape_Leng":0.333525984366,"Shape_Area":0.00297230971885,"ADM3_EN":"Nam Khum","ADM3_TH":"น้ำขุม","ADM3_PCODE":"TH640803","ADM2_EN":"Si Nakhon","ADM2_TH":"ศรีนคร","ADM2_PCODE":"TH6408","ADM1_EN":"Sukhothai","ADM1_TH":"สุโขทัย","ADM1_PCODE":"TH64","ADM0_EN":"Thailand","ADM0_TH":"ประเทศไทย","ADM0_PCODE":"TH"}},{"arcs":[[-202,-226,-238,241,242]],"type":"Polygon","properties":{"Shape_Leng":0.296532385263,"Shape_Area":0.00310283386,"ADM3_EN":"Khlong Maphlap","ADM3_TH":"คลองมะพลับ","ADM3_PCODE":"TH640804","ADM2_EN":"Si Nakhon","ADM2_TH":"ศรีนคร","ADM2_PCODE":"TH6408","ADM1_EN":"Sukhothai","ADM1_TH":"สุโขทัย","ADM1_PCODE":"TH64","ADM0_EN":"Thailand","ADM0_TH":"ประเทศไทย","ADM0_PCODE":"TH"}},{"arcs":[[-203,-243,243,-231,-216]],"type":"Polygon","properties":{"Shape_Leng":0.338604800683,"Shape_Area":0.00275492086849,"ADM3_EN":"Nong Bua","ADM3_TH":"หนองบัว","ADM3_PCODE":"TH640805","ADM2_EN":"Si Nakhon","ADM2_TH":"ศรีนคร","ADM2_PCODE":"TH6408","ADM1_EN":"Sukhothai","ADM1_TH":"สุโขทัย","ADM1_PCODE":"TH64","ADM0_EN":"Thailand","ADM0_TH":"ประเทศไทย","ADM0_PCODE":"TH"}},{"arcs":[[-148,-154,-233,-221,-234,-194,244,245]],"type":"Polygon","properties":{"Shape_Leng":0.510453173794,"Shape_Area":0.00575241320582,"ADM3_EN":"Ban Mai Chai Mongkhon","ADM3_TH":"บ้านใหม่ไชยมงคล","ADM3_PCODE":"TH640901","ADM2_EN":"Thung Saliam","ADM2_TH":"ทุ่งเสลี่ยม","ADM2_PCODE":"TH6409","ADM1_EN":"Sukhothai","ADM1_TH":"สุโขทัย","ADM1_PCODE":"TH64","ADM0_EN":"Thailand","ADM0_TH":"ประเทศไทย","ADM0_PCODE":"TH"}},{"arcs":[[-150,246,-245,-193,247,248]],"type":"Polygon","properties":{"Shape_Leng":0.5508430009,"Shape_Area":0.00750318368451,"ADM3_EN":"Thai Chana Suek","ADM3_TH":"ไทยชนะศึก","ADM3_PCODE":"TH640902","ADM2_EN":"Thung Saliam","ADM2_TH":"ทุ่งเสลี่ยม","ADM2_PCODE":"TH6409","ADM1_EN":"Sukhothai","ADM1_TH":"สุโขทัย","ADM1_PCODE":"TH64","ADM0_EN":"Thailand","ADM0_TH":"ประเทศไทย","ADM0_PCODE":"TH"}},{"arcs":[[-177,249,-248,-192]],"type":"Polygon","properties":{"Shape_Leng":0.374373013874,"Shape_Area":0.00466876868499,"ADM3_EN":"Thung Saliam","ADM3_TH":"ทุ่งเสลี่ยม","ADM3_PCODE":"TH640903","ADM2_EN":"Thung Saliam","ADM2_TH":"ทุ่งเสลี่ยม","ADM2_PCODE":"TH6409","ADM1_EN":"Sukhothai","ADM1_TH":"สุโขทัย","ADM1_PCODE":"TH64","ADM0_EN":"Thailand","ADM0_TH":"ประเทศไทย","ADM0_PCODE":"TH"}},{"arcs":[[-57,250,-151,-249,-250,-176]],"type":"Polygon","properties":{"Shape_Leng":0.911561879408,"Shape_Area":0.0250152538907,"ADM3_EN":"Klang Dong","ADM3_TH":"กลางดง","ADM3_PCODE":"TH640904","ADM2_EN":"Thung Saliam","ADM2_TH":"ทุ่งเสลี่ยม","ADM2_PCODE":"TH6409","ADM1_EN":"Sukhothai","ADM1_TH":"สุโขทัย","ADM1_PCODE":"TH64","ADM0_EN":"Thailand","ADM0_TH":"ประเทศไทย","ADM0_PCODE":"TH"}},{"arcs":[[-149,-246,-247]],"type":"Polygon","properties":{"Shape_Leng":0.306129150996,"Shape_Area":0.00237180111469,"ADM3_EN":"Khao Kaeo Si Sombun","ADM3_TH":"เขาแก้วศรีสมบูรณ","ADM3_PCODE":"TH640905","ADM2_EN":"Thung Saliam","ADM2_TH":"ทุ่งเสลี่ยม","ADM2_PCODE":"TH6409","ADM1_EN":"Sukhothai","ADM1_TH":"สุโขทัย","ADM1_PCODE":"TH64","ADM0_EN":"Thailand","ADM0_TH":"ประเทศไทย","ADM0_PCODE":"TH"}}]}}}