{"type":"Topology","arcs":[[[8096,6262],[-85,-27]],[[8011,6235],[-9,36]],[[8002,6271],[-10,23]],[[7992,6294],[42,6],[17,9]],[[8051,6309],[45,-47]],[[7992,6294],[-15,26],[-11,14],[-37,28]],[[7929,6362],[7,13],[18,6]],[[7954,6381],[49,-27],[35,2],[-6,-13]],[[8032,6343],[2,-17],[17,-17]],[[8096,6262],[13,-13]],[[8109,6249],[-21,-6],[-26,-12],[25,-29],[-46,-16]],[[8041,6186],[-30,49]],[[7929,6362],[-20,12]],[[7909,6374],[-43,24],[-13,10]],[[7853,6408],[19,24],[82,-51]],[[7909,6374],[-21,-13],[-27,-2],[-29,6],[-38,-6],[-41,4],[-11,-4],[-11,-11],[-32,15],[-23,6],[-13,-3],[-5,-16],[-31,-11],[-7,-6],[-25,-2],[-26,5],[-25,-9],[-2,-12],[-30,-3],[-43,6],[-13,-3],[-24,5],[-28,-1]],[[7404,6319],[-16,9],[7,13],[33,13],[-27,28],[11,9],[-8,4],[16,17],[18,5],[-7,20],[-12,-1],[-24,-11],[-20,2],[-22,10],[-43,-5],[-42,7],[-30,2],[-22,12]],[[7216,6453],[16,10],[28,4],[95,61],[34,7],[29,10],[11,11],[4,26],[56,14],[12,4],[36,5],[-9,6],[9,10],[19,5],[15,10],[41,3],[27,6]],[[7639,6645],[15,2],[8,7],[-1,11],[17,-5],[38,16],[13,11],[20,4],[25,-6],[12,4],[24,-15],[17,3],[26,-15],[34,0],[34,4],[27,-7],[23,4]],[[7971,6663],[-1,-14],[-9,-18],[-44,-25],[-27,-10],[-102,-27],[-15,-8],[-17,-14],[-13,-25],[-4,-25],[11,-26],[13,-13],[27,-15],[38,-15],[25,-20]],[[7971,6663],[19,3],[105,-4],[22,10],[9,26],[31,4],[3,17],[20,12],[20,5],[24,-5],[13,-14],[19,-6],[23,4],[22,16],[-6,6],[14,14],[12,3],[26,14],[11,14],[53,15],[14,13],[2,15],[18,2],[26,18],[27,12],[0,26],[13,12]],[[8511,6895],[15,-34],[2,-43],[6,-13],[-22,-29],[0,-10],[33,-31],[10,-16],[22,-25]],[[8577,6694],[-47,-21],[-16,-13],[-13,-42],[-22,-26],[-23,-12],[-4,-13],[-2,-59],[-4,-15],[-66,25],[-4,26],[-14,7],[-27,5],[-10,27],[-20,-17],[-15,-6],[12,-7],[-8,-16],[-12,-4],[3,-11],[-16,-20],[-18,-11],[-43,-3],[-6,-8],[4,-18],[-3,-8],[-38,-12],[-17,-11],[-7,-22],[10,-9],[-2,-13],[-24,-20],[-6,-13],[-25,-21],[-7,-1],[-55,11]],[[8511,6895],[9,2],[0,23],[-10,10],[14,6],[1,11],[-11,17],[-1,21],[11,1],[8,11],[1,16],[12,7],[-18,10],[-9,16],[-18,5],[7,11],[-19,25],[-25,17],[-13,-1],[-18,10],[-12,14],[-12,8],[-27,3],[-17,-4],[-3,12],[-25,10]],[[8336,7156],[2,16],[9,3],[-3,19],[16,6],[4,12],[17,4],[10,9],[3,16],[37,1],[8,20],[-3,7],[11,16],[-8,24],[14,10],[4,16],[32,10],[15,-7],[29,6],[5,6],[-2,17],[28,3],[11,19],[22,6],[-3,13],[18,3],[21,12],[5,17],[8,3],[52,-14],[6,-8],[15,-6],[3,-11],[22,-17],[18,-7],[10,-35],[22,-12],[9,3],[-6,14],[12,20],[-14,3],[13,10],[-1,11],[11,3],[-12,7],[28,6],[9,8],[-5,5],[25,6],[13,10],[-4,11],[11,10],[-9,8],[12,18],[14,-10],[14,-1],[19,15],[27,10],[18,-1],[9,-7],[16,6],[28,0],[18,20],[25,16],[20,9],[16,12],[29,11]],[[9139,7566],[5,-6],[-9,-16],[-2,-17],[-16,-33],[0,-9],[-15,-13],[11,-16],[-7,-1],[9,-17],[-8,-10],[27,-22],[8,-23],[-4,-10],[4,-17],[-9,-29],[-19,-15],[10,-11],[19,-6],[55,-6],[6,-9],[-8,-14],[-23,-3],[-23,-19],[3,-17],[-2,-19],[8,-13],[43,-33],[9,-20],[27,-9],[20,-17],[18,6],[35,-3],[15,5],[18,-5],[6,7],[9,-10],[16,-5],[28,1],[27,19],[11,0],[-2,-8],[13,2],[29,-11],[13,-10],[9,1],[18,-16],[2,-11],[15,-4],[24,8],[10,-7],[1,-15],[-29,-19],[-7,-9],[2,-40],[18,-9],[-6,-8],[9,-10],[-5,-9],[18,-12],[-8,-4],[6,-10],[-8,-32],[20,-42],[-2,-5],[56,-2],[34,5],[-5,-14],[37,-5],[8,4],[24,-33],[3,-40],[22,-9],[16,-19],[3,-30],[22,-15],[16,-6]],[[9817,6687],[-11,-3],[-14,6],[-22,-1],[-24,-11],[-29,5],[-8,-5],[-30,-6],[-19,1],[-12,-5],[-18,5],[-27,1],[-9,-4],[-8,7],[-22,-1],[-16,-7],[-15,0],[-24,11],[-1,-13],[17,-14],[17,-8],[0,-15],[17,-23],[-20,10],[-22,2],[-26,21],[-14,8],[-21,3],[-6,8],[-17,1],[-13,10],[-20,23],[-29,4],[-9,-2],[-19,7],[-20,-1],[-25,3],[-4,8],[-32,-1],[-9,-10],[-28,-21],[-30,-9],[-14,1],[-11,-14],[-57,-6],[-10,-19],[-20,1],[-20,-8],[8,-9],[-6,-6],[-25,-1],[-26,-27],[-20,-12],[-21,-7],[1,-12],[-11,-7],[-9,-18],[2,-12]],[[8956,6515],[-11,-3],[-36,4],[-19,9],[0,10],[-14,-5],[-33,9],[-45,-2],[-16,2],[-16,15],[-38,1],[-17,3],[-22,-2],[-1,10],[-10,4],[-83,6],[-27,7],[29,49],[-1,23],[-7,27],[-12,12]],[[8956,6515],[-2,-15],[12,-31],[-64,-18]],[[8902,6451],[-267,-78],[-154,-30],[-29,0],[-18,-5],[-13,-22],[-9,-4],[-9,5],[-11,-7],[-22,2],[-19,-5],[-7,12],[-22,5],[-25,-1],[-4,-7],[18,-25],[5,-26],[26,-13],[14,-12],[5,-11],[-6,-10],[-14,-1]],[[8341,6218],[-11,10],[2,7],[-16,14],[-23,-1],[-20,-8],[-23,4],[-71,0],[-52,7],[-18,-2]],[[8341,6218],[-1,-7],[13,-16],[30,-2],[1,-12],[17,-4],[11,-15],[19,-17],[13,-21],[40,-16],[23,-20],[24,-12],[9,0],[5,12],[-14,26],[34,-5],[28,-8],[11,-8],[38,5],[36,-11],[-2,-13],[17,-5],[28,5],[28,-4],[17,8],[28,-1],[11,4],[21,-4],[13,-12],[7,-18],[24,-14],[21,-5],[17,-12],[6,1],[15,27],[2,27],[24,13],[33,-1],[8,3],[14,29],[10,13]],[[9020,6128],[0,-9],[12,-8],[21,-3],[10,-9],[14,-5],[0,-12],[-7,-25],[3,-13],[-5,-13],[8,-7],[3,-18],[12,-2]],[[9091,6004],[-27,-16],[-10,-11],[-25,7],[-16,0],[-26,-12],[-5,-6],[14,-13],[1,-19],[10,-14],[45,-5],[11,-6],[-5,-38],[-10,-10],[6,-23],[-8,-8],[-5,-16],[5,-11],[-5,-10],[-16,-9],[-3,-17],[-13,-4],[7,-9],[-11,-13],[2,-13],[-19,-12],[-27,-7],[-5,-14],[-22,-16],[-3,-20],[11,-8],[3,-14],[-16,-7],[-1,-16],[-28,-13],[-35,-5]],[[8865,5596],[-11,6],[-11,14],[-8,38],[-27,23],[-99,58],[-19,9]],[[8690,5744],[-32,9],[-31,12],[-23,18],[-31,30],[-12,21],[-18,12],[-61,32],[-51,36],[-40,32],[-26,26],[-40,21],[-87,34],[-14,4]],[[8224,6031],[-58,17],[-19,11],[-8,9],[-14,42],[-40,41],[-44,35]],[[8011,6235],[-57,-18],[-13,-9],[-2,-9],[12,-19],[-203,-74],[-57,-10],[-18,-15],[-61,-27],[6,-18],[-14,-5],[12,-14],[-22,-13],[13,-7],[-4,-17],[20,-30],[30,-13],[4,-14],[-9,-11],[1,-15],[-9,-17],[-13,-12],[16,-15],[-10,-5],[-6,-13],[-31,-5],[3,-5],[-11,-10],[-44,-16],[17,-15],[4,-9],[20,-16],[0,-5]],[[7585,5754],[-9,-11],[5,-11],[-6,-6],[-35,-18],[-4,-10],[-43,-20],[-9,-10],[-19,-2],[-32,7],[-18,7],[-19,-8],[-36,-4],[-17,-11],[-52,-2],[-7,-8],[32,-28],[32,-8],[7,-7],[-13,-28],[2,-13],[36,-31],[31,-3],[13,-11],[3,-12],[-44,-7],[-19,-18],[7,-16],[-4,-23],[21,-14],[-2,-14],[14,-7],[27,-5],[16,-10],[13,-21],[23,-10]],[[7479,5361],[-29,3],[-14,-2],[-30,-15],[1,-7],[-13,-20],[25,-19],[5,-9],[20,-9],[11,-11],[0,-12],[9,-9],[16,-3],[5,-15],[-17,-3],[-19,-11],[-1,-6],[-19,-17],[-19,-4],[-70,-1],[-14,-8],[-18,6],[-16,-3],[-10,7],[-33,0],[-20,-22],[-20,-7],[0,-12],[-31,-19],[-10,6],[-20,-2],[-38,5]],[[7110,5142],[-16,9],[9,15],[-17,7],[-1,9],[-30,-6],[-15,2],[5,9],[-9,6],[0,12],[15,6],[-12,4],[1,9],[-19,28],[-11,-5],[3,9],[-7,15],[14,13],[17,0],[0,9],[-16,4],[-20,23],[-24,-2],[-4,16],[4,19],[9,3],[9,-7],[3,10],[21,12],[-11,6],[17,10],[-18,0],[-6,20],[-14,0],[-6,7],[9,6],[-13,2],[-12,-8],[-30,5],[-4,9],[-14,8],[-12,-3]],[[6905,5433],[-9,11],[-19,10]],[[6877,5454],[20,4],[32,-4],[21,11],[32,10],[27,14],[20,16],[22,13],[-9,7],[5,7],[44,16],[2,4],[-18,7],[-18,-6],[-30,19],[-10,11],[-15,7],[-3,18],[8,14],[33,13],[-7,10],[-53,10],[-22,6],[-23,12],[2,16],[17,9],[54,10],[17,11],[2,17],[-5,4],[-32,9],[-13,10],[-19,7],[-9,26],[-23,13],[-8,12],[-20,4],[-17,12],[-22,7],[-45,23],[5,5],[20,-1],[16,25],[-5,14],[-22,14],[-15,27],[2,16],[-21,16],[-13,1],[-8,15],[-10,-1],[-11,10],[-21,-7],[-27,-2],[-23,2],[-34,21],[1,10],[-15,9],[-17,-6],[-15,8],[7,14],[-20,8],[-25,18],[-7,11],[-21,9],[3,11],[21,9],[-1,10],[-18,7],[-1,12],[-21,15],[-29,1],[-21,15],[-23,-5],[-14,4],[0,11],[-40,1]],[[6391,6190],[-26,25],[-5,16],[-24,0],[-9,19],[-26,17],[-3,19],[-10,10],[15,9],[29,1],[17,19],[23,7],[-2,15],[18,9],[2,14],[-30,15],[-24,30],[-4,15],[22,12]],[[6354,6442],[18,-10],[36,-4],[10,-13],[52,3],[5,8],[21,-1],[15,7],[20,1],[26,5],[29,-7],[36,5],[36,-5],[37,8],[-10,8],[-17,5],[-8,15],[-9,3],[10,18],[-56,5],[10,10],[-15,9],[6,3],[-8,13],[-32,1],[12,19],[33,16],[23,4],[14,10],[4,13],[14,13],[26,8],[37,-3],[18,34],[14,9],[-1,9],[10,3],[13,14]],[[6783,6678],[28,-5],[28,2],[15,-4],[23,-14],[3,-14],[-10,-6],[-4,-14],[26,-18],[8,-16],[3,-22],[6,-8],[15,-5],[1,-19],[-12,-5],[21,-10],[24,-5],[23,-10],[48,-13],[25,-13],[65,-9],[29,-6],[8,-12],[20,-6],[19,6],[21,1]],[[7404,6319],[17,-28],[13,-9],[37,-12],[9,-18],[17,-6],[-8,-9],[12,-13],[2,-14],[10,8],[35,-6],[36,1],[11,-7],[26,12],[22,-7],[29,6],[7,-4],[-18,-17],[14,-13],[16,-5],[20,16],[15,0],[12,-7],[12,5],[15,-3],[-15,-6],[-4,-10],[12,-2],[26,4],[31,-11],[13,13],[18,5],[25,0],[21,7],[-15,16],[25,13],[-14,17],[17,9],[21,-3],[-4,9],[16,3],[10,10],[31,7],[23,1]],[[8224,6031],[-5,-7],[-23,-1],[-30,-16],[-16,-16],[6,-25],[-8,-10],[-7,4],[-7,-18],[5,-15],[-8,-5],[10,-12],[-13,-27],[-31,-17],[-11,-15],[-20,-4],[-33,9]],[[8033,5856],[-19,15],[-3,8],[-42,2],[-7,16],[-22,-5],[-10,4],[-9,-8],[-18,-2],[-29,-13],[11,-18],[-23,-10],[-61,3],[-2,-8],[-14,-6],[0,-12],[-23,-4],[-22,-9],[-16,-28],[-14,-3],[-5,-11],[-10,2],[-76,-6],[-15,-8],[-19,-1]],[[9817,6687],[29,-6],[21,7],[13,-3],[35,2],[0,4],[31,-8],[29,9],[12,11],[12,-5],[-20,-17],[-20,-7],[-30,-24],[4,-8],[-18,-14],[-19,-3],[-15,-8],[-41,-18],[-12,1],[6,-22],[19,-15],[17,-7],[-18,-19],[2,-15],[56,-24],[14,1],[2,-26],[12,-8],[1,-11],[-8,-9],[-27,-6],[1,-5],[-61,-18],[-17,-18],[1,-12],[-16,-27],[11,-13],[1,-20],[-15,-4],[-9,-14],[-36,14],[-19,12],[-8,-2],[-26,-23],[-25,-5],[-11,-9],[-28,1],[-37,-8],[-17,4],[-32,-5],[-49,-18],[-9,-13],[-15,-11],[12,-16],[-14,-21],[-1,-10],[42,-8],[0,-12],[10,-13],[-15,-23],[3,-10],[14,-7],[-30,-17],[5,-10],[26,-15],[3,-10],[-17,-18],[-23,0],[-35,-9],[-12,-7],[-32,1],[-28,7],[-47,19],[-26,0],[-19,8],[-28,2],[-43,-8],[-62,6],[-9,-5],[-6,-15],[-20,-23],[-9,-22],[-22,-9],[-14,4]],[[9020,6128],[14,8],[27,2],[18,8],[10,19],[17,-1],[19,5],[28,2],[-11,14],[-13,5],[-1,31],[-11,7],[-8,12],[-24,8],[-2,14],[-26,19],[-4,11],[10,9],[1,29],[-18,29],[-22,12],[-8,14],[-15,3],[-43,-10],[-15,3],[-8,28],[-12,9],[-21,33]],[[8336,7156],[1,-17],[-12,-4],[15,-13],[-23,-8],[-23,-18],[-4,-27],[11,-7],[-10,-14],[-17,-13],[2,-16],[-7,-9],[-24,-7],[-48,-20],[4,-23],[-8,-9],[-24,-7],[-49,-22],[-46,-7],[-27,3],[-21,-1],[-17,-9],[-25,-20],[-59,-22],[-65,-12],[-21,-9],[-42,-7],[-23,4]],[[7774,6842],[-14,21],[-63,33],[-48,68]],[[7649,6964],[-7,15],[-18,21],[-35,23],[-27,26],[-15,9],[-22,27],[-10,26],[5,19],[11,12],[59,29],[16,12],[9,32],[17,16]],[[7632,7231],[35,-3],[3,-11],[16,-9],[7,-17],[32,-7],[15,3],[18,-8],[4,-8],[45,-15],[9,6],[10,-7],[43,2],[9,12],[32,-2],[16,8],[15,-7],[15,-1],[3,-6],[36,0],[16,4],[29,4],[5,-7],[35,-3],[14,-13],[58,5],[19,6],[22,-6],[20,9],[5,-2],[28,5],[25,-1],[10,-11],[18,-1],[37,6]],[[7971,6663],[2,28],[-16,34],[-50,43],[-31,19],[-19,7],[-41,8],[-28,11],[-8,10],[-6,19]],[[7632,7231],[15,12],[19,6],[62,-7],[33,16]],[[7761,7258],[21,1],[59,19],[3,7],[-32,55],[2,34],[18,2],[16,8]],[[7848,7384],[44,4],[29,-2],[13,21],[14,10],[84,3],[25,10],[21,-9],[26,5],[39,-7],[14,8],[-5,16],[6,12],[48,14],[8,17],[28,10],[21,-18],[11,0],[8,18],[-2,19],[34,3],[10,-5],[45,-3],[13,25]],[[8382,7535],[11,20],[1,16],[10,11],[17,4],[9,24],[38,15],[22,-3],[8,4],[6,22],[7,7],[25,1],[15,16],[45,6],[5,25],[-9,21],[-17,12],[4,36],[5,11],[-14,15],[-2,24],[-26,13],[-5,31],[19,6],[4,11],[-25,66],[1,33],[-15,22],[6,11],[8,32],[12,17],[-2,28],[8,14],[-12,33],[-24,23],[-2,9]],[[8515,8171],[-18,23],[35,28],[18,19],[47,35],[17,3],[34,-9],[26,-1],[26,7],[16,-1],[25,8],[29,-5],[32,1],[27,-7],[31,-14],[11,-18],[0,-15],[18,-37],[-12,-18],[-13,-39],[-4,-35],[3,-26],[10,-7],[30,-5],[0,-35],[-7,-20],[37,-34],[17,-11],[4,-30],[37,0],[7,-16],[17,-13],[0,-20],[20,-15],[-18,-5],[4,-21],[22,-31],[3,-15],[8,-6],[31,-10],[22,2],[13,-4],[21,-27],[0,-23],[15,-28],[-4,-29],[-11,-9],[5,-35],[-11,-22],[-23,-13],[3,-10],[19,-6],[5,-6]],[[7639,6645],[-27,8],[-9,8],[-23,2],[-10,12],[-37,11],[-14,10],[-13,1],[-28,13],[-12,18],[-22,43],[-13,15],[2,20],[6,11],[33,4],[17,13],[-12,16],[-13,4],[-7,12],[12,5],[19,16],[10,-5],[19,16]],[[7517,6898],[50,26],[14,14],[27,12],[25,-1],[4,10],[12,5]],[[7517,6898],[-3,9],[8,9],[-13,3],[-3,11],[-19,6],[-8,10],[1,12],[-15,18]],[[7465,6976],[-17,13],[-30,5],[-8,15],[-37,3],[-22,-1],[-12,10],[2,13],[-28,16],[-48,17],[-15,23],[-1,18],[-21,3],[-7,-7],[-19,-2],[-25,17],[4,-16],[-38,5],[-17,7],[2,17],[-13,4],[2,14],[11,10],[-10,20],[2,8],[-14,13],[-4,24],[-36,11],[-14,18],[-25,6],[-7,7],[3,9],[13,5],[-7,20],[6,11],[-7,6]],[[7028,7318],[33,10],[29,-1],[13,12],[5,27],[10,21]],[[7118,7387],[30,0],[26,9],[11,0],[-4,-12],[11,-8],[10,10],[42,-14],[24,-5],[36,-3],[32,11],[28,0],[26,-13],[15,-1],[20,-17],[11,-24],[28,-8],[11,-10],[23,-9],[38,-7],[25,-12],[7,-8],[23,11],[21,3],[35,-3],[29,3],[16,-6],[9,4],[14,-17],[46,-3]],[[6783,6678],[-8,9],[-2,24],[-5,11],[-19,10],[-2,12],[-41,6],[-22,-2],[-10,4],[1,19],[-13,5],[-1,14],[-27,16],[-12,13],[-18,6],[-25,4],[-19,15],[-2,8]],[[6558,6852],[20,5],[19,13],[10,1],[44,19],[35,10],[22,0],[17,4],[28,-8],[24,0],[23,-17],[21,-2],[36,9],[25,-4],[33,5],[14,-17],[9,2],[30,-5],[10,12],[46,-10],[54,5],[-4,9],[19,0],[-2,12],[13,4],[0,-8],[11,-4],[4,9],[21,1],[18,10],[30,-16],[21,3],[7,5],[19,0],[16,11],[0,11],[12,4],[8,14],[1,14],[177,19],[16,4]],[[6558,6852],[-37,4],[-26,20],[-20,8],[-3,7],[-22,19],[-12,4],[-9,12],[-22,7],[-6,8],[-46,20],[-1,9],[-47,57],[-24,4],[-5,15],[10,18],[-14,12],[10,13],[3,14],[51,23],[9,10],[39,20],[15,-3],[-3,42],[3,9],[21,10],[4,8],[-18,40],[-9,14],[-3,19],[9,29],[-17,7]],[[6388,7331],[7,7],[2,16],[21,4],[20,11],[54,0],[31,5],[23,11],[4,10],[26,1],[16,-11],[27,-9],[12,-19],[9,-1],[24,8],[7,7],[24,6],[39,-1],[23,-6],[20,-12],[5,5],[-23,15],[-2,10],[15,4],[18,-4],[23,-12],[14,-12],[11,-20],[38,-17],[16,-2],[29,18],[14,14],[37,7],[17,-2],[24,-15],[0,-26],[15,-3]],[[7761,7258],[7,15],[-5,9],[-24,14],[-27,8],[-26,15],[-3,15],[8,9],[22,10],[16,19],[0,14],[-27,34],[-13,17],[-31,30],[-6,11],[-22,18],[-14,25],[-15,17],[-36,30],[-34,22],[-28,33],[-42,32],[-55,7],[-39,12],[-30,3],[-30,-8],[-44,1],[-24,-2],[-20,-14],[-32,10],[-37,6],[-16,-5]],[[7134,7665],[3,13],[-7,19],[10,29],[-10,38],[6,18]],[[7136,7782],[39,4],[26,-7],[20,-1],[38,5],[40,-12],[28,-11],[28,1],[28,-3],[68,12],[38,-1],[24,-15],[3,-21],[15,-6],[32,0]],[[7563,7727],[-6,-26],[9,-38],[-8,-7],[6,-16],[50,-31],[29,-5],[40,-3],[6,-32],[31,-35],[24,-10],[35,-2],[14,-3],[13,-11],[-2,-7],[-22,-24],[-4,-13],[-14,0],[12,-26],[0,-11],[12,-11],[-1,-13],[26,-6],[23,-12],[12,-1]],[[7563,7727],[24,-1],[23,6],[12,-4],[22,2],[25,-13],[24,-1],[17,4]],[[7710,7720],[8,-9],[-17,-7],[3,-10],[18,-10],[0,-19],[16,1],[-5,-7],[-4,-29],[24,-4],[113,-11],[31,-15],[78,3],[18,8],[71,5],[27,9],[37,-8],[16,-23],[11,-3],[8,7],[25,1],[15,-5],[5,-7],[32,-10],[17,-16],[22,-2],[11,-10],[15,2],[30,-7],[22,-1],[25,-8]],[[7136,7782],[-1,29],[-26,20],[-10,22],[-17,12],[0,27],[-12,12],[1,36],[7,14],[16,13],[29,33],[30,12],[22,4],[13,12],[30,10],[2,18],[-4,10],[-19,21],[0,11],[-9,6],[-39,10],[-22,12],[-20,23],[-19,9],[-29,8],[-35,17],[-44,6],[-53,20],[-10,7],[-16,25],[-1,28],[-12,18],[-22,11],[-18,18],[-9,23],[-14,18],[-1,16],[-8,14],[4,29],[-21,8],[-6,12],[6,24],[29,19],[13,13],[3,12],[14,12],[36,17]],[[6894,8533],[37,2],[-3,-12],[12,-5],[37,-4],[28,8],[20,12],[14,-4],[-3,-6],[17,-31],[21,13],[27,-2],[10,-5],[28,0],[38,11],[-3,-7],[17,-6],[25,-17],[-6,-3],[14,-14],[13,1],[13,-13],[-7,-12],[14,-10],[20,-3],[16,-22],[25,-9],[13,-22],[-3,-7],[18,-4],[6,-12],[20,-8],[-11,-10],[-3,-13],[7,-7],[24,0],[0,-6],[28,-6],[33,1],[29,-3],[-3,-9],[10,-6],[6,-15],[18,-8],[0,-7],[14,1],[-2,-6],[15,-4],[5,-12],[-10,-11],[26,-7],[6,-9],[18,8],[19,-2],[1,6],[23,-4],[28,-15],[19,-6],[8,-19],[28,-7],[32,4],[0,-11],[15,2],[26,12],[16,0],[28,-13],[27,-10],[40,-21],[28,-22],[13,-1],[21,9],[3,11],[14,11],[26,-9],[25,3],[55,-16]],[[8077,8115],[21,-13],[8,-9],[-14,-22],[-3,-18],[-10,-14],[17,-8],[25,-21],[1,-23],[10,-8],[0,-18],[-7,-7],[-6,-39],[-5,-13],[-29,3],[-30,-4],[2,6],[-28,-8],[-33,8],[-28,-2],[-14,14],[-16,-6],[-12,-13],[-25,-15],[-21,16],[-61,-11],[-12,8],[-10,-2],[-23,-18],[-11,-17],[-15,-15],[0,-10],[-20,-8],[-18,-32],[1,-15],[-15,1],[-6,-6],[12,-6],[-4,-12],[-12,2],[-15,-14],[14,-16],[17,-2],[8,-8]],[[7118,7387],[-1,47],[4,15],[13,14],[10,26],[-3,12],[-14,21],[-8,18],[9,16],[-7,13],[11,16],[8,29],[-1,18],[-12,12],[7,21]],[[6388,7331],[-34,21],[-29,1],[-11,22],[-33,14],[-20,-1],[-17,17],[-16,4],[-13,14],[-2,18],[-15,4],[-14,25],[-19,6],[-18,-5],[-36,-7],[-43,-13],[-26,0],[-15,-4],[-11,-9],[-7,-22],[1,-11],[-27,-6],[-25,-17],[-26,-6],[-17,1],[-10,-19],[-21,1],[13,-6],[12,-23],[27,-14],[-3,-29],[-29,-4],[-13,3],[-3,8],[-12,-2],[-5,10],[-19,16],[-20,2],[-5,11],[-18,-2],[-4,8],[-19,0],[6,10],[-27,-2],[-9,8],[-19,0],[-7,9],[-19,-1]],[[5711,7361],[-19,3],[-51,10],[-23,11],[-9,-6],[-18,10],[-17,-3],[-5,7],[13,5],[-46,17],[2,4],[-36,14],[-49,15],[2,13],[-33,31],[14,16],[-36,1],[0,14],[-17,-5],[-14,8],[4,11],[-24,18],[-16,-1],[-14,20],[14,18],[-1,22],[-31,20],[-29,2],[-3,15],[-25,19],[-15,4],[-2,9],[-46,14],[-25,-2],[2,10],[-15,2],[-14,14],[-43,-3],[-18,8],[-16,13],[-3,12],[-42,17],[-9,-1],[-34,13],[-30,16],[4,6],[-19,10],[-8,17],[-2,19],[-11,12],[-48,5]],[[4850,7865],[-6,21],[-20,-1],[-41,-18],[-26,-7],[-35,4],[7,18],[-5,23],[7,10],[-13,7],[-2,17],[27,13],[3,20],[-14,10],[-3,11],[-16,26],[0,12],[9,3],[6,24],[25,16],[-9,12],[-38,10],[-27,-9],[-36,8],[-33,21],[8,5],[2,16],[16,9],[16,21],[28,40],[28,23],[10,18],[-7,18],[-3,29],[17,32],[2,30],[-47,15],[-20,12],[1,28],[7,9],[-6,8],[-33,12],[-13,-2],[-34,5],[-25,14],[-7,16],[-24,31],[-26,42],[6,32],[15,3],[13,40],[-8,19],[-18,17],[5,6],[-11,10],[7,9],[23,3],[14,15],[-12,13],[5,14],[-2,11],[10,3],[4,24],[41,11],[22,19],[27,15],[12,3],[6,15],[21,22],[29,9],[52,2],[16,18],[25,7],[27,17],[16,2],[-3,12],[-15,9],[-7,20],[-20,18],[-17,21],[-23,10],[-25,18],[-25,11],[-34,25],[-40,10],[-42,2],[-12,12],[-12,25],[3,9],[-11,21],[17,17],[-4,33],[-24,39],[6,10],[-19,20],[-12,32],[-6,34],[8,28],[-9,24],[16,13],[6,19],[-8,17],[-20,15],[-6,16],[-4,27],[-17,16],[8,16],[-5,9],[-23,24],[-40,34],[-13,28],[15,30],[18,11],[0,29],[-5,12],[9,20],[-27,18],[-26,11],[-20,2],[-26,26],[2,6],[-9,28],[24,14],[26,-5],[17,3],[29,-12],[43,16],[-10,19],[19,11],[31,-2],[10,-12],[17,-7],[24,-16],[18,-3],[31,2],[9,-10],[16,-2],[21,-20],[32,-14],[19,-17],[30,-8],[16,8],[9,16],[10,4],[20,21],[15,0],[38,-9],[7,-19],[27,-2],[24,5],[0,13],[13,-5],[29,-4],[22,-16],[20,-26],[20,-17],[19,-10],[19,-17],[19,-3],[25,3],[7,-10],[40,14],[17,16],[8,25],[-7,3],[-12,31],[20,11],[5,14],[16,12],[3,14],[22,1],[37,11],[22,30],[21,5],[18,-2],[8,12],[14,0],[32,16],[21,-11],[2,-12],[-9,-30],[24,-14],[7,-23],[12,-19],[18,-10],[16,-22],[6,-35],[10,-28],[28,-11],[14,-10],[11,-16],[16,-12],[25,-10],[10,-10],[0,-16],[-7,-17],[-12,-15],[7,-16],[22,-20],[13,-8],[42,-14],[46,-27],[3,-5],[-3,-24],[7,-8],[57,-20],[34,-20],[23,-25],[5,-19],[-7,-12],[-32,-20],[-18,-7],[-39,-4],[-30,-20],[-52,-8],[-88,-23],[-32,-5],[-41,3],[-17,-4],[-6,-8],[8,-11],[21,-11],[3,-9],[-28,-25],[0,-13],[14,-26],[27,-25],[-19,-27],[8,-35],[-9,-17],[-22,-24],[-11,-26],[21,-21],[36,-15],[11,-10],[8,-39],[15,-21],[25,-52],[8,-44],[-11,-25],[-2,-12],[6,-22],[-7,-16],[-27,-27],[5,-13],[25,-27],[21,-12],[-7,-24],[5,-33],[-19,-10],[-11,-17],[-38,-4],[-32,-14],[-15,-19],[-1,-12],[-15,-19],[2,-23],[-12,-26],[9,-11],[26,-11],[22,-30],[1,-27],[13,0],[6,14],[29,17],[14,40],[7,7],[46,27],[21,6],[25,36],[15,1],[16,-8],[54,5],[52,13],[22,-3],[22,2],[29,16],[13,24],[16,11],[22,9],[34,6],[42,14],[11,8],[39,16],[36,2],[23,8],[94,-3],[14,6],[9,29],[21,11],[55,16],[11,1],[17,-10],[30,9],[54,-3],[30,0],[33,-11],[63,-39],[7,-11],[1,-18],[38,-7],[10,1],[3,14],[-4,11],[15,44],[13,8],[30,8],[5,16],[23,3],[25,32],[23,17],[44,17],[23,-17],[45,-8],[17,-16],[-4,-24],[-13,-25],[35,-20],[-8,-17],[0,-13],[20,-15],[-20,-12],[17,-25],[19,-7],[-8,-35]],[[8077,8115],[37,-2],[12,-14],[17,-7],[48,-63],[22,-9],[6,-10],[27,-3],[54,13],[16,34],[-4,7],[13,9],[23,2],[36,10],[48,28],[4,14],[22,8],[7,7],[15,0],[16,10],[19,22]],[[4517,6463],[-16,1],[-27,-6],[-31,-3],[3,-15],[-19,-1],[-23,16],[-3,19],[24,16],[-8,14],[-34,-2],[-25,-17],[-23,-4],[-5,11],[12,21],[-3,13],[-44,5],[-5,15],[15,9],[27,5],[18,9],[12,12],[21,6],[21,-6],[13,-18],[22,1],[-3,17],[-47,31],[-22,-3],[-40,2],[-3,9],[10,31],[-16,12],[-26,2],[-35,-13],[-13,-1],[-34,12],[0,13],[56,5],[14,16],[-30,12],[-12,10],[-9,15],[9,12]],[[4238,6746],[16,5],[25,-3],[19,7],[16,-1],[30,-10],[29,-2],[30,19],[17,-1],[-2,-15],[10,-8],[15,-3],[1,9],[-15,9],[-1,15],[6,11],[28,4],[10,9],[16,-5],[20,18],[30,-1],[9,5],[17,1],[8,-8],[28,-9],[-7,-13],[2,-18],[-20,-21],[5,-7],[-14,-12],[9,-3],[33,3],[24,10],[-5,4],[26,6],[-4,24],[10,5],[12,-4],[3,13],[23,5],[24,19],[10,-5],[3,8],[14,2],[5,9],[39,-14],[19,2],[25,21]],[[4836,6826],[-9,-24],[29,-13],[6,-17],[-26,-24],[2,-14]],[[4838,6734],[4,-18],[1,-28],[-19,-3],[-4,-9],[-21,-10],[-13,4],[-13,-7],[-26,-4],[-1,-9],[-19,-4],[-10,-10],[-40,-9],[8,-4],[-31,-10],[-2,-16],[-29,-4],[-7,-10],[-23,4],[-12,-4],[-26,-23],[18,-11],[-6,-13],[-11,0],[-19,-13],[-9,-16],[-6,9],[-12,0],[-5,-7],[10,-11],[-1,-7],[11,-11],[-12,-8],[12,-2],[-8,-7]],[[4838,6734],[17,-10],[13,-14],[-14,-35],[11,-15],[16,-6],[54,-2],[15,-11],[15,-5],[-5,-5],[19,-23],[46,6],[5,-3],[24,13],[25,-4],[5,-7],[20,3],[17,-16],[9,1],[18,-14],[25,-7]],[[5173,6580],[-43,-6],[-17,6],[-26,-19],[-23,-5],[-9,-7],[-22,-2],[7,-11],[-16,-23],[9,-10],[-9,-5],[-14,7],[-26,5],[26,-19],[-8,-29],[-21,-8],[-4,-20],[-8,-18],[-29,2],[-21,-14],[-34,0],[-16,-8],[-14,3],[-12,-11],[9,-11],[-8,-11],[21,-4],[-5,-19],[7,-4],[-16,-9],[14,-4],[-14,-8],[6,-13],[-11,-4],[-14,-13],[12,-13],[-24,-7],[-5,-16],[-23,6],[-7,-5],[7,-10],[-8,-10],[-19,-4],[13,-5],[-11,-13],[-11,1],[4,-10],[-7,-7],[12,-20],[-8,-11],[-18,-3],[-1,-10],[-28,-4],[-26,8],[-16,13],[-11,-21],[-16,6],[-21,-14],[-21,-3]],[[4599,6136],[-25,-1],[-33,-8],[-9,22],[-13,8],[-44,8],[-28,0],[-33,-19],[-31,8],[-33,23],[-4,10],[21,25],[7,31],[17,18],[32,14],[19,-4],[12,-17],[3,-20],[20,0],[6,15],[-18,36],[-20,19],[-12,4],[6,13],[28,5],[20,-2],[37,-16],[12,-17],[42,-12],[12,-13],[4,-13],[21,-5],[10,6],[-17,15],[-18,28],[-22,14],[-15,14],[-10,17],[15,20],[13,8],[24,3],[8,6],[-6,15],[-23,5],[-24,-2],[-79,6],[-3,12],[16,3],[21,11],[16,18],[-4,16]],[[4238,6746],[-11,9],[-16,0],[-20,-15],[-44,-3],[-58,22],[11,21],[33,30],[-17,15],[-1,11],[21,9],[-10,11],[-19,5],[-32,-5],[-21,-8],[-21,-1],[-17,4],[-20,-1],[-9,6],[36,13],[10,14],[1,17],[-48,15],[-28,-6],[-9,4],[2,20],[-18,5],[-18,-10],[-15,6],[-14,18],[-3,15],[-44,11],[-17,-7],[-3,-17],[-8,-7],[-25,0],[-11,11],[-15,4],[13,27],[-15,6],[-23,-3],[-16,-9],[-21,6],[-18,-3],[-10,-10],[-17,4],[-26,-7],[-17,-11],[-29,-11],[-39,4],[-51,-7],[-40,12],[-23,19],[-37,14],[-29,17],[-2,7]],[[3360,7017],[13,8],[26,1],[19,-2],[13,18],[52,16],[18,-13],[27,3],[5,11],[-10,24],[5,18],[18,10],[35,8],[31,26],[18,9],[25,-1],[12,3],[17,13],[33,10],[30,-1],[19,-9],[16,2],[29,36],[13,10],[25,7],[31,1],[29,11],[21,3],[10,9],[0,11],[-15,11],[-1,11],[15,-1],[24,7],[8,8],[36,12],[-2,19],[18,-2],[25,10],[7,10],[59,3],[20,16],[45,-12],[25,2],[8,10],[0,31],[7,8]],[[4219,7402],[15,2],[20,-7],[19,-15],[54,-12],[8,-10],[0,-10],[14,-4],[30,12],[34,-4],[21,-7],[-12,-13],[19,-22],[18,4],[10,-17],[15,-9],[20,5],[5,8],[36,0],[24,-10],[15,-15],[-3,-18],[15,-12],[28,-14],[11,-14],[-3,-7],[26,-14],[24,-5],[25,-1],[20,-6],[35,-3],[43,-8],[25,18],[13,-8],[21,1],[8,-16],[18,-12],[13,-1],[11,-8],[2,-18],[42,-15],[16,-13],[16,-5],[22,1],[6,-12],[24,-12],[19,0]],[[5061,7076],[-25,-12],[-1,-21],[-24,-23],[-20,-8],[-10,-10],[-24,-13],[-14,-21],[0,-11],[-14,-9],[-8,-45],[-8,-7],[-9,-31],[-23,-15],[-17,-5],[-28,-19]],[[5711,7361],[-24,-11],[-22,-5],[-21,-14],[-7,-24],[-45,-14],[-18,-27],[-53,-18],[-32,-8],[-50,-7],[-23,-7],[-20,-10],[-25,-20],[-22,6],[-22,-24],[-16,-7],[-34,-7],[-37,-3],[-8,-6],[-2,-21],[-22,-8],[-11,-10],[-22,-4],[-19,-12],[-3,-21],[-16,-3],[-15,-10]],[[5122,7066],[-25,7],[-20,-3],[-16,6]],[[4219,7402],[8,12],[-8,23],[-37,17],[-6,9],[-28,12],[-18,2],[-5,11],[-48,6],[-15,15],[-20,-2],[-22,3],[-24,23],[-23,-1],[-13,15],[-27,9],[-20,-4],[-12,12],[3,11],[-15,10],[-24,22],[2,10],[-20,11],[-20,0],[-11,5],[-26,23],[-25,15]],[[3765,7671],[17,13],[2,10],[19,14],[61,11],[29,-10],[69,11],[13,8],[11,-3],[6,8],[25,7],[-3,11],[10,13],[10,-6],[21,20],[4,-7],[16,-3],[28,14],[21,-11],[11,5],[3,11],[17,-2],[9,11],[10,-4],[57,4],[11,-3],[22,9],[24,-16],[17,-2],[20,2],[9,-10],[13,9],[13,-4],[16,6],[13,15],[25,12],[37,-5],[14,4],[36,4],[23,-12],[30,-10],[25,-4],[25,6],[11,11],[29,12],[18,4],[28,-7],[58,9],[15,-5],[10,10],[54,-1],[4,24],[19,11]],[[6354,6442],[-24,11],[-17,17],[5,9],[-19,15],[-20,9],[-39,3],[-18,14],[-4,29],[-29,16],[-26,3],[-16,6],[-21,0],[-15,18],[-18,1],[-40,24],[-16,3],[-17,17],[-13,7],[-25,0],[-6,4]],[[5976,6648],[0,9],[-25,12],[-1,18]],[[5950,6687],[-15,8],[-31,8],[-31,13],[7,11],[-26,22],[11,5],[-16,17],[-10,19],[-27,14],[2,14],[-19,12],[-18,4],[-14,10],[-35,16],[-14,18],[-52,41],[-19,3],[-8,12],[-21,15],[-18,7],[-8,10],[-19,-1],[-12,5],[-34,2],[-27,14],[-57,-3],[-24,8],[-33,25],[-70,4],[-21,9],[-32,-6],[-23,9],[-22,4],[-17,-5],[-41,7],[-20,8],[1,9],[-15,11]],[[5950,6687],[-20,-6],[1,-7],[-16,1],[-19,-15],[-36,-6],[1,-21],[-12,-15],[-34,22],[-10,1],[-19,15],[-28,15],[-19,2],[10,-21],[-13,-4],[1,-7],[-17,-8],[-23,0],[-25,6],[-13,-5],[-42,6],[-26,14],[2,9],[-21,1],[-26,13],[-8,0],[-43,-25],[-20,3],[-26,10],[-17,-1],[-7,-8],[26,-29],[-9,-8],[24,0],[23,-14],[-7,-17],[-16,-10],[-27,-12],[-32,-22],[-17,0],[-40,23],[-51,-4],[-16,8],[-24,1],[-12,-6],[-21,0],[-14,5],[-39,9]],[[1724,8860],[-11,10],[-48,4],[-31,-9],[-15,3],[-28,-6],[-18,-11],[3,-12],[-22,-27],[-20,-5],[2,-5],[-20,-9],[-19,-1],[-8,-9],[-28,-14],[-2,-22],[-22,-21],[2,-7],[-15,-22],[-17,-9],[7,-19]],[[1414,8669],[-20,-6],[-23,3],[-21,-1],[-15,-6],[-13,2],[-13,20],[-17,11],[14,15],[-21,14],[-4,8],[-20,7],[-27,0],[-29,8],[-35,4],[-23,-2],[-29,7],[-6,14],[-16,6],[-25,-2],[-23,6],[-5,8],[1,26],[-19,34],[-31,5],[-22,17],[6,13],[-19,24],[0,18],[-8,17],[-37,23],[-16,5],[-37,21],[-34,14],[-22,4],[-20,11],[-14,14],[-12,1],[-45,23],[-46,20],[-3,4],[-43,17],[-16,11],[-3,9],[-17,12],[-16,5],[-1,8],[-13,3],[-56,30],[-9,18],[-32,7],[-11,29],[-33,13],[-29,18],[-32,9],[-5,14],[-54,19],[-7,35],[-12,13],[-36,19],[-34,31],[-23,4],[-29,38],[-12,12],[-16,7],[-7,11],[10,13],[-12,16],[-3,30],[2,17],[20,2],[23,-2],[23,12],[1,10],[-18,3],[-33,23],[-18,18],[-7,13],[-15,12],[-22,-6],[-26,-2],[-21,3],[-14,14],[6,15],[-14,21],[-1,11],[15,5],[7,-4],[-8,-10],[6,-5],[15,5],[24,-20],[37,4],[18,-9],[23,7],[21,-2],[24,5],[30,11],[36,11],[29,-13],[26,-17],[33,9],[33,4],[38,17],[28,4],[50,-18],[42,-6],[40,2],[33,-6],[52,17],[9,7],[29,3],[7,17],[27,-6]],[[724,9706],[3,-10],[14,-11],[-3,-17],[14,-22],[5,-16],[-3,-14],[11,-7],[3,-12],[27,-18],[30,-34],[24,-8],[16,-21],[-7,-13],[-29,-11],[4,-8],[13,-6],[4,-22],[15,-41],[10,-12],[-18,-3],[-22,-15],[-18,-4],[-46,-27],[-27,-2],[-20,6],[-30,-11],[25,-13],[23,-3],[26,-11],[17,1],[1,-9],[11,-1],[-4,-9],[11,-11],[22,-2],[8,-6],[58,-16],[11,-9],[16,-4],[20,10],[32,-3],[13,-11],[78,5],[28,17],[9,10],[2,-10],[30,-10],[6,-11],[-11,-10],[23,-37],[14,-35],[-7,-17],[-25,8],[-10,-6],[-30,-9],[-5,-31],[17,-6],[29,4],[16,-4],[10,-8],[11,-22],[-3,-6],[18,-19],[8,-31],[-12,-10],[7,-7],[-21,-13],[10,-6],[21,9],[27,-2],[17,-5],[23,5],[7,-5],[45,15],[0,13],[17,-3],[29,1],[17,14],[20,6],[11,20],[45,13],[45,-20],[22,-19],[26,-14],[32,-40],[44,-11],[59,3],[22,-11],[7,-9],[-28,-13],[-16,-17],[14,-19],[25,-3],[11,-6],[-4,-7],[15,-11],[-5,-10]],[[3333,7967],[22,-11],[5,-17],[-4,-6],[9,-11],[26,-11],[0,-8],[35,-17],[38,-15],[25,-5],[39,-4],[32,-17],[21,3],[14,-5],[-24,-18],[3,-19],[-5,-17],[19,-10]],[[3588,7779],[-24,-22],[-42,-16],[-12,-15],[-20,-8],[-16,2],[-15,-6],[0,-9],[-43,-9],[-17,-13],[-10,-1],[-14,-20],[3,-16],[-8,-1],[4,-11],[-19,-3],[3,-8],[-14,-25],[-24,-16],[-16,-18],[8,-12],[-18,-10],[-25,-2],[-11,13],[-53,22],[-6,-8],[-27,-10],[-34,-1],[-8,4],[-12,-15],[-3,-15],[-19,2],[-9,-10],[-31,-15],[18,-15],[-12,-3],[1,-16],[-20,-3],[0,-10],[10,-13],[14,-5],[-13,-12],[3,-5]],[[3057,7425],[-23,5],[-28,-10],[-12,12],[22,15],[11,13],[-18,8],[-31,-8],[-29,-12],[-13,7],[16,46],[-12,5],[-26,-7],[-7,10],[6,20],[14,18],[-10,9],[-39,-5],[-28,-13],[-20,-14],[-19,12],[9,21],[39,26],[33,3],[14,9],[3,18],[-20,12],[-11,2],[-21,-11],[-34,-22],[-13,-3],[-37,22],[-13,5],[-31,1],[-8,5],[-19,28],[3,21],[-15,20],[-13,8],[-42,17],[-38,2]],[[2597,7720],[0,12],[13,8],[-3,14],[9,15],[-7,13],[13,8],[-3,7],[-22,15],[8,13],[-63,51],[17,5],[9,-3],[6,16],[24,14],[13,3],[16,-12],[28,-3],[25,13],[16,4],[49,-37],[10,7],[11,24],[12,-7],[14,-23],[26,-10],[19,15],[7,-6],[10,16],[-3,8],[-21,12],[9,9],[-22,7],[-25,15],[11,14],[21,-5],[10,5],[24,2],[48,16],[35,-7],[5,4],[47,1],[25,5],[12,9],[17,1],[10,21],[64,0],[9,7],[35,-1],[5,5],[18,-5],[35,9],[-6,-8],[9,-11],[-4,-13],[7,-24],[-6,-36],[61,-4],[16,8],[12,1],[-3,17],[24,13]],[[1724,8860],[22,-21],[30,-8],[41,1],[7,3],[8,27],[18,9],[20,4],[9,8],[-7,16],[4,9],[25,11],[10,9],[36,0],[17,3],[1,7],[34,6],[52,4],[32,16],[44,2]],[[2127,8966],[-15,-4],[-2,-7],[13,-9],[0,-9],[26,-4],[-6,-14],[22,-6],[16,-12],[28,-11],[8,-7],[17,-1],[-5,-6],[-7,-29],[22,-9],[-3,-10],[15,-12],[3,-11],[23,-19],[25,3],[26,-5],[28,0],[9,5],[43,3],[15,7],[38,9],[22,-7],[19,-11],[20,-20],[15,5],[36,-3],[10,9],[12,0],[35,8],[9,-7],[29,-5],[51,7],[28,21],[45,-5],[32,6],[14,10],[24,-1],[13,3],[3,13],[15,10],[38,4],[1,14],[10,22],[22,18],[13,5],[26,2],[21,17],[32,6],[44,-13],[83,-8],[15,6],[18,-2],[12,-14],[14,-23],[-9,-15],[-16,-14],[4,-18],[20,-10],[18,-4],[14,-25],[7,-27],[-18,-5],[14,-12],[34,-12],[3,-14],[-11,-26],[16,-19],[-2,-25],[8,-9],[19,-7],[30,-28],[16,-24],[2,-39],[9,-26]],[[3405,8516],[-55,-3],[-33,-4],[-19,4],[-25,-6],[-17,3],[-26,-2],[0,4],[-27,6],[-22,-4],[-31,7],[-14,7],[-20,-5],[-30,3],[-9,5],[-18,-9],[-2,-15],[-41,-5],[-18,6],[-12,-6],[-29,2],[-19,11],[-11,-7],[-23,3],[-7,-4],[3,-15],[-29,1],[-6,-8],[-34,-14],[6,-8],[-15,-4],[9,-11],[-3,-22],[-18,7],[-7,-13],[-16,-3],[-5,10],[-21,5],[-17,-5],[6,-10],[-27,2],[-12,-6],[-2,-25],[17,-1],[-13,-10],[18,0],[-20,-10],[9,-15],[18,-10],[-13,-1],[5,-13],[-18,-5],[-23,-11],[15,-3],[-7,-10],[14,-9],[-48,-18],[-11,14],[-30,-16],[-16,21],[-21,-3],[-12,-9],[-14,10],[-25,-3],[0,8],[-18,-2],[-15,4],[-18,-13],[-18,0],[-8,-8],[-22,13],[-9,-10],[-20,3],[-1,-5],[23,-9],[-21,-6],[-14,-15],[-14,16],[-1,10],[-18,8],[-16,-13],[-26,4],[-3,7],[-30,6],[1,10],[-18,-4],[-7,14],[-25,-10],[-9,-7],[-10,13],[-29,12],[-10,0],[-6,15],[11,9],[-19,1],[-2,5],[-20,0],[2,-20],[-12,-3],[12,-8],[0,-10],[-20,11],[-3,-9],[12,-3],[-32,-20],[4,-9],[-16,-5],[13,-6],[-5,-8],[-14,5],[-1,-10],[-17,7],[-14,-8],[-15,-21]],[[2036,8225],[-25,18],[-13,-1],[-16,-15],[-21,-7],[-8,15],[-22,22],[-13,2],[-10,13],[-3,15],[-29,9],[-13,18],[-25,24],[-18,8],[-22,2],[-42,22],[3,12],[18,5],[18,-3],[28,17],[-8,14],[-15,5],[-24,-3],[-32,21],[-8,9],[-31,5],[-17,19],[-32,27],[-80,57],[-8,12],[-16,10],[-6,9],[-25,12],[-26,28],[-29,27],[-21,17],[-20,5],[-11,-6]],[[3360,7017],[-19,7],[-22,19],[2,8],[-17,11],[-3,17],[8,18],[-8,5],[-27,2],[-14,-6],[-27,9],[3,8],[26,5],[22,26],[15,-6],[14,-18],[19,7],[-3,26],[12,12],[24,12],[-9,7],[-68,0],[-16,-4],[-20,-12],[-15,1],[-6,7],[1,31],[-3,29],[-12,5],[-19,-12],[-3,-15],[11,-10],[-14,-15],[-31,-6],[-16,0],[-27,14],[-3,6],[12,24],[27,24],[3,13],[-6,27],[-8,7],[7,7],[26,0],[30,-10],[13,2],[2,18],[-13,13],[-32,16],[-23,4],[-25,-13],[-36,-1],[-16,-5],[-10,6],[-24,26],[15,17],[57,15],[2,18],[-13,5],[-46,7]],[[3588,7779],[44,-10],[27,-20],[8,-3],[17,-29],[34,-18],[17,-2],[25,-17],[5,-9]],[[724,9706],[10,15],[18,9],[33,-1],[46,23],[52,10],[9,8],[34,12],[22,21],[1,19],[-37,30],[-1,16],[14,14],[32,13],[0,12],[9,16],[11,9],[3,15],[40,17],[44,-2],[109,3],[55,7],[10,12],[41,9],[17,-5],[20,11],[21,-9],[3,-9],[-37,-22],[18,-19],[1,-15],[14,-5],[12,5],[15,-16],[26,-15],[4,-13],[-11,-16],[-15,0],[-14,-21],[-3,-12],[24,3],[10,-23],[-8,-13],[66,-19],[-24,-2],[-9,-7],[12,-18],[-4,-13],[22,-6],[9,-20],[20,-10],[-18,-7],[-15,3],[-1,-6],[18,-8],[11,9],[10,-1],[3,-10],[13,-6],[0,-9],[-16,-4],[10,-10],[48,-1],[10,-15],[14,-11],[-2,-13],[-14,-6],[15,-23],[25,-4],[-13,-14],[1,-14],[19,-3],[12,-16],[12,-4],[11,-14],[-8,-7],[-25,13],[-14,-1],[9,-16],[-2,-8],[28,-2],[7,-22],[37,-22],[-19,-16],[-7,-21],[17,-5],[25,7],[7,-9],[-4,-25],[39,-22],[18,-27],[-9,-8],[23,-25],[-16,-15],[16,-3],[12,-19],[12,-1],[-3,-20],[29,10],[32,-16],[10,-18],[14,-4],[11,-22],[-12,-6],[16,-5],[15,7],[24,-9],[13,1],[13,-10],[63,-30],[24,-2],[19,-16],[-1,-4],[27,-37],[18,6],[6,-7],[-15,-19],[1,-6],[44,-12],[-14,-10],[16,-14],[-18,-3],[4,-8],[-12,-5],[15,-13],[1,-7],[24,-6],[-4,-12]],[[2597,7720],[-15,0],[-13,8],[-40,5],[-28,0],[-15,15],[-21,-2],[-18,15],[13,9],[5,14],[-27,13],[-11,15],[-20,8],[-27,4],[-27,18],[-9,14],[-58,-3],[-13,7],[18,21],[-11,22],[-9,8],[-33,4],[3,24],[-22,24],[-29,9],[-20,-13],[-26,-1],[-21,25],[-4,16],[-19,27],[4,8],[-5,27],[16,12],[-14,15],[26,13],[9,22],[16,13],[32,13],[1,12],[-13,6],[-31,-2],[-17,8],[-5,19],[13,5],[-3,8],[-51,19],[-42,1]],[[3405,8516],[-15,-19],[-17,-16],[1,-12],[-11,-30],[-17,-13],[4,-19],[-4,-18],[13,-4],[27,-18],[-14,-19],[-8,-26],[-11,-5],[-25,1],[-24,-9],[-19,0],[-18,-11],[-12,10],[-45,-2],[-24,-15],[-1,-5],[18,-11],[3,-7],[22,-9],[13,-12],[9,-19],[15,-5],[50,-28],[1,-5],[29,-7],[9,-14],[-23,-14],[3,-18],[13,-11],[22,-6],[1,-13],[32,-16],[3,-8],[21,-10],[5,-10],[-16,-11],[-11,-23],[1,-11],[15,-21],[-26,-14],[-55,-11],[-6,-5]],[[4963,5688],[1,-6],[-32,-11],[-19,-16],[-28,-10],[-22,-11]],[[4863,5634],[-40,3],[-22,-12],[-22,-7],[-30,0],[-33,11]],[[4716,5629],[11,12],[-56,48],[-3,17]],[[4668,5706],[13,9],[7,12],[24,0],[8,9],[25,6],[14,-3],[13,20],[32,-12],[85,51],[13,-14],[7,2],[56,-39],[-7,-14],[17,-23],[0,-20],[-12,-2]],[[4840,5301],[-3,4],[-28,-4],[-7,5],[1,21],[-12,16],[26,12],[3,5],[-14,14],[-1,23],[-17,5],[-30,-10],[-11,1],[-10,19],[-14,1],[-18,-7],[-25,12],[-37,6]],[[4643,5424],[26,-2],[31,9],[12,13],[15,-6],[33,7],[9,8],[35,-6],[21,20],[15,-2],[10,11],[2,20],[8,5],[23,-5],[4,10],[20,2],[14,9],[13,-4],[6,-9],[19,-4]],[[4959,5500],[32,-1],[31,-7],[25,1],[11,-4],[14,7],[9,-10],[13,-4],[14,4],[6,-12],[23,-4],[39,12],[1,6],[39,2],[15,-2],[6,-9],[-6,-9],[20,-6],[35,-14],[17,5],[12,-2],[22,6],[22,-14],[12,1],[12,-8],[5,-12],[28,-2],[6,-11],[23,0],[20,9]],[[5465,5422],[10,0],[7,-10],[25,6],[11,8],[25,-11],[31,-5],[38,2],[27,9],[43,4],[14,-4],[33,2],[23,-3],[45,3],[44,7],[-2,-8],[12,-21],[-8,-20],[9,-13],[17,-3],[25,-16]],[[5894,5349],[-48,-27],[-23,-27],[-16,-12],[-32,-17],[-36,-8],[-18,-20],[-13,-4],[-21,3],[-5,6],[-19,2],[-31,-11],[-54,11],[-4,7],[-21,-1],[-10,-5],[-12,4],[-23,-14],[-14,1],[-7,9],[-15,-2],[-30,11],[-25,-5],[-10,8],[-65,1],[-12,5],[-47,-14],[-21,2],[-32,9],[-34,3],[-52,-2],[-50,5],[-59,14],[-27,10],[-19,0],[-28,8],[-21,-11],[-22,4],[-22,12],[-11,-11],[-18,4],[-11,-3],[-16,7]],[[6905,5433],[-20,-10],[-11,-21],[-38,-19],[-18,-4],[-24,-11],[-4,-15],[-15,-4],[-46,2],[-31,-7],[-13,-8],[-49,3],[-33,-3],[-37,20],[-34,-9],[-20,-15],[-29,4],[-19,-3],[-12,-9],[-30,-4],[-28,9],[-21,0],[-22,-12],[-29,-5],[-7,-8],[-24,2],[-15,19],[1,10],[-12,0],[-16,-8],[-33,-4],[-8,6],[-23,-11],[-32,-2],[-23,-8],[-11,5],[-14,-3],[-20,8],[-15,13],[-17,-8],[-24,3],[-16,-6]],[[6013,5320],[-15,1],[-20,10],[-29,-3],[-48,13],[-7,8]],[[5465,5422],[9,5],[9,24],[-50,23],[-14,12],[-7,-2],[-16,16],[8,9],[0,18],[12,-3],[11,9],[15,-4],[52,8],[15,19],[17,13],[-23,17],[2,13],[-15,19],[20,36],[-31,10],[-20,3],[-2,9],[-16,1],[-17,10],[-15,1],[-30,10],[3,6],[-23,0],[-27,-10],[-17,6],[-19,0]],[[5296,5700],[19,17],[17,5],[3,13],[-7,12],[25,28],[4,10],[21,10],[25,-1],[4,13],[16,8],[-1,17],[9,12],[1,16],[11,18],[-1,12],[-38,32],[-24,15],[-33,-1],[-61,8],[-15,-2],[-4,-8],[-25,-6],[-9,4]],[[5233,5932],[-24,11],[-7,8],[-24,5],[6,33],[-4,15],[21,16],[7,15],[-3,15],[-8,9],[5,41],[15,9],[9,14],[24,17],[-10,11],[-13,-2],[3,18],[11,17],[39,19],[20,5],[30,15],[48,-11],[14,11],[4,18],[38,4],[33,14],[0,9],[16,14],[37,11],[30,-13],[15,0],[8,17],[32,16],[0,14],[-16,4],[9,19],[20,0],[30,14],[-2,-14],[15,-7],[6,-11],[9,9],[30,-9],[-7,-15],[11,-3],[15,10],[14,-4],[5,8],[20,-2],[-14,8],[12,12],[7,31],[15,-3],[0,12],[-16,4],[26,26],[6,20],[-14,11],[9,12],[-3,8],[37,5],[19,17],[-7,4],[17,17],[26,17],[1,15],[13,7],[1,15],[12,12],[-3,15],[8,3],[-1,12],[12,14],[49,28]],[[6391,6190],[-38,-27],[-34,-8],[-40,1],[-19,-13],[-21,-8],[-58,-5],[-15,-7],[-12,-24],[-22,-9],[-29,-15],[-13,-21],[-15,1],[-30,-10],[-30,-4],[-38,-13],[-30,-6],[-35,-2],[-11,-8],[1,-19],[28,-17],[2,-19],[-38,-22],[-1,-10],[13,-13],[-9,-5],[10,-15],[30,-13],[15,-17],[-11,-6],[-9,-15],[16,2],[26,-18],[7,-12],[-13,3],[-9,-9],[24,-14],[11,-27],[31,5],[24,1],[17,-16],[16,13],[9,-2],[-7,-14],[9,-1],[8,9],[21,5],[16,18],[29,3],[-2,10],[14,1],[13,-12],[8,1],[10,-11],[-17,-6],[-30,-1],[-15,-8],[5,-13],[25,-12],[26,-34],[-3,-6],[21,2],[24,-8],[1,-7],[31,-16],[8,29],[9,16],[9,-5],[-3,-10],[15,1],[16,-28],[-4,-21],[22,-18],[14,-1],[5,-9],[17,5],[-6,-14],[5,-6],[19,4],[17,10],[0,10],[18,9],[-4,-19],[32,2],[1,-7],[-15,-5],[4,-10],[18,-3],[20,-22],[35,2],[-3,-16],[9,-4],[28,0],[-2,13],[12,-2],[15,13],[42,-15],[16,4],[7,-9],[11,1],[18,-7],[9,5],[6,-9],[18,5],[4,-10],[28,-10],[15,-9],[2,-10],[43,-23],[2,-10],[16,-10],[-9,-4],[8,-7],[-5,-11],[28,4],[16,-12],[13,10]],[[4863,5634],[16,-10],[15,-1],[2,-8],[30,-9],[41,7],[-10,-85],[2,-28]],[[4643,5424],[-30,-14],[-23,3],[-13,16],[-40,7],[-9,7],[2,22],[-19,3],[-24,-8],[-18,-15],[-11,4],[1,16],[17,24],[3,16]],[[4479,5505],[26,-3],[17,6],[22,0],[2,6],[36,11],[10,21],[12,4],[-10,8],[11,13],[-4,4],[7,17],[15,-4],[13,7],[27,-5],[3,11],[-26,5],[-7,5],[12,6],[30,2],[19,-3],[26,2],[-16,3],[12,8]],[[5233,5932],[-26,1],[-29,-9],[-24,12],[-31,-4],[-20,-7],[-2,7],[-38,5],[-23,0],[-6,5],[-35,-11],[-1,6],[-52,-7],[-14,-7],[-16,-1],[-5,9],[-21,-6],[-21,7],[-27,-15],[-8,4],[-26,-12],[-19,7],[-5,38],[-14,12],[-10,0],[-9,11],[-32,17],[-4,8],[-12,1],[-21,13],[-17,2],[-3,10],[-22,18],[-27,-2],[-12,11],[3,10]],[[4604,6065],[27,6],[25,0],[11,3],[-1,12],[-31,11],[-11,26],[-25,13]],[[4479,5505],[-5,33],[23,21],[2,8],[-22,33],[10,19],[0,14],[-17,8],[-9,15],[-11,0],[-49,-14],[-1,-13],[-9,-9],[-21,-3],[-5,7],[21,15],[-12,14],[1,14],[17,19],[16,6],[-8,19],[-28,4],[-14,-7],[-9,-20],[-10,-2],[-11,18],[-27,12],[-14,-6],[-62,-10],[-6,13],[19,8],[23,-3],[-8,18],[-33,8],[-8,14],[-31,1],[-2,7],[10,13],[20,12],[3,6],[-13,14],[-24,17],[-3,11],[20,9],[12,0],[31,-10],[10,-13],[22,0],[7,11],[-16,10],[-3,12],[1,27],[5,8],[44,22],[24,4],[5,5],[-33,25],[-5,9],[5,21],[25,15],[13,0],[11,-12],[8,12],[16,-4],[13,-17],[22,-1],[21,10],[0,30],[23,5],[24,-7],[2,-17]],[[4479,5993],[-11,-3],[-6,-11],[10,-17],[-6,-22],[16,-8],[-11,-12],[16,-22],[14,0],[-2,-7],[37,-13],[2,-17],[-9,5],[-18,-7],[-7,-13],[13,-10],[-1,-13],[-10,0],[1,-16],[-10,-29],[11,-12],[15,0],[14,-11],[50,-3],[-4,-8],[14,-9],[23,-7],[16,-9],[18,-3],[14,-10]],[[4479,5993],[29,-5],[12,6],[20,18],[-5,12],[-28,-7],[-24,3],[-10,19],[36,15],[58,9],[37,2]],[[5296,5700],[-36,7],[-32,3],[-32,-6],[5,-7],[-51,-12],[14,-9],[7,-14],[-19,-8],[-11,6],[-17,-3],[-23,-13],[-15,6],[-3,11],[-31,4],[-24,6],[-28,-3],[-37,20]],[[6013,5320],[-14,-8]],[[5999,5312],[-5,-8],[-56,-8],[-23,-9],[-15,-12],[-35,-7],[-3,-9],[-16,-11],[-15,-43],[9,-10],[-3,-18],[-7,-8],[-17,-3],[-25,-14],[-8,-16],[-17,-11],[-38,10],[-35,-12],[-24,-13],[-6,1],[-23,-12],[-33,6],[-13,-2],[-27,-27],[-25,-5],[-19,-14],[-3,-8],[-20,-3],[-14,-13],[-20,13],[-52,13],[-12,-6],[-20,3],[-16,-2],[-27,15],[-11,-3],[-15,4],[-16,-3],[-5,9],[-22,-4],[-5,-9],[-14,-3],[2,-8],[-21,-10],[-20,-4],[-36,14],[-11,-4],[-34,10],[-3,8],[-19,1],[-14,11],[-29,-4],[-43,6],[-40,-4],[-16,-14],[-16,-1]],[[4948,5061],[14,9],[-6,12],[-15,0],[-22,-12],[-9,1],[-33,12],[-4,14],[14,3],[10,10],[-16,18],[-32,-8],[-12,5],[-3,13],[16,14],[-14,9],[-20,2],[12,19],[19,-5],[3,-16],[39,-7],[1,11],[-35,19],[-3,6],[26,9],[-7,6],[4,14],[-4,12],[22,5],[-4,7],[-17,10],[-2,15],[7,6],[-15,9],[-21,-10],[-6,6],[5,22]],[[5700,4703],[-32,-29],[21,-27],[-24,-16],[32,-27],[-1,-14],[7,-13],[26,-1],[3,-15],[17,-2],[10,4],[31,-6],[25,9],[18,-1],[71,-17],[41,-20],[25,-19]],[[5970,4509],[-9,-13],[-26,-8],[-10,-13],[-31,-12],[-16,-28],[-13,-4],[-9,-17],[-23,-7],[-25,-21],[-24,16],[-25,-3],[-15,3],[-20,-10],[-44,3],[-27,-14],[-46,-15],[-21,2],[-37,10],[1,9],[-56,4],[-13,-4],[-8,6],[-15,-14],[-36,5],[2,6],[-20,1],[-9,-7],[-15,2],[-11,13],[8,16],[-32,-7]],[[5345,4408],[-7,8],[-32,10],[-21,-2],[1,15],[21,9],[-3,12],[-18,10],[-4,17],[-9,11],[-11,4],[-8,14],[29,14],[17,2],[-7,4],[-27,0],[-19,8],[-21,3],[-9,7],[-4,16],[-29,5],[-2,9],[20,6],[3,13],[-9,19],[-9,6],[12,25],[18,12],[16,23],[24,15],[15,20],[25,3]],[[5297,4726],[23,0],[22,6],[10,11],[18,1],[20,-27],[10,-8],[37,-6],[28,1],[18,4],[43,17],[35,0],[23,6],[23,-7],[27,-12],[3,-10],[24,-3],[36,8],[3,-4]],[[5999,5312],[14,-7],[20,3],[13,-8],[23,-2],[28,-13],[10,-13],[35,-4],[-2,-19],[-10,-17],[-17,-4],[-15,-25],[36,-8],[7,-10],[-15,-14],[-49,-19],[-26,-31],[13,-24],[-2,-16],[9,-9],[-2,-9],[-13,-4],[-7,-28],[0,-21],[17,-23],[18,-15],[36,-23],[10,-23],[14,-7],[14,-20],[18,-2],[7,-12],[39,0],[0,-35],[-20,-1],[-60,-21],[-11,3]],[[6131,4831],[-46,25],[-50,5],[-14,-4],[-21,9],[-41,-3],[-48,-13],[11,-9],[-3,-22],[4,-6],[-8,-16],[22,-23],[-15,-17],[12,-12],[-38,3],[-22,-8],[-26,7],[-32,-10],[-25,-2],[-91,-32]],[[5297,4726],[9,13],[-6,11],[-23,8],[-9,11],[3,29],[-20,11],[-22,-5],[-9,25],[-18,-4],[-33,-1],[-7,26],[-21,13],[0,10],[-16,21],[-32,7],[-13,9],[-32,28],[-7,24],[-21,21],[-11,19],[-18,12],[-18,7],[-15,12],[-14,17],[4,11]],[[7110,5142],[7,-19],[19,-3],[6,-7],[16,0],[3,8],[15,-4],[-2,-8],[12,-4],[-5,-7],[23,-12],[21,-14],[7,5],[29,-17],[-10,-16],[13,-6],[15,2],[16,-10],[-2,-5],[16,-9],[5,-24],[17,-13],[7,-23],[10,-6],[14,-18],[21,-18],[2,-12],[15,-3],[11,-15],[24,0],[23,8],[14,-9],[21,-5],[15,-21],[-11,-18],[2,-22],[-17,-16],[-4,-14],[20,-11],[6,-15],[-13,-19],[8,-8],[0,-22],[8,-26],[-9,-7],[-1,-17],[-9,-12]],[[7488,4650],[-17,-15],[-1,-17],[-23,5],[-14,0],[-8,-10],[-18,-7],[1,-12],[-6,-18],[7,-29],[-7,-26],[2,-12],[-17,-22],[10,-9],[20,-7],[30,2]],[[7447,4473],[-10,-10],[-27,0],[-10,-9],[-32,-8],[-44,-1],[-30,10],[-38,6],[-19,-11],[-12,-12],[-10,-2],[-50,16],[-19,-2],[-17,8],[-23,-6],[-25,6],[-19,10],[-36,7],[-68,3],[-38,21],[-39,1],[-17,-5],[-29,-15],[-15,-2]],[[6820,4478],[-12,17],[-20,15],[-22,11],[-21,5],[-33,14],[-3,12],[-43,10],[-6,20],[-10,11],[-16,6],[-24,23],[-27,9],[-7,-11],[-26,0],[-40,10],[-9,11],[-12,2],[-27,-5],[-15,-6],[-19,-15],[-23,-9]],[[6405,4608],[-20,12],[18,22],[-5,14],[14,3],[1,9],[22,11],[13,3],[-2,20],[23,23],[-7,16],[-35,8],[-27,18],[-35,10],[-21,-2],[-47,3],[-6,8],[-18,7],[-15,-7],[-6,-10],[-36,-6],[-44,-18],[-13,-3],[-2,12],[-16,5],[-2,14],[-27,10],[11,11],[-3,20],[11,10]],[[5970,4509],[147,-37],[27,0],[12,-16]],[[6156,4456],[-40,-10],[-6,-10],[-30,-12],[-29,-2],[-23,-14],[-3,-19],[8,-18],[-18,-6],[-23,-16],[-1,-8],[10,-10],[-26,1],[0,8],[-25,-1],[-19,-18],[-29,10],[-42,-5],[-35,11],[-13,-6],[3,-9],[-11,-5],[-3,-9],[-20,-7],[-23,2],[-10,-16],[-21,-4],[-19,-12],[-9,-26],[16,-3],[-3,-24],[-15,2],[-4,-8],[-17,8],[-15,-16],[9,-33],[1,-12],[-10,-13],[-18,6],[-15,-7],[-13,3],[-6,-8],[-19,-1],[-4,-37],[4,-8],[-19,-12],[7,-4],[-1,-17],[-28,-13],[-16,1],[-24,8],[6,11],[-31,12],[-11,-1],[-32,17],[-8,-15],[16,-3],[-11,-14],[-23,-8],[-16,16],[14,19],[-8,12],[-21,4],[-11,-4],[2,13],[-17,22],[17,-3],[5,16],[-7,18],[2,19],[-11,12],[15,1],[-7,12],[14,19],[-37,-5],[-10,11],[33,23],[-9,7],[-5,23],[3,14],[-11,37],[-34,8],[-22,-1],[-15,8],[1,13],[31,17],[22,2],[12,19]],[[6405,4608],[-14,-2],[-44,15],[-45,-7],[-7,-29],[-17,-16],[-6,-11],[-12,-3],[-53,-43],[8,-9],[16,-7],[0,-14],[-36,-7],[-3,-5],[-36,-14]],[[7584,3558],[9,-6],[46,-9],[50,-2],[47,-24],[28,-7],[-2,-13],[7,-3],[6,-20],[35,2],[4,-12],[12,-9],[1,-13],[12,-12],[61,2],[18,-11],[6,-28],[-15,-12],[1,-10],[9,-4],[7,-14],[28,-6],[0,-10],[18,-15],[-17,-19],[-6,-18],[7,-9]],[[7956,3276],[-28,-3],[-58,2],[-24,-6],[-29,3],[-37,-26],[-14,-13],[-24,-16],[-9,-14],[-36,-8],[-14,-10],[-22,-8],[-8,-8],[-28,-3],[-29,-14],[-9,-19],[3,-30],[-9,-25],[8,-34],[-5,-11],[-25,-14],[-21,-38],[-22,-19],[13,-10],[-15,-12],[-3,-8],[-57,-8],[-11,-6],[-12,-18],[-10,-6],[-34,-3],[-51,-2],[-4,-23],[-34,-13],[-21,-5],[-10,-7],[-62,-22],[-68,-6],[-41,-15],[-22,-4],[-22,-1],[-30,6],[-63,-5],[-22,-8],[-55,-7],[-12,10],[-34,5],[-27,17],[-11,27],[-10,0],[-21,-15],[-30,-9],[-11,-1],[-50,11],[-33,-7],[-27,6],[-15,-1],[-10,8],[-9,15],[-15,9],[-13,-1],[-20,-8],[-20,-2],[-59,-21],[-22,-15],[-7,-15],[16,-20],[0,-8],[-17,1],[-2,-12],[-20,-2],[-9,-9],[0,-38],[-8,-13],[-13,-5],[-17,2],[-31,12],[-12,0],[-10,11],[-25,7],[-14,-3],[-42,11]],[[6222,2726],[12,-1],[12,8],[-6,13],[6,4],[-18,14],[-4,27],[-9,8],[8,8],[-17,9],[11,11],[-14,6],[-18,16],[19,5],[-9,8],[3,13],[-8,12],[8,10],[-21,0],[7,28],[-4,6],[-31,11],[7,24],[-10,11],[5,15],[-11,3],[17,10],[29,-2],[-4,18],[22,9],[8,16],[15,15]],[[6227,3061],[-2,14],[16,12],[11,22],[-5,10],[9,12],[13,-2],[21,5],[12,-10],[0,-10],[27,-6],[10,-9],[25,-1],[0,6],[26,5],[12,25],[20,5],[14,-5],[-14,20],[13,3],[-14,8],[-23,0],[-16,25],[5,8],[11,-4],[63,33],[2,6],[17,-1],[4,30],[-2,15],[34,11],[21,-2],[-4,-9],[24,15],[15,-6],[20,15],[5,11],[5,-6],[21,-4],[10,9],[3,-9],[12,8],[7,13],[24,12],[-16,-2],[3,9]],[[6666,3342],[39,-1],[12,4],[25,-1],[14,9],[32,0],[40,13],[14,1],[27,-9],[40,-1],[25,5],[50,24],[30,20],[22,7],[24,-2],[31,-11],[13,0],[10,10],[25,8],[28,-11],[33,2],[27,-5],[40,4],[34,7],[60,0],[37,13],[16,11],[24,6],[41,20],[23,22],[32,20],[33,49],[17,2]],[[6222,2726],[6,11],[-6,9],[-28,10],[-22,-8],[-18,-1],[-25,-20],[-13,-19],[-21,-13],[-32,-3],[-20,-6],[-12,-12],[-51,-8],[-17,5]],[[5963,2671],[-9,13],[-19,10],[0,9],[-12,5],[7,13],[-14,3],[2,15],[-43,4],[22,9],[-22,23],[-24,11],[-9,23],[-49,34],[-26,24],[-11,5],[-1,18],[-9,2],[-24,-8],[-9,12],[10,8],[-14,1],[-29,21],[-10,17],[-37,40],[-13,25],[-22,14],[-49,52],[-7,24],[-33,32],[-18,52],[-13,13],[-42,21],[18,16],[1,8],[-17,15],[-25,15],[-5,12],[-13,8],[5,9],[-12,7],[-12,26],[-24,13],[-35,-1]],[[5317,3344],[-3,11],[19,12],[14,1],[43,17],[4,12],[11,8],[-3,13],[-28,18],[-16,18],[1,7],[32,6],[30,-1],[12,13],[6,19],[-10,8],[-5,16],[8,4],[37,1],[5,15],[27,-5],[13,1],[21,11],[27,5],[43,-3],[25,-10],[10,-9],[9,-21],[17,-4],[76,-4],[63,-14],[12,1],[23,10],[25,0],[12,-6],[35,1],[19,5],[23,-2],[17,19],[35,11],[17,-17],[20,-4],[1,-18],[17,-15],[6,-13],[35,-9],[14,-8],[27,-1],[24,-6]],[[6167,3437],[-28,-26],[-9,-22],[10,-12],[2,-25],[-4,-29],[-8,-4],[3,-16],[10,-11],[13,-2],[17,-13],[20,-22],[6,-20],[-20,-15],[7,-16],[-5,-20],[13,-18],[-3,-23],[10,-12],[-11,-18],[-4,-17],[9,-4],[-7,-21],[16,-11],[23,1]],[[7447,4473],[27,8],[30,-6],[14,-21],[17,-13],[-7,-20],[13,-17],[-8,-14],[1,-14],[17,-13],[-15,-18],[-4,-14],[7,-22],[52,-18],[-3,-8],[5,-30],[7,-2],[-16,-20],[4,-18],[13,-13],[-14,-20],[-38,-16],[-9,-15],[-3,-19],[8,-5],[6,-16],[12,-11],[-8,-14],[1,-12],[13,-21],[2,-29],[7,-14],[15,-5],[20,-28],[-4,-7],[37,-14],[20,-11],[2,-16],[43,-25],[10,-26],[24,-10],[9,-7],[9,-32],[-5,-27],[-19,-13],[-20,-8],[-4,-39],[-16,-15],[-2,-29],[-9,-5],[-1,-26],[-59,-6],[-12,2],[-7,-7],[-21,-4],[2,-17],[-9,-21],[-4,-26],[9,-10],[-2,-18]],[[6666,3342],[-29,-4],[-38,22],[-34,13],[-25,2],[-21,-27],[-16,0],[-10,7],[-36,-3],[3,11],[-34,6],[-23,20],[3,8],[-6,24],[-6,8],[-21,9],[-30,29],[-2,9],[-42,27]],[[6299,3503],[12,13],[11,4],[34,2],[12,9],[42,-7],[3,10],[17,17],[-10,15],[11,10],[1,24],[12,32],[-18,7],[3,10],[34,10],[0,9],[25,12],[2,21],[-10,12],[-3,18],[4,14],[-27,12],[-9,8],[16,8],[17,-2],[9,12],[-9,12],[-9,26],[-17,7],[-15,16],[-3,21],[29,20],[49,29],[29,7],[0,10],[14,7],[14,-10],[2,-16],[15,-7],[20,21],[5,17],[26,11],[0,16],[45,4],[24,5],[29,17],[1,13],[9,13],[28,23],[-1,11],[-20,11],[3,11],[14,18],[9,35],[7,11],[-11,13],[30,31],[49,5],[24,58],[16,10],[3,15],[-12,9],[-3,17],[-26,21],[9,9],[-34,2],[-21,-5],[-31,1],[-13,11],[11,10],[6,15],[27,15],[10,28],[10,17],[-19,33],[10,21]],[[5963,2671],[-18,-11],[7,-6],[11,3],[29,-26],[19,-4],[12,-11],[21,-3],[17,-9],[-11,-9],[3,-47],[14,5],[14,-7],[-7,-15],[19,1],[14,-13],[2,-9],[17,-7],[21,9],[22,-17],[8,-21],[8,-7],[21,-5],[42,-29],[10,-15],[14,-6],[18,-27],[-6,-34],[30,-2],[-4,-19],[-24,5],[-20,-3],[-22,-40],[3,-9],[18,-7],[-14,-8],[-2,-23],[-20,-10],[-25,-7],[-21,-10],[-24,-24],[-25,-31],[-4,-10],[17,-19],[14,-4],[46,-25],[22,-31],[-7,-16],[-15,-14],[-11,-23],[5,-9],[8,-34],[-1,-10],[10,-15],[-1,-25],[17,-28],[34,-32],[29,-23],[23,-12],[10,-12],[17,-12],[40,-10],[7,-8],[15,-30],[19,-16],[42,-23],[37,-45],[26,-24],[45,-24],[36,-26],[28,-53],[16,-18],[-2,-33],[-18,-10],[-13,-1],[-43,-32],[-52,-27],[-62,-16],[-69,-34],[-43,6],[-21,-10],[-15,0],[-13,-10],[-23,-9],[-24,-27],[1,-8],[-16,-19],[-18,-13],[-15,-21],[19,-19],[-6,-8],[-22,1],[-9,-6],[7,-14],[-28,-5],[-7,-4],[15,-7],[11,-25],[-8,-6],[5,-10],[21,-1],[-5,-28],[21,-1],[-6,-20],[13,-13],[25,-3],[2,-15],[27,-18],[7,-14],[-9,-15],[4,-29],[24,-9],[-4,-11],[16,-10],[8,-12],[19,-16],[4,-11],[15,-3],[5,-15],[45,-24],[21,-4],[15,-10],[2,-9],[19,-21],[31,-12],[26,-28],[37,-5],[45,-21],[7,-15],[53,-19],[17,-30],[-11,-15],[1,-24],[-6,-12],[-23,-19],[-4,-14],[-13,-17],[-45,-21],[-18,-21],[6,-16],[24,-26],[45,-33],[13,-23],[29,-27],[1,-6],[22,-15],[3,-9],[16,-15],[0,-9],[-28,-18],[-42,-13],[-32,-20]],[[6632,350],[1,9],[29,39],[0,10],[-32,39],[-11,7],[-12,26],[-22,14],[-13,17],[-16,10],[-13,14],[-59,24],[-34,24],[-53,22],[-33,17],[-19,0],[-16,-10],[-18,2],[-2,26],[-6,11],[-36,19],[-9,16],[-16,9],[-30,32],[-40,19],[-21,14],[-10,24],[-21,6],[-9,14],[-31,26],[-44,16],[-18,30],[-2,20],[-8,8],[-19,8],[-50,30],[-16,2],[-7,11],[-47,16],[13,17],[-3,9],[17,13],[-26,23],[21,37],[14,8],[-10,7],[-26,9],[-24,13],[-8,11],[-17,5],[-28,-13],[-23,1],[-30,14],[-14,20],[-36,7],[-24,2],[-35,15],[-46,12],[-25,21],[11,22],[9,1],[28,-14],[20,-6],[36,7],[4,11],[-10,9],[9,10],[24,7],[-7,11],[-17,12],[-32,11],[-4,10],[-19,8],[-24,22],[-20,31],[-13,7],[-12,21],[-16,6],[-10,15],[-42,29],[-10,11],[-24,14],[-6,8],[-23,14],[-16,16],[-9,17],[-14,9],[-4,17],[-8,6],[-30,8],[-22,39],[-19,14],[-1,28],[-15,26],[-18,22],[-38,19],[-17,-2],[-17,-18],[-17,-5],[-5,-12],[-36,-6],[-23,13],[11,18],[16,12],[-37,9],[-48,17],[-23,-13],[-12,0],[-31,14],[-52,-3],[-20,7],[-3,13],[-17,37],[-12,4],[-47,-2],[-10,-16],[-18,-6],[-31,1],[-40,-7],[-63,100],[-1,10],[60,165],[45,116],[12,40],[58,118],[8,13],[171,248],[16,23],[-31,-1],[-28,-14],[-29,11],[7,36],[-18,4],[-26,22],[-4,44],[6,10],[-25,21],[-6,22],[11,18],[3,15],[11,12],[3,16],[20,15],[1,30],[-3,7],[12,41],[13,7],[22,6],[13,8],[23,1],[14,28],[-1,18],[-17,15],[6,13],[-12,22],[-18,9],[-13,21],[0,11],[-12,8],[1,13],[-43,22],[-21,0],[-11,8],[-29,8],[-17,8],[3,7],[-12,11],[-23,8],[-35,8],[-22,11],[-3,16],[10,28],[18,24],[9,22],[54,10],[23,12],[-2,26],[22,13],[4,7],[25,5],[72,-12],[8,-28],[36,-15],[-19,-12],[2,-23],[11,-8],[2,-25],[27,-3],[6,-9],[27,9],[6,6],[32,8],[8,10],[27,8],[-26,35],[0,9],[29,2],[44,-5],[12,5],[-1,13],[14,0],[50,12],[19,8],[25,2],[19,11],[-1,9],[-19,6]],[[7956,3276],[-16,-15],[-21,-9],[-15,-20],[-47,-6],[-53,-15],[-10,-9],[2,-27],[-5,-16],[-11,-10],[-5,-18],[-2,-38],[-5,-23],[9,-7],[3,-17],[11,-5],[5,-12],[-2,-11],[8,-10],[-5,-12],[8,-6],[0,-18],[-10,-9],[-7,-20],[-22,-6],[-8,-19],[-14,-9],[-19,-1],[2,-18],[-4,-12],[10,-12],[22,-2],[4,-7],[30,-1],[18,-11],[9,-30],[19,-7],[17,-14],[-5,-26],[-16,-8],[-20,-20],[-19,-10],[-5,-16],[7,-15],[-3,-26],[13,-10],[0,-16],[-10,-10],[-5,-16],[11,-7],[3,-14],[39,-15],[15,-15],[-7,-19],[-11,-12],[2,-19],[23,-15],[-13,-24],[6,-12],[-11,-28],[10,-8],[-4,-11],[18,-10],[22,-6],[4,-10],[-5,-13],[30,-8],[26,0],[7,-7],[17,-1],[38,-9],[32,-25],[9,-3],[16,-22],[15,-44],[-22,-15],[-1,-9],[-13,-13],[-9,-18],[0,-14],[-6,-9],[16,-33],[2,-36],[19,-16],[5,-21],[8,-11],[14,-6],[0,-18],[-30,-9],[-29,-20],[-9,-26],[-6,-7],[4,-12],[-10,-26],[-3,-19],[16,-6],[-2,-7],[-20,-10],[-8,-22],[-24,-11],[0,-17],[-8,-16],[-12,-5],[1,-13],[-15,-11],[25,-17],[-2,-14],[-21,-32],[25,-13],[-1,-46],[-3,-9],[-32,-24],[-18,-35],[-6,-5],[-38,-6],[-13,-6],[-4,-41],[-22,-15],[-10,-27],[19,-21],[-25,-5],[-84,-26],[-47,-23],[-40,-4],[-33,-15],[-21,-2],[-8,-19],[-9,-9],[14,-41],[17,-10],[3,-10],[-1,-28],[4,-19],[10,-10],[34,-26],[53,-15],[10,-5],[24,-28],[8,-19],[-3,-17],[-12,-12],[1,-11],[-31,-30],[-9,-4],[-26,-21],[-6,-12],[8,-23],[-20,-12],[3,-22],[-11,-24],[1,-13],[-8,-24],[20,-4],[10,-33],[-2,-21],[21,-7],[6,-27],[-2,-38],[-7,-17],[14,-4],[-1,-12],[-12,-8],[-17,0],[-19,5],[-22,-20],[2,-7],[-15,-22],[-10,-7],[-22,-2],[-17,-8],[-17,-1],[9,-13],[-2,-18],[10,-10],[-7,-9],[7,-10],[-18,-30],[-1,-20],[-52,-20],[-16,-12],[3,-17],[-7,-21],[9,-7],[-5,-19],[7,-10],[-10,-27],[1,-29],[11,-15],[27,-5],[3,-34],[-48,-18],[-33,-16],[-6,-17],[-11,-17],[-27,-17],[17,-18],[-6,-9],[8,-13],[-1,-29],[-4,-4],[-35,-3],[-39,-23],[10,-12],[3,-18],[-14,-12],[3,-9],[-8,-14],[5,-24],[7,-3],[6,-23],[-19,-16],[8,-16],[-13,-8],[-11,-15],[-4,-21],[4,-10],[-41,-4],[-20,12],[-24,-2],[-13,-20],[-19,0],[-34,24],[-29,16],[-1,20],[-31,22],[-14,19],[1,32],[-3,19],[-12,20],[-15,15],[-7,19],[-8,10],[-1,30],[-33,8],[-38,14],[-28,-10],[-24,-1],[-43,-7],[-13,-5],[-19,3],[-14,13],[-4,12],[-19,8],[2,29],[-25,15],[-36,-1],[-17,4],[-21,15],[-70,7]],[[6167,3437],[25,17],[16,-1],[15,10],[41,2],[38,19],[-7,11],[4,8]],[[8865,5596],[-2,-4],[23,-22],[-15,-12],[-2,-20],[-7,-2],[-23,9],[-11,1],[-21,-15],[-28,-7],[-10,2],[-47,-13],[11,-19],[-14,-4],[9,-36],[-10,-17],[-29,-1],[15,-18],[-11,-23],[10,-10],[-10,-14],[15,-7],[-5,-15],[17,0],[1,-23],[25,-11],[11,-15],[13,-9],[-22,-23],[14,-7],[-14,-4],[-7,-13],[24,-18],[8,-10],[-6,-13],[8,-9],[-8,-9],[12,-20],[-15,-21],[-12,-12],[-21,-4],[-16,-13],[0,-10],[14,-5],[1,-7],[-15,-13],[-13,-1],[-6,-23],[-19,-6],[10,-14],[-24,-8],[-33,9],[-43,-6],[-22,-19],[-43,10],[-49,7],[-21,-4],[-22,23],[-30,7],[-8,-5],[-6,-15],[17,-9],[-21,0],[-43,4],[-11,-6],[10,-12],[-12,-8],[-14,1],[-29,-15],[-18,-28],[-2,-14],[34,5],[-19,-20],[-36,-16],[-4,15],[-8,2],[-15,-13],[-20,4],[-7,-18],[-24,13],[-13,-12],[-27,-4],[-18,7],[-11,-9],[-1,-14],[-7,-5],[-14,3],[-2,-15],[-28,-2],[3,-10],[-23,-3],[11,-10],[-18,-4],[3,-9],[-16,-7],[6,-8],[-12,-6],[-16,13],[7,5],[-26,-3],[-13,6],[-10,-8],[-28,12],[-4,-15],[-26,5],[-13,-5],[6,-9],[-9,-5],[-16,10],[-19,-3],[-4,-6],[-26,-3],[-21,-11],[-53,-8],[-24,-18],[-15,-2],[-22,-13],[-1,-12],[-15,-14],[-37,-16],[-2,-8],[-20,-6],[-9,-7],[-22,0],[-33,-13],[-8,-12],[-30,-16]],[[7479,5361],[34,11],[19,12],[15,1],[14,12],[18,8],[6,7],[16,5],[30,-1],[8,6],[23,0],[8,5],[55,-3],[26,-7],[21,6],[20,17],[-4,18],[12,10],[-5,11],[20,12],[5,9],[36,7],[23,9],[22,1],[21,-8],[30,0],[32,-14],[4,13],[-5,14],[12,5],[24,-4],[9,9],[23,3],[5,-5],[39,-15],[37,1],[30,5],[48,19],[10,13],[20,-2],[14,12],[12,-3],[13,-15],[27,-9],[47,1],[-3,6],[31,13],[25,7],[25,-4],[31,4],[1,7],[13,-2],[1,15]],[[8477,5583],[14,8],[9,13],[9,28],[13,-2],[1,12],[18,8],[17,12],[-5,5],[10,10],[-5,5],[18,17],[25,7],[54,6],[0,13],[14,1],[3,8],[18,10]],[[8033,5856],[-7,-21],[10,-5],[-9,-15],[5,-4],[33,-4],[-10,-25],[33,-4],[78,9],[13,5],[34,4],[39,7],[19,0],[29,-9],[15,-20],[27,-2],[33,-9],[18,-12],[27,-5],[23,6],[50,-37],[3,-11],[-15,-31],[-9,-8],[-24,-9],[-43,-52],[13,-9],[20,-7],[9,-9],[30,4]]],"transform":{"scale":[0.00017246889628962892,0.00026870816621662205],"translate":[97.74237573800008,15.180916527000024]},"objects":{"Tak":{"type":"GeometryCollection","geometries":[{"arcs":[[0,1,2,3,4]],"type":"Polygon","properties":{"Shape_Leng":0.0587876420709,"Shape_Area":0.00019815823182,"ADM3_EN":"Rahaeng","ADM3_TH":"ระแหง","ADM3_PCODE":"TH630101","ADM2_EN":"Mueang Tak","ADM2_TH":"เมืองตาก","ADM2_PCODE":"TH6301","ADM1_EN":"Tak","ADM1_TH":"ตาก","ADM1_PCODE":"TH63","ADM0_EN":"Thailand","ADM0_TH":"ประเทศไทย","ADM0_PCODE":"TH"}},{"arcs":[[-4,5,6,7,8]],"type":"Polygon","properties":{"Shape_Leng":0.0714366777642,"Shape_Area":0.000230104413781,"ADM3_EN":"Nong Luang","ADM3_TH":"หนองหลวง","ADM3_PCODE":"TH630102","ADM2_EN":"Mueang Tak","ADM2_TH":"เมืองตาก","ADM2_PCODE":"TH6301","ADM1_EN":"Tak","ADM1_TH":"ตาก","ADM1_PCODE":"TH63","ADM0_EN":"Thailand","ADM0_TH":"ประเทศไทย","ADM0_PCODE":"TH"}},{"arcs":[[-1,9,10,11]],"type":"Polygon","properties":{"Shape_Leng":0.0648140064222,"Shape_Area":0.000150035457411,"ADM3_EN":"Chiang Ngoen","ADM3_TH":"เชียงเงิน","ADM3_PCODE":"TH630103","ADM2_EN":"Mueang Tak","ADM2_TH":"เมืองตาก","ADM2_PCODE":"TH6301","ADM1_EN":"Tak","ADM1_TH":"ตาก","ADM1_PCODE":"TH63","ADM0_EN":"Thailand","ADM0_TH":"ประเทศไทย","ADM0_PCODE":"TH"}},{"arcs":[[-7,12,13,14]],"type":"Polygon","properties":{"Shape_Leng":0.0522923896682,"Shape_Area":0.000126625173017,"ADM3_EN":"Hua Diat","ADM3_TH":"หัวเดียด","ADM3_PCODE":"TH630104","ADM2_EN":"Mueang Tak","ADM2_TH":"เมืองตาก","ADM2_PCODE":"TH6301","ADM1_EN":"Tak","ADM1_TH":"ตาก","ADM1_PCODE":"TH63","ADM0_EN":"Thailand","ADM0_TH":"ประเทศไทย","ADM0_PCODE":"TH"}},{"arcs":[[-14,15,16,17,18,19]],"type":"Polygon","properties":{"Shape_Leng":0.486011318118,"Shape_Area":0.00643846816636,"ADM3_EN":"Nong Bua Nuea","ADM3_TH":"หนองบัวเหนือ","ADM3_PCODE":"TH630105","ADM2_EN":"Mueang Tak","ADM2_TH":"เมืองตาก","ADM2_PCODE":"TH6301","ADM1_EN":"Tak","ADM1_TH":"ตาก","ADM1_PCODE":"TH63","ADM0_EN":"Thailand","ADM0_TH":"ประเทศไทย","ADM0_PCODE":"TH"}},{"arcs":[[-8,-15,-20,20,21,22]],"type":"Polygon","properties":{"Shape_Leng":0.568387505584,"Shape_Area":0.00878258233459,"ADM3_EN":"Mai Ngam","ADM3_TH":"ไม้งาม","ADM3_PCODE":"TH630106","ADM2_EN":"Mueang Tak","ADM2_TH":"เมืองตาก","ADM2_PCODE":"TH6301","ADM1_EN":"Tak","ADM1_TH":"ตาก","ADM1_PCODE":"TH63","ADM0_EN":"Thailand","ADM0_TH":"ประเทศไทย","ADM0_PCODE":"TH"}},{"arcs":[[-22,23,24,25,26,27]],"type":"Polygon","properties":{"Shape_Leng":1.27098365336,"Shape_Area":0.0363424534894,"ADM3_EN":"Pong Daeng","ADM3_TH":"โป่งแดง","ADM3_PCODE":"TH630107","ADM2_EN":"Mueang Tak","ADM2_TH":"เมืองตาก","ADM2_PCODE":"TH6301","ADM1_EN":"Tak","ADM1_TH":"ตาก","ADM1_PCODE":"TH63","ADM0_EN":"Thailand","ADM0_TH":"ประเทศไทย","ADM0_PCODE":"TH"}},{"arcs":[[-5,-9,-23,-28,28,29,30,-10]],"type":"Polygon","properties":{"Shape_Leng":0.583667650917,"Shape_Area":0.00779883810019,"ADM3_EN":"Nam Ruem","ADM3_TH":"น้ำรึม","ADM3_PCODE":"TH630108","ADM2_EN":"Mueang Tak","ADM2_TH":"เมืองตาก","ADM2_PCODE":"TH6301","ADM1_EN":"Tak","ADM1_TH":"ตาก","ADM1_PCODE":"TH63","ADM0_EN":"Thailand","ADM0_TH":"ประเทศไทย","ADM0_PCODE":"TH"}},{"arcs":[[-11,-31,31,32,33,34,35,36]],"type":"Polygon","properties":{"Shape_Leng":0.695855410587,"Shape_Area":0.0131185235447,"ADM3_EN":"Wang Hin","ADM3_TH":"วังหิน","ADM3_PCODE":"TH630109","ADM2_EN":"Mueang Tak","ADM2_TH":"เมืองตาก","ADM2_PCODE":"TH6301","ADM1_EN":"Tak","ADM1_TH":"ตาก","ADM1_PCODE":"TH63","ADM0_EN":"Thailand","ADM0_TH":"ประเทศไทย","ADM0_PCODE":"TH"}},{"arcs":[[-2,37,38,39,40,41,42,43,44,45,-17,46]],"type":"Polygon","properties":{"Shape_Leng":1.77294370513,"Shape_Area":0.046070430325,"ADM3_EN":"Mae Tho","ADM3_TH":"แม่ท้อ","ADM3_PCODE":"TH630111","ADM2_EN":"Mueang Tak","ADM2_TH":"เมืองตาก","ADM2_PCODE":"TH6301","ADM1_EN":"Tak","ADM1_TH":"ตาก","ADM1_PCODE":"TH63","ADM0_EN":"Thailand","ADM0_TH":"ประเทศไทย","ADM0_PCODE":"TH"}},{"arcs":[[-3,-47,-16,-13,-6]],"type":"Polygon","properties":{"Shape_Leng":0.331664020646,"Shape_Area":0.00340314180738,"ADM3_EN":"Pa Mamuang","ADM3_TH":"ป่ามะม่วง","ADM3_PCODE":"TH630112","ADM2_EN":"Mueang Tak","ADM2_TH":"เมืองตาก","ADM2_PCODE":"TH6301","ADM1_EN":"Tak","ADM1_TH":"ตาก","ADM1_PCODE":"TH63","ADM0_EN":"Thailand","ADM0_TH":"ประเทศไทย","ADM0_PCODE":"TH"}},{"arcs":[[-12,-37,47,48,-38]],"type":"Polygon","properties":{"Shape_Leng":0.478645429822,"Shape_Area":0.00751709354883,"ADM3_EN":"Nong Bua Tai","ADM3_TH":"หนองบัวใต้","ADM3_PCODE":"TH630113","ADM2_EN":"Mueang Tak","ADM2_TH":"เมืองตาก","ADM2_PCODE":"TH6301","ADM1_EN":"Tak","ADM1_TH":"ตาก","ADM1_PCODE":"TH63","ADM0_EN":"Thailand","ADM0_TH":"ประเทศไทย","ADM0_PCODE":"TH"}},{"arcs":[[-27,49,-33,50,-29]],"type":"Polygon","properties":{"Shape_Leng":0.934077984235,"Shape_Area":0.0201365324701,"ADM3_EN":"Wang Prachop","ADM3_TH":"วังประจบ","ADM3_PCODE":"TH630114","ADM2_EN":"Mueang Tak","ADM2_TH":"เมืองตาก","ADM2_PCODE":"TH6301","ADM1_EN":"Tak","ADM1_TH":"ตาก","ADM1_PCODE":"TH63","ADM0_EN":"Thailand","ADM0_TH":"ประเทศไทย","ADM0_PCODE":"TH"}},{"arcs":[[-30,-51,-32]],"type":"Polygon","properties":{"Shape_Leng":0.491495670546,"Shape_Area":0.00973287964571,"ADM3_EN":"Taluk Klang Thung","ADM3_TH":"ตลุกกลางทุ่ง","ADM3_PCODE":"TH630115","ADM2_EN":"Mueang Tak","ADM2_TH":"เมืองตาก","ADM2_PCODE":"TH6301","ADM1_EN":"Tak","ADM1_TH":"ตาก","ADM1_PCODE":"TH63","ADM0_EN":"Thailand","ADM0_TH":"ประเทศไทย","ADM0_PCODE":"TH"}},{"arcs":[[51,52,53,54]],"type":"Polygon","properties":{"Shape_Leng":0.454102372008,"Shape_Area":0.00867351412569,"ADM3_EN":"Tak Ok","ADM3_TH":"ตากออก","ADM3_PCODE":"TH630201","ADM2_EN":"Ban Tak","ADM2_TH":"บ้านตาก","ADM2_PCODE":"TH6302","ADM1_EN":"Tak","ADM1_TH":"ตาก","ADM1_PCODE":"TH63","ADM0_EN":"Thailand","ADM0_TH":"ประเทศไทย","ADM0_PCODE":"TH"}},{"arcs":[[-21,55,-52,-24]],"type":"Polygon","properties":{"Shape_Leng":0.485669507004,"Shape_Area":0.00771921837785,"ADM3_EN":"Samo Khon","ADM3_TH":"สมอโคน","ADM3_PCODE":"TH630202","ADM2_EN":"Ban Tak","ADM2_TH":"บ้านตาก","ADM2_PCODE":"TH6302","ADM1_EN":"Tak","ADM1_TH":"ตาก","ADM1_PCODE":"TH63","ADM0_EN":"Thailand","ADM0_TH":"ประเทศไทย","ADM0_PCODE":"TH"}},{"arcs":[[-25,-55,56,57,58,59,60]],"type":"Polygon","properties":{"Shape_Leng":1.19451572717,"Shape_Area":0.0279357908451,"ADM3_EN":"Mae Salit","ADM3_TH":"แม่สลิด","ADM3_PCODE":"TH630203","ADM2_EN":"Ban Tak","ADM2_TH":"บ้านตาก","ADM2_PCODE":"TH6302","ADM1_EN":"Tak","ADM1_TH":"ตาก","ADM1_PCODE":"TH63","ADM0_EN":"Thailand","ADM0_TH":"ประเทศไทย","ADM0_PCODE":"TH"}},{"arcs":[[-19,61,62,-53,-56]],"type":"Polygon","properties":{"Shape_Leng":0.312795038018,"Shape_Area":0.00441094124409,"ADM3_EN":"Tak Tok","ADM3_TH":"ตากตก","ADM3_PCODE":"TH630204","ADM2_EN":"Ban Tak","ADM2_TH":"บ้านตาก","ADM2_PCODE":"TH6302","ADM1_EN":"Tak","ADM1_TH":"ตาก","ADM1_PCODE":"TH63","ADM0_EN":"Thailand","ADM0_TH":"ประเทศไทย","ADM0_PCODE":"TH"}},{"arcs":[[-54,-63,63,64,65,66,-57]],"type":"Polygon","properties":{"Shape_Leng":0.512647770271,"Shape_Area":0.007586153991,"ADM3_EN":"Ko Taphao","ADM3_TH":"เกาะตะเภา","ADM3_PCODE":"TH630205","ADM2_EN":"Ban Tak","ADM2_TH":"บ้านตาก","ADM2_PCODE":"TH6302","ADM1_EN":"Tak","ADM1_TH":"ตาก","ADM1_PCODE":"TH63","ADM0_EN":"Thailand","ADM0_TH":"ประเทศไทย","ADM0_PCODE":"TH"}},{"arcs":[[-18,-46,67,68,-64,-62]],"type":"Polygon","properties":{"Shape_Leng":0.643078330574,"Shape_Area":0.01375099161,"ADM3_EN":"Thung Kracho","ADM3_TH":"ทุ่งกระเชาะ","ADM3_PCODE":"TH630206","ADM2_EN":"Ban Tak","ADM2_TH":"บ้านตาก","ADM2_PCODE":"TH6302","ADM1_EN":"Tak","ADM1_TH":"ตาก","ADM1_PCODE":"TH63","ADM0_EN":"Thailand","ADM0_TH":"ประเทศไทย","ADM0_PCODE":"TH"}},{"arcs":[[-65,-69,69,70]],"type":"Polygon","properties":{"Shape_Leng":0.722045157726,"Shape_Area":0.0181715896919,"ADM3_EN":"Thong Fa","ADM3_TH":"ท้องฟ้า","ADM3_PCODE":"TH630207","ADM2_EN":"Ban Tak","ADM2_TH":"บ้านตาก","ADM2_PCODE":"TH6302","ADM1_EN":"Tak","ADM1_TH":"ตาก","ADM1_PCODE":"TH63","ADM0_EN":"Thailand","ADM0_TH":"ประเทศไทย","ADM0_PCODE":"TH"}},{"arcs":[[-58,71,72,73,74]],"type":"Polygon","properties":{"Shape_Leng":0.493656910361,"Shape_Area":0.00406856181704,"ADM3_EN":"Sam Ngao","ADM3_TH":"สามเงา","ADM3_PCODE":"TH630301","ADM2_EN":"Sam Ngao","ADM2_TH":"สามเงา","ADM2_PCODE":"TH6303","ADM1_EN":"Tak","ADM1_TH":"ตาก","ADM1_PCODE":"TH63","ADM0_EN":"Thailand","ADM0_TH":"ประเทศไทย","ADM0_PCODE":"TH"}},{"arcs":[[-59,-75,75,76]],"type":"Polygon","properties":{"Shape_Leng":0.47772358787,"Shape_Area":0.0054840721964,"ADM3_EN":"Wang Man","ADM3_TH":"วังหมัน","ADM3_PCODE":"TH630302","ADM2_EN":"Sam Ngao","ADM2_TH":"สามเงา","ADM2_PCODE":"TH6303","ADM1_EN":"Tak","ADM1_TH":"ตาก","ADM1_PCODE":"TH63","ADM0_EN":"Thailand","ADM0_TH":"ประเทศไทย","ADM0_PCODE":"TH"}},{"arcs":[[-74,77,78,79,-76]],"type":"Polygon","properties":{"Shape_Leng":0.925495991585,"Shape_Area":0.0241796402687,"ADM3_EN":"Yok Krabat","ADM3_TH":"ยกกระบัตร","ADM3_PCODE":"TH630303","ADM2_EN":"Sam Ngao","ADM2_TH":"สามเงา","ADM2_PCODE":"TH6303","ADM1_EN":"Tak","ADM1_TH":"ตาก","ADM1_PCODE":"TH63","ADM0_EN":"Thailand","ADM0_TH":"ประเทศไทย","ADM0_PCODE":"TH"}},{"arcs":[[-67,80,-72]],"type":"Polygon","properties":{"Shape_Leng":0.416854644682,"Shape_Area":0.00766779455959,"ADM3_EN":"Yan Ri","ADM3_TH":"ย่านรี","ADM3_PCODE":"TH630304","ADM2_EN":"Sam Ngao","ADM2_TH":"สามเงา","ADM2_PCODE":"TH6303","ADM1_EN":"Tak","ADM1_TH":"ตาก","ADM1_PCODE":"TH63","ADM0_EN":"Thailand","ADM0_TH":"ประเทศไทย","ADM0_PCODE":"TH"}},{"arcs":[[-66,-71,81,82,83,-78,-73,-81]],"type":"Polygon","properties":{"Shape_Leng":2.96253096044,"Shape_Area":0.176652061918,"ADM3_EN":"Ban Na","ADM3_TH":"บ้านนา","ADM3_PCODE":"TH630305","ADM2_EN":"Sam Ngao","ADM2_TH":"สามเงา","ADM2_PCODE":"TH6303","ADM1_EN":"Tak","ADM1_TH":"ตาก","ADM1_PCODE":"TH63","ADM0_EN":"Thailand","ADM0_TH":"ประเทศไทย","ADM0_PCODE":"TH"}},{"arcs":[[-60,-77,-80,84]],"type":"Polygon","properties":{"Shape_Leng":0.718161309939,"Shape_Area":0.0151656174484,"ADM3_EN":"Wang Chan","ADM3_TH":"วังจันทร์","ADM3_PCODE":"TH630306","ADM2_EN":"Sam Ngao","ADM2_TH":"สามเงา","ADM2_PCODE":"TH6303","ADM1_EN":"Tak","ADM1_TH":"ตาก","ADM1_PCODE":"TH63","ADM0_EN":"Thailand","ADM0_TH":"ประเทศไทย","ADM0_PCODE":"TH"}},{"arcs":[[85,86,87,88]],"type":"Polygon","properties":{"Shape_Leng":0.626611954725,"Shape_Area":0.00541533938262,"ADM3_EN":"Mae Ramat","ADM3_TH":"แม่ระมาด","ADM3_PCODE":"TH630401","ADM2_EN":"Mae Ramat","ADM2_TH":"แม่ระมาด","ADM2_PCODE":"TH6304","ADM1_EN":"Tak","ADM1_TH":"ตาก","ADM1_PCODE":"TH63","ADM0_EN":"Thailand","ADM0_TH":"ประเทศไทย","ADM0_PCODE":"TH"}},{"arcs":[[-89,89,90,91]],"type":"Polygon","properties":{"Shape_Leng":0.83242980579,"Shape_Area":0.00949493709437,"ADM3_EN":"Mae Charao","ADM3_TH":"แม่จะเรา","ADM3_PCODE":"TH630402","ADM2_EN":"Mae Ramat","ADM2_TH":"แม่ระมาด","ADM2_PCODE":"TH6304","ADM1_EN":"Tak","ADM1_TH":"ตาก","ADM1_PCODE":"TH63","ADM0_EN":"Thailand","ADM0_TH":"ประเทศไทย","ADM0_PCODE":"TH"}},{"arcs":[[-87,92,93,94,95]],"type":"Polygon","properties":{"Shape_Leng":1.0207534482,"Shape_Area":0.0275221775512,"ADM3_EN":"Khane Chue","ADM3_TH":"ขะเนจื้อ","ADM3_PCODE":"TH630403","ADM2_EN":"Mae Ramat","ADM2_TH":"แม่ระมาด","ADM2_PCODE":"TH6304","ADM1_EN":"Tak","ADM1_TH":"ตาก","ADM1_PCODE":"TH63","ADM0_EN":"Thailand","ADM0_TH":"ประเทศไทย","ADM0_PCODE":"TH"}},{"arcs":[[-83,96,97,-95,98,99]],"type":"Polygon","properties":{"Shape_Leng":1.02950792314,"Shape_Area":0.0364004182575,"ADM3_EN":"Mae Tuen","ADM3_TH":"แม่ตื่น","ADM3_PCODE":"TH630404","ADM2_EN":"Mae Ramat","ADM2_TH":"แม่ระมาด","ADM2_PCODE":"TH6304","ADM1_EN":"Tak","ADM1_TH":"ตาก","ADM1_PCODE":"TH63","ADM0_EN":"Thailand","ADM0_TH":"ประเทศไทย","ADM0_PCODE":"TH"}},{"arcs":[[-45,100,101,102,-97,-82,-70,-68]],"type":"Polygon","properties":{"Shape_Leng":1.11662345367,"Shape_Area":0.0351920269508,"ADM3_EN":"Sam Muen","ADM3_TH":"สามหมื่น","ADM3_PCODE":"TH630405","ADM2_EN":"Mae Ramat","ADM2_TH":"แม่ระมาด","ADM2_PCODE":"TH6304","ADM1_EN":"Tak","ADM1_TH":"ตาก","ADM1_PCODE":"TH63","ADM0_EN":"Thailand","ADM0_TH":"ประเทศไทย","ADM0_PCODE":"TH"}},{"arcs":[[-88,-96,-98,-103,103,-90]],"type":"Polygon","properties":{"Shape_Leng":0.667880675195,"Shape_Area":0.0164470779587,"ADM3_EN":"Phrathat","ADM3_TH":"พระธาตุ","ADM3_PCODE":"TH630406","ADM2_EN":"Mae Ramat","ADM2_TH":"แม่ระมาด","ADM2_PCODE":"TH6304","ADM1_EN":"Tak","ADM1_TH":"ตาก","ADM1_PCODE":"TH63","ADM0_EN":"Thailand","ADM0_TH":"ประเทศไทย","ADM0_PCODE":"TH"}},{"arcs":[[104,105,106]],"type":"Polygon","properties":{"Shape_Leng":1.23008313005,"Shape_Area":0.0271630681759,"ADM3_EN":"Tha Song Yang","ADM3_TH":"ท่าสองยาง","ADM3_PCODE":"TH630501","ADM2_EN":"Tha Song Yang","ADM2_TH":"ท่าสองยาง","ADM2_PCODE":"TH6305","ADM1_EN":"Tak","ADM1_TH":"ตาก","ADM1_PCODE":"TH63","ADM0_EN":"Thailand","ADM0_TH":"ประเทศไทย","ADM0_PCODE":"TH"}},{"arcs":[[107,108,109,110]],"type":"Polygon","properties":{"Shape_Leng":0.834817737099,"Shape_Area":0.0152255804584,"ADM3_EN":"Mae Tan","ADM3_TH":"แม่ต้าน","ADM3_PCODE":"TH630502","ADM2_EN":"Tha Song Yang","ADM2_TH":"ท่าสองยาง","ADM2_PCODE":"TH6305","ADM1_EN":"Tak","ADM1_TH":"ตาก","ADM1_PCODE":"TH63","ADM0_EN":"Thailand","ADM0_TH":"ประเทศไทย","ADM0_PCODE":"TH"}},{"arcs":[[-105,111,112,113,114]],"type":"Polygon","properties":{"Shape_Leng":1.30782664817,"Shape_Area":0.0397573445416,"ADM3_EN":"Mae Song","ADM3_TH":"แม่สอง","ADM3_PCODE":"TH630503","ADM2_EN":"Tha Song Yang","ADM2_TH":"ท่าสองยาง","ADM2_PCODE":"TH6305","ADM1_EN":"Tak","ADM1_TH":"ตาก","ADM1_PCODE":"TH63","ADM0_EN":"Thailand","ADM0_TH":"ประเทศไทย","ADM0_PCODE":"TH"}},{"arcs":[[-94,115,-109,116,-99]],"type":"Polygon","properties":{"Shape_Leng":0.902229384018,"Shape_Area":0.0216412309985,"ADM3_EN":"Mae La","ADM3_TH":"แม่หละ","ADM3_PCODE":"TH630504","ADM2_EN":"Tha Song Yang","ADM2_TH":"ท่าสองยาง","ADM2_PCODE":"TH6305","ADM1_EN":"Tak","ADM1_TH":"ตาก","ADM1_PCODE":"TH63","ADM0_EN":"Thailand","ADM0_TH":"ประเทศไทย","ADM0_PCODE":"TH"}},{"arcs":[[-107,117,-112]],"type":"Polygon","properties":{"Shape_Leng":1.2658113201,"Shape_Area":0.0344039733061,"ADM3_EN":"Mae Wa Luang","ADM3_TH":"แม่วะหลวง","ADM3_PCODE":"TH630505","ADM2_EN":"Tha Song Yang","ADM2_TH":"ท่าสองยาง","ADM2_PCODE":"TH6305","ADM1_EN":"Tak","ADM1_TH":"ตาก","ADM1_PCODE":"TH63","ADM0_EN":"Thailand","ADM0_TH":"ประเทศไทย","ADM0_PCODE":"TH"}},{"arcs":[[-111,118,-114,119]],"type":"Polygon","properties":{"Shape_Leng":1.28950263525,"Shape_Area":0.0275243078158,"ADM3_EN":"Mae Usu","ADM3_TH":"แม่อุสุ","ADM3_PCODE":"TH630506","ADM2_EN":"Tha Song Yang","ADM2_TH":"ท่าสองยาง","ADM2_PCODE":"TH6305","ADM1_EN":"Tak","ADM1_TH":"ตาก","ADM1_PCODE":"TH63","ADM0_EN":"Thailand","ADM0_TH":"ประเทศไทย","ADM0_PCODE":"TH"}},{"arcs":[[120,121,122,123]],"type":"Polygon","properties":{"Shape_Leng":0.186564701243,"Shape_Area":0.00153695975868,"ADM3_EN":"Mae Sot","ADM3_TH":"แม่สอด","ADM3_PCODE":"TH630601","ADM2_EN":"Mae Sot","ADM2_TH":"แม่สอด","ADM2_PCODE":"TH6306","ADM1_EN":"Tak","ADM1_TH":"ตาก","ADM1_PCODE":"TH63","ADM0_EN":"Thailand","ADM0_TH":"ประเทศไทย","ADM0_PCODE":"TH"}},{"arcs":[[124,125,126,127,128]],"type":"Polygon","properties":{"Shape_Leng":0.636422147169,"Shape_Area":0.00935275260854,"ADM3_EN":"Mae Ku","ADM3_TH":"แม่กุ","ADM3_PCODE":"TH630602","ADM2_EN":"Mae Sot","ADM2_TH":"แม่สอด","ADM2_PCODE":"TH6306","ADM1_EN":"Tak","ADM1_TH":"ตาก","ADM1_PCODE":"TH63","ADM0_EN":"Thailand","ADM0_TH":"ประเทศไทย","ADM0_PCODE":"TH"}},{"arcs":[[-42,129,130,-128,131,132,133,-101,-44,134]],"type":"Polygon","properties":{"Shape_Leng":1.72687654941,"Shape_Area":0.0476831258034,"ADM3_EN":"Phawo","ADM3_TH":"พะวอ","ADM3_PCODE":"TH630603","ADM2_EN":"Mae Sot","ADM2_TH":"แม่สอด","ADM2_PCODE":"TH6306","ADM1_EN":"Tak","ADM1_TH":"ตาก","ADM1_PCODE":"TH63","ADM0_EN":"Thailand","ADM0_TH":"ประเทศไทย","ADM0_PCODE":"TH"}},{"arcs":[[-122,135,-126,136,137]],"type":"Polygon","properties":{"Shape_Leng":0.344719625603,"Shape_Area":0.00308338122735,"ADM3_EN":"Mae Tao","ADM3_TH":"แม่ตาว","ADM3_PCODE":"TH630604","ADM2_EN":"Mae Sot","ADM2_TH":"แม่สอด","ADM2_PCODE":"TH6306","ADM1_EN":"Tak","ADM1_TH":"ตาก","ADM1_PCODE":"TH63","ADM0_EN":"Thailand","ADM0_TH":"ประเทศไทย","ADM0_PCODE":"TH"}},{"arcs":[[-91,-104,-102,-134,138,139]],"type":"Polygon","properties":{"Shape_Leng":1.13425282536,"Shape_Area":0.0216735977269,"ADM3_EN":"Mae Kasa","ADM3_TH":"แม่กาษา","ADM3_PCODE":"TH630605","ADM2_EN":"Mae Sot","ADM2_TH":"แม่สอด","ADM2_PCODE":"TH6306","ADM1_EN":"Tak","ADM1_TH":"ตาก","ADM1_PCODE":"TH63","ADM0_EN":"Thailand","ADM0_TH":"ประเทศไทย","ADM0_PCODE":"TH"}},{"arcs":[[-123,-138,140,141]],"type":"Polygon","properties":{"Shape_Leng":0.615315485783,"Shape_Area":0.00530359656304,"ADM3_EN":"Tha Sai Luat","ADM3_TH":"ท่าสายลวด","ADM3_PCODE":"TH630606","ADM2_EN":"Mae Sot","ADM2_TH":"แม่สอด","ADM2_PCODE":"TH6306","ADM1_EN":"Tak","ADM1_TH":"ตาก","ADM1_PCODE":"TH63","ADM0_EN":"Thailand","ADM0_TH":"ประเทศไทย","ADM0_PCODE":"TH"}},{"arcs":[[-124,-142,142,-139,-133,143]],"type":"Polygon","properties":{"Shape_Leng":0.710886771037,"Shape_Area":0.0100227971266,"ADM3_EN":"Mae Pa","ADM3_TH":"แม่ปะ","ADM3_PCODE":"TH630607","ADM2_EN":"Mae Sot","ADM2_TH":"แม่สอด","ADM2_PCODE":"TH6306","ADM1_EN":"Tak","ADM1_TH":"ตาก","ADM1_PCODE":"TH63","ADM0_EN":"Thailand","ADM0_TH":"ประเทศไทย","ADM0_PCODE":"TH"}},{"arcs":[[-129,-131,144,145,146]],"type":"Polygon","properties":{"Shape_Leng":0.707284946016,"Shape_Area":0.00860268378704,"ADM3_EN":"Mahawan","ADM3_TH":"มหาวัน","ADM3_PCODE":"TH630608","ADM2_EN":"Mae Sot","ADM2_TH":"แม่สอด","ADM2_PCODE":"TH6306","ADM1_EN":"Tak","ADM1_TH":"ตาก","ADM1_PCODE":"TH63","ADM0_EN":"Thailand","ADM0_TH":"ประเทศไทย","ADM0_PCODE":"TH"}},{"arcs":[[-43,-135]],"type":"Polygon","properties":{"Shape_Leng":0.902299698143,"Shape_Area":0.0211693856661,"ADM3_EN":"Dan Mae Lamao","ADM3_TH":"ด่านแม่ละเมา","ADM3_PCODE":"TH630609","ADM2_EN":"Mae Sot","ADM2_TH":"แม่สอด","ADM2_PCODE":"TH6306","ADM1_EN":"Tak","ADM1_TH":"ตาก","ADM1_PCODE":"TH63","ADM0_EN":"Thailand","ADM0_TH":"ประเทศไทย","ADM0_PCODE":"TH"}},{"arcs":[[-121,-144,-132,-127,-136]],"type":"Polygon","properties":{"Shape_Leng":0.473219803362,"Shape_Area":0.00533603228714,"ADM3_EN":"Phrathat Pha Daeng","ADM3_TH":"พระธาตุผาแดง","ADM3_PCODE":"TH630610","ADM2_EN":"Mae Sot","ADM2_TH":"แม่สอด","ADM2_PCODE":"TH6306","ADM1_EN":"Tak","ADM1_TH":"ตาก","ADM1_PCODE":"TH63","ADM0_EN":"Thailand","ADM0_TH":"ประเทศไทย","ADM0_PCODE":"TH"}},{"arcs":[[147,148,149,150]],"type":"Polygon","properties":{"Shape_Leng":0.498554010515,"Shape_Area":0.00838545486332,"ADM3_EN":"Phop Phra","ADM3_TH":"พบพระ","ADM3_PCODE":"TH630701","ADM2_EN":"Phop Phra","ADM2_TH":"พบพระ","ADM2_PCODE":"TH6307","ADM1_EN":"Tak","ADM1_TH":"ตาก","ADM1_PCODE":"TH63","ADM0_EN":"Thailand","ADM0_TH":"ประเทศไทย","ADM0_PCODE":"TH"}},{"arcs":[[-146,151,152,-151,153]],"type":"Polygon","properties":{"Shape_Leng":0.832920865862,"Shape_Area":0.0179571461552,"ADM3_EN":"Chong Khaep","ADM3_TH":"ช่องแคบ","ADM3_PCODE":"TH630702","ADM2_EN":"Phop Phra","ADM2_TH":"พบพระ","ADM2_PCODE":"TH6307","ADM1_EN":"Tak","ADM1_TH":"ตาก","ADM1_PCODE":"TH63","ADM0_EN":"Thailand","ADM0_TH":"ประเทศไทย","ADM0_PCODE":"TH"}},{"arcs":[[-41,154,155,156,157,158,-152,-145,-130]],"type":"Polygon","properties":{"Shape_Leng":1.24547853347,"Shape_Area":0.0425427835874,"ADM3_EN":"Khiri Rat","ADM3_TH":"คีรีราษฎร์","ADM3_PCODE":"TH630703","ADM2_EN":"Phop Phra","ADM2_TH":"พบพระ","ADM2_PCODE":"TH6307","ADM1_EN":"Tak","ADM1_TH":"ตาก","ADM1_PCODE":"TH63","ADM0_EN":"Thailand","ADM0_TH":"ประเทศไทย","ADM0_PCODE":"TH"}},{"arcs":[[-149,159,160]],"type":"Polygon","properties":{"Shape_Leng":0.66930246173,"Shape_Area":0.00659993417209,"ADM3_EN":"Wale","ADM3_TH":"วาเล่ย์","ADM3_PCODE":"TH630704","ADM2_EN":"Phop Phra","ADM2_TH":"พบพระ","ADM2_PCODE":"TH6307","ADM1_EN":"Tak","ADM1_TH":"ตาก","ADM1_PCODE":"TH63","ADM0_EN":"Thailand","ADM0_TH":"ประเทศไทย","ADM0_PCODE":"TH"}},{"arcs":[[-148,-153,-159,161,-160]],"type":"Polygon","properties":{"Shape_Leng":0.484836195556,"Shape_Area":0.00829497990926,"ADM3_EN":"Ruam Thai Phatthana","ADM3_TH":"รวมไทยพัฒนา","ADM3_PCODE":"TH630705","ADM2_EN":"Phop Phra","ADM2_TH":"พบพระ","ADM2_PCODE":"TH6307","ADM1_EN":"Tak","ADM1_TH":"ตาก","ADM1_PCODE":"TH63","ADM0_EN":"Thailand","ADM0_TH":"ประเทศไทย","ADM0_PCODE":"TH"}},{"arcs":[[162,163,164,165,166]],"type":"Polygon","properties":{"Shape_Leng":1.11629232767,"Shape_Area":0.0375596265832,"ADM3_EN":"Umphang","ADM3_TH":"อุ้มผาง","ADM3_PCODE":"TH630801","ADM2_EN":"Umphang","ADM2_TH":"อุ้มผาง","ADM2_PCODE":"TH6308","ADM1_EN":"Tak","ADM1_TH":"ตาก","ADM1_PCODE":"TH63","ADM0_EN":"Thailand","ADM0_TH":"ประเทศไทย","ADM0_PCODE":"TH"}},{"arcs":[[-165,167,168,169,170]],"type":"Polygon","properties":{"Shape_Leng":0.818094190706,"Shape_Area":0.0225568543154,"ADM3_EN":"Nong Luang","ADM3_TH":"หนองหลวง","ADM3_PCODE":"TH630802","ADM2_EN":"Umphang","ADM2_TH":"อุ้มผาง","ADM2_PCODE":"TH6308","ADM1_EN":"Tak","ADM1_TH":"ตาก","ADM1_PCODE":"TH63","ADM0_EN":"Thailand","ADM0_TH":"ประเทศไทย","ADM0_PCODE":"TH"}},{"arcs":[[-157,171,-167,172,173]],"type":"Polygon","properties":{"Shape_Leng":1.1354103097,"Shape_Area":0.0494445640361,"ADM3_EN":"Mo Kro","ADM3_TH":"โมโกร","ADM3_PCODE":"TH630803","ADM2_EN":"Umphang","ADM2_TH":"อุ้มผาง","ADM2_PCODE":"TH6308","ADM1_EN":"Tak","ADM1_TH":"ตาก","ADM1_PCODE":"TH63","ADM0_EN":"Thailand","ADM0_TH":"ประเทศไทย","ADM0_PCODE":"TH"}},{"arcs":[[-169,174,175]],"type":"Polygon","properties":{"Shape_Leng":2.47514357682,"Shape_Area":0.120546020709,"ADM3_EN":"Mae Chan","ADM3_TH":"แม่จัน","ADM3_PCODE":"TH630804","ADM2_EN":"Umphang","ADM2_TH":"อุ้มผาง","ADM2_PCODE":"TH6308","ADM1_EN":"Tak","ADM1_TH":"ตาก","ADM1_PCODE":"TH63","ADM0_EN":"Thailand","ADM0_TH":"ประเทศไทย","ADM0_PCODE":"TH"}},{"arcs":[[-164,176,-175,-168]],"type":"Polygon","properties":{"Shape_Leng":2.71839046696,"Shape_Area":0.172424883533,"ADM3_EN":"Mae Lamung","ADM3_TH":"แม่ละมุ้ง","ADM3_PCODE":"TH630805","ADM2_EN":"Umphang","ADM2_TH":"อุ้มผาง","ADM2_PCODE":"TH6308","ADM1_EN":"Tak","ADM1_TH":"ตาก","ADM1_PCODE":"TH63","ADM0_EN":"Thailand","ADM0_TH":"ประเทศไทย","ADM0_PCODE":"TH"}},{"arcs":[[-166,-171,177,-173]],"type":"Polygon","properties":{"Shape_Leng":0.483643757783,"Shape_Area":0.00498716069661,"ADM3_EN":"Mae Klong","ADM3_TH":"แม่กลอง","ADM3_PCODE":"TH630806","ADM2_EN":"Umphang","ADM2_TH":"อุ้มผาง","ADM2_PCODE":"TH6308","ADM1_EN":"Tak","ADM1_TH":"ตาก","ADM1_PCODE":"TH63","ADM0_EN":"Thailand","ADM0_TH":"ประเทศไทย","ADM0_PCODE":"TH"}},{"arcs":[[-35,178,-155,-40,179,180]],"type":"Polygon","properties":{"Shape_Leng":1.33846901914,"Shape_Area":0.0412080600109,"ADM3_EN":"Chiang Thong","ADM3_TH":"เชียงทอง","ADM3_PCODE":"TH630901","ADM2_EN":"Wang Chao","ADM2_TH":"วังเจ้า","ADM2_PCODE":"TH6309","ADM1_EN":"Tak","ADM1_TH":"ตาก","ADM1_PCODE":"TH63","ADM0_EN":"Thailand","ADM0_TH":"ประเทศไทย","ADM0_PCODE":"TH"}},{"arcs":[[-39,-49,181,-180]],"type":"Polygon","properties":{"Shape_Leng":0.720339566941,"Shape_Area":0.0152994285464,"ADM3_EN":"Na Bot","ADM3_TH":"นาโบสถ์","ADM3_PCODE":"TH630902","ADM2_EN":"Wang Chao","ADM2_TH":"วังเจ้า","ADM2_PCODE":"TH6309","ADM1_EN":"Tak","ADM1_TH":"ตาก","ADM1_PCODE":"TH63","ADM0_EN":"Thailand","ADM0_TH":"ประเทศไทย","ADM0_PCODE":"TH"}},{"arcs":[[-36,-181,-182,-48]],"type":"Polygon","properties":{"Shape_Leng":0.450831061923,"Shape_Area":0.00496198502553,"ADM3_EN":"Pradang","ADM3_TH":"ประดาง","ADM3_PCODE":"TH630903","ADM2_EN":"Wang Chao","ADM2_TH":"วังเจ้า","ADM2_PCODE":"TH6309","ADM1_EN":"Tak","ADM1_TH":"ตาก","ADM1_PCODE":"TH63","ADM0_EN":"Thailand","ADM0_TH":"ประเทศไทย","ADM0_PCODE":"TH"}}]}}}