{"type":"Topology","arcs":[[[6514,5635],[-38,-12],[-29,-25],[-4,-36],[15,-43],[-2,-18],[-32,-15],[-15,-29],[-13,-1]],[[6396,5456],[-25,-6],[-35,29],[-53,-19],[-17,-15],[-10,-27],[-27,9],[-34,-34],[-20,21],[5,15],[-50,11],[-20,-11],[-22,11]],[[6088,5440],[-94,25],[-7,21]],[[5987,5486],[26,26],[13,31],[36,50],[-6,66],[25,12]],[[6081,5671],[21,-6],[79,-37],[15,32],[36,23],[-11,30],[-23,14],[9,8],[-4,57],[-13,10],[37,16],[1,34],[21,10],[32,-7],[47,1],[33,12]],[[6361,5868],[34,4],[8,-13],[73,38],[65,25],[-17,-13],[-116,-58],[11,-68],[-22,-18],[-19,-42],[13,-25],[74,9],[18,-43],[18,5],[13,-34]],[[6937,6229],[-9,-27],[9,-10],[-20,-21],[9,-35],[22,-7],[-2,-75],[-32,-46],[-19,-41],[-5,-27],[-35,-23],[-2,-17],[-20,-15],[19,-37]],[[6852,5848],[-31,-12]],[[6821,5836],[-15,5],[-82,-32],[-14,29],[13,38],[-23,58],[18,40],[19,0],[39,40],[-7,40],[4,65],[-32,21],[69,48],[67,92]],[[6877,6280],[29,-42],[31,-9]],[[6514,5635],[4,11],[37,0],[0,12],[26,-13],[39,22]],[[6620,5667],[11,-31]],[[6631,5636],[4,-39],[16,1],[11,-32],[-6,-36],[-35,-32],[1,-16],[33,-7],[32,-57],[-38,-34],[-5,-14],[26,-54],[5,-44],[-14,-25],[12,-23]],[[6673,5224],[-6,-18],[-64,-38],[3,-16],[-20,-34],[-23,-19],[-20,0],[-49,-50],[-23,-10]],[[6471,5039],[-25,99],[-13,71],[-16,57],[-37,71],[-50,78],[30,22],[45,8],[-9,11]],[[6631,5636],[42,11],[23,18],[57,6],[34,-5],[28,30],[37,-1],[26,-14],[6,-14],[26,-10],[17,-38],[22,-24],[19,-4],[25,-31]],[[6993,5560],[-10,-58],[16,-6],[15,-39],[2,-28],[-15,-1],[0,-47],[-82,-28],[-10,-21],[-20,-5],[-6,-31],[-27,-38],[3,-16]],[[6859,5242],[-11,-13],[-50,23],[-21,-6],[-27,13],[-22,-16],[-55,-19]],[[6088,5440],[-4,-46],[33,-20],[-6,-26],[29,-17],[21,-62],[21,-43],[18,-3],[29,-26],[52,-79],[74,-16],[41,-57],[-4,-54],[-12,-19],[-3,-43]],[[6377,4929],[-11,-14],[-28,-7],[10,-23],[-23,-19],[6,-28],[-20,-9],[2,-14],[-36,-19],[-1,-18],[-22,-13],[-6,-25]],[[6248,4740],[-5,24],[-14,4],[-13,33],[11,15],[-15,24],[2,33]],[[6214,4873],[-16,39],[-2,28],[-33,54],[1,59],[-30,10],[2,13],[-58,28],[-35,-5]],[[6043,5099],[-83,56],[-45,71],[-1,32],[-42,33],[-35,16],[-35,91],[-44,58]],[[5758,5456],[14,17],[20,-1],[32,15],[18,-19],[105,-31],[40,49]],[[6852,5848],[43,-14],[54,13],[22,-8]],[[6971,5839],[18,1],[-5,-24],[36,-40],[33,-16],[-1,-29],[28,-49],[-12,-22],[11,-18]],[[7079,5642],[48,-57],[1,-26],[-60,3],[-75,-2]],[[6620,5667],[17,22],[42,18],[-4,20],[96,16],[46,52],[4,41]],[[5758,5456],[-15,47],[-72,32],[-15,22],[-5,69],[-35,51],[-18,4],[-11,19]],[[5587,5700],[62,4],[-7,19],[14,22],[46,17],[54,-5],[33,20]],[[5789,5777],[24,6],[30,-8],[22,17],[18,-19],[43,0],[11,-35],[35,-11],[34,-1],[5,14],[20,-5],[5,-18],[45,-46]],[[6471,5039],[-2,-14],[-39,-51],[-8,-30],[-45,-15]],[[5758,5456],[-45,28],[-21,0],[-17,-16],[4,-33],[-55,3],[-22,-31],[-31,-13],[-2,-33],[10,-38],[-19,1],[-5,26],[-18,11],[-38,-13],[-13,-15]],[[5486,5333],[-20,-13],[-12,18],[-39,-2],[-16,-22],[-44,18],[-65,-28],[-19,4],[3,26],[20,20],[1,54],[-29,23],[-33,8],[-18,30],[-8,-8]],[[5207,5461],[-8,24],[-24,19],[-13,-14],[-39,10],[-5,-10],[-19,40],[-18,0],[-16,23],[-42,12],[-9,22],[-24,6],[-58,-5],[-22,8],[-5,37],[-23,-3],[18,17],[4,28]],[[4904,5675],[52,33],[12,17],[9,52],[-14,25],[-37,38],[-5,61]],[[4921,5901],[78,-5],[38,21],[58,-11],[4,-10],[74,-19],[13,4],[52,-15],[0,-28],[60,-8],[37,-33],[29,-57],[50,-24],[48,14],[45,0],[20,-19],[50,0],[10,-11]],[[4921,5901],[-47,3],[-29,25],[-31,10],[5,25],[-31,4],[-32,47],[-43,18],[-44,8],[-71,46],[-22,29],[36,111],[12,12],[115,-31],[37,5],[65,20],[36,-8],[40,5],[21,-8],[18,11],[49,10],[11,55],[15,21]],[[5031,6319],[10,5],[16,143],[33,45],[73,32],[14,24],[41,5],[33,-5],[-6,25],[23,10],[32,-12],[4,-21],[29,-3],[-10,-21],[-19,-7],[24,-17],[17,19],[4,-30]],[[5349,6511],[-3,-53],[-22,-22],[17,-32],[-20,-32],[-29,-4],[39,-29],[-7,-7],[-41,16],[-10,-33],[-17,18],[-15,-10],[21,-15],[-8,-14],[-22,-4],[-34,15],[24,-51],[-9,-12],[-42,6],[33,-40],[-36,-14],[-10,-30],[38,-6],[4,-16],[28,-9],[14,-25],[29,-4],[55,-20],[22,18],[12,-15],[-32,-15],[20,-11],[29,4],[5,-32],[16,-2],[6,33],[43,-4],[-2,41],[13,1],[6,-42],[47,1],[21,13],[0,25],[42,11],[15,-25],[38,-9],[21,6],[7,21],[33,7],[20,-9],[12,-32],[36,10],[4,-27],[30,-2],[-20,-21],[27,-1],[6,-30],[14,0],[32,40]],[[5849,6038],[20,-4],[21,-47]],[[5890,5987],[21,-18],[-5,-17],[-29,-1],[-44,-39],[-23,4],[-21,-10],[-25,-33],[14,-82],[11,-14]],[[6877,6280],[-26,20],[-32,12],[-11,68],[-85,8]],[[6723,6388],[0,30],[11,17],[-28,32],[-12,28],[-34,41],[-41,35],[-5,32],[14,28],[-4,54],[27,36],[17,36],[-5,20],[17,39],[27,23],[9,23]],[[6716,6862],[50,-19],[37,10],[15,-27],[33,3],[15,-13],[70,61],[20,-6],[13,-22],[76,26],[24,-28],[37,13],[30,-7],[3,18],[41,41],[-8,19],[15,21],[-21,5],[4,24],[32,11],[14,-22],[33,-15],[6,18],[24,1],[19,17],[41,3],[10,17],[51,33],[40,-5],[10,20],[-12,21],[16,33],[83,57],[29,-15],[17,6],[14,-21],[21,-5],[11,-33],[-11,-17],[30,-31],[-7,-19],[41,-37],[-3,-11],[70,-23],[-14,-20],[-2,-25],[66,-64],[29,12],[1,-21],[43,0],[34,-14],[27,6],[-9,-14],[22,-29],[15,2],[75,-53],[-4,-18],[54,-11],[55,21],[15,-17],[28,7],[54,-8],[51,-21],[32,22],[18,-1],[14,-21],[4,-40],[18,-20],[27,-13],[27,-30],[20,-11],[9,-31],[2,-53]],[[8460,6499],[-25,-10],[1,-27],[-61,8],[-97,1],[-79,-11]],[[8199,6460],[-32,-8],[-60,-30],[-58,-1],[-16,-38],[-11,-4],[-49,8],[-93,3],[-28,8],[-33,27],[-63,-19],[-10,-30],[-41,-42],[-43,-14],[17,-47],[-13,-41],[-15,-5],[-28,23],[-33,0]],[[7590,6250],[-46,15],[-15,16],[2,28],[-22,5],[-5,30],[-45,7],[-6,17],[-32,5],[-24,16],[-62,26],[-85,-12],[-80,-27],[-72,-17],[-26,-27],[-20,-8],[-61,-8],[-54,-33],[-7,-23],[7,-31]],[[5890,5987],[23,38],[-2,16],[21,8],[7,-17],[119,-6],[6,21],[21,7],[16,21],[14,-37],[48,-1],[34,17],[1,14],[25,-1],[35,17]],[[6258,6084],[6,-37],[24,-32],[41,-70],[32,-77]],[[6258,6084],[42,32],[33,15],[-6,24],[-27,16],[-4,34],[19,19],[37,11],[131,-11],[73,11],[54,18],[69,63],[30,18],[14,54]],[[5849,6038],[-43,9],[-9,27],[12,11],[-25,17],[0,31],[15,23],[33,8],[-9,68],[24,27],[2,17],[26,10],[10,18],[-14,10],[-1,44],[-22,30],[-8,50],[-25,22],[4,46],[-18,36],[13,60],[-24,47],[4,50],[-8,17]],[[5786,6716],[-1,16],[33,6],[18,22],[29,-9],[27,7],[35,-10],[20,14],[73,18],[19,33],[0,21],[29,24],[30,2],[50,-7],[33,38],[37,15],[6,15],[-20,16],[8,31],[24,0],[26,15],[33,-1],[11,-11],[42,1],[15,-22],[59,-10],[24,13]],[[6446,6953],[32,-2],[7,-27],[31,-6],[55,1],[28,7],[-10,16],[13,13],[42,-17],[20,-17],[-15,-9],[8,-38],[59,-12]],[[5349,6511],[18,6],[0,-29],[30,9],[38,-5],[-10,26],[27,21],[14,35],[-33,15],[18,7],[7,34],[-36,-24],[12,30],[-14,40],[43,3],[-10,31],[33,6],[-3,-23],[13,-3],[35,29],[-22,24],[8,43],[20,8]],[[5537,6794],[65,1],[9,-25],[21,29],[14,-16],[30,-9],[54,-82],[11,11],[45,13]],[[5271,4069],[-28,-5],[-57,32],[-41,30],[-65,-8],[-4,42],[-17,19]],[[5059,4179],[16,48],[29,58],[27,29]],[[5131,4314],[158,-7],[-2,-29],[24,-17],[22,-38],[-52,-34],[-7,-28],[12,-68],[-15,-24]],[[6043,5099],[-82,-50],[-76,-11],[-109,-43],[-27,26],[-10,22],[-81,13],[-13,-44],[-29,-8],[-2,-33],[25,-17],[-20,-14],[-10,11],[-39,-2],[-19,-22]],[[5551,4927],[-17,17],[-81,42],[-9,15],[-10,49],[16,20],[-10,50]],[[5440,5120],[30,17],[37,-21],[24,12],[7,39],[-43,-8],[-20,7],[-14,37],[11,12],[43,1],[39,-7],[16,14],[-4,17],[-58,7],[-7,16],[26,15],[3,14],[-40,21],[-4,20]],[[6214,4873],[-51,2],[-5,-16],[-31,-5],[-84,-1],[-77,-25],[-87,2],[-155,-359],[-25,-27],[-28,-14]],[[5671,4430],[-29,41],[-1,56],[-10,12],[-65,6],[-8,21],[-18,7],[-75,-9],[-8,-16],[-12,18],[-43,6]],[[5402,4572],[13,28],[45,25],[17,16],[50,170],[-20,40],[14,33],[34,29],[-4,14]],[[5131,4314],[7,22],[-6,47],[6,18],[42,37]],[[5180,4438],[27,14],[38,-9],[37,-41],[24,-2],[16,16],[37,66],[43,90]],[[5671,4430],[1,-28],[-21,-11],[-75,-13],[-11,-9],[-41,-101],[25,-61],[25,-14],[56,-6],[17,-63],[-14,-22]],[[5633,4102],[-56,-40],[10,-28],[-32,-3],[-51,7],[-10,-7],[-52,-88],[-20,0],[-52,-21],[-32,-22],[-22,-27]],[[5316,3873],[11,59],[-1,50],[-16,38],[-4,31],[-35,18]],[[5633,4102],[65,7],[62,-10],[48,-16],[9,-32],[56,6],[25,-13],[-2,-19],[72,11],[81,-7]],[[6049,4029],[-40,-72],[-74,-103],[-14,-26],[-30,-89]],[[5891,3739],[-59,-103],[-18,-52],[-65,-234]],[[5749,3350],[-19,-32],[-132,-145]],[[5598,3173],[-80,61],[-35,65],[-28,13],[-44,-5],[-24,4],[-27,29],[14,36],[35,14],[21,42],[-3,12],[-34,6],[-22,56],[16,7],[33,-33],[26,14],[-21,29],[32,44],[-3,28],[-24,4],[-1,22],[-22,41],[-33,19],[31,54],[-40,32],[-15,66],[-34,40]],[[5598,3173],[-8,-69]],[[5590,3104],[-15,-28],[-62,-29],[-71,-14],[-57,-6]],[[5385,3027],[19,63],[-11,16],[-100,10],[-27,-3],[-58,20],[-114,76],[-12,16],[-108,1]],[[4974,3226],[-26,114],[-37,113],[-32,62],[-47,110],[-15,75],[-6,172]],[[4811,3872],[20,-12],[51,-1],[19,19],[6,32],[21,34],[41,25],[54,83],[1,67],[9,35],[26,25]],[[5440,5120],[-77,14],[-58,-19],[-18,6]],[[5287,5121],[-61,19],[-29,-26],[0,-14],[-48,5],[-21,-18],[-19,31],[-31,7],[-17,18],[-37,17],[-41,-27],[-28,0],[-2,-17],[-30,-8],[-6,-20],[-45,-3],[-45,-35],[-2,-25],[-23,-7],[-31,4],[-4,16],[-26,-12],[-38,-1],[-33,-16],[-39,13],[-54,-15],[-23,-14],[-4,-18],[-41,-48],[-10,-35],[31,-45],[-1,-52]],[[4529,4795],[-27,-11],[-55,-8],[-24,-16],[-73,-2]],[[4350,4758],[-2,56],[-24,12],[-24,-3],[-50,-36],[-11,-28],[-35,15],[-16,52],[-7,49]],[[4181,4875],[31,72],[2,43],[-12,44],[30,19],[-9,17]],[[4223,5070],[12,8],[48,1],[51,13],[35,19],[38,-20],[40,13],[-9,32],[7,28],[-29,30],[21,15],[-20,20],[3,16],[-34,46],[13,9],[-4,23],[24,39],[6,33],[37,11],[7,14],[41,-47],[65,-5],[13,-26],[71,-19],[24,-18],[54,0],[25,-17],[40,5],[33,17],[38,-15],[32,9],[16,14],[8,37],[23,30],[34,-7],[17,11],[21,36],[72,31],[-1,13],[26,-6],[17,-16],[18,11],[17,-11],[34,14]],[[5287,5121],[-3,-41],[6,-45],[-18,-61],[-15,-107],[8,-56],[60,40],[15,23],[26,-4],[14,-35],[-25,-53],[-19,-8],[6,-25],[-12,-30],[-35,-8],[4,-62],[12,-49],[-28,10],[-19,-6],[-76,12],[-19,-6],[24,-9],[15,-27],[-25,-3],[-7,-41],[25,1],[-21,-46],[-28,-15]],[[5152,4470],[-8,12],[-27,1],[-17,26],[-60,13],[-1,28],[-38,36],[-3,41],[-19,17],[-37,14],[-43,42],[-1,26],[-32,6],[-62,-18],[-73,3],[-57,24],[-31,35],[-54,19],[-60,0]],[[5180,4438],[-28,32]],[[4811,3872],[5,30],[27,34],[1,32],[-12,29],[-23,26],[-65,-18],[-12,-10],[-7,-37],[52,-17],[2,-29],[-23,-8],[-36,21],[-99,-22],[-15,4],[-10,35],[-15,6],[-47,-27],[-13,2],[-23,44],[-28,10],[-33,-12],[-18,13],[29,7],[17,28],[-22,19],[-46,20],[-15,18],[-33,7],[-40,-5],[-22,17],[18,14],[-4,17],[20,41],[5,38],[11,9],[1,30],[26,8],[-2,30],[22,20],[-30,53],[24,26],[-12,60],[-10,13],[9,29],[-15,20],[-5,31],[20,31],[-15,16],[-14,44],[24,31],[-15,42],[16,20],[1,34],[-12,12]],[[4811,3872],[-42,-3],[-63,6],[-29,-3],[-29,-16],[-2,-17],[51,-36],[-1,-16],[-32,-19],[-64,10],[-39,-35],[-24,10],[-29,50],[-38,2],[-13,-20],[10,-23],[29,-16],[1,-25],[-44,-25],[-23,7],[-20,30],[-23,-33],[0,-38],[-27,-9],[-33,6],[-42,-5],[-49,-15],[6,-27]],[[4242,3612],[-39,5],[-32,14],[-17,-14],[-26,1],[-41,-20],[-24,10],[-62,-79],[-27,-81],[-41,9],[-32,18],[-7,33],[-46,6],[19,17],[-56,54],[-85,-14],[-17,17],[-1,-38],[-36,13],[-28,-16],[-19,4],[-27,41],[1,28],[50,2],[-7,44],[-19,9],[-27,-4],[-45,-32],[-22,7],[-23,83],[57,9],[7,28],[-23,32],[48,54],[-6,24],[-28,-20],[-3,16],[-50,-3],[-15,10],[-39,0],[-8,19],[-34,4],[-2,17],[-21,-12],[-44,39],[4,26],[15,25],[-47,22],[-8,14],[18,78]],[[3327,4111],[30,8],[23,34],[-38,40],[-1,17],[46,10],[12,34],[28,-16],[12,21],[36,8],[9,28],[-7,12],[43,23],[0,15],[34,7],[27,22],[-5,25],[-17,-2],[-5,42],[39,38],[8,38],[28,28],[42,-10],[13,66],[30,35],[-4,56],[46,82],[2,51],[73,-10],[38,-15],[19,-18],[29,-1],[35,17],[15,17],[14,39],[8,60],[51,-13],[41,8],[42,-18],[58,-14]],[[4974,3226],[-133,2],[3,-42],[-16,-21],[5,-19],[-8,-29],[8,-14],[-17,-26],[-68,-26],[-69,-53],[-27,-4],[-63,35],[-36,7],[-29,-9],[-18,18],[-40,12],[-29,-4],[-28,27],[-82,22]],[[4327,3102],[-1,22],[-28,20],[-10,19],[20,39],[-18,11],[18,16],[-17,15],[14,19],[-19,3],[1,30],[24,15],[-4,25],[15,6],[14,48],[-24,31],[1,52],[-32,10],[-26,35],[-30,8],[-15,49],[30,1],[2,36]],[[4327,3102],[-69,22],[-46,22],[-48,2],[-25,-11],[-46,1],[-14,51],[-17,32],[-52,47],[-7,29],[-55,14],[-33,2],[-18,-64],[7,-39],[-46,-19],[-38,43],[-36,72],[-44,67],[-77,91],[-64,68],[-20,8],[-32,-16],[-26,33],[-60,56],[-26,33],[1,22],[30,44],[-62,23],[-91,77],[-59,38],[-60,46],[-13,29],[4,27],[51,81],[21,24],[25,48],[22,18]],[[3304,4123],[23,-12]],[[81,2339],[61,-24],[12,-37],[-8,-31],[-20,-31],[-10,-57],[-41,-11],[-26,26],[-26,-8],[-17,36],[-6,31],[20,5],[9,49],[34,59],[18,-7]],[[309,2459],[34,-21],[8,-28],[-32,-32],[-136,-24],[-40,-13],[-45,15],[-7,22],[15,10],[33,0],[44,48],[36,24],[61,9],[29,-10]],[[3852,2833],[-3,-28],[57,-19],[90,2],[85,18],[51,18],[74,6],[67,-61],[24,-18],[106,-15],[38,-13],[-2,-11],[-37,-45],[-94,-16],[-40,-17],[-19,5],[-24,-10],[-68,3],[-94,-51],[-13,17],[-68,-22],[-22,-31],[-21,-3],[-8,-24],[-42,-35],[-82,-44],[-13,-18],[-2,-45],[13,-11],[5,-77],[-31,1],[-42,-35],[-38,-5],[-46,10],[-60,27],[-30,34],[-8,37],[-67,48],[-3,19],[47,112],[12,49],[11,15],[-4,29],[-39,131],[3,38],[11,33],[34,14],[12,-14],[35,5],[30,46],[45,36],[3,43],[23,8],[27,-11],[1,-26],[68,-64],[48,-35]],[[3978,3261],[-30,13],[15,17],[26,-2],[-11,-28]],[[2181,3464],[18,-25],[1,-33],[12,-39],[27,-29],[-2,-19],[45,-49],[26,-36],[-8,-26],[-35,-29],[-12,-44],[-30,27],[1,24],[-12,19],[16,32],[-15,22],[0,30],[-29,52],[0,54],[-20,48],[17,21]],[[2195,3893],[-30,0],[-15,27],[33,16],[12,-43]],[[2669,4015],[18,-14],[31,14],[22,-2],[12,-49],[30,-43],[36,-21],[2,-18],[65,-16],[39,-4],[-73,-32],[-23,-18],[2,-27],[-23,-26],[16,-36],[-19,-27],[7,-14],[-30,-9],[1,-11],[-55,3],[-35,33],[0,35],[-29,8],[-26,37],[-36,-7],[-24,7],[-4,18],[20,38],[-4,18],[36,16],[-38,39],[15,36],[-12,23],[-45,20],[6,9],[39,2],[20,12],[46,12],[13,-6]],[[1993,4176],[7,-21],[-24,5],[17,16]],[[1768,4264],[23,-57],[32,-43],[15,-40],[-10,-8],[-36,10],[-38,1],[-53,-13],[-63,-23],[-28,-1],[-5,23],[17,31],[0,34],[-11,96],[2,35],[23,67],[-4,39],[9,31],[16,-9],[27,-38],[53,-60],[31,-75]],[[6248,4740],[13,-34],[-7,-62],[20,-18],[9,-35],[-16,-41],[-21,-31],[-6,-45],[43,-27]],[[6283,4447],[-23,-45],[-21,-69],[-34,-85],[-21,-38],[-38,-84],[-16,-20],[-49,-40],[-32,-37]],[[7098,4171],[-8,-14],[13,-42],[12,-12],[-26,-9],[-6,-16],[-22,5],[8,-17],[-20,-44],[19,-20],[-35,-39],[-39,-21],[26,-27]],[[7020,3915],[-10,-6],[6,-47],[15,-35]],[[7031,3827],[-47,17],[-66,-12],[4,-28],[-10,-19],[-45,27],[-27,-8],[-28,-19],[-13,11]],[[6799,3796],[26,13],[7,21],[43,30],[-2,43],[-43,12],[-5,43],[-23,2],[-4,16],[15,30],[-41,19],[-2,93],[-11,37],[9,2],[4,50],[-21,4],[8,54],[-29,12],[16,46],[-10,16]],[[6736,4339],[34,5],[30,38],[37,10],[37,1],[46,13],[26,25],[-35,44],[7,29]],[[6918,4504],[103,-21],[2,-36],[21,-2],[6,-40],[-8,-32],[16,-2],[11,-31],[25,-26],[6,-31],[14,-12],[-5,-27],[-18,-21],[19,-16],[-17,-3],[5,-33]],[[7098,4171],[18,-4],[0,18],[21,21],[-5,25],[18,-4],[18,20],[-3,23],[39,11],[-1,32],[14,24],[25,0],[21,23],[38,24],[36,1],[1,22],[36,34],[-1,17],[19,24],[22,11],[16,26]],[[7430,4519],[37,23],[61,6],[42,9],[20,-11],[8,-40],[53,-17],[41,-4],[20,22],[25,1],[5,-15],[24,0],[36,-16],[24,4],[20,-26],[53,-2],[19,-9]],[[7918,4444],[-10,-24],[-27,0],[-56,-27],[-2,-11],[-34,-35],[-6,-26],[-73,-12],[14,-15],[-15,-5],[-2,-40]],[[7707,4249],[-44,15],[-20,-18],[-3,-35],[-31,-6],[-19,-41],[6,-22],[-32,-11],[5,-28],[-30,0],[3,-17],[-22,-13],[-35,1],[-6,22],[-52,25],[-24,-29],[-15,21],[-27,-11],[-28,-47],[11,-18],[-6,-24],[-28,-5],[16,-21],[-33,-12],[-20,5],[-10,-25],[-31,17],[-23,-23],[-25,4],[-42,28],[-15,-31],[-25,16],[-21,-18],[-61,-33]],[[7430,4519],[2,16],[-32,12],[0,15],[29,11],[19,19],[-3,15],[28,-10],[10,20],[24,6],[9,32],[46,43],[13,41],[-5,29],[-21,30],[-25,2],[-7,28]],[[7517,4828],[21,23],[79,11],[-2,12],[31,26],[32,7],[79,-1],[3,25],[34,11],[34,-3]],[[7828,4939],[44,-16],[15,33],[107,-8],[35,27],[14,22],[95,-9],[67,21],[33,22],[42,11],[2,15],[31,22],[-4,14],[39,30],[36,3],[48,23],[134,102]],[[8566,5251],[11,-41],[-13,-19],[23,-37],[50,-27],[70,-21],[13,-26],[30,-14],[52,-2],[12,-9],[0,-33],[35,-44],[28,-25],[25,-11],[20,-25],[14,-39],[-5,-14],[-37,-18],[-3,-36],[-24,-21],[10,-19],[3,-34],[11,-9],[86,-35],[9,-19]],[[8986,4673],[-25,-28],[-22,-5],[-28,-39],[-29,-14],[-12,7],[-39,-39],[-34,-49],[-14,17],[-74,7],[-23,9],[-79,7],[-14,-12],[-70,-20],[-33,-23],[-82,9],[-22,9],[-19,-9],[-57,3],[-18,26],[-19,1],[0,20],[-26,9],[1,17],[-21,13],[-48,-6],[-27,20],[-16,-8],[-52,4],[-22,-33],[-60,11],[-9,29],[-33,-13],[-13,-40],[18,-13],[-5,-39],[-23,9],[10,-43],[-29,-23]],[[7707,4249],[25,9],[20,-14],[42,-2],[13,-38],[25,-1],[8,-12],[38,-3],[-1,-16],[64,15],[2,13],[28,11],[19,21],[68,-4],[7,-30],[13,14],[35,14],[3,17],[27,-15],[1,-44],[-18,-65],[-2,-21],[18,-82],[-1,-47],[21,-32],[68,-53],[31,-31],[-6,-35],[9,-31]],[[8264,3787],[-22,-2],[-20,-16],[-32,-11]],[[8190,3758],[-2,-11],[-72,-81],[8,-30],[-16,-15],[3,-60],[-16,-43],[-36,1],[-19,-16],[-29,5],[-4,15],[-39,10],[-41,25],[-14,-11],[-20,11],[-16,30],[-5,-14],[-22,23],[-10,-23],[-24,19]],[[7816,3593],[18,13],[2,41],[-22,0],[-5,16],[-25,-7],[-13,21],[-4,-27],[-17,-8],[-27,18],[-1,-18],[-28,-10],[14,28],[-49,22],[0,18],[-59,0],[-5,-18],[-39,23],[-22,-14],[-62,10],[11,-18],[-29,-8],[-19,35],[17,25],[-30,-4],[-30,25],[-10,-15],[-32,7],[-20,18],[-35,-3],[-1,-34],[-51,1],[-16,44],[10,23],[-20,-5],[1,-16]],[[7218,3776],[-9,13],[21,25],[-26,0],[-13,27],[-72,-13],[-4,13],[-46,-22],[-9,15],[-29,-7]],[[8986,4673],[13,-31],[-1,-22],[35,-19],[4,-12],[-35,-34],[24,-18],[-11,-37],[45,-8],[34,-26],[10,-23],[20,-14],[16,-27],[-6,-28],[6,-23],[42,-30],[17,-49],[89,-39],[2,-48],[19,-26],[45,-18],[33,-53],[-14,-45],[27,-57],[23,-31],[42,-30],[5,-25],[-18,-60],[-43,-47],[-1,-32],[34,-53],[52,-25],[17,-42],[-17,-40]],[[9494,3601],[-39,38],[-124,67],[-41,-7],[-22,5],[-60,39],[-92,27],[-43,-3],[-17,14],[-65,10],[-52,3],[-14,15],[-51,8],[-25,18],[-55,16],[-25,-14],[-37,22],[-41,1],[-32,-19],[-26,3],[-24,-21],[-30,1],[-26,11],[5,24],[-10,28],[-82,-4],[-59,-27],[1,-32],[-47,-20],[-17,-27],[-61,12],[-19,-2]],[[6283,4447],[20,25],[4,41],[40,28],[19,34],[41,29],[50,-2],[4,-13],[55,-17],[22,-17],[15,22],[22,-26],[-4,-21],[25,-23],[-3,-21],[26,-28],[18,-3],[21,-22],[-1,-15],[23,-6],[19,-23],[24,-7],[4,-36],[9,-7]],[[6799,3796],[-27,8],[-19,-29],[2,-24],[-23,-34],[-42,-14],[23,-17],[-4,-21],[18,-7],[-28,-14],[27,-32],[-36,-35],[14,-7],[-13,-20],[21,-21],[2,-21],[-83,-2],[10,-24]],[[6641,3482],[-37,0],[-41,19],[-59,67],[-26,49],[-4,51],[-17,15],[-24,-3],[-55,29],[-27,-16],[-69,9],[-49,-11],[-60,-54],[-59,-21],[-24,-1],[-33,16],[-35,43],[-33,22],[-98,43]],[[6859,5242],[12,-8],[40,1],[28,-14],[23,16]],[[6962,5237],[9,-13],[-1,-33],[-30,-30],[24,-20],[0,-45],[-17,-16],[4,-17],[-18,-4],[9,-54],[16,-19],[26,1],[11,-19],[26,5]],[[7021,4973],[4,-38],[-20,-22],[-40,-11],[-7,-28],[8,-31],[37,-48],[16,-3],[5,-53],[27,-8],[-4,-36],[-16,-9],[-11,-28],[-33,-22],[4,-13],[-45,-28],[3,-22],[-23,-37],[-24,-14],[16,-18]],[[7021,4973],[28,5],[73,1],[44,8],[17,-18],[4,-24],[16,-1],[27,-20],[-4,-20],[17,0],[12,-27],[20,-12],[31,5],[27,-62],[30,-2],[41,9],[25,-2],[14,15],[30,8],[44,-8]],[[7212,1450],[-22,14],[15,26],[38,29],[-1,-25],[-30,-44]],[[6679,1683],[-16,11],[0,47],[16,12],[13,-42],[-13,-28]],[[7340,2360],[0,-20],[-20,-10],[-32,8],[7,-22],[29,-18],[11,-19],[1,-30],[27,-35],[-8,-27],[-15,14],[-22,0],[5,-29],[22,-29],[50,9],[64,-17],[33,-29],[6,-32],[-14,-12],[28,-43],[41,-34],[-1,-21],[-40,-15],[-20,-25],[21,-73],[-16,-26],[-51,-22],[-78,35],[-49,-9],[-6,-35],[-21,-38],[-22,-52],[-4,-26],[17,-35],[10,-51],[-19,-71]],[[7274,1521],[-68,1],[-42,-23],[-6,-10],[-50,-30],[-23,-7],[-56,3],[-33,-12],[-24,-27],[-43,-23],[-24,1],[-22,-16],[-9,-19],[-32,14],[21,17],[11,44],[24,34],[-21,58],[-2,44],[-12,58],[-25,39],[-17,49],[-25,42],[-22,53],[-2,34],[-81,10]],[[6691,1855],[29,82],[34,40],[147,71],[29,31],[-2,39],[-54,88],[-39,23],[38,56],[30,-2],[4,-26],[18,-5],[8,15],[-36,52],[4,21],[32,22],[63,-9],[24,4],[24,-78],[36,4],[30,17],[1,18],[22,12],[-1,28],[47,24],[75,22],[53,-41],[1,21],[17,6],[15,-30]],[[7340,2360],[46,-24],[55,49],[-6,20],[13,7],[12,29],[27,23],[6,32],[26,32],[3,28],[15,24],[-5,27],[27,28],[-1,14],[35,27],[-3,40],[-17,6],[1,20],[45,46],[-7,34],[10,17],[33,22],[5,40]],[[7660,2901],[21,16],[17,-4],[75,3],[11,-16],[79,-9],[40,-11],[4,26],[76,-61],[55,-10],[59,-65],[47,37],[41,2],[88,-8],[35,-23],[67,10]],[[8375,2788],[-8,-20],[3,-43],[-27,-17],[-2,-46],[-21,-26],[-2,-47],[10,-40]],[[8328,2549],[-46,11],[-42,-9],[-34,10],[-47,-41],[-56,-17],[-30,-29],[-46,-15],[-31,6],[-44,-5],[-40,-16],[1,-61],[-22,-11],[5,-20],[-30,9],[-2,-19],[16,-6],[-13,-55],[8,-14],[-26,-1],[-53,-19],[-3,-21],[-45,-8],[-18,-9],[-39,8],[-7,-38],[14,-37],[-15,-23],[-21,-9],[-72,18],[-19,-14],[29,-43],[63,-68],[10,-29],[44,-27],[54,-9],[11,-17],[-17,-25],[-55,-45],[-2,-31],[24,-41],[2,-29],[-24,-44],[-20,-65],[-47,-76]],[[7643,1565],[-36,7],[-14,-20],[-39,-28],[-65,-21],[-39,-7],[-43,23],[-133,2]],[[9494,3601],[-11,-40],[21,-42],[-12,-18],[23,-33],[34,-19],[5,-50],[22,-20],[14,-43],[61,-14],[49,5],[76,-5],[29,-6],[61,3],[26,-13],[3,-62],[-27,-29],[24,-35],[19,-119],[-3,-37],[12,-5],[-14,-42],[6,-35],[39,-78],[24,-11],[2,-36],[-25,-14],[-28,-64],[-34,-24],[-14,6],[-24,-22],[-9,-35],[-32,-30],[13,-63],[23,-9],[46,-30],[-12,-34],[32,-9],[19,-50],[44,-31],[-4,-35],[27,-23],[-4,-30],[-17,-10],[-26,17],[-9,-9],[22,-57],[28,-40],[-28,-1],[-4,-21],[-45,-52],[-24,-8],[-15,-23],[-36,-22],[-32,1],[-22,14],[-60,-19],[-65,22],[-28,0],[-48,-18],[-50,-12],[-86,-5]],[[9450,2077],[4,14],[-20,32],[23,16],[-4,11],[-42,3],[-36,20],[-22,3],[-6,16],[11,32],[24,25],[38,15],[12,15],[-22,60],[-10,76],[-12,30],[-17,14],[-5,29],[-49,47],[-15,34],[-22,13],[-21,-8],[-20,-26],[-23,-6],[-64,-3],[-12,-28],[0,-43],[-15,-17],[-33,-7],[-35,-64],[-35,-30],[-71,19],[-12,14],[10,29],[-9,11],[-44,0],[-28,9],[-36,-6],[-49,7],[-57,-4],[-53,19],[-95,-8],[-31,-16],[-30,-2],[-55,36],[-72,64],[-62,27]],[[8375,2788],[14,57],[-4,39],[11,30],[-13,19],[-32,14],[-38,2],[-55,21],[-18,33],[-7,69],[-29,37],[-40,-1],[-35,15],[-13,33],[-59,-4],[-1,18],[-34,-4],[-72,-34],[-3,6],[51,57],[6,33],[27,49],[42,17],[-24,63],[-23,28],[21,32],[-8,-27],[32,-10],[23,27],[28,-9],[14,-33],[-7,-10],[35,-6],[26,10],[2,15],[27,4],[10,17],[21,2],[16,34],[24,-6],[-5,18],[31,7],[28,-12],[26,4],[29,26],[17,1],[0,23],[-28,30],[14,17],[-18,21],[5,36],[10,10],[-8,25],[-25,2],[-38,16],[-10,20],[-42,18],[-19,-7],[5,69],[-38,-2],[-34,11]],[[7816,3593],[-29,-28],[-26,-86],[4,-22],[-17,0],[-5,-43],[10,-8],[-14,-42],[17,-8],[57,-1],[39,-7],[17,-11],[-8,-18],[-25,-14],[-36,-51],[-40,9],[6,-17],[-25,-6],[-12,-24],[-37,-9]],[[7692,3207],[-44,10],[-35,35],[-17,33],[-55,55],[-52,3],[-22,9],[-38,57],[-1,25],[-18,4],[-4,21],[52,40],[-42,6],[-12,-12],[-70,28],[-45,11],[-37,-1],[-43,7],[-20,-33],[-14,-42],[-35,-20],[-23,3],[-11,25],[-45,27]],[[7061,3498],[1,25],[-12,11],[6,21],[-38,13],[-30,30],[19,29],[-5,21],[43,21],[48,41],[73,31],[14,25],[38,10]],[[6641,3482],[38,-5],[12,-14],[39,17],[73,-18],[47,1],[13,19],[42,13],[7,-12],[30,15],[63,7],[56,-7]],[[7692,3207],[6,-23],[-29,-30],[-27,-3],[23,-14],[-12,-17],[-50,-2],[0,-19],[-23,-24]],[[7580,3075],[-31,-64],[-31,-15],[-20,-43],[-14,5],[-17,-24],[-46,8],[-107,-22],[-38,-33],[-58,-28],[-22,-20],[-1,-21],[-20,-3],[-27,64],[10,50],[-36,60],[6,9],[-85,23],[-37,-24],[-75,-36],[-36,-25],[-50,-54],[-18,-2],[-4,-37],[-11,-2],[-30,45],[-26,11],[7,8],[-2,57],[-22,47],[-62,-4],[-12,-23],[-38,15],[-24,-3],[-29,-29],[-3,-15]],[[6571,2950],[-27,7],[-20,-19],[-31,4],[-41,75],[-1,30],[12,24],[-7,20],[-31,34],[-22,8],[-36,-7],[-37,7],[-45,23],[-26,23],[-55,1],[-34,11],[-29,19],[-50,10],[-18,14],[-26,5],[-36,19],[-17,26],[-27,14],[-40,-23],[-47,-4],[-70,49],[-61,30]],[[6691,1855],[-81,11],[-40,-9]],[[6570,1857],[-10,64],[-12,32],[-38,56],[-32,35],[-149,111],[-37,30],[-38,46],[-5,59],[12,24],[62,57]],[[6323,2371],[84,73],[49,48],[94,143],[9,39],[-3,59],[4,40],[14,37],[-4,79],[1,61]],[[7580,3075],[11,-36],[30,2],[34,-18],[10,-36],[-1,-40],[-10,-11],[6,-35]],[[9450,2077],[-31,-17],[-73,-1],[-62,-24],[-58,-48],[-34,-11],[-28,-24],[-24,-43],[-47,-4],[-47,24],[-49,-11],[-21,-40],[-38,-37],[-89,-16],[-19,-11],[-7,-46],[-22,-14],[-7,-38],[-30,-9],[-57,-42],[-25,-36],[3,-39],[-56,-3],[-44,-24],[-70,-16],[-13,-16],[-27,2],[-52,-13],[-27,3],[-18,-19],[-55,-3],[-56,46],[-28,15],[-3,24],[-18,19],[-19,-13],[3,-22],[-7,-52],[-25,-7],[-2,-22],[-51,4],[-42,-16],[-66,-12],[-45,6],[-37,-17],[-102,11],[-38,14],[-55,31],[-72,21],[19,27],[-36,7]],[[4721,0],[-20,44],[24,10],[15,-16],[-1,-33],[-18,-5]],[[4720,473],[-31,52],[-10,39],[8,53],[-5,29],[-29,87],[16,14],[24,-27],[-2,-45],[26,-46],[0,-54],[7,-36],[-7,-39],[3,-27]],[[3821,977],[-29,3],[1,15],[22,4],[6,-22]],[[4198,1256],[-21,17],[-9,39],[8,40],[31,-13],[13,-25],[-22,-58]],[[4170,1374],[-29,7],[-2,25],[-16,20],[-5,27],[15,9],[7,-20],[37,-42],[-7,-26]],[[5604,1482],[30,-9],[40,-47],[37,-16],[27,-37],[26,1],[15,-26],[77,-19],[40,9],[23,15],[13,-18],[21,-4],[40,-30],[22,-8],[9,-27],[46,-4],[123,-108],[46,-63],[45,-37],[-3,-14],[-35,-13],[-47,6],[-113,69],[-72,27],[-53,9],[-40,-19],[-37,14],[-23,-4],[-41,17],[-45,7],[-14,9],[-43,5],[1,19],[-16,79],[-29,38],[-38,15],[-13,77],[-25,45],[6,42]],[[2558,5500],[-13,-2],[-29,27],[2,17],[37,-7],[3,-35]],[[2646,5649],[3,-28],[-21,-15],[-14,19],[8,17],[24,7]],[[3475,6460],[-4,-53],[-18,-42],[9,-28],[4,-59],[-12,-44],[3,-67],[21,-108],[113,4],[30,17],[10,56],[41,52],[81,6],[34,-31],[33,6],[39,-8],[11,-16],[22,-3],[14,-19],[31,-6]],[[3937,6117],[27,-90],[21,-42],[13,-79]],[[3998,5906],[-3,-16],[15,-50]],[[4010,5840],[-109,11],[22,-51],[27,-41],[-10,-10],[-38,11],[-10,-14],[0,-38],[-43,-16],[9,-15],[-8,-21],[-58,15],[-24,17],[-26,3],[-48,34],[-67,7],[-29,-11],[-6,-42],[-54,-44],[-45,7],[-7,-17],[-31,1],[-51,-20],[-16,-22],[-41,3],[-9,-14],[-16,9],[-30,-25],[-33,4],[-36,-15],[-38,20],[-55,-8],[-3,-15],[18,-23],[-42,-11],[-10,8],[1,33],[15,14],[7,35],[-24,6],[-21,-37],[-12,-7],[-67,2],[-27,-14],[-58,-109]],[[2907,5440],[-37,45],[-61,82],[-64,57],[-44,32],[8,31],[31,20],[-29,12],[-57,83],[2,11],[-19,32],[4,25],[-52,57],[-32,45],[3,21],[-32,47],[4,49],[19,55],[9,69]],[[2560,6213],[24,2],[23,-79],[29,6],[0,32],[9,9],[42,-8],[-4,-23],[-19,-14],[11,-26],[18,18],[20,-6],[48,11],[23,-14],[5,-24],[42,14],[38,-1],[64,10],[97,35],[61,17],[17,27],[36,13],[33,3],[56,103],[34,51],[39,45],[15,0],[7,-29],[18,-17],[21,7],[25,-10],[18,19],[2,49],[43,14],[20,13]],[[2560,6213],[-5,23],[-39,66],[-53,-2],[-10,-32],[-32,-31],[-46,3],[-44,-49],[-25,18],[-56,19],[-31,-3],[-4,16],[-52,40],[-47,13],[-44,2],[-25,-7],[-17,8],[-21,46],[29,-5],[35,16],[67,-30],[39,5],[16,-8],[50,2],[2,16],[-24,66],[1,20],[20,33],[14,50],[43,26],[27,24],[-20,25],[39,51],[49,55],[39,55],[55,50],[42,16],[67,-16],[14,20],[-16,32],[23,36],[28,-18],[18,7],[6,27],[16,-18],[17,21],[14,-17]],[[2719,6884],[-28,-31],[28,-45],[-20,-35],[-29,18],[-23,-21],[-15,-29],[0,-37],[-32,-33],[-5,-24],[-33,-30],[8,-40],[39,18],[28,2],[49,-20],[27,15],[-1,40],[-16,46],[20,8],[42,-24],[51,-15],[51,1],[30,18],[2,20],[28,-12],[22,31],[42,3],[29,20],[35,-11],[137,-4],[79,36],[39,4],[31,-16],[27,21],[38,2],[27,-8],[18,-29],[27,-9],[37,1]],[[3508,6715],[7,-28],[-18,-36],[-28,-13],[-6,-25],[9,-44],[-19,-57],[22,-52]],[[2719,6884],[12,-10],[36,15],[-17,9],[18,17],[7,29],[33,25],[-2,21],[38,19],[25,35],[-9,38],[17,9],[-3,20],[-27,30],[-6,35],[24,47],[18,6],[19,44],[-10,28],[10,15],[-17,38],[-37,8],[8,32],[-13,22],[-7,84],[-14,31],[-49,11],[-104,31],[-31,20],[8,56],[-19,31],[2,34],[58,62],[35,19],[18,34],[39,36],[-21,36],[32,65],[9,45],[-3,22],[-44,14],[-74,10],[-61,-6],[0,73],[11,14],[51,-2],[10,7],[7,52]],[[2696,8195],[21,-1],[61,-26],[35,-8],[67,0],[-6,-13],[25,-6],[20,-21],[43,9],[48,3],[31,16],[2,11],[36,7],[28,-7],[54,17],[14,-38],[-1,-23],[79,-32],[-7,-36],[6,-11],[57,-48],[25,-38],[22,-15],[18,-42],[22,-12],[31,-55],[9,-69],[-2,-26]],[[3434,7731],[-2,-57],[-7,-12],[17,-23],[-16,-18],[7,-28],[14,-13],[-5,-58],[-11,-27],[-60,-52]],[[3371,7443],[-60,-23],[-13,-21],[0,-39],[-41,-54],[-11,-47],[23,-70],[42,-60],[30,-29],[-23,-34],[-2,-27],[37,-44],[7,-21],[25,-31],[35,-8],[38,2],[18,-7],[0,-78],[12,-53],[29,-54],[-9,-30]],[[3304,4123],[5,6],[-17,67],[-19,22],[-29,6],[-55,-25],[-17,12],[16,18],[34,11],[16,-12],[26,19],[14,78],[-4,58],[-15,112],[22,21],[-38,28],[-24,85],[-26,60],[22,30],[-33,19],[-42,69],[-31,113],[-50,103],[-55,57],[-85,41],[-30,24],[-6,15],[16,15],[-9,15],[-42,5],[-13,-28],[-20,0],[-39,-36],[-6,-24],[-40,-16],[-15,-47],[-14,29],[-38,46],[-35,50],[-7,24],[-28,27],[3,15],[44,29],[35,-30],[12,-39],[9,-4],[50,25],[-18,34],[-30,9],[15,26],[17,-21],[47,-34],[40,26],[-5,16],[23,13],[10,31],[2,66],[22,27],[45,20],[-7,11]],[[4010,5840],[14,-68],[15,-31],[10,-49],[0,-38],[15,-52],[14,-5],[10,-35],[26,-19],[21,-4],[30,-27],[22,-33],[7,-40],[-1,-59],[-8,-52],[2,-35],[-20,-35],[-63,-39],[-9,-61],[11,-33],[17,-4],[32,-34],[68,-17]],[[2812,5032],[2,-28],[-41,-21],[-38,30],[5,16],[37,0],[16,20],[19,-17]],[[3998,5906],[16,-2],[12,43],[9,7],[-3,30],[-19,3],[-11,25],[9,17],[48,18],[29,-20],[73,4],[15,-29],[51,-18],[32,-38],[24,3],[6,-20],[-12,-19],[8,-39],[38,-14],[60,-10],[29,40],[6,36],[-13,23],[67,13],[40,1],[36,-12],[102,-79],[14,-35],[3,-67],[20,-33],[32,-12],[87,3],[-8,-21],[10,-23],[27,-5],[56,5],[13,-6]],[[6531,7935],[1,-52],[32,-7],[4,-26],[-13,-4],[0,-37],[99,-18],[23,12],[41,0],[52,-27],[11,-20],[87,-23]],[[6868,7733],[-3,-39],[53,-26],[-37,-17],[-1,-17],[-21,-10],[-35,4],[-36,-54],[-9,-26],[-55,4],[-56,-13],[-29,-18],[2,-27],[-30,-14]],[[6611,7480],[-56,46],[-30,-1],[-59,-13],[-11,16],[-37,21],[-101,12],[-21,10],[4,14],[-28,12],[-3,29],[-41,14],[-5,-12],[-60,3],[-12,27],[-40,-19]],[[6111,7639],[-34,5],[-4,19],[52,41],[-4,21],[33,-2],[6,36],[-14,22],[-32,14],[-62,4],[33,57],[33,25]],[[6118,7881],[16,-11],[28,27],[36,3],[3,15],[30,22],[69,11],[22,54],[36,-28],[47,-8],[0,-25],[16,-20],[35,17],[22,-14],[21,11],[32,0]],[[6417,9033],[14,-27],[1,-180],[11,-59],[-2,-67]],[[6441,8700],[4,-31],[-1,-313],[1,-27],[21,-89]],[[6466,8240],[-45,-7],[-11,15],[-20,-17],[-65,-6],[-20,-17],[-3,-24],[-20,-8],[-18,8],[-34,-41],[-61,-3],[-13,-10]],[[6156,8130],[-40,-2],[-35,-14],[-17,-19],[-21,-4],[-19,-21],[-31,7],[-32,-16],[-44,12],[-10,25],[-32,35],[-18,3],[-35,23],[-51,8],[-40,11],[-52,54],[-27,11],[-19,20],[-20,5],[-41,25],[-3,42],[-63,16],[-37,-14],[-11,11]],[[5458,8348],[25,-2],[0,19],[-25,6],[-34,-26],[2,44],[47,-1],[18,24],[-30,24],[-34,-1],[-12,89],[40,23],[44,-27],[6,7]],[[5505,8527],[22,-5],[47,13],[57,-21],[61,8],[1,25],[32,9],[16,-7],[30,11],[32,23],[54,-12],[18,13],[27,1],[37,19],[36,7],[67,3],[21,-9],[36,25],[30,-1],[12,-11],[31,15],[13,-8],[17,13],[42,1],[29,-11],[3,28],[17,0],[4,41],[24,6],[38,-3],[-1,28],[27,7],[10,40],[-35,4],[-3,86],[-30,11],[-54,1],[9,61],[-27,10],[-1,14],[-46,20],[-1,47]],[[6207,9029],[23,-9],[49,-1],[53,15],[14,11],[46,3],[25,-15]],[[5458,8348],[-19,-7],[-26,-69],[-30,-29],[-32,-10],[-37,-52],[35,-25],[-3,-15],[22,-14],[-35,-57],[-15,-13],[3,-28],[21,-14],[-30,-4],[22,-14],[-16,-27],[16,-29],[-32,-37],[-37,-20],[-3,23],[-35,-22],[6,-44],[22,-8]],[[5255,7833],[-37,-10],[19,-17],[-34,12],[-23,-4],[-4,-40],[6,-69],[-40,-17],[3,-33]],[[5145,7655],[-30,-12],[-18,-21],[-21,-47],[-35,9],[-33,32],[8,14],[-12,55],[-21,28],[-35,8],[-9,67],[-33,3],[-25,13],[-2,24],[-25,16],[10,71],[-45,16],[-43,30],[-41,8],[-7,39],[-18,9],[3,36],[-102,17],[-13,104],[-30,43],[-25,22],[-1,22],[-31,21],[14,16],[-22,8],[-68,-3],[-29,29],[-20,56]],[[4386,8388],[15,9],[28,61],[23,7],[-2,16],[-65,10],[-12,10],[-23,66],[32,20],[21,27],[4,33],[-37,7],[-67,-18],[-24,19],[-2,17]],[[4277,8672],[21,35],[33,3],[28,18],[-2,54],[37,19],[35,-9],[19,25],[49,-7],[41,29],[27,54],[13,15],[77,46],[23,4],[22,-54],[17,-101],[34,-38],[5,-18],[39,-11],[25,9],[43,46],[11,2],[34,-36],[42,-9],[19,26],[56,12],[65,-16],[44,-36],[17,-30],[32,-19],[49,5],[8,-19],[22,5],[9,22],[69,21],[8,-23],[18,7]],[[5366,8703],[32,12],[26,-10],[30,-29],[56,-110],[-5,-39]],[[4155,8385],[4,-36],[31,-17],[0,-48],[-18,-25],[50,-29],[7,-14],[83,2],[6,-32],[28,-2],[39,8],[53,-42],[-10,-5],[20,-27],[0,-20],[-17,-13],[17,-9],[3,-30],[26,-27],[-5,-20],[13,-30],[-16,-22],[19,-53],[20,-16],[21,2],[5,-42],[15,-17],[-9,-27],[24,-32],[-19,-8],[15,-12],[-14,-39],[11,-22],[42,0],[0,13],[28,-8],[3,-59],[72,-12],[31,17],[27,-13],[-8,-29],[9,-10],[36,-9],[72,-3],[50,20],[5,-45],[-6,-16]],[[4918,7527],[-16,-28],[13,-27],[-26,-43],[-25,-3],[-3,-20],[-42,-15],[-8,-24],[-25,-15],[-8,-53],[-17,-12],[-57,32],[-23,-19],[-47,0],[3,-18],[-33,-7]],[[4604,7275],[-12,13],[-52,-5],[-2,74],[-28,3],[-42,-10],[-5,19]],[[4463,7369],[-22,-2],[-32,33],[-21,2],[-9,-24],[-19,2],[-25,29],[-39,-3],[-22,25],[-3,55],[-19,57],[-35,9],[8,60],[16,55],[30,12],[5,24],[-8,30],[6,51],[-9,46],[-35,32],[-16,43],[-62,-5],[-2,24]],[[4150,7924],[-6,26],[4,67],[-9,23],[5,30],[-9,40],[-25,77],[-1,112],[-10,41],[-21,9],[46,31],[31,5]],[[6156,8130],[0,-51],[-19,-17],[35,-14],[-37,-18],[-54,6],[-27,-10],[-37,-34],[111,-33],[29,-13],[-16,-21],[-45,-13],[-19,3],[-24,-26]],[[6053,7889],[-2,-30],[-30,-7],[-9,-26],[-31,-8],[-26,13],[-19,-16],[-33,6],[-42,-7],[-5,-30],[-22,-48],[-18,-20],[-34,23],[-63,-82],[-67,-13],[-59,5],[-42,-23],[-48,-17],[-64,2],[-26,20]],[[5413,7631],[12,39],[-31,12],[20,19],[7,33],[-43,27],[11,19],[-22,-1],[3,29],[-25,-1],[-4,-14],[-19,6],[-32,29],[-35,5]],[[6118,7881],[-65,8]],[[6466,8240],[64,-277],[1,-28]],[[6466,8240],[26,0],[26,-24],[38,-13],[32,0],[5,-18],[22,-10],[31,20],[40,-19],[4,-14],[43,-15],[18,19],[-3,25],[36,31],[61,-1],[40,8],[120,-4],[9,-54],[28,-22],[61,-17],[27,-30],[43,-13],[96,-5],[83,2],[29,12]],[[7381,8098],[50,-1],[32,7],[44,-6],[20,-33],[-17,-28],[20,-42],[34,-32],[63,-14],[16,2],[23,30],[40,14],[45,2],[58,17],[55,25]],[[7864,8039],[2,-36],[22,-30],[42,-19],[4,-31],[30,-11],[45,-61],[5,-47],[-6,-12],[-47,-27],[-9,-34],[36,-32],[-19,-38],[5,-11],[65,-27]],[[8039,7623],[-77,-3],[-84,17],[-57,5],[-62,16],[-49,8],[-83,7],[-54,-7],[12,-22],[-7,-44],[-22,-16],[-70,-21],[-10,-18],[-72,5],[-48,-30],[-41,-8],[-39,14],[-52,31],[-32,10],[-69,41],[-16,26],[-28,22],[-46,14],[-65,29],[-100,34]],[[6446,6953],[-3,60]],[[6443,7013],[21,19],[25,3],[11,35],[61,1],[7,39],[-24,46],[4,18],[-18,43],[-33,39],[-18,10],[50,31],[-4,27],[29,37],[22,45],[16,5],[18,29],[1,40]],[[8039,7623],[38,-50],[14,-6],[59,-1],[5,-21],[-32,-41],[26,-29],[-2,-23],[54,-41],[3,-13],[-48,-68],[3,-29],[17,-23],[-7,-36],[24,-45],[21,-25],[-1,-66],[11,-20],[0,-30],[22,-46],[-1,-16],[43,-20],[33,-7],[2,-24],[38,-33],[6,-14],[-11,-29],[64,-15],[46,-5],[52,-17],[19,-21],[4,-30],[-20,-21],[0,-17],[32,-49],[-30,-31],[7,-62],[-27,-53],[-1,-31],[-17,-15],[-25,-1]],[[6443,7013],[-31,33],[-9,22],[-86,1],[-34,-10],[-43,13],[-66,-13],[-21,10],[-7,23],[-19,8],[-43,2],[-11,17],[-28,4],[0,12],[-56,7],[4,34],[-26,39],[-30,3],[-48,-23],[-31,-3],[-123,1],[-60,11]],[[5675,7204],[-41,-5],[-23,13],[-11,24],[-37,40],[-4,21],[-35,9],[-15,-30]],[[5509,7276],[-10,21],[39,42],[-17,3],[13,30],[-3,24],[-18,2]],[[5513,7398],[4,14],[78,14],[28,-13],[46,17],[3,-40],[-14,-3],[2,-37],[25,0],[76,10],[83,16],[25,-8],[101,13],[11,-6],[39,12],[27,-1],[69,49],[41,11],[-7,23],[-36,2],[-12,33],[-27,3],[7,28],[40,17],[9,65],[-20,22]],[[6441,8700],[38,-23],[16,3],[33,-21],[0,-23],[23,-7],[51,21],[30,-11],[17,6],[45,-6],[15,-27],[-6,-11],[31,-26],[18,-36],[28,-4],[12,-29],[49,-36],[11,2],[19,-25],[98,-6],[25,4],[31,-19],[13,4],[49,-28],[57,-8]],[[7144,8394],[8,-20],[45,-17],[29,20],[34,-1],[10,-23],[17,-7],[89,42],[15,-30],[21,-14],[-8,-48],[22,-64],[-2,-68],[-30,-17],[-13,-49]],[[5537,6794],[8,13],[42,15],[-6,23],[25,32],[-4,41],[7,27],[21,24],[-20,10],[3,36],[40,14],[-24,14],[9,29],[32,17],[-8,36],[25,-19],[3,24],[26,23],[-12,33],[-25,-6],[-4,24]],[[5413,7631],[-34,-70],[5,-12],[34,-8],[13,-14],[12,22],[3,-25],[17,-30],[25,-11],[-34,-8],[5,-11],[43,-20],[11,-46]],[[5509,7276],[-26,-32],[2,-10],[-41,0],[-9,45],[-38,-3],[-79,-31],[-22,-37],[-29,-27],[2,-25],[-65,3],[5,-16],[-19,-13],[-15,-35],[5,-23],[-38,7],[-145,78],[-24,-53],[-9,-42],[-24,-26],[-32,1],[-17,-16]],[[4891,7021],[-67,-3],[-6,57],[4,25],[-69,-9],[-5,-11],[-30,6],[-14,-13],[-10,17],[7,18],[-45,34],[3,35],[16,13],[-20,20],[-35,14],[-22,42],[6,9]],[[4918,7527],[52,10],[70,5],[38,19],[93,9],[71,16],[-31,27],[-5,34],[26,9],[3,30],[-39,-7],[-27,-20],[-24,-4]],[[5366,8703],[-2,10],[65,32],[-9,10],[-34,-5],[-11,24],[32,21],[-7,18],[-27,3],[-7,15],[30,44],[-16,10],[7,16],[55,23],[11,11],[-9,22],[21,30],[-11,40],[14,-15],[18,6],[35,74],[34,-9],[39,26],[22,-25],[32,19],[17,30],[24,23]],[[5689,9156],[25,-33],[50,21],[48,-3],[-2,-13],[23,-6],[18,-37],[51,14],[16,-29],[57,5],[68,-15],[50,12],[29,-2],[38,-16],[-2,-13],[28,5],[21,-17]],[[7144,8394],[76,53],[74,63],[45,22],[49,51],[-18,51],[-22,20],[-7,41],[-22,28],[-23,14],[4,23],[-28,16],[37,45],[-1,16],[58,29],[13,30],[-31,29],[8,66],[-22,29],[-6,30],[8,33],[-24,48],[18,16]],[[7330,9147],[80,57],[32,4],[2,-15],[33,-9],[23,3],[93,-22],[23,-30],[23,1],[4,18],[29,17]],[[7672,9171],[-5,-38],[-12,-19],[0,-33],[-19,-39],[-36,-14],[4,-34],[-16,-14],[-2,-42],[-13,-17],[19,-48],[-9,-52],[-10,-18],[28,-45],[0,-21],[14,-27],[25,-7],[16,-25],[-18,-46],[-30,-24],[22,-25],[-5,-15],[23,-48],[-60,-50],[-2,-45],[52,-39],[17,-36],[16,-14],[69,-33],[16,-17],[39,-20],[7,-14],[4,-66],[42,-17],[0,-32],[27,-71],[-11,-27]],[[4155,8385],[25,-17],[30,7],[58,31],[16,25],[53,1],[37,-14],[12,-30]],[[3937,6117],[-36,107],[-11,84],[19,18],[60,12],[73,10],[-1,20],[27,43],[28,7],[19,25],[-16,59],[-8,46],[12,28],[0,27],[-14,25],[9,28],[-12,76],[8,15],[44,41]],[[4138,6788],[71,15],[23,16],[24,48],[40,36],[14,22],[33,21],[22,37],[31,22],[-3,40],[16,54],[0,22],[42,47],[16,59],[1,68],[-10,51],[5,23]],[[4891,7021],[-15,-45],[1,-19],[17,-12],[23,-33],[-6,-34],[-31,-7],[-9,-24],[4,-68],[-29,-3],[-41,-30],[-8,-21],[42,16],[37,-32],[33,12],[36,-64],[5,-66],[-41,-5],[-19,-12],[38,-35],[-5,-85],[-14,-17],[-33,-7],[-31,-18],[29,-36],[80,-53],[74,12],[3,-16]],[[3371,7443],[14,-16],[20,-46],[43,-52],[27,-16],[58,-17],[43,-5],[74,-20],[60,-23],[72,-18],[77,-1],[41,-15],[87,-21],[101,-37],[25,-37],[-3,-23],[-35,-90],[-5,-27],[9,-17],[-6,-86],[5,-31],[-12,-19],[-20,14],[-12,-16],[23,-13],[25,2],[18,18],[27,8],[15,-15],[-4,-36]],[[2696,8195],[-42,28],[-27,52],[-42,22],[-39,64],[-27,21],[-2,18],[19,40],[58,31],[27,51],[40,12],[70,35],[72,7],[55,1],[68,9],[57,28],[28,21],[42,58],[36,24],[29,35],[-22,78],[4,19],[21,21],[46,86],[22,53],[-2,32],[-35,64],[-6,61],[-9,26],[159,26],[85,9],[46,32],[34,6],[24,13],[-5,65],[8,4],[53,-21],[45,-5],[27,-12],[29,-38],[53,-33],[61,-15],[31,-36],[66,-36],[208,-4],[46,15],[28,25],[18,-13],[-56,-62],[-10,-62],[-24,-29],[-3,-72],[-25,-38],[13,-33],[41,-22],[9,-48],[-9,-15],[7,-32],[18,-11],[22,2],[15,-26],[3,-33],[24,-14],[37,2],[46,11],[16,-20]],[[4150,7924],[-39,-23],[-7,-58],[15,-55],[-18,-16],[-77,-20],[-31,8],[-77,-30],[-7,-16],[17,-9],[8,-33],[-39,18],[-28,-13],[-12,11],[-9,49],[-33,9],[-16,-9],[-14,30],[-57,27],[-33,-23],[-65,-9],[-46,-11],[-58,12],[-39,-13],[-25,-18],[-26,-1]],[[6971,5839],[17,21],[31,10],[90,16],[58,-27],[19,4],[32,-16],[25,16],[73,13]],[[7316,5876],[-2,-47],[39,-66],[3,-14],[34,-29],[30,-17],[11,-50],[-4,-21],[-24,-46],[-44,-6],[27,-61],[-43,-10]],[[7343,5509],[-31,0],[-42,26],[-31,-3],[-7,20],[-38,9],[-46,70],[-31,10],[-8,16],[-30,-15]],[[7828,4939],[-3,29],[-34,4],[4,14],[-48,7],[-4,17],[-19,1],[1,37],[22,1],[-7,50],[-11,34],[-13,-1],[-14,58],[-1,34],[16,44],[21,14],[1,14],[28,31],[0,32],[11,22]],[[7778,5381],[19,21],[4,46]],[[7801,5448],[6,43],[-26,24],[-2,25],[69,51],[67,39],[10,72],[-15,14],[-54,15],[-12,23],[2,18],[53,22],[75,23],[47,9],[54,35],[40,14],[3,15],[-17,22],[-15,71],[42,25],[4,34],[25,16],[53,-5],[7,-13],[-8,-39],[15,-22],[18,-2],[74,36],[28,-3]],[[8344,6010],[-26,-24],[-16,-43],[22,-31],[3,-35],[49,-11],[27,-45],[20,-18],[53,-29],[56,-75],[35,-23],[9,-39],[65,-63],[100,-28],[-5,-45],[16,-34],[-90,-86],[3,-51],[-50,-35],[-47,-4],[-23,-15],[21,-25]],[[8199,6460],[24,-31],[32,-9],[37,-21],[4,-22],[18,-22],[0,-34],[42,-37],[85,-38],[-30,-29],[-3,-69],[-43,-31],[-4,-22],[-19,-22],[6,-23],[-4,-40]],[[7801,5448],[-34,23],[-62,73],[-25,-15],[-19,19],[-42,19],[-2,19],[-32,23],[-28,-14],[-49,-74],[-22,6],[-89,-8],[-18,-15],[-36,5]],[[7316,5876],[6,128],[8,41],[47,32],[19,5],[7,22],[26,28],[53,12],[66,2],[6,20],[-17,22],[2,19],[30,31],[21,12]],[[6962,5237],[5,24],[170,31],[54,-1],[9,-29],[35,-4],[6,-13],[-18,-38],[16,-52],[-1,-43],[111,-4],[2,21],[34,20],[27,29],[91,13],[17,13],[0,18],[22,8],[9,21],[23,7],[37,-6],[15,18],[33,1],[31,24],[20,47],[43,15],[25,24]],[[5689,9156],[-9,40],[30,14],[-9,20],[-32,-1],[13,38],[37,-20],[12,19],[23,-4],[-11,29],[31,63],[16,11],[20,-17],[31,-5],[45,2],[3,21],[27,-2],[-22,17],[49,17],[-18,9],[23,55],[99,0],[18,5],[6,23],[-25,38],[36,6],[-15,17],[-1,22],[38,-5],[-18,26],[15,16],[26,57],[50,1],[-2,21],[-38,29],[-1,20],[80,0],[18,27],[19,-8],[11,16],[17,-15]],[[6281,9758],[24,-12],[16,-40],[29,-12],[61,-13],[65,7],[-12,-59],[-33,-228],[15,-3]],[[6446,9398],[-61,-213],[-14,-10],[12,-45],[34,-97]],[[6281,9758],[5,40],[12,14],[23,-5],[5,20],[16,5],[14,46],[15,20],[36,14],[44,56],[25,-2],[11,12],[31,-22],[23,3],[23,20],[45,11],[14,-11],[41,4],[13,-7],[39,10]],[[6716,9986],[5,-34],[-26,-25],[-10,-35],[24,-12],[52,-6],[-3,-97],[-21,-22],[-54,-15],[-4,-15],[-33,-2],[32,-78],[0,-33]],[[6678,9612],[-11,-40],[12,-32],[-22,-7],[-7,-19],[-17,2],[-72,-9],[-80,14],[-8,-42],[14,-7],[-6,-41],[8,-39]],[[6489,9392],[-43,6]],[[6716,9986],[33,13],[16,-20],[26,9],[38,-36],[14,5],[18,-19],[34,8],[15,-13],[10,22],[9,-16],[31,-3],[-10,-11],[20,-13],[-6,-23],[59,-19],[3,-11],[32,4],[42,-33],[39,20],[23,-13],[22,-35],[20,-11],[35,7],[31,-8],[34,14],[22,-19],[43,-3],[10,25],[21,9],[24,-5],[4,17],[23,5],[14,19],[12,-18],[29,17],[-5,14],[28,-7],[29,24],[7,15],[64,8],[23,25],[2,23],[16,10],[27,-4],[23,-20],[23,-4],[70,17],[12,-20],[0,-32],[9,-15],[0,-41],[-20,-29],[-75,-30],[-23,-27],[7,-35],[33,-15],[26,11],[28,25],[40,3],[7,-33],[-39,-31],[-8,-16],[11,-37],[-13,-46],[-19,-8],[-27,3],[-23,-52],[-20,-9],[-17,-30],[-21,-68],[-13,-2],[-29,-31],[-78,37]],[[7561,9424],[-58,-16],[-28,7],[-39,29],[-43,22],[-38,10],[-78,4],[-102,18],[-90,31],[-44,30],[-22,-13],[-17,4],[-39,-17],[-26,1],[-33,22],[10,30],[-12,18],[-31,9],[-68,4],[-13,-16],[-68,9],[-9,-8],[-35,10]],[[6489,9392],[10,-14],[47,-6],[9,37],[69,-15],[-10,-34],[51,-23],[44,4],[10,12],[119,-3],[87,-18],[2,35],[31,1],[59,24],[44,-21],[-6,-11],[24,-45],[50,-17],[-9,-27],[76,-90],[85,-13],[49,-21]],[[7561,9424],[-24,-57],[-20,-68],[45,-46],[22,-9],[0,-19],[31,-24],[57,-30]],[[5590,3104],[61,-72],[38,-25],[-1,-20],[-39,-21],[-11,-14],[19,-24],[54,-15],[52,16],[20,-7],[50,-1],[28,-26],[-26,-30],[0,-33],[45,3],[76,-3],[13,-25],[34,-2],[65,-24],[15,-53],[14,-8],[-5,-35],[14,-22],[43,-25],[10,-22],[15,18],[23,3],[5,-17],[5,-91],[-16,-89]],[[6191,2440],[-24,-101],[-69,26],[-92,14],[-45,-6],[-45,6],[-30,-7],[-106,-3],[-91,3],[-89,-45],[-16,0]],[[5584,2327],[-88,90],[-21,37],[-34,39],[-151,112],[-50,59],[-2,37],[14,58],[40,31],[29,61],[16,88],[16,38],[19,11],[13,39]],[[6323,2371],[-64,39],[-10,14],[-58,16]],[[6570,1857],[-44,-10],[-14,-25],[-34,-32],[-45,-26],[-65,-59],[-28,-37],[-89,-72],[-63,-20],[-36,1],[-48,29],[27,43],[-18,18],[-7,37],[12,39],[-23,24],[-42,16],[-38,-60],[-32,-10],[-43,-35],[-66,93],[-20,8],[-15,71],[-17,46],[-43,91],[-19,29],[-36,95],[-26,56],[-59,103],[-55,57]],[[5929,1555],[-8,-19],[-44,-4],[-2,12],[54,11]]],"transform":{"scale":[0.00008967049284928463,0.00010402222702270217],"translate":[99.05249154600004,6.97262001200005]},"objects":{"Trang":{"type":"GeometryCollection","geometries":[{"arcs":[[0,1,2,3,4,5]],"type":"Polygon","properties":{"Shape_Leng":0.240440587592,"Shape_Area":0.00124293714702,"ADM3_EN":"Thap Thiang","ADM3_TH":"ทับเที่ยง","ADM3_PCODE":"TH920101","ADM2_EN":"Mueang Trang","ADM2_TH":"เมืองตรัง","ADM2_PCODE":"TH9201","ADM1_EN":"Trang","ADM1_TH":"ตรัง","ADM1_PCODE":"TH92","ADM0_EN":"Thailand","ADM0_TH":"ประเทศไทย","ADM0_PCODE":"TH"}},{"arcs":[[6,7,8,9]],"type":"Polygon","properties":{"Shape_Leng":0.144830605371,"Shape_Area":0.000587995677051,"ADM3_EN":"Na Phala","ADM3_TH":"นาพละ","ADM3_PCODE":"TH920104","ADM2_EN":"Mueang Trang","ADM2_TH":"เมืองตรัง","ADM2_PCODE":"TH9201","ADM1_EN":"Trang","ADM1_TH":"ตรัง","ADM1_PCODE":"TH92","ADM0_EN":"Thailand","ADM0_TH":"ประเทศไทย","ADM0_PCODE":"TH"}},{"arcs":[[-1,10,11,12,13,14]],"type":"Polygon","properties":{"Shape_Leng":0.188152686814,"Shape_Area":0.00118766379385,"ADM3_EN":"Ban Khuan","ADM3_TH":"บ้านควน","ADM3_PCODE":"TH920105","ADM2_EN":"Mueang Trang","ADM2_TH":"เมืองตรัง","ADM2_PCODE":"TH9201","ADM1_EN":"Trang","ADM1_TH":"ตรัง","ADM1_PCODE":"TH92","ADM0_EN":"Thailand","ADM0_TH":"ประเทศไทย","ADM0_PCODE":"TH"}},{"arcs":[[-13,15,16,17]],"type":"Polygon","properties":{"Shape_Leng":0.173558827701,"Shape_Area":0.00118430618537,"ADM3_EN":"Na Bin La","ADM3_TH":"นาบินหลา","ADM3_PCODE":"TH920106","ADM2_EN":"Mueang Trang","ADM2_TH":"เมืองตรัง","ADM2_PCODE":"TH9201","ADM1_EN":"Trang","ADM1_TH":"ตรัง","ADM1_PCODE":"TH92","ADM0_EN":"Thailand","ADM0_TH":"ประเทศไทย","ADM0_PCODE":"TH"}},{"arcs":[[-3,18,19,20,21,22,23]],"type":"Polygon","properties":{"Shape_Leng":0.244354176728,"Shape_Area":0.00149540557435,"ADM3_EN":"Khuan Pring","ADM3_TH":"ควนปริง","ADM3_PCODE":"TH920107","ADM2_EN":"Mueang Trang","ADM2_TH":"เมืองตรัง","ADM2_PCODE":"TH9201","ADM1_EN":"Trang","ADM1_TH":"ตรัง","ADM1_PCODE":"TH92","ADM0_EN":"Thailand","ADM0_TH":"ประเทศไทย","ADM0_PCODE":"TH"}},{"arcs":[[-8,24,25,26,-16,-12,27]],"type":"Polygon","properties":{"Shape_Leng":0.1538290683,"Shape_Area":0.00062874500288,"ADM3_EN":"Na Yong Tai","ADM3_TH":"นาโยงใต้","ADM3_PCODE":"TH920108","ADM2_EN":"Mueang Trang","ADM2_TH":"เมืองตรัง","ADM2_PCODE":"TH9201","ADM1_EN":"Trang","ADM1_TH":"ตรัง","ADM1_PCODE":"TH92","ADM0_EN":"Thailand","ADM0_TH":"ประเทศไทย","ADM0_PCODE":"TH"}},{"arcs":[[-4,-24,28,29,30]],"type":"Polygon","properties":{"Shape_Leng":0.150678524977,"Shape_Area":0.00104322426438,"ADM3_EN":"Bang Rak","ADM3_TH":"บางรัก","ADM3_PCODE":"TH920109","ADM2_EN":"Mueang Trang","ADM2_TH":"เมืองตรัง","ADM2_PCODE":"TH9201","ADM1_EN":"Trang","ADM1_TH":"ตรัง","ADM1_PCODE":"TH92","ADM0_EN":"Thailand","ADM0_TH":"ประเทศไทย","ADM0_PCODE":"TH"}},{"arcs":[[-2,-15,31,-19]],"type":"Polygon","properties":{"Shape_Leng":0.188110840089,"Shape_Area":0.000823460843836,"ADM3_EN":"Khok Lo","ADM3_TH":"โคกหล่อ","ADM3_PCODE":"TH920110","ADM2_EN":"Mueang Trang","ADM2_TH":"เมืองตรัง","ADM2_PCODE":"TH9201","ADM1_EN":"Trang","ADM1_TH":"ตรัง","ADM1_PCODE":"TH92","ADM0_EN":"Thailand","ADM0_TH":"ประเทศไทย","ADM0_PCODE":"TH"}},{"arcs":[[-29,32,33,34,35,36]],"type":"Polygon","properties":{"Shape_Leng":0.305673742848,"Shape_Area":0.00254690707949,"ADM3_EN":"Na To Ming","ADM3_TH":"นาโต๊ะหมิง","ADM3_PCODE":"TH920113","ADM2_EN":"Mueang Trang","ADM2_TH":"เมืองตรัง","ADM2_PCODE":"TH9201","ADM1_EN":"Trang","ADM1_TH":"ตรัง","ADM1_PCODE":"TH92","ADM0_EN":"Thailand","ADM0_TH":"ประเทศไทย","ADM0_PCODE":"TH"}},{"arcs":[[-30,-37,37,38,39,40,41]],"type":"Polygon","properties":{"Shape_Leng":0.515015857875,"Shape_Area":0.00419499853439,"ADM3_EN":"Nong Trut","ADM3_TH":"หนองตรุด","ADM3_PCODE":"TH920114","ADM2_EN":"Mueang Trang","ADM2_TH":"เมืองตรัง","ADM2_PCODE":"TH9201","ADM1_EN":"Trang","ADM1_TH":"ตรัง","ADM1_PCODE":"TH92","ADM0_EN":"Thailand","ADM0_TH":"ประเทศไทย","ADM0_PCODE":"TH"}},{"arcs":[[-10,42,43,44,45,46,47]],"type":"Polygon","properties":{"Shape_Leng":0.56100228332,"Shape_Area":0.00828989725784,"ADM3_EN":"Nam Phut","ADM3_TH":"น้ำผุด","ADM3_PCODE":"TH920115","ADM2_EN":"Mueang Trang","ADM2_TH":"เมืองตรัง","ADM2_PCODE":"TH9201","ADM1_EN":"Trang","ADM1_TH":"ตรัง","ADM1_PCODE":"TH92","ADM0_EN":"Thailand","ADM0_TH":"ประเทศไทย","ADM0_PCODE":"TH"}},{"arcs":[[-5,-31,-42,48,49]],"type":"Polygon","properties":{"Shape_Leng":0.207380343245,"Shape_Area":0.00136841925471,"ADM3_EN":"Na Ta Luang","ADM3_TH":"นาตาล่วง","ADM3_PCODE":"TH920117","ADM2_EN":"Mueang Trang","ADM2_TH":"เมืองตรัง","ADM2_PCODE":"TH9201","ADM1_EN":"Trang","ADM1_TH":"ตรัง","ADM1_PCODE":"TH92","ADM0_EN":"Thailand","ADM0_TH":"ประเทศไทย","ADM0_PCODE":"TH"}},{"arcs":[[-6,-50,50,-43,-9,-28,-11]],"type":"Polygon","properties":{"Shape_Leng":0.314030938368,"Shape_Area":0.00236609505046,"ADM3_EN":"Ban Pho","ADM3_TH":"บ้านโพธิ์","ADM3_PCODE":"TH920118","ADM2_EN":"Mueang Trang","ADM2_TH":"เมืองตรัง","ADM2_PCODE":"TH9201","ADM1_EN":"Trang","ADM1_TH":"ตรัง","ADM1_PCODE":"TH92","ADM0_EN":"Thailand","ADM0_TH":"ประเทศไทย","ADM0_PCODE":"TH"}},{"arcs":[[-41,51,52,53,-44,-51,-49]],"type":"Polygon","properties":{"Shape_Leng":0.396258652821,"Shape_Area":0.00599176850076,"ADM3_EN":"Na Tham Nuea","ADM3_TH":"นาท่ามเหนือ","ADM3_PCODE":"TH920119","ADM2_EN":"Mueang Trang","ADM2_TH":"เมืองตรัง","ADM2_PCODE":"TH9201","ADM1_EN":"Trang","ADM1_TH":"ตรัง","ADM1_PCODE":"TH92","ADM0_EN":"Thailand","ADM0_TH":"ประเทศไทย","ADM0_PCODE":"TH"}},{"arcs":[[-40,54,55,-52]],"type":"Polygon","properties":{"Shape_Leng":0.414764193457,"Shape_Area":0.00309568076008,"ADM3_EN":"Na Tham Tai","ADM3_TH":"นาท่ามใต้","ADM3_PCODE":"TH920120","ADM2_EN":"Mueang Trang","ADM2_TH":"เมืองตรัง","ADM2_PCODE":"TH9201","ADM1_EN":"Trang","ADM1_TH":"ตรัง","ADM1_PCODE":"TH92","ADM0_EN":"Thailand","ADM0_TH":"ประเทศไทย","ADM0_PCODE":"TH"}},{"arcs":[[56,57,58]],"type":"Polygon","properties":{"Shape_Leng":0.0856264673008,"Shape_Area":0.00042135652762,"ADM3_EN":"Kantang","ADM3_TH":"กันตัง","ADM3_PCODE":"TH920201","ADM2_EN":"Kantang","ADM2_TH":"กันตัง","ADM2_PCODE":"TH9202","ADM1_EN":"Trang","ADM1_TH":"ตรัง","ADM1_PCODE":"TH92","ADM0_EN":"Thailand","ADM0_TH":"ประเทศไทย","ADM0_PCODE":"TH"}},{"arcs":[[-23,59,60,61,-33]],"type":"Polygon","properties":{"Shape_Leng":0.255446841862,"Shape_Area":0.00165088872056,"ADM3_EN":"Khuan Thani","ADM3_TH":"ควนธานี","ADM3_PCODE":"TH920202","ADM2_EN":"Kantang","ADM2_TH":"กันตัง","ADM2_PCODE":"TH9202","ADM1_EN":"Trang","ADM1_TH":"ตรัง","ADM1_PCODE":"TH92","ADM0_EN":"Thailand","ADM0_TH":"ประเทศไทย","ADM0_PCODE":"TH"}},{"arcs":[[-22,62,63,64,-60]],"type":"Polygon","properties":{"Shape_Leng":0.279867237437,"Shape_Area":0.00216888646625,"ADM3_EN":"Bang Mak","ADM3_TH":"บางหมาก","ADM3_PCODE":"TH920203","ADM2_EN":"Kantang","ADM2_TH":"กันตัง","ADM2_PCODE":"TH9202","ADM1_EN":"Trang","ADM1_TH":"ตรัง","ADM1_PCODE":"TH92","ADM0_EN":"Thailand","ADM0_TH":"ประเทศไทย","ADM0_PCODE":"TH"}},{"arcs":[[-59,65,66,-64,67,68,69]],"type":"Polygon","properties":{"Shape_Leng":0.254003892833,"Shape_Area":0.00174949708736,"ADM3_EN":"Bang Pao","ADM3_TH":"บางเป้า","ADM3_PCODE":"TH920204","ADM2_EN":"Kantang","ADM2_TH":"กันตัง","ADM2_PCODE":"TH9202","ADM1_EN":"Trang","ADM1_TH":"ตรัง","ADM1_PCODE":"TH92","ADM0_EN":"Thailand","ADM0_TH":"ประเทศไทย","ADM0_PCODE":"TH"}},{"arcs":[[-69,70,71,72,73,74]],"type":"Polygon","properties":{"Shape_Leng":0.30638035384,"Shape_Area":0.00346917815656,"ADM3_EN":"Wang Won","ADM3_TH":"วังวน","ADM3_PCODE":"TH920205","ADM2_EN":"Kantang","ADM2_TH":"กันตัง","ADM2_PCODE":"TH9202","ADM1_EN":"Trang","ADM1_TH":"ตรัง","ADM1_PCODE":"TH92","ADM0_EN":"Thailand","ADM0_TH":"ประเทศไทย","ADM0_PCODE":"TH"}},{"arcs":[[-57,-70,-75,75,76,77,78,79]],"type":"Polygon","properties":{"Shape_Leng":0.360156007006,"Shape_Area":0.00452351377758,"ADM3_EN":"Kantang Tai","ADM3_TH":"กันตังใต้","ADM3_PCODE":"TH920206","ADM2_EN":"Kantang","ADM2_TH":"กันตัง","ADM2_PCODE":"TH9202","ADM1_EN":"Trang","ADM1_TH":"ตรัง","ADM1_PCODE":"TH92","ADM0_EN":"Thailand","ADM0_TH":"ประเทศไทย","ADM0_PCODE":"TH"}},{"arcs":[[-34,-62,80,81,82,83,84,85]],"type":"Polygon","properties":{"Shape_Leng":0.482547637678,"Shape_Area":0.00373602566255,"ADM3_EN":"Khok Yang","ADM3_TH":"โคกยาง","ADM3_PCODE":"TH920207","ADM2_EN":"Kantang","ADM2_TH":"กันตัง","ADM2_PCODE":"TH9202","ADM1_EN":"Trang","ADM1_TH":"ตรัง","ADM1_PCODE":"TH92","ADM0_EN":"Thailand","ADM0_TH":"ประเทศไทย","ADM0_PCODE":"TH"}},{"arcs":[[-82,86,87]],"type":"Polygon","properties":{"Shape_Leng":0.316849131321,"Shape_Area":0.00302187415671,"ADM3_EN":"Khlong Lu","ADM3_TH":"คลองลุ","ADM3_PCODE":"TH920208","ADM2_EN":"Kantang","ADM2_TH":"กันตัง","ADM2_PCODE":"TH9202","ADM1_EN":"Trang","ADM1_TH":"ตรัง","ADM1_PCODE":"TH92","ADM0_EN":"Thailand","ADM0_TH":"ประเทศไทย","ADM0_PCODE":"TH"}},{"arcs":[[-61,-65,-67,88,-87,-81]],"type":"Polygon","properties":{"Shape_Leng":0.242111171759,"Shape_Area":0.00123514817858,"ADM3_EN":"Yan Sue","ADM3_TH":"ย่านซื่อ","ADM3_PCODE":"TH920209","ADM2_EN":"Kantang","ADM2_TH":"กันตัง","ADM2_PCODE":"TH9202","ADM1_EN":"Trang","ADM1_TH":"ตรัง","ADM1_PCODE":"TH92","ADM0_EN":"Thailand","ADM0_TH":"ประเทศไทย","ADM0_PCODE":"TH"}},{"arcs":[[-58,-80,89,-83,-88,-89,-66]],"type":"Polygon","properties":{"Shape_Leng":0.372626911618,"Shape_Area":0.00518765176971,"ADM3_EN":"Bo Nam Ron","ADM3_TH":"บ่อน้ำร้อน","ADM3_PCODE":"TH920210","ADM2_EN":"Kantang","ADM2_TH":"กันตัง","ADM2_PCODE":"TH9202","ADM1_EN":"Trang","ADM1_TH":"ตรัง","ADM1_PCODE":"TH92","ADM0_EN":"Thailand","ADM0_TH":"ประเทศไทย","ADM0_PCODE":"TH"}},{"arcs":[[-84,-90,90,91,92]],"type":"Polygon","properties":{"Shape_Leng":0.70474519609,"Shape_Area":0.0103833712589,"ADM3_EN":"Bang Sak","ADM3_TH":"บางสัก","ADM3_PCODE":"TH920211","ADM2_EN":"Kantang","ADM2_TH":"กันตัง","ADM2_PCODE":"TH9202","ADM1_EN":"Trang","ADM1_TH":"ตรัง","ADM1_PCODE":"TH92","ADM0_EN":"Thailand","ADM0_TH":"ประเทศไทย","ADM0_PCODE":"TH"}},{"arcs":[[-79,93,94,-91]],"type":"Polygon","properties":{"Shape_Leng":0.333900526122,"Shape_Area":0.0039221247623,"ADM3_EN":"Na Kluea","ADM3_TH":"นาเกลือ","ADM3_PCODE":"TH920212","ADM2_EN":"Kantang","ADM2_TH":"กันตัง","ADM2_PCODE":"TH9202","ADM1_EN":"Trang","ADM1_TH":"ตรัง","ADM1_PCODE":"TH92","ADM0_EN":"Thailand","ADM0_TH":"ประเทศไทย","ADM0_PCODE":"TH"}},{"arcs":[[[-92,-95,95,96]],[[97]],[[98]],[[99]],[[100]],[[101]],[[102]],[[103]],[[104]],[[105]]],"type":"MultiPolygon","properties":{"Shape_Leng":1.2717141464,"Shape_Area":0.00708495689555,"ADM3_EN":"Ko Libong","ADM3_TH":"เกาะลิบง","ADM3_PCODE":"TH920213","ADM2_EN":"Kantang","ADM2_TH":"กันตัง","ADM2_PCODE":"TH9202","ADM1_EN":"Trang","ADM1_TH":"ตรัง","ADM1_PCODE":"TH92","ADM0_EN":"Thailand","ADM0_TH":"ประเทศไทย","ADM0_PCODE":"TH"}},{"arcs":[[-21,106,107,-71,-68,-63]],"type":"Polygon","properties":{"Shape_Leng":0.276983875518,"Shape_Area":0.00384793125054,"ADM3_EN":"Khlong Chi Lom","ADM3_TH":"คลองชีล้อม","ADM3_PCODE":"TH920214","ADM2_EN":"Kantang","ADM2_TH":"กันตัง","ADM2_PCODE":"TH9202","ADM1_EN":"Trang","ADM1_TH":"ตรัง","ADM1_PCODE":"TH92","ADM0_EN":"Thailand","ADM0_TH":"ประเทศไทย","ADM0_PCODE":"TH"}},{"arcs":[[108,109,110,111,112,113]],"type":"Polygon","properties":{"Shape_Leng":0.258137880647,"Shape_Area":0.00159110929866,"ADM3_EN":"Yan Ta Khao","ADM3_TH":"ย่านตาขาว","ADM3_PCODE":"TH920301","ADM2_EN":"Yan Ta Khao","ADM2_TH":"ย่านตาขาว","ADM2_PCODE":"TH9203","ADM1_EN":"Trang","ADM1_TH":"ตรัง","ADM1_PCODE":"TH92","ADM0_EN":"Thailand","ADM0_TH":"ประเทศไทย","ADM0_PCODE":"TH"}},{"arcs":[[-109,114,115,116,117]],"type":"Polygon","properties":{"Shape_Leng":0.335693623904,"Shape_Area":0.00230437653389,"ADM3_EN":"Nong Bo","ADM3_TH":"หนองบ่อ","ADM3_PCODE":"TH920302","ADM2_EN":"Yan Ta Khao","ADM2_TH":"ย่านตาขาว","ADM2_PCODE":"TH9203","ADM1_EN":"Trang","ADM1_TH":"ตรัง","ADM1_PCODE":"TH92","ADM0_EN":"Thailand","ADM0_TH":"ประเทศไทย","ADM0_PCODE":"TH"}},{"arcs":[[-116,118,119,120,121,122]],"type":"Polygon","properties":{"Shape_Leng":0.48354277643,"Shape_Area":0.00638449794124,"ADM3_EN":"Na Chum Het","ADM3_TH":"นาชุมเห็ด","ADM3_PCODE":"TH920303","ADM2_EN":"Yan Ta Khao","ADM2_TH":"ย่านตาขาว","ADM2_PCODE":"TH9203","ADM1_EN":"Trang","ADM1_TH":"ตรัง","ADM1_PCODE":"TH92","ADM0_EN":"Thailand","ADM0_TH":"ประเทศไทย","ADM0_PCODE":"TH"}},{"arcs":[[-110,-118,123,124,125,126,127]],"type":"Polygon","properties":{"Shape_Leng":0.500111189027,"Shape_Area":0.0047111443713,"ADM3_EN":"Nai Khuan","ADM3_TH":"ในควน","ADM3_PCODE":"TH920304","ADM2_EN":"Yan Ta Khao","ADM2_TH":"ย่านตาขาว","ADM2_PCODE":"TH9203","ADM1_EN":"Trang","ADM1_TH":"ตรัง","ADM1_PCODE":"TH92","ADM0_EN":"Thailand","ADM0_TH":"ประเทศไทย","ADM0_PCODE":"TH"}},{"arcs":[[-117,-123,128,129,-124]],"type":"Polygon","properties":{"Shape_Leng":0.594473759351,"Shape_Area":0.00896900701668,"ADM3_EN":"Phrong Chorakhe","ADM3_TH":"โพรงจระเข้","ADM3_PCODE":"TH920305","ADM2_EN":"Yan Ta Khao","ADM2_TH":"ย่านตาขาว","ADM2_PCODE":"TH9203","ADM1_EN":"Trang","ADM1_TH":"ตรัง","ADM1_PCODE":"TH92","ADM0_EN":"Thailand","ADM0_TH":"ประเทศไทย","ADM0_PCODE":"TH"}},{"arcs":[[-72,-108,130,-112,131,132]],"type":"Polygon","properties":{"Shape_Leng":0.384853060232,"Shape_Area":0.00561760705841,"ADM3_EN":"Thung Krabue","ADM3_TH":"ทุ่งกระบือ","ADM3_PCODE":"TH920306","ADM2_EN":"Yan Ta Khao","ADM2_TH":"ย่านตาขาว","ADM2_PCODE":"TH9203","ADM1_EN":"Trang","ADM1_TH":"ตรัง","ADM1_PCODE":"TH92","ADM0_EN":"Thailand","ADM0_TH":"ประเทศไทย","ADM0_PCODE":"TH"}},{"arcs":[[-14,-18,133,134,135,-113,-131,-107,-20,-32]],"type":"Polygon","properties":{"Shape_Leng":0.375170264794,"Shape_Area":0.00420849805971,"ADM3_EN":"Thung Khai","ADM3_TH":"ทุ่งค่าย","ADM3_PCODE":"TH920307","ADM2_EN":"Yan Ta Khao","ADM2_TH":"ย่านตาขาว","ADM2_PCODE":"TH9203","ADM1_EN":"Trang","ADM1_TH":"ตรัง","ADM1_PCODE":"TH92","ADM0_EN":"Thailand","ADM0_TH":"ประเทศไทย","ADM0_PCODE":"TH"}},{"arcs":[[-114,-136,136,-119,-115]],"type":"Polygon","properties":{"Shape_Leng":0.314291605554,"Shape_Area":0.00248288796408,"ADM3_EN":"Ko Pia","ADM3_TH":"เกาะเปียะ","ADM3_PCODE":"TH920308","ADM2_EN":"Yan Ta Khao","ADM2_TH":"ย่านตาขาว","ADM2_PCODE":"TH9203","ADM1_EN":"Trang","ADM1_TH":"ตรัง","ADM1_PCODE":"TH92","ADM0_EN":"Thailand","ADM0_TH":"ประเทศไทย","ADM0_PCODE":"TH"}},{"arcs":[[[137]],[[138]],[[139,140,141]]],"type":"MultiPolygon","properties":{"Shape_Leng":0.426411138656,"Shape_Area":0.00450763135849,"ADM3_EN":"Tha Kham","ADM3_TH":"ท่าข้าม","ADM3_PCODE":"TH920401","ADM2_EN":"Palian","ADM2_TH":"ปะเหลียน","ADM2_PCODE":"TH9204","ADM1_EN":"Trang","ADM1_TH":"ตรัง","ADM1_PCODE":"TH92","ADM0_EN":"Thailand","ADM0_TH":"ประเทศไทย","ADM0_PCODE":"TH"}},{"arcs":[[-140,142,143,144,145,146]],"type":"Polygon","properties":{"Shape_Leng":0.570858374861,"Shape_Area":0.00564965201028,"ADM3_EN":"Thung Yao","ADM3_TH":"ทุ่งยาว","ADM3_PCODE":"TH920402","ADM2_EN":"Palian","ADM2_TH":"ปะเหลียน","ADM2_PCODE":"TH9204","ADM1_EN":"Trang","ADM1_TH":"ตรัง","ADM1_PCODE":"TH92","ADM0_EN":"Thailand","ADM0_TH":"ประเทศไทย","ADM0_PCODE":"TH"}},{"arcs":[[-125,-130,147,148,-145,149]],"type":"Polygon","properties":{"Shape_Leng":0.866359964458,"Shape_Area":0.02037418826,"ADM3_EN":"Palian","ADM3_TH":"ปะเหลียน","ADM3_PCODE":"TH920403","ADM2_EN":"Palian","ADM2_TH":"ปะเหลียน","ADM2_PCODE":"TH9204","ADM1_EN":"Trang","ADM1_TH":"ตรัง","ADM1_PCODE":"TH92","ADM0_EN":"Thailand","ADM0_TH":"ประเทศไทย","ADM0_PCODE":"TH"}},{"arcs":[[-127,150,151,152]],"type":"Polygon","properties":{"Shape_Leng":0.338138256124,"Shape_Area":0.0022489190313,"ADM3_EN":"Bang Duan","ADM3_TH":"บางด้วน","ADM3_PCODE":"TH920404","ADM2_EN":"Palian","ADM2_TH":"ปะเหลียน","ADM2_PCODE":"TH9204","ADM1_EN":"Trang","ADM1_TH":"ตรัง","ADM1_PCODE":"TH92","ADM0_EN":"Thailand","ADM0_TH":"ประเทศไทย","ADM0_PCODE":"TH"}},{"arcs":[[-73,-133,153,-152,154,155,156]],"type":"Polygon","properties":{"Shape_Leng":0.567460770416,"Shape_Area":0.00855928211393,"ADM3_EN":"Ban Na","ADM3_TH":"บ้านนา","ADM3_PCODE":"TH920407","ADM2_EN":"Palian","ADM2_TH":"ปะเหลียน","ADM2_PCODE":"TH9204","ADM1_EN":"Trang","ADM1_TH":"ตรัง","ADM1_PCODE":"TH92","ADM0_EN":"Thailand","ADM0_TH":"ประเทศไทย","ADM0_PCODE":"TH"}},{"arcs":[[-142,157,158,159,-156,160,-143]],"type":"Polygon","properties":{"Shape_Leng":0.556003093088,"Shape_Area":0.00792709064405,"ADM3_EN":"Suso","ADM3_TH":"สุโสะ","ADM3_PCODE":"TH920409","ADM2_EN":"Palian","ADM2_TH":"ปะเหลียน","ADM2_PCODE":"TH9204","ADM1_EN":"Trang","ADM1_TH":"ตรัง","ADM1_PCODE":"TH92","ADM0_EN":"Thailand","ADM0_TH":"ประเทศไทย","ADM0_PCODE":"TH"}},{"arcs":[[-146,-149,161]],"type":"Polygon","properties":{"Shape_Leng":0.606443796271,"Shape_Area":0.0123735317085,"ADM3_EN":"Li Phang","ADM3_TH":"ลิพัง","ADM3_PCODE":"TH920410","ADM2_EN":"Palian","ADM2_TH":"ปะเหลียน","ADM2_PCODE":"TH9204","ADM1_EN":"Trang","ADM1_TH":"ตรัง","ADM1_PCODE":"TH92","ADM0_EN":"Thailand","ADM0_TH":"ประเทศไทย","ADM0_PCODE":"TH"}},{"arcs":[[[162]],[[163]],[[164]],[[165]],[[166]],[[167]]],"type":"MultiPolygon","properties":{"Shape_Leng":0.337097555066,"Shape_Area":0.00112672760185,"ADM3_EN":"Ko Sukon","ADM3_TH":"เกาะสุกร","ADM3_PCODE":"TH920411","ADM2_EN":"Palian","ADM2_TH":"ปะเหลียน","ADM2_PCODE":"TH9204","ADM1_EN":"Trang","ADM1_TH":"ตรัง","ADM1_PCODE":"TH92","ADM0_EN":"Thailand","ADM0_TH":"ประเทศไทย","ADM0_PCODE":"TH"}},{"arcs":[[-111,-128,-153,-154,-132]],"type":"Polygon","properties":{"Shape_Leng":0.213995724623,"Shape_Area":0.00115579429317,"ADM3_EN":"Tha Phaya","ADM3_TH":"ท่าพญา","ADM3_PCODE":"TH920412","ADM2_EN":"Palian","ADM2_TH":"ปะเหลียน","ADM2_PCODE":"TH9204","ADM1_EN":"Trang","ADM1_TH":"ตรัง","ADM1_PCODE":"TH92","ADM0_EN":"Thailand","ADM0_TH":"ประเทศไทย","ADM0_PCODE":"TH"}},{"arcs":[[-126,-150,-144,-161,-155,-151]],"type":"Polygon","properties":{"Shape_Leng":0.517959243318,"Shape_Area":0.00366484903993,"ADM3_EN":"Laem Som","ADM3_TH":"แหลมสอม","ADM3_PCODE":"TH920413","ADM2_EN":"Palian","ADM2_TH":"ปะเหลียน","ADM2_PCODE":"TH9204","ADM1_EN":"Trang","ADM1_TH":"ตรัง","ADM1_PCODE":"TH92","ADM0_EN":"Thailand","ADM0_TH":"ประเทศไทย","ADM0_PCODE":"TH"}},{"arcs":[[[168]],[[169]],[[170,171,172,173,174,175]]],"type":"MultiPolygon","properties":{"Shape_Leng":0.575789880923,"Shape_Area":0.00722297825551,"ADM3_EN":"Bo Hin","ADM3_TH":"บ่อหิน","ADM3_PCODE":"TH920501","ADM2_EN":"Sikao","ADM2_TH":"สิเกา","ADM2_PCODE":"TH9205","ADM1_EN":"Trang","ADM1_TH":"ตรัง","ADM1_PCODE":"TH92","ADM0_EN":"Thailand","ADM0_TH":"ประเทศไทย","ADM0_PCODE":"TH"}},{"arcs":[[-176,176,177,178]],"type":"Polygon","properties":{"Shape_Leng":0.522201802699,"Shape_Area":0.00562266967622,"ADM3_EN":"Khao Mai Kaeo","ADM3_TH":"เขาไม้แก้ว","ADM3_PCODE":"TH920502","ADM2_EN":"Sikao","ADM2_TH":"สิเกา","ADM2_PCODE":"TH9205","ADM1_EN":"Trang","ADM1_TH":"ตรัง","ADM1_PCODE":"TH92","ADM0_EN":"Thailand","ADM0_TH":"ประเทศไทย","ADM0_PCODE":"TH"}},{"arcs":[[-178,179,180,181,182]],"type":"Polygon","properties":{"Shape_Leng":0.602897947001,"Shape_Area":0.0082422334504,"ADM3_EN":"Kalase","ADM3_TH":"กะลาเส","ADM3_PCODE":"TH920503","ADM2_EN":"Sikao","ADM2_TH":"สิเกา","ADM2_PCODE":"TH9205","ADM1_EN":"Trang","ADM1_TH":"ตรัง","ADM1_PCODE":"TH92","ADM0_EN":"Thailand","ADM0_TH":"ประเทศไทย","ADM0_PCODE":"TH"}},{"arcs":[[[-85,-93,-97,183,-174,184]],[[185]]],"type":"MultiPolygon","properties":{"Shape_Leng":0.76737012092,"Shape_Area":0.0116857622173,"ADM3_EN":"Mai Fat","ADM3_TH":"ไม้ฝาด","ADM3_PCODE":"TH920504","ADM2_EN":"Sikao","ADM2_TH":"สิเกา","ADM2_PCODE":"TH9205","ADM1_EN":"Trang","ADM1_TH":"ตรัง","ADM1_PCODE":"TH92","ADM0_EN":"Thailand","ADM0_TH":"ประเทศไทย","ADM0_PCODE":"TH"}},{"arcs":[[-35,-86,-185,-173,186]],"type":"Polygon","properties":{"Shape_Leng":0.484897429368,"Shape_Area":0.0051587726882,"ADM3_EN":"Na Mueang Phet","ADM3_TH":"นาเมืองเพชร","ADM3_PCODE":"TH920505","ADM2_EN":"Sikao","ADM2_TH":"สิเกา","ADM2_PCODE":"TH9205","ADM1_EN":"Trang","ADM1_TH":"ตรัง","ADM1_PCODE":"TH92","ADM0_EN":"Thailand","ADM0_TH":"ประเทศไทย","ADM0_PCODE":"TH"}},{"arcs":[[187,188,189,190,191]],"type":"Polygon","properties":{"Shape_Leng":0.272313364886,"Shape_Area":0.00217087223521,"ADM3_EN":"Huai Yot","ADM3_TH":"ห้วยยอด","ADM3_PCODE":"TH920601","ADM2_EN":"Huai Yot","ADM2_TH":"ห้วยยอด","ADM2_PCODE":"TH9206","ADM1_EN":"Trang","ADM1_TH":"ตรัง","ADM1_PCODE":"TH92","ADM0_EN":"Thailand","ADM0_TH":"ประเทศไทย","ADM0_PCODE":"TH"}},{"arcs":[[192,193,194,195,196,197,198]],"type":"Polygon","properties":{"Shape_Leng":0.453964185142,"Shape_Area":0.00424014329945,"ADM3_EN":"Nong Chang Laen","ADM3_TH":"หนองช้างแล่น","ADM3_PCODE":"TH920602","ADM2_EN":"Huai Yot","ADM2_TH":"ห้วยยอด","ADM2_PCODE":"TH9206","ADM1_EN":"Trang","ADM1_TH":"ตรัง","ADM1_PCODE":"TH92","ADM0_EN":"Thailand","ADM0_TH":"ประเทศไทย","ADM0_PCODE":"TH"}},{"arcs":[[-197,199,200,201,202,203,204]],"type":"Polygon","properties":{"Shape_Leng":0.567131175663,"Shape_Area":0.00807243024458,"ADM3_EN":"Bang Di","ADM3_TH":"บางดี","ADM3_PCODE":"TH920605","ADM2_EN":"Huai Yot","ADM2_TH":"ห้วยยอด","ADM2_PCODE":"TH9206","ADM1_EN":"Trang","ADM1_TH":"ตรัง","ADM1_PCODE":"TH92","ADM0_EN":"Thailand","ADM0_TH":"ประเทศไทย","ADM0_PCODE":"TH"}},{"arcs":[[205,206,207,208,209]],"type":"Polygon","properties":{"Shape_Leng":0.427985328658,"Shape_Area":0.003403043243,"ADM3_EN":"Bang Kung","ADM3_TH":"บางกุ้ง","ADM3_PCODE":"TH920606","ADM2_EN":"Huai Yot","ADM2_TH":"ห้วยยอด","ADM2_PCODE":"TH9206","ADM1_EN":"Trang","ADM1_TH":"ตรัง","ADM1_PCODE":"TH92","ADM0_EN":"Thailand","ADM0_TH":"ประเทศไทย","ADM0_PCODE":"TH"}},{"arcs":[[-196,210,211,212,-200]],"type":"Polygon","properties":{"Shape_Leng":0.363675423465,"Shape_Area":0.00347403114307,"ADM3_EN":"Khao Kop","ADM3_TH":"เขากอบ","ADM3_PCODE":"TH920607","ADM2_EN":"Huai Yot","ADM2_TH":"ห้วยยอด","ADM2_PCODE":"TH9206","ADM1_EN":"Trang","ADM1_TH":"ตรัง","ADM1_PCODE":"TH92","ADM0_EN":"Thailand","ADM0_TH":"ประเทศไทย","ADM0_PCODE":"TH"}},{"arcs":[[-192,213,-211,-195,214]],"type":"Polygon","properties":{"Shape_Leng":0.200469037436,"Shape_Area":0.000935725830915,"ADM3_EN":"Khao Khao","ADM3_TH":"เขาขาว","ADM3_PCODE":"TH920608","ADM2_EN":"Huai Yot","ADM2_TH":"ห้วยยอด","ADM2_PCODE":"TH9206","ADM1_EN":"Trang","ADM1_TH":"ตรัง","ADM1_PCODE":"TH92","ADM0_EN":"Thailand","ADM0_TH":"ประเทศไทย","ADM0_PCODE":"TH"}},{"arcs":[[-188,-215,215,216,217,218]],"type":"Polygon","properties":{"Shape_Leng":0.430808915249,"Shape_Area":0.00601821843838,"ADM3_EN":"Khao Pun","ADM3_TH":"เขาปูน","ADM3_PCODE":"TH920609","ADM2_EN":"Huai Yot","ADM2_TH":"ห้วยยอด","ADM2_PCODE":"TH9206","ADM1_EN":"Trang","ADM1_TH":"ตรัง","ADM1_PCODE":"TH92","ADM0_EN":"Thailand","ADM0_TH":"ประเทศไทย","ADM0_PCODE":"TH"}},{"arcs":[[-45,-54,219,220,-189,-219,221]],"type":"Polygon","properties":{"Shape_Leng":0.734534149715,"Shape_Area":0.0115020291099,"ADM3_EN":"Pak Chaem","ADM3_TH":"ปากแจ่ม","ADM3_PCODE":"TH920610","ADM2_EN":"Huai Yot","ADM2_TH":"ห้วยยอด","ADM2_PCODE":"TH9206","ADM1_EN":"Trang","ADM1_TH":"ตรัง","ADM1_PCODE":"TH92","ADM0_EN":"Thailand","ADM0_TH":"ประเทศไทย","ADM0_PCODE":"TH"}},{"arcs":[[-190,-221,222,223,224,225]],"type":"Polygon","properties":{"Shape_Leng":0.362256572332,"Shape_Area":0.00317469782937,"ADM3_EN":"Pak Khom","ADM3_TH":"ปากคม","ADM3_PCODE":"TH920611","ADM2_EN":"Huai Yot","ADM2_TH":"ห้วยยอด","ADM2_PCODE":"TH9206","ADM1_EN":"Trang","ADM1_TH":"ตรัง","ADM1_PCODE":"TH92","ADM0_EN":"Thailand","ADM0_TH":"ประเทศไทย","ADM0_PCODE":"TH"}},{"arcs":[[-194,226,227,-216]],"type":"Polygon","properties":{"Shape_Leng":0.318104767925,"Shape_Area":0.00289164325491,"ADM3_EN":"Tha Ngio","ADM3_TH":"ท่างิ้ว","ADM3_PCODE":"TH920614","ADM2_EN":"Huai Yot","ADM2_TH":"ห้วยยอด","ADM2_PCODE":"TH9206","ADM1_EN":"Trang","ADM1_TH":"ตรัง","ADM1_PCODE":"TH92","ADM0_EN":"Thailand","ADM0_TH":"ประเทศไทย","ADM0_PCODE":"TH"}},{"arcs":[[-53,-56,228,-223,-220]],"type":"Polygon","properties":{"Shape_Leng":0.29893671138,"Shape_Area":0.00225215566416,"ADM3_EN":"Lamphura","ADM3_TH":"ลำภูรา","ADM3_PCODE":"TH920615","ADM2_EN":"Huai Yot","ADM2_TH":"ห้วยยอด","ADM2_PCODE":"TH9206","ADM1_EN":"Trang","ADM1_TH":"ตรัง","ADM1_PCODE":"TH92","ADM0_EN":"Thailand","ADM0_TH":"ประเทศไทย","ADM0_PCODE":"TH"}},{"arcs":[[-201,-213,229,-225,230,231,-207,232]],"type":"Polygon","properties":{"Shape_Leng":0.413235175463,"Shape_Area":0.00332366812253,"ADM3_EN":"Na Wong","ADM3_TH":"นาวง","ADM3_PCODE":"TH920616","ADM2_EN":"Huai Yot","ADM2_TH":"ห้วยยอด","ADM2_PCODE":"TH9206","ADM1_EN":"Trang","ADM1_TH":"ตรัง","ADM1_PCODE":"TH92","ADM0_EN":"Thailand","ADM0_TH":"ประเทศไทย","ADM0_PCODE":"TH"}},{"arcs":[[-198,-205,233,234]],"type":"Polygon","properties":{"Shape_Leng":0.358180512464,"Shape_Area":0.00404949584207,"ADM3_EN":"Huai Nang","ADM3_TH":"ห้วยนาง","ADM3_PCODE":"TH920617","ADM2_EN":"Huai Yot","ADM2_TH":"ห้วยยอด","ADM2_PCODE":"TH9206","ADM1_EN":"Trang","ADM1_TH":"ตรัง","ADM1_PCODE":"TH92","ADM0_EN":"Thailand","ADM0_TH":"ประเทศไทย","ADM0_PCODE":"TH"}},{"arcs":[[-217,-228,235,236,237]],"type":"Polygon","properties":{"Shape_Leng":0.409815736989,"Shape_Area":0.00355794752947,"ADM3_EN":"Nai Tao","ADM3_TH":"ในเตา","ADM3_PCODE":"TH920619","ADM2_EN":"Huai Yot","ADM2_TH":"ห้วยยอด","ADM2_PCODE":"TH9206","ADM1_EN":"Trang","ADM1_TH":"ตรัง","ADM1_PCODE":"TH92","ADM0_EN":"Thailand","ADM0_TH":"ประเทศไทย","ADM0_PCODE":"TH"}},{"arcs":[[-191,-226,-230,-212,-214]],"type":"Polygon","properties":{"Shape_Leng":0.286434742597,"Shape_Area":0.00211892737918,"ADM3_EN":"Thung To","ADM3_TH":"ทุ่งต่อ","ADM3_PCODE":"TH920620","ADM2_EN":"Huai Yot","ADM2_TH":"ห้วยยอด","ADM2_PCODE":"TH9206","ADM1_EN":"Trang","ADM1_TH":"ตรัง","ADM1_PCODE":"TH92","ADM0_EN":"Thailand","ADM0_TH":"ประเทศไทย","ADM0_PCODE":"TH"}},{"arcs":[[-202,-233,-206,238]],"type":"Polygon","properties":{"Shape_Leng":0.434223299133,"Shape_Area":0.0024491878751,"ADM3_EN":"Wang Khiri","ADM3_TH":"วังคีรี","ADM3_PCODE":"TH920621","ADM2_EN":"Huai Yot","ADM2_TH":"ห้วยยอด","ADM2_PCODE":"TH9206","ADM1_EN":"Trang","ADM1_TH":"ตรัง","ADM1_PCODE":"TH92","ADM0_EN":"Thailand","ADM0_TH":"ประเทศไทย","ADM0_PCODE":"TH"}},{"arcs":[[-36,-187,-172,239,240,-208,-232,241,-38]],"type":"Polygon","properties":{"Shape_Leng":0.669792424443,"Shape_Area":0.00898787993237,"ADM3_EN":"Khao Wiset","ADM3_TH":"เขาวิเศษ","ADM3_PCODE":"TH920701","ADM2_EN":"Wang Wiset","ADM2_TH":"วังวิเศษ","ADM2_PCODE":"TH9207","ADM1_EN":"Trang","ADM1_TH":"ตรัง","ADM1_PCODE":"TH92","ADM0_EN":"Thailand","ADM0_TH":"ประเทศไทย","ADM0_PCODE":"TH"}},{"arcs":[[-171,-179,-183,242,-240]],"type":"Polygon","properties":{"Shape_Leng":0.440921990057,"Shape_Area":0.00675415845472,"ADM3_EN":"Wang Maprang","ADM3_TH":"วังมะปราง","ADM3_PCODE":"TH920702","ADM2_EN":"Wang Wiset","ADM2_TH":"วังวิเศษ","ADM2_PCODE":"TH9207","ADM1_EN":"Trang","ADM1_TH":"ตรัง","ADM1_PCODE":"TH92","ADM0_EN":"Thailand","ADM0_TH":"ประเทศไทย","ADM0_PCODE":"TH"}},{"arcs":[[-181,243,-203,-239,-210,244]],"type":"Polygon","properties":{"Shape_Leng":0.677909019231,"Shape_Area":0.0155034876897,"ADM3_EN":"Ao Tong","ADM3_TH":"อ่าวตง","ADM3_PCODE":"TH920703","ADM2_EN":"Wang Wiset","ADM2_TH":"วังวิเศษ","ADM2_PCODE":"TH9207","ADM1_EN":"Trang","ADM1_TH":"ตรัง","ADM1_PCODE":"TH92","ADM0_EN":"Thailand","ADM0_TH":"ประเทศไทย","ADM0_PCODE":"TH"}},{"arcs":[[-39,-242,-231,-224,-229,-55]],"type":"Polygon","properties":{"Shape_Leng":0.461915281807,"Shape_Area":0.00429927612393,"ADM3_EN":"Tha Saba","ADM3_TH":"ท่าสะบ้า","ADM3_PCODE":"TH920704","ADM2_EN":"Wang Wiset","ADM2_TH":"วังวิเศษ","ADM2_PCODE":"TH9207","ADM1_EN":"Trang","ADM1_TH":"ตรัง","ADM1_PCODE":"TH92","ADM0_EN":"Thailand","ADM0_TH":"ประเทศไทย","ADM0_PCODE":"TH"}},{"arcs":[[-182,-245,-209,-241,-243]],"type":"Polygon","properties":{"Shape_Leng":0.432248688909,"Shape_Area":0.00556978840033,"ADM3_EN":"Wang Maprang Nuea","ADM3_TH":"วังมะปรางเหนือ","ADM3_PCODE":"TH920705","ADM2_EN":"Wang Wiset","ADM2_TH":"วังวิเศษ","ADM2_PCODE":"TH9207","ADM1_EN":"Trang","ADM1_TH":"ตรัง","ADM1_PCODE":"TH92","ADM0_EN":"Thailand","ADM0_TH":"ประเทศไทย","ADM0_PCODE":"TH"}},{"arcs":[[-26,245,246,247]],"type":"Polygon","properties":{"Shape_Leng":0.16174301565,"Shape_Area":0.000931830774921,"ADM3_EN":"Na Yong Nuea","ADM3_TH":"นาโยงเหนือ","ADM3_PCODE":"TH920801","ADM2_EN":"Na Yong","ADM2_TH":"นาโยง","ADM2_PCODE":"TH9208","ADM1_EN":"Trang","ADM1_TH":"ตรัง","ADM1_PCODE":"TH92","ADM0_EN":"Thailand","ADM0_TH":"ประเทศไทย","ADM0_PCODE":"TH"}},{"arcs":[[-121,248,249,250,251]],"type":"Polygon","properties":{"Shape_Leng":0.39406748081,"Shape_Area":0.00631207749692,"ADM3_EN":"Chong","ADM3_TH":"ช่อง","ADM3_PCODE":"TH920802","ADM2_EN":"Na Yong","ADM2_TH":"นาโยง","ADM2_PCODE":"TH9208","ADM1_EN":"Trang","ADM1_TH":"ตรัง","ADM1_PCODE":"TH92","ADM0_EN":"Thailand","ADM0_TH":"ประเทศไทย","ADM0_PCODE":"TH"}},{"arcs":[[-47,252,-251,253,-247,254]],"type":"Polygon","properties":{"Shape_Leng":0.433526519859,"Shape_Area":0.00568376737551,"ADM3_EN":"Lamo","ADM3_TH":"ละมอ","ADM3_PCODE":"TH920803","ADM2_EN":"Na Yong","ADM2_TH":"นาโยง","ADM2_PCODE":"TH9208","ADM1_EN":"Trang","ADM1_TH":"ตรัง","ADM1_PCODE":"TH92","ADM0_EN":"Thailand","ADM0_TH":"ประเทศไทย","ADM0_PCODE":"TH"}},{"arcs":[[-120,-137,-135,255,-249]],"type":"Polygon","properties":{"Shape_Leng":0.329931386623,"Shape_Area":0.00245106363179,"ADM3_EN":"Khok Saba","ADM3_TH":"โคกสะบ้า","ADM3_PCODE":"TH920804","ADM2_EN":"Na Yong","ADM2_TH":"นาโยง","ADM2_PCODE":"TH9208","ADM1_EN":"Trang","ADM1_TH":"ตรัง","ADM1_PCODE":"TH92","ADM0_EN":"Thailand","ADM0_TH":"ประเทศไทย","ADM0_PCODE":"TH"}},{"arcs":[[-7,-48,-255,-246,-25]],"type":"Polygon","properties":{"Shape_Leng":0.241908872846,"Shape_Area":0.00242410234265,"ADM3_EN":"Na Muen Si","ADM3_TH":"นาหมื่นศรี","ADM3_PCODE":"TH920805","ADM2_EN":"Na Yong","ADM2_TH":"นาโยง","ADM2_PCODE":"TH9208","ADM1_EN":"Trang","ADM1_TH":"ตรัง","ADM1_PCODE":"TH92","ADM0_EN":"Thailand","ADM0_TH":"ประเทศไทย","ADM0_PCODE":"TH"}},{"arcs":[[-17,-27,-248,-254,-250,-256,-134]],"type":"Polygon","properties":{"Shape_Leng":0.31822568921,"Shape_Area":0.00241343468893,"ADM3_EN":"Na Khao Sia","ADM3_TH":"นาข้าวเสีย","ADM3_PCODE":"TH920806","ADM2_EN":"Na Yong","ADM2_TH":"นาโยง","ADM2_PCODE":"TH9208","ADM1_EN":"Trang","ADM1_TH":"ตรัง","ADM1_PCODE":"TH92","ADM0_EN":"Thailand","ADM0_TH":"ประเทศไทย","ADM0_PCODE":"TH"}},{"arcs":[[-199,-235,256,257,258]],"type":"Polygon","properties":{"Shape_Leng":0.355673533621,"Shape_Area":0.0031888754937,"ADM3_EN":"Khuan Mao","ADM3_TH":"ควนเมา","ADM3_PCODE":"TH920901","ADM2_EN":"Ratsada","ADM2_TH":"รัษฎา","ADM2_PCODE":"TH9209","ADM1_EN":"Trang","ADM1_TH":"ตรัง","ADM1_PCODE":"TH92","ADM0_EN":"Thailand","ADM0_TH":"ประเทศไทย","ADM0_PCODE":"TH"}},{"arcs":[[-258,259,260,261,262]],"type":"Polygon","properties":{"Shape_Leng":0.235989565519,"Shape_Area":0.00138337870428,"ADM3_EN":"Khlong Pang","ADM3_TH":"คลองปาง","ADM3_PCODE":"TH920902","ADM2_EN":"Ratsada","ADM2_TH":"รัษฎา","ADM2_PCODE":"TH9209","ADM1_EN":"Trang","ADM1_TH":"ตรัง","ADM1_PCODE":"TH92","ADM0_EN":"Thailand","ADM0_TH":"ประเทศไทย","ADM0_PCODE":"TH"}},{"arcs":[[-261,263,264]],"type":"Polygon","properties":{"Shape_Leng":0.42400136405,"Shape_Area":0.00385136476691,"ADM3_EN":"Nong Bua","ADM3_TH":"หนองบัว","ADM3_PCODE":"TH920903","ADM2_EN":"Ratsada","ADM2_TH":"รัษฎา","ADM2_PCODE":"TH9209","ADM1_EN":"Trang","ADM1_TH":"ตรัง","ADM1_PCODE":"TH92","ADM0_EN":"Thailand","ADM0_TH":"ประเทศไทย","ADM0_PCODE":"TH"}},{"arcs":[[-193,-259,-263,265,-236,-227]],"type":"Polygon","properties":{"Shape_Leng":0.39862929537,"Shape_Area":0.00683850949257,"ADM3_EN":"Nong Prue","ADM3_TH":"หนองปรือ","ADM3_PCODE":"TH920904","ADM2_EN":"Ratsada","ADM2_TH":"รัษฎา","ADM2_PCODE":"TH9209","ADM1_EN":"Trang","ADM1_TH":"ตรัง","ADM1_PCODE":"TH92","ADM0_EN":"Thailand","ADM0_TH":"ประเทศไทย","ADM0_PCODE":"TH"}},{"arcs":[[-237,-266,-262,-265,266]],"type":"Polygon","properties":{"Shape_Leng":0.3275024457,"Shape_Area":0.00234291611072,"ADM3_EN":"Khao Phrai","ADM3_TH":"เขาไพร","ADM3_PCODE":"TH920905","ADM2_EN":"Ratsada","ADM2_TH":"รัษฎา","ADM2_PCODE":"TH9209","ADM1_EN":"Trang","ADM1_TH":"ตรัง","ADM1_PCODE":"TH92","ADM0_EN":"Thailand","ADM0_TH":"ประเทศไทย","ADM0_PCODE":"TH"}},{"arcs":[[-77,267,268,269]],"type":"Polygon","properties":{"Shape_Leng":0.302837685857,"Shape_Area":0.00425794894456,"ADM3_EN":"Hat Samran","ADM3_TH":"หาดสำราญ","ADM3_PCODE":"TH921001","ADM2_EN":"Hat Samran","ADM2_TH":"หาดสำราญ","ADM2_PCODE":"TH9210","ADM1_EN":"Trang","ADM1_TH":"ตรัง","ADM1_PCODE":"TH92","ADM0_EN":"Thailand","ADM0_TH":"ประเทศไทย","ADM0_PCODE":"TH"}},{"arcs":[[-74,-157,-160,270,-268,-76]],"type":"Polygon","properties":{"Shape_Leng":0.34396853366,"Shape_Area":0.0044874993279,"ADM3_EN":"Ba Wi","ADM3_TH":"บ้าหวี","ADM3_PCODE":"TH921002","ADM2_EN":"Hat Samran","ADM2_TH":"หาดสำราญ","ADM2_PCODE":"TH9210","ADM1_EN":"Trang","ADM1_TH":"ตรัง","ADM1_PCODE":"TH92","ADM0_EN":"Thailand","ADM0_TH":"ประเทศไทย","ADM0_PCODE":"TH"}},{"arcs":[[[-159,271,-269,-271]],[[272]]],"type":"MultiPolygon","properties":{"Shape_Leng":0.342872044359,"Shape_Area":0.00432411305887,"ADM3_EN":"Tase","ADM3_TH":"ตะเสะ","ADM3_PCODE":"TH921003","ADM2_EN":"Hat Samran","ADM2_TH":"หาดสำราญ","ADM2_PCODE":"TH9210","ADM1_EN":"Trang","ADM1_TH":"ตรัง","ADM1_PCODE":"TH92","ADM0_EN":"Thailand","ADM0_TH":"ประเทศไทย","ADM0_PCODE":"TH"}}]}}}