{"type":"Topology","arcs":[[[4017,5656],[-27,27],[-20,-4],[10,-17],[-30,-2],[-8,30],[-53,21],[-12,11],[14,15]],[[3891,5737],[76,22],[102,-14],[145,83],[8,-1],[28,-49],[-180,-101],[-12,8],[-22,-22],[-19,-7]],[[4017,5656],[15,-18],[-5,-20],[80,-8],[7,-16],[52,-25],[-3,-17],[38,12],[29,-5],[4,18],[60,-4],[-9,-13]],[[4285,5560],[-15,-13],[19,-31],[-14,-2],[-72,-52],[10,-16],[-11,-35],[-60,-39],[3,-8],[-61,-43],[9,-49],[-48,-11],[28,-45],[-8,-21],[-71,1],[-16,-27]],[[3978,5169],[-39,2],[6,18],[-55,32],[-31,11],[-28,29],[3,19],[22,13],[-47,22],[0,10],[-46,13],[-30,16],[-34,8],[-65,33],[-20,21],[7,14],[-35,12],[2,25],[-30,11],[-18,48],[-82,31],[-35,19]],[[3423,5576],[49,25],[37,1],[58,16],[65,2],[15,-17],[29,18],[37,-7],[57,13],[32,14],[13,49],[32,7],[-7,13],[11,22],[40,5]],[[3978,5169],[13,-20],[-36,-10],[-6,-15],[29,-8],[43,17],[34,-1],[1,-9],[-39,-18],[-22,-43],[34,11],[25,-8],[-7,-20]],[[4047,5045],[-41,-13],[-33,-25],[-12,0],[-58,33],[-37,-3],[-37,6],[-15,-8],[3,-23],[-32,-15],[-26,6],[-22,29],[-22,9],[-52,-24],[-33,-1],[-55,24],[-34,-5],[-45,-17],[-73,-2]],[[3423,5016],[-25,24]],[[3398,5040],[21,24],[-9,22],[23,19],[-12,19],[-31,-4],[-19,33],[-35,22],[55,11],[29,-7],[5,18],[24,6],[5,17],[28,11],[-24,22],[-25,0],[-57,-13],[-14,-9],[-35,-3],[-30,30],[-15,-6],[-19,27],[3,19],[-33,21],[-3,49],[-33,21],[2,33],[-15,6],[-32,-11],[-33,1],[-57,-8],[-40,9],[-61,48],[-84,49],[-27,-2],[-38,12],[-10,30],[-28,2],[-17,15],[-49,3],[-15,10],[-140,4],[-41,15],[-2,18],[-35,9],[-19,19],[-27,9],[11,33]],[[2440,5693],[-27,32],[3,21],[-38,18],[-10,16],[36,76],[-17,14],[-2,28],[44,27]],[[2429,5925],[43,-12],[21,6],[24,-10],[25,5],[55,-16],[50,4],[25,-16],[50,0],[-7,-16],[49,-16],[93,-17],[64,-43],[67,-19],[32,-32],[40,-11],[11,-24],[50,-31],[79,-17],[43,5],[59,-9],[48,-21],[6,-19],[67,-40]],[[4285,5560],[80,-25],[46,10],[-12,13],[25,3],[17,-20],[17,6],[45,-13],[1,-10],[-37,-22],[15,-8],[32,3],[21,-25],[-50,-1],[-1,-32],[16,-15],[69,0],[10,-27],[50,-3],[33,12]],[[4662,5406],[27,-35],[-3,-24],[11,-16],[31,-13]],[[4728,5318],[-10,-9],[63,-20],[21,-14],[1,-16],[-21,-1],[-32,-17],[2,-17],[-17,-11],[-76,1],[15,-23],[45,-3],[10,-12],[73,-11],[-2,-47],[36,2],[4,-9],[50,-21],[16,-44],[-84,14],[-150,-15],[-48,-23]],[[4624,5022],[-49,-3],[-28,11],[-68,-2],[-36,8],[-60,1],[-66,-20],[-35,-4],[-45,-15],[-81,-19],[-19,-12],[-25,13],[-33,-4],[20,23],[-52,46]],[[4624,5022],[26,-19],[19,-55],[21,-30],[28,-24],[-17,-10],[16,-28],[-3,-22],[-20,-12],[-11,-22],[-32,-38],[60,-38],[16,-1],[5,-37],[46,-20],[29,-22],[-49,-24],[7,-21],[-22,-2],[-25,-21]],[[4718,4576],[-38,10],[8,11],[-42,12],[-163,0],[-52,15],[-15,16],[-56,-3],[-25,3],[-61,-19]],[[4274,4621],[-86,39],[-174,51],[-266,60],[-187,38],[-107,31],[-54,26],[-50,39],[-15,18],[-9,38],[16,33],[81,14],[0,8]],[[4718,4576],[-5,-28],[32,-20],[-21,1],[-24,-15],[-12,-43],[27,-32],[25,-5],[1,-12],[81,-11],[20,-16],[17,7],[44,-10],[15,-35],[-15,-18],[2,-19],[24,-14],[78,-21],[55,-40],[-4,-22],[34,-43],[39,-21],[-9,-9],[18,-36],[-45,-40],[2,-23],[-35,-25],[-27,26],[-39,7],[-10,20],[-26,-1],[-52,10],[0,9],[-66,3],[-30,-21],[-7,12],[-52,22],[-30,-6],[-37,8],[-16,20],[-25,-12],[-54,21],[-70,12],[32,47],[-9,18],[26,39],[-37,36],[3,18],[34,20],[7,23],[-22,32],[-67,54],[-44,17],[-16,38],[-26,10],[6,15],[-30,31],[-104,67]],[[2429,5925],[-54,9],[-41,-1],[-35,7]],[[2299,5940],[-23,25],[36,14],[44,35],[17,23],[64,-17],[14,5],[50,41],[-9,13],[-38,18],[-76,21],[7,24]],[[2385,6142],[34,-1],[16,45],[26,10],[42,-21],[41,-5],[79,17],[33,15],[68,0],[57,14],[88,-26],[120,33],[27,-9],[15,-17],[77,-12],[61,11],[31,0],[16,-15],[32,-8],[2,-21],[28,8],[87,1],[17,-4],[68,12],[27,-7],[27,20],[-35,27],[-21,42],[30,13],[-2,13],[22,19],[7,26],[33,38],[102,39],[52,-13],[69,2],[8,-13],[49,10]],[[3818,6385],[27,-20],[83,-21],[75,-40],[28,-23],[6,-36],[-8,-24],[-20,-22],[5,-16],[75,-49],[43,-13]],[[4132,6121],[25,-9],[20,-18],[-3,-60],[16,-42],[-1,-17],[-40,-38],[-1,-18],[64,-56],[50,-78],[35,-37],[39,-19],[58,-14],[58,-26],[105,-77],[31,-30],[30,-58],[18,-94],[26,-24]],[[3818,6385],[-77,68],[-22,47],[19,30],[-9,9]],[[3729,6539],[-10,50],[57,17],[19,22],[-1,33],[-20,23],[-20,7],[-28,-6],[-36,2],[9,31],[43,51],[72,-2],[3,35],[-16,43],[86,28],[15,-19],[58,26],[24,17],[23,1],[57,-11],[37,5],[-2,45],[23,1],[-37,25],[39,16],[-27,4],[-26,18],[37,17],[-4,29],[75,29],[-32,19],[10,27],[-33,25],[28,5],[11,19],[-29,-2],[-7,13],[27,3],[11,19],[-23,16],[-1,17]],[[4141,7237],[-15,10],[25,10],[-22,18],[29,15],[-19,34],[22,-13],[30,18],[1,15],[24,-16],[18,11],[-8,25],[28,-8],[25,14],[27,-5],[14,12],[24,-8],[39,20],[5,14],[-27,3],[-1,21],[25,8],[23,-4],[28,26],[24,3],[58,32],[45,9],[-17,34],[35,-6],[6,12],[-21,14],[16,13]],[[4582,7568],[37,-11],[70,-1],[28,-11],[-4,24],[28,11],[43,-15],[66,13],[22,14],[48,-14],[14,-19],[-13,-18],[33,-37],[-10,-22],[14,-21],[-14,-12],[45,-16],[21,6],[12,-42],[111,-37],[12,16],[34,9],[70,1],[29,-19],[52,5],[17,-23],[31,-10],[23,-24],[26,-3],[-15,-18],[19,-16],[8,-24],[27,-9],[-9,-24],[-36,-28],[29,7],[5,-11],[-18,-22],[14,-13],[-34,0],[-12,-21],[62,-42],[-9,-10],[5,-30],[43,-11],[-1,-11],[45,-11],[59,3],[29,-39],[40,-5],[8,-13],[37,-12],[45,7],[39,-6],[26,18],[23,6],[31,-11],[22,8],[-23,18],[34,14],[18,-27],[34,6],[18,-6],[51,8],[16,-10],[51,7]],[[6108,6984],[43,-85],[-57,-137],[-107,15],[-68,-9],[-36,8],[-62,-12],[-54,3],[-53,-7],[-74,-33],[-55,-17]],[[5585,6710],[-35,4],[-43,16],[-45,-33],[-44,11],[6,17],[-72,-17],[-59,7],[-51,-6],[-72,-50],[-37,-14],[-83,-22],[-32,-21],[-93,26],[-7,-9],[-49,-8],[-44,-21],[-33,1],[-7,-38],[-31,-7],[-10,-19],[-46,2],[-64,-15],[-22,-17],[-38,-14],[-22,-18],[7,-11],[-39,-23],[-7,-20],[-32,-12],[-43,4],[45,-21],[-13,-16],[-40,-10],[-29,-19],[0,-34],[-18,-11],[-49,-6],[-33,-41],[-35,13],[-27,-10],[-67,4],[2,-25],[17,-9],[-22,-21],[36,-16],[-24,-22],[-31,-10],[-18,-28]],[[5585,6710],[16,-22],[-32,-36],[15,-23],[-30,-10],[-33,-32],[-66,-29],[3,-28],[-32,-20],[-27,-29],[-15,25],[-31,11],[-28,-23],[-41,-13],[-7,-14],[-53,-16],[-63,-47],[-44,9],[-45,-30],[-12,-83],[-29,-17],[-12,-74],[-36,-1],[-71,-28],[-26,5],[1,-16],[-22,-28],[15,-19],[-46,-37],[8,-17],[-70,-10],[-8,-23],[34,-22],[28,-1],[0,-27],[29,-3],[12,-21]],[[4867,5961],[-34,-10],[-35,7],[-4,-23],[-17,-16],[17,-14],[71,10],[-3,-17],[35,-14],[-81,-38],[-62,-65],[18,-3],[3,-18],[-11,-52],[-40,-61],[53,-16],[12,3],[56,-18],[-9,-23],[-30,-26],[-43,-70],[-14,-64],[29,-44],[40,-1],[100,-12],[32,-11]],[[4950,5365],[-20,-20],[-29,9],[-31,-12],[1,-21],[-18,-4],[-42,8],[-73,1],[-10,-8]],[[4867,5961],[27,-8],[31,38],[24,-1],[31,14],[13,-7],[79,11],[70,-17],[59,-10],[5,-29],[55,-7],[53,-22],[-9,-11],[16,-24],[36,-9],[42,-35],[-8,-50],[88,8],[28,-16]],[[5507,5786],[6,-9],[-36,-55],[-2,-24],[-22,-40],[-41,-27],[10,-38],[3,-44],[-8,-15],[-53,-8],[-112,-36],[-34,-24],[-20,-49]],[[5198,5417],[-29,8],[-74,-22],[-44,-22],[-43,-13],[-58,-3]],[[6108,6984],[30,4],[-10,-21],[34,-2],[29,14],[31,-13],[50,5],[11,8],[39,-8],[18,31],[50,33],[33,9],[18,14],[175,1],[21,-7],[56,2],[56,-23],[-3,-19],[54,-9],[-10,-9],[28,-16],[17,6],[41,-14],[21,20],[8,-11],[32,-3],[-6,17],[41,36],[21,1],[5,20],[27,-5],[34,16],[56,-7],[2,24],[46,10],[2,16],[46,-3],[19,-11],[25,9],[29,-7],[15,24],[38,6],[17,-10],[32,19],[22,-1],[36,21],[29,26],[26,-5],[60,37],[22,-12],[30,20],[-34,18],[24,1],[2,17],[40,-17],[59,2],[61,-5],[44,-8],[35,0],[38,-16],[72,20],[13,16],[6,30],[-15,15],[1,24]],[[7957,7314],[49,-14],[7,-27],[32,-39],[33,-57],[17,-75],[-25,-51],[-16,-12],[-1,-22],[-83,-5],[-104,-52],[-59,2],[-22,-5],[-115,1],[-57,-13],[-48,-1],[-50,-18],[-91,-27],[-19,-16],[-12,-33],[-48,-36],[-43,-6],[-29,-24],[2,-22],[-81,-34],[-14,-17],[-6,-54],[-13,-34],[-4,-64],[19,-25],[-1,-29],[-20,-23],[-1,-28],[35,-34],[12,-54],[-17,-31],[14,-56],[-11,-55],[12,-25],[-24,-64]],[[7175,6135],[-50,11],[-45,4],[-32,8],[-134,0],[-58,10],[-60,-15],[-25,5],[-63,-7],[-17,-11],[10,-17],[-26,-6],[-18,-26],[-42,-16],[-43,4],[-52,-14],[-45,-2],[-24,-21],[-81,23],[-111,-19],[-26,-23],[-62,-19],[-96,2],[-32,9],[-62,-8],[-43,19],[9,-31],[-32,-25],[-46,1],[-4,-9],[-42,-15],[4,-11],[-29,-12],[-9,-20],[-50,-12],[-9,-10],[-64,-4],[-53,-40],[-31,-10],[-19,-32],[-56,-10]],[[7175,6135],[-36,-51],[-4,-21],[-22,-38],[-14,-5],[-6,-38],[-51,-75],[-42,-28],[0,-37],[10,-36],[20,-27],[31,-23],[2,-42]],[[7063,5714],[-136,-7],[-86,11],[-44,0],[-28,-8],[-22,12],[-71,-3],[-31,-29],[-23,-8],[-4,-16],[-48,-20],[-35,-8],[21,-5],[-45,-16],[-23,4],[-54,-6],[6,-27],[-38,-2],[-30,-13],[-47,21],[-46,-9],[-9,-11],[-60,13],[-34,-6],[-33,11],[-19,-30],[4,-28],[-38,-2],[-16,14],[-16,-17],[21,-4],[-16,-24],[67,-31],[-47,-13],[32,-4],[13,-11],[-59,-19],[-18,9],[-35,0],[-3,-12],[45,-18],[2,-16],[-37,9],[-75,-16],[-11,15],[-49,1],[-28,-8],[1,-12],[-43,3],[-37,-8],[-29,9],[-57,-7],[-23,10],[-32,-6],[-30,12],[-20,-19],[-20,4],[-2,23],[-91,-51]],[[5477,5345],[-158,19],[-52,18],[-69,35]],[[7063,5714],[8,-31],[-8,-65],[15,-27],[-2,-33],[-15,-40],[-19,-9],[-38,9],[-18,-14],[-30,-72],[-24,-39],[-1,-22],[18,-35],[28,-20],[-10,-39],[-57,-47],[-29,-51],[-12,-74],[52,-30],[26,-60],[-8,-19],[4,-32],[17,-34]],[[6960,4930],[-37,-13],[-70,-12],[-43,-19],[-57,-9],[-69,5],[-41,-3],[-53,8],[-40,-2],[-74,-19],[-33,2],[-20,16],[-50,-15],[-29,12],[-18,31],[35,-4],[3,10],[-35,11],[-11,13],[-68,22],[-9,-15],[-44,-6],[10,16],[-16,12],[-23,-12],[-12,14],[-30,-2],[-88,27],[-62,-5]],[[5976,4993],[-5,7],[39,29],[-13,26],[29,-2],[-32,29],[-2,16],[-24,20],[-5,21],[-108,56],[-50,20],[-164,47],[-51,21],[-37,7],[-53,25],[-23,30]],[[6960,4930],[84,-74],[52,-60],[74,-32],[33,1],[30,-12],[57,-59],[20,-51],[-13,-30],[39,-47],[60,-26],[33,-23],[39,-13],[18,-25],[34,-17],[50,-8],[13,-20],[45,-31],[8,-36],[18,-27],[42,-7],[74,-43],[39,7],[36,-12],[9,-40],[-26,-19],[5,-30],[16,-24],[34,-24],[15,-23],[2,-42],[-7,-27],[11,-46],[-11,-42],[4,-19],[46,-46],[38,-21],[13,-21],[-24,-22],[-41,-59],[7,-73],[15,-35],[38,-39],[0,-56],[28,-38]],[[8017,3539],[-50,-29],[23,-52],[2,-32],[-31,-9],[-84,55],[-9,30],[-17,19],[-42,8]],[[7809,3529],[35,13],[8,16],[-1,37],[-81,128],[1,86],[16,11],[-8,30],[-94,93],[-71,45],[-22,28],[-41,24],[-124,60],[3,3],[-161,73],[-68,40],[-1,10],[-66,24],[-148,63],[-243,115],[-45,28],[-226,95],[-93,45],[-23,23],[-54,31],[-69,32],[-95,37],[-129,36],[-79,27],[-76,41],[6,17],[-78,24],[-13,11],[-77,29],[-22,28],[23,23],[61,22],[91,4],[91,-20],[48,-2],[37,20],[-40,6],[-5,8]],[[9874,1647],[-94,-12],[-92,-6],[-57,-15]],[[9631,1614],[-33,38],[-109,95],[-24,0],[13,20],[-51,45],[-11,18],[-45,32],[-29,32],[-49,36],[-157,109],[-315,213]],[[8821,2252],[28,7],[9,21],[-41,45],[-27,15],[42,19],[84,8],[30,6]],[[8946,2373],[23,-20],[24,-62],[16,-25],[69,-58],[20,-2],[76,8],[38,-22],[7,-22],[-13,-15],[22,-33],[-8,-28],[54,-51],[82,-16],[27,-10],[37,1],[71,-23],[74,-4],[-35,-47],[-31,-16],[3,-19],[84,-8],[47,-8],[37,-18],[14,-26],[56,-47],[64,-39],[34,-36],[36,-80]],[[8017,3539],[32,-49],[-4,-13],[90,-3],[16,-6],[39,-49],[14,-42],[33,-30],[-16,-37],[76,-78],[62,-7],[68,-25],[34,-40],[53,-48],[10,-16],[-20,-34],[-23,-12],[3,-37],[34,-22],[61,-27],[-24,-29],[40,-28],[19,-35],[-22,-29],[9,-56],[-23,-25],[5,-17],[46,-67],[9,-26],[33,-53],[35,-22],[68,-102],[32,-35],[45,-31],[95,-36]],[[8821,2252],[-93,67],[-176,137],[-22,19],[-208,150],[-104,72],[-185,121],[-46,32],[-57,46],[-47,65],[-7,39],[8,32],[29,13],[6,19],[50,9],[36,-1],[15,16],[32,90],[-6,50],[-50,65],[3,9],[-34,40],[-74,62],[-58,57],[-46,38],[-16,36],[38,-6]],[[9874,1647],[35,-77],[39,-35],[-18,-36],[9,-96],[-11,-96],[11,-56],[2,-41],[12,-29],[-2,-55],[-9,-20],[2,-64],[-5,-53],[30,-15],[-11,-49],[14,-39],[-10,-17],[6,-64],[31,-34],[-13,-23],[-78,-10],[-21,27],[-27,15],[-13,81],[-19,13],[15,7],[-16,25],[-2,30],[13,20],[-35,47],[-17,12],[-6,32],[21,11],[4,28],[22,8],[-1,46],[26,19],[-1,61],[20,38],[-12,22],[-47,54],[-43,67],[-21,22],[22,11],[-61,-3],[-35,-8],[-6,10],[108,19],[-26,0],[-58,96],[-61,66]],[[2385,6142],[-47,12],[-46,29],[-22,30],[-26,15]],[[2244,6228],[-1,24],[61,50],[52,7],[18,23],[6,62],[73,73],[46,39],[-31,-10],[-72,4],[-20,7],[-44,-15],[-21,10],[17,41],[-29,12],[-4,21],[17,23],[77,22],[-15,17],[-77,41],[18,27],[29,7],[36,19],[-13,24],[3,23],[27,19],[80,36],[55,37],[101,99],[53,61],[75,57],[40,35]],[[2801,7123],[55,7],[45,-18],[23,-55],[-48,-25],[4,-9],[64,-35],[28,4],[10,15],[-22,29],[20,15],[41,-11],[35,-33],[5,-26],[-15,-47],[-21,-3],[-30,14],[-74,23],[-42,-3],[-41,-25],[1,-27],[-30,-31],[19,-40],[0,-40],[41,-25],[-10,-18],[-37,-10],[-4,-13],[83,-29],[5,-13],[-20,-39],[9,-6],[159,-6],[30,-26],[0,-32],[19,-8],[91,-12],[51,-12],[41,-40],[12,-25],[34,-18],[29,-3],[103,29],[52,26],[162,19],[51,-2]],[[2244,6228],[-67,9],[-29,22],[-17,39],[12,16],[-24,27],[-55,0],[-61,24],[-96,20],[-54,42],[-1,10],[-43,10],[-27,-3],[-15,18],[-28,13],[34,33],[-13,17],[-201,71],[-14,2]],[[1545,6598],[-32,62],[-14,44],[29,25],[73,51],[26,10],[68,13],[29,14],[37,54],[25,21],[28,8],[79,4],[9,22],[-32,39],[-24,62],[-13,11],[-80,6],[-66,17],[-42,30],[-69,30],[-88,18],[-31,12],[-89,6],[-24,6],[-46,40],[-75,26],[-14,15],[22,43],[2,34],[38,32]],[[1271,7353],[39,3],[37,28],[49,18],[65,17],[248,45],[51,-7],[49,26],[6,-9],[47,19],[51,9],[43,30],[9,28],[48,-6],[49,2],[39,-10],[69,21]],[[2170,7567],[31,-27],[31,-12],[79,-58],[61,6],[59,-16],[20,-21],[74,24],[64,-29],[35,-10],[-3,-21],[-56,-45],[-46,-9],[-27,-12],[-8,-45],[17,-10],[48,-6],[5,-18],[24,-23],[29,10],[28,-8],[36,16],[32,-32],[24,-13],[-25,-10],[45,-21],[48,-14],[25,5],[-8,16],[24,5],[24,-16]],[[2860,7173],[-67,-41],[8,-9]],[[4141,7237],[-29,-16],[-21,3],[-11,23],[-48,1],[-14,-16],[-71,-21],[-4,-9],[-119,1],[-48,-14],[-85,-3],[-45,-22],[-50,-10],[-56,-32],[-44,-11],[-97,-15],[-78,-23],[-74,-3],[27,46],[-35,13],[-51,7],[24,15],[-27,35],[-20,-1],[-50,20],[-13,22],[-100,-34],[-26,-18],[-58,2],[-23,10]],[[2895,7187],[32,0],[-17,22],[-18,4],[-30,-12],[-15,9],[-7,44],[-22,22],[25,30],[41,6],[30,13],[0,18],[-66,9],[-7,15],[27,10],[46,5],[71,-7],[47,-44],[14,3],[28,34],[37,10],[37,-39],[46,48],[44,-10],[35,27],[39,13],[46,3],[5,15],[-24,22],[48,-11],[22,7],[-8,24],[19,10],[40,-10],[66,6],[-31,29],[-20,46],[-29,20],[28,16],[-11,41],[18,15],[39,6],[55,24],[65,18],[-44,29],[1,38],[-55,-4],[-28,15],[46,15]],[[3560,7791],[21,2],[15,38],[70,9],[3,22],[38,11],[33,22],[8,17],[-14,19],[46,22],[67,-10],[59,32]],[[3906,7975],[1,-30],[43,6],[21,-18],[40,5],[2,16],[49,-6],[30,-12],[26,5],[12,15],[19,-5],[9,15],[35,-15],[45,30],[12,-28],[28,16],[57,-27],[44,10],[37,-11],[23,7],[43,-11],[36,-18],[11,-21],[46,-3],[13,-29]],[[4588,7866],[14,-48],[29,-4],[7,-11],[-10,-45],[35,-47],[41,-3],[37,-43],[-11,-20],[-57,-25],[-23,-22],[-17,4],[-24,-24],[-27,-10]],[[2299,5940],[-96,6],[6,27],[27,33],[-89,37],[-50,4],[-31,19],[-85,10],[-14,-40],[11,-10],[-7,-21],[18,-26],[0,-18],[-45,-22],[-13,6],[-37,-7],[-57,-31],[-22,-2],[-30,-24],[-30,4],[-46,-16]],[[1709,5869],[-73,-1],[-15,-6],[-70,-79],[-22,-8],[-38,2],[-93,37],[-34,-3],[-33,-28],[-23,-7],[-32,3],[-17,11],[-30,38],[-25,4],[-39,-12],[-45,12],[-48,-20],[-28,2],[-39,15],[-65,37],[-77,50],[-39,17],[-96,18],[-30,-2],[-111,38],[-12,20],[18,66],[31,94]],[[624,6167],[63,5],[215,16],[73,11],[32,11],[110,52],[76,48],[28,13],[184,76],[110,89],[23,35],[9,39],[-2,36]],[[2637,8807],[44,-20],[61,-4],[43,-49],[53,-21],[48,-6],[74,4],[14,-14],[-10,-33],[-25,-55],[1,-30],[31,-25],[33,-13],[73,-20],[38,-19],[77,-48],[53,-48],[82,-40],[25,-35],[8,-68]],[[3360,8263],[19,-31],[109,-60],[-7,-23],[35,-7],[31,-47],[37,-85],[3,-79],[-36,-74],[-24,1],[-4,-20]],[[3523,7838],[-28,-1],[-87,19],[-59,-6],[-57,23],[-25,-8],[-28,-31],[-110,-33],[-19,12],[-57,-2],[-22,-35],[-55,-3],[-54,6],[-18,21],[-40,20],[-83,16],[-70,-4],[-34,12],[-31,24],[-43,12],[-44,-3],[-18,-18],[-103,-24],[-44,3],[14,9],[-6,30]],[[2402,7877],[-28,20],[18,13],[-40,18],[-18,-9],[-46,1],[-44,16],[16,15],[32,-7],[13,21],[33,-5],[9,16],[116,1],[44,36],[-19,3],[14,25],[22,9],[-22,46],[-43,3],[-25,25],[17,40],[-23,15],[-9,29],[-72,0],[-53,9],[14,12],[-4,39],[9,16],[-8,20],[-30,15],[-38,8],[-39,28],[6,40],[-41,30],[-12,34],[-27,16],[-69,9],[5,10],[58,23],[35,-8]],[[2153,8509],[-1,-21],[36,5],[-11,-12],[31,7],[-1,-19],[82,-4],[-17,-20],[26,-12],[-13,-7],[69,-18],[46,4],[36,20],[20,-8],[41,10],[38,0],[31,-20],[17,6],[-5,26],[43,-5],[-20,-11],[22,-8],[58,21],[-7,16],[-66,27],[-5,26],[-32,-6],[-14,26],[-32,2],[13,13],[-65,26],[-34,-7],[-6,26],[-57,6],[-14,19],[-38,14],[4,18],[-50,29],[-26,-8],[-11,23],[-27,3],[-13,23],[-26,14],[-19,-19],[-15,7],[21,24],[-15,21],[58,2],[0,-23],[24,14],[55,-5],[10,19],[-22,5],[-3,27],[29,11],[49,-6],[-22,20],[21,8],[-32,34],[-25,-6],[-4,42],[-16,18],[-47,-7],[-24,15],[0,18],[-21,9],[56,56],[-7,13],[-28,9],[-33,24]],[[2165,9063],[80,-15],[77,-2],[43,-9],[31,-16],[60,-83],[60,-53],[26,-40],[54,-18],[41,-20]],[[1271,7353],[5,35],[-11,12],[-42,-4],[-22,18],[-72,2],[2,36],[57,23],[47,2],[-17,10],[7,14],[29,-7],[24,5],[18,27],[38,-1],[9,20],[35,-3],[25,31],[-15,8],[2,23],[45,26],[-9,13],[26,4],[-6,17],[13,28],[-29,12],[-8,24],[-34,12],[-2,11],[-39,23],[21,2],[0,15],[-34,19],[-11,28],[24,2],[22,21],[2,19],[27,2],[13,17],[-24,1],[-7,27],[-32,9],[39,7],[7,22],[-27,7],[-10,17],[-21,-9],[0,18],[-37,17],[-28,-5],[-16,11],[-42,1],[-5,-20],[-30,5],[7,15],[-64,21],[-6,-5],[-65,14],[4,21],[-40,16],[43,16],[-17,8],[33,11],[11,30],[-32,48],[-38,22],[-53,7],[-40,23],[10,22],[-20,26],[-2,18],[106,4],[36,16],[17,-3],[65,13],[54,-8],[12,16],[38,16],[82,10],[61,-2],[3,14],[46,23],[37,29],[7,31],[24,28],[8,34],[-1,41],[9,16],[65,17],[27,-4],[28,26],[54,6],[9,9],[39,4],[57,-9],[59,8],[17,-8],[14,14],[60,-2],[30,-9],[-8,-29],[44,-11],[-7,-37],[29,-11],[-3,-18],[17,-6],[45,10],[44,-16],[-2,-13],[22,-10]],[[2402,7877],[-72,-19],[-19,-27],[-36,-24],[21,-11],[-31,-31],[20,-74],[-20,-39],[11,-45],[-27,-15],[-51,-11],[-28,-14]],[[3523,7838],[52,-9],[-15,-38]],[[2895,7187],[-35,-14]],[[3360,8263],[44,17],[28,1],[55,24],[50,6],[32,15],[-14,19],[151,34],[82,-4],[73,-18],[27,6],[14,36],[22,5],[-8,15],[-34,14],[19,23],[-9,16],[19,5],[26,-8],[0,14],[-23,13],[-25,-1],[-23,22],[29,9],[-32,28],[18,25],[20,5],[-40,44],[21,34],[-18,24],[14,27],[-15,5],[-5,43],[22,11],[3,23],[37,27],[-6,15],[-23,3],[-36,20],[21,20],[5,54],[43,7],[7,28],[24,25],[-31,15],[3,19],[-32,23],[29,8],[0,19],[25,19],[-9,11],[21,22],[43,3],[68,36],[31,44]],[[4103,9213],[25,-16],[39,-8],[29,-18],[35,-9],[48,-24],[38,-12],[35,2],[41,-9],[80,33],[80,-1],[51,-28],[28,2],[91,26],[95,20],[22,-8],[25,-27],[78,1],[68,-11],[13,-16],[6,-44],[56,-14],[38,-29],[27,-11],[43,-6],[11,-24],[58,-23],[14,-18],[43,-6],[21,-11],[43,-3],[42,-36],[80,-34],[40,-34],[64,-7],[44,7],[63,-11],[22,-16],[7,-21],[30,-3],[92,9],[35,0],[39,10],[43,-10],[17,-43]],[[6002,8732],[-34,-6],[-10,-12],[25,-9],[19,-34],[-96,-17],[-24,-10],[-46,5],[-78,-14],[-41,-16],[-22,1],[-36,-16],[6,-13],[-54,-21],[-33,-20],[-12,3],[-62,-11],[-60,5],[-55,32],[-59,-3],[-75,20],[-26,-14],[-66,26],[-19,-9],[12,-60],[33,-26],[17,-5],[22,-34],[-60,-32],[-33,1],[-11,11],[-96,12],[-35,-15],[-14,-28],[-25,-19],[-102,0],[-34,-15],[-9,-32],[-21,-18],[-52,-23],[-47,-7],[-49,-49],[-6,-17],[-46,-20],[-5,-33],[-57,-6],[-3,-10],[-59,-16],[-16,18],[-45,-27],[-38,21],[-39,-9],[-15,25],[-28,-12],[-51,1],[-60,-17],[-36,-16],[-13,-22],[-38,-34],[-57,-31],[-5,-25],[-29,5],[-56,-26],[16,-22],[-48,-12]],[[2637,8807],[17,9],[-16,14],[8,13],[36,-10],[76,31],[4,29],[26,13],[50,5],[38,-3],[59,4],[105,1],[69,-25],[24,8],[50,-8],[27,3],[57,-12],[16,-17],[-1,-20],[17,-10],[-25,-12],[25,-14],[19,-39],[34,-9],[26,14],[8,23],[53,30],[-7,20],[26,13],[18,35],[-38,9],[-4,17],[21,6],[-34,31],[29,30],[-18,12],[-24,-3],[-49,17],[-24,-11],[0,18],[-44,27],[-57,9],[-24,23],[9,23],[30,35],[42,3],[25,55],[-11,41],[39,3],[39,-19],[36,-7],[16,6],[27,-13],[9,20],[-11,23],[21,16],[74,14],[4,14],[36,5],[-3,11],[62,37],[9,22],[65,22],[26,26],[57,29],[-6,35],[16,10],[24,41]],[[3845,9530],[72,-39],[44,-39],[4,-14],[-18,-31],[-59,-25],[53,-49],[23,-58],[35,-4],[41,-18],[19,-21],[44,-19]],[[4588,7866],[53,18],[69,5],[60,-3],[23,4],[33,-10],[20,-18],[55,-23],[46,8],[26,34],[43,14],[25,-16],[-5,-9],[52,-21],[96,-7],[23,-5],[54,15],[29,-14],[33,1],[42,25],[29,27],[9,37],[54,44],[41,4],[41,-21],[26,0],[75,49],[110,-5],[0,18],[37,-7],[23,9],[15,24],[16,-9],[30,16],[-1,45],[7,24],[-24,18],[31,13],[-18,32],[28,19],[25,-16],[15,6],[43,-17],[11,-16],[-13,-21],[61,-11],[82,-5],[3,-50],[48,-23],[25,7],[20,-11],[37,0],[38,14],[178,-5],[36,5],[39,-20],[77,-13],[55,-18],[51,0],[11,7]],[[6736,8014],[112,2],[19,-6],[12,-22],[-16,-24],[26,-19],[49,-4],[20,-24],[65,-8],[68,20],[13,11],[51,16],[63,-9],[7,-24],[-85,-61],[11,-23],[25,-19],[-14,-16],[-67,-28],[4,-43],[20,-8],[48,7],[54,32],[31,2],[48,-10],[12,-20],[40,-13],[41,-22],[-41,-68],[-3,-72],[53,3],[45,-25],[0,-24],[36,-21],[56,39],[24,-7],[33,-41],[36,5],[39,-7],[86,1],[41,-21],[6,-32],[24,-15],[-5,-49],[57,-58],[52,-7],[25,12]],[[2165,9063],[-26,27],[15,26],[-20,13],[3,43],[-37,21],[-4,20],[26,19],[-12,37],[-27,8],[-6,20],[26,52],[33,-6],[46,7],[47,-11],[21,27],[-20,26],[-20,8],[20,21],[51,8],[33,21],[42,2],[17,15],[-21,13],[-22,29],[53,17],[46,-16],[17,22],[25,-6],[83,53],[29,-1],[12,12],[37,3],[10,24],[41,-3],[1,33],[21,12],[-10,11],[8,26],[-18,16],[17,8],[56,1],[10,-10],[76,56],[46,13],[29,-1],[2,35],[14,13],[63,5],[53,-17],[35,0],[39,-10],[29,3],[42,-12],[27,25],[57,-22],[36,9],[38,-1],[98,18],[32,33],[25,14],[16,31],[132,59],[23,37],[50,-7],[57,2],[73,-25],[65,-10],[-25,-28],[-5,-22],[-42,-36],[-34,-16],[56,-63],[4,-11],[-9,-64],[-17,-27],[0,-20],[17,-23],[-3,-22],[-51,-48],[-44,-16],[1,-9],[72,-24]],[[6002,8732],[15,-42],[-8,-40],[-31,-12],[2,-47],[-16,-26],[19,-13],[43,-2],[36,-14],[61,2],[61,-4],[31,11],[32,-35],[65,-48],[2,-27],[13,-13],[-1,-44],[125,-40],[17,-19],[38,-18],[39,-36],[29,-10],[-13,-17],[-45,-9],[-44,-21],[-6,-38],[25,-9],[61,3],[44,-12],[96,-39],[14,-23],[39,-13],[6,-16],[-33,-23],[18,-24]],[[2438,5487],[56,-8],[10,-13],[44,3],[25,-11],[40,-2],[41,-23],[7,-68],[32,-41],[-14,-16],[31,-9],[49,8],[34,-16],[30,8],[30,-7],[30,6],[-17,-16],[29,-1],[25,-17],[52,-17],[0,-18],[42,-15],[30,15],[19,-14],[-14,-14],[16,-14],[33,5],[7,-18],[-18,-6],[25,-26],[43,-9],[-6,-14],[19,-11],[42,-5],[3,-40],[68,-12],[13,-9]],[[3294,5042],[-75,-7],[-48,1],[-165,13],[-145,29],[-93,7],[-104,3],[-120,-1],[-109,-5],[-38,-5],[-99,-2],[-108,28],[-22,36],[-27,30],[-54,15]],[[2087,5184],[9,13],[47,24],[26,5],[12,35],[34,22],[40,5],[31,17],[-24,25],[50,49],[-17,44],[61,19],[35,-2],[16,38],[31,9]],[[3398,5040],[-41,-4],[-13,9],[-50,-3]],[[2438,5487],[3,16],[-20,15],[10,20],[-8,29],[-60,27],[-40,27],[1,12],[-31,11],[5,26],[42,9],[58,-1],[42,15]],[[1709,5869],[25,-23],[-11,-30],[11,-5],[-29,-18],[-17,-47],[-17,-7],[-78,2],[-24,-25],[-34,-2],[-28,21],[-81,2],[-55,12],[-3,-12],[22,-13],[-11,-9],[-35,0],[-22,12],[-20,-7],[-42,14],[-46,-12],[-13,-14],[22,-19],[36,-52],[-7,-27],[-32,-43],[-30,-18],[-76,-37],[-29,-23],[7,-55],[-7,-27],[-40,-30],[-13,-32],[-33,-25],[-2,-17],[-44,8],[-29,-11],[-58,-3],[-43,14],[-48,-1],[-44,20],[-47,3],[-64,-20]],[[620,5313],[-37,1],[-27,9],[6,13],[-26,31],[-37,28],[31,17],[19,-5],[2,15],[-27,3],[48,29],[-34,53],[-35,5],[-7,17],[71,-2],[5,-8],[41,-1],[29,20],[25,51],[-8,27],[-33,6],[15,22],[-13,28],[-47,40],[-48,53],[-53,38],[-36,31],[-135,80],[-32,0],[-25,18],[24,13],[40,-4],[9,20],[-17,50],[-38,51],[-50,16],[-16,37],[61,41],[50,15],[99,3],[94,-8],[116,1]],[[2087,5184],[-40,3],[-48,16],[-65,37],[-45,19],[-36,24],[-22,-2],[-61,10],[-28,-11],[-36,9],[-37,-3],[-24,-11],[2,15],[-114,41],[-78,1],[-57,-16],[-68,-7],[-108,-54],[-19,-29],[1,-14],[36,-16],[-35,-23],[-37,5],[-26,32],[-51,-17],[-58,2],[-30,19],[-74,31],[-49,-18],[-20,5],[-25,-9],[-6,15],[-56,-11],[-38,15],[-38,6],[-31,14],[14,13],[-56,24],[-4,14]],[[1411,5215],[-6,31],[30,-21],[-24,-10]],[[2205,1753],[-24,0],[-37,28],[20,13],[76,7],[22,-17],[-18,-29],[-39,-2]],[[3083,2001],[25,-18],[-40,-30],[-12,22],[27,26]],[[3164,2056],[-66,-29],[16,28],[48,21],[2,-20]],[[1983,2069],[-26,7],[3,13],[23,-20]],[[2105,2082],[28,-1],[8,-26],[50,-43],[9,-14],[-11,-17],[36,-17],[-7,-12],[-34,-12],[4,-41],[14,-12],[-4,-19],[-36,-4],[-16,-18],[6,-34],[-32,-19],[-38,49],[13,28],[-19,32],[11,7],[6,45],[-33,10],[-23,20],[-1,54],[-6,20],[28,26],[29,6],[18,-8]],[[2358,2145],[-18,10],[25,6],[-7,-16]],[[2115,2165],[-24,10],[1,12],[28,-1],[-5,-21]],[[3223,2261],[-12,3],[-7,34],[14,8],[25,-32],[-20,-13]],[[3395,2323],[0,-18],[-23,-16],[4,-15],[43,-14],[34,-4],[13,10],[22,-21],[37,0],[2,-11],[48,0],[83,-10],[55,3],[23,10],[52,-10],[68,17],[50,2],[22,-17],[58,-15],[-30,-34],[3,-14],[-28,-16],[5,-24],[-69,-35],[2,26],[-24,5],[-65,-11],[-11,6],[-85,6],[-36,-12],[-22,-17],[2,-25],[-26,-17],[6,-39],[19,-25],[35,-20],[-20,-22],[-7,-29],[-17,-10],[-36,55],[-8,22],[-34,-7],[-29,3],[-14,31],[14,9],[-30,7],[-18,16],[-26,5],[-29,21],[-84,26],[-92,13],[-77,-8],[-65,5],[-45,-14],[-14,-18],[10,-17],[-37,-1],[-5,20],[-20,13],[19,48],[-12,3],[19,21],[6,-11],[52,5],[-12,11],[31,17],[8,-38],[44,-5],[47,10],[55,19],[28,-12],[64,21],[43,34],[3,22],[-14,40],[-20,11],[12,10],[-17,11],[9,22],[51,-4]],[[4260,2283],[7,-3],[-110,-12],[-61,7],[33,43],[-1,11],[40,70],[21,27],[3,28],[40,-22],[26,-40],[44,-44],[-40,-42],[-2,-23]],[[4134,985],[7,43],[21,14],[6,-23],[-34,-34]],[[4065,1365],[36,8],[16,-16],[24,-6],[54,-64],[-27,-29],[-41,-34],[-20,7],[-71,70],[-2,35],[-34,32],[8,6],[57,-9]],[[4634,1665],[46,-33],[23,-70],[36,-5],[61,-61],[-2,-40],[43,-15],[27,-17],[-58,-16],[-12,-17],[18,-25],[-34,3],[-16,-37],[24,-28],[-19,-16],[-25,-6],[-8,-24],[22,-15],[-7,-13],[21,-18],[-15,-50],[2,-20],[48,5],[18,15],[39,5],[4,58],[19,-9],[42,0],[50,6],[10,34],[19,-2],[48,-21],[10,-22],[31,-21],[40,-5],[-6,-28],[5,-34],[23,-14],[70,3],[46,-4],[5,27],[24,20],[33,-10],[38,-24],[50,-57],[-89,-19],[0,-38],[-24,-43],[41,-52],[4,-30],[34,-40],[10,-32],[25,-19],[-4,-23],[12,-20],[-18,-24],[1,-34],[-31,-28],[8,-16],[-31,-44],[-65,-26],[-22,1],[-45,-18],[32,-14],[32,7],[50,-6],[3,-10],[-34,-21],[-48,-6],[-29,-10],[-53,-7],[25,-19],[30,-4],[-63,-12],[4,-22],[-43,-1],[-9,-7],[-3,-49],[23,-18],[58,19],[43,19],[56,0],[12,-27],[-69,-15],[9,-18],[-8,-44],[-51,-31],[15,-46],[-3,-28],[15,-16],[-22,-6],[36,-31],[-37,-62],[19,-13],[-11,-51],[-11,-10],[-38,2],[-85,24],[-31,20],[-99,49],[-83,7],[-11,16],[-23,5],[-2,20],[35,24],[12,63],[-69,38],[-29,4],[-35,-21],[-25,-6],[-56,6],[12,17],[-55,23],[-31,-9],[-14,10],[-48,-24],[5,-22],[-16,3],[-10,38],[-27,-7],[-40,52],[-53,18],[-116,-4],[-57,8],[-11,28],[40,21],[57,10],[26,-14],[27,18],[3,23],[-22,13],[-73,-9],[41,32],[41,-3],[50,9],[53,-3],[2,20],[26,-3],[17,12],[-11,22],[-2,36],[13,11],[-28,57],[-57,0],[-32,20],[9,22],[-16,29],[-55,59],[-38,18],[-26,-3],[-23,15],[-36,-4],[-14,7],[81,36],[9,20],[63,20],[-7,18],[-23,18],[-6,26],[16,7],[9,23],[-36,38],[-21,-6],[4,30],[-38,12],[-5,77],[20,26],[24,8],[34,-6],[-15,-10],[28,-7],[44,5],[26,33],[27,1],[16,38],[-30,17],[3,39],[-43,25],[-5,27],[-23,26],[1,21],[31,20],[42,-6],[34,25],[-23,16],[-2,17],[56,28],[54,16],[-4,30],[-25,3],[2,36],[11,18],[-6,26],[-27,7],[43,52],[18,14],[82,15],[22,-11]],[[368,3765],[-7,15],[25,-8],[-18,-7]],[[596,3788],[-30,7],[-16,16],[24,7],[36,-18],[-14,-12]],[[305,3818],[-11,14],[26,7],[-15,-21]],[[278,3847],[-25,8],[3,20],[21,-1],[18,-16],[-17,-11]],[[522,3986],[-8,25],[25,-9],[-17,-16]],[[60,4825],[-22,4],[-3,14],[38,-5],[-13,-13]],[[2129,4063],[-23,-38],[-46,-5],[-26,-10],[-35,-27],[-21,1],[-6,25],[-42,-1],[-26,24],[3,55],[-24,18],[-69,4],[-5,-8],[-39,1],[-32,-9],[-14,7],[-23,-35],[-39,-13],[-65,-3],[-50,-19],[-28,2],[-38,-14],[-82,-3],[-10,-12],[-35,3],[-2,28],[-16,0],[-52,-51],[-92,-27],[-19,-11],[-43,0],[7,-21],[64,-57],[88,-50],[22,1],[30,15],[-11,-41],[-88,-10],[-38,-12],[-30,-40],[-30,-13],[6,-11],[-31,-10],[-79,44],[-2,7],[-48,13],[-29,0],[18,-36],[-36,-14],[-53,-7],[-10,18],[-46,8],[-22,-19],[-2,-21],[-27,-12],[-39,12]],[[744,3689],[-5,31],[-34,28],[-49,25],[-3,23],[28,12],[-3,21],[24,38],[-10,30],[23,66],[-14,21],[34,12],[12,28],[-20,30],[-47,90],[18,6],[-40,16],[-65,48],[-53,11],[-22,-12],[-24,7],[-1,18],[-42,34],[6,21],[26,3],[-17,60],[20,18],[-16,41],[7,21],[-21,43],[-19,23],[7,11],[-25,31],[-43,41],[-89,75],[-42,21],[-13,21],[-71,27],[-36,27],[-5,32],[-19,3],[-16,26],[53,-19],[41,-3],[68,-18],[95,-2],[45,13],[-28,7],[13,61],[-14,23],[-66,6],[-49,9],[-64,40],[-53,1],[-34,21],[10,24],[79,-9],[41,-27],[100,-30],[31,-31],[33,-6],[41,3],[56,14],[30,-3],[-51,-21],[7,-14],[46,-9],[29,2],[53,-7],[21,16],[101,12],[27,-12],[51,4],[31,-12],[48,5],[75,-23],[34,1],[38,-9],[44,-24],[66,-5],[16,10],[72,-22],[7,-24],[89,-58],[46,-21],[49,-15],[10,-18],[112,-41],[62,11],[28,-9],[-2,-21],[41,-15],[-5,-56],[32,-30],[30,-3],[26,-18],[27,-5],[19,-29],[-9,-19],[17,-9],[22,-41],[31,-14],[14,5],[-1,-26],[17,-15],[77,-36],[13,-28],[57,1],[35,-16],[-19,-28],[43,-36],[-37,-13],[-3,-20],[32,-11],[13,-43],[35,-19]],[[48,5029],[23,-7],[14,-18],[-26,-16],[-41,16],[-14,-7],[-4,27],[48,5]],[[2129,4063],[55,30],[43,5],[51,-19],[34,-51],[-9,-38],[-27,-23],[-30,1],[-21,-19],[-28,-10],[9,-17],[-13,-17],[32,-4],[51,29],[-1,15],[25,18],[17,-15],[101,-27],[12,-14],[81,-46],[-5,-8],[47,-44],[25,-8],[17,-20],[-3,-17],[18,-27],[38,-4],[22,-13],[-13,-17],[40,-32],[19,-29],[17,-8],[17,-25],[7,-29],[16,-10],[72,-11],[10,-20],[37,-13],[40,-4],[44,-22],[-6,-15],[22,-1],[25,-18],[-14,-11],[-50,-10],[13,-22],[-89,-5],[11,-19],[-32,-28],[1,-17],[-30,-14],[40,-21],[9,-31],[-39,-5],[25,-14],[-19,-6],[-53,19],[-19,15],[18,10],[-20,22],[-62,4],[-15,-7],[-22,12],[-21,32],[-43,13],[-76,12],[-15,-5],[-13,23],[-122,64],[-21,0],[-40,22],[17,12],[-8,21],[-56,16],[-42,50],[-62,21],[-46,-8],[-67,59],[-123,-20],[-26,6],[-2,-16],[-32,-17],[-9,-15],[18,-29],[33,-15],[11,-32],[49,-16],[1,-33],[24,-24],[8,-33],[-11,-10],[10,-27],[-16,-20],[-56,-12],[-100,-9],[-19,14],[-60,-13],[-30,13],[1,10],[-39,7],[-23,-15],[-47,8],[-51,-3],[-10,22],[-45,13],[-47,21],[-55,4],[-35,20],[-42,10],[-104,-12],[-44,6],[-57,-8],[-45,6],[-85,-31],[-6,-25],[10,-18],[40,-14],[73,-4],[11,-39],[-43,-24],[-28,13],[-28,37],[-45,17],[7,19],[-44,20],[-11,30],[-19,8],[-2,19],[-58,47],[-52,-4],[-20,18],[-36,-4],[-31,29],[23,10],[54,2],[0,40],[16,16],[-4,27],[-47,23],[-13,26]],[[3121,2814],[-16,-53],[-44,11],[10,15],[-61,42],[10,12],[33,4],[63,-18],[5,-13]],[[2294,2905],[24,-3],[2,-19],[45,-12],[21,-16],[56,-3],[68,15],[68,-26],[-48,-25],[-42,-9],[-49,-33],[-17,7],[-6,24],[-105,-9],[-38,17],[25,10],[34,-2],[-12,24],[-23,13],[-81,15],[5,13],[39,19],[34,0]],[[3397,2932],[-8,4],[-13,49],[38,-1],[17,-13],[-15,-30],[-19,-9]],[[1588,2882],[-24,-27],[-36,-20],[-43,-1],[21,20],[-34,33],[23,36],[66,52],[79,41],[95,14],[32,31],[45,7],[-5,-26],[-30,-25],[-4,-21],[-82,-59],[-76,-36],[-27,-19]],[[2486,3080],[-26,1],[-8,19],[17,7],[27,-14],[-10,-13]],[[2456,3137],[-27,-2],[-4,16],[30,10],[1,-24]],[[2417,3161],[-49,21],[-16,14],[10,26],[50,-14],[46,-31],[-7,-12],[-34,-4]],[[2997,3250],[-24,-21],[-58,21],[-12,-5],[17,-29],[15,-2],[31,-27],[-58,17],[-5,19],[-32,26],[38,8],[-6,21],[31,5],[28,-7],[35,-26]],[[3791,3319],[37,-12],[9,-16],[-18,-8],[-77,-13],[-28,17],[-46,-1],[-6,-16],[45,-7],[-48,-23],[-35,32],[29,20],[59,22],[69,10],[10,-5]],[[3519,3330],[23,-9],[15,-28],[-48,-21],[38,-10],[-6,-48],[-23,-14],[8,-25],[-15,-34],[-52,-10],[-6,-27],[-33,-21],[-30,-7],[-54,12],[-21,27],[10,52],[-9,23],[8,28],[40,63],[65,28],[39,24],[51,-3]],[[4022,3344],[15,-8],[-40,0],[25,8]],[[3659,3373],[-8,13],[25,6],[24,-6],[-41,-13]],[[2217,3461],[13,-20],[-4,-21],[-36,-9],[-27,28],[15,22],[39,0]],[[2146,3569],[-2,-30],[-17,-19],[34,-14],[-15,-5],[-1,-24],[-33,10],[-26,35],[-2,19],[50,28],[12,0]],[[2716,4061],[-33,20],[2,14],[30,-17],[1,-17]]],"transform":{"scale":[0.0000671449826982699,0.00011955075267526248],"translate":[102.24405214900008,11.561850777000075]},"objects":{"Trat":{"type":"GeometryCollection","geometries":[{"arcs":[[0,1]],"type":"Polygon","properties":{"Shape_Leng":0.0801091196974,"Shape_Area":0.000193326372219,"ADM3_EN":"Bang Phra","ADM3_TH":"บางพระ","ADM3_PCODE":"TH230101","ADM2_EN":"Mueang Trat","ADM2_TH":"เมืองตราด","ADM2_PCODE":"TH2301","ADM1_EN":"Trat","ADM1_TH":"ตราด","ADM1_PCODE":"TH23","ADM0_EN":"Thailand","ADM0_TH":"ประเทศไทย","ADM0_PCODE":"TH"}},{"arcs":[[-1,2,3,4,5]],"type":"Polygon","properties":{"Shape_Leng":0.24134958454,"Shape_Area":0.0018110227665,"ADM3_EN":"Nong Samet","ADM3_TH":"หนองเสม็ด","ADM3_PCODE":"TH230102","ADM2_EN":"Mueang Trat","ADM2_TH":"เมืองตราด","ADM2_PCODE":"TH2301","ADM1_EN":"Trat","ADM1_TH":"ตราด","ADM1_PCODE":"TH23","ADM0_EN":"Thailand","ADM0_TH":"ประเทศไทย","ADM0_PCODE":"TH"}},{"arcs":[[-5,6,7,8,9,10,11]],"type":"Polygon","properties":{"Shape_Leng":0.457939477722,"Shape_Area":0.00416884016299,"ADM3_EN":"Nong Sano","ADM3_TH":"หนองโสน","ADM3_PCODE":"TH230103","ADM2_EN":"Mueang Trat","ADM2_TH":"เมืองตราด","ADM2_PCODE":"TH2301","ADM1_EN":"Trat","ADM1_TH":"ตราด","ADM1_PCODE":"TH23","ADM0_EN":"Thailand","ADM0_TH":"ประเทศไทย","ADM0_PCODE":"TH"}},{"arcs":[[-4,12,13,14,15,-7]],"type":"Polygon","properties":{"Shape_Leng":0.312628705151,"Shape_Area":0.0024812365984,"ADM3_EN":"Nong Khan Song","ADM3_TH":"หนองคันทรง","ADM3_PCODE":"TH230104","ADM2_EN":"Mueang Trat","ADM2_TH":"เมืองตราด","ADM2_PCODE":"TH2301","ADM1_EN":"Trat","ADM1_TH":"ตราด","ADM1_PCODE":"TH23","ADM0_EN":"Thailand","ADM0_TH":"ประเทศไทย","ADM0_PCODE":"TH"}},{"arcs":[[-8,-16,16,17,18]],"type":"Polygon","properties":{"Shape_Leng":0.315583421845,"Shape_Area":0.00336391218912,"ADM3_EN":"Huang Nam Khao","ADM3_TH":"ห้วงน้ำขาว","ADM3_PCODE":"TH230105","ADM2_EN":"Mueang Trat","ADM2_TH":"เมืองตราด","ADM2_PCODE":"TH2301","ADM1_EN":"Trat","ADM1_TH":"ตราด","ADM1_PCODE":"TH23","ADM0_EN":"Thailand","ADM0_TH":"ประเทศไทย","ADM0_PCODE":"TH"}},{"arcs":[[-18,19]],"type":"Polygon","properties":{"Shape_Leng":0.273782565075,"Shape_Area":0.00168300996299,"ADM3_EN":"Ao Yai","ADM3_TH":"อ่าวใหญ่","ADM3_PCODE":"TH230106","ADM2_EN":"Mueang Trat","ADM2_TH":"เมืองตราด","ADM2_PCODE":"TH2301","ADM1_EN":"Trat","ADM1_TH":"ตราด","ADM1_PCODE":"TH23","ADM0_EN":"Thailand","ADM0_TH":"ประเทศไทย","ADM0_PCODE":"TH"}},{"arcs":[[-2,-6,-12,20,21,22,23,24,-13,-3]],"type":"Polygon","properties":{"Shape_Leng":0.633367254278,"Shape_Area":0.00789341742196,"ADM3_EN":"Wang Krachae","ADM3_TH":"วังกระแจะ","ADM3_PCODE":"TH230107","ADM2_EN":"Mueang Trat","ADM2_TH":"เมืองตราด","ADM2_PCODE":"TH2301","ADM1_EN":"Trat","ADM1_TH":"ตราด","ADM1_PCODE":"TH23","ADM0_EN":"Thailand","ADM0_TH":"ประเทศไทย","ADM0_PCODE":"TH"}},{"arcs":[[-24,25,26,27,28,29,30]],"type":"Polygon","properties":{"Shape_Leng":0.745662589207,"Shape_Area":0.0128066585195,"ADM3_EN":"Huai Raeng","ADM3_TH":"ห้วยแร้ง","ADM3_PCODE":"TH230108","ADM2_EN":"Mueang Trat","ADM2_TH":"เมืองตราด","ADM2_PCODE":"TH2301","ADM1_EN":"Trat","ADM1_TH":"ตราด","ADM1_PCODE":"TH23","ADM0_EN":"Thailand","ADM0_TH":"ประเทศไทย","ADM0_PCODE":"TH"}},{"arcs":[[-14,-25,-31,31,32,33]],"type":"Polygon","properties":{"Shape_Leng":0.559136664036,"Shape_Area":0.00572442113516,"ADM3_EN":"Noen Sai","ADM3_TH":"เนินทราย","ADM3_PCODE":"TH230109","ADM2_EN":"Mueang Trat","ADM2_TH":"เมืองตราด","ADM2_PCODE":"TH2301","ADM1_EN":"Trat","ADM1_TH":"ตราด","ADM1_PCODE":"TH23","ADM0_EN":"Thailand","ADM0_TH":"ประเทศไทย","ADM0_PCODE":"TH"}},{"arcs":[[-33,34,35,36]],"type":"Polygon","properties":{"Shape_Leng":0.252366391676,"Shape_Area":0.00274637493377,"ADM3_EN":"Tha Phrik","ADM3_TH":"ท่าพริก","ADM3_PCODE":"TH230110","ADM2_EN":"Mueang Trat","ADM2_TH":"เมืองตราด","ADM2_PCODE":"TH2301","ADM1_EN":"Trat","ADM1_TH":"ตราด","ADM1_PCODE":"TH23","ADM0_EN":"Thailand","ADM0_TH":"ประเทศไทย","ADM0_PCODE":"TH"}},{"arcs":[[-30,37,38,39,-35,-32]],"type":"Polygon","properties":{"Shape_Leng":0.838600479517,"Shape_Area":0.0162453296695,"ADM3_EN":"Tha Kum","ADM3_TH":"ท่ากุ่ม","ADM3_PCODE":"TH230111","ADM2_EN":"Mueang Trat","ADM2_TH":"เมืองตราด","ADM2_PCODE":"TH2301","ADM1_EN":"Trat","ADM1_TH":"ตราด","ADM1_PCODE":"TH23","ADM0_EN":"Thailand","ADM0_TH":"ประเทศไทย","ADM0_PCODE":"TH"}},{"arcs":[[-36,-40,40,41,42]],"type":"Polygon","properties":{"Shape_Leng":0.499853392739,"Shape_Area":0.00646619213074,"ADM3_EN":"Takang","ADM3_TH":"ตะกาง","ADM3_PCODE":"TH230112","ADM2_EN":"Mueang Trat","ADM2_TH":"เมืองตราด","ADM2_PCODE":"TH2301","ADM1_EN":"Trat","ADM1_TH":"ตราด","ADM1_PCODE":"TH23","ADM0_EN":"Thailand","ADM0_TH":"ประเทศไทย","ADM0_PCODE":"TH"}},{"arcs":[[-42,43,44,45]],"type":"Polygon","properties":{"Shape_Leng":0.474644831863,"Shape_Area":0.00611637296697,"ADM3_EN":"Cham Rak","ADM3_TH":"ชำราก","ADM3_PCODE":"TH230113","ADM2_EN":"Mueang Trat","ADM2_TH":"เมืองตราด","ADM2_PCODE":"TH2301","ADM1_EN":"Trat","ADM1_TH":"ตราด","ADM1_PCODE":"TH23","ADM0_EN":"Thailand","ADM0_TH":"ประเทศไทย","ADM0_PCODE":"TH"}},{"arcs":[[-45,46,47,48]],"type":"Polygon","properties":{"Shape_Leng":0.617357891452,"Shape_Area":0.00713450258243,"ADM3_EN":"Laem Klat","ADM3_TH":"แหลมกลัด","ADM3_PCODE":"TH230114","ADM2_EN":"Mueang Trat","ADM2_TH":"เมืองตราด","ADM2_PCODE":"TH2301","ADM1_EN":"Trat","ADM1_TH":"ตราด","ADM1_PCODE":"TH23","ADM0_EN":"Thailand","ADM0_TH":"ประเทศไทย","ADM0_PCODE":"TH"}},{"arcs":[[49,50,51,52]],"type":"Polygon","properties":{"Shape_Leng":0.283958880944,"Shape_Area":0.00144689348636,"ADM3_EN":"Khlong Yai","ADM3_TH":"คลองใหญ่","ADM3_PCODE":"TH230201","ADM2_EN":"Khlong Yai","ADM2_TH":"คลองใหญ่","ADM2_PCODE":"TH2302","ADM1_EN":"Trat","ADM1_TH":"ตราด","ADM1_PCODE":"TH23","ADM0_EN":"Thailand","ADM0_TH":"ประเทศไทย","ADM0_PCODE":"TH"}},{"arcs":[[-48,53,-52,54]],"type":"Polygon","properties":{"Shape_Leng":0.430256853623,"Shape_Area":0.00371474298733,"ADM3_EN":"Mai Rut","ADM3_TH":"ไม้รูด","ADM3_PCODE":"TH230202","ADM2_EN":"Khlong Yai","ADM2_TH":"คลองใหญ่","ADM2_PCODE":"TH2302","ADM1_EN":"Trat","ADM1_TH":"ตราด","ADM1_PCODE":"TH23","ADM0_EN":"Thailand","ADM0_TH":"ประเทศไทย","ADM0_PCODE":"TH"}},{"arcs":[[-50,55]],"type":"Polygon","properties":{"Shape_Leng":0.283856616689,"Shape_Area":0.00104157062668,"ADM3_EN":"Hat Lek","ADM3_TH":"หาดเล็ก","ADM3_PCODE":"TH230203","ADM2_EN":"Khlong Yai","ADM2_TH":"คลองใหญ่","ADM2_PCODE":"TH2302","ADM1_EN":"Trat","ADM1_TH":"ตราด","ADM1_PCODE":"TH23","ADM0_EN":"Thailand","ADM0_TH":"ประเทศไทย","ADM0_PCODE":"TH"}},{"arcs":[[-23,56,57,58,-26]],"type":"Polygon","properties":{"Shape_Leng":0.518836024971,"Shape_Area":0.00552584812963,"ADM3_EN":"Khao Saming","ADM3_TH":"เขาสมิง","ADM3_PCODE":"TH230301","ADM2_EN":"Khao Saming","ADM2_TH":"เขาสมิง","ADM2_PCODE":"TH2303","ADM1_EN":"Trat","ADM1_TH":"ตราด","ADM1_PCODE":"TH23","ADM0_EN":"Thailand","ADM0_TH":"ประเทศไทย","ADM0_PCODE":"TH"}},{"arcs":[[-58,59,60,61,62,63]],"type":"Polygon","properties":{"Shape_Leng":0.55994781038,"Shape_Area":0.00858862653605,"ADM3_EN":"Saen Tung","ADM3_TH":"แสนตุ้ง","ADM3_PCODE":"TH230302","ADM2_EN":"Khao Saming","ADM2_TH":"เขาสมิง","ADM2_PCODE":"TH2303","ADM1_EN":"Trat","ADM1_TH":"ตราด","ADM1_PCODE":"TH23","ADM0_EN":"Thailand","ADM0_TH":"ประเทศไทย","ADM0_PCODE":"TH"}},{"arcs":[[-28,64,65,66,67,68]],"type":"Polygon","properties":{"Shape_Leng":0.536995958336,"Shape_Area":0.00694222886629,"ADM3_EN":"Wang Takhian","ADM3_TH":"วังตะเคียน","ADM3_PCODE":"TH230303","ADM2_EN":"Khao Saming","ADM2_TH":"เขาสมิง","ADM2_PCODE":"TH2303","ADM1_EN":"Trat","ADM1_TH":"ตราด","ADM1_PCODE":"TH23","ADM0_EN":"Thailand","ADM0_TH":"ประเทศไทย","ADM0_PCODE":"TH"}},{"arcs":[[-22,69,70,71,-60,-57]],"type":"Polygon","properties":{"Shape_Leng":0.419183441418,"Shape_Area":0.00612680905985,"ADM3_EN":"Tha Som","ADM3_TH":"ท่าโสม","ADM3_PCODE":"TH230304","ADM2_EN":"Khao Saming","ADM2_TH":"เขาสมิง","ADM2_PCODE":"TH2303","ADM1_EN":"Trat","ADM1_TH":"ตราด","ADM1_PCODE":"TH23","ADM0_EN":"Thailand","ADM0_TH":"ประเทศไทย","ADM0_PCODE":"TH"}},{"arcs":[[72,73,74,75,76,77]],"type":"Polygon","properties":{"Shape_Leng":0.690479133916,"Shape_Area":0.00747444478403,"ADM3_EN":"Sato","ADM3_TH":"สะตอ","ADM3_PCODE":"TH230305","ADM2_EN":"Khao Saming","ADM2_TH":"เขาสมิง","ADM2_PCODE":"TH2303","ADM1_EN":"Trat","ADM1_TH":"ตราด","ADM1_PCODE":"TH23","ADM0_EN":"Thailand","ADM0_TH":"ประเทศไทย","ADM0_PCODE":"TH"}},{"arcs":[[-62,78,-76,79]],"type":"Polygon","properties":{"Shape_Leng":0.642483428813,"Shape_Area":0.0092600055918,"ADM3_EN":"Pranit","ADM3_TH":"ประณีต","ADM3_PCODE":"TH230306","ADM2_EN":"Khao Saming","ADM2_TH":"เขาสมิง","ADM2_PCODE":"TH2303","ADM1_EN":"Trat","ADM1_TH":"ตราด","ADM1_PCODE":"TH23","ADM0_EN":"Thailand","ADM0_TH":"ประเทศไทย","ADM0_PCODE":"TH"}},{"arcs":[[-63,-80,-75,80,-66,81]],"type":"Polygon","properties":{"Shape_Leng":0.448854928735,"Shape_Area":0.00473841691782,"ADM3_EN":"Thep Nimit","ADM3_TH":"เทพนิมิต","ADM3_PCODE":"TH230307","ADM2_EN":"Khao Saming","ADM2_TH":"เขาสมิง","ADM2_PCODE":"TH2303","ADM1_EN":"Trat","ADM1_TH":"ตราด","ADM1_PCODE":"TH23","ADM0_EN":"Thailand","ADM0_TH":"ประเทศไทย","ADM0_PCODE":"TH"}},{"arcs":[[-27,-59,-64,-82,-65]],"type":"Polygon","properties":{"Shape_Leng":0.453541979643,"Shape_Area":0.00520808344487,"ADM3_EN":"Thung Nonsi","ADM3_TH":"ทุ่งนนทรี","ADM3_PCODE":"TH230308","ADM2_EN":"Khao Saming","ADM2_TH":"เขาสมิง","ADM2_PCODE":"TH2303","ADM1_EN":"Trat","ADM1_TH":"ตราด","ADM1_PCODE":"TH23","ADM0_EN":"Thailand","ADM0_TH":"ประเทศไทย","ADM0_PCODE":"TH"}},{"arcs":[[-67,-81,-74,82,83,84]],"type":"Polygon","properties":{"Shape_Leng":0.760434612606,"Shape_Area":0.0122218347585,"ADM3_EN":"Bo Phloi","ADM3_TH":"บ่อพลอย","ADM3_PCODE":"TH230401","ADM2_EN":"Bo Rai","ADM2_TH":"บ่อไร่","ADM2_PCODE":"TH2304","ADM1_EN":"Trat","ADM1_TH":"ตราด","ADM1_PCODE":"TH23","ADM0_EN":"Thailand","ADM0_TH":"ประเทศไทย","ADM0_PCODE":"TH"}},{"arcs":[[-73,85,86,-83]],"type":"Polygon","properties":{"Shape_Leng":0.58055702684,"Shape_Area":0.00627694275654,"ADM3_EN":"Chang Thun","ADM3_TH":"ช้างทูน","ADM3_PCODE":"TH230402","ADM2_EN":"Bo Rai","ADM2_TH":"บ่อไร่","ADM2_PCODE":"TH2304","ADM1_EN":"Trat","ADM1_TH":"ตราด","ADM1_PCODE":"TH23","ADM0_EN":"Thailand","ADM0_TH":"ประเทศไทย","ADM0_PCODE":"TH"}},{"arcs":[[-29,-69,87,88,-38]],"type":"Polygon","properties":{"Shape_Leng":0.891597744699,"Shape_Area":0.0189518337017,"ADM3_EN":"Dan Chumphon","ADM3_TH":"ด่านชุมพล","ADM3_PCODE":"TH230403","ADM2_EN":"Bo Rai","ADM2_TH":"บ่อไร่","ADM2_PCODE":"TH2304","ADM1_EN":"Trat","ADM1_TH":"ตราด","ADM1_PCODE":"TH23","ADM0_EN":"Thailand","ADM0_TH":"ประเทศไทย","ADM0_PCODE":"TH"}},{"arcs":[[-78,89,-86]],"type":"Polygon","properties":{"Shape_Leng":0.596626405268,"Shape_Area":0.00966832326366,"ADM3_EN":"Nong Bon","ADM3_TH":"หนองบอน","ADM3_PCODE":"TH230404","ADM2_EN":"Bo Rai","ADM2_TH":"บ่อไร่","ADM2_PCODE":"TH2304","ADM1_EN":"Trat","ADM1_TH":"ตราด","ADM1_PCODE":"TH23","ADM0_EN":"Thailand","ADM0_TH":"ประเทศไทย","ADM0_PCODE":"TH"}},{"arcs":[[-68,-85,90,-88]],"type":"Polygon","properties":{"Shape_Leng":0.72138376311,"Shape_Area":0.00929429653252,"ADM3_EN":"Nonsi","ADM3_TH":"นนทรีย์","ADM3_PCODE":"TH230405","ADM2_EN":"Bo Rai","ADM2_TH":"บ่อไร่","ADM2_PCODE":"TH2304","ADM1_EN":"Trat","ADM1_TH":"ตราด","ADM1_PCODE":"TH23","ADM0_EN":"Thailand","ADM0_TH":"ประเทศไทย","ADM0_PCODE":"TH"}},{"arcs":[[91,92,93]],"type":"Polygon","properties":{"Shape_Leng":0.268201680685,"Shape_Area":0.00211613404481,"ADM3_EN":"Laem Ngop","ADM3_TH":"แหลมงอบ","ADM3_PCODE":"TH230501","ADM2_EN":"Laem Ngop","ADM2_TH":"แหลมงอบ","ADM2_PCODE":"TH2305","ADM1_EN":"Trat","ADM1_TH":"ตราด","ADM1_PCODE":"TH23","ADM0_EN":"Thailand","ADM0_TH":"ประเทศไทย","ADM0_PCODE":"TH"}},{"arcs":[[-10,94,-92,95]],"type":"Polygon","properties":{"Shape_Leng":0.339324684352,"Shape_Area":0.00179380720346,"ADM3_EN":"Nam Chiao","ADM3_TH":"น้ำเชี่ยว","ADM3_PCODE":"TH230502","ADM2_EN":"Laem Ngop","ADM2_TH":"แหลมงอบ","ADM2_PCODE":"TH2305","ADM1_EN":"Trat","ADM1_TH":"ตราด","ADM1_PCODE":"TH23","ADM0_EN":"Thailand","ADM0_TH":"ประเทศไทย","ADM0_PCODE":"TH"}},{"arcs":[[-71,96,97]],"type":"Polygon","properties":{"Shape_Leng":0.470414014981,"Shape_Area":0.00385455061824,"ADM3_EN":"Bang Pit","ADM3_TH":"บางปิด","ADM3_PCODE":"TH230503","ADM2_EN":"Laem Ngop","ADM2_TH":"แหลมงอบ","ADM2_PCODE":"TH2305","ADM1_EN":"Trat","ADM1_TH":"ตราด","ADM1_PCODE":"TH23","ADM0_EN":"Thailand","ADM0_TH":"ประเทศไทย","ADM0_PCODE":"TH"}},{"arcs":[[[-11,-96,-94,98,-97,-70,-21]],[[99]]],"type":"MultiPolygon","properties":{"Shape_Leng":0.530854616759,"Shape_Area":0.00612719100084,"ADM3_EN":"Khlong Yai","ADM3_TH":"คลองใหญ่","ADM3_PCODE":"TH230507","ADM2_EN":"Laem Ngop","ADM2_TH":"แหลมงอบ","ADM2_PCODE":"TH2305","ADM1_EN":"Trat","ADM1_TH":"ตราด","ADM1_PCODE":"TH23","ADM0_EN":"Thailand","ADM0_TH":"ประเทศไทย","ADM0_PCODE":"TH"}},{"arcs":[[[100]],[[101]],[[102]],[[103]],[[104]],[[105]],[[106]],[[107]],[[108]],[[109]]],"type":"MultiPolygon","properties":{"Shape_Leng":0.566865950188,"Shape_Area":0.00151168564516,"ADM3_EN":"Ko Mak","ADM3_TH":"เกาะหมาก","ADM3_PCODE":"TH230601","ADM2_EN":"Ko Kut","ADM2_TH":"เกาะกูด","ADM2_PCODE":"TH2306","ADM1_EN":"Trat","ADM1_TH":"ตราด","ADM1_PCODE":"TH23","ADM0_EN":"Thailand","ADM0_TH":"ประเทศไทย","ADM0_PCODE":"TH"}},{"arcs":[[[110]],[[111]],[[112]]],"type":"MultiPolygon","properties":{"Shape_Leng":0.806915228645,"Shape_Area":0.00926758760016,"ADM3_EN":"Ko Kut","ADM3_TH":"เกาะกูด","ADM3_PCODE":"TH230602","ADM2_EN":"Ko Kut","ADM2_TH":"เกาะกูด","ADM2_PCODE":"TH2306","ADM1_EN":"Trat","ADM1_TH":"ตราด","ADM1_PCODE":"TH23","ADM0_EN":"Thailand","ADM0_TH":"ประเทศไทย","ADM0_PCODE":"TH"}},{"arcs":[[[113]],[[114]],[[115]],[[116]],[[117]],[[118]],[[119,120]],[[121]]],"type":"MultiPolygon","properties":{"Shape_Leng":0.751916483643,"Shape_Area":0.00970026073015,"ADM3_EN":"Ko Chang","ADM3_TH":"เกาะช้าง","ADM3_PCODE":"TH230701","ADM2_EN":"Ko Chang","ADM2_TH":"เกาะช้าง","ADM2_PCODE":"TH2307","ADM1_EN":"Trat","ADM1_TH":"ตราด","ADM1_PCODE":"TH23","ADM0_EN":"Thailand","ADM0_TH":"ประเทศไทย","ADM0_PCODE":"TH"}},{"arcs":[[[-120,122]],[[123]],[[124]],[[125]],[[126]],[[127]],[[128]],[[129]],[[130]],[[131]],[[132]],[[133]],[[134]],[[135]],[[136]],[[137]]],"type":"MultiPolygon","properties":{"Shape_Leng":1.23822737873,"Shape_Area":0.00877579233848,"ADM3_EN":"Ko Chang Tai","ADM3_TH":"เกาะช้างใต้","ADM3_PCODE":"TH230702","ADM2_EN":"Ko Chang","ADM2_TH":"เกาะช้าง","ADM2_PCODE":"TH2307","ADM1_EN":"Trat","ADM1_TH":"ตราด","ADM1_PCODE":"TH23","ADM0_EN":"Thailand","ADM0_TH":"ประเทศไทย","ADM0_PCODE":"TH"}}]}}}