{"type":"Topology","arcs":[[[1971,4830],[-48,-16],[2,-39],[25,-8],[-38,-5],[-27,-58],[15,-32]],[[1900,4672],[5,-57],[-209,42]],[[1696,4657],[20,12],[4,26],[-18,21],[-25,72],[-19,26],[-34,18],[-74,8]],[[1550,4840],[87,15],[13,12],[40,2],[-59,124]],[[1631,4993],[53,-4],[47,6],[14,11],[58,-6],[8,-11],[56,-17],[16,2],[44,-29],[11,-16],[34,2],[18,-26],[28,-6],[7,-31],[-59,2],[-12,-10],[17,-30]],[[1631,4993],[-43,96],[32,39],[55,106],[28,63],[25,86]],[[1728,5383],[59,-12],[159,-51],[80,-31],[87,-15],[75,-27],[26,22]],[[2214,5269],[22,-14],[43,-48],[85,-44],[26,-29]],[[2390,5134],[28,-39],[22,-49],[54,-47],[41,-110],[-3,-23]],[[2532,4866],[-47,-8],[-42,12],[-22,22],[-15,-14],[-34,-2],[-54,25],[-26,-7],[-15,18],[-28,-27],[23,-17],[-15,-43],[-25,15],[-43,-2],[-28,8],[-2,-32],[24,-21],[-6,-19],[-33,5],[-51,-3],[-29,38],[-35,14],[-58,2]],[[2532,4866],[13,-4],[39,21],[59,-21],[65,7],[39,-11],[0,-66],[32,-4]],[[2779,4788],[-9,-37],[47,-8],[-38,-125],[-23,-60],[-46,-65],[62,-15],[32,-37],[20,-8],[85,14],[54,-20],[30,6],[22,-7],[47,3],[40,-12],[25,-18]],[[3127,4399],[23,-40],[-19,-20],[-47,-17],[-59,-47],[-25,-54],[-50,-19],[-73,-52]],[[2877,4150],[-169,138]],[[2708,4288],[-86,71],[-70,-29],[-71,19],[-81,14],[-180,47],[-46,77],[46,62],[-72,25],[-162,63],[-46,11],[-40,24]],[[1550,4840],[-56,25],[-28,6],[-48,-2],[-46,16],[-29,27],[-25,42],[-42,41],[-76,60],[-67,31],[-134,74],[-25,17]],[[974,5177],[58,47],[50,81],[-26,49],[-39,34]],[[1017,5388],[78,28],[174,-8],[106,9],[52,-17],[13,14]],[[1440,5414],[42,-3],[35,6],[113,41],[28,20]],[[1658,5478],[29,-32],[17,-34],[24,-29]],[[974,5177],[-45,14],[-36,-9],[-14,-14],[-6,-70],[9,-29],[28,-17],[79,5],[6,-24],[-31,-33],[-140,-62],[-45,-2],[-43,-13],[-62,-37],[-81,-28],[-108,-62],[-51,-14],[-54,22],[-71,4],[-127,-26],[-40,-16],[-92,6],[-17,27],[24,28],[9,30],[-17,48],[-49,37],[5,16],[32,-3],[48,-26],[23,8],[3,24],[-16,23],[64,-7],[36,3],[1,17],[-55,28],[19,53],[-40,26],[7,17],[27,1],[39,-18],[41,-1],[7,9],[-17,28],[-46,26],[18,22],[-22,6],[13,51],[16,-3],[9,-40],[15,-23],[27,14],[33,0],[-11,50],[-21,19],[4,14],[42,5],[29,17],[26,1],[8,19],[-19,24],[38,37],[-21,17],[-27,-5],[-61,31],[-2,34],[33,-23],[28,-7],[55,21],[80,6],[4,20]],[[472,5473],[51,20],[118,36],[35,22],[55,-30],[138,-22],[56,-25],[92,-86]],[[472,5473],[-31,13],[-40,-23],[-43,3],[-48,24],[25,20],[87,14],[-104,39],[-25,-9],[-13,17],[20,11],[-29,34],[-49,8],[-9,15],[39,30],[34,6],[-15,20],[-42,-15],[-17,12],[21,87],[33,41],[-66,44],[17,9],[84,-5],[18,8],[-7,18],[60,59],[-23,23],[37,26]],[[386,6002],[36,14],[42,-11],[124,-16],[66,-109],[11,-52],[21,-50],[1,-58],[19,-19],[17,5],[22,-40],[47,2],[7,-8],[33,14],[90,-7],[106,95],[66,79]],[[1094,5841],[139,-73],[40,-12],[40,-23],[15,-18],[23,17],[69,-58],[5,-21],[-17,-51],[19,-25],[65,-34],[26,-38],[-6,-56],[-9,-22],[-63,-13]],[[386,6002],[0,20],[32,10],[14,35],[21,16],[-26,24],[37,25],[-5,23],[-22,-17],[-7,25],[10,22],[-20,14],[7,19],[-41,6],[-1,28],[-15,26],[26,25],[-28,-5],[-17,42],[-36,-23],[-1,-15],[-42,-16],[9,-38],[-22,2],[3,16],[-30,-3],[7,-18],[-13,-18],[-48,38],[-12,46],[19,24],[33,-3],[-12,11],[19,43],[66,49],[6,22],[-20,31],[31,-13],[-2,23],[22,-8],[32,3],[29,37],[-20,16],[12,12],[21,-22],[68,22],[76,-8],[20,12],[57,-10],[-10,10],[30,23],[11,-15],[39,4],[32,-13],[8,22],[34,-9],[1,21],[35,-20],[-4,-12],[29,-3],[56,-20],[30,9],[40,-16],[32,19],[35,-30],[-3,-17],[34,8],[52,-3],[21,-14],[38,-1]],[[1163,6495],[15,-14],[2,-31],[33,-19],[19,-29],[-7,-56],[29,-12],[-1,-22]],[[1253,6312],[-73,-40],[-1,-24],[-33,-49],[-7,-37],[12,-43],[15,-85],[31,-85],[-34,-67],[-32,-28],[-37,-13]],[[1253,6312],[102,-48],[130,-17],[75,-50],[135,-72],[43,-11],[105,3]],[[1843,6117],[16,-3],[24,-29],[-25,-85],[-31,-75],[1,-23]],[[1828,5902],[-106,-5],[-57,11],[-25,-27],[-14,-33],[25,-63],[-17,-25],[13,-90],[-10,-64],[-21,-84],[42,-44]],[[1843,6117],[1,15],[173,1],[9,4],[1,138],[17,2],[12,-24],[19,-3],[29,25]],[[2104,6275],[30,-11],[78,-60],[30,-10],[48,-3],[15,-11],[-4,-42],[33,-41],[20,-7],[13,-24],[80,-47],[18,-15],[21,-38],[18,-10],[56,-6],[-4,-22],[11,-38],[-1,-33]],[[2566,5857],[-6,-36],[-31,-28],[17,-55],[35,-34],[-3,-15],[21,-29],[-19,-3],[-5,-36]],[[2575,5621],[-90,-103],[-101,-91]],[[2384,5427],[-33,7],[-47,22],[-63,65],[-57,42],[-97,42],[-30,-1],[-127,58],[-53,85],[-46,119],[-3,36]],[[2390,5134],[43,26],[46,10],[15,10],[166,72],[56,27],[24,-20],[25,9],[37,-20],[48,29],[4,33]],[[2854,5310],[73,-10],[54,4],[25,-8],[31,11],[31,-18],[40,-44],[59,-35],[28,-44],[19,-12],[30,0],[15,-16],[75,-35],[55,-31],[57,-13]],[[3446,5059],[6,-33],[-17,-56],[10,-58],[6,-82]],[[3451,4830],[-120,-22],[-96,1],[-51,-12],[-79,47],[-25,3],[-137,-3],[-118,-13],[-18,-27],[-28,-16]],[[2566,5857],[18,14],[39,4],[15,21],[56,34],[7,29],[15,0],[42,28],[65,18],[40,-2],[57,-18],[33,32],[44,59],[68,-11]],[[3065,6065],[62,-26],[37,-29],[105,-46],[0,-87],[27,-46],[76,-11],[57,-3],[59,-10],[57,-28],[39,-11]],[[3584,5768],[-20,-9],[-1,-33],[-28,-41],[-49,-37],[-15,3],[-47,-12],[-14,-16],[-26,14],[-29,52],[-42,20],[-23,-10],[-97,-81],[-94,-103],[-55,-80],[-37,-39],[-112,9],[-46,-7]],[[2849,5398],[-50,32],[-44,-18],[-54,9],[-3,53],[30,24],[4,97],[-8,5],[-75,6],[-74,15]],[[2708,4288],[-110,-25],[-95,-13],[-40,-15],[-71,-8],[-52,3],[-27,-22],[10,-30],[-22,-2],[-37,-35],[1,-19],[-51,-7],[-10,-11],[-33,5],[-12,20],[-19,-6],[21,-33],[-53,-6],[-32,11],[-13,-26],[17,-1],[8,-21],[64,7],[33,-29],[-4,-26],[-24,-42],[12,-43],[-12,-22],[-33,-22],[-15,-31],[-30,-15],[-115,9],[-63,9],[5,-29],[41,-39]],[[1947,3774],[-57,3],[-22,11],[-1,53],[-16,22],[-82,38],[-19,22],[1,30],[19,12],[52,12],[-23,20],[-87,-15],[-18,-14],[-14,-41],[-78,-78],[-33,-13],[-41,4],[-30,18],[-40,38],[-1,17],[22,17],[54,-3],[43,-9],[33,15],[-32,44],[-5,87],[28,53],[45,99],[-16,59],[23,36],[76,23],[15,42],[-17,11],[-49,-7],[-38,6],[-13,15],[-8,40],[-45,76],[1,17],[44,21],[22,19],[13,52],[43,31]],[[2854,5310],[-6,28],[1,60]],[[3584,5768],[65,-77],[32,-22],[12,-18],[60,-7],[35,13],[19,-5]],[[3807,5652],[7,-34],[-20,-16],[25,-3],[-18,-20],[19,-26],[28,-1],[-3,-25],[23,-35],[-25,-35],[-26,-54],[-76,-61],[-30,-40],[-13,-32],[50,-10],[-10,-36],[17,-22]],[[3755,5202],[-60,-20],[-116,-73],[-133,-50]],[[3451,4830],[-18,-64],[-53,-105],[-31,-37],[-56,-116],[-3,-47]],[[3290,4461],[-40,15],[-8,12],[-68,4],[-30,14],[-36,-1],[-20,-11],[36,-45],[21,-36],[-18,-14]],[[2877,4150],[-101,-70],[-39,-36],[-12,-21],[-40,-11],[-20,-17],[-22,-36],[-70,-65],[-95,-59],[-39,-17],[-158,-42],[-45,-28],[-36,-13],[-39,-29],[-33,-15],[-49,-32],[-15,-18]],[[2064,3641],[-15,47],[-50,64],[-52,22]],[[2384,5427],[-36,-33],[-70,-73],[-64,-52]],[[3807,5652],[-20,49],[69,43],[86,34],[31,-8],[30,14],[20,-5]],[[4023,5779],[-4,-18],[18,-14],[26,1],[8,27],[70,-1],[64,16],[14,19],[3,44],[79,44],[21,-9],[48,-37],[26,7],[81,-11],[41,-18],[-4,-11],[34,-13],[53,-10]],[[4601,5795],[-153,-114],[-73,-50],[-36,-11],[-20,-20],[15,-37],[24,-21],[54,-29]],[[4412,5513],[-37,-42]],[[4375,5471],[-76,-89],[-88,-98],[-42,-26],[-79,-20],[-179,-24],[-156,-12]],[[2104,6275],[150,49],[44,4],[78,-4],[36,-8],[146,128],[225,206],[31,55]],[[2814,6705],[40,-32],[94,-24],[67,-9],[51,-21],[11,-13],[78,-12],[44,-18],[2,-14],[37,-35],[47,6],[40,-15]],[[3325,6518],[1,-14],[47,-10],[16,-14],[42,-1],[19,-10],[17,-62],[51,-54]],[[3518,6353],[-42,-17],[-82,-12],[-88,-65],[-43,-22],[-112,-103],[-86,-69]],[[2104,6275],[13,67],[-13,58],[16,29],[32,27],[17,27],[-20,69],[-3,164],[3,111]],[[2149,6827],[33,15],[45,1],[-6,38],[19,24],[1,49],[34,4],[-10,15],[38,20],[41,5],[6,26],[40,21],[-10,69],[36,13],[-5,11],[17,37],[48,35],[29,11],[69,-4]],[[2574,7217],[50,-6],[66,-15],[5,-17]],[[2695,7179],[1,-76],[17,-17],[-15,-32],[8,-19],[-22,-27],[12,-47],[-16,-45],[152,-26],[52,-7],[-5,-10],[-46,-13],[-26,-24],[-31,-14],[1,-14],[-30,-33],[-19,-4],[8,-24],[60,-25],[18,-17]],[[1163,6495],[3,17],[32,3],[26,15],[4,19],[20,-3],[35,24],[-7,16],[31,15],[15,21],[-2,69],[-24,4],[-8,42],[-21,29],[40,44],[25,12],[14,37],[21,16],[-16,21],[28,13],[-7,41],[-19,27],[8,22],[43,12],[0,56]],[[1404,7067],[46,-5],[35,18],[88,-9],[56,10]],[[1629,7081],[-11,-41],[5,-91],[22,-53],[0,-79],[44,-2],[43,6],[86,21],[38,6],[54,-1],[43,-10],[67,-1],[46,-25],[83,16]],[[1404,7067],[-11,33],[-34,5],[-12,36],[-46,16],[-15,21],[-24,-4],[-11,21],[-2,41],[-31,27],[9,18],[-11,31],[13,52],[-30,17],[-14,38],[24,15],[-2,15],[28,35],[9,28],[28,16],[-32,56],[31,32],[15,-7],[36,19]],[[1322,7628],[56,-9],[51,-13],[79,-3],[42,-19],[137,-41],[35,-5],[79,4],[53,-3],[40,7],[69,-1],[140,-42],[0,-22],[-52,-88],[-26,-20],[-61,-35],[-98,-80],[-115,-14],[-95,-26],[-49,-21],[-37,-29],[59,-87]],[[3518,6353],[17,-24],[2,-24],[41,-12],[4,-13],[43,-16],[10,-45],[-15,-13],[37,-24],[34,-54],[32,1],[-2,-22],[-24,-25],[204,16]],[[3901,6098],[8,-37],[33,-6],[7,-32],[38,6],[92,-5],[14,-34],[20,-17],[-29,-34],[-15,-2],[6,-68],[-22,-43],[-18,-3],[3,-33],[-15,-11]],[[3918,8037],[-13,-17],[13,-26],[51,-15],[33,-27],[19,-42],[21,-13],[27,14],[34,-4],[17,22],[68,-11],[50,-31],[39,-15],[5,-33],[-13,-11],[11,-40],[-23,-15],[14,-27],[53,-31],[5,-23],[-15,-40],[-4,-34],[17,-31],[16,-8],[-37,-35],[-43,-6],[-1,-11],[47,-24],[2,-23],[30,-17],[8,10],[64,-7],[40,-15],[19,6],[37,-46],[-3,-30],[-17,-14],[-1,-28],[19,-35],[-16,-25]],[[4491,7279],[-42,-16],[6,-39],[-47,-46],[-12,-32],[-19,-19],[-20,-92],[6,-35],[-16,-25],[9,-14],[-24,-14],[18,-9],[-26,-54],[-39,-25],[-43,-3],[-16,-43],[-27,-16],[-50,32],[-41,16],[-64,-27],[-98,-53],[-22,-17],[-84,-37]],[[3840,6711],[-6,33],[12,19],[-9,36],[-24,17],[-50,55],[-6,30],[21,28],[28,-3],[1,33],[17,18],[8,34]],[[3832,7011],[18,7],[20,45],[12,56],[-2,30],[14,73],[37,75],[2,47],[-7,30],[-47,71],[-33,60],[-46,95],[-39,42],[-64,-13],[-38,-66]],[[3659,7563],[-44,9],[-28,42],[30,12],[29,34],[-52,32],[-20,3],[5,38],[-21,18],[-3,20],[-30,18],[6,11],[-22,28],[34,69],[2,42],[-28,31],[22,31],[-10,11],[-7,63],[-16,77]],[[3506,8152],[-3,16],[64,125],[-1,45],[-30,60],[18,28]],[[3554,8426],[40,-46],[43,-23],[58,-45],[12,-35],[52,-21],[48,-35],[9,-34],[30,-17],[22,-51],[24,-8],[32,-30],[-6,-44]],[[4491,7279],[36,-20],[-5,-20],[17,-11],[-9,-16],[13,-19],[15,8],[-4,-26],[45,-31],[40,32],[30,-13],[95,-64],[41,-33]],[[4805,7066],[62,-49],[55,-54],[26,-1],[32,-29],[38,-15],[39,3],[81,-16],[42,0],[20,10],[89,-14],[16,-16],[49,-3],[25,7],[52,-12],[-1,-18],[25,-13]],[[5455,6846],[4,-46],[-13,-37],[6,-29],[17,-5],[10,-37],[-9,-17],[21,-26]],[[5491,6649],[-56,-4],[-9,-8],[-45,2],[-19,-11],[-24,3],[-19,-13],[-6,-34],[-28,1],[-38,-40],[-69,-37],[-27,-32]],[[5151,6476],[-51,14],[-41,3],[-31,-21],[-28,-2],[-54,12],[-119,12],[-22,-9],[-50,11],[-85,6],[-111,22],[-44,-2],[-13,-10],[-38,9],[-16,-6],[-55,3],[-46,-16],[-36,-50],[-14,-42],[-72,-11],[-101,8]],[[4124,6407],[-1,19],[22,25],[-3,30],[39,29],[-14,6],[12,21],[-7,19],[-27,0],[5,61],[28,10],[-14,20],[5,19],[-47,40],[-64,14],[-40,0],[-137,-13],[-41,4]],[[3901,6098],[13,5],[0,52],[-18,10],[-5,37],[28,-3],[37,32],[-3,22],[30,8],[-3,17],[33,8],[-1,14],[79,12],[-23,42],[14,27],[19,-9],[32,26],[-9,9]],[[5151,6476],[46,-25],[118,-53],[-103,-81],[-77,-70],[-49,-22],[-63,-14],[-17,-15],[0,-41],[-19,-77],[-26,-33],[-132,-121],[-59,-57],[-93,-26],[-76,-46]],[[3325,6518],[132,3],[94,13],[46,10],[50,41],[55,60],[21,33],[66,-1],[51,34]],[[2695,7179],[56,-10],[55,-17],[32,-32],[69,-13],[97,-24],[166,-26],[78,-27],[38,-25],[29,-28],[32,-6],[43,-18],[23,-18],[58,69],[52,35],[14,-1],[10,-73],[33,-6],[126,18],[126,34]],[[2574,7217],[73,75],[81,69],[42,42],[-46,52]],[[2724,7455],[70,-20],[93,-13],[95,4],[143,-23],[39,-2],[103,9],[63,-9],[71,12],[169,7],[60,-1],[28,9],[16,26],[-27,37],[12,72]],[[1322,7628],[-2,48],[26,12],[-1,30],[34,0],[40,54],[-1,16],[99,21],[7,-26],[26,-18],[15,16],[46,3],[61,-23],[18,-17],[36,15],[2,21],[18,-9],[56,25],[11,16],[29,6],[48,32],[18,47],[-16,30],[22,1],[19,20],[69,1],[0,19],[21,8],[16,36],[-12,12],[10,30],[78,30],[28,23],[5,-13],[69,26],[36,-12],[15,8],[37,-22],[57,16]],[[2362,8110],[150,-388],[7,-14],[111,-93]],[[2630,7615],[94,-160]],[[2630,7615],[20,9],[10,54],[28,24],[45,24],[50,6],[23,18],[27,0],[41,13],[33,20],[44,-14],[42,11],[47,-23],[32,-2],[28,18],[23,36],[0,23],[-23,16],[11,16],[42,25],[4,36],[14,22],[-5,58],[64,53],[42,22],[56,40],[23,65],[43,-3],[44,-40],[37,-3],[31,13]],[[2362,8110],[38,23],[23,-7],[11,16],[-4,37],[22,19],[31,8],[53,50],[22,-7],[-9,-13],[11,-28],[20,-17],[70,10],[44,23],[-6,12],[48,12],[38,35],[37,20],[-14,26],[60,61],[36,19],[17,64],[62,25],[12,22],[23,0],[18,26],[-28,42],[44,42],[-5,17],[16,18],[-14,32],[12,7],[1,69],[99,53],[141,23],[44,-13]],[[3335,8836],[62,-69],[58,-79],[49,-60],[64,-57],[4,-21],[-11,-53],[5,-37],[-12,-34]],[[4063,4046],[-3,-25],[17,-164],[-9,-61],[9,-23],[-4,-89],[-1,-93],[98,-19],[73,24]],[[4243,3596],[43,5],[37,-13],[12,6],[56,-12],[11,-30],[60,-13],[43,21],[27,-7],[26,-41],[3,-38],[58,-99],[40,-42],[44,-31]],[[4703,3302],[-138,-77],[-53,-7],[-62,-19]],[[4450,3199],[-76,36],[-31,8],[-47,-39],[-71,33],[-29,-25],[-21,-31],[-59,-112],[-36,-107],[-37,-47],[-22,-38],[-94,27],[-54,-74],[-41,-90]],[[3832,2740],[-45,28],[-48,22],[-63,40],[-45,16],[-89,16],[-29,34],[-40,10],[-23,-5]],[[3450,2901],[-9,69],[-91,32],[-20,15],[23,42],[18,5],[24,47],[90,26],[8,96],[10,39],[-6,13],[-52,35],[-60,30]],[[3385,3350],[10,51]],[[3395,3401],[46,30],[108,50],[62,57],[-88,60]],[[3523,3598],[74,49],[57,-71],[31,-16],[65,28],[10,54],[66,132],[17,101],[-3,20],[12,41],[-55,59],[27,74]],[[3824,4069],[110,-7],[129,-16]],[[3127,4399],[20,-7],[19,-28],[44,-40],[-8,-59],[16,-48],[68,-53],[54,-56],[31,-48]],[[3371,4060],[-24,-4],[-53,-61],[-45,-28],[-23,-31],[-30,-18],[-21,-26]],[[3175,3892],[-61,-51],[-41,-61],[-42,-14],[-22,6],[-47,-26],[-26,-47],[5,-38],[-6,-20]],[[2935,3641],[-72,1],[-52,-27],[-41,-13],[-78,-6],[-165,-22],[-74,-28],[-58,-7],[-28,8],[-57,30],[-26,-10]],[[2284,3567],[-17,9],[-39,-4],[-62,-39],[-22,19],[25,32],[-3,24],[-24,7],[-46,-5],[-23,7],[-9,24]],[[3385,3350],[-29,-21],[-58,-22],[-48,-32],[-36,-13],[-78,17],[-37,-4],[-72,-35],[-76,-6],[-44,-14],[-95,-22],[-246,-94]],[[2566,3104],[-91,-29],[-102,-15],[-56,-39],[-27,1],[18,32],[-7,31],[-47,15],[-22,22],[5,27],[35,23],[72,32],[2,20],[-18,22],[-33,3],[-98,-26],[-102,8],[-14,19],[20,19],[56,7],[27,13],[2,25],[-48,45],[-35,107],[3,30],[21,16],[20,-1],[73,-44],[35,0],[37,25],[6,50],[-14,25]],[[2935,3641],[10,-16],[33,-2],[181,-91],[48,17],[53,-19],[42,-29],[52,-20],[30,-3],[13,-19],[-2,-58]],[[3175,3892],[90,-72],[86,-63],[131,-129],[41,-30]],[[3290,4461],[33,4],[26,18],[46,-29],[29,31],[-2,20],[58,13],[-8,18],[78,31],[57,-27],[26,-44],[25,-16],[4,-43],[21,-17],[-9,-21],[15,-17],[1,-51],[46,-42],[56,8],[14,-11],[79,5],[-16,26],[23,18],[52,25],[36,7],[13,33],[39,17],[-19,18],[28,20]],[[4041,4455],[50,-16],[36,-36],[31,-16],[44,-6],[44,-22],[35,-65],[16,-11],[67,-16],[93,-30],[54,-7],[55,2]],[[4566,4232],[-7,-36],[-45,-79],[-21,-23],[1,-25],[-45,-36],[-68,-35],[-59,-7],[-56,8],[-162,35],[-41,12]],[[3824,4069],[-105,10],[-53,9],[-130,-2],[-33,13],[-91,-33],[-41,-6]],[[4703,3302],[111,125],[71,-11],[1,-13],[33,-1],[18,-14],[38,46],[37,14],[104,6],[32,-1],[39,17],[61,11],[61,-6],[28,16],[22,0],[47,-27],[14,-17]],[[5420,3447],[-34,-19],[14,-21],[-39,-24],[-26,33],[-15,-17],[50,-43],[-34,-15],[8,-24],[33,3],[2,-17],[38,0],[-9,-19],[24,-1],[-1,-29],[-35,-18],[-14,-24],[-3,-46],[-13,-29],[-18,-6],[3,-28],[38,27],[26,6],[36,-28]],[[5451,3108],[-51,-40],[-73,0],[-71,28],[-62,-30],[-88,33],[-33,-1],[-92,-22],[-15,15],[-83,-32],[-24,-1]],[[4859,3058],[-82,7],[-148,6],[-114,62]],[[4515,3133],[-74,35],[9,31]],[[4859,3058],[0,-64],[-31,-76],[9,-8],[113,-31],[66,-35],[69,-17],[33,-16],[1,-22],[26,-36],[35,-35],[46,-71],[23,-53],[42,-16],[30,-3],[34,-37],[-11,-10],[20,-26]],[[5364,2502],[-45,-26],[-26,-29],[-20,-41],[-29,-34],[-2,-15],[-53,6],[-35,-19],[-56,-17],[-37,-3],[-56,9],[-79,41],[-40,40],[-30,7],[-60,-36],[-102,-55]],[[4694,2330],[-9,67],[-29,17],[-49,11],[-37,-1],[-53,-15],[-44,17],[-21,26],[-69,46],[-76,68]],[[4307,2566],[78,61],[75,75],[-2,37],[-23,60],[19,77],[15,81],[0,37],[17,98],[29,41]],[[4243,3596],[17,87],[12,37],[52,72],[115,74],[65,46],[60,52],[62,-39],[27,4],[16,-11],[71,68],[45,59],[56,16],[66,-10],[33,25],[99,7],[74,28],[55,3]],[[5168,4114],[-33,-19],[37,-25],[11,-24],[-26,-39],[-28,-2],[29,-49],[-33,-2],[-11,-22],[-18,0],[1,-31],[44,-19],[1,-22],[-48,-2],[48,-27],[38,20],[25,2],[5,18],[46,-7],[18,15],[31,-8],[34,8],[21,-11],[2,-19],[-28,-23],[5,-14],[-28,-16],[28,-8],[-4,-32],[-20,2],[-7,-21],[58,-4],[25,-14],[-46,-44],[-6,-22],[37,-19],[7,16],[25,-17],[-8,-18],[13,-17],[-37,-2],[-73,-18],[-3,-20],[58,-2],[16,-37],[38,-6],[-2,-29],[10,-37]],[[5451,3108],[19,-7],[29,41],[74,24],[27,30],[40,3],[29,-58],[-2,-49],[-9,-25],[-52,-24],[-7,-18],[14,-31],[56,-8],[9,-37],[-38,-44],[-40,-13],[-36,9],[16,-31],[37,-22],[6,-23],[40,-11],[34,13],[31,-2],[15,-18],[33,24],[9,-16],[35,-7],[19,-13],[31,1],[17,26],[-41,5],[1,22],[61,13],[23,18],[22,-11],[13,-59],[22,-9],[16,36],[76,-10],[64,-26],[-3,-41],[11,-35],[53,-66],[-14,-29],[30,-28],[-25,-2],[-30,30],[-36,6],[-70,-2],[19,-23],[7,-41],[-13,-27],[-59,-23],[-25,-22],[-3,-16],[-51,-34],[-49,-17],[-13,-40],[20,-10],[-2,-18],[-57,-27],[-62,25],[-22,-2],[-28,36],[-48,10],[-17,-11],[-92,43],[-34,0],[-37,-10],[-79,53],[-51,22]],[[3450,2901],[-35,-19],[-109,-39],[-11,-10],[-58,-2],[-44,7],[-23,-11],[-77,1],[-60,38],[-3,15],[-35,36],[-16,5],[-43,-33],[-9,-33],[-19,-35],[-23,-20],[3,-32],[-14,-18]],[[2874,2751],[-31,1],[-58,-13],[-73,-3],[-22,28],[9,47],[-29,25],[-47,9],[-21,25],[42,41],[-9,22],[-28,8],[-22,-5],[-35,-35],[-29,-13],[-21,5],[-2,26],[42,38],[21,59]],[[2561,3016],[45,45],[3,25],[-43,18]],[[4566,4232],[24,38],[38,14],[58,-14],[91,-15],[6,33],[35,-6],[-14,24],[41,10],[2,22],[-33,-6],[9,28],[35,-14],[13,23]],[[4871,4369],[44,-42],[72,30],[24,4],[37,-13],[11,-25],[18,10],[15,-26]],[[5092,4307],[28,1],[15,-20],[-11,-12],[26,-24],[12,15],[13,-17],[45,-2],[-1,-19],[25,5],[-22,-28],[4,-15],[-24,-7],[5,-34],[-8,-36],[-31,0]],[[4307,2566],[-38,-2],[-61,12]],[[4208,2576],[-89,31],[-129,34],[-52,17]],[[3938,2658],[-71,29],[-48,39],[13,14]],[[4412,5513],[8,24],[33,49],[52,-13],[31,-17],[76,-30],[134,-90],[82,-33],[72,-19],[316,-42]],[[5216,5342],[-24,-81],[-39,-73],[-28,-29],[30,-32],[-30,-35],[-7,-21],[3,-45],[20,-60],[-8,-24],[28,-36],[-28,-11],[-15,-49],[-31,-38],[19,-35],[35,-20],[-11,-31],[-32,-9],[-28,7],[21,-28],[12,15],[29,-3],[2,13],[29,-7],[5,-31],[-17,10],[-23,-13],[28,-15],[-18,-14],[33,-14],[-29,-20],[-34,4],[-9,-16],[-45,-3],[-126,9],[-53,-15],[-81,10]],[[4794,4602],[-11,51],[-24,4],[-41,68],[-12,1],[-1,49],[-17,20],[-37,-7],[7,43],[-61,54],[-29,19]],[[4568,4904],[-5,15],[24,36],[-40,27],[-19,35],[-49,39],[2,58],[-4,122],[-15,70],[2,21],[24,44],[-31,31],[-40,25],[-42,44]],[[4568,4904],[-193,8],[-159,10],[-161,8],[-38,-15],[-35,-50],[-44,-11],[48,-171],[-17,-37],[-37,-44],[81,-113],[28,-34]],[[5491,6649],[28,-13],[13,-24],[18,-8],[-10,-27],[24,-35],[27,-1],[34,-17],[33,0],[33,35],[31,2],[26,-23],[14,5],[68,-49],[2,-33],[28,-5],[6,-20],[43,0],[71,23],[13,20],[24,-9],[28,16],[-8,-18],[32,6],[-5,22],[32,-11]],[[6096,6485],[4,-27],[29,-7],[-17,-29],[32,-27],[-44,-29],[-1,-26],[21,-15],[13,-78],[-57,-4],[-10,-13],[-30,-3],[17,-25],[-35,-28],[-66,-9],[-40,-49],[0,-25],[-24,-11],[-32,13],[-20,-35],[-44,-50],[-34,-17],[-56,-51],[-51,-55],[7,-14],[58,-10],[-12,-16],[-17,-52],[-84,-4],[-77,-15],[22,-50],[38,11],[-16,-53],[-49,-55],[1,-27],[-22,-6],[8,-22],[42,-24],[-6,-23],[-70,-31],[-23,-22],[4,-27],[41,-32],[43,-22],[14,-17],[-8,-49]],[[5545,5325],[-36,-10],[-14,12],[-38,-1],[-62,8],[-179,8]],[[4871,4369],[-51,5],[12,19],[22,-6],[15,12],[-16,10],[12,23],[-27,-7],[-13,11],[21,23],[-3,18],[-59,39],[2,16],[22,-1],[18,19],[-35,14],[3,38]],[[5545,5325],[16,-39],[36,-51],[-7,-14],[-62,-27],[-48,-30],[-36,-52],[-17,-96],[-74,-38],[-1,-42],[-51,3],[-3,-38],[59,-22],[-1,-23],[-46,-28],[-14,-18],[-9,-41],[-44,-16],[6,-45],[18,-12],[-21,-49],[22,-23],[-51,-14],[-9,-47],[-25,-20],[39,5],[-11,-45],[44,-20],[-24,-40],[27,-19],[15,-24],[1,-36],[-48,-20],[-53,31],[-23,-13],[-19,-27],[-39,0],[0,-28]],[[3049,2571],[12,-29],[18,-7],[9,-28],[27,-6],[123,-87],[-4,-35],[58,-8],[-4,-29],[39,-17],[-14,-50],[35,-27],[16,7]],[[3364,2255],[66,-66],[-16,-15],[5,-20],[-18,-28],[56,-42],[53,-31]],[[3510,2053],[10,-17],[11,-54],[-9,-48],[26,-11],[20,5],[57,45],[21,2],[20,-21],[-23,-71],[-44,-24],[-85,12],[-54,-11],[-9,-37]],[[3451,1823],[-119,-44],[-29,-26],[-39,-16],[-55,0],[-69,-8],[-75,9],[-67,49],[-12,-13],[-49,-4],[-77,9],[-37,10]],[[2823,1789],[-92,32]],[[2731,1821],[39,77],[12,5],[7,33],[68,20],[-60,49],[-30,34],[-36,54],[-41,46],[-63,87],[-33,38]],[[2594,2264],[-4,52],[72,107],[36,3],[68,-12],[31,5],[53,31],[2,17],[59,73],[69,6],[69,25]],[[2874,2751],[31,-1],[6,-26],[22,8],[43,-10],[24,9],[32,-29],[-11,-34],[10,-16],[27,1],[38,-19],[-12,-41],[-35,-22]],[[2594,2264],[-86,44],[-33,6],[-53,0],[-42,-16],[-162,-21],[-152,-41],[-17,38],[-50,43],[-9,0]],[[1990,2317],[-6,42],[-20,27],[38,40],[50,24],[96,11],[64,12],[46,32],[19,51],[1,35],[-17,69],[-140,90],[-60,59],[-7,41],[2,36],[29,33],[26,50]],[[2111,2969],[138,-10],[31,6],[19,26],[262,25]],[[2731,1821],[-42,-28],[-17,-1],[-51,-38],[-41,-48],[-30,-12],[-67,-9],[-43,-13],[-49,-38],[-23,-36]],[[2368,1598],[-42,2],[-122,34],[-68,-8],[-24,34],[-14,70],[-21,24],[-3,23],[-43,9],[-26,38],[-86,54],[-32,34],[-71,61],[-102,59],[-54,41],[-30,39],[5,64],[28,53],[32,17],[42,13]],[[1737,2259],[94,33],[94,22],[65,3]],[[3451,1823],[32,-31],[30,-15],[45,0],[25,11],[47,41],[22,8],[18,-16],[-36,-46],[-15,-38],[-3,-76],[-17,-16],[-55,-16],[6,-27],[54,8],[45,-11],[54,-38],[60,-26],[19,-17],[-5,-19],[-57,-21],[1,-10],[53,-40]],[[3774,1428],[-69,-14],[-48,-46],[-19,-37]],[[3638,1331],[-94,33],[-100,-9],[-38,13],[-53,-14],[-23,-52],[-33,-34],[-64,-35],[-57,-8],[-40,-32],[-53,-20],[-44,-3]],[[3039,1170],[6,91],[-1,117],[6,25],[73,90],[18,52],[-32,16],[-37,41],[-39,17],[2,41],[-30,20],[-38,5],[-49,23],[-48,30],[-47,51]],[[3938,2658],[-50,-84],[-23,-78],[-42,-57],[-19,-15],[-116,-7],[9,-49],[-53,-28],[-32,-9],[-50,28],[-12,-10],[35,-16],[-6,-32],[-50,8],[-43,17],[-37,-22],[-36,4],[-44,-9],[-15,-25],[10,-19]],[[3510,2053],[2,46],[31,0],[26,48],[56,11],[26,-8],[23,16],[45,-23],[58,-56],[21,-9],[49,0],[19,13],[-9,46]],[[3857,2137],[66,5],[103,-36],[70,-36],[47,-32],[13,-26],[4,-41],[-31,-63],[19,-71],[115,4],[-78,-95],[46,-21],[102,-31],[38,-27],[13,-26],[33,16],[78,-32],[4,-23]],[[4499,1602],[-90,16],[-19,-13],[16,-58],[-9,-34],[-89,-60],[-16,-25],[13,-64],[-19,-11],[-63,9],[-38,-10],[-71,-42],[-40,-5],[-61,12],[-78,39],[-16,39],[-14,10],[-73,5],[-58,18]],[[4208,2576],[6,-49],[-13,-89],[-55,-53],[-46,-26],[-272,-115],[-16,-61],[45,-46]],[[4694,2330],[-28,-55],[-4,-27],[26,-18],[-3,-88],[26,-56],[-23,-74],[-20,-41],[-3,-41],[45,-11],[38,-21],[-21,-17],[-111,-140],[-45,-74],[-32,-41],[-19,-34],[9,-5]],[[4529,1587],[-30,15]],[[1737,2259],[-47,44],[-25,52],[-14,-3],[-27,84],[-17,89],[-22,34],[-84,25],[14,12],[7,31],[-11,2],[-5,47],[-9,14],[8,32],[43,18],[140,75],[139,65],[151,79],[37,7],[96,3]],[[3039,1170],[-27,-51],[-22,-3],[-81,-29],[-65,-13]],[[2844,1074],[-30,21],[-111,110],[-73,97],[-58,60],[-27,19],[-40,45],[-28,48],[-48,56],[-13,29],[-45,27],[-3,12]],[[4463,347],[27,20],[-65,67],[-10,85],[66,50],[46,45],[65,26],[-8,74],[52,84],[-12,19]],[[4624,817],[11,2],[-11,41],[19,32],[44,21],[53,9]],[[4740,922],[36,-11],[57,7],[62,26],[58,-16],[41,-35],[19,-33],[15,-49],[43,-79],[11,-8],[36,6],[16,21],[50,2],[64,-18],[29,14],[1,28],[-14,19],[-40,19],[3,24],[22,-2],[60,-45],[13,-58],[7,-65],[-6,-32],[-21,-36],[-35,-39],[7,-26],[21,-12],[43,10],[28,23],[46,-5],[19,-40],[-13,-18],[-83,-56],[-48,-17],[-23,-28],[-1,-23],[-57,-20],[-40,-5],[-33,13],[-18,-6],[-27,12],[-30,-6],[-35,24],[-53,-52],[-5,-19],[-14,-233],[-6,-78],[-126,22],[-101,15],[-69,14],[-2,33],[42,37],[8,16],[-4,42],[27,42],[0,93],[-13,4],[-43,62],[-31,8],[-59,-10],[6,-15],[-19,-49],[-21,-11],[-43,-1],[-27,19],[14,18],[-21,8]],[[4529,1587],[82,-66],[62,-44],[25,-35],[-3,-39],[17,-86],[3,-36],[-5,-68],[6,-30],[44,-65],[-4,-36],[-30,-12],[-70,-17],[-10,-18],[6,-45],[23,-23],[65,-45]],[[4624,817],[-21,22],[-44,23],[-10,17],[-83,-29],[-11,23],[-31,4],[4,11],[-45,12],[-45,34],[-30,3],[-28,-19],[10,-61],[-3,-20],[-32,-33],[-46,-4],[-30,15],[-13,35],[-66,6],[-53,32],[-47,53],[-24,12]],[[3976,953],[-23,77],[-24,107],[-47,53],[-27,21],[-41,12],[-88,45],[-78,31],[-10,32]],[[3976,953],[-32,-8],[-71,-42],[-27,-12],[-85,-4],[-47,-40],[-66,-63],[-160,-149]],[[3488,635],[-68,8],[-1,15],[-41,21],[-3,20],[-34,25],[-31,-9],[-30,27],[-76,37],[-63,-3],[-48,14],[-28,1],[-48,19],[-44,30],[-41,45],[-23,36],[-52,103],[-13,50]],[[4463,347],[-18,22],[14,13],[-25,2],[-32,34],[-32,22],[-5,23],[-55,32],[-6,26],[-96,-13],[-12,18],[-45,-1],[-15,8],[-52,-17],[-97,6],[-77,20],[-53,-17],[-42,-29],[-50,20],[-54,-18],[-40,14],[-10,18],[-43,-6],[-31,20],[-2,22],[-31,25],[-10,22],[-24,1],[-32,21]],[[7714,7862],[-5,13],[-75,83],[-27,24],[-28,37],[16,46],[-24,47],[7,16],[-16,15],[44,65],[-30,55],[-25,32],[-33,14],[-21,40],[-10,75],[5,43],[29,72],[34,48],[11,28],[27,23],[-6,17],[20,45]],[[7607,8700],[27,0],[132,30],[81,34],[53,41],[36,21],[16,-4],[29,16],[30,49],[-11,6],[13,59],[24,49],[17,-3],[31,-76],[37,-39],[148,-49],[73,14],[33,-3],[25,-26],[-7,-76],[20,-15],[61,-13],[31,-33],[42,-20],[52,30],[66,-35],[22,-26],[258,-18],[54,-1],[68,9],[46,-41],[27,-5],[27,22],[21,5],[52,-14],[64,-42],[-20,-19],[-2,-23],[26,-11],[36,-2],[24,-14],[50,-52],[72,-64],[27,-68],[13,-52],[36,-49],[37,11],[30,-1],[22,14],[26,-2],[50,41],[25,-1],[15,-22],[79,-40],[85,-7],[31,7],[32,-20],[-25,-29],[17,-20],[-24,-32],[15,-12],[-6,-21],[-27,-23],[2,-32],[-58,-34],[-11,-32],[15,-7],[-14,-38],[11,-19],[-7,-65],[-33,-89],[-4,-34],[13,-14],[3,-30],[-39,-33],[-57,-8],[-18,11],[-18,-10],[-35,20],[-30,37],[-38,15],[-71,15],[-15,42],[-26,14],[-21,29],[-32,9],[-62,-14],[14,-13],[-29,-8],[-5,-13],[-43,-14],[-14,-21],[-34,1],[-31,-16],[-34,6],[-41,-14],[-74,9],[-47,-8],[-32,4],[-46,-7],[-4,8],[-41,-13],[-58,5],[-27,-13],[-39,27],[-76,3],[-7,21],[-94,14],[-76,4],[-29,18],[-20,31],[-61,-8],[-34,17],[-85,0],[-19,16],[-24,-3],[-15,15],[-48,27],[-54,-22],[-39,6],[-20,-6],[-21,17],[-43,13],[5,11],[-29,9],[-34,-5],[-46,-26],[-27,14],[-17,-10],[-70,23],[-33,-5],[-53,4],[-23,-14],[-13,10]],[[6385,8738],[19,-19],[-23,-38],[23,-6],[-4,-19],[-36,-29],[15,-9],[-11,-31],[16,-41],[-11,-16],[13,-26],[-20,-6],[-14,-21],[38,-45],[-20,-13],[23,-22],[28,7],[39,-13],[44,27],[42,13],[42,2],[43,-7],[39,-17],[47,-10],[51,1],[68,-15],[98,-13]],[[6934,8372],[40,-53],[-13,-14],[-18,-68],[-43,-43],[-29,-10],[-61,0],[3,-20],[-18,-66],[-20,-45],[-72,-103],[-44,-53]],[[6659,7897],[-65,-31],[-21,7],[-46,-10],[-35,2],[-77,-24],[-45,-35],[-10,-33],[-36,0],[-44,-13],[-4,10],[-91,10],[-46,22],[6,25],[-51,15],[-29,22],[-11,-6],[-48,25],[-34,-5],[-27,12],[0,22],[-26,9],[-17,26],[-33,14],[-12,20],[-34,15],[-39,-3],[-34,6],[-26,-8],[-18,-31]],[[5706,7960],[-17,-7],[-49,8],[-11,20],[-33,26],[-51,-5],[-71,-40]],[[5474,7962],[-12,33],[-5,92],[-8,43],[5,32],[-34,51],[2,51],[12,64],[-38,80]],[[5396,8408],[75,13],[51,-20],[22,21],[35,16],[25,31],[25,-5],[43,9],[20,-11],[21,9],[-18,55],[34,21],[91,67],[62,62],[59,85],[179,120]],[[6120,8881],[10,-26],[57,-22],[18,-39],[19,-2],[38,-25],[32,1],[15,-28],[32,15],[33,-23],[11,6]],[[5248,9314],[24,-135],[1,-75],[-36,-29],[-30,-9],[-13,-37],[-24,-17],[-48,-5],[-14,-10],[-49,-9],[-20,-48],[-29,-24],[4,-26],[-23,-29],[-4,-24],[-82,10],[13,-27],[24,-15],[14,-58]],[[4956,8747],[-65,-9],[-43,5],[-58,32],[-47,13],[-71,-47]],[[4672,8741],[-30,4],[-23,20],[-59,22],[-86,13],[-14,18],[-88,24],[-62,3],[-30,22],[-56,3],[-126,17],[-40,14],[-15,-19],[10,-13],[-56,-20],[-14,14],[-95,32],[-39,-1],[-46,16],[-29,24],[-10,61],[11,37],[-86,8],[-70,-19]],[[3619,9021],[-9,47],[8,25],[48,24],[57,18],[57,-19],[16,28],[132,63],[39,26],[36,37],[27,62],[54,28],[49,62],[48,30],[4,12],[-34,43],[0,31],[21,32],[0,46],[23,26],[-7,41],[29,25],[32,81],[31,26],[161,97],[27,12]],[[4468,9924],[16,-46],[21,-7],[8,-29],[57,-12],[14,-19],[66,-25],[32,-42],[60,-7],[58,-21],[39,-46],[24,-49],[44,-39],[59,6],[27,-8],[27,-30],[43,-26],[41,-55],[6,-32],[49,-45],[-2,-31],[32,-30],[24,0],[35,-17]],[[5396,8408],[-112,115],[-50,46],[-49,37],[-57,36],[-46,20],[-30,27],[-96,58]],[[5248,9314],[79,-15],[73,6],[12,-26],[28,-16],[43,10],[13,-14],[23,7],[30,-14],[23,5],[42,-8],[-1,-15],[55,-28],[45,11],[55,-6],[5,-18],[43,-5],[24,-15]],[[5840,9173],[-7,-15],[11,-27],[13,0],[8,-32],[-5,-42],[-13,-13],[39,-5],[-3,-14],[28,-2],[-3,-22],[32,-22],[23,-33],[39,-23],[42,5],[18,-27],[17,5],[41,-25]],[[4468,9924],[93,14],[129,43],[44,18],[28,-8],[20,8],[82,-22],[89,5],[44,-4],[46,-13],[70,-1],[50,17],[158,-22],[179,-11],[63,-15],[100,28],[88,7],[102,-33],[131,-6],[73,-12],[62,-26],[-5,-32],[38,-34]],[[6152,9825],[-21,-39],[-2,-21],[-32,-16],[-52,-13],[-13,-18],[10,-20],[-12,-24],[-33,-16],[-15,-36],[-75,-72],[-49,-17],[-12,-25],[5,-25],[24,-12],[50,-76],[52,-9],[1,-36],[-33,-14],[8,-31],[-27,-52],[-41,-18],[-25,-25],[-20,-37]],[[6385,8738],[7,40],[-24,27],[-4,49],[25,7],[-5,25],[11,37],[30,15],[19,26],[52,39],[17,24],[54,37],[22,39],[59,16],[39,-1],[42,13],[1,14],[28,20]],[[6758,9165],[39,14],[33,-17],[57,3],[65,-15],[21,-29],[4,-57],[43,-64],[60,-47],[34,-7],[82,34],[55,10],[36,-29],[5,-106],[-12,-10],[33,-20],[74,-9],[21,-19],[16,-32],[45,-26],[91,-19],[47,-20]],[[7607,8700],[-87,4],[-79,-13],[-79,-1],[-46,-8],[-58,-22],[-70,-39],[-26,-6],[-29,-26],[-25,-36],[-21,-6],[-33,-28],[-27,-3],[-21,-16],[-7,-29],[-21,-17],[7,-51],[-6,-38],[-45,7]],[[6152,9825],[15,-9],[5,-75],[31,-43],[55,-12],[47,6],[46,-15],[42,12],[44,-4],[68,23],[24,-2],[23,-24],[39,-20],[86,-6],[12,-58],[30,-41],[43,-85],[46,-46],[20,-28],[1,-18],[-42,-20],[-1,-50],[-18,-11],[12,-42],[-5,-19],[-32,-42],[15,-31]],[[7714,7862],[-15,5],[-13,-21],[-54,7],[-23,-10],[-26,21],[-32,6],[-48,-39],[-18,-5],[-54,-46],[-34,6],[-52,-19],[12,-19],[-12,-11],[-27,15],[-40,-29],[-39,-8],[-58,1],[-74,-35],[-77,-29],[-87,-2],[-62,5],[-61,-18],[-27,-40],[-16,-41]],[[6777,7556],[-26,12],[12,33],[-14,23],[18,26],[-23,54],[-53,45],[-3,28],[-20,53],[1,32],[-10,35]],[[6777,7556],[-6,-16],[-55,-36],[-7,-33],[-37,-25],[0,-17],[-30,-12],[11,-15],[-42,-9],[-24,-15]],[[6587,7378],[-71,-5],[-53,27],[-30,35],[24,31],[-27,40],[-53,-4],[-14,-20],[-35,-1],[-17,-14],[-44,12],[-38,-29],[-26,0],[-57,-34],[-41,22],[-10,18],[-72,31],[-51,8],[-24,-6],[-85,25],[-35,34],[-33,14],[-50,6],[-31,19],[-55,16],[-74,7]],[[5585,7610],[-57,-3],[-15,53],[14,88],[18,32],[38,10],[56,-3],[21,25],[20,40],[66,30],[4,11],[-42,29],[-2,38]],[[3335,8836],[42,8],[77,57],[34,17],[48,12],[80,29],[26,23],[-23,39]],[[4672,8741],[-34,-30],[-10,-27],[-45,-40],[14,-26],[-10,-52],[4,-39],[18,-48],[23,-41],[74,-68],[28,-95],[-11,-49],[-14,-29],[-27,-28],[-19,-81],[-19,-47],[18,-28],[-12,-22]],[[4650,7991],[-56,-4],[-55,-17],[-89,13],[-23,7],[-25,-9],[-22,-32],[-2,41],[-29,47],[-60,-76],[-12,-2],[-41,24],[-23,33],[-1,28],[-21,17],[-33,8],[-34,30],[-13,-19],[-23,3],[-55,61],[0,30],[-46,43],[-38,11],[-11,-44],[32,-50],[-11,-42],[-41,-55]],[[4805,7066],[17,-9],[34,39],[37,26],[-2,15],[36,17],[-4,24],[22,4],[-5,21],[17,17],[12,37],[-7,29],[39,12],[-2,15],[26,6],[38,29],[26,47],[34,0],[34,23],[38,9],[10,29],[-10,23],[22,37],[-21,67],[47,49],[40,22],[28,31],[-7,44],[19,9],[4,74],[37,17],[-83,37],[11,25],[19,2],[13,22]],[[5324,7915],[53,-9],[60,-25],[8,71],[29,10]],[[5585,7610],[-4,-92],[23,-31],[-9,-27],[-46,-18],[-12,-14],[-9,-52],[-39,-33],[-34,-16],[-37,-65],[-11,-49],[-29,-44]],[[5378,7169],[15,-31],[47,-42],[16,-21],[3,-34],[29,-30],[-2,-33],[-52,-36],[18,-54],[3,-42]],[[5378,7169],[35,-9],[68,8],[40,-16],[58,37],[30,-5],[41,19],[68,-4],[33,12],[58,2],[30,12],[46,-6],[27,-21],[32,-11],[24,-21],[43,0],[35,-20],[45,-42],[48,16],[38,0],[47,-18],[68,8],[48,-27],[-12,-10],[52,-23]],[[6380,7050],[-1,-18],[-21,0],[-58,-45],[-1,-16],[-35,-11],[-9,-13],[31,-15],[8,-33],[80,-54],[-9,-31],[-20,-14],[39,-22],[29,2],[56,-66],[-21,-23],[-14,25],[-35,-4],[12,-21],[-15,-31],[-22,3],[-2,-42],[-40,-16],[2,-31],[-27,-16],[-20,4],[-42,-12],[-17,-17],[-51,19],[-3,-20],[-35,7],[-4,-22],[-39,-32]],[[5324,7915],[-113,43],[-37,-5],[-18,-16],[-125,-4],[-67,12],[-46,-50],[-39,-20],[-32,22],[-77,30],[-25,2],[-40,20],[-55,42]],[[6587,7378],[-22,-36],[15,-12],[-46,-68],[-25,-2],[-28,-16],[17,-13],[-22,-23],[2,-15],[29,-21],[7,-41],[-9,-10],[-51,-5],[-8,-45],[-56,1],[-10,-22]]],"transform":{"scale":[0.00008276168036803359,0.00010596864836483582],"translate":[103.99747018900005,15.289305787000046]},"objects":{"Yasothon":{"type":"GeometryCollection","geometries":[{"arcs":[[0,1,2,3,4]],"type":"Polygon","properties":{"Shape_Leng":0.16831841466,"Shape_Area":0.000809321574039,"ADM3_EN":"Nai Mueang","ADM3_TH":"ในเมือง","ADM3_PCODE":"TH350101","ADM2_EN":"Mueang Yasothon","ADM2_TH":"เมืองยโสธร","ADM2_PCODE":"TH3501","ADM1_EN":"Yasothon","ADM1_TH":"ยโสธร","ADM1_PCODE":"TH35","ADM0_EN":"Thailand","ADM0_TH":"ประเทศไทย","ADM0_PCODE":"TH"}},{"arcs":[[-5,5,6,7,8,9]],"type":"Polygon","properties":{"Shape_Leng":0.284967070044,"Shape_Area":0.00272471345933,"ADM3_EN":"Nam Kham Yai","ADM3_TH":"น้ำคำใหญ่","ADM3_PCODE":"TH350102","ADM2_EN":"Mueang Yasothon","ADM2_TH":"เมืองยโสธร","ADM2_PCODE":"TH3501","ADM1_EN":"Yasothon","ADM1_TH":"ยโสธร","ADM1_PCODE":"TH35","ADM0_EN":"Thailand","ADM0_TH":"ประเทศไทย","ADM0_PCODE":"TH"}},{"arcs":[[-1,-10,10,11,12,13,14]],"type":"Polygon","properties":{"Shape_Leng":0.36660039553,"Shape_Area":0.00376671294968,"ADM3_EN":"Tat Thong","ADM3_TH":"ตาดทอง","ADM3_PCODE":"TH350103","ADM2_EN":"Mueang Yasothon","ADM2_TH":"เมืองยโสธร","ADM2_PCODE":"TH3501","ADM1_EN":"Yasothon","ADM1_TH":"ยโสธร","ADM1_PCODE":"TH35","ADM0_EN":"Thailand","ADM0_TH":"ประเทศไทย","ADM0_PCODE":"TH"}},{"arcs":[[-4,15,16,17,18,19,-6]],"type":"Polygon","properties":{"Shape_Leng":0.228872376664,"Shape_Area":0.00254462485337,"ADM3_EN":"Samran","ADM3_TH":"สำราญ","ADM3_PCODE":"TH350104","ADM2_EN":"Mueang Yasothon","ADM2_TH":"เมืองยโสธร","ADM2_PCODE":"TH3501","ADM1_EN":"Yasothon","ADM1_TH":"ยโสธร","ADM1_PCODE":"TH35","ADM0_EN":"Thailand","ADM0_TH":"ประเทศไทย","ADM0_PCODE":"TH"}},{"arcs":[[-17,20,21]],"type":"Polygon","properties":{"Shape_Leng":0.381350937726,"Shape_Area":0.00429279276394,"ADM3_EN":"Kho Nuea","ADM3_TH":"ค้อเหนือ","ADM3_PCODE":"TH350105","ADM2_EN":"Mueang Yasothon","ADM2_TH":"เมืองยโสธร","ADM2_PCODE":"TH3501","ADM1_EN":"Yasothon","ADM1_TH":"ยโสธร","ADM1_PCODE":"TH35","ADM0_EN":"Thailand","ADM0_TH":"ประเทศไทย","ADM0_PCODE":"TH"}},{"arcs":[[-18,-22,22,23,24]],"type":"Polygon","properties":{"Shape_Leng":0.385990290382,"Shape_Area":0.00364096661186,"ADM3_EN":"Du Thung","ADM3_TH":"ดู่ทุ่ง","ADM3_PCODE":"TH350106","ADM2_EN":"Mueang Yasothon","ADM2_TH":"เมืองยโสธร","ADM2_PCODE":"TH3501","ADM1_EN":"Yasothon","ADM1_TH":"ยโสธร","ADM1_PCODE":"TH35","ADM0_EN":"Thailand","ADM0_TH":"ประเทศไทย","ADM0_PCODE":"TH"}},{"arcs":[[-24,25,26,27]],"type":"Polygon","properties":{"Shape_Leng":0.436956379286,"Shape_Area":0.00525969884348,"ADM3_EN":"Doet","ADM3_TH":"เดิด","ADM3_PCODE":"TH350107","ADM2_EN":"Mueang Yasothon","ADM2_TH":"เมืองยโสธร","ADM2_PCODE":"TH3501","ADM1_EN":"Yasothon","ADM1_TH":"ยโสธร","ADM1_PCODE":"TH35","ADM0_EN":"Thailand","ADM0_TH":"ประเทศไทย","ADM0_PCODE":"TH"}},{"arcs":[[-19,-25,-28,28,29,30]],"type":"Polygon","properties":{"Shape_Leng":0.296921511074,"Shape_Area":0.00304394358546,"ADM3_EN":"Khan Dai Yai","ADM3_TH":"ขั้นไดใหญ่","ADM3_PCODE":"TH350108","ADM2_EN":"Mueang Yasothon","ADM2_TH":"เมืองยโสธร","ADM2_PCODE":"TH3501","ADM1_EN":"Yasothon","ADM1_TH":"ยโสธร","ADM1_PCODE":"TH35","ADM0_EN":"Thailand","ADM0_TH":"ประเทศไทย","ADM0_PCODE":"TH"}},{"arcs":[[-30,31,32,33,34,35]],"type":"Polygon","properties":{"Shape_Leng":0.27166339375,"Shape_Area":0.00355398598055,"ADM3_EN":"Thung Tae","ADM3_TH":"ทุ่งแต้","ADM3_PCODE":"TH350109","ADM2_EN":"Mueang Yasothon","ADM2_TH":"เมืองยโสธร","ADM2_PCODE":"TH3501","ADM1_EN":"Yasothon","ADM1_TH":"ยโสธร","ADM1_PCODE":"TH35","ADM0_EN":"Thailand","ADM0_TH":"ประเทศไทย","ADM0_PCODE":"TH"}},{"arcs":[[-9,36,37,38,39,-11]],"type":"Polygon","properties":{"Shape_Leng":0.260468941357,"Shape_Area":0.00326440344457,"ADM3_EN":"Sing","ADM3_TH":"สิงห์","ADM3_PCODE":"TH350110","ADM2_EN":"Mueang Yasothon","ADM2_TH":"เมืองยโสธร","ADM2_PCODE":"TH3501","ADM1_EN":"Yasothon","ADM1_TH":"ยโสธร","ADM1_PCODE":"TH35","ADM0_EN":"Thailand","ADM0_TH":"ประเทศไทย","ADM0_PCODE":"TH"}},{"arcs":[[-34,40,41,42,43]],"type":"Polygon","properties":{"Shape_Leng":0.294141641963,"Shape_Area":0.0033728365546,"ADM3_EN":"Na Samai","ADM3_TH":"นาสะไมย์","ADM3_PCODE":"TH350111","ADM2_EN":"Mueang Yasothon","ADM2_TH":"เมืองยโสธร","ADM2_PCODE":"TH3501","ADM1_EN":"Yasothon","ADM1_TH":"ยโสธร","ADM1_PCODE":"TH35","ADM0_EN":"Thailand","ADM0_TH":"ประเทศไทย","ADM0_PCODE":"TH"}},{"arcs":[[-2,-15,44,45]],"type":"Polygon","properties":{"Shape_Leng":0.453773122604,"Shape_Area":0.00442398143075,"ADM3_EN":"Khueang Kham","ADM3_TH":"เขื่องคำ","ADM3_PCODE":"TH350112","ADM2_EN":"Mueang Yasothon","ADM2_TH":"เมืองยโสธร","ADM2_PCODE":"TH3501","ADM1_EN":"Yasothon","ADM1_TH":"ยโสธร","ADM1_PCODE":"TH35","ADM0_EN":"Thailand","ADM0_TH":"ประเทศไทย","ADM0_PCODE":"TH"}},{"arcs":[[-38,46,-43,47,48,49]],"type":"Polygon","properties":{"Shape_Leng":0.289865738313,"Shape_Area":0.00343684130183,"ADM3_EN":"Nong Hin","ADM3_TH":"หนองหิน","ADM3_PCODE":"TH350113","ADM2_EN":"Mueang Yasothon","ADM2_TH":"เมืองยโสธร","ADM2_PCODE":"TH3501","ADM1_EN":"Yasothon","ADM1_TH":"ยโสธร","ADM1_PCODE":"TH35","ADM0_EN":"Thailand","ADM0_TH":"ประเทศไทย","ADM0_PCODE":"TH"}},{"arcs":[[-12,-40,50,51]],"type":"Polygon","properties":{"Shape_Leng":0.212464628067,"Shape_Area":0.00192303179924,"ADM3_EN":"Nong Khu","ADM3_TH":"หนองคู","ADM3_PCODE":"TH350114","ADM2_EN":"Mueang Yasothon","ADM2_TH":"เมืองยโสธร","ADM2_PCODE":"TH3501","ADM1_EN":"Yasothon","ADM1_TH":"ยโสธร","ADM1_PCODE":"TH35","ADM0_EN":"Thailand","ADM0_TH":"ประเทศไทย","ADM0_PCODE":"TH"}},{"arcs":[[-14,52,53,-45]],"type":"Polygon","properties":{"Shape_Leng":0.2706923287,"Shape_Area":0.00228003803237,"ADM3_EN":"Khum Ngoen","ADM3_TH":"ขุมเงิน","ADM3_PCODE":"TH350115","ADM2_EN":"Mueang Yasothon","ADM2_TH":"เมืองยโสธร","ADM2_PCODE":"TH3501","ADM1_EN":"Yasothon","ADM1_TH":"ยโสธร","ADM1_PCODE":"TH35","ADM0_EN":"Thailand","ADM0_TH":"ประเทศไทย","ADM0_PCODE":"TH"}},{"arcs":[[-7,-20,-31,-36,54]],"type":"Polygon","properties":{"Shape_Leng":0.21690412621,"Shape_Area":0.00218860547094,"ADM3_EN":"Thung Nang Ok","ADM3_TH":"ทุ่งนางโอก","ADM3_PCODE":"TH350116","ADM2_EN":"Mueang Yasothon","ADM2_TH":"เมืองยโสธร","ADM2_PCODE":"TH3501","ADM1_EN":"Yasothon","ADM1_TH":"ยโสธร","ADM1_PCODE":"TH35","ADM0_EN":"Thailand","ADM0_TH":"ประเทศไทย","ADM0_PCODE":"TH"}},{"arcs":[[-8,-55,-35,-44,-47,-37]],"type":"Polygon","properties":{"Shape_Leng":0.175919272484,"Shape_Area":0.00142047379372,"ADM3_EN":"Nong Ruea","ADM3_TH":"หนองเรือ","ADM3_PCODE":"TH350117","ADM2_EN":"Mueang Yasothon","ADM2_TH":"เมืองยโสธร","ADM2_PCODE":"TH3501","ADM1_EN":"Yasothon","ADM1_TH":"ยโสธร","ADM1_PCODE":"TH35","ADM0_EN":"Thailand","ADM0_TH":"ประเทศไทย","ADM0_PCODE":"TH"}},{"arcs":[[-49,55,56,57,58,59]],"type":"Polygon","properties":{"Shape_Leng":0.29334179807,"Shape_Area":0.00288892732931,"ADM3_EN":"Nong Pet","ADM3_TH":"หนองเป็ด","ADM3_PCODE":"TH350118","ADM2_EN":"Mueang Yasothon","ADM2_TH":"เมืองยโสธร","ADM2_PCODE":"TH3501","ADM1_EN":"Yasothon","ADM1_TH":"ยโสธร","ADM1_PCODE":"TH35","ADM0_EN":"Thailand","ADM0_TH":"ประเทศไทย","ADM0_PCODE":"TH"}},{"arcs":[[-33,60,61,62,63,-41]],"type":"Polygon","properties":{"Shape_Leng":0.335234488787,"Shape_Area":0.00479734939165,"ADM3_EN":"Sai Mun","ADM3_TH":"ทรายมูล","ADM3_PCODE":"TH350201","ADM2_EN":"Sai Mun","ADM2_TH":"ทรายมูล","ADM2_PCODE":"TH3502","ADM1_EN":"Yasothon","ADM1_TH":"ยโสธร","ADM1_PCODE":"TH35","ADM0_EN":"Thailand","ADM0_TH":"ประเทศไทย","ADM0_PCODE":"TH"}},{"arcs":[[-61,64,65,66,67]],"type":"Polygon","properties":{"Shape_Leng":0.310614512346,"Shape_Area":0.00366592192036,"ADM3_EN":"Du Lat","ADM3_TH":"ดู่ลาด","ADM3_PCODE":"TH350202","ADM2_EN":"Sai Mun","ADM2_TH":"ทรายมูล","ADM2_PCODE":"TH3502","ADM1_EN":"Yasothon","ADM1_TH":"ยโสธร","ADM1_PCODE":"TH35","ADM0_EN":"Thailand","ADM0_TH":"ประเทศไทย","ADM0_PCODE":"TH"}},{"arcs":[[-27,68,69,70,-65,-32,-29]],"type":"Polygon","properties":{"Shape_Leng":0.384100881818,"Shape_Area":0.00545727574666,"ADM3_EN":"Dong Mafai","ADM3_TH":"ดงมะไฟ","ADM3_PCODE":"TH350203","ADM2_EN":"Sai Mun","ADM2_TH":"ทรายมูล","ADM2_PCODE":"TH3502","ADM1_EN":"Yasothon","ADM1_TH":"ยโสธร","ADM1_PCODE":"TH35","ADM0_EN":"Thailand","ADM0_TH":"ประเทศไทย","ADM0_PCODE":"TH"}},{"arcs":[[-70,71,72]],"type":"Polygon","properties":{"Shape_Leng":0.259609423366,"Shape_Area":0.00271793538251,"ADM3_EN":"Na Wiang","ADM3_TH":"นาเวียง","ADM3_PCODE":"TH350204","ADM2_EN":"Sai Mun","ADM2_TH":"ทรายมูล","ADM2_PCODE":"TH3502","ADM1_EN":"Yasothon","ADM1_TH":"ยโสธร","ADM1_PCODE":"TH35","ADM0_EN":"Thailand","ADM0_TH":"ประเทศไทย","ADM0_PCODE":"TH"}},{"arcs":[[-42,-64,73,74,-56,-48]],"type":"Polygon","properties":{"Shape_Leng":0.299556975637,"Shape_Area":0.00322032701869,"ADM3_EN":"Phai","ADM3_TH":"ไผ่","ADM3_PCODE":"TH350205","ADM2_EN":"Sai Mun","ADM2_TH":"ทรายมูล","ADM2_PCODE":"TH3502","ADM1_EN":"Yasothon","ADM1_TH":"ยโสธร","ADM1_PCODE":"TH35","ADM0_EN":"Thailand","ADM0_TH":"ประเทศไทย","ADM0_PCODE":"TH"}},{"arcs":[[75,76,77,78,79,80,81]],"type":"Polygon","properties":{"Shape_Leng":0.601232159368,"Shape_Area":0.00693379169163,"ADM3_EN":"Kut Chum","ADM3_TH":"กุดชุม","ADM3_PCODE":"TH350301","ADM2_EN":"Kut Chum","ADM2_TH":"กุดชุม","ADM2_PCODE":"TH3503","ADM1_EN":"Yasothon","ADM1_TH":"ยโสธร","ADM1_PCODE":"TH35","ADM0_EN":"Thailand","ADM0_TH":"ประเทศไทย","ADM0_PCODE":"TH"}},{"arcs":[[-77,82,83,84,85,86,87]],"type":"Polygon","properties":{"Shape_Leng":0.487176654449,"Shape_Area":0.00583355848008,"ADM3_EN":"Non Pueai","ADM3_TH":"โนนเปือย","ADM3_PCODE":"TH350302","ADM2_EN":"Kut Chum","ADM2_TH":"กุดชุม","ADM2_PCODE":"TH3503","ADM1_EN":"Yasothon","ADM1_TH":"ยโสธร","ADM1_PCODE":"TH35","ADM0_EN":"Thailand","ADM0_TH":"ประเทศไทย","ADM0_PCODE":"TH"}},{"arcs":[[-57,-75,88,-87,89]],"type":"Polygon","properties":{"Shape_Leng":0.424346907449,"Shape_Area":0.00577840150944,"ADM3_EN":"Kammaet","ADM3_TH":"กำแมด","ADM3_PCODE":"TH350303","ADM2_EN":"Kut Chum","ADM2_TH":"กุดชุม","ADM2_PCODE":"TH3503","ADM1_EN":"Yasothon","ADM1_TH":"ยโสธร","ADM1_PCODE":"TH35","ADM0_EN":"Thailand","ADM0_TH":"ประเทศไทย","ADM0_PCODE":"TH"}},{"arcs":[[-63,90,-88,-89,-74]],"type":"Polygon","properties":{"Shape_Leng":0.294998093712,"Shape_Area":0.0025949843341,"ADM3_EN":"Na So","ADM3_TH":"นาโส่","ADM3_PCODE":"TH350304","ADM2_EN":"Kut Chum","ADM2_TH":"กุดชุม","ADM2_PCODE":"TH3503","ADM1_EN":"Yasothon","ADM1_TH":"ยโสธร","ADM1_PCODE":"TH35","ADM0_EN":"Thailand","ADM0_TH":"ประเทศไทย","ADM0_PCODE":"TH"}},{"arcs":[[-62,-68,91,-78,-91]],"type":"Polygon","properties":{"Shape_Leng":0.348791568836,"Shape_Area":0.00410497975329,"ADM3_EN":"Huai Kaeng","ADM3_TH":"ห้วยแก้ง","ADM3_PCODE":"TH350305","ADM2_EN":"Kut Chum","ADM2_TH":"กุดชุม","ADM2_PCODE":"TH3503","ADM1_EN":"Yasothon","ADM1_TH":"ยโสธร","ADM1_PCODE":"TH35","ADM0_EN":"Thailand","ADM0_TH":"ประเทศไทย","ADM0_PCODE":"TH"}},{"arcs":[[-67,92,93,-79,-92]],"type":"Polygon","properties":{"Shape_Leng":0.345261655758,"Shape_Area":0.00436124355964,"ADM3_EN":"Nong Mi","ADM3_TH":"หนองหมี","ADM3_PCODE":"TH350306","ADM2_EN":"Kut Chum","ADM2_TH":"กุดชุม","ADM2_PCODE":"TH3503","ADM1_EN":"Yasothon","ADM1_TH":"ยโสธร","ADM1_PCODE":"TH35","ADM0_EN":"Thailand","ADM0_TH":"ประเทศไทย","ADM0_PCODE":"TH"}},{"arcs":[[-66,-71,-73,94,95,96,-93]],"type":"Polygon","properties":{"Shape_Leng":0.601081769142,"Shape_Area":0.00818236948379,"ADM3_EN":"Phon Ngam","ADM3_TH":"โพนงาม","ADM3_PCODE":"TH350307","ADM2_EN":"Kut Chum","ADM2_TH":"กุดชุม","ADM2_PCODE":"TH3503","ADM1_EN":"Yasothon","ADM1_TH":"ยโสธร","ADM1_PCODE":"TH35","ADM0_EN":"Thailand","ADM0_TH":"ประเทศไทย","ADM0_PCODE":"TH"}},{"arcs":[[-80,-94,-97,97]],"type":"Polygon","properties":{"Shape_Leng":0.340258247022,"Shape_Area":0.00400764758233,"ADM3_EN":"Kham Nam Sang","ADM3_TH":"คำน้ำสร้าง","ADM3_PCODE":"TH350308","ADM2_EN":"Kut Chum","ADM2_TH":"กุดชุม","ADM2_PCODE":"TH3503","ADM1_EN":"Yasothon","ADM1_TH":"ยโสธร","ADM1_PCODE":"TH35","ADM0_EN":"Thailand","ADM0_TH":"ประเทศไทย","ADM0_PCODE":"TH"}},{"arcs":[[-81,-98,-96,98,99]],"type":"Polygon","properties":{"Shape_Leng":0.468178878511,"Shape_Area":0.00643196566309,"ADM3_EN":"Nong Nae","ADM3_TH":"หนองแหน","ADM3_PCODE":"TH350309","ADM2_EN":"Kut Chum","ADM2_TH":"กุดชุม","ADM2_PCODE":"TH3503","ADM1_EN":"Yasothon","ADM1_TH":"ยโสธร","ADM1_PCODE":"TH35","ADM0_EN":"Thailand","ADM0_TH":"ประเทศไทย","ADM0_PCODE":"TH"}},{"arcs":[[100,101,102,103,104,105,106,107,108,109]],"type":"Polygon","properties":{"Shape_Leng":0.485211950198,"Shape_Area":0.00686509902307,"ADM3_EN":"Lumphuk","ADM3_TH":"ลุมพุก","ADM3_PCODE":"TH350401","ADM2_EN":"Kham Khuean Kaeo","ADM2_TH":"คำเขื่อนแก้ว","ADM2_PCODE":"TH3504","ADM1_EN":"Yasothon","ADM1_TH":"ยโสธร","ADM1_PCODE":"TH35","ADM0_EN":"Thailand","ADM0_TH":"ประเทศไทย","ADM0_PCODE":"TH"}},{"arcs":[[-13,110,111,112,113,114,-53]],"type":"Polygon","properties":{"Shape_Leng":0.323100913505,"Shape_Area":0.00371583387142,"ADM3_EN":"Yo","ADM3_TH":"ย่อ","ADM3_PCODE":"TH350402","ADM2_EN":"Kham Khuean Kaeo","ADM2_TH":"คำเขื่อนแก้ว","ADM2_PCODE":"TH3504","ADM1_EN":"Yasothon","ADM1_TH":"ยโสธร","ADM1_PCODE":"TH35","ADM0_EN":"Thailand","ADM0_TH":"ประเทศไทย","ADM0_PCODE":"TH"}},{"arcs":[[-107,115,116,-114,117]],"type":"Polygon","properties":{"Shape_Leng":0.33470118388,"Shape_Area":0.00405931839505,"ADM3_EN":"Song Pueai","ADM3_TH":"สงเปือย","ADM3_PCODE":"TH350403","ADM2_EN":"Kham Khuean Kaeo","ADM2_TH":"คำเขื่อนแก้ว","ADM2_PCODE":"TH3504","ADM1_EN":"Yasothon","ADM1_TH":"ยโสธร","ADM1_PCODE":"TH35","ADM0_EN":"Thailand","ADM0_TH":"ประเทศไทย","ADM0_PCODE":"TH"}},{"arcs":[[-108,-118,-113,118]],"type":"Polygon","properties":{"Shape_Leng":0.16602799563,"Shape_Area":0.00130298139179,"ADM3_EN":"Phon Than","ADM3_TH":"โพนทัน","ADM3_PCODE":"TH350404","ADM2_EN":"Kham Khuean Kaeo","ADM2_TH":"คำเขื่อนแก้ว","ADM2_PCODE":"TH3504","ADM1_EN":"Yasothon","ADM1_TH":"ยโสธร","ADM1_PCODE":"TH35","ADM0_EN":"Thailand","ADM0_TH":"ประเทศไทย","ADM0_PCODE":"TH"}},{"arcs":[[-52,119,120,121,-110,122,-111]],"type":"Polygon","properties":{"Shape_Leng":0.363206476242,"Shape_Area":0.00386852216779,"ADM3_EN":"Thung Mon","ADM3_TH":"ทุ่งมน","ADM3_PCODE":"TH350405","ADM2_EN":"Kham Khuean Kaeo","ADM2_TH":"คำเขื่อนแก้ว","ADM2_PCODE":"TH3504","ADM1_EN":"Yasothon","ADM1_TH":"ยโสธร","ADM1_PCODE":"TH35","ADM0_EN":"Thailand","ADM0_TH":"ประเทศไทย","ADM0_PCODE":"TH"}},{"arcs":[[-103,123,124,125,126,127]],"type":"Polygon","properties":{"Shape_Leng":0.28765558814,"Shape_Area":0.00247450239121,"ADM3_EN":"Na Kham","ADM3_TH":"นาคำ","ADM3_PCODE":"TH350406","ADM2_EN":"Kham Khuean Kaeo","ADM2_TH":"คำเขื่อนแก้ว","ADM2_PCODE":"TH3504","ADM1_EN":"Yasothon","ADM1_TH":"ยโสธร","ADM1_PCODE":"TH35","ADM0_EN":"Thailand","ADM0_TH":"ประเทศไทย","ADM0_PCODE":"TH"}},{"arcs":[[-127,128,129,130,131]],"type":"Polygon","properties":{"Shape_Leng":0.303998388563,"Shape_Area":0.00421440296895,"ADM3_EN":"Dong Khaen Yai","ADM3_TH":"ดงแคนใหญ่","ADM3_PCODE":"TH350407","ADM2_EN":"Kham Khuean Kaeo","ADM2_TH":"คำเขื่อนแก้ว","ADM2_PCODE":"TH3504","ADM1_EN":"Yasothon","ADM1_TH":"ยโสธร","ADM1_PCODE":"TH35","ADM0_EN":"Thailand","ADM0_TH":"ประเทศไทย","ADM0_PCODE":"TH"}},{"arcs":[[-102,132,133,-124]],"type":"Polygon","properties":{"Shape_Leng":0.423287776232,"Shape_Area":0.00467985782001,"ADM3_EN":"Ku Chan","ADM3_TH":"กู่จาน","ADM3_PCODE":"TH350408","ADM2_EN":"Kham Khuean Kaeo","ADM2_TH":"คำเขื่อนแก้ว","ADM2_PCODE":"TH3504","ADM1_EN":"Yasothon","ADM1_TH":"ยโสธร","ADM1_PCODE":"TH35","ADM0_EN":"Thailand","ADM0_TH":"ประเทศไทย","ADM0_PCODE":"TH"}},{"arcs":[[-126,134,-129]],"type":"Polygon","properties":{"Shape_Leng":0.432380119002,"Shape_Area":0.00483151473077,"ADM3_EN":"Na Kae","ADM3_TH":"นาแก","ADM3_PCODE":"TH350409","ADM2_EN":"Kham Khuean Kaeo","ADM2_TH":"คำเขื่อนแก้ว","ADM2_PCODE":"TH3504","ADM1_EN":"Yasothon","ADM1_TH":"ยโสธร","ADM1_PCODE":"TH35","ADM0_EN":"Thailand","ADM0_TH":"ประเทศไทย","ADM0_PCODE":"TH"}},{"arcs":[[-106,135,136,137,-116]],"type":"Polygon","properties":{"Shape_Leng":0.293025245108,"Shape_Area":0.00308123335626,"ADM3_EN":"Kut Kung","ADM3_TH":"กุดกุง","ADM3_PCODE":"TH350410","ADM2_EN":"Kham Khuean Kaeo","ADM2_TH":"คำเขื่อนแก้ว","ADM2_PCODE":"TH3504","ADM1_EN":"Yasothon","ADM1_TH":"ยโสธร","ADM1_PCODE":"TH35","ADM0_EN":"Thailand","ADM0_TH":"ประเทศไทย","ADM0_PCODE":"TH"}},{"arcs":[[-101,-122,138,139,140,-133]],"type":"Polygon","properties":{"Shape_Leng":0.372460000244,"Shape_Area":0.00273368936138,"ADM3_EN":"Lao Hai","ADM3_TH":"เหล่าไฮ","ADM3_PCODE":"TH350411","ADM2_EN":"Kham Khuean Kaeo","ADM2_TH":"คำเขื่อนแก้ว","ADM2_PCODE":"TH3504","ADM1_EN":"Yasothon","ADM1_TH":"ยโสธร","ADM1_PCODE":"TH35","ADM0_EN":"Thailand","ADM0_TH":"ประเทศไทย","ADM0_PCODE":"TH"}},{"arcs":[[-104,-128,-132,141,142,143]],"type":"Polygon","properties":{"Shape_Leng":0.217180977346,"Shape_Area":0.00244004160798,"ADM3_EN":"Khaen Noi","ADM3_TH":"แคนน้อย","ADM3_PCODE":"TH350412","ADM2_EN":"Kham Khuean Kaeo","ADM2_TH":"คำเขื่อนแก้ว","ADM2_PCODE":"TH3504","ADM1_EN":"Yasothon","ADM1_TH":"ยโสธร","ADM1_PCODE":"TH35","ADM0_EN":"Thailand","ADM0_TH":"ประเทศไทย","ADM0_PCODE":"TH"}},{"arcs":[[-109,-119,-112,-123]],"type":"Polygon","properties":{"Shape_Leng":0.187602945001,"Shape_Area":0.00207245645687,"ADM3_EN":"Dong Charoen","ADM3_TH":"ดงเจริญ","ADM3_PCODE":"TH350413","ADM2_EN":"Kham Khuean Kaeo","ADM2_TH":"คำเขื่อนแก้ว","ADM2_PCODE":"TH3504","ADM1_EN":"Yasothon","ADM1_TH":"ยโสธร","ADM1_PCODE":"TH35","ADM0_EN":"Thailand","ADM0_TH":"ประเทศไทย","ADM0_PCODE":"TH"}},{"arcs":[[-59,144,145,146,147]],"type":"Polygon","properties":{"Shape_Leng":0.356688565444,"Shape_Area":0.00430802706511,"ADM3_EN":"Pho Sai","ADM3_TH":"โพธิ์ไทร","ADM3_PCODE":"TH350501","ADM2_EN":"Pa Tio","ADM2_TH":"ป่าติ้ว","ADM2_PCODE":"TH3505","ADM1_EN":"Yasothon","ADM1_TH":"ยโสธร","ADM1_PCODE":"TH35","ADM0_EN":"Thailand","ADM0_TH":"ประเทศไทย","ADM0_PCODE":"TH"}},{"arcs":[[-39,-50,-60,-148,148,-120,-51]],"type":"Polygon","properties":{"Shape_Leng":0.447633845026,"Shape_Area":0.00562359653759,"ADM3_EN":"Krachai","ADM3_TH":"กระจาย","ADM3_PCODE":"TH350502","ADM2_EN":"Pa Tio","ADM2_TH":"ป่าติ้ว","ADM2_PCODE":"TH3505","ADM1_EN":"Yasothon","ADM1_TH":"ยโสธร","ADM1_PCODE":"TH35","ADM0_EN":"Thailand","ADM0_TH":"ประเทศไทย","ADM0_PCODE":"TH"}},{"arcs":[[-58,-90,-86,149,150,151,-145]],"type":"Polygon","properties":{"Shape_Leng":0.610635620086,"Shape_Area":0.00971315928522,"ADM3_EN":"Khok Na Ko","ADM3_TH":"โคกนาโก","ADM3_PCODE":"TH350503","ADM2_EN":"Pa Tio","ADM2_TH":"ป่าติ้ว","ADM2_PCODE":"TH3505","ADM1_EN":"Yasothon","ADM1_TH":"ยโสธร","ADM1_PCODE":"TH35","ADM0_EN":"Thailand","ADM0_TH":"ประเทศไทย","ADM0_PCODE":"TH"}},{"arcs":[[-140,152,-146,-152,153]],"type":"Polygon","properties":{"Shape_Leng":0.435124055333,"Shape_Area":0.00249889134174,"ADM3_EN":"Chiang Pheng","ADM3_TH":"เชียงเพ็ง","ADM3_PCODE":"TH350504","ADM2_EN":"Pa Tio","ADM2_TH":"ป่าติ้ว","ADM2_PCODE":"TH3505","ADM1_EN":"Yasothon","ADM1_TH":"ยโสธร","ADM1_PCODE":"TH35","ADM0_EN":"Thailand","ADM0_TH":"ประเทศไทย","ADM0_PCODE":"TH"}},{"arcs":[[-121,-149,-147,-153,-139]],"type":"Polygon","properties":{"Shape_Leng":0.306260716106,"Shape_Area":0.00413823914085,"ADM3_EN":"Si Than","ADM3_TH":"ศรีฐาน","ADM3_PCODE":"TH350505","ADM2_EN":"Pa Tio","ADM2_TH":"ป่าติ้ว","ADM2_PCODE":"TH3505","ADM1_EN":"Yasothon","ADM1_TH":"ยโสธร","ADM1_PCODE":"TH35","ADM0_EN":"Thailand","ADM0_TH":"ประเทศไทย","ADM0_PCODE":"TH"}},{"arcs":[[154,155,156,157,158,159,160]],"type":"Polygon","properties":{"Shape_Leng":0.325640229851,"Shape_Area":0.00450756919393,"ADM3_EN":"Fa Yat","ADM3_TH":"ฟ้าหยาด","ADM3_PCODE":"TH350601","ADM2_EN":"Maha Chana Chai","ADM2_TH":"มหาชนะชัย","ADM2_PCODE":"TH3506","ADM1_EN":"Yasothon","ADM1_TH":"ยโสธร","ADM1_PCODE":"TH35","ADM0_EN":"Thailand","ADM0_TH":"ประเทศไทย","ADM0_PCODE":"TH"}},{"arcs":[[-137,161,-161,162,163,164]],"type":"Polygon","properties":{"Shape_Leng":0.365235046107,"Shape_Area":0.00405259092531,"ADM3_EN":"Hua Mueang","ADM3_TH":"หัวเมือง","ADM3_PCODE":"TH350602","ADM2_EN":"Maha Chana Chai","ADM2_TH":"มหาชนะชัย","ADM2_PCODE":"TH3506","ADM1_EN":"Yasothon","ADM1_TH":"ยโสธร","ADM1_PCODE":"TH35","ADM0_EN":"Thailand","ADM0_TH":"ประเทศไทย","ADM0_PCODE":"TH"}},{"arcs":[[-160,165,166,167,-163]],"type":"Polygon","properties":{"Shape_Leng":0.293977981445,"Shape_Area":0.00481230018192,"ADM3_EN":"Khu Mueang","ADM3_TH":"คูเมือง","ADM3_PCODE":"TH350603","ADM2_EN":"Maha Chana Chai","ADM2_TH":"มหาชนะชัย","ADM2_PCODE":"TH3506","ADM1_EN":"Yasothon","ADM1_TH":"ยโสธร","ADM1_PCODE":"TH35","ADM0_EN":"Thailand","ADM0_TH":"ประเทศไทย","ADM0_PCODE":"TH"}},{"arcs":[[-158,168,169,170,171]],"type":"Polygon","properties":{"Shape_Leng":0.308375503663,"Shape_Area":0.00265594211177,"ADM3_EN":"Phue Hi","ADM3_TH":"ผือฮี","ADM3_PCODE":"TH350604","ADM2_EN":"Maha Chana Chai","ADM2_TH":"มหาชนะชัย","ADM2_PCODE":"TH3506","ADM1_EN":"Yasothon","ADM1_TH":"ยโสธร","ADM1_PCODE":"TH35","ADM0_EN":"Thailand","ADM0_TH":"ประเทศไทย","ADM0_PCODE":"TH"}},{"arcs":[[-105,-144,172,-155,-162,-136]],"type":"Polygon","properties":{"Shape_Leng":0.306234286585,"Shape_Area":0.00348642218567,"ADM3_EN":"Bak Ruea","ADM3_TH":"บากเรือ","ADM3_PCODE":"TH350605","ADM2_EN":"Maha Chana Chai","ADM2_TH":"มหาชนะชัย","ADM2_PCODE":"TH3506","ADM1_EN":"Yasothon","ADM1_TH":"ยโสธร","ADM1_PCODE":"TH35","ADM0_EN":"Thailand","ADM0_TH":"ประเทศไทย","ADM0_PCODE":"TH"}},{"arcs":[[-157,173,174,175,-169]],"type":"Polygon","properties":{"Shape_Leng":0.398430399236,"Shape_Area":0.00422764099194,"ADM3_EN":"Muang","ADM3_TH":"ม่วง","ADM3_PCODE":"TH350606","ADM2_EN":"Maha Chana Chai","ADM2_TH":"มหาชนะชัย","ADM2_PCODE":"TH3506","ADM1_EN":"Yasothon","ADM1_TH":"ยโสธร","ADM1_PCODE":"TH35","ADM0_EN":"Thailand","ADM0_TH":"ประเทศไทย","ADM0_PCODE":"TH"}},{"arcs":[[-143,176,-174,-156,-173]],"type":"Polygon","properties":{"Shape_Leng":0.258972428748,"Shape_Area":0.00181917707863,"ADM3_EN":"Non Sai","ADM3_TH":"โนนทราย","ADM3_PCODE":"TH350607","ADM2_EN":"Maha Chana Chai","ADM2_TH":"มหาชนะชัย","ADM2_PCODE":"TH3506","ADM1_EN":"Yasothon","ADM1_TH":"ยโสธร","ADM1_PCODE":"TH35","ADM0_EN":"Thailand","ADM0_TH":"ประเทศไทย","ADM0_PCODE":"TH"}},{"arcs":[[-131,177,178,-175,-177,-142]],"type":"Polygon","properties":{"Shape_Leng":0.324741985176,"Shape_Area":0.00420016880097,"ADM3_EN":"Bueng Kae","ADM3_TH":"บึงแก","ADM3_PCODE":"TH350608","ADM2_EN":"Maha Chana Chai","ADM2_TH":"มหาชนะชัย","ADM2_PCODE":"TH3506","ADM1_EN":"Yasothon","ADM1_TH":"ยโสธร","ADM1_PCODE":"TH35","ADM0_EN":"Thailand","ADM0_TH":"ประเทศไทย","ADM0_PCODE":"TH"}},{"arcs":[[-164,-168,179]],"type":"Polygon","properties":{"Shape_Leng":0.238123957324,"Shape_Area":0.00282973945428,"ADM3_EN":"Phra Sao","ADM3_TH":"พระเสาร์","ADM3_PCODE":"TH350609","ADM2_EN":"Maha Chana Chai","ADM2_TH":"มหาชนะชัย","ADM2_PCODE":"TH3506","ADM1_EN":"Yasothon","ADM1_TH":"ยโสธร","ADM1_PCODE":"TH35","ADM0_EN":"Thailand","ADM0_TH":"ประเทศไทย","ADM0_PCODE":"TH"}},{"arcs":[[-159,-172,180,181,-166]],"type":"Polygon","properties":{"Shape_Leng":0.220205480733,"Shape_Area":0.00286302149596,"ADM3_EN":"Song Yang","ADM3_TH":"สงยาง","ADM3_PCODE":"TH350610","ADM2_EN":"Maha Chana Chai","ADM2_TH":"มหาชนะชัย","ADM2_PCODE":"TH3506","ADM1_EN":"Yasothon","ADM1_TH":"ยโสธร","ADM1_PCODE":"TH35","ADM0_EN":"Thailand","ADM0_TH":"ประเทศไทย","ADM0_PCODE":"TH"}},{"arcs":[[182,183,184]],"type":"Polygon","properties":{"Shape_Leng":0.393779729158,"Shape_Area":0.00425247133186,"ADM3_EN":"Fa Huan","ADM3_TH":"ฟ้าห่วน","ADM3_PCODE":"TH350701","ADM2_EN":"Kho Wang","ADM2_TH":"ค้อวัง","ADM2_PCODE":"TH3507","ADM1_EN":"Yasothon","ADM1_TH":"ยโสธร","ADM1_PCODE":"TH35","ADM0_EN":"Thailand","ADM0_TH":"ประเทศไทย","ADM0_PCODE":"TH"}},{"arcs":[[-170,-176,-179,185,-184,186,187]],"type":"Polygon","properties":{"Shape_Leng":0.354108527283,"Shape_Area":0.00422965188706,"ADM3_EN":"Kut Nam Sai","ADM3_TH":"กุดน้ำใส","ADM3_PCODE":"TH350702","ADM2_EN":"Kho Wang","ADM2_TH":"ค้อวัง","ADM2_PCODE":"TH3507","ADM1_EN":"Yasothon","ADM1_TH":"ยโสธร","ADM1_PCODE":"TH35","ADM0_EN":"Thailand","ADM0_TH":"ประเทศไทย","ADM0_PCODE":"TH"}},{"arcs":[[-171,-188,188,189,-181]],"type":"Polygon","properties":{"Shape_Leng":0.273755690011,"Shape_Area":0.00428276080651,"ADM3_EN":"Nam Om","ADM3_TH":"น้ำอ้อม","ADM3_PCODE":"TH350703","ADM2_EN":"Kho Wang","ADM2_TH":"ค้อวัง","ADM2_PCODE":"TH3507","ADM1_EN":"Yasothon","ADM1_TH":"ยโสธร","ADM1_PCODE":"TH35","ADM0_EN":"Thailand","ADM0_TH":"ประเทศไทย","ADM0_PCODE":"TH"}},{"arcs":[[-183,190,-189,-187]],"type":"Polygon","properties":{"Shape_Leng":0.330267052766,"Shape_Area":0.00314834809975,"ADM3_EN":"Kho Wang","ADM3_TH":"ค้อวัง","ADM3_PCODE":"TH350704","ADM2_EN":"Kho Wang","ADM2_TH":"ค้อวัง","ADM2_PCODE":"TH3507","ADM1_EN":"Yasothon","ADM1_TH":"ยโสธร","ADM1_PCODE":"TH35","ADM0_EN":"Thailand","ADM0_TH":"ประเทศไทย","ADM0_PCODE":"TH"}},{"arcs":[[191,192]],"type":"Polygon","properties":{"Shape_Leng":0.716482138267,"Shape_Area":0.017689608158,"ADM3_EN":"Bung Kha","ADM3_TH":"บุ่งค้า","ADM3_PCODE":"TH350802","ADM2_EN":"Loeng Nok Tha","ADM2_TH":"เลิงนกทา","ADM2_PCODE":"TH3508","ADM1_EN":"Yasothon","ADM1_TH":"ยโสธร","ADM1_PCODE":"TH35","ADM0_EN":"Thailand","ADM0_TH":"ประเทศไทย","ADM0_PCODE":"TH"}},{"arcs":[[193,194,195,196,197,198,199]],"type":"Polygon","properties":{"Shape_Leng":0.502779214691,"Shape_Area":0.0083296920768,"ADM3_EN":"Sawat","ADM3_TH":"สวาท","ADM3_PCODE":"TH350803","ADM2_EN":"Loeng Nok Tha","ADM2_TH":"เลิงนกทา","ADM2_PCODE":"TH3508","ADM1_EN":"Yasothon","ADM1_TH":"ยโสธร","ADM1_PCODE":"TH35","ADM0_EN":"Thailand","ADM0_TH":"ประเทศไทย","ADM0_PCODE":"TH"}},{"arcs":[[200,201,202,203,204]],"type":"Polygon","properties":{"Shape_Leng":0.477558376546,"Shape_Area":0.00938607629446,"ADM3_EN":"Hong Saeng","ADM3_TH":"ห้องแซง","ADM3_PCODE":"TH350805","ADM2_EN":"Loeng Nok Tha","ADM2_TH":"เลิงนกทา","ADM2_PCODE":"TH3508","ADM1_EN":"Yasothon","ADM1_TH":"ยโสธร","ADM1_PCODE":"TH35","ADM0_EN":"Thailand","ADM0_TH":"ประเทศไทย","ADM0_PCODE":"TH"}},{"arcs":[[-199,205,-201,206,207]],"type":"Polygon","properties":{"Shape_Leng":0.374809252272,"Shape_Area":0.00527735210713,"ADM3_EN":"Samakkhi","ADM3_TH":"สามัคคี","ADM3_PCODE":"TH350806","ADM2_EN":"Loeng Nok Tha","ADM2_TH":"เลิงนกทา","ADM2_PCODE":"TH3508","ADM1_EN":"Yasothon","ADM1_TH":"ยโสธร","ADM1_PCODE":"TH35","ADM0_EN":"Thailand","ADM0_TH":"ประเทศไทย","ADM0_PCODE":"TH"}},{"arcs":[[-205,208,209,-207]],"type":"Polygon","properties":{"Shape_Leng":0.443582140435,"Shape_Area":0.00687690795169,"ADM3_EN":"Kut Chiang Mi","ADM3_TH":"กุดเชียงหมี","ADM3_PCODE":"TH350807","ADM2_EN":"Loeng Nok Tha","ADM2_TH":"เลิงนกทา","ADM2_PCODE":"TH3508","ADM1_EN":"Yasothon","ADM1_TH":"ยโสธร","ADM1_PCODE":"TH35","ADM0_EN":"Thailand","ADM0_TH":"ประเทศไทย","ADM0_PCODE":"TH"}},{"arcs":[[-194,210,211,212]],"type":"Polygon","properties":{"Shape_Leng":0.373953685234,"Shape_Area":0.0049119763431,"ADM3_EN":"Sam Yaek","ADM3_TH":"สามแยก","ADM3_PCODE":"TH350810","ADM2_EN":"Loeng Nok Tha","ADM2_TH":"เลิงนกทา","ADM2_PCODE":"TH3508","ADM1_EN":"Yasothon","ADM1_TH":"ยโสธร","ADM1_PCODE":"TH35","ADM0_EN":"Thailand","ADM0_TH":"ประเทศไทย","ADM0_PCODE":"TH"}},{"arcs":[[-200,-208,-210,213,-211]],"type":"Polygon","properties":{"Shape_Leng":0.415724184759,"Shape_Area":0.00561354988304,"ADM3_EN":"Kut Hae","ADM3_TH":"กุดแห่","ADM3_PCODE":"TH350811","ADM2_EN":"Loeng Nok Tha","ADM2_TH":"เลิงนกทา","ADM2_PCODE":"TH3508","ADM1_EN":"Yasothon","ADM1_TH":"ยโสธร","ADM1_PCODE":"TH35","ADM0_EN":"Thailand","ADM0_TH":"ประเทศไทย","ADM0_PCODE":"TH"}},{"arcs":[[-192,214,215,-195,-213]],"type":"Polygon","properties":{"Shape_Leng":0.404144823842,"Shape_Area":0.00588516772314,"ADM3_EN":"Khok Samran","ADM3_TH":"โคกสำราญ","ADM3_PCODE":"TH350812","ADM2_EN":"Loeng Nok Tha","ADM2_TH":"เลิงนกทา","ADM2_PCODE":"TH3508","ADM1_EN":"Yasothon","ADM1_TH":"ยโสธร","ADM1_PCODE":"TH35","ADM0_EN":"Thailand","ADM0_TH":"ประเทศไทย","ADM0_PCODE":"TH"}},{"arcs":[[-196,-216,216,217,218]],"type":"Polygon","properties":{"Shape_Leng":0.364427851325,"Shape_Area":0.00388831843153,"ADM3_EN":"Sang Ming","ADM3_TH":"สร้างมิ่ง","ADM3_PCODE":"TH350813","ADM2_EN":"Loeng Nok Tha","ADM2_TH":"เลิงนกทา","ADM2_PCODE":"TH3508","ADM1_EN":"Yasothon","ADM1_TH":"ยโสธร","ADM1_PCODE":"TH35","ADM0_EN":"Thailand","ADM0_TH":"ประเทศไทย","ADM0_PCODE":"TH"}},{"arcs":[[-82,-100,219,-203,220,221]],"type":"Polygon","properties":{"Shape_Leng":0.467044081757,"Shape_Area":0.00777513701502,"ADM3_EN":"Si Kaeo","ADM3_TH":"ศรีแก้ว","ADM3_PCODE":"TH350814","ADM2_EN":"Loeng Nok Tha","ADM2_TH":"เลิงนกทา","ADM2_PCODE":"TH3508","ADM1_EN":"Yasothon","ADM1_TH":"ยโสธร","ADM1_PCODE":"TH35","ADM0_EN":"Thailand","ADM0_TH":"ประเทศไทย","ADM0_PCODE":"TH"}},{"arcs":[[-84,222,223,-197,-219,224,225]],"type":"Polygon","properties":{"Shape_Leng":0.429796942909,"Shape_Area":0.00379419900429,"ADM3_EN":"Thai Charoen","ADM3_TH":"ไทยเจริญ","ADM3_PCODE":"TH350901","ADM2_EN":"Thai Charoen","ADM2_TH":"ไทยเจริญ","ADM2_PCODE":"TH3509","ADM1_EN":"Yasothon","ADM1_TH":"ยโสธร","ADM1_PCODE":"TH35","ADM0_EN":"Thailand","ADM0_TH":"ประเทศไทย","ADM0_PCODE":"TH"}},{"arcs":[[-85,-226,226,227,-150]],"type":"Polygon","properties":{"Shape_Leng":0.412707622072,"Shape_Area":0.00504865559972,"ADM3_EN":"Nam Kham","ADM3_TH":"น้ำคำ","ADM3_PCODE":"TH350902","ADM2_EN":"Thai Charoen","ADM2_TH":"ไทยเจริญ","ADM2_PCODE":"TH3509","ADM1_EN":"Yasothon","ADM1_TH":"ยโสธร","ADM1_PCODE":"TH35","ADM0_EN":"Thailand","ADM0_TH":"ประเทศไทย","ADM0_PCODE":"TH"}},{"arcs":[[-198,-224,228,-221,-202,-206]],"type":"Polygon","properties":{"Shape_Leng":0.304334074703,"Shape_Area":0.00496092410764,"ADM3_EN":"Som Pho","ADM3_TH":"ส้มผ่อ","ADM3_PCODE":"TH350903","ADM2_EN":"Thai Charoen","ADM2_TH":"ไทยเจริญ","ADM2_PCODE":"TH3509","ADM1_EN":"Yasothon","ADM1_TH":"ยโสธร","ADM1_PCODE":"TH35","ADM0_EN":"Thailand","ADM0_TH":"ประเทศไทย","ADM0_PCODE":"TH"}},{"arcs":[[-76,-222,-229,-223,-83]],"type":"Polygon","properties":{"Shape_Leng":0.576432010405,"Shape_Area":0.00622024322109,"ADM3_EN":"Kham Toei","ADM3_TH":"คำเตย","ADM3_PCODE":"TH350904","ADM2_EN":"Thai Charoen","ADM2_TH":"ไทยเจริญ","ADM2_PCODE":"TH3509","ADM1_EN":"Yasothon","ADM1_TH":"ยโสธร","ADM1_PCODE":"TH35","ADM0_EN":"Thailand","ADM0_TH":"ประเทศไทย","ADM0_PCODE":"TH"}},{"arcs":[[-218,229,-227,-225]],"type":"Polygon","properties":{"Shape_Leng":0.347575464314,"Shape_Area":0.00318788884415,"ADM3_EN":"Kham Phai","ADM3_TH":"คำไผ่","ADM3_PCODE":"TH350905","ADM2_EN":"Thai Charoen","ADM2_TH":"ไทยเจริญ","ADM2_PCODE":"TH3509","ADM1_EN":"Yasothon","ADM1_TH":"ยโสธร","ADM1_PCODE":"TH35","ADM0_EN":"Thailand","ADM0_TH":"ประเทศไทย","ADM0_PCODE":"TH"}}]}}}