{"type":"FeatureCollection", "features": [
{"type":"Feature","geometry":{"type":"Polygon","coordinates":[[[99.71966184100006,18.604573122000033],[99.70736751700008,18.60520888600007],[99.69044575100008,18.610909157000037],[99.68239905500008,18.609793715000023],[99.67251955600005,18.59766868400004],[99.66248921200008,18.598892204000038],[99.65429139500009,18.593607329000065],[99.65383353100003,18.585173737000048],[99.64795572700007,18.585699428000055],[99.64200936100008,18.581038027000034],[99.63780315200006,18.566093187000035],[99.63848542400007,18.554496421000067],[99.63160108200003,18.543230272000073],[99.61300330700004,18.533442326000056],[99.60997901900004,18.522902803000022],[99.60985691800005,18.513118865000024],[99.60230537600006,18.51603919300004],[99.59199106300008,18.51293725000005],[99.58481752100005,18.516889073000073],[99.57943843300006,18.51220201700005],[99.57826918300003,18.506904811000027],[99.56820962000006,18.503445733000035],[99.55601649600004,18.501961324000035],[99.54052764700003,18.502576720000036],[99.53237614700004,18.491687720000073],[99.52086593000007,18.490334662000066],[99.50750011700006,18.496596339000064],[99.50771641200004,18.501378440000053],[99.50227886500005,18.514430943000036],[99.50495874700005,18.52103091300006],[99.50009376100007,18.52816909200004],[99.49999121700006,18.531233171000054],[99.49269197400008,18.530762544000027],[99.48568349800007,18.525509484000054],[99.45959399900005,18.527790345000028],[99.45665854300006,18.535201952000023],[99.44769938600007,18.539603760000034],[99.44513644000006,18.545970406000038],[99.43912816500006,18.547863306000067],[99.43745219300007,18.55348408800006],[99.43086148100008,18.54764149600004],[99.41402890000006,18.550110698000026],[99.41088088900005,18.55718483000004],[99.41118964800006,18.56690310500005],[99.40519026000004,18.567079978000038],[99.40164003100006,18.571817002000046],[99.39287383600004,18.57534140100006],[99.38284827000007,18.575908132000052],[99.36531433900007,18.582602505000068],[99.35345439600007,18.579382274000068],[99.34386660700005,18.574659028000042],[99.33340339300008,18.57642680600003],[99.32779319400004,18.565709135000077],[99.32980528300004,18.557098317000055],[99.32733232300006,18.55353357100006],[99.32843871900008,18.545564696000042],[99.32276729300008,18.537071275000073],[99.31874860500005,18.535621553000055],[99.31689627000009,18.526174124000022],[99.31957094300009,18.519352986000058],[99.31960643400004,18.504202408000026],[99.32152363400007,18.50029318600002],[99.30850879300004,18.496042298000077],[99.30231199800005,18.49100291700006],[99.31428981600004,18.491002046000062],[99.32141085100005,18.480788577000055],[99.32902911900004,18.475965613000028],[99.33044503300005,18.464740418000076],[99.34247582000006,18.450925511000037],[99.35093251300003,18.44409338300005],[99.36349570800007,18.438185261000058],[99.36972659400004,18.426220354000066],[99.37141743500007,18.415193948000024],[99.38002514500005,18.401209142000027],[99.38700624700004,18.39345577100005],[99.39579130600004,18.38697816800004],[99.39675896400007,18.38923710000006],[99.41418679500003,18.388721713000052],[99.42196158400009,18.380803023000055],[99.42104533300005,18.369114797000066],[99.42377888100003,18.36253270900005],[99.42397495600005,18.341342422000025],[99.42782866400006,18.33587506400005],[99.43614918600008,18.334743100000026],[99.43458264400005,18.32136270600006],[99.43551779300009,18.315383428000075],[99.41750952500007,18.32485868300006],[99.40823392100003,18.314975418000074],[99.42266649900006,18.307009839000045],[99.41614973100008,18.300591694000047],[99.41207707400008,18.292756447000045],[99.41304608400009,18.28899891900005],[99.40539520100003,18.273400476000063],[99.41010121000005,18.269947541000022],[99.40542319800005,18.264618776000077],[99.40865903100007,18.244305449000024],[99.41112298200005,18.241803525000023],[99.41134930200008,18.231599561000053],[99.41649379700004,18.226379889000043],[99.43242440900008,18.21902381600006],[99.43091172500004,18.201874106000048],[99.42766282400004,18.18984746700005],[99.43854830900005,18.18370720000007],[99.45696792100006,18.188725799000053],[99.45934952700009,18.18165642100007],[99.47059729100005,18.18036012700003],[99.47355124900008,18.17717212200006],[99.47860331300006,18.182016185000066],[99.50563298600008,18.18076099800004],[99.51880447000008,18.18487416800002],[99.52969635300008,18.183058234000043],[99.53059559300004,18.188354381000067],[99.53671905500005,18.195334763000062],[99.54408299100004,18.195489355000063],[99.55499684600005,18.19896257000005],[99.56299244900003,18.207600780000064],[99.57978824500003,18.21514640500004],[99.59329127800004,18.23358670300007],[99.59821258000005,18.24259402100006],[99.61333286000007,18.249468939000053],[99.62895774900005,18.258570402000032],[99.62490328600006,18.269890149000048],[99.62455100800008,18.27703015800006],[99.63196767300008,18.284283104000053],[99.63521523800006,18.294271007000077],[99.62670502400005,18.308623281000052],[99.63349538100005,18.31313352600006],[99.64133366500005,18.31383584100007],[99.63589611200007,18.321608538000078],[99.64354587300005,18.326070135000066],[99.64344726800005,18.331064746000038],[99.64891744800008,18.34068998600003],[99.65588868000003,18.340152097000043],[99.65914287000004,18.348356283000044],[99.66651184500006,18.351264599000046],[99.66294132400009,18.355302271000028],[99.66768520200009,18.37474087100003],[99.67078627400008,18.37729760900004],[99.68018386900007,18.40081228200006],[99.68623429300004,18.402216262000024],[99.69972706900006,18.420083255000065],[99.70589909600005,18.419774322000023],[99.71202773300007,18.428891900000053],[99.70687069900004,18.436506372000053],[99.70701954000003,18.444144255000026],[99.72306341100006,18.44696613800005],[99.74651306400006,18.47876265800005],[99.75391054700003,18.499724048000076],[99.77024241200007,18.507981174000065],[99.77302922700005,18.51765365400007],[99.77186247300006,18.523875829000076],[99.76720171000005,18.53047185500003],[99.76778402100007,18.538801180000064],[99.75223353500007,18.542353673000036],[99.74358831900008,18.54107366200003],[99.74020646300005,18.546710284000028],[99.73423238700008,18.547727181000027],[99.73336130200005,18.56116544400004],[99.72023875200006,18.564261518000023],[99.71370245400004,18.576622377000035],[99.72127845500006,18.585306243000048],[99.72369217400006,18.601730557000053],[99.71966184100006,18.604573122000033]]]},"properties":{"Shape_Leng":1.95637239106,"Shape_Area":0.104496451748,"ADM2_EN":"Mueang Lampang","ADM2_TH":"เมืองลำปาง","ADM2_PCODE":"TH5201","ADM1_EN":"Lampang","ADM1_TH":"ลำปาง","ADM1_PCODE":"TH52","ADM0_EN":"Thailand","ADM0_TH":"ประเทศไทย","ADM0_PCODE":"TH"}},
{"type":"Feature","geometry":{"type":"Polygon","coordinates":[[[99.62895774900005,18.258570402000032],[99.62795160100006,18.241983403000063],[99.62417267700005,18.236446862000037],[99.63117072000006,18.223189680000075],[99.64092554300004,18.21877061200007],[99.65328109300003,18.221716680000043],[99.65958416400008,18.219403026000066],[99.67244724400007,18.22432530100002],[99.68529660200005,18.217878537000047],[99.69220895100005,18.227422467000054],[99.70278077700004,18.22826785600006],[99.71072678000007,18.234889520000024],[99.73067254100005,18.229942433000076],[99.73338611700007,18.22177788600004],[99.73235234100008,18.215765907000048],[99.74385078100005,18.215151777000074],[99.75196217700005,18.209633620000034],[99.76011983400008,18.209158353000078],[99.77233781900009,18.204443569000034],[99.77997974200008,18.19475052300004],[99.79240393600008,18.193500493000045],[99.79935785600009,18.199363841000036],[99.80159974800006,18.214955988000042],[99.81030106800006,18.226592873000072],[99.82166306100004,18.237510326000063],[99.83409610000007,18.236248850000038],[99.84391839100005,18.254979284000058],[99.84961920500007,18.254867542000056],[99.85626600000006,18.273361099000056],[99.85759805600009,18.28390885500005],[99.86358012300008,18.279919396000025],[99.87202307100006,18.277915778000022],[99.88112233500004,18.28265773800007],[99.89614348900005,18.279715122000027],[99.90687505500006,18.28051904000006],[99.91971881700005,18.300937719000046],[99.92117428900008,18.30689519500004],[99.92699109300008,18.313382104000027],[99.93576934200007,18.327072072000078],[99.93830588900005,18.33408688700007],[99.93831716200003,18.345273040000052],[99.94191435300007,18.354299764000075],[99.95091383100004,18.356311808000044],[99.95012999100004,18.364463621000027],[99.95575142100006,18.377290166000023],[99.96041342600006,18.383792904000074],[99.96649955600009,18.38310287300004],[99.97062627700006,18.390095861000077],[99.96779470900003,18.394021061000046],[99.97680896700007,18.39088987200006],[99.98731875200008,18.391751777000025],[99.98927672000008,18.39722286800003],[100.00689031200005,18.41169181400005],[100.00444163000009,18.415549432000034],[100.00654630800005,18.422800410000036],[100.01418577200008,18.437667030000057],[100.00538883200005,18.445862807000026],[100.02064963100008,18.44725788200003],[100.02863648500005,18.464905545000022],[100.02342372400005,18.46957237400005],[100.02985977200007,18.46931463100003],[100.03869826200008,18.48525354800006],[100.04967828000008,18.497657208000078],[100.05261453400004,18.518891288000077],[100.05650790900006,18.52709833700004],[100.04929202100004,18.531813655000065],[100.03665018000004,18.53676228000006],[100.02995060500007,18.546234079000044],[99.99951549200006,18.54954973100007],[99.99260608300006,18.553191835000064],[99.97510674300008,18.554284094000025],[99.97347577600004,18.556388424000033],[99.96565985100005,18.552900774000022],[99.96056156300006,18.561222919000045],[99.95226979500006,18.55837815600006],[99.92968874800005,18.56255656700006],[99.92157414400003,18.551775187000032],[99.91432828900008,18.552482929000064],[99.90582166000007,18.545760932000064],[99.90003272900003,18.54625584000007],[99.89800945800005,18.537796623000077],[99.89235000800005,18.529790801000047],[99.87483347200003,18.526288038000075],[99.87098239200009,18.516463543000043],[99.86544213200006,18.51194507500003],[99.84887882700008,18.48757088900004],[99.83779060800003,18.48663923600003],[99.83375660700005,18.48221022100006],[99.82926637700007,18.48364004800004],[99.82009995000004,18.493822660000035],[99.82402333100003,18.50605048700004],[99.82058843700008,18.513039200000037],[99.82606717600004,18.528442539000025],[99.81950488500007,18.54944748500003],[99.80833383900006,18.552726135000057],[99.79360264800005,18.565545322000048],[99.80268866500006,18.574847067000064],[99.80333088000003,18.595138192000036],[99.80840826800005,18.603593942000032],[99.79946777400005,18.60890032800006],[99.78947372700009,18.609286144000066],[99.78014361500004,18.61828287800006],[99.77492643800008,18.617685855000047],[99.76664144800009,18.624226260000057],[99.75622327100007,18.62170684800003],[99.75075104200005,18.61408516700004],[99.74400735300009,18.612913753000043],[99.73526541200005,18.61563368800006],[99.72359165200004,18.61173315700006],[99.71966184100006,18.604573122000033],[99.72369217400006,18.601730557000053],[99.72127845500006,18.585306243000048],[99.71370245400004,18.576622377000035],[99.72023875200006,18.564261518000023],[99.73336130200005,18.56116544400004],[99.73423238700008,18.547727181000027],[99.74020646300005,18.546710284000028],[99.74358831900008,18.54107366200003],[99.75223353500007,18.542353673000036],[99.76778402100007,18.538801180000064],[99.76720171000005,18.53047185500003],[99.77186247300006,18.523875829000076],[99.77302922700005,18.51765365400007],[99.77024241200007,18.507981174000065],[99.75391054700003,18.499724048000076],[99.74651306400006,18.47876265800005],[99.72306341100006,18.44696613800005],[99.70701954000003,18.444144255000026],[99.70687069900004,18.436506372000053],[99.71202773300007,18.428891900000053],[99.70589909600005,18.419774322000023],[99.69972706900006,18.420083255000065],[99.68623429300004,18.402216262000024],[99.68018386900007,18.40081228200006],[99.67078627400008,18.37729760900004],[99.66768520200009,18.37474087100003],[99.66294132400009,18.355302271000028],[99.66651184500006,18.351264599000046],[99.65914287000004,18.348356283000044],[99.65588868000003,18.340152097000043],[99.64891744800008,18.34068998600003],[99.64344726800005,18.331064746000038],[99.64354587300005,18.326070135000066],[99.63589611200007,18.321608538000078],[99.64133366500005,18.31383584100007],[99.63349538100005,18.31313352600006],[99.62670502400005,18.308623281000052],[99.63521523800006,18.294271007000077],[99.63196767300008,18.284283104000053],[99.62455100800008,18.27703015800006],[99.62490328600006,18.269890149000048],[99.62895774900005,18.258570402000032]]]},"properties":{"Shape_Leng":1.95516512033,"Shape_Area":0.0940965117787,"ADM2_EN":"Mae Mo","ADM2_TH":"แม่เมาะ","ADM2_PCODE":"TH5202","ADM1_EN":"Lampang","ADM1_TH":"ลำปาง","ADM1_PCODE":"TH52","ADM0_EN":"Thailand","ADM0_TH":"ประเทศไทย","ADM0_PCODE":"TH"}},
{"type":"Feature","geometry":{"type":"Polygon","coordinates":[[[99.40542319800005,18.264618776000077],[99.39260959100005,18.261075077000044],[99.38727127000004,18.261362424000026],[99.38247475100007,18.265626347000023],[99.37364663800008,18.268381168000076],[99.36393900000007,18.268166359000077],[99.35330382900008,18.27066869600003],[99.34714154300008,18.277038092000055],[99.34525075700009,18.285360291000075],[99.33579957900008,18.288923201000046],[99.32423556400005,18.297684365000066],[99.30986764000005,18.29309151600006],[99.28772714200005,18.29229800300004],[99.28797484600005,18.283606581000072],[99.28419873400009,18.27802252200007],[99.28908589700006,18.278207245000033],[99.29479267100004,18.258892166000066],[99.28418922100008,18.243415208000044],[99.27242946600006,18.234680996000066],[99.25516454400008,18.218903321000028],[99.25234107400007,18.214587839000046],[99.24396216000008,18.212000708000062],[99.24289344100004,18.20909903200004],[99.23011276400007,18.210157278000054],[99.21728568000003,18.189827887000035],[99.21842581200008,18.176497910000023],[99.24661130000004,18.159469278000074],[99.25184510600008,18.15897512500004],[99.26269087800006,18.142061505000072],[99.27232464800005,18.146875256000044],[99.27674306000006,18.141535910000073],[99.27857755400004,18.133275026000035],[99.28373507200007,18.133362783000052],[99.27974489400003,18.12816613700005],[99.28737734800006,18.118753953000066],[99.29459119100005,18.105731696000078],[99.29313724500008,18.09340594300005],[99.29937948200006,18.089219583000045],[99.30243505900006,18.08269098200003],[99.29256917900005,18.075262314000042],[99.28897586400007,18.065290064000067],[99.28071514700008,18.06492376700004],[99.27740984200005,18.04740802300006],[99.28532352200006,18.04612518600004],[99.29091272500006,18.04921709000007],[99.29306867700006,18.04522330900005],[99.28733278600004,18.035492571000077],[99.28980939400009,18.029228927000077],[99.28589122300008,18.02829799400007],[99.27853853300007,18.017647453000052],[99.28081455400007,18.012246617000073],[99.28711829500008,18.00863901100007],[99.28739084400007,18.004207562000033],[99.27808634300004,17.990677059000063],[99.27434931000005,17.98262863900004],[99.28542088400008,17.97805887000004],[99.29857456500008,17.98321358900006],[99.30274735400008,17.97910319500005],[99.31892895600004,17.982668982000064],[99.33857230100006,17.988338973000054],[99.35592798600004,17.99449516100003],[99.35723869300006,18.011968226000022],[99.37728574100004,18.014308835000065],[99.38678323100004,18.008819822000078],[99.39383779900004,18.011432808000052],[99.40338631900005,18.00777564200007],[99.42184271400004,18.007084433000045],[99.43413048600007,18.01349930300006],[99.43459289000003,18.019845470000064],[99.44327737100008,18.024166861000026],[99.44177536600006,18.03296208100005],[99.43787213100006,18.030033048000064],[99.42960658100009,18.033153923000043],[99.43257192100003,18.041511568000033],[99.42477683400006,18.049925995000024],[99.42835640500005,18.056342010000037],[99.43321041200005,18.058907331000057],[99.44053401700006,18.082032151000078],[99.43292318500005,18.089449934000072],[99.43330092800005,18.100177377000023],[99.42907353600003,18.105876437000063],[99.43413553300007,18.117175720000034],[99.43409836300003,18.128666422000038],[99.42980707400005,18.129176576000077],[99.42622267500008,18.136370529000033],[99.42652197800004,18.145697503000065],[99.43190657500008,18.15400105300006],[99.42468092900003,18.168818421000026],[99.42766282400004,18.18984746700005],[99.43091172500004,18.201874106000048],[99.43242440900008,18.21902381600006],[99.41649379700004,18.226379889000043],[99.41134930200008,18.231599561000053],[99.41112298200005,18.241803525000023],[99.40865903100007,18.244305449000024],[99.40542319800005,18.264618776000077]]]},"properties":{"Shape_Leng":1.15706061314,"Shape_Area":0.0437436100332,"ADM2_EN":"Ko Kha","ADM2_TH":"เกาะคา","ADM2_PCODE":"TH5203","ADM1_EN":"Lampang","ADM1_TH":"ลำปาง","ADM1_PCODE":"TH52","ADM0_EN":"Thailand","ADM0_TH":"ประเทศไทย","ADM0_PCODE":"TH"}},
{"type":"Feature","geometry":{"type":"Polygon","coordinates":[[[99.21728568000003,18.189827887000035],[99.20879259400004,18.19039663500007],[99.20242911600008,18.194597876000046],[99.19083175700007,18.198213449000036],[99.18856286100004,18.202426349000064],[99.18073112500008,18.205736116000026],[99.17624737900007,18.217586588000074],[99.16629540500008,18.221155500000066],[99.16432392600007,18.228387734000023],[99.15641301800008,18.240091541000027],[99.15913989000006,18.249015675000066],[99.14488372400007,18.260861049000027],[99.14656797700007,18.26671459000005],[99.14218892400004,18.275029388000064],[99.13312055200004,18.27979896200003],[99.12968842400005,18.286931567000067],[99.12079943900005,18.292322410000054],[99.11919304400004,18.297983015000057],[99.11277657300008,18.295208460000026],[99.11453009100006,18.288978048000047],[99.11564163500003,18.270674561000078],[99.10701473900008,18.265211665000038],[99.08988210100006,18.280042147000074],[99.08269139900005,18.278046310000036],[99.08222667000007,18.269600841000056],[99.07713907500005,18.268795991000047],[99.06646683700006,18.272257127000046],[99.05464061400005,18.270316809000064],[99.05205264400007,18.26594347300005],[99.04205545300005,18.264570325000022],[99.02921161500007,18.26504794600004],[99.02880399200006,18.261489434000055],[99.01789204200008,18.25264907600007],[99.02031546700005,18.250965619000056],[99.02276628300007,18.23645858200007],[99.02730031000004,18.232734206000032],[99.02998215100007,18.223797940000054],[99.02913563100009,18.216055347000065],[99.03766445000008,18.199345624000046],[99.04373319900009,18.196281721000048],[99.05688221200006,18.172660047000022],[99.05143022400006,18.163385121000033],[99.05856478100009,18.15605421400005],[99.05957409400008,18.149470660000077],[99.06394900600009,18.144522521000056],[99.06530821800004,18.138068988000043],[99.06472704400005,18.124621390000073],[99.06632539900005,18.108120830000075],[99.07046669800008,18.10558089400007],[99.06815857400005,18.096194969000067],[99.07203720400008,18.094031674000064],[99.07321427100004,18.083737873000075],[99.07112505000003,18.074379775000068],[99.07066767200007,18.061101757000074],[99.07538977100006,18.05306949900006],[99.07982635300004,18.050407628000073],[99.08387301800008,18.04306518100003],[99.08344074200005,18.031905616000074],[99.09227660800008,18.02432372800007],[99.09277522900004,18.01456444300004],[99.09846071300007,18.010050397000043],[99.10085138400007,17.998747864000052],[99.09489018800008,17.993639259000076],[99.10108159000004,17.98352505300005],[99.09558398200005,17.97441610000004],[99.09734150100007,17.96808923900005],[99.09421079100008,17.962242696000033],[99.09495022700008,17.95484737700002],[99.10107522100009,17.947813960000076],[99.11367652900003,17.94833521000004],[99.11593391900004,17.944271652000054],[99.11561039000009,17.931670137000026],[99.11248125900005,17.928238574000034],[99.10816085400006,17.913342202000024],[99.11778032600006,17.91564224700005],[99.13125113800004,17.914318313000024],[99.13742262200009,17.911080517000073],[99.14592160600006,17.911181998000075],[99.14414850500003,17.901607746000025],[99.14855414000004,17.895348959000046],[99.15419318900007,17.89384543400007],[99.16309524000008,17.88639907000004],[99.16214452500009,17.87768964600002],[99.17525759400007,17.86864174300007],[99.17943316700007,17.861758619000057],[99.18331551700004,17.860529032000045],[99.18236400300003,17.866971903000035],[99.19214136700003,17.881201117000046],[99.19720567800005,17.882852442000058],[99.20992811800005,17.882617260000075],[99.21056689800008,17.886211785000057],[99.20610172000005,17.89658441100005],[99.20642827200004,17.90517991300004],[99.20989598800008,17.911520238000037],[99.21286238800008,17.931695959000024],[99.20815711100005,17.944320403000063],[99.19889548000003,17.955935527000065],[99.20505497100004,17.963354947000028],[99.21307305900007,17.965077200000053],[99.22649425000009,17.971516953000048],[99.24670607200005,17.975497328000074],[99.25538388100006,17.98848922600007],[99.25943660100006,17.98926797400003],[99.26852606600005,17.98220747700003],[99.27434931000005,17.98262863900004],[99.27808634300004,17.990677059000063],[99.28739084400007,18.004207562000033],[99.28711829500008,18.00863901100007],[99.28081455400007,18.012246617000073],[99.27853853300007,18.017647453000052],[99.28589122300008,18.02829799400007],[99.28980939400009,18.029228927000077],[99.28733278600004,18.035492571000077],[99.29306867700006,18.04522330900005],[99.29091272500006,18.04921709000007],[99.28532352200006,18.04612518600004],[99.27740984200005,18.04740802300006],[99.28071514700008,18.06492376700004],[99.28897586400007,18.065290064000067],[99.29256917900005,18.075262314000042],[99.30243505900006,18.08269098200003],[99.29937948200006,18.089219583000045],[99.29313724500008,18.09340594300005],[99.29459119100005,18.105731696000078],[99.28737734800006,18.118753953000066],[99.27974489400003,18.12816613700005],[99.28373507200007,18.133362783000052],[99.27857755400004,18.133275026000035],[99.27674306000006,18.141535910000073],[99.27232464800005,18.146875256000044],[99.26269087800006,18.142061505000072],[99.25184510600008,18.15897512500004],[99.24661130000004,18.159469278000074],[99.21842581200008,18.176497910000023],[99.21728568000003,18.189827887000035]]]},"properties":{"Shape_Leng":1.43687693118,"Shape_Area":0.0629770890555,"ADM2_EN":"Soem Ngam","ADM2_TH":"เสริมงาม","ADM2_PCODE":"TH5204","ADM1_EN":"Lampang","ADM1_TH":"ลำปาง","ADM1_PCODE":"TH52","ADM0_EN":"Thailand","ADM0_TH":"ประเทศไทย","ADM0_PCODE":"TH"}},
{"type":"Feature","geometry":{"type":"Polygon","coordinates":[[[100.04929202100004,18.531813655000065],[100.05538417600008,18.54992039600006],[100.05590332900005,18.557379240000046],[100.06295118100007,18.560910877000026],[100.07850909500007,18.562838917000022],[100.08913228800009,18.57274908200003],[100.09462722800004,18.570099086000027],[100.10525611600008,18.559282215000053],[100.10927866100008,18.560182800000064],[100.10592641400007,18.56754327300007],[100.10664450600007,18.57303244700006],[100.11127381100005,18.576280908000058],[100.10900865300005,18.588908659000026],[100.12085680100006,18.60232080000003],[100.11597357000005,18.609971821000045],[100.10641856800004,18.615477586000054],[100.10552889000007,18.62127693800005],[100.09954370700007,18.62892375100006],[100.10364092700007,18.64883559900005],[100.10646417000004,18.651648883000064],[100.10531188500005,18.663702623000063],[100.11131553800004,18.671316190000027],[100.10935370400006,18.680557030000045],[100.10457724600008,18.686419029000035],[100.10853312600005,18.691558969000027],[100.10733101700004,18.703744895000057],[100.10291955700006,18.704686723000066],[100.10020614800004,18.715306929000064],[100.10150269200005,18.72283475200004],[100.09635833800007,18.730496781000056],[100.10163178800008,18.737551389000032],[100.10025915200004,18.75214830500005],[100.10693092600008,18.75623815700004],[100.10833606500006,18.762206733000028],[100.11581283000004,18.765504187000033],[100.11453532200005,18.776437299000065],[100.12280248600007,18.781802337000045],[100.12599415200003,18.787406514000054],[100.12105546000004,18.798201007000046],[100.11549146800007,18.799882284000034],[100.11615266000007,18.80407037300006],[100.10626155900007,18.81366366000003],[100.10102427600003,18.813889329000062],[100.08787284700009,18.827265958000055],[100.08130198000003,18.82484627300005],[100.07720783200006,18.820039321000024],[100.06894246000007,18.816314823000027],[100.06594746400003,18.817548757000054],[100.06611274300008,18.827549845000078],[100.06089907300009,18.829587294000078],[100.06438193700006,18.84084709600006],[100.06807342300004,18.84283215100004],[100.06664917800003,18.851035384000056],[100.06972676500004,18.85719596900003],[100.07017243600006,18.865497970000035],[100.06705900900005,18.866730362000055],[100.06115050800008,18.879998613000055],[100.05118004800005,18.885587803000078],[100.04645252100005,18.884662051000078],[100.03909503000006,18.89123555200007],[100.03336234100004,18.902418359000023],[100.02272830200008,18.895497871000032],[100.01649421600007,18.895973294000044],[100.00858007000005,18.904426396000076],[100.00182754600007,18.907551498000032],[99.99627797700003,18.905094442000063],[99.98883898300005,18.913370385000064],[99.97943795500004,18.920199039000067],[99.97573400100003,18.918654194000055],[99.96685831100007,18.92414242600006],[99.96499843100008,18.928248678000045],[99.95354543500008,18.934749503000035],[99.94674464800005,18.942461998000056],[99.93992168100004,18.95970608500005],[99.92703662400004,18.97436570900004],[99.92620639200004,18.978787302000057],[99.91448529200005,18.983022277000032],[99.90990319900004,18.988161338000054],[99.90796562000008,18.98363612600002],[99.89233096700008,18.989276156000074],[99.88993960100004,18.987795977000076],[99.88438888000007,18.99378935900006],[99.88261772900006,18.99989884300004],[99.87273666900006,18.996619235000026],[99.84486095900007,19.00410272700003],[99.83915443400008,19.00135412700007],[99.83070458700007,19.008254126000054],[99.82917210500005,19.012523182000052],[99.83391355800006,19.016658404000054],[99.83505861300006,19.02643988500006],[99.83007595100008,19.032662395000045],[99.83347289900007,19.039667344000065],[99.82966149400005,19.04044908700007],[99.82186217600008,19.04775444300003],[99.81865514900005,19.055567428000074],[99.82006800900007,19.06045447300005],[99.81482952500005,19.06250729900006],[99.81252860400008,19.05836090100007],[99.79962493400006,19.05645715600002],[99.79601288900005,19.05317810400004],[99.78328432300003,19.05537166700003],[99.78243397700004,19.058753359000036],[99.77327042900004,19.06421116300004],[99.76715845900009,19.059829440000044],[99.76487982600008,19.052690622000057],[99.76007891400008,19.048422395000046],[99.75361370000007,19.048555087000068],[99.75267938800005,19.04407199900004],[99.75618890000004,19.035915283000065],[99.75736467400009,19.026895332000038],[99.76611489000004,19.01685593600007],[99.76574970800004,19.013879748000022],[99.75546541600005,19.007381879000036],[99.76001710100007,18.98884101300007],[99.75996002900007,18.978919850000068],[99.75675699700008,18.97610786100006],[99.75374697400008,18.96353487500005],[99.75868231700008,18.951421890000063],[99.76669699700005,18.94494798000005],[99.77269127000005,18.936310755000022],[99.76597083600006,18.928047469000035],[99.75555682400005,18.929420899000036],[99.75714262400004,18.924291793000066],[99.76335283500003,18.92160725800005],[99.76374359600004,18.917983075000052],[99.77160931300006,18.90964529000007],[99.78109301300003,18.911195202000044],[99.78315062000007,18.905348460000027],[99.78861752500006,18.904161532000046],[99.78713606100007,18.893075896000028],[99.78795450100006,18.883820400000047],[99.80074767600007,18.88139415200004],[99.79739129200004,18.867353063000053],[99.79928612600008,18.85988272900005],[99.80469784500008,18.85203867200005],[99.80449913000007,18.844913461000033],[99.80084793200007,18.836817110000027],[99.80491918700005,18.80956132600005],[99.79385427900007,18.796885919000033],[99.79777501100006,18.786710371000026],[99.79790393900004,18.777447343000063],[99.79541305000004,18.75745313400006],[99.78641572300006,18.742354917000057],[99.77906088900005,18.742296040000042],[99.77497037000006,18.72903744000007],[99.77739429100006,18.71874488900005],[99.77694609100007,18.70619997500006],[99.78099189100004,18.706676379000044],[99.78728033700008,18.70207436000004],[99.79514715500005,18.704802432000065],[99.79998441400005,18.700274914000033],[99.80128830100006,18.693095089000053],[99.81196798400003,18.690648425000063],[99.81511242500005,18.675373123000043],[99.82931875900005,18.662119618000077],[99.83675281300003,18.661448283000027],[99.83671202100004,18.656932441000038],[99.82993664500003,18.648357145000034],[99.82511495000006,18.638670669000078],[99.82583847500007,18.63015101800005],[99.81649300900006,18.62195979300003],[99.81593158700008,18.60981865100007],[99.81314659700007,18.604532325000037],[99.80840826800005,18.603593942000032],[99.80333088000003,18.595138192000036],[99.80268866500006,18.574847067000064],[99.79360264800005,18.565545322000048],[99.80833383900006,18.552726135000057],[99.81950488500007,18.54944748500003],[99.82606717600004,18.528442539000025],[99.82058843700008,18.513039200000037],[99.82402333100003,18.50605048700004],[99.82009995000004,18.493822660000035],[99.82926637700007,18.48364004800004],[99.83375660700005,18.48221022100006],[99.83779060800003,18.48663923600003],[99.84887882700008,18.48757088900004],[99.86544213200006,18.51194507500003],[99.87098239200009,18.516463543000043],[99.87483347200003,18.526288038000075],[99.89235000800005,18.529790801000047],[99.89800945800005,18.537796623000077],[99.90003272900003,18.54625584000007],[99.90582166000007,18.545760932000064],[99.91432828900008,18.552482929000064],[99.92157414400003,18.551775187000032],[99.92968874800005,18.56255656700006],[99.95226979500006,18.55837815600006],[99.96056156300006,18.561222919000045],[99.96565985100005,18.552900774000022],[99.97347577600004,18.556388424000033],[99.97510674300008,18.554284094000025],[99.99260608300006,18.553191835000064],[99.99951549200006,18.54954973100007],[100.02995060500007,18.546234079000044],[100.03665018000004,18.53676228000006],[100.04929202100004,18.531813655000065]]]},"properties":{"Shape_Leng":2.15793520044,"Shape_Area":0.127989263487,"ADM2_EN":"Ngao","ADM2_TH":"งาว","ADM2_PCODE":"TH5205","ADM1_EN":"Lampang","ADM1_TH":"ลำปาง","ADM1_PCODE":"TH52","ADM0_EN":"Thailand","ADM0_TH":"ประเทศไทย","ADM0_PCODE":"TH"}},
{"type":"Feature","geometry":{"type":"Polygon","coordinates":[[[99.71966184100006,18.604573122000033],[99.72359165200004,18.61173315700006],[99.73526541200005,18.61563368800006],[99.74400735300009,18.612913753000043],[99.75075104200005,18.61408516700004],[99.75622327100007,18.62170684800003],[99.76664144800009,18.624226260000057],[99.77492643800008,18.617685855000047],[99.78014361500004,18.61828287800006],[99.78947372700009,18.609286144000066],[99.79946777400005,18.60890032800006],[99.80840826800005,18.603593942000032],[99.81314659700007,18.604532325000037],[99.81593158700008,18.60981865100007],[99.81649300900006,18.62195979300003],[99.82583847500007,18.63015101800005],[99.82511495000006,18.638670669000078],[99.82993664500003,18.648357145000034],[99.83671202100004,18.656932441000038],[99.83675281300003,18.661448283000027],[99.82931875900005,18.662119618000077],[99.81511242500005,18.675373123000043],[99.81196798400003,18.690648425000063],[99.80128830100006,18.693095089000053],[99.79998441400005,18.700274914000033],[99.79514715500005,18.704802432000065],[99.78728033700008,18.70207436000004],[99.78099189100004,18.706676379000044],[99.77694609100007,18.70619997500006],[99.77739429100006,18.71874488900005],[99.77497037000006,18.72903744000007],[99.77906088900005,18.742296040000042],[99.78641572300006,18.742354917000057],[99.79541305000004,18.75745313400006],[99.79790393900004,18.777447343000063],[99.79777501100006,18.786710371000026],[99.79385427900007,18.796885919000033],[99.80491918700005,18.80956132600005],[99.80084793200007,18.836817110000027],[99.80449913000007,18.844913461000033],[99.80469784500008,18.85203867200005],[99.79928612600008,18.85988272900005],[99.79739129200004,18.867353063000053],[99.80074767600007,18.88139415200004],[99.78795450100006,18.883820400000047],[99.78713606100007,18.893075896000028],[99.78861752500006,18.904161532000046],[99.78315062000007,18.905348460000027],[99.78109301300003,18.911195202000044],[99.77160931300006,18.90964529000007],[99.76374359600004,18.917983075000052],[99.76335283500003,18.92160725800005],[99.75714262400004,18.924291793000066],[99.75555682400005,18.929420899000036],[99.76597083600006,18.928047469000035],[99.77269127000005,18.936310755000022],[99.76669699700005,18.94494798000005],[99.75868231700008,18.951421890000063],[99.75374697400008,18.96353487500005],[99.75675699700008,18.97610786100006],[99.75320758800007,18.97829801200004],[99.73450579300004,18.981287605000034],[99.72694010100008,18.98391337700002],[99.72006035200008,18.980415780000044],[99.70948309200008,18.978561067000044],[99.70417794700006,18.986113789000058],[99.68596183900007,18.97768910900004],[99.66777283600004,18.97665304900005],[99.66908048700009,18.969223493000072],[99.66310787000003,18.960258649000025],[99.66466917400004,18.957656949000068],[99.65516368100003,18.953817155000024],[99.65118526800006,18.957302441000024],[99.64557622500007,18.954046332000075],[99.64148607200008,18.944954565000046],[99.64641631000006,18.94397998100004],[99.63974420000005,18.930525399000032],[99.63298971800003,18.926934755000048],[99.62978850000007,18.92179662700005],[99.62222329200006,18.923350566000067],[99.61397976700005,18.91483815400005],[99.61741005200008,18.911511886000028],[99.61636804600005,18.901493321000032],[99.61354152500007,18.898860183000068],[99.60016730400008,18.90042074400003],[99.58797647500006,18.89950853000005],[99.57669949300004,18.900666562000026],[99.57375069500006,18.91467847800004],[99.58880263500004,18.914968936000037],[99.58813166100003,18.92862318600004],[99.58115539700003,18.935406261000026],[99.57419245900007,18.937394711000024],[99.56864216000008,18.947471576000055],[99.55974797300007,18.94853228000005],[99.55814206700006,18.93541415800007],[99.56136070800005,18.931932760000052],[99.55259023500008,18.922695865000037],[99.55165137300008,18.911751005000042],[99.55338635100009,18.887066880000077],[99.54745124200008,18.88256164300003],[99.54304378800003,18.873608615000023],[99.53712667500008,18.86935589600006],[99.53401136400004,18.858128774000022],[99.53571258500006,18.847835463000024],[99.53933933600007,18.840528625000047],[99.53107641000008,18.829315294000025],[99.53387239200003,18.819596602000047],[99.54167012600004,18.814879768000026],[99.53631878200008,18.79945318800003],[99.54597477400006,18.79396705100004],[99.55084376900004,18.786485565000078],[99.54228101300004,18.78561622500007],[99.53858007900004,18.78072122800006],[99.53971952600006,18.768792232000067],[99.53536213700005,18.761720324000066],[99.53210727300007,18.75106568900003],[99.53228855200007,18.72275185600006],[99.52662777700004,18.712687826000035],[99.52958427800007,18.710693270000036],[99.52478731200006,18.700310200000047],[99.52167341200004,18.679343249000055],[99.51687499100007,18.656874663000053],[99.52493911600004,18.63671818100005],[99.52146016700004,18.633330642000033],[99.52114215900008,18.62252837500006],[99.51346576900005,18.60856185600005],[99.51200376700007,18.601466543000072],[99.51352293200006,18.593133317000024],[99.51768167900008,18.587676518000023],[99.51452902600005,18.577187004000052],[99.51297769400009,18.558106939000027],[99.50691309900009,18.54748083100003],[99.50911483600004,18.542501765000054],[99.50292443600006,18.529309272000035],[99.50009376100007,18.52816909200004],[99.50495874700005,18.52103091300006],[99.50227886500005,18.514430943000036],[99.50771641200004,18.501378440000053],[99.50750011700006,18.496596339000064],[99.52086593000007,18.490334662000066],[99.53237614700004,18.491687720000073],[99.54052764700003,18.502576720000036],[99.55601649600004,18.501961324000035],[99.56820962000006,18.503445733000035],[99.57826918300003,18.506904811000027],[99.57943843300006,18.51220201700005],[99.58481752100005,18.516889073000073],[99.59199106300008,18.51293725000005],[99.60230537600006,18.51603919300004],[99.60985691800005,18.513118865000024],[99.60997901900004,18.522902803000022],[99.61300330700004,18.533442326000056],[99.63160108200003,18.543230272000073],[99.63848542400007,18.554496421000067],[99.63780315200006,18.566093187000035],[99.64200936100008,18.581038027000034],[99.64795572700007,18.585699428000055],[99.65383353100003,18.585173737000048],[99.65429139500009,18.593607329000065],[99.66248921200008,18.598892204000038],[99.67251955600005,18.59766868400004],[99.68239905500008,18.609793715000023],[99.69044575100008,18.610909157000037],[99.70736751700008,18.60520888600007],[99.71966184100006,18.604573122000033]]]},"properties":{"Shape_Leng":1.8970719653,"Shape_Area":0.102242422111,"ADM2_EN":"Chae Hom","ADM2_TH":"แจ้ห่ม","ADM2_PCODE":"TH5206","ADM1_EN":"Lampang","ADM1_TH":"ลำปาง","ADM1_PCODE":"TH52","ADM0_EN":"Thailand","ADM0_TH":"ประเทศไทย","ADM0_PCODE":"TH"}},
{"type":"Feature","geometry":{"type":"Polygon","coordinates":[[[99.77327042900004,19.06421116300004],[99.77427236200003,19.076031581000052],[99.76937526800003,19.077772193000044],[99.76332154700003,19.091267506000065],[99.76514248500007,19.096565635000047],[99.75744918800007,19.12241114400007],[99.75798992100005,19.134788812000068],[99.74319007400004,19.142722941000045],[99.73934852200006,19.15875236200003],[99.72988464300005,19.16943033000007],[99.72613930800009,19.169888379000042],[99.72842382800007,19.181822023000052],[99.72184395200009,19.19266245600005],[99.72222756800005,19.19847814700006],[99.71914065800007,19.20711662900004],[99.71410150800006,19.211467497000058],[99.71478531200006,19.221630186000027],[99.71165100400003,19.225743179000062],[99.70902195200006,19.238764323000055],[99.70314497700008,19.245198161000076],[99.70571379700004,19.249519426000063],[99.70221299900004,19.25489341100007],[99.70506387100005,19.27781892200005],[99.70280763800008,19.285479671000076],[99.70201745300005,19.298717473000067],[99.69803476900006,19.306087044000037],[99.70181784900007,19.318086521000055],[99.70830715100004,19.33030734400006],[99.70731692800007,19.34471638900004],[99.70133010700005,19.346636440000054],[99.69147142500003,19.361050114000022],[99.69545441800005,19.381647025000063],[99.68373923200005,19.382792616000074],[99.68209132300007,19.391094665000026],[99.67472920000006,19.391600845000028],[99.66025803700006,19.38538180100005],[99.65043729600006,19.38559304100005],[99.64631254300008,19.38911647900005],[99.63929113500006,19.385364584000058],[99.62816379500003,19.389649917000042],[99.61725308600006,19.39194754300007],[99.61561964600008,19.39582820000004],[99.59556354000006,19.405942494000044],[99.58451365900004,19.405932716000052],[99.57662527100007,19.40948486700006],[99.56537606200004,19.417657702000042],[99.56261931700004,19.412362233000067],[99.56340546000007,19.404304936000074],[99.57572816000004,19.38963555400005],[99.57641853700005,19.37490073500004],[99.57538035000005,19.362489525000058],[99.57981075800006,19.35807112400005],[99.58065909600003,19.35236744900004],[99.57281908800007,19.346476797000037],[99.58091896700006,19.338234233000037],[99.58026713200007,19.331805814000063],[99.57604635800004,19.325760536000075],[99.57984334500009,19.320452402000058],[99.57735317800007,19.316959402000066],[99.58041768600003,19.312033255000074],[99.57534669700004,19.30226942400003],[99.57687378300005,19.292962901000067],[99.57154820400007,19.293858912000076],[99.56493684600008,19.284624033000057],[99.56056681700005,19.273208011000065],[99.56200463400006,19.264929481000024],[99.55907685100004,19.25695066700007],[99.55243434400006,19.25718806900005],[99.54724653100004,19.240596538000034],[99.54979552100008,19.235768068000027],[99.54894793300008,19.224699721000036],[99.54528199300006,19.221755963000078],[99.54425186500004,19.209577315000047],[99.54158351100006,19.204503639000052],[99.54577606300006,19.197358262000023],[99.54225647200008,19.16896487300005],[99.53662880100006,19.16391737400005],[99.54968130500004,19.156403428000033],[99.55444826000007,19.144186348000062],[99.56006284400007,19.143393158000038],[99.55945100400004,19.131026021000025],[99.55455825200005,19.128655534000075],[99.55342510400004,19.122726037000064],[99.53705577000005,19.107509443000026],[99.53900821400003,19.101772596000046],[99.53487596200006,19.09665967600006],[99.53802925300005,19.08584948300006],[99.52560412800005,19.076851488000045],[99.52595317900006,19.062223328000073],[99.53475253100004,19.05819513600005],[99.54601621000006,19.058954795000034],[99.54943054600005,19.053757074000032],[99.54793502900009,19.049717088000023],[99.54189552100007,19.047760217000075],[99.53538385700006,19.03990979300005],[99.53405077500008,19.030711801000052],[99.52866051400008,19.026117105000026],[99.53177429400006,19.018512600000065],[99.53731217300003,19.01498230800007],[99.53799453600004,18.99782205200006],[99.54449607500004,18.99078465900004],[99.54831919500003,18.98190214400006],[99.54740901100007,18.973542210000062],[99.55088561400004,18.967158637000068],[99.56222267800007,18.96397427200003],[99.56277665100004,18.95461334400005],[99.55974797300007,18.94853228000005],[99.56864216000008,18.947471576000055],[99.57419245900007,18.937394711000024],[99.58115539700003,18.935406261000026],[99.58813166100003,18.92862318600004],[99.58880263500004,18.914968936000037],[99.57375069500006,18.91467847800004],[99.57669949300004,18.900666562000026],[99.58797647500006,18.89950853000005],[99.60016730400008,18.90042074400003],[99.61354152500007,18.898860183000068],[99.61636804600005,18.901493321000032],[99.61741005200008,18.911511886000028],[99.61397976700005,18.91483815400005],[99.62222329200006,18.923350566000067],[99.62978850000007,18.92179662700005],[99.63298971800003,18.926934755000048],[99.63974420000005,18.930525399000032],[99.64641631000006,18.94397998100004],[99.64148607200008,18.944954565000046],[99.64557622500007,18.954046332000075],[99.65118526800006,18.957302441000024],[99.65516368100003,18.953817155000024],[99.66466917400004,18.957656949000068],[99.66310787000003,18.960258649000025],[99.66908048700009,18.969223493000072],[99.66777283600004,18.97665304900005],[99.68596183900007,18.97768910900004],[99.70417794700006,18.986113789000058],[99.70948309200008,18.978561067000044],[99.72006035200008,18.980415780000044],[99.72694010100008,18.98391337700002],[99.73450579300004,18.981287605000034],[99.75320758800007,18.97829801200004],[99.75675699700008,18.97610786100006],[99.75996002900007,18.978919850000068],[99.76001710100007,18.98884101300007],[99.75546541600005,19.007381879000036],[99.76574970800004,19.013879748000022],[99.76611489000004,19.01685593600007],[99.75736467400009,19.026895332000038],[99.75618890000004,19.035915283000065],[99.75267938800005,19.04407199900004],[99.75361370000007,19.048555087000068],[99.76007891400008,19.048422395000046],[99.76487982600008,19.052690622000057],[99.76715845900009,19.059829440000044],[99.77327042900004,19.06421116300004]]]},"properties":{"Shape_Leng":1.67544421443,"Shape_Area":0.079295780179,"ADM2_EN":"Wang Nuea","ADM2_TH":"วังเหนือ","ADM2_PCODE":"TH5207","ADM1_EN":"Lampang","ADM1_TH":"ลำปาง","ADM1_PCODE":"TH52","ADM0_EN":"Thailand","ADM0_TH":"ประเทศไทย","ADM0_PCODE":"TH"}},
{"type":"Feature","geometry":{"type":"Polygon","coordinates":[[[99.18331551700004,17.860529032000045],[99.18367722200009,17.85022847700003],[99.18019424100004,17.846015656000077],[99.16314947100005,17.846754383000075],[99.15910387400004,17.843230922000032],[99.16992903300007,17.82371525700006],[99.17333346300006,17.821816752000075],[99.17013681100008,17.815168026000038],[99.17467766800007,17.810430979000046],[99.15980413100004,17.80795080400003],[99.15440006500006,17.813423426000043],[99.14709599400004,17.81317632400004],[99.13556447800005,17.821042440000042],[99.12808884100008,17.816084671000056],[99.12274191900008,17.81921283500003],[99.10999083700005,17.81616462200003],[99.10317652900005,17.81260705400007],[99.10901104200008,17.803532250000046],[99.10982138200006,17.792763723000064],[99.11721405700007,17.79111111700007],[99.11692626500007,17.784018369000023],[99.12466282200006,17.777800772000035],[99.12147190100006,17.77367323900006],[99.12393278800005,17.76849721600007],[99.11501114200007,17.769791532000056],[99.11178000000007,17.767864274000033],[99.11044270700006,17.753235801000073],[99.10465155000009,17.748148211000057],[99.10447967800008,17.741074817000026],[99.09195389100006,17.74201886000003],[99.08576651000004,17.738899118000063],[99.08258303700006,17.721186574000058],[99.08476112800008,17.717768443000068],[99.08343450000007,17.709739177000074],[99.08739991500005,17.703241131000027],[99.08108592900004,17.698075758000073],[99.07568156500008,17.698283187000072],[99.06555094000004,17.69278064100007],[99.06233536000008,17.683387357000072],[99.06514488900007,17.672720825000056],[99.06148448900007,17.669019339000045],[99.06001207900005,17.661389609000025],[99.06336767700009,17.643609754000067],[99.05901649300006,17.629175170000053],[99.04967538000005,17.61252663700003],[99.06009443000005,17.61143712300003],[99.06326812500004,17.60703919300005],[99.07130985000003,17.606107688000066],[99.07064653400005,17.602710287000036],[99.07629374400005,17.59639640200004],[99.08027644200007,17.600309751000054],[99.09588291400007,17.59347077800004],[99.10372500100004,17.587753141000064],[99.11030164800007,17.586256871000046],[99.11401394300003,17.579654936000054],[99.12370710400006,17.574321114000043],[99.15010315900008,17.56768136200003],[99.16493877000005,17.555819471000063],[99.16647350400007,17.550825786000075],[99.18112158000008,17.53247505400003],[99.17167126300006,17.522252604000073],[99.17102140100008,17.511530437000033],[99.16017877100006,17.510634425000035],[99.16506565900005,17.50336056200007],[99.17504913700009,17.499258669000028],[99.17231905000006,17.49572943800007],[99.17208407500004,17.484991140000034],[99.16911109700004,17.476101276000065],[99.17578627500006,17.469918203000077],[99.16985789600005,17.448660250000046],[99.17668831900005,17.44900550500006],[99.18875740300007,17.443330925000055],[99.18874019700007,17.434950684000057],[99.19623058300004,17.42693157800005],[99.20586963000005,17.42390874000006],[99.20791542300003,17.41409395000005],[99.21131293900004,17.408418308000023],[99.21061526600005,17.401847776000068],[99.21382698200006,17.390242512000043],[99.22509385200004,17.404656758000044],[99.23836173800004,17.402774776000058],[99.24998955500007,17.406687815000055],[99.26045645800008,17.405593237000062],[99.27044495900009,17.400008511000067],[99.27538107800007,17.381188962000067],[99.27122444700007,17.365755940000042],[99.27101968300008,17.34932549100006],[99.27781122600004,17.346288224000034],[99.27663800600004,17.33145574100007],[99.28603712300009,17.31932757800007],[99.28672932200004,17.31127273800007],[99.29307283500003,17.311275515000034],[99.29721165800004,17.303455923000058],[99.29826451100007,17.287080810000077],[99.30397225700005,17.273024933000045],[99.30932707800008,17.270458493000035],[99.32097900200006,17.26996457300004],[99.32430510800003,17.26653406300005],[99.33725665600008,17.267828284000075],[99.34245602700008,17.260464786000057],[99.35845424800004,17.249154947000022],[99.36029573800005,17.241923249000024],[99.36818404300004,17.230348855000045],[99.37132967900004,17.229501561000063],[99.36975222900008,17.221211297000025],[99.37391863400006,17.210581027000046],[99.38323815900009,17.20705924200007],[99.39525472400004,17.206991317000075],[99.40049803800008,17.220018289000052],[99.41991198600005,17.218240844000036],[99.41881518900004,17.22645166500007],[99.42505877300005,17.22701100100005],[99.42916505900007,17.23197815800006],[99.43609343700007,17.228011842000058],[99.43991809300007,17.229067275000034],[99.44015531400004,17.235531844000036],[99.44533228000006,17.24217118200005],[99.44109200400004,17.252311103000068],[99.45359906300007,17.251838133000035],[99.45587563400005,17.258906484000022],[99.45160737800006,17.278886544000045],[99.45180221500004,17.29702983800007],[99.45410766700007,17.298271654000075],[99.45730035700007,17.31193382600003],[99.45983089500004,17.308955823000076],[99.46431585400006,17.314605968000023],[99.47723180100007,17.326100818000043],[99.47681161100007,17.340400445000057],[99.47334784500003,17.35518557200004],[99.47063980700005,17.35755485100003],[99.47098151200004,17.366044670000065],[99.46848663800006,17.369015111000067],[99.45629228700005,17.369351100000074],[99.45437467600004,17.373413199000026],[99.44477438600006,17.380979780000075],[99.44182779100004,17.38923864700007],[99.43083422000007,17.390628571000036],[99.42716302100007,17.409303790000024],[99.43161115600009,17.418595338000046],[99.43936216100008,17.420508011000038],[99.44070385000003,17.433752076000076],[99.43298200900006,17.43487473400006],[99.42633664100003,17.442455702000075],[99.42105078600008,17.442271821000077],[99.41458712600007,17.45063253400002],[99.41824697900006,17.45714130500005],[99.40708336900008,17.46771360200006],[99.40749222800008,17.47633091600005],[99.41605479100008,17.478979925000033],[99.41944639600007,17.48760718500006],[99.41817462600005,17.49461818700007],[99.42151389800006,17.501065161000042],[99.41874385700004,17.504854374000047],[99.42327747500008,17.51995982400007],[99.43127992600006,17.52097690200003],[99.43936212100004,17.527422650000062],[99.43860539200006,17.532261237000057],[99.43285510000004,17.54076000200007],[99.43077115800008,17.548427063000076],[99.43594955800006,17.562760943000058],[99.42991108200005,17.569033301000047],[99.41520318600004,17.570261763000076],[99.41304272200006,17.57407357900007],[99.41530476800006,17.58291707500007],[99.42037444200008,17.59082986900006],[99.41911166900007,17.600457040000038],[99.42593391200006,17.60913391200006],[99.44135903400007,17.609086427000022],[99.44234959800008,17.602890220000063],[99.45433214400003,17.598105516000032],[99.45311281200009,17.607098303000043],[99.44698570300005,17.623397855000064],[99.44992498100004,17.630574154000044],[99.44753976300007,17.64463068400005],[99.45060923900007,17.65483839600006],[99.45572577300004,17.654826250000042],[99.47063812000005,17.665814804000036],[99.47169729400008,17.672221225000044],[99.47620576600008,17.676331359000073],[99.47034883300006,17.689382988000034],[99.47505179300003,17.697057651000023],[99.47432747200008,17.717315232000033],[99.47922922800007,17.729304693000074],[99.47233790000007,17.736949562000063],[99.46416966300006,17.736918072000037],[99.45646743400005,17.728192888000024],[99.45816871900007,17.722429867000074],[99.45589260100007,17.715493886000047],[99.44898828400005,17.709047144000067],[99.44215944100006,17.70750653700003],[99.42208082700006,17.710075750000044],[99.40550421700004,17.697116465000022],[99.38720594500006,17.687556630000074],[99.38921570900004,17.696511715000042],[99.38147090300004,17.702632529000027],[99.37960151900006,17.711229262000074],[99.38482880100008,17.71534272100007],[99.38588337200008,17.721712317000026],[99.37973615000004,17.72244261000003],[99.37672980400004,17.733455451000054],[99.38111295400006,17.741683157000068],[99.37918950800008,17.74577166800003],[99.38020511800005,17.757184212000027],[99.37406044800008,17.76255253000005],[99.36757282600007,17.773487857000077],[99.36030769500007,17.768804861000035],[99.35216627900007,17.77347340500006],[99.34105142700008,17.773171129000048],[99.32832441000005,17.768757098000037],[99.32429686900008,17.765229658000067],[99.31774081200007,17.773902419000024],[99.30984984800006,17.77727797600005],[99.31117150600005,17.785607352000056],[99.30090764700009,17.79053596500006],[99.29360474200007,17.79123252900007],[99.28306471000008,17.798032484000032],[99.27516619300008,17.80779165100006],[99.27135527000007,17.819144037000058],[99.25037294000003,17.833266741000045],[99.23974181300008,17.843036118000043],[99.22972657200006,17.84839088800004],[99.22565566200007,17.865908282000078],[99.22756340200004,17.87344534300007],[99.21733278800008,17.88975259800003],[99.21056689800008,17.886211785000057],[99.20992811800005,17.882617260000075],[99.19720567800005,17.882852442000058],[99.19214136700003,17.881201117000046],[99.18236400300003,17.866971903000035],[99.18331551700004,17.860529032000045]]]},"properties":{"Shape_Leng":2.54783342915,"Shape_Area":0.151596482572,"ADM2_EN":"Thoen","ADM2_TH":"เถิน","ADM2_PCODE":"TH5208","ADM1_EN":"Lampang","ADM1_TH":"ลำปาง","ADM1_PCODE":"TH52","ADM0_EN":"Thailand","ADM0_TH":"ประเทศไทย","ADM0_PCODE":"TH"}},
{"type":"Feature","geometry":{"type":"Polygon","coordinates":[[[99.04967538000005,17.61252663700003],[99.03881913900005,17.614991489000033],[99.03673277200005,17.612607354000033],[99.01850490400005,17.614945171000045],[99.01472418300006,17.622138504000077],[99.00936028600006,17.62235560700003],[99.00552666100003,17.629712838000046],[98.99847629700008,17.637163040000075],[98.99005891300004,17.634265523000067],[98.97552505200008,17.64347343700007],[98.96253927000004,17.64005675900006],[98.95518237100003,17.641363670000032],[98.95063065800008,17.645779692000076],[98.94428586300006,17.646793788000025],[98.93808496500009,17.64086684800003],[98.92724830100008,17.643771955000034],[98.91977680700006,17.64078122500007],[98.90575460300005,17.64893826200006],[98.90271870500004,17.63993699200006],[98.89567271000004,17.639599443000066],[98.89347915400003,17.63389550900007],[98.88086685900004,17.627184847000024],[98.88449937600006,17.621387036000044],[98.88004921000004,17.605168440000057],[98.88701589000004,17.601627576000055],[98.88780021400004,17.589426115000037],[98.91073096500008,17.582245086000057],[98.90875442700008,17.57145510400005],[98.90458203300005,17.56092092600005],[98.90656670000004,17.55516768700005],[98.90762333400005,17.54062840000006],[98.91260914500003,17.533192287000077],[98.92192090100008,17.53002394200007],[98.92475428300008,17.525670853000065],[98.92184866100007,17.51260181400005],[98.92797770400006,17.507099564000043],[98.92646579900008,17.499044586000025],[98.92997771700004,17.494897731000037],[98.92648904100008,17.491867150000076],[98.93279401600006,17.483171576000075],[98.93125978200004,17.474360518000026],[98.93777527700007,17.474431200000026],[98.93717396100004,17.47105313000003],[98.94564090000006,17.468590685000038],[98.95391533700007,17.474192145000075],[98.95873929300006,17.46292702200003],[98.96237081100008,17.46649042000007],[98.97355643200007,17.464558888000056],[98.98024673700007,17.46774829000003],[98.99270286100005,17.451783961000046],[98.99155491700009,17.448554933000025],[98.99744406000008,17.445005949000063],[99.00458195200008,17.436709053000072],[99.01035937300009,17.424648767000065],[99.01379438900005,17.42249094600004],[99.01132918800005,17.416170089000047],[99.02158683600004,17.411101251000048],[99.03227003100005,17.410702297000057],[99.03449959800008,17.402493098000036],[99.04226974800008,17.396202171000027],[99.04141585100007,17.39009734900003],[99.04694865400006,17.385633650000045],[99.05345212300006,17.388858784000035],[99.06557176600006,17.382231223000076],[99.06690878900008,17.377006494000057],[99.07725314600003,17.376389637000045],[99.07732232500007,17.373322089000055],[99.08712179000008,17.37707193500006],[99.10342864700004,17.365168294000057],[99.10833506600005,17.35936704100004],[99.11421977600008,17.361371181000038],[99.11716461300006,17.367446391000044],[99.12598789000003,17.365767737000056],[99.13474501300004,17.36161843900004],[99.14179580000007,17.361009073000048],[99.14676012200005,17.355353441000034],[99.15499794400006,17.33829295000004],[99.16460508000006,17.332584535000024],[99.17383769700007,17.335854203000054],[99.17812963800009,17.349362562000067],[99.18829672400005,17.352529498000024],[99.19656852900005,17.360250578000034],[99.19724169200003,17.363872064000077],[99.20496033000006,17.368012105000048],[99.21089990500008,17.376537908000046],[99.20792845700004,17.382842529000072],[99.21382698200006,17.390242512000043],[99.21061526600005,17.401847776000068],[99.21131293900004,17.408418308000023],[99.20791542300003,17.41409395000005],[99.20586963000005,17.42390874000006],[99.19623058300004,17.42693157800005],[99.18874019700007,17.434950684000057],[99.18875740300007,17.443330925000055],[99.17668831900005,17.44900550500006],[99.16985789600005,17.448660250000046],[99.17578627500006,17.469918203000077],[99.16911109700004,17.476101276000065],[99.17208407500004,17.484991140000034],[99.17231905000006,17.49572943800007],[99.17504913700009,17.499258669000028],[99.16506565900005,17.50336056200007],[99.16017877100006,17.510634425000035],[99.17102140100008,17.511530437000033],[99.17167126300006,17.522252604000073],[99.18112158000008,17.53247505400003],[99.16647350400007,17.550825786000075],[99.16493877000005,17.555819471000063],[99.15010315900008,17.56768136200003],[99.12370710400006,17.574321114000043],[99.11401394300003,17.579654936000054],[99.11030164800007,17.586256871000046],[99.10372500100004,17.587753141000064],[99.09588291400007,17.59347077800004],[99.08027644200007,17.600309751000054],[99.07629374400005,17.59639640200004],[99.07064653400005,17.602710287000036],[99.07130985000003,17.606107688000066],[99.06326812500004,17.60703919300005],[99.06009443000005,17.61143712300003],[99.04967538000005,17.61252663700003]]]},"properties":{"Shape_Leng":1.2883453802,"Shape_Area":0.0564486261674,"ADM2_EN":"Mae Phrik","ADM2_TH":"แม่พริก","ADM2_PCODE":"TH5209","ADM1_EN":"Lampang","ADM1_TH":"ลำปาง","ADM1_PCODE":"TH52","ADM0_EN":"Thailand","ADM0_TH":"ประเทศไทย","ADM0_PCODE":"TH"}},
{"type":"Feature","geometry":{"type":"Polygon","coordinates":[[[99.42766282400004,18.18984746700005],[99.42468092900003,18.168818421000026],[99.43190657500008,18.15400105300006],[99.42652197800004,18.145697503000065],[99.42622267500008,18.136370529000033],[99.42980707400005,18.129176576000077],[99.43409836300003,18.128666422000038],[99.43413553300007,18.117175720000034],[99.42907353600003,18.105876437000063],[99.43330092800005,18.100177377000023],[99.43292318500005,18.089449934000072],[99.44053401700006,18.082032151000078],[99.43321041200005,18.058907331000057],[99.42835640500005,18.056342010000037],[99.42477683400006,18.049925995000024],[99.43257192100003,18.041511568000033],[99.42960658100009,18.033153923000043],[99.43787213100006,18.030033048000064],[99.44177536600006,18.03296208100005],[99.44327737100008,18.024166861000026],[99.43459289000003,18.019845470000064],[99.43413048600007,18.01349930300006],[99.42184271400004,18.007084433000045],[99.42374987300008,17.997452297000052],[99.42097118200007,17.98615662700007],[99.41627322300008,17.982311749000075],[99.40441582700004,17.98090436700005],[99.40289080300005,17.97335547600005],[99.41950580300005,17.96818306700004],[99.41638410900003,17.964656685000023],[99.41788105000006,17.951290967000034],[99.42681635600007,17.95083273700004],[99.44157096600009,17.94303881600007],[99.44188676900006,17.93984018200007],[99.45763087800003,17.93749714200004],[99.46501295200005,17.93193961000003],[99.46523380800005,17.928783158000044],[99.47553426400003,17.921211481000057],[99.48303666200007,17.920189523000033],[99.48522804800007,17.919526133000033],[99.49816790200003,17.927174016000038],[99.50148679600005,17.937219207000055],[99.50667958300005,17.94280734000006],[99.51215062800009,17.943517222000025],[99.52176541600005,17.952081428000042],[99.52293942800009,17.957051301000035],[99.53833101900005,17.96238081300004],[99.54298183700007,17.970080524000025],[99.55802649500004,17.97409974800007],[99.56116266200007,17.977832919000036],[99.56148488400004,17.98651994200003],[99.56501863200003,17.991587045000074],[99.57636369300008,17.995536221000066],[99.58020455700006,18.00035494800005],[99.59497454500007,18.009739210000077],[99.58829609000009,18.022043732000043],[99.58884072400008,18.026829213000042],[99.58500429100008,18.035207334000063],[99.59693063300006,18.038158458000055],[99.60446643400007,18.04247228400004],[99.61003819400008,18.049824623000063],[99.61879513000008,18.048588752000057],[99.62759932200004,18.06075962700004],[99.63474781800005,18.06134522700006],[99.64184573700004,18.05562888000003],[99.65009123000004,18.05674034200007],[99.65097002900006,18.052293461000033],[99.65946037100008,18.041057323000075],[99.66882569900008,18.041677436000043],[99.68021859300006,18.045796351000035],[99.68427468900006,18.051723467000045],[99.69179405700004,18.056602122000072],[99.68939425000008,18.06300513800005],[99.70067490200006,18.067099450000057],[99.70447650700004,18.070374340000058],[99.70930935600006,18.068774997000048],[99.71982770900007,18.07008496800006],[99.72693970200004,18.087435905000063],[99.73448392000006,18.09515456200006],[99.73946447400004,18.108827766000047],[99.74671053600008,18.111427606000063],[99.75496078300006,18.12000845600005],[99.76201626700004,18.12342329300003],[99.75447078600007,18.12996677800004],[99.75626370900005,18.136306194000042],[99.75386748600005,18.13995537900007],[99.75892700900005,18.148080701000026],[99.77206368600008,18.162558815000068],[99.77932353900007,18.175121353000065],[99.78883191900007,18.18503015400006],[99.79240393600008,18.193500493000045],[99.77997974200008,18.19475052300004],[99.77233781900009,18.204443569000034],[99.76011983400008,18.209158353000078],[99.75196217700005,18.209633620000034],[99.74385078100005,18.215151777000074],[99.73235234100008,18.215765907000048],[99.73338611700007,18.22177788600004],[99.73067254100005,18.229942433000076],[99.71072678000007,18.234889520000024],[99.70278077700004,18.22826785600006],[99.69220895100005,18.227422467000054],[99.68529660200005,18.217878537000047],[99.67244724400007,18.22432530100002],[99.65958416400008,18.219403026000066],[99.65328109300003,18.221716680000043],[99.64092554300004,18.21877061200007],[99.63117072000006,18.223189680000075],[99.62417267700005,18.236446862000037],[99.62795160100006,18.241983403000063],[99.62895774900005,18.258570402000032],[99.61333286000007,18.249468939000053],[99.59821258000005,18.24259402100006],[99.59329127800004,18.23358670300007],[99.57978824500003,18.21514640500004],[99.56299244900003,18.207600780000064],[99.55499684600005,18.19896257000005],[99.54408299100004,18.195489355000063],[99.53671905500005,18.195334763000062],[99.53059559300004,18.188354381000067],[99.52969635300008,18.183058234000043],[99.51880447000008,18.18487416800002],[99.50563298600008,18.18076099800004],[99.47860331300006,18.182016185000066],[99.47355124900008,18.17717212200006],[99.47059729100005,18.18036012700003],[99.45934952700009,18.18165642100007],[99.45696792100006,18.188725799000053],[99.43854830900005,18.18370720000007],[99.42766282400004,18.18984746700005]]]},"properties":{"Shape_Leng":1.4707972714,"Shape_Area":0.0670768167488,"ADM2_EN":"Mae Tha","ADM2_TH":"แม่ทะ","ADM2_PCODE":"TH5210","ADM1_EN":"Lampang","ADM1_TH":"ลำปาง","ADM1_PCODE":"TH52","ADM0_EN":"Thailand","ADM0_TH":"ประเทศไทย","ADM0_PCODE":"TH"}},
{"type":"Feature","geometry":{"type":"Polygon","coordinates":[[[99.27434931000005,17.98262863900004],[99.26852606600005,17.98220747700003],[99.25943660100006,17.98926797400003],[99.25538388100006,17.98848922600007],[99.24670607200005,17.975497328000074],[99.22649425000009,17.971516953000048],[99.21307305900007,17.965077200000053],[99.20505497100004,17.963354947000028],[99.19889548000003,17.955935527000065],[99.20815711100005,17.944320403000063],[99.21286238800008,17.931695959000024],[99.20989598800008,17.911520238000037],[99.20642827200004,17.90517991300004],[99.20610172000005,17.89658441100005],[99.21056689800008,17.886211785000057],[99.21733278800008,17.88975259800003],[99.22756340200004,17.87344534300007],[99.22565566200007,17.865908282000078],[99.22972657200006,17.84839088800004],[99.23974181300008,17.843036118000043],[99.25037294000003,17.833266741000045],[99.27135527000007,17.819144037000058],[99.27516619300008,17.80779165100006],[99.28306471000008,17.798032484000032],[99.29360474200007,17.79123252900007],[99.30090764700009,17.79053596500006],[99.31117150600005,17.785607352000056],[99.30984984800006,17.77727797600005],[99.31774081200007,17.773902419000024],[99.32429686900008,17.765229658000067],[99.32832441000005,17.768757098000037],[99.34105142700008,17.773171129000048],[99.35216627900007,17.77347340500006],[99.36030769500007,17.768804861000035],[99.36757282600007,17.773487857000077],[99.37089971100005,17.779231063000054],[99.37639802400008,17.781663423000055],[99.38539000200007,17.790251579000028],[99.39355660200005,17.807868057000064],[99.39264593200005,17.814699792000056],[99.40154095900004,17.818855964000022],[99.40442315500007,17.823161388000074],[99.41254291100006,17.826848675000065],[99.41267956000007,17.83189812100005],[99.41782498000003,17.843160832000024],[99.42857861000005,17.857377575000044],[99.43759802300008,17.863767933000076],[99.44206576300007,17.86374269500004],[99.44801034800008,17.869591400000047],[99.45202401100005,17.87823770600005],[99.45725927400008,17.88262175600005],[99.46312066900003,17.88280863600005],[99.47423771100006,17.893592161000072],[99.48414980200005,17.916458462000037],[99.48303666200007,17.920189523000033],[99.47553426400003,17.921211481000057],[99.46523380800005,17.928783158000044],[99.46501295200005,17.93193961000003],[99.45763087800003,17.93749714200004],[99.44188676900006,17.93984018200007],[99.44157096600009,17.94303881600007],[99.42681635600007,17.95083273700004],[99.41788105000006,17.951290967000034],[99.41638410900003,17.964656685000023],[99.41950580300005,17.96818306700004],[99.40289080300005,17.97335547600005],[99.40441582700004,17.98090436700005],[99.41627322300008,17.982311749000075],[99.42097118200007,17.98615662700007],[99.42374987300008,17.997452297000052],[99.42184271400004,18.007084433000045],[99.40338631900005,18.00777564200007],[99.39383779900004,18.011432808000052],[99.38678323100004,18.008819822000078],[99.37728574100004,18.014308835000065],[99.35723869300006,18.011968226000022],[99.35592798600004,17.99449516100003],[99.33857230100006,17.988338973000054],[99.31892895600004,17.982668982000064],[99.30274735400008,17.97910319500005],[99.29857456500008,17.98321358900006],[99.28542088400008,17.97805887000004],[99.27434931000005,17.98262863900004]]]},"properties":{"Shape_Leng":0.984756702645,"Shape_Area":0.0421691666939,"ADM2_EN":"Sop Prap","ADM2_TH":"สบปราบ","ADM2_PCODE":"TH5211","ADM1_EN":"Lampang","ADM1_TH":"ลำปาง","ADM1_PCODE":"TH52","ADM0_EN":"Thailand","ADM0_TH":"ประเทศไทย","ADM0_PCODE":"TH"}},
{"type":"Feature","geometry":{"type":"Polygon","coordinates":[[[99.30231199800005,18.49100291700006],[99.29779975800005,18.488843030000055],[99.28538342600007,18.492853532000026],[99.28049428400004,18.499914532000048],[99.26698617100004,18.494789817000026],[99.25650047500005,18.49664443000006],[99.25603235300008,18.492156496000064],[99.24337205600006,18.48090783300006],[99.23950120600006,18.472715926000035],[99.23758410100004,18.44790504300005],[99.23129573600005,18.44463926700007],[99.22092246600005,18.429852243000028],[99.21444540700008,18.429597253000054],[99.20245209100005,18.424381365000045],[99.19878493400006,18.420632761000036],[99.19775403800008,18.409817675000056],[99.19073924900005,18.40320928400007],[99.18861456400003,18.395506217000047],[99.18967753600003,18.388622833000056],[99.17097857100003,18.37410098600003],[99.16801782900006,18.374936150000053],[99.16748507300008,18.363573617000043],[99.16897946200004,18.349674160000063],[99.16509305800008,18.340505165000025],[99.15945620000008,18.340443764000042],[99.15975765300004,18.336030841000024],[99.15336861300005,18.33007275700004],[99.15108873600008,18.323066459000074],[99.15242585700008,18.31572413500004],[99.14714030000005,18.313347002000057],[99.13248349600008,18.31434633500004],[99.12383962300004,18.312134397000023],[99.12453717200003,18.304022540000062],[99.11919304400004,18.297983015000057],[99.12079943900005,18.292322410000054],[99.12968842400005,18.286931567000067],[99.13312055200004,18.27979896200003],[99.14218892400004,18.275029388000064],[99.14656797700007,18.26671459000005],[99.14488372400007,18.260861049000027],[99.15913989000006,18.249015675000066],[99.15641301800008,18.240091541000027],[99.16432392600007,18.228387734000023],[99.16629540500008,18.221155500000066],[99.17624737900007,18.217586588000074],[99.18073112500008,18.205736116000026],[99.18856286100004,18.202426349000064],[99.19083175700007,18.198213449000036],[99.20242911600008,18.194597876000046],[99.20879259400004,18.19039663500007],[99.21728568000003,18.189827887000035],[99.23011276400007,18.210157278000054],[99.24289344100004,18.20909903200004],[99.24396216000008,18.212000708000062],[99.25234107400007,18.214587839000046],[99.25516454400008,18.218903321000028],[99.27242946600006,18.234680996000066],[99.28418922100008,18.243415208000044],[99.29479267100004,18.258892166000066],[99.28908589700006,18.278207245000033],[99.28419873400009,18.27802252200007],[99.28797484600005,18.283606581000072],[99.28772714200005,18.29229800300004],[99.30986764000005,18.29309151600006],[99.32423556400005,18.297684365000066],[99.33579957900008,18.288923201000046],[99.34525075700009,18.285360291000075],[99.34714154300008,18.277038092000055],[99.35330382900008,18.27066869600003],[99.36393900000007,18.268166359000077],[99.37364663800008,18.268381168000076],[99.38247475100007,18.265626347000023],[99.38727127000004,18.261362424000026],[99.39260959100005,18.261075077000044],[99.40542319800005,18.264618776000077],[99.41010121000005,18.269947541000022],[99.40539520100003,18.273400476000063],[99.41304608400009,18.28899891900005],[99.41207707400008,18.292756447000045],[99.41614973100008,18.300591694000047],[99.42266649900006,18.307009839000045],[99.40823392100003,18.314975418000074],[99.41750952500007,18.32485868300006],[99.43551779300009,18.315383428000075],[99.43458264400005,18.32136270600006],[99.43614918600008,18.334743100000026],[99.42782866400006,18.33587506400005],[99.42397495600005,18.341342422000025],[99.42377888100003,18.36253270900005],[99.42104533300005,18.369114797000066],[99.42196158400009,18.380803023000055],[99.41418679500003,18.388721713000052],[99.39675896400007,18.38923710000006],[99.39579130600004,18.38697816800004],[99.38700624700004,18.39345577100005],[99.38002514500005,18.401209142000027],[99.37141743500007,18.415193948000024],[99.36972659400004,18.426220354000066],[99.36349570800007,18.438185261000058],[99.35093251300003,18.44409338300005],[99.34247582000006,18.450925511000037],[99.33044503300005,18.464740418000076],[99.32902911900004,18.475965613000028],[99.32141085100005,18.480788577000055],[99.31428981600004,18.491002046000062],[99.30231199800005,18.49100291700006]]]},"properties":{"Shape_Leng":1.22587014957,"Shape_Area":0.0521515157409,"ADM2_EN":"Hang Chat","ADM2_TH":"ห้างฉัตร","ADM2_PCODE":"TH5212","ADM1_EN":"Lampang","ADM1_TH":"ลำปาง","ADM1_PCODE":"TH52","ADM0_EN":"Thailand","ADM0_TH":"ประเทศไทย","ADM0_PCODE":"TH"}},
{"type":"Feature","geometry":{"type":"Polygon","coordinates":[[[99.50009376100007,18.52816909200004],[99.50292443600006,18.529309272000035],[99.50911483600004,18.542501765000054],[99.50691309900009,18.54748083100003],[99.51297769400009,18.558106939000027],[99.51452902600005,18.577187004000052],[99.51768167900008,18.587676518000023],[99.51352293200006,18.593133317000024],[99.51200376700007,18.601466543000072],[99.51346576900005,18.60856185600005],[99.52114215900008,18.62252837500006],[99.52146016700004,18.633330642000033],[99.52493911600004,18.63671818100005],[99.51687499100007,18.656874663000053],[99.52167341200004,18.679343249000055],[99.52478731200006,18.700310200000047],[99.52958427800007,18.710693270000036],[99.52662777700004,18.712687826000035],[99.53228855200007,18.72275185600006],[99.53210727300007,18.75106568900003],[99.53536213700005,18.761720324000066],[99.53971952600006,18.768792232000067],[99.53858007900004,18.78072122800006],[99.54228101300004,18.78561622500007],[99.55084376900004,18.786485565000078],[99.54597477400006,18.79396705100004],[99.53631878200008,18.79945318800003],[99.54167012600004,18.814879768000026],[99.53387239200003,18.819596602000047],[99.53107641000008,18.829315294000025],[99.53933933600007,18.840528625000047],[99.53571258500006,18.847835463000024],[99.53401136400004,18.858128774000022],[99.53712667500008,18.86935589600006],[99.54304378800003,18.873608615000023],[99.54745124200008,18.88256164300003],[99.55338635100009,18.887066880000077],[99.55165137300008,18.911751005000042],[99.55259023500008,18.922695865000037],[99.56136070800005,18.931932760000052],[99.55814206700006,18.93541415800007],[99.55974797300007,18.94853228000005],[99.56277665100004,18.95461334400005],[99.56222267800007,18.96397427200003],[99.55088561400004,18.967158637000068],[99.54740901100007,18.973542210000062],[99.54831919500003,18.98190214400006],[99.54449607500004,18.99078465900004],[99.53799453600004,18.99782205200006],[99.53731217300003,19.01498230800007],[99.53177429400006,19.018512600000065],[99.52866051400008,19.026117105000026],[99.53405077500008,19.030711801000052],[99.53538385700006,19.03990979300005],[99.54189552100007,19.047760217000075],[99.54793502900009,19.049717088000023],[99.54943054600005,19.053757074000032],[99.54601621000006,19.058954795000034],[99.53475253100004,19.05819513600005],[99.52595317900006,19.062223328000073],[99.52560412800005,19.076851488000045],[99.52142917300006,19.07561206300005],[99.51863078500008,19.08014990600003],[99.51516297600006,19.077226562000078],[99.50443569400005,19.078331255000023],[99.49909613300008,19.074795852000022],[99.49391992400007,19.077455753000038],[99.49171222500007,19.073875056000077],[99.48316887700008,19.071443060000036],[99.47480894900008,19.048858104000033],[99.46431764600004,19.03520886000007],[99.45313550700007,19.029201244000035],[99.43712428700007,19.011858893000067],[99.43615631700004,19.007866971000055],[99.42842602000007,19.008545756000046],[99.42173367000004,19.00279602200004],[99.40526053300005,19.002079044000027],[99.39214209800008,18.997158227000057],[99.38328783700007,18.99105294900005],[99.37747823000007,18.982452857000055],[99.37767349100005,18.96862776200004],[99.37501722300004,18.959843464000073],[99.38422516200006,18.951870446000044],[99.38671968900007,18.944036942000025],[99.38492516700006,18.934171787000025],[99.37764141900004,18.92171617200006],[99.38353554200006,18.910930937000046],[99.38379565400004,18.900986239000076],[99.38717823900004,18.896317058000022],[99.38614153500004,18.888502705000064],[99.39141397400005,18.884335700000065],[99.38564877900006,18.877925616000027],[99.38756087100006,18.874656660000028],[99.38039476500006,18.864010568000026],[99.37403155500004,18.858045968000056],[99.35240144600004,18.847193316000073],[99.35050507900007,18.83585247600007],[99.35503716000005,18.828559192000057],[99.35287886200007,18.823139796000078],[99.35723988200004,18.817222576000063],[99.35918620700005,18.801011044000063],[99.36397246200005,18.798491141000056],[99.36621895600007,18.78687605700003],[99.37107637700007,18.77966567900006],[99.36622000200003,18.769368135000036],[99.37136935900008,18.759461653000074],[99.37147500200007,18.753420277000032],[99.36144906800007,18.747039272000052],[99.35383340100003,18.737601882000035],[99.34931902000005,18.736655389000077],[99.34841179300008,18.724245815000074],[99.34056372000003,18.715335010000047],[99.34210568300006,18.70596548700007],[99.33379487200006,18.701635662000058],[99.33681842400006,18.693651429000056],[99.32718864700007,18.68445945900004],[99.33454130400008,18.671920313000044],[99.33310608600004,18.669016463000048],[99.33933413600005,18.665771413000073],[99.34905563900008,18.65502303100004],[99.34219292000006,18.649478592000037],[99.33280754700007,18.65038465200007],[99.32698342800006,18.638494113000036],[99.32687816000004,18.628331114000048],[99.33070526500006,18.627515604000052],[99.32688433300007,18.61968816700005],[99.33632624600006,18.615767540000036],[99.34884613600008,18.617538539000066],[99.35880105800004,18.606881216000033],[99.35696015000008,18.600083926000025],[99.34861551500006,18.593254685000034],[99.35175896800007,18.589321477000055],[99.35024546200003,18.582451165000066],[99.35345439600007,18.579382274000068],[99.36531433900007,18.582602505000068],[99.38284827000007,18.575908132000052],[99.39287383600004,18.57534140100006],[99.40164003100006,18.571817002000046],[99.40519026000004,18.567079978000038],[99.41118964800006,18.56690310500005],[99.41088088900005,18.55718483000004],[99.41402890000006,18.550110698000026],[99.43086148100008,18.54764149600004],[99.43745219300007,18.55348408800006],[99.43912816500006,18.547863306000067],[99.44513644000006,18.545970406000038],[99.44769938600007,18.539603760000034],[99.45665854300006,18.535201952000023],[99.45959399900005,18.527790345000028],[99.48568349800007,18.525509484000054],[99.49269197400008,18.530762544000027],[99.49999121700006,18.531233171000054],[99.50009376100007,18.52816909200004]]]},"properties":{"Shape_Leng":1.68375832798,"Shape_Area":0.0838087737536,"ADM2_EN":"Mueang Pan","ADM2_TH":"เมืองปาน","ADM2_PCODE":"TH5213","ADM1_EN":"Lampang","ADM1_TH":"ลำปาง","ADM1_PCODE":"TH52","ADM0_EN":"Thailand","ADM0_TH":"ประเทศไทย","ADM0_PCODE":"TH"}}
]}