{"type":"FeatureCollection", "features": [
{"type":"Feature","geometry":{"type":"Polygon","coordinates":[[[98.02675772400005,19.637761493000028],[98.00014990600005,19.635550540000054],[97.98203856700007,19.638866289000077],[97.97992032700006,19.634468152000068],[97.97262520000004,19.63312277400007],[97.97243344400005,19.623489807000055],[97.97599591300008,19.616692472000068],[97.97412595200007,19.60143138600006],[97.95976295000008,19.59786569700003],[97.96025508700006,19.593750364000073],[97.95272066200005,19.593572553000058],[97.94235015600003,19.59782731000007],[97.92140186400007,19.586096114000043],[97.90882915500003,19.583952483000076],[97.90229363100008,19.578724933000046],[97.89031149600004,19.57693792200007],[97.87880519800007,19.58132978200007],[97.86319687600007,19.57703953500004],[97.85921419700009,19.571048008000048],[97.86285645300006,19.563025409000034],[97.85512612200006,19.547824023000032],[97.85581850200003,19.530760892000046],[97.86862660700007,19.522597000000076],[97.87614384700004,19.50611822700006],[97.88796116800006,19.50102271000003],[97.87300170800006,19.49556153900005],[97.87171428600004,19.48489084000005],[97.86283912100004,19.48332916800007],[97.85754624000003,19.468819990000043],[97.85071757400004,19.466720788000032],[97.83881211500005,19.454643517000022],[97.82724312200008,19.438921823000044],[97.82727310700005,19.431235851000054],[97.81278751900004,19.412507472000073],[97.80701027000003,19.41130401600003],[97.80360717000008,19.404973555000026],[97.78775315100006,19.40320827100004],[97.78774788000004,19.394580162000068],[97.79240185000003,19.394705996000027],[97.80446083400005,19.385250652000025],[97.80608582100007,19.37656779100007],[97.80044388400006,19.371859880000045],[97.80178397000009,19.363585812000053],[97.79843452400007,19.352789743000073],[97.81363215400006,19.34032483200002],[97.81063639600006,19.337253695000072],[97.81629887100007,19.329895059000023],[97.82558268800005,19.323286093000036],[97.82382319500005,19.315837249000026],[97.82867262000008,19.310387965000075],[97.82874580100008,19.302566282000043],[97.84005705700008,19.300443721000022],[97.84287459400008,19.289838694000025],[97.83117092200007,19.290898209000034],[97.82550473400005,19.282715016000054],[97.81692399200006,19.284797377000075],[97.81041267700004,19.279723622000063],[97.80597768600006,19.287463479000053],[97.80099820600003,19.288851659000045],[97.79579739800005,19.28314989300003],[97.79015705200004,19.282745048000038],[97.78354171300003,19.26399617100003],[97.79222682200003,19.262702515000058],[97.80972879900008,19.252762963000066],[97.81754704300005,19.23811021800003],[97.82450647800005,19.238212102000034],[97.82544527800007,19.229375467000068],[97.84208629800008,19.223930539000037],[97.84529864700005,19.214172450000035],[97.84510767800003,19.20221803800007],[97.83808407900005,19.194273080000073],[97.84422677900005,19.18014355400004],[97.83870090200008,19.171001448000027],[97.84313861700008,19.15993392400003],[97.84452986200006,19.14925034600003],[97.83775088000004,19.144772966000062],[97.83425368000007,19.13588095800003],[97.84056731800007,19.11789420100007],[97.83678987700006,19.10596414300005],[97.83615787200006,19.093514398000025],[97.82909559600006,19.09168020900006],[97.83346721300006,19.071550253000055],[97.84667351400003,19.063519600000063],[97.85615331900004,19.062941936000072],[97.86455911300004,19.058213484000078],[97.87376235500005,19.05885357300002],[97.88179244400004,19.055532954000057],[97.89031172800009,19.047347589000026],[97.89505333000005,19.047393854000063],[97.89340451000004,19.038828822000028],[97.90375290300005,19.02108458600003],[97.91361927700007,19.018924518000063],[97.92223412800007,19.021384518000048],[97.92512386600004,19.01742282600003],[97.94295668200004,19.015461131000052],[97.95475019000008,19.00562688900004],[97.96546064300009,19.009789157000057],[97.96853945100008,19.00447082200003],[97.96621247900003,18.990602644000035],[97.96757964400007,18.97916466600003],[97.95976930800003,18.97441649700005],[97.95650671200008,18.965717133000055],[97.96352518500004,18.954574318000027],[97.97734673900004,18.945450486000027],[97.98714776400004,18.94902141600005],[97.99485016000006,18.947639699000035],[98.00545645700004,18.953318035000052],[98.01544151800005,18.951316289000033],[98.01984953500005,18.944878329000062],[98.02522974800007,18.94719869100004],[98.03000721800004,18.958600411000077],[98.03656763100008,18.95485144500003],[98.04773405600008,18.958410050000055],[98.04343707100008,18.96672105400006],[98.05431725400007,18.97192965200003],[98.05759935800006,18.966555484000025],[98.06020069200008,18.94447672600006],[98.06604081600005,18.948046885000053],[98.07533411000009,18.94171195800004],[98.08580457600004,18.937804803000063],[98.10297219400007,18.934564200000068],[98.11638093900007,18.93940361800003],[98.14118857400007,18.933701194000037],[98.15664094200008,18.936987738000028],[98.16573936400005,18.939045262000036],[98.17182548300008,18.948186360000022],[98.17284873900007,18.962414048000028],[98.16367485200004,18.98134598200005],[98.16924405400005,18.989149618000056],[98.16919617400004,18.998800867000057],[98.17876286000006,19.005915000000073],[98.18602447800004,19.015121899000064],[98.18440854500005,19.03175127700007],[98.19086137700003,19.032133620000025],[98.19088178100009,19.04001965200007],[98.20579835200004,19.049894110000025],[98.20843946000008,19.06221153100006],[98.21260392900007,19.06317371700004],[98.22449918200005,19.079343824000034],[98.22580506400004,19.08793266400005],[98.23682667400004,19.094353925000064],[98.23749541800004,19.101332719000027],[98.25015046400006,19.107738125000026],[98.25214203000007,19.113682501000028],[98.24756822900008,19.122173263000036],[98.24070716100005,19.126997912000036],[98.24409488200007,19.134008969000035],[98.24098960800006,19.13794615200004],[98.24311915900006,19.153501365000068],[98.22936293300006,19.15636912900004],[98.21953624800005,19.15309661300006],[98.20703867600008,19.16212398500005],[98.20138300000008,19.169717883000033],[98.19526681100007,19.168840912000064],[98.17933636500004,19.176694861000044],[98.17887550800003,19.183018756000024],[98.15925139400008,19.19881272200007],[98.16104309200006,19.205520960000058],[98.16851074000004,19.21552001300006],[98.17036177000006,19.22477920700004],[98.16815195100008,19.23701287600005],[98.16292290600006,19.244335241000044],[98.16666749600006,19.25898949300006],[98.15118715200003,19.26692642200004],[98.13167206500003,19.260769009000057],[98.12713900500006,19.26871445300003],[98.13474644500008,19.276961458000073],[98.12676880200007,19.307387195000047],[98.12460740300008,19.32777489800003],[98.13155524000007,19.330366137000055],[98.13766154500007,19.338243402000046],[98.14481370000004,19.33878019200006],[98.14685173400005,19.352002277000054],[98.15117125000006,19.354625975000033],[98.15116844200008,19.36285156300005],[98.15549473000004,19.369483457000058],[98.13298221000008,19.379155925000077],[98.11235262300005,19.389980604000073],[98.11204207900005,19.41489270900007],[98.11940664700006,19.420712507000076],[98.12141115300005,19.430146814000068],[98.11852289000007,19.45398569100007],[98.11423354600004,19.460416339000062],[98.12403656800007,19.476113686000076],[98.11974385300005,19.479195308000044],[98.11861917200008,19.491837686000054],[98.12175669700008,19.50372347900003],[98.12670600600006,19.512301110000067],[98.12177048200004,19.51663299200004],[98.12580489800007,19.520504386000027],[98.11865885400005,19.52657726500007],[98.12104597500007,19.53075256300008],[98.11531810700006,19.535123678000048],[98.09706937600004,19.53541182500004],[98.09036181400006,19.546643937000056],[98.07961157700004,19.55232983600007],[98.07482299800006,19.571955612000068],[98.07839470800008,19.580988572000024],[98.06989436200007,19.583113488000038],[98.07067502000007,19.58726685700003],[98.06316825200008,19.594160789000057],[98.06294771500006,19.601491742000064],[98.05871605000004,19.606805112000075],[98.06047820500004,19.614866133000078],[98.05320925400008,19.626165800000024],[98.04398331200008,19.630362241000057],[98.03849045100009,19.62958968600003],[98.03217201400008,19.637655752000057],[98.02675772400005,19.637761493000028]]]},"properties":{"Shape_Leng":2.6634406261,"Shape_Area":0.199531907136,"ADM2_EN":"Mueang Mae Hong Son","ADM2_TH":"เมืองแม่ฮ่องสอน","ADM2_PCODE":"TH5801","ADM1_EN":"Mae Hong Son","ADM1_TH":"แม่ฮ่องสอน","ADM1_PCODE":"TH58","ADM0_EN":"Thailand","ADM0_TH":"ประเทศไทย","ADM0_PCODE":"TH"}},
{"type":"Feature","geometry":{"type":"Polygon","coordinates":[[[97.82909559600006,19.09168020900006],[97.81058060300006,19.09048366600007],[97.80322017800006,19.085881546000053],[97.79159461900008,19.073693843000058],[97.78108368700003,19.076023746000033],[97.76867705300003,19.072755780000023],[97.76449259900005,19.06567502300004],[97.77132600500005,19.055836342000077],[97.76964064600008,19.04609313000003],[97.76321392300008,19.039738545000034],[97.75165821200005,19.041943966000076],[97.73563011900006,19.040448266000055],[97.73866725300007,19.035223405000067],[97.73895242000003,19.021581809000054],[97.73571293800006,19.01605193200004],[97.73721768700005,18.990602969000065],[97.73517936400003,18.983275857000024],[97.73892295100006,18.980453316000023],[97.73105716700007,18.972616209000023],[97.72616450800007,18.974433391000048],[97.72203323600007,18.967501281000068],[97.71616468900004,18.969379853000078],[97.70485751900009,18.96650068400004],[97.70732639700003,18.95766092100007],[97.69973149700007,18.957246347000023],[97.68973029400007,18.948884966000037],[97.68566325700004,18.952719542000068],[97.67503681300008,18.947176073000037],[97.66811989600006,18.94820287600004],[97.67079320000005,18.942008862000023],[97.66609186100004,18.937274820000027],[97.67129536300007,18.92926290400004],[97.67415524300009,18.93066407400005],[97.68908993600007,18.92558513800003],[97.68893390600005,18.91590429200005],[97.69646065300003,18.910581265000076],[97.69730409000005,18.904302915000073],[97.70363036000003,18.897786247000056],[97.71100297000004,18.896975798000028],[97.71964290000005,18.886440062000077],[97.73715099600008,18.886638146000053],[97.74097092200009,18.882081139000036],[97.73912584100003,18.86743856000004],[97.74605633700008,18.856785070000058],[97.74428038500008,18.849337546000072],[97.74849300800008,18.843537552000043],[97.74596220400008,18.833727160000024],[97.73975453300005,18.830074325000055],[97.74712886800006,18.809866446000058],[97.75265158500008,18.808169473000078],[97.74844849600004,18.798262694000073],[97.74931366400006,18.79031664300004],[97.75389111300007,18.78457471400003],[97.75250630900007,18.774361486000032],[97.75485805800008,18.76532112900003],[97.76153364900006,18.763003212000058],[97.76303654600008,18.757375423000042],[97.75850919200008,18.754855188000022],[97.75754694900007,18.743704587000025],[97.75169748300004,18.736977056000057],[97.75478889400006,18.73007116200006],[97.75467015900006,18.72039141700003],[97.75778697100009,18.71256105200007],[97.76536188200004,18.708122718000027],[97.77385469000006,18.689275061000046],[97.77075803500009,18.680246347000036],[97.77181596000008,18.673047171000064],[97.76746044700008,18.669270682000047],[97.77228566700006,18.655524094000043],[97.77109635200009,18.637471418000075],[97.76709859400006,18.63319857700003],[97.77107653500008,18.62840273100005],[97.76909993900006,18.622477667000055],[97.77365104100005,18.619014766000078],[97.77147838000008,18.599235657000065],[97.78440800000004,18.592605726000045],[97.78797732300006,18.596486716000072],[97.81369442800008,18.600986679000073],[97.81646927100007,18.605386244000044],[97.83005251600008,18.601899824000043],[97.83275413300004,18.60781713500006],[97.84450130800008,18.612924668000062],[97.85080790600006,18.619791038000074],[97.86473518900004,18.621417331000032],[97.87398812600009,18.613727397000048],[97.87685275700005,18.61723183600003],[97.88263400700004,18.610438413000054],[97.88995751700008,18.60916021500003],[97.90143092300008,18.617532271000073],[97.91257608000006,18.616462424000076],[97.91711809800006,18.621465398000055],[97.92939306900007,18.61428372000006],[97.93793275900003,18.61417874500006],[97.94032361100005,18.62335123400004],[97.95811687400004,18.624208973000066],[97.96551256200007,18.617403977000038],[97.96969928300007,18.62644096400004],[97.97781943500007,18.62805687900004],[97.98556439600009,18.634291648000044],[98.00304181900003,18.652212462000023],[98.02389030800003,18.659447433000025],[98.03564120500005,18.662001333000035],[98.05145937600008,18.662857943000063],[98.07229496900004,18.67549891400006],[98.08042356600004,18.669659756000044],[98.10480502500008,18.67702553600003],[98.10731660200008,18.688178237000045],[98.10024564800005,18.703913525000075],[98.10767987100007,18.713115925000068],[98.10327668700006,18.71825534000004],[98.10219542000004,18.735498904000053],[98.09370354800006,18.73830503000005],[98.10678067300006,18.745312468000066],[98.10746006800008,18.75121258200005],[98.12067162600005,18.759054012000036],[98.11816419400009,18.769082568000044],[98.12101871200008,18.77727130900007],[98.10700931900004,18.78018664500007],[98.09830336900006,18.775207201000057],[98.09317723500004,18.776557739000054],[98.09126384300004,18.786386915000037],[98.08634654400004,18.79262447800005],[98.08555987200003,18.80635325000003],[98.07959711400008,18.817492625000057],[98.08123418200006,18.83483472300003],[98.08778699600003,18.85050759300003],[98.08849812800008,18.85967904100005],[98.10231995800007,18.884600644000045],[98.10845671400006,18.88635935600007],[98.11080693400004,18.892717126000036],[98.11949634500007,18.897527110000055],[98.12452314600006,18.907673378000027],[98.13039253900007,18.91199914200007],[98.14410995400004,18.911788345000048],[98.15034686000007,18.918917823000072],[98.15623899500008,18.919035046000033],[98.15880062700006,18.929448265000076],[98.15664094200008,18.936987738000028],[98.14118857400007,18.933701194000037],[98.11638093900007,18.93940361800003],[98.10297219400007,18.934564200000068],[98.08580457600004,18.937804803000063],[98.07533411000009,18.94171195800004],[98.06604081600005,18.948046885000053],[98.06020069200008,18.94447672600006],[98.05759935800006,18.966555484000025],[98.05431725400007,18.97192965200003],[98.04343707100008,18.96672105400006],[98.04773405600008,18.958410050000055],[98.03656763100008,18.95485144500003],[98.03000721800004,18.958600411000077],[98.02522974800007,18.94719869100004],[98.01984953500005,18.944878329000062],[98.01544151800005,18.951316289000033],[98.00545645700004,18.953318035000052],[97.99485016000006,18.947639699000035],[97.98714776400004,18.94902141600005],[97.97734673900004,18.945450486000027],[97.96352518500004,18.954574318000027],[97.95650671200008,18.965717133000055],[97.95976930800003,18.97441649700005],[97.96757964400007,18.97916466600003],[97.96621247900003,18.990602644000035],[97.96853945100008,19.00447082200003],[97.96546064300009,19.009789157000057],[97.95475019000008,19.00562688900004],[97.94295668200004,19.015461131000052],[97.92512386600004,19.01742282600003],[97.92223412800007,19.021384518000048],[97.91361927700007,19.018924518000063],[97.90375290300005,19.02108458600003],[97.89340451000004,19.038828822000028],[97.89505333000005,19.047393854000063],[97.89031172800009,19.047347589000026],[97.88179244400004,19.055532954000057],[97.87376235500005,19.05885357300002],[97.86455911300004,19.058213484000078],[97.85615331900004,19.062941936000072],[97.84667351400003,19.063519600000063],[97.83346721300006,19.071550253000055],[97.82909559600006,19.09168020900006]]]},"properties":{"Shape_Leng":2.14562131442,"Shape_Area":0.139085021127,"ADM2_EN":"Khun Yuam","ADM2_TH":"ขุนยวม","ADM2_PCODE":"TH5802","ADM1_EN":"Mae Hong Son","ADM1_TH":"แม่ฮ่องสอน","ADM1_PCODE":"TH58","ADM0_EN":"Thailand","ADM0_TH":"ประเทศไทย","ADM0_PCODE":"TH"}},
{"type":"Feature","geometry":{"type":"Polygon","coordinates":[[[98.24311915900006,19.153501365000068],[98.25199465400004,19.160865521000062],[98.26145202400005,19.157533622000074],[98.26575414700005,19.152053271000057],[98.26848642900006,19.15570817100007],[98.28492336400006,19.152760777000026],[98.29302328000006,19.155656779000026],[98.31404648100005,19.15306137600004],[98.32529505200006,19.15579918700007],[98.33028216600007,19.150319782000054],[98.34142571500007,19.151623882000024],[98.33924331900005,19.14306412700006],[98.34968372200007,19.131389820000038],[98.34426741300007,19.128000365000048],[98.34733111600008,19.109685631000048],[98.35251862100006,19.103405817000066],[98.35338902700005,19.090391316000023],[98.36584870800004,19.08837034100003],[98.37180593000005,19.084588454000027],[98.37491544700003,19.07506301500007],[98.37251861300007,19.067172278000044],[98.38100235600007,19.05862619800007],[98.38293370100007,19.061247389000073],[98.39298426500005,19.055282238000075],[98.40077551500008,19.03642779200004],[98.40716863900008,19.035102601000062],[98.42098377800005,19.027148382000064],[98.43021060300003,19.04245086000003],[98.43921050900008,19.04844296500005],[98.44473651800007,19.045766643000036],[98.45402590500004,19.046851608000054],[98.47118296200006,19.041016769000066],[98.47497394800007,19.042862840000055],[98.51540434100008,19.032999102000076],[98.52521903800005,19.026321865000057],[98.54191550500008,19.026204420000056],[98.55270552300004,19.032424865000053],[98.55536064000006,19.038051100000075],[98.56580231400005,19.039500411000063],[98.56915833700003,19.046205232000034],[98.58030721100005,19.048478845000034],[98.59337106700008,19.04312240200005],[98.60432824600008,19.053613170000062],[98.61203098600004,19.055713550000064],[98.61717916900005,19.065793185000075],[98.62256785800008,19.067818068000065],[98.64047181200004,19.067807001000062],[98.64110320400005,19.075244944000076],[98.64898837600003,19.081054875000063],[98.65179063200009,19.095696684000075],[98.64410080800008,19.10523105900006],[98.63974538900004,19.13411457600006],[98.63652678900007,19.139930159000073],[98.63829808200006,19.15465165300003],[98.62286092000005,19.157721997000067],[98.62223507800007,19.16854833900004],[98.60753159700005,19.173019487000033],[98.60861278000004,19.178367034000075],[98.59137223400006,19.186584865000043],[98.58559141000006,19.186096768000027],[98.57661153200007,19.202200989000062],[98.56947574100008,19.205718147000027],[98.57156905300008,19.216433710000047],[98.57803058700006,19.214860852000072],[98.58802622300004,19.218915939000055],[98.59848984200005,19.22850685800006],[98.59733237900008,19.23791428100003],[98.59270061800004,19.242109606000042],[98.58777441500007,19.253295884000067],[98.59163799100008,19.267845230000034],[98.59795975200007,19.270883728000058],[98.60494488200004,19.279770378000023],[98.59432959900005,19.289191405000054],[98.60063102100008,19.29945159500005],[98.60131350400007,19.316598433000024],[98.59048511000003,19.32745906100007],[98.58909264800008,19.332236632000047],[98.59404761000008,19.33967046300006],[98.59106932000009,19.34271112400006],[98.59068661700007,19.353989881000075],[98.59518662600004,19.353982962000032],[98.59658230300005,19.362274393000064],[98.59234460400006,19.367461956000056],[98.58177386000006,19.36613872600003],[98.57521150400004,19.379353562000063],[98.57373306500006,19.391542813000058],[98.57704417200006,19.398462177000056],[98.58622370800003,19.397959358000037],[98.59617726900007,19.40698197200004],[98.58584914600004,19.41505077100004],[98.58437496700009,19.439800855000044],[98.59101253200004,19.450562599000023],[98.59128855900008,19.462870055000053],[98.59548869900004,19.462064455000075],[98.60002075800008,19.471051395000075],[98.59271339900005,19.483170468000026],[98.59520054600006,19.489122504000022],[98.58439205800005,19.50567763300006],[98.57413634200003,19.51245457300007],[98.56873662800007,19.507638254000028],[98.56371454000003,19.51928646500005],[98.56196778100008,19.529539774000057],[98.56585127500006,19.546624448000046],[98.54479210400007,19.556069663000073],[98.54541783400003,19.563263626000037],[98.54146014400004,19.56853952800003],[98.54218261200003,19.57803037700006],[98.53784021800004,19.58450442900005],[98.53990183300004,19.598236730000053],[98.53573910700004,19.601812076000044],[98.54018482900005,19.611056311000027],[98.52699562400005,19.613589623000053],[98.52175413500004,19.61974048600007],[98.52111508700006,19.626366403000077],[98.51653925300008,19.625582922000035],[98.50263343800003,19.63233321200005],[98.50013607600005,19.637309035000044],[98.48939090100004,19.64283248600003],[98.48135281100008,19.654696774000058],[98.47208126300006,19.656276495000043],[98.47027409800006,19.665578851000078],[98.47167041900008,19.67673957900007],[98.46807429500006,19.690810441000053],[98.46010995000006,19.697642143000053],[98.44630063800008,19.69335373200005],[98.43503028200007,19.696627695000075],[98.42501650200006,19.692885141000033],[98.41946157900009,19.69603287600006],[98.41441399100006,19.692898686000035],[98.40636803100006,19.695148438000047],[98.40453345200007,19.699742534000052],[98.39127835000005,19.70414520500003],[98.38757173900007,19.700161989000037],[98.37699425000005,19.697659787000077],[98.36980607700008,19.68954377700004],[98.35558361800008,19.69595835800004],[98.34975423900005,19.694206304000033],[98.34181241000005,19.697935888000075],[98.33701309200006,19.693729331000043],[98.32321905000003,19.69873702700005],[98.30861968600004,19.688032575000022],[98.33064616500008,19.677989921000062],[98.33657628100008,19.677913672000045],[98.33175742700007,19.66987443900007],[98.34013377400004,19.661957700000073],[98.35509141700004,19.656400552000036],[98.36357530900005,19.64996779100005],[98.37142031700006,19.647637263000036],[98.37325605700005,19.637818148000065],[98.37078048500007,19.63440332600004],[98.37704606800008,19.611149494000074],[98.37524007600007,19.607453199000076],[98.38116917500008,19.593412166000064],[98.37268792200007,19.576330013000074],[98.36313151500008,19.569527796000045],[98.36231027100007,19.55576906700003],[98.34518402600008,19.547432453000056],[98.33883238400006,19.53483257700003],[98.33769006800009,19.52692425400005],[98.34222757500004,19.49257299800007],[98.34125083100008,19.47789649300006],[98.32828319800007,19.468197916000065],[98.32738426500003,19.46288873800006],[98.31981114500007,19.451724760000047],[98.31916521800008,19.44102329900005],[98.31380005900007,19.42149258200004],[98.32056794900006,19.410081087000037],[98.33931180500008,19.39830287500007],[98.31892159000006,19.392672235000077],[98.30638881700008,19.393477105000045],[98.29616041800006,19.40244424200006],[98.28703469200008,19.399862463000034],[98.28298433700007,19.392975980000074],[98.27329587700007,19.38978538300006],[98.25273924600003,19.387873416000048],[98.24950798500004,19.389945925000063],[98.24051144100008,19.38206624700007],[98.23336414800008,19.385732864000033],[98.22740258600004,19.39289188200007],[98.21916932500005,19.393258513000035],[98.20023574400005,19.375448746000075],[98.19449706300009,19.374957342000073],[98.17929062000007,19.381430700000067],[98.15709266900006,19.37387183100003],[98.15549473000004,19.369483457000058],[98.15116844200008,19.36285156300005],[98.15117125000006,19.354625975000033],[98.14685173400005,19.352002277000054],[98.14481370000004,19.33878019200006],[98.13766154500007,19.338243402000046],[98.13155524000007,19.330366137000055],[98.12460740300008,19.32777489800003],[98.12676880200007,19.307387195000047],[98.13474644500008,19.276961458000073],[98.12713900500006,19.26871445300003],[98.13167206500003,19.260769009000057],[98.15118715200003,19.26692642200004],[98.16666749600006,19.25898949300006],[98.16292290600006,19.244335241000044],[98.16815195100008,19.23701287600005],[98.17036177000006,19.22477920700004],[98.16851074000004,19.21552001300006],[98.16104309200006,19.205520960000058],[98.15925139400008,19.19881272200007],[98.17887550800003,19.183018756000024],[98.17933636500004,19.176694861000044],[98.19526681100007,19.168840912000064],[98.20138300000008,19.169717883000033],[98.20703867600008,19.16212398500005],[98.21953624800005,19.15309661300006],[98.22936293300006,19.15636912900004],[98.24311915900006,19.153501365000068]]]},"properties":{"Shape_Leng":2.70187620803,"Shape_Area":0.196735639311,"ADM2_EN":"Pai","ADM2_TH":"ปาย","ADM2_PCODE":"TH5803","ADM1_EN":"Mae Hong Son","ADM1_TH":"แม่ฮ่องสอน","ADM1_PCODE":"TH58","ADM0_EN":"Thailand","ADM0_TH":"ประเทศไทย","ADM0_PCODE":"TH"}},
{"type":"Feature","geometry":{"type":"Polygon","coordinates":[[[97.76851914100007,18.578125252000063],[97.75390494300007,18.57622333200004],[97.73876245600007,18.57945649900006],[97.73218812200008,18.58642644300005],[97.72577664100004,18.584223741000073],[97.72209831900005,18.57357143300004],[97.70129058300006,18.569474908000075],[97.69294833500004,18.569994566000048],[97.68288797300005,18.575520383000026],[97.67370029400007,18.576995150000073],[97.67117766400008,18.573592920000067],[97.65061460400005,18.576938616000064],[97.64959144800008,18.570781321000027],[97.64427652300009,18.569539606000035],[97.64035102800005,18.562531705000026],[97.63390708400004,18.558765245000075],[97.62737941000006,18.565505751000046],[97.61455351000006,18.56138446800003],[97.61476717000005,18.554543614000067],[97.62265995600006,18.54396289600004],[97.61379638200003,18.545641328000045],[97.60671871900007,18.543542632000026],[97.60317983400006,18.536122313000078],[97.58831953100008,18.537860384000055],[97.58551675400008,18.533614197000077],[97.57190837500008,18.535130297000023],[97.56720597600008,18.52485991800006],[97.56284248600008,18.522120888000075],[97.54925575600004,18.53070241000006],[97.54367093600007,18.526397376000034],[97.54381027500006,18.518113165000045],[97.53679412000008,18.49274103500005],[97.51572469400008,18.497714509000048],[97.50970345400003,18.492778196000074],[97.49838281700005,18.495743510000068],[97.49069704000004,18.510031793000053],[97.47148888300006,18.50442681000004],[97.46381048800004,18.497102047000055],[97.45887844200007,18.499519279000026],[97.45464022600004,18.49361123600005],[97.44411622300004,18.49526432300007],[97.44330323900004,18.50252352700005],[97.43687919400008,18.50630753300004],[97.43626299700009,18.52034741700004],[97.42979981100007,18.52386722800003],[97.42659316500004,18.545990259000064],[97.41823329200008,18.55291294400007],[97.40730017100003,18.55749462400007],[97.40395979400006,18.566299644000026],[97.39369786600008,18.56138065300007],[97.38258878800008,18.559315293000054],[97.36433606500003,18.559600216000035],[97.36224210100005,18.56180640100007],[97.36351814200003,18.59356399400008],[97.36046690300003,18.59934648600006],[97.35779998100008,18.591940145000024],[97.34357768000007,18.576703424000073],[97.34430295500005,18.55282668700005],[97.34694824800005,18.543965499000024],[97.35342904900006,18.534378541000024],[97.36292446300007,18.526623054000027],[97.37330185100006,18.522562335000032],[97.38355710200005,18.510281957000075],[97.39053932500008,18.492015398000035],[97.39366526800006,18.473622178000028],[97.40304758700006,18.44939264800007],[97.41431441800006,18.44131298900004],[97.41815964400007,18.434585724000044],[97.41987496100006,18.421307910000053],[97.42540041900008,18.40930378300004],[97.42965057700007,18.40596813600007],[97.44159503100008,18.403470807000076],[97.45214084600008,18.388483826000027],[97.45041895800006,18.375595401000055],[97.44161839100008,18.358869807000076],[97.44361809100008,18.341590120000035],[97.44672769900006,18.331405991000054],[97.45203848200003,18.32820614800005],[97.46139917600004,18.30967444500004],[97.47012850000004,18.300396912000053],[97.48438191000008,18.29037386600004],[97.49403504400004,18.276012405000074],[97.50303192100006,18.266505815000073],[97.50698577400004,18.266500852000036],[97.52805214200004,18.277718698000058],[97.53573502100005,18.28614579300006],[97.54090555500005,18.299358102000042],[97.54298262600008,18.311625824000032],[97.55136358500005,18.33458498600004],[97.55946487900007,18.338794372000052],[97.56653121700003,18.33649270500007],[97.57542835700008,18.338352486000076],[97.58256011700007,18.332607943000028],[97.59220589100005,18.331675252000025],[97.60392227100004,18.326955825000027],[97.62033573600007,18.31699786100006],[97.62622953800008,18.309234269000058],[97.63908140600006,18.287019601000054],[97.63910804600005,18.280397101000062],[97.63398934200006,18.272104056000046],[97.61123917500004,18.25064585000007],[97.60873698700004,18.239629786000023],[97.61517556500007,18.222797007000054],[97.62810040600004,18.206774309000025],[97.64327091800004,18.192072963000044],[97.65149272000008,18.177899598000067],[97.65868486700003,18.172192430000052],[97.66899899600008,18.168476631000033],[97.67517458800006,18.16224691800005],[97.67735239300004,18.15428989800006],[97.67764766400006,18.11500118400005],[97.68777847000007,18.096592267000062],[97.69033548900006,18.088279728000032],[97.68842299800008,18.079119503000072],[97.67998666700004,18.07512528500007],[97.68238788400004,18.062839387000054],[97.68770170500005,18.060156815000028],[97.69189547200006,18.06490152500004],[97.69908989400005,18.065964074000078],[97.70766040200004,18.05648509300005],[97.70871507800007,18.04726043200003],[97.72369268800009,18.020771670000045],[97.72060836600008,18.01539099400003],[97.72618464100003,18.014740568000036],[97.72914744700006,18.02230911500004],[97.73639429400004,18.02604162800003],[97.75240546300006,18.02148982800003],[97.76909854400009,18.02046658300003],[97.77640073200007,18.014878863000035],[97.78650685700006,18.012882528000034],[97.79252911600008,18.019311928000036],[97.81762700900003,18.015980610000042],[97.82120558700007,18.00650513200003],[97.82795576500007,18.004119252000066],[97.86245653300006,18.017386500000043],[97.86982291500004,18.014224311000078],[97.88556303000007,18.01496551200006],[97.89687102000005,18.011622731000045],[97.90615021800005,18.01290732900003],[97.91909520800004,18.009859050000045],[97.91890641800006,18.017245442000046],[97.90828353000006,18.02156719900006],[97.90698780200006,18.025214301000062],[97.91764146300005,18.029341196000075],[97.92649204100007,18.036247476000028],[97.92196119200008,18.048423325000044],[97.92654028100009,18.06552241600002],[97.92285654900007,18.07002080500007],[97.93212702700004,18.075867653000046],[97.93776376800008,18.08718602700003],[97.95324505900004,18.09122272600007],[97.96170508800009,18.099030992000053],[97.97148303800009,18.09690590100007],[97.97726273200004,18.08651492200005],[97.97250746900005,18.068983813000045],[97.98201736300007,18.06381035100003],[97.98466374700007,18.056980685000042],[97.99694476300004,18.04790792500006],[97.99805372500003,18.042866315000026],[98.00647004900009,18.041176765000046],[98.01058178300008,18.03497666100003],[98.00937382000006,18.027632020000055],[98.01674819000004,18.018133913000042],[98.04577549600003,18.006310648000067],[98.04809609000006,18.000458821000052],[98.05756062800003,17.994198348000054],[98.06226290500007,17.99986305300007],[98.07033986100004,18.000883959000078],[98.07526360300005,18.01562788500007],[98.08128635900005,18.01813147200005],[98.07886819200007,18.033285110000065],[98.08805622700004,18.035753344000057],[98.08669687500009,18.049233403000073],[98.09534686200004,18.05444628600003],[98.09060375400009,18.058518492000076],[98.08926521500007,18.07225746900002],[98.09680263700005,18.079256351000026],[98.10640318300005,18.078547800000024],[98.10681924900007,18.083036857000025],[98.11692143800008,18.08441765300006],[98.11398910100007,18.086938306000036],[98.12400388200007,18.09175732800003],[98.12232765500005,18.120820914000035],[98.11229510800007,18.12792603200006],[98.10195099400005,18.144372239000063],[98.08968264500004,18.154556025000034],[98.08984714100006,18.165231822000067],[98.09992403800004,18.17059941800005],[98.10631722100004,18.16571916600003],[98.10914626800007,18.157795908000026],[98.12308372500007,18.155268680000063],[98.12868306400009,18.150596360000065],[98.13703229300006,18.151513143000045],[98.14571877000009,18.148037250000073],[98.16205680400009,18.147055864000038],[98.15604280800005,18.16131353700007],[98.15897836900007,18.167511672000046],[98.16610664300003,18.167377411000075],[98.16660429200005,18.182246534000058],[98.17605835500007,18.192076603000032],[98.17094765200005,18.201654940000026],[98.16638879000004,18.204197625000063],[98.16985072600005,18.220409536000034],[98.16589612400008,18.224742357000025],[98.15835204700005,18.221927563000065],[98.14642572600007,18.227751026000078],[98.13897593100006,18.240709306000042],[98.14288693400005,18.252243302000068],[98.13734924200008,18.25794862600003],[98.13574777800005,18.269096458000035],[98.13838687100008,18.281156019000036],[98.15349565000008,18.286256122000054],[98.16720144300007,18.282064331000072],[98.18203432300004,18.286348463000024],[98.19236434100009,18.28504599400003],[98.20183702200006,18.29144265900004],[98.20698385300005,18.302795569000068],[98.20733100300004,18.310234827000045],[98.20305820100003,18.31373960800005],[98.19767756000005,18.333288629000037],[98.19560415700005,18.33020000500005],[98.18990232000004,18.336432587000047],[98.17629625600006,18.346216010000035],[98.17039806200006,18.34598751900006],[98.15925290700005,18.324899172000073],[98.15853025800004,18.31978061600006],[98.14989367800007,18.313162266000063],[98.12522015800005,18.311134760000073],[98.10434733800008,18.319867637000073],[98.09728670300007,18.328238484000053],[98.09910201900004,18.336190185000078],[98.09210711200006,18.346014971000045],[98.07838966300005,18.342216739000037],[98.06860559100005,18.33403680500004],[98.06571875500003,18.323698911000065],[98.05871600800003,18.312815603000047],[98.05258141400009,18.29894270500006],[98.04623374400006,18.297071325000047],[98.03500712000005,18.287070881000034],[98.01286058000005,18.28349072800006],[98.01297777800005,18.274164652000024],[98.00446093200009,18.270396000000062],[97.99623949100004,18.274154486000043],[97.99072489900004,18.272151877000056],[97.98593572900006,18.258091196000066],[97.97761965800004,18.253159372000027],[97.96712770900007,18.258828418000064],[97.95715469200007,18.26954958300007],[97.95064225800007,18.28194319800002],[97.93625310500005,18.294591785000023],[97.91808912200008,18.281874105000043],[97.90775314600006,18.282493843000054],[97.90187779200005,18.294354618000057],[97.88070114800007,18.312337962000072],[97.87210025600007,18.316628584000057],[97.86269622500004,18.33600691500004],[97.85435944500006,18.343006845000048],[97.84071147100008,18.34585270900004],[97.82959440100007,18.35229225300003],[97.82204861400004,18.35121540500006],[97.81188151300006,18.359774652000056],[97.79843081900003,18.37487424400007],[97.80392292300007,18.389892605000057],[97.80916202400005,18.392957523000064],[97.80573739500005,18.400231895000047],[97.80789193600003,18.411662938000063],[97.79639325800008,18.416564864000065],[97.80464136600006,18.443952576000072],[97.78914789500004,18.444801833000042],[97.78623469000007,18.456721741000024],[97.78012170600005,18.471747739000023],[97.78040764400004,18.487478035000038],[97.78412319000006,18.495697784000072],[97.78070261000005,18.50894071400006],[97.78137298100006,18.51946222400005],[97.78592772300004,18.528492726000025],[97.78560747100005,18.538676224000028],[97.78023296700007,18.540157584000042],[97.76878135600003,18.551026768000042],[97.76678545600004,18.55920949800003],[97.77105905000008,18.57283380800004],[97.76851914100007,18.578125252000063]]]},"properties":{"Shape_Leng":3.77792395404,"Shape_Area":0.224250108813,"ADM2_EN":"Mae Sariang","ADM2_TH":"แม่สะเรียง","ADM2_PCODE":"TH5804","ADM1_EN":"Mae Hong Son","ADM1_TH":"แม่ฮ่องสอน","ADM1_PCODE":"TH58","ADM0_EN":"Thailand","ADM0_TH":"ประเทศไทย","ADM0_PCODE":"TH"}},
{"type":"Feature","geometry":{"type":"Polygon","coordinates":[[[97.77147838000008,18.599235657000065],[97.76722667000007,18.58199723300004],[97.76851914100007,18.578125252000063],[97.77105905000008,18.57283380800004],[97.76678545600004,18.55920949800003],[97.76878135600003,18.551026768000042],[97.78023296700007,18.540157584000042],[97.78560747100005,18.538676224000028],[97.78592772300004,18.528492726000025],[97.78137298100006,18.51946222400005],[97.78070261000005,18.50894071400006],[97.78412319000006,18.495697784000072],[97.78040764400004,18.487478035000038],[97.78012170600005,18.471747739000023],[97.78623469000007,18.456721741000024],[97.78914789500004,18.444801833000042],[97.80464136600006,18.443952576000072],[97.79639325800008,18.416564864000065],[97.80789193600003,18.411662938000063],[97.80573739500005,18.400231895000047],[97.80916202400005,18.392957523000064],[97.80392292300007,18.389892605000057],[97.79843081900003,18.37487424400007],[97.81188151300006,18.359774652000056],[97.82204861400004,18.35121540500006],[97.82959440100007,18.35229225300003],[97.84071147100008,18.34585270900004],[97.85435944500006,18.343006845000048],[97.86269622500004,18.33600691500004],[97.87210025600007,18.316628584000057],[97.88070114800007,18.312337962000072],[97.90187779200005,18.294354618000057],[97.90775314600006,18.282493843000054],[97.91808912200008,18.281874105000043],[97.93625310500005,18.294591785000023],[97.95064225800007,18.28194319800002],[97.95715469200007,18.26954958300007],[97.96712770900007,18.258828418000064],[97.97761965800004,18.253159372000027],[97.98593572900006,18.258091196000066],[97.99072489900004,18.272151877000056],[97.99623949100004,18.274154486000043],[98.00446093200009,18.270396000000062],[98.01297777800005,18.274164652000024],[98.01286058000005,18.28349072800006],[98.03500712000005,18.287070881000034],[98.04623374400006,18.297071325000047],[98.05258141400009,18.29894270500006],[98.05871600800003,18.312815603000047],[98.06571875500003,18.323698911000065],[98.06860559100005,18.33403680500004],[98.07838966300005,18.342216739000037],[98.09210711200006,18.346014971000045],[98.09910201900004,18.336190185000078],[98.09728670300007,18.328238484000053],[98.10434733800008,18.319867637000073],[98.12522015800005,18.311134760000073],[98.14989367800007,18.313162266000063],[98.15853025800004,18.31978061600006],[98.15925290700005,18.324899172000073],[98.17039806200006,18.34598751900006],[98.16591148400005,18.353258494000045],[98.14546876700007,18.362897476000057],[98.13968135900006,18.371700323000027],[98.13540180400008,18.385915865000072],[98.12997777600003,18.386278876000063],[98.12294843700005,18.394157972000073],[98.12620528300005,18.40593107500007],[98.11075303700005,18.409130726000058],[98.10087412000007,18.418351888000075],[98.09247838800007,18.421199501000046],[98.08382146300005,18.41739722600005],[98.07405342300007,18.429951265000057],[98.08168538100006,18.43927505700003],[98.08269830600005,18.44591613700004],[98.09930982900005,18.45670900500005],[98.10512825600006,18.457843172000025],[98.11261069100004,18.484447524000075],[98.11890171300007,18.48951426800005],[98.12244949100005,18.50256626500004],[98.12823266000004,18.50059735600007],[98.13161576700008,18.50500332400003],[98.14578365300008,18.51363690100004],[98.15428176000006,18.512355040000045],[98.16271370100009,18.521975626000028],[98.17026799500007,18.525118817000077],[98.17497283800009,18.54141057000004],[98.17456037400007,18.546640059000026],[98.18479442000006,18.548229868000078],[98.19330966300004,18.540419634000045],[98.20175833800005,18.541477893000035],[98.20653172000004,18.53750799900007],[98.21626683600005,18.543247416000042],[98.22484371400009,18.554604505000043],[98.23142650800008,18.556676164000066],[98.23149437500007,18.563618673000065],[98.23720248600006,18.571549323000056],[98.22743254400007,18.586716199000023],[98.21292642700007,18.59091952500006],[98.21065817200008,18.607181292000064],[98.18213375500005,18.61005334300006],[98.18291068700006,18.62504536800003],[98.17363091300007,18.628059791000055],[98.15992611100006,18.626805769000043],[98.15520643800005,18.632787015000076],[98.14325626200008,18.639344261000076],[98.13594621400006,18.635857284000053],[98.11753388300008,18.634739982000042],[98.11086354000008,18.64484772000003],[98.10543449600004,18.648619265000036],[98.10921460700007,18.664301245000047],[98.11265008000004,18.669316528000024],[98.10480502500008,18.67702553600003],[98.08042356600004,18.669659756000044],[98.07229496900004,18.67549891400006],[98.05145937600008,18.662857943000063],[98.03564120500005,18.662001333000035],[98.02389030800003,18.659447433000025],[98.00304181900003,18.652212462000023],[97.98556439600009,18.634291648000044],[97.97781943500007,18.62805687900004],[97.96969928300007,18.62644096400004],[97.96551256200007,18.617403977000038],[97.95811687400004,18.624208973000066],[97.94032361100005,18.62335123400004],[97.93793275900003,18.61417874500006],[97.92939306900007,18.61428372000006],[97.91711809800006,18.621465398000055],[97.91257608000006,18.616462424000076],[97.90143092300008,18.617532271000073],[97.88995751700008,18.60916021500003],[97.88263400700004,18.610438413000054],[97.87685275700005,18.61723183600003],[97.87398812600009,18.613727397000048],[97.86473518900004,18.621417331000032],[97.85080790600006,18.619791038000074],[97.84450130800008,18.612924668000062],[97.83275413300004,18.60781713500006],[97.83005251600008,18.601899824000043],[97.81646927100007,18.605386244000044],[97.81369442800008,18.600986679000073],[97.78797732300006,18.596486716000072],[97.78440800000004,18.592605726000045],[97.77147838000008,18.599235657000065]]]},"properties":{"Shape_Leng":1.95416857972,"Shape_Area":0.118485064199,"ADM2_EN":"Mae La Noi","ADM2_TH":"แม่ลาน้อย","ADM2_PCODE":"TH5805","ADM1_EN":"Mae Hong Son","ADM1_TH":"แม่ฮ่องสอน","ADM1_PCODE":"TH58","ADM0_EN":"Thailand","ADM0_TH":"ประเทศไทย","ADM0_PCODE":"TH"}},
{"type":"Feature","geometry":{"type":"Polygon","coordinates":[[[97.72060836600008,18.01539099400003],[97.73571049100008,17.987819165000076],[97.73721204900005,17.97732916900003],[97.73565873900009,17.958833843000036],[97.73014976200005,17.95232126600007],[97.71244798000004,17.94820990900007],[97.70382133600003,17.943356924000057],[97.68711234300008,17.92506314800005],[97.68514791200005,17.907957031000024],[97.68023486100009,17.901366292000034],[97.67199302300008,17.88289486800005],[97.67394743200003,17.871039746000065],[97.67816753400007,17.86630001800006],[97.68571727200003,17.850540867000063],[97.69157864100004,17.842927952000025],[97.69121039800007,17.833628270000077],[97.70303210300006,17.815630861000045],[97.70903589600005,17.81888460700003],[97.71853233400003,17.818952806000027],[97.71768472300005,17.80814669600005],[97.72307041700009,17.799594998000032],[97.73293348600004,17.796837787000072],[97.74237573800008,17.78576542600007],[97.74621245700007,17.786010433000058],[97.75259154100007,17.778095240000027],[97.76204415400008,17.776561943000047],[97.77375485900006,17.77919327500007],[97.78514836300008,17.785102902000062],[97.79471005600004,17.77712209200007],[97.81741748500008,17.786380173000055],[97.82604022600003,17.781564754000044],[97.84582484500004,17.77890104200003],[97.86660785800007,17.789029716000073],[97.87210996300007,17.795401669000057],[97.87769123200007,17.795297478000066],[97.88577339900007,17.801276792000067],[97.90203997500004,17.809314561000065],[97.90596836400005,17.820123151000075],[97.89959123900007,17.82825912900006],[97.90189063800005,17.836420505000035],[97.90741476900007,17.839917712000045],[97.91139559900006,17.853672913000025],[97.91834026300006,17.858302903000038],[97.94468515100004,17.858500055000036],[97.96942889600007,17.867729481000026],[97.97349914400007,17.863004861000036],[97.96712174700008,17.85699601600004],[97.97040847900007,17.84794845400006],[97.97480045900005,17.847955874000036],[97.98191416300006,17.839615812000034],[97.97521529500005,17.822874140000067],[97.97941410500005,17.823546045000057],[97.97968780400004,17.813913807000063],[97.99105437900005,17.808981027000073],[97.98546262900004,17.80649126900005],[97.98673311800007,17.798061804000042],[97.99055805600005,17.79653273400004],[97.99917795900006,17.781363776000035],[97.99812149600007,17.77524524000006],[98.00641664100004,17.774928300000056],[98.01058810900008,17.768072303000054],[98.00772013200003,17.76296108100007],[98.01468241200007,17.75566017500006],[98.01593741600004,17.747477998000022],[98.02190303400005,17.738293314000032],[98.01377800900008,17.739603213000066],[98.01499074900005,17.733038218000047],[98.02754357800006,17.720805936000033],[98.02296206800008,17.710908218000043],[98.03030231700006,17.71121976300003],[98.03066179300004,17.70232931000004],[98.03750991700008,17.696411214000022],[98.03895020800007,17.686829208000063],[98.04300179300009,17.680303570000035],[98.04015729400004,17.676144322000027],[98.05155873400008,17.667342681000036],[98.06125104900008,17.656993106000073],[98.06385233400005,17.648120075000065],[98.07278760700007,17.647795681000048],[98.08751101400009,17.636971256000038],[98.09460080500008,17.63741178600003],[98.10104838500007,17.64642311600005],[98.12629497600005,17.66027138000004],[98.14573101900004,17.685107680000044],[98.14415297600004,17.690515254000047],[98.15072527500007,17.69979391800007],[98.14949301700005,17.72345103400005],[98.15341321300008,17.729707382000072],[98.15004621600008,17.734367486000053],[98.14889125200006,17.746088610000072],[98.13980807900003,17.748998131000064],[98.13534361100005,17.759886292000033],[98.14012996700006,17.761287655000046],[98.14721293300005,17.776606683000068],[98.13542128500006,17.789153526000064],[98.13266027000009,17.79653241400007],[98.11325750900005,17.797615823000058],[98.10953268600008,17.793561934000024],[98.08622297700003,17.81056809300003],[98.08597200300005,17.81529712500003],[98.07830972800008,17.822493762000022],[98.07177140700009,17.83380237600005],[98.06995881600005,17.852775982000026],[98.06007777900004,17.857442654000067],[98.05446191500005,17.86786396100007],[98.04856621500005,17.868668021000076],[98.02948730900005,17.87911670400007],[98.02696164700006,17.88855938000006],[98.02040865500004,17.888514796000038],[98.01036106000004,17.89583139900003],[98.00868088500005,17.904207566000025],[98.01094256800008,17.926914860000068],[98.01465991200007,17.919419937000043],[98.02162625100004,17.92437207000006],[98.01895720600004,17.930180146000055],[98.02237813000005,17.93551768800006],[98.03539202600007,17.942719013000044],[98.04633446000008,17.942922015000022],[98.05708820200005,17.952147146000073],[98.06180830700004,17.949756088000072],[98.07386277300009,17.95761948100005],[98.07996008600009,17.95640392200005],[98.08999289100007,17.963342070000067],[98.09861716400007,17.962586465000072],[98.10240257100008,17.957405407000067],[98.12911006700006,17.94390809300006],[98.14072404200004,17.94081291200007],[98.14368706500005,17.935467691000042],[98.15020290700005,17.94064202800007],[98.15062902800008,17.95334070100006],[98.15509155700005,17.961793104000037],[98.15937005300003,17.96108244900006],[98.16382747700004,17.970976604000043],[98.17063119500006,17.974778186000037],[98.17977472800004,17.971845107000036],[98.18495754100007,17.97949744500005],[98.19682155000004,17.979095963000077],[98.20539067900006,17.98540990400005],[98.21207710400006,17.98115222100006],[98.21951773300003,17.986034036000035],[98.23544577700005,17.986012306000077],[98.24668485700005,17.992694221000022],[98.24465903000004,18.00352796800007],[98.24029961300005,18.01170026400007],[98.24358074400004,18.020097974000066],[98.25323951000007,18.02592577000007],[98.25699758400003,18.03694179400003],[98.26521799400007,18.050054528000032],[98.27260434800007,18.04845044500007],[98.28256359600005,18.06043358000005],[98.28945313400004,18.078209725000022],[98.28678753100007,18.08499611800005],[98.28222326400004,18.08278245500003],[98.27230778200004,18.087132678000046],[98.25992231900005,18.085610032000034],[98.25683086000004,18.087702147000073],[98.25170294700007,18.077891817000022],[98.24120612700005,18.078941801000042],[98.24265211800008,18.08796088300005],[98.22876852700006,18.08904446500003],[98.23346716700007,18.092193199000064],[98.23029525100009,18.098737606000043],[98.22654849500003,18.09195369500003],[98.21374351600008,18.087261050000052],[98.20170501300004,18.090727842000035],[98.20296127700004,18.100077793000025],[98.19027058800003,18.109925091000036],[98.19058464500006,18.11399063300007],[98.16572615800004,18.119051081000066],[98.16288644600007,18.13398683500003],[98.16803370800005,18.141199716000074],[98.16205680400009,18.147055864000038],[98.14571877000009,18.148037250000073],[98.13703229300006,18.151513143000045],[98.12868306400009,18.150596360000065],[98.12308372500007,18.155268680000063],[98.10914626800007,18.157795908000026],[98.10631722100004,18.16571916600003],[98.09992403800004,18.17059941800005],[98.08984714100006,18.165231822000067],[98.08968264500004,18.154556025000034],[98.10195099400005,18.144372239000063],[98.11229510800007,18.12792603200006],[98.12232765500005,18.120820914000035],[98.12400388200007,18.09175732800003],[98.11398910100007,18.086938306000036],[98.11692143800008,18.08441765300006],[98.10681924900007,18.083036857000025],[98.10640318300005,18.078547800000024],[98.09680263700005,18.079256351000026],[98.08926521500007,18.07225746900002],[98.09060375400009,18.058518492000076],[98.09534686200004,18.05444628600003],[98.08669687500009,18.049233403000073],[98.08805622700004,18.035753344000057],[98.07886819200007,18.033285110000065],[98.08128635900005,18.01813147200005],[98.07526360300005,18.01562788500007],[98.07033986100004,18.000883959000078],[98.06226290500007,17.99986305300007],[98.05756062800003,17.994198348000054],[98.04809609000006,18.000458821000052],[98.04577549600003,18.006310648000067],[98.01674819000004,18.018133913000042],[98.00937382000006,18.027632020000055],[98.01058178300008,18.03497666100003],[98.00647004900009,18.041176765000046],[97.99805372500003,18.042866315000026],[97.99694476300004,18.04790792500006],[97.98466374700007,18.056980685000042],[97.98201736300007,18.06381035100003],[97.97250746900005,18.068983813000045],[97.97726273200004,18.08651492200005],[97.97148303800009,18.09690590100007],[97.96170508800009,18.099030992000053],[97.95324505900004,18.09122272600007],[97.93776376800008,18.08718602700003],[97.93212702700004,18.075867653000046],[97.92285654900007,18.07002080500007],[97.92654028100009,18.06552241600002],[97.92196119200008,18.048423325000044],[97.92649204100007,18.036247476000028],[97.91764146300005,18.029341196000075],[97.90698780200006,18.025214301000062],[97.90828353000006,18.02156719900006],[97.91890641800006,18.017245442000046],[97.91909520800004,18.009859050000045],[97.90615021800005,18.01290732900003],[97.89687102000005,18.011622731000045],[97.88556303000007,18.01496551200006],[97.86982291500004,18.014224311000078],[97.86245653300006,18.017386500000043],[97.82795576500007,18.004119252000066],[97.82120558700007,18.00650513200003],[97.81762700900003,18.015980610000042],[97.79252911600008,18.019311928000036],[97.78650685700006,18.012882528000034],[97.77640073200007,18.014878863000035],[97.76909854400009,18.02046658300003],[97.75240546300006,18.02148982800003],[97.73639429400004,18.02604162800003],[97.72914744700006,18.02230911500004],[97.72618464100003,18.014740568000036],[97.72060836600008,18.01539099400003]]]},"properties":{"Shape_Leng":3.28174343022,"Shape_Area":0.121885731226,"ADM2_EN":"Sop Moei","ADM2_TH":"สบเมย","ADM2_PCODE":"TH5806","ADM1_EN":"Mae Hong Son","ADM1_TH":"แม่ฮ่องสอน","ADM1_PCODE":"TH58","ADM0_EN":"Thailand","ADM0_TH":"ประเทศไทย","ADM0_PCODE":"TH"}},
{"type":"Feature","geometry":{"type":"Polygon","coordinates":[[[98.15549473000004,19.369483457000058],[98.15709266900006,19.37387183100003],[98.17929062000007,19.381430700000067],[98.19449706300009,19.374957342000073],[98.20023574400005,19.375448746000075],[98.21916932500005,19.393258513000035],[98.22740258600004,19.39289188200007],[98.23336414800008,19.385732864000033],[98.24051144100008,19.38206624700007],[98.24950798500004,19.389945925000063],[98.25273924600003,19.387873416000048],[98.27329587700007,19.38978538300006],[98.28298433700007,19.392975980000074],[98.28703469200008,19.399862463000034],[98.29616041800006,19.40244424200006],[98.30638881700008,19.393477105000045],[98.31892159000006,19.392672235000077],[98.33931180500008,19.39830287500007],[98.32056794900006,19.410081087000037],[98.31380005900007,19.42149258200004],[98.31916521800008,19.44102329900005],[98.31981114500007,19.451724760000047],[98.32738426500003,19.46288873800006],[98.32828319800007,19.468197916000065],[98.34125083100008,19.47789649300006],[98.34222757500004,19.49257299800007],[98.33769006800009,19.52692425400005],[98.33883238400006,19.53483257700003],[98.34518402600008,19.547432453000056],[98.36231027100007,19.55576906700003],[98.36313151500008,19.569527796000045],[98.37268792200007,19.576330013000074],[98.38116917500008,19.593412166000064],[98.37524007600007,19.607453199000076],[98.37704606800008,19.611149494000074],[98.37078048500007,19.63440332600004],[98.37325605700005,19.637818148000065],[98.37142031700006,19.647637263000036],[98.36357530900005,19.64996779100005],[98.35509141700004,19.656400552000036],[98.34013377400004,19.661957700000073],[98.33175742700007,19.66987443900007],[98.33657628100008,19.677913672000045],[98.33064616500008,19.677989921000062],[98.30861968600004,19.688032575000022],[98.30083896500008,19.687018283000043],[98.29230554600008,19.681598144000077],[98.28787215400007,19.685020794000025],[98.27742718600007,19.68180428900007],[98.26643987300008,19.68338555400004],[98.26030282100004,19.67860250600006],[98.24827022600005,19.676676334000035],[98.23674516600005,19.68823483400007],[98.23161441900004,19.69753736900003],[98.23793724900008,19.70970881100004],[98.23089727800004,19.71817948100005],[98.22992547800004,19.726041270000053],[98.22538294500004,19.728209338000056],[98.21763414800006,19.725091470000052],[98.21226767500008,19.730495220000023],[98.20282911200007,19.73214041700004],[98.19732349700007,19.738819404000026],[98.19345223500005,19.737893494000048],[98.18367903200004,19.750592419000043],[98.18440527800004,19.759238613000036],[98.17878127000006,19.760240959000043],[98.17282266100005,19.76735015500003],[98.16331979500006,19.773557984000036],[98.15700706700005,19.771111589000043],[98.13543977300009,19.788269075000073],[98.12258211700004,19.779605151000055],[98.11509593300008,19.77926007600007],[98.11303915900004,19.77387058900007],[98.10087038500006,19.77208678900007],[98.09034534600005,19.79100111200006],[98.08373696300004,19.791737475000048],[98.08623407300007,19.80457238200006],[98.08277519000006,19.81040617800005],[98.06667381600005,19.80998656500003],[98.06421792300006,19.804734574000065],[98.05513758900008,19.805413645000044],[98.04893881500004,19.81520277800007],[98.04353467800007,19.80832324000005],[98.03400271800007,19.803439081000022],[98.03956046500008,19.799714813000037],[98.03523118300006,19.79361188000007],[98.03359707900006,19.772548522000022],[98.03772154100005,19.76583272700003],[98.03296979800007,19.753871982000078],[98.03383063100006,19.742256160000068],[98.02952212200006,19.734325640000066],[98.03191540400007,19.725481590000072],[98.02499583400004,19.72201570900006],[98.02886223500008,19.706417298000076],[98.03450528800005,19.70024200900008],[98.02858394200007,19.688142688000028],[98.03398106300006,19.67762902800007],[98.03290796700009,19.670488473000034],[98.04227588300006,19.665846169000076],[98.04433017300005,19.653431569000077],[98.03714173000009,19.642984866000063],[98.02695305400005,19.641465677000042],[98.02675772400005,19.637761493000028],[98.03217201400008,19.637655752000057],[98.03849045100009,19.62958968600003],[98.04398331200008,19.630362241000057],[98.05320925400008,19.626165800000024],[98.06047820500004,19.614866133000078],[98.05871605000004,19.606805112000075],[98.06294771500006,19.601491742000064],[98.06316825200008,19.594160789000057],[98.07067502000007,19.58726685700003],[98.06989436200007,19.583113488000038],[98.07839470800008,19.580988572000024],[98.07482299800006,19.571955612000068],[98.07961157700004,19.55232983600007],[98.09036181400006,19.546643937000056],[98.09706937600004,19.53541182500004],[98.11531810700006,19.535123678000048],[98.12104597500007,19.53075256300008],[98.11865885400005,19.52657726500007],[98.12580489800007,19.520504386000027],[98.12177048200004,19.51663299200004],[98.12670600600006,19.512301110000067],[98.12175669700008,19.50372347900003],[98.11861917200008,19.491837686000054],[98.11974385300005,19.479195308000044],[98.12403656800007,19.476113686000076],[98.11423354600004,19.460416339000062],[98.11852289000007,19.45398569100007],[98.12141115300005,19.430146814000068],[98.11940664700006,19.420712507000076],[98.11204207900005,19.41489270900007],[98.11235262300005,19.389980604000073],[98.13298221000008,19.379155925000077],[98.15549473000004,19.369483457000058]]]},"properties":{"Shape_Leng":1.73702286889,"Shape_Area":0.0947090152421,"ADM2_EN":"Pang Mapha","ADM2_TH":"ปางมะผ้า","ADM2_PCODE":"TH5807","ADM1_EN":"Mae Hong Son","ADM1_TH":"แม่ฮ่องสอน","ADM1_PCODE":"TH58","ADM0_EN":"Thailand","ADM0_TH":"ประเทศไทย","ADM0_PCODE":"TH"}}
]}