{"type":"FeatureCollection", "features": [
{"type":"Feature","geometry":{"type":"Polygon","coordinates":[[[100.05739443800007,13.913663632000066],[100.05563178100005,13.91017064700003],[100.04942853000006,13.909136473000046],[100.04567990000004,13.911317789000066],[100.04292226400008,13.907683906000045],[100.03836794700004,13.910424431000024],[100.03388242600005,13.902453249000075],[100.04258511800003,13.896981582000024],[100.04059655900005,13.893065384000067],[100.04059747900004,13.888305052000021],[100.03420249000004,13.888025413000037],[100.03361939100006,13.88460152600004],[100.02050075600005,13.889163006000047],[100.02427036100005,13.891970976000039],[100.01933070900009,13.898674844000027],[100.01438055600005,13.897274423000056],[100.00971615400005,13.904139085000054],[100.00191842000004,13.910403805000044],[99.99518446700006,13.91423719100004],[99.99181696700003,13.913123135000035],[99.98969368800005,13.917838018000054],[99.98377225100006,13.918840094000075],[99.98201122600005,13.92805405100006],[99.97500214400009,13.933255142000064],[99.97090392600006,13.938446380000073],[99.97207039700004,13.943648542000062],[99.96502151600004,13.935022446000062],[99.96035211400005,13.936113832000046],[99.95941827500008,13.939143122000075],[99.95394530300007,13.944654339000067],[99.94815080000006,13.945268431000045],[99.94409169200009,13.942866512000023],[99.94255015700008,13.939487147000023],[99.93456890300007,13.934901787000058],[99.92833143800004,13.93892863800005],[99.92702629000007,13.933968390000075],[99.92500757800008,13.928694630000052],[99.92443707700005,13.920276847000025],[99.91666915800005,13.91351749200004],[99.92248710000007,13.910753914000054],[99.92808690900006,13.910064243000022],[99.92309226300006,13.897487119000061],[99.91927433200004,13.898589893000064],[99.91388642300006,13.897103142000049],[99.90779445400005,13.889466414000026],[99.90542792900004,13.882740658000046],[99.91269376900004,13.871371216000057],[99.90088998600004,13.841629012000055],[99.90432536300005,13.842519607000042],[99.90904544600005,13.847306923000076],[99.91352153300005,13.843349196000077],[99.92060249000008,13.84572974100007],[99.92654546000006,13.842746815000055],[99.92952808200005,13.843558486000063],[99.93708029200008,13.841145211000025],[99.93802140400004,13.837159350000036],[99.93566084900004,13.833794856000054],[99.94219880700007,13.829903944000023],[99.95411938000007,13.832539741000062],[99.95793804100003,13.836253653000028],[99.96268077700006,13.831830023000066],[99.96356491200004,13.82515993100003],[99.96263901300006,13.813402975000031],[99.96992345700005,13.810455156000046],[99.96878668500005,13.804964690000077],[99.97064058100005,13.803541947000042],[99.96973684500006,13.798494267000024],[99.96676012800003,13.796839513000066],[99.95487826600004,13.79529083600005],[99.95495614300006,13.783891294000057],[99.95241821900004,13.774212031000047],[99.94481755400005,13.770035556000039],[99.93792437800005,13.769773061000024],[99.94075890400006,13.75522982900003],[99.94290487000006,13.751179319000073],[99.94213043200006,13.745167922000064],[99.94795709900006,13.739239997000027],[99.94890610500005,13.73373383300003],[99.95404879500006,13.733032312000034],[99.95464018600006,13.725199304000057],[99.95668538100006,13.72593923900007],[99.96017556000004,13.72185182100003],[99.97594478600007,13.729688972000076],[99.97579866400008,13.731206448000023],[99.99014610400008,13.735007414000052],[99.98968275200008,13.737663887000053],[99.99682354500004,13.742642492000073],[100.00109645100008,13.738719049000053],[100.01125704600008,13.745269410000049],[100.01954339400004,13.746843462000072],[100.02235821300008,13.750497702000075],[100.02881851600006,13.75437398400004],[100.03054741900007,13.744336995000026],[100.02886218900005,13.74035858800005],[100.02439945200007,13.739132350000034],[100.02293039100005,13.729868212000042],[100.02424611000004,13.712435603000074],[100.02407454700005,13.702895132000037],[100.02505427900007,13.698436511000068],[100.03346538500006,13.694534027000032],[100.03470636900005,13.691571292000049],[100.04124941200007,13.69213650100005],[100.04330753600004,13.696580702000063],[100.04903205900007,13.697076632000062],[100.05055904000005,13.695107084000028],[100.06098164600007,13.695133448000036],[100.06788866400007,13.69335264700004],[100.07238806400005,13.698248277000062],[100.07804364400005,13.698528253000063],[100.08722882500007,13.700813507000078],[100.08868970000003,13.699765488000025],[100.09706012200007,13.700710966000031],[100.10741387700006,13.704790374000027],[100.10100995700009,13.727722720000031],[100.10362460300007,13.728393522000033],[100.10133598900006,13.743245510000065],[100.10252249800004,13.746199896000064],[100.10091764500004,13.760185670000055],[100.09840381300006,13.764104926000073],[100.09844612300009,13.767839078000065],[100.10250346900006,13.774825919000023],[100.10335891000005,13.779582547000075],[100.10973806600003,13.78992639200004],[100.11307345800009,13.788827011000024],[100.11493182800007,13.795179476000044],[100.11822799200007,13.798888385000055],[100.12551300400008,13.810884913000052],[100.12430429400007,13.82550141300004],[100.12683259500005,13.834846771000059],[100.12812561200008,13.835576648000028],[100.13176016000006,13.845893580000052],[100.13166477700008,13.848754203000055],[100.12297422600005,13.86001193900006],[100.12041836700007,13.861767582000027],[100.11650078200006,13.871844614000054],[100.09975670400007,13.871338617000049],[100.09499255700007,13.872085484000024],[100.09252715100007,13.87464701500005],[100.09319692100007,13.87790880700004],[100.09672067800005,13.879645865000043],[100.09534149800004,13.883361390000061],[100.08382196400004,13.891565627000034],[100.07729800300007,13.893488068000067],[100.07612529000005,13.899623881000025],[100.07088102300008,13.90073422200004],[100.07392334800005,13.904215436000072],[100.06546065300006,13.904843232000076],[100.05739443800007,13.913663632000066]]]},"properties":{"Shape_Leng":1.18317187118,"Shape_Area":0.0341160075293,"ADM2_EN":"Mueang Nakhon Pathom","ADM2_TH":"เมืองนครปฐม","ADM2_PCODE":"TH7301","ADM1_EN":"Nakhon Pathom","ADM1_TH":"นครปฐม","ADM1_PCODE":"TH73","ADM0_EN":"Thailand","ADM0_TH":"ประเทศไทย","ADM0_PCODE":"TH"}},
{"type":"Feature","geometry":{"type":"Polygon","coordinates":[[[100.05739443800007,13.913663632000066],[100.05562209700008,13.916799018000063],[100.05698163400007,13.921366152000076],[100.05564364700007,13.926436421000062],[100.05700206200004,13.933594020000044],[100.05211390400007,13.931274965000057],[100.05101079700006,13.933627534000038],[100.04622170900006,13.931705859000033],[100.04564166800009,13.935049819000028],[100.04025891600008,13.933872916000041],[100.03567906500007,13.93849418700006],[100.03317404000006,13.937032995000038],[100.02709399300005,13.940936519000047],[100.02605624100005,13.936145724000028],[100.02273200600007,13.940121892000036],[100.01716589800009,13.943175108000048],[100.01791503600003,13.945204530000069],[100.02357306600004,13.943399366000051],[100.02275121300005,13.950975234000055],[100.01919246700004,13.952345242000035],[100.01925162800006,13.956200670000044],[100.01469539900006,13.953474867000068],[100.01223747300008,13.956253162000053],[100.01298186900004,13.96113431200007],[100.01784269600006,13.962436675000049],[100.01963654800005,13.968492517000072],[100.01923601100003,13.972955111000033],[100.02400825100005,13.972610490000022],[100.02414154900003,13.976375270000062],[100.02728430000008,13.977805757000056],[100.03275934000004,13.973864186000071],[100.03683349800008,13.975119165000024],[100.03663899200006,13.980654788000038],[100.03836822800008,13.984241317000055],[100.04900497600005,13.983647622000035],[100.05292341200004,13.988171304000048],[100.05777462200007,13.989898663000076],[100.05756268600004,13.996654892000038],[100.05955339300004,13.993844958000068],[100.06306474100006,13.99387060600003],[100.06106814500004,13.997494037000024],[100.06105416700007,14.004700175000039],[100.06503828500007,14.008629308000025],[100.06273970000007,14.01438997400004],[100.06051831700006,14.014154463000068],[100.05938250200006,14.021616159000075],[100.06292815100005,14.025822808000044],[100.06428017600007,14.032634245000054],[100.05890900400004,14.032531609000046],[100.05624138600007,14.036891506000075],[100.05168696000004,14.051687571000059],[100.06061312000008,14.053985194000063],[100.06102131600005,14.060026785000048],[100.05964937200008,14.070633646000033],[100.06454902300004,14.073163215000022],[100.06003061000007,14.080440575000068],[100.06028709300006,14.089974766000068],[100.06353731400009,14.09524465800007],[100.06636620200004,14.093300041000077],[100.06839725100008,14.099409721000029],[100.06323365200006,14.103378573000043],[100.06242299800005,14.106111397000063],[100.06272217600008,14.116784838000058],[100.06670762800007,14.117413931000044],[100.06572195600006,14.12436757000006],[100.06302149100009,14.124960867000027],[100.06267907900008,14.134239571000023],[100.06343058700008,14.145437848000029],[100.05118709500005,14.146339621000038],[100.04890237200004,14.151853902000028],[100.03917401000007,14.153635483000073],[100.02968049400005,14.151468150000028],[100.02756714900005,14.147961673000054],[100.02013761500007,14.147954283000047],[100.01501678500006,14.14501511900005],[100.00391043200005,14.141201204000026],[100.00155872100004,14.143237249000038],[99.99213636500008,14.139302994000047],[99.98725125400006,14.140340313000024],[99.97657703100003,14.139501299000074],[99.97446442000006,14.143074342000034],[99.96667509600007,14.139963821000038],[99.96522557100008,14.137623518000055],[99.97094073900007,14.133696186000066],[99.96415972700004,14.130808896000076],[99.95631238800007,14.131864846000042],[99.94998255400009,14.13445480300004],[99.94360610100006,14.134259511000039],[99.94355385500006,14.131619083000032],[99.93950093700005,14.13105104400006],[99.93981980300003,14.126754559000062],[99.93144971400005,14.123501901000054],[99.92714714100003,14.12774511200007],[99.89225007800007,14.090124739000032],[99.88498691600006,14.090658377000068],[99.86828214200006,14.073584442000026],[99.85427569600006,14.078619969000044],[99.84383076200004,14.075954796000076],[99.83478511900006,14.079038647000061],[99.82670757500006,14.075988058000064],[99.82406778500007,14.076421092000032],[99.82204471300008,14.072446255000045],[99.81781009400004,14.071007702000031],[99.81410096500008,14.064237109000032],[99.82196381000006,14.061228371000027],[99.83362871300005,14.060589256000071],[99.84041225000004,14.05542769300007],[99.84758474100005,14.052695705000076],[99.84895313400006,14.042838967000023],[99.84664332300008,14.042727350000064],[99.84586670500005,14.03789897200005],[99.84111964000004,14.036704130000032],[99.84204221400006,14.03335538600004],[99.83685642100005,14.030902086000026],[99.83840488300007,14.026221022000072],[99.83599337600003,14.025011061000043],[99.83290658300007,14.003137563000053],[99.82919218100005,13.998384678000036],[99.83142326800004,13.997331022000026],[99.83356802300005,13.990996003000078],[99.83954097100008,13.98325370200007],[99.84328727600007,13.983508634000032],[99.84584690100007,13.975842876000058],[99.85392609800004,13.964602333000073],[99.86446182900005,13.966260135000027],[99.86857450600007,13.96325781400003],[99.87540753400003,13.96162092000003],[99.87778533800008,13.955731440000022],[99.88218166200005,13.949756401000059],[99.88533764100004,13.950405927000077],[99.89108602800007,13.947298966000062],[99.89896984100005,13.94127730300005],[99.90923603100003,13.939591268000072],[99.92158180300004,13.936419858000022],[99.92702629000007,13.933968390000075],[99.92833143800004,13.93892863800005],[99.93456890300007,13.934901787000058],[99.94255015700008,13.939487147000023],[99.94409169200009,13.942866512000023],[99.94815080000006,13.945268431000045],[99.95394530300007,13.944654339000067],[99.95941827500008,13.939143122000075],[99.96035211400005,13.936113832000046],[99.96502151600004,13.935022446000062],[99.97207039700004,13.943648542000062],[99.97090392600006,13.938446380000073],[99.97500214400009,13.933255142000064],[99.98201122600005,13.92805405100006],[99.98377225100006,13.918840094000075],[99.98969368800005,13.917838018000054],[99.99181696700003,13.913123135000035],[99.99518446700006,13.91423719100004],[100.00191842000004,13.910403805000044],[100.00971615400005,13.904139085000054],[100.01438055600005,13.897274423000056],[100.01933070900009,13.898674844000027],[100.02427036100005,13.891970976000039],[100.02050075600005,13.889163006000047],[100.03361939100006,13.88460152600004],[100.03420249000004,13.888025413000037],[100.04059747900004,13.888305052000021],[100.04059655900005,13.893065384000067],[100.04258511800003,13.896981582000024],[100.03388242600005,13.902453249000075],[100.03836794700004,13.910424431000024],[100.04292226400008,13.907683906000045],[100.04567990000004,13.911317789000066],[100.04942853000006,13.909136473000046],[100.05563178100005,13.91017064700003],[100.05739443800007,13.913663632000066]]]},"properties":{"Shape_Leng":1.26896555676,"Shape_Area":0.0403492509477,"ADM2_EN":"Kamphaeng Saen","ADM2_TH":"กำแพงแสน","ADM2_PCODE":"TH7302","ADM1_EN":"Nakhon Pathom","ADM1_TH":"นครปฐม","ADM1_PCODE":"TH73","ADM0_EN":"Thailand","ADM0_TH":"ประเทศไทย","ADM0_PCODE":"TH"}},
{"type":"Feature","geometry":{"type":"Polygon","coordinates":[[[100.10741387700006,13.704790374000027],[100.11533943300009,13.706948297000054],[100.13109651400003,13.708941751000054],[100.13247140300007,13.71396072500005],[100.13611030500005,13.714674586000058],[100.13972252000008,13.711706823000043],[100.14310151900008,13.716508722000071],[100.14798718000009,13.714797611000051],[100.15136040800007,13.724637672000028],[100.15103703300008,13.731008771000063],[100.15226748300006,13.737704276000045],[100.16026703300008,13.737366821000023],[100.16036952300004,13.740845410000077],[100.16547423800006,13.740547656000047],[100.17728845800008,13.742788720000021],[100.17848616100008,13.744571656000062],[100.18335909800004,13.740224414000068],[100.18584759200007,13.741538649000063],[100.19190886900009,13.748680739000065],[100.20421021900006,13.760430943000074],[100.20848168200007,13.765981858000032],[100.22147400800009,13.779068061000032],[100.22516688500008,13.783686060000036],[100.22847460100007,13.792646641000033],[100.23028646600005,13.793529121000063],[100.23689421500006,13.791040330000044],[100.24307140000008,13.794938758000058],[100.24788013000006,13.801656527000034],[100.24916872400007,13.805099829000028],[100.24553319900008,13.805461770000022],[100.24020818100007,13.801432314000067],[100.23613924500006,13.802583904000073],[100.23817867300005,13.814056161000053],[100.24459293500007,13.817195768000033],[100.24283794600007,13.82313823100003],[100.24600855600005,13.828509046000022],[100.26438056700005,13.829320434000067],[100.26735478800003,13.864187327000025],[100.25726844400003,13.899155738000047],[100.25612202000008,13.904495505000057],[100.24973885100007,13.905779702000075],[100.23742744600008,13.903193029000022],[100.23353285500008,13.899792682000054],[100.22828193700008,13.904975227000023],[100.22367483900007,13.905982048000055],[100.21906273800005,13.904727990000026],[100.21112440700006,13.904995751000058],[100.20967195900005,13.90864954400007],[100.20562288200006,13.908973719000073],[100.19934543800008,13.912407148000057],[100.19794740100008,13.916481304000058],[100.19104209600005,13.91520091700005],[100.18144494800003,13.920095050000043],[100.17717423600004,13.920222242000023],[100.17513656800008,13.92272207800005],[100.17625038000006,13.919017892000056],[100.16700830800005,13.914844354000024],[100.16545675600008,13.910496358000046],[100.15827032100003,13.90851815700006],[100.15798289400004,13.905226479000078],[100.15354149300003,13.904512775000057],[100.15538836600007,13.900925656000027],[100.14819918400008,13.895473209000045],[100.14344062000004,13.89517911300004],[100.13644431000006,13.890599512000051],[100.13690750400008,13.885085711000045],[100.13401174600006,13.883715326000072],[100.13482718800009,13.879266069000039],[100.13022400900007,13.878785194000045],[100.12902393600007,13.875917180000044],[100.12246941500007,13.87461109000003],[100.12105324000004,13.872086952000075],[100.11650078200006,13.871844614000054],[100.12041836700007,13.861767582000027],[100.12297422600005,13.86001193900006],[100.13166477700008,13.848754203000055],[100.13176016000006,13.845893580000052],[100.12812561200008,13.835576648000028],[100.12683259500005,13.834846771000059],[100.12430429400007,13.82550141300004],[100.12551300400008,13.810884913000052],[100.11822799200007,13.798888385000055],[100.11493182800007,13.795179476000044],[100.11307345800009,13.788827011000024],[100.10973806600003,13.78992639200004],[100.10335891000005,13.779582547000075],[100.10250346900006,13.774825919000023],[100.09844612300009,13.767839078000065],[100.09840381300006,13.764104926000073],[100.10091764500004,13.760185670000055],[100.10252249800004,13.746199896000064],[100.10133598900006,13.743245510000065],[100.10362460300007,13.728393522000033],[100.10100995700009,13.727722720000031],[100.10741387700006,13.704790374000027]]]},"properties":{"Shape_Leng":0.774373194756,"Shape_Area":0.0218091144618,"ADM2_EN":"Nakhon Chai Si","ADM2_TH":"นครชัยศรี","ADM2_PCODE":"TH7303","ADM1_EN":"Nakhon Pathom","ADM1_TH":"นครปฐม","ADM1_PCODE":"TH73","ADM0_EN":"Thailand","ADM0_TH":"ประเทศไทย","ADM0_PCODE":"TH"}},
{"type":"Feature","geometry":{"type":"Polygon","coordinates":[[[100.11650078200006,13.871844614000054],[100.12105324000004,13.872086952000075],[100.12246941500007,13.87461109000003],[100.12902393600007,13.875917180000044],[100.13022400900007,13.878785194000045],[100.13482718800009,13.879266069000039],[100.13401174600006,13.883715326000072],[100.13690750400008,13.885085711000045],[100.13644431000006,13.890599512000051],[100.14344062000004,13.89517911300004],[100.14819918400008,13.895473209000045],[100.15538836600007,13.900925656000027],[100.15354149300003,13.904512775000057],[100.15798289400004,13.905226479000078],[100.15827032100003,13.90851815700006],[100.16545675600008,13.910496358000046],[100.16700830800005,13.914844354000024],[100.17625038000006,13.919017892000056],[100.17513656800008,13.92272207800005],[100.17447234400004,13.925766774000067],[100.16356160400005,13.929653991000066],[100.15914732900006,13.932234719000064],[100.15816158600006,13.935248835000039],[100.14269507300008,13.948406005000038],[100.12953735500008,13.957402706000039],[100.12200026600004,13.96004405800005],[100.12053679000007,13.963595772000076],[100.11604518900003,13.962419887000067],[100.11454965900003,13.964845165000042],[100.11056784100003,13.964534182000023],[100.10682478400008,13.966706944000066],[100.10411118400003,13.96383677800003],[100.10010756300005,13.970561786000076],[100.10238417000005,13.98079294300004],[100.09838862400005,13.984641160000024],[100.09802113700005,13.992129258000034],[100.09518901100006,13.999083592000034],[100.09617325700003,14.002963894000061],[100.10270024500005,14.007727054000043],[100.10374738000007,14.010908473000029],[100.10825325400003,14.010819775000073],[100.10725502300005,14.018205330000058],[100.10995245400005,14.024347503000058],[100.11019304000007,14.033644431000027],[100.11253548300004,14.034971589000065],[100.11406084400005,14.043139645000053],[100.09388717200005,14.051748992000057],[100.09201143600006,14.042681508000044],[100.08800216000009,14.039895905000037],[100.07780318000005,14.042114995000077],[100.07611453600003,14.035563548000027],[100.06428017600007,14.032634245000054],[100.06292815100005,14.025822808000044],[100.05938250200006,14.021616159000075],[100.06051831700006,14.014154463000068],[100.06273970000007,14.01438997400004],[100.06503828500007,14.008629308000025],[100.06105416700007,14.004700175000039],[100.06106814500004,13.997494037000024],[100.06306474100006,13.99387060600003],[100.05955339300004,13.993844958000068],[100.05756268600004,13.996654892000038],[100.05777462200007,13.989898663000076],[100.05292341200004,13.988171304000048],[100.04900497600005,13.983647622000035],[100.03836822800008,13.984241317000055],[100.03663899200006,13.980654788000038],[100.03683349800008,13.975119165000024],[100.03275934000004,13.973864186000071],[100.02728430000008,13.977805757000056],[100.02414154900003,13.976375270000062],[100.02400825100005,13.972610490000022],[100.01923601100003,13.972955111000033],[100.01963654800005,13.968492517000072],[100.01784269600006,13.962436675000049],[100.01298186900004,13.96113431200007],[100.01223747300008,13.956253162000053],[100.01469539900006,13.953474867000068],[100.01925162800006,13.956200670000044],[100.01919246700004,13.952345242000035],[100.02275121300005,13.950975234000055],[100.02357306600004,13.943399366000051],[100.01791503600003,13.945204530000069],[100.01716589800009,13.943175108000048],[100.02273200600007,13.940121892000036],[100.02605624100005,13.936145724000028],[100.02709399300005,13.940936519000047],[100.03317404000006,13.937032995000038],[100.03567906500007,13.93849418700006],[100.04025891600008,13.933872916000041],[100.04564166800009,13.935049819000028],[100.04622170900006,13.931705859000033],[100.05101079700006,13.933627534000038],[100.05211390400007,13.931274965000057],[100.05700206200004,13.933594020000044],[100.05564364700007,13.926436421000062],[100.05698163400007,13.921366152000076],[100.05562209700008,13.916799018000063],[100.05739443800007,13.913663632000066],[100.06546065300006,13.904843232000076],[100.07392334800005,13.904215436000072],[100.07088102300008,13.90073422200004],[100.07612529000005,13.899623881000025],[100.07729800300007,13.893488068000067],[100.08382196400004,13.891565627000034],[100.09534149800004,13.883361390000061],[100.09672067800005,13.879645865000043],[100.09319692100007,13.87790880700004],[100.09252715100007,13.87464701500005],[100.09499255700007,13.872085484000024],[100.09975670400007,13.871338617000049],[100.11650078200006,13.871844614000054]]]},"properties":{"Shape_Leng":0.756418926601,"Shape_Area":0.0125751077492,"ADM2_EN":"Don Tum","ADM2_TH":"ดอนตูม","ADM2_PCODE":"TH7304","ADM1_EN":"Nakhon Pathom","ADM1_TH":"นครปฐม","ADM1_PCODE":"TH73","ADM0_EN":"Thailand","ADM0_TH":"ประเทศไทย","ADM0_PCODE":"TH"}},
{"type":"Feature","geometry":{"type":"Polygon","coordinates":[[[100.06428017600007,14.032634245000054],[100.07611453600003,14.035563548000027],[100.07780318000005,14.042114995000077],[100.08800216000009,14.039895905000037],[100.09201143600006,14.042681508000044],[100.09388717200005,14.051748992000057],[100.11406084400005,14.043139645000053],[100.11253548300004,14.034971589000065],[100.11019304000007,14.033644431000027],[100.10995245400005,14.024347503000058],[100.10725502300005,14.018205330000058],[100.10825325400003,14.010819775000073],[100.10374738000007,14.010908473000029],[100.10270024500005,14.007727054000043],[100.09617325700003,14.002963894000061],[100.09518901100006,13.999083592000034],[100.09802113700005,13.992129258000034],[100.09838862400005,13.984641160000024],[100.10238417000005,13.98079294300004],[100.10010756300005,13.970561786000076],[100.10411118400003,13.96383677800003],[100.10682478400008,13.966706944000066],[100.11056784100003,13.964534182000023],[100.11454965900003,13.964845165000042],[100.11604518900003,13.962419887000067],[100.12053679000007,13.963595772000076],[100.12200026600004,13.96004405800005],[100.12953735500008,13.957402706000039],[100.14269507300008,13.948406005000038],[100.15816158600006,13.935248835000039],[100.15914732900006,13.932234719000064],[100.16356160400005,13.929653991000066],[100.17447234400004,13.925766774000067],[100.17513656800008,13.92272207800005],[100.17717423600004,13.920222242000023],[100.18144494800003,13.920095050000043],[100.19104209600005,13.91520091700005],[100.19794740100008,13.916481304000058],[100.19934543800008,13.912407148000057],[100.20562288200006,13.908973719000073],[100.20967195900005,13.90864954400007],[100.21112440700006,13.904995751000058],[100.21906273800005,13.904727990000026],[100.22367483900007,13.905982048000055],[100.22828193700008,13.904975227000023],[100.23353285500008,13.899792682000054],[100.23742744600008,13.903193029000022],[100.24973885100007,13.905779702000075],[100.25612202000008,13.904495505000057],[100.26448297900004,13.902980791000061],[100.27428411900007,13.904834228000027],[100.27753797200006,13.899223114000051],[100.28032971400006,13.890251632000059],[100.28597582100008,13.892333072000042],[100.27612257700008,13.912939906000076],[100.27328461100007,13.91590194500003],[100.26544878200008,13.920607142000051],[100.27242967000007,13.932026800000074],[100.28700801500008,13.947207089000074],[100.29821991900008,13.963371049000045],[100.28638469500004,13.971261111000047],[100.27407667600005,13.982784410000022],[100.26963973600004,13.988916120000056],[100.26804726200004,13.993481727000074],[100.26242900800008,13.99812071100007],[100.26558179900007,14.001208043000076],[100.26328989400008,14.004354847000059],[100.26650495300004,14.007957476000058],[100.26406632100009,14.01016809600003],[100.26899018900008,14.018778328000053],[100.26969787000007,14.023421993000056],[100.27686541200006,14.023851687000047],[100.26894857600007,14.036544455000069],[100.26416128900007,14.060159499000065],[100.27236331300008,14.06833573700004],[100.27681295600007,14.084627673000057],[100.27710665600006,14.101211371000034],[100.28372984300006,14.10069810300007],[100.28179029100005,14.126881928000046],[100.27948354600005,14.125171556000055],[100.28148591900003,14.14075353000004],[100.28413889900008,14.16959119300003],[100.26893965300007,14.171668407000027],[100.24515939900004,14.173614146000034],[100.21514643300009,14.17862219500006],[100.20132750400006,14.175712763000035],[100.20190127500007,14.169950362000066],[100.18806145400004,14.164659135000022],[100.18841659700007,14.163024278000023],[100.17476188000006,14.160132436000026],[100.17300265300008,14.154966339000055],[100.16941508300005,14.15474929000004],[100.16798157900007,14.151678330000038],[100.15973512300008,14.150746057000049],[100.16093500100004,14.146806969000068],[100.15488257600003,14.145078389000048],[100.14271853500009,14.145795465000049],[100.13469171800006,14.14264367800007],[100.13094457000005,14.138907208000035],[100.13129441500007,14.145803675000025],[100.12391030900005,14.145441356000049],[100.10588051400003,14.147883180000065],[100.09211121400006,14.147430586000041],[100.08606162300003,14.14641591000003],[100.07802825800007,14.147596176000036],[100.07440325000005,14.145844986000043],[100.07045190500008,14.147757174000049],[100.06762790800008,14.145442273000072],[100.06343058700008,14.145437848000029],[100.06267907900008,14.134239571000023],[100.06302149100009,14.124960867000027],[100.06572195600006,14.12436757000006],[100.06670762800007,14.117413931000044],[100.06272217600008,14.116784838000058],[100.06242299800005,14.106111397000063],[100.06323365200006,14.103378573000043],[100.06839725100008,14.099409721000029],[100.06636620200004,14.093300041000077],[100.06353731400009,14.09524465800007],[100.06028709300006,14.089974766000068],[100.06003061000007,14.080440575000068],[100.06454902300004,14.073163215000022],[100.05964937200008,14.070633646000033],[100.06102131600005,14.060026785000048],[100.06061312000008,14.053985194000063],[100.05168696000004,14.051687571000059],[100.05624138600007,14.036891506000075],[100.05890900400004,14.032531609000046],[100.06428017600007,14.032634245000054]]]},"properties":{"Shape_Leng":1.18664576247,"Shape_Area":0.045489516321,"ADM2_EN":"Bang Len","ADM2_TH":"บางเลน","ADM2_PCODE":"TH7305","ADM1_EN":"Nakhon Pathom","ADM1_TH":"นครปฐม","ADM1_PCODE":"TH73","ADM0_EN":"Thailand","ADM0_TH":"ประเทศไทย","ADM0_PCODE":"TH"}},
{"type":"Feature","geometry":{"type":"Polygon","coordinates":[[[100.06788866400007,13.69335264700004],[100.06863711200003,13.690611993000061],[100.06745925000007,13.67898066400005],[100.06352336700007,13.673368582000023],[100.06289977400007,13.664718890000074],[100.06026825100008,13.660286144000054],[100.07032461100005,13.660245805000045],[100.07692604300007,13.657515423000063],[100.08410701200006,13.657208882000077],[100.08653287600004,13.650760553000055],[100.09323104200007,13.653072289000022],[100.09472641600007,13.650346155000022],[100.09965348800006,13.652112841000076],[100.10548211500009,13.649253140000042],[100.11162666300004,13.651648159000047],[100.12176689600005,13.653834692000032],[100.11747847900006,13.66637981100007],[100.12344499700004,13.66707801900003],[100.12133335300007,13.672551441000053],[100.12334656600007,13.67312898800003],[100.12095923200008,13.679138797000064],[100.13206506000006,13.68172191800005],[100.15614246100006,13.684226333000026],[100.15644981300005,13.680643044000021],[100.16359034100009,13.67678133100003],[100.16587701100008,13.678744207000022],[100.17494429000004,13.682115743000054],[100.17701641700006,13.688036331000035],[100.18173813000004,13.688987742000052],[100.18908701200007,13.674010988000077],[100.19421983400008,13.674142681000035],[100.19624880500004,13.676401357000032],[100.20330189100008,13.678371945000038],[100.20976699900007,13.684807721000027],[100.21237109600008,13.681727610000053],[100.22409139100006,13.681405102000042],[100.22715569400003,13.672737847000064],[100.24083927600009,13.679836180000052],[100.24362049700005,13.674649117000058],[100.25621097400006,13.680685638000057],[100.25848934500004,13.67960726800004],[100.26209618600006,13.685401812000066],[100.27074667700003,13.683395778000033],[100.27696822600006,13.688242664000029],[100.27815838700008,13.69281810900003],[100.28685119100004,13.694286052000052],[100.28371884900008,13.697318494000058],[100.28466338000004,13.707704730000046],[100.28651170600006,13.708201201000065],[100.28364568300003,13.714064954000037],[100.28893807600008,13.715075935000073],[100.28999895800007,13.71775193600007],[100.29696667700006,13.71774378200007],[100.29806282300007,13.714189279000038],[100.30401419300006,13.71518326200004],[100.30077730400006,13.71985027200003],[100.30721967200009,13.719840915000077],[100.31559854700004,13.723010601000055],[100.31603542900007,13.720088544000077],[100.32039962500005,13.720915329000036],[100.32421428800006,13.717326548000074],[100.33573900000005,13.722985034000033],[100.33477191500003,13.728360546000033],[100.33674316500009,13.729711390000034],[100.33514042800005,13.73348518000006],[100.33748581800006,13.733908920000033],[100.33495703300008,13.74772213600005],[100.33538438900007,13.753286999000068],[100.33277755800003,13.755373314000053],[100.33302465400004,13.759589177000066],[100.33010398200008,13.76309221200006],[100.32522042900007,13.763247918000047],[100.32366307000007,13.768073232000063],[100.30989609800008,13.768065619000026],[100.30925703700007,13.785013277000076],[100.31234102500008,13.78538325900007],[100.31133066700005,13.79397287200004],[100.30334286100003,13.791455696000071],[100.30364854600003,13.795769825000036],[100.29777631100006,13.794499073000054],[100.28862038600005,13.795726356000046],[100.27979794300006,13.799708332000023],[100.27724927100007,13.802749739000035],[100.27471554400006,13.801102047000029],[100.26701758700005,13.800937526000041],[100.26456871300007,13.80331319000004],[100.25804018500008,13.803394992000051],[100.25431949300008,13.800686762000055],[100.24788013000006,13.801656527000034],[100.24307140000008,13.794938758000058],[100.23689421500006,13.791040330000044],[100.23028646600005,13.793529121000063],[100.22847460100007,13.792646641000033],[100.22516688500008,13.783686060000036],[100.22147400800009,13.779068061000032],[100.20848168200007,13.765981858000032],[100.20421021900006,13.760430943000074],[100.19190886900009,13.748680739000065],[100.18584759200007,13.741538649000063],[100.18335909800004,13.740224414000068],[100.17848616100008,13.744571656000062],[100.17728845800008,13.742788720000021],[100.16547423800006,13.740547656000047],[100.16036952300004,13.740845410000077],[100.16026703300008,13.737366821000023],[100.15226748300006,13.737704276000045],[100.15103703300008,13.731008771000063],[100.15136040800007,13.724637672000028],[100.14798718000009,13.714797611000051],[100.14310151900008,13.716508722000071],[100.13972252000008,13.711706823000043],[100.13611030500005,13.714674586000058],[100.13247140300007,13.71396072500005],[100.13109651400003,13.708941751000054],[100.11533943300009,13.706948297000054],[100.10741387700006,13.704790374000027],[100.09706012200007,13.700710966000031],[100.08868970000003,13.699765488000025],[100.08722882500007,13.700813507000078],[100.07804364400005,13.698528253000063],[100.07238806400005,13.698248277000062],[100.06788866400007,13.69335264700004]]]},"properties":{"Shape_Leng":0.929895013729,"Shape_Area":0.0188986432828,"ADM2_EN":"Sam Phran","ADM2_TH":"สามพราน","ADM2_PCODE":"TH7306","ADM1_EN":"Nakhon Pathom","ADM1_TH":"นครปฐม","ADM1_PCODE":"TH73","ADM0_EN":"Thailand","ADM0_TH":"ประเทศไทย","ADM0_PCODE":"TH"}},
{"type":"Feature","geometry":{"type":"Polygon","coordinates":[[[100.24788013000006,13.801656527000034],[100.25431949300008,13.800686762000055],[100.25804018500008,13.803394992000051],[100.26456871300007,13.80331319000004],[100.26701758700005,13.800937526000041],[100.27471554400006,13.801102047000029],[100.27724927100007,13.802749739000035],[100.27979794300006,13.799708332000023],[100.28862038600005,13.795726356000046],[100.29777631100006,13.794499073000054],[100.30364854600003,13.795769825000036],[100.30334286100003,13.791455696000071],[100.31133066700005,13.79397287200004],[100.31234102500008,13.78538325900007],[100.30925703700007,13.785013277000076],[100.30989609800008,13.768065619000026],[100.32366307000007,13.768073232000063],[100.32522042900007,13.763247918000047],[100.33010398200008,13.76309221200006],[100.33094023700005,13.777563648000068],[100.33386316600007,13.781243035000045],[100.33069683100007,13.798145851000072],[100.29955860600006,13.863958430000025],[100.28597582100008,13.892333072000042],[100.28032971400006,13.890251632000059],[100.27753797200006,13.899223114000051],[100.27428411900007,13.904834228000027],[100.26448297900004,13.902980791000061],[100.25612202000008,13.904495505000057],[100.25726844400003,13.899155738000047],[100.26735478800003,13.864187327000025],[100.26438056700005,13.829320434000067],[100.24600855600005,13.828509046000022],[100.24283794600007,13.82313823100003],[100.24459293500007,13.817195768000033],[100.23817867300005,13.814056161000053],[100.23613924500006,13.802583904000073],[100.24020818100007,13.801432314000067],[100.24553319900008,13.805461770000022],[100.24916872400007,13.805099829000028],[100.24788013000006,13.801656527000034]]]},"properties":{"Shape_Leng":0.474845981656,"Shape_Area":0.00567655945728,"ADM2_EN":"Phutthamonthon","ADM2_TH":"พุทธมณฑล","ADM2_PCODE":"TH7307","ADM1_EN":"Nakhon Pathom","ADM1_TH":"นครปฐม","ADM1_PCODE":"TH73","ADM0_EN":"Thailand","ADM0_TH":"ประเทศไทย","ADM0_PCODE":"TH"}}
]}