{"type":"FeatureCollection", "features": [
{"type":"Feature","geometry":{"type":"Polygon","coordinates":[[[101.42220888000008,14.383705732000067],[101.41944976600007,14.386153362000073],[101.41656151900008,14.390041199000052],[101.41298479000005,14.396842309000021],[101.41002984600004,14.399327765000066],[101.40612879100007,14.404678993000061],[101.40309756800008,14.40486018300004],[101.39722143700004,14.408227060000058],[101.39610014400006,14.413950799000077],[101.39714274100004,14.415293141000063],[101.39599626300009,14.41866204400003],[101.39153236900006,14.419509067000035],[101.38918582400004,14.421344784000041],[101.38825148600006,14.423831152000048],[101.38331833400008,14.424360979000028],[101.38049870000003,14.42350216400007],[101.37809596500006,14.427293289000033],[101.37930634300005,14.429072053000027],[101.38208683500005,14.429179757000043],[101.38106254900003,14.43157571100005],[101.38206833600003,14.43421571600004],[101.37699320600007,14.435198724000031],[101.37574970100007,14.437984333000031],[101.37329070900006,14.439686402000063],[101.36985077700007,14.438960542000075],[101.37002543100004,14.442748322000057],[101.36445470900009,14.44604133200005],[101.36625552700008,14.449048843000071],[101.36460082700006,14.449863744000027],[101.36168559500004,14.448625652000032],[101.35825668700005,14.450008517000072],[101.35273402300004,14.45455568400007],[101.34875811000006,14.45350490800007],[101.34252297400008,14.45638725300006],[101.34240119300006,14.457325713000046],[101.33728141700004,14.461500486000034],[101.33531340600007,14.462102105000042],[101.33108232300003,14.46608051000004],[101.32888622100006,14.465204480000068],[101.32631872900004,14.468525065000051],[101.32453582700003,14.469410880000055],[101.32095928400008,14.469179824000037],[101.31646218500003,14.470980282000028],[101.31233159700008,14.471356944000036],[101.31072524700005,14.473386445000074],[101.30922452300007,14.48002509500003],[101.30546423400006,14.486875738000037],[101.30722384600006,14.491064320000078],[101.30514880700008,14.494158005000031],[101.30689581300004,14.497603782000056],[101.30485208800008,14.498758439000028],[101.29936351000003,14.497776333000047],[101.29821689800008,14.495587449000027],[101.29540370600006,14.493809489000057],[101.29243104200003,14.490306493000048],[101.28375144800003,14.489177521000045],[101.28387389600005,14.492234806000056],[101.28256735600007,14.498639077000064],[101.28428785500006,14.501831442000025],[101.28238240300004,14.504161215000067],[101.27830133500004,14.506157165000047],[101.27853040300005,14.511170761000074],[101.27716794000008,14.512473139000065],[101.27260843500005,14.51248234600007],[101.27127093000007,14.509050561000038],[101.26829019900003,14.507782812000073],[101.26666858000004,14.502906950000067],[101.25828896700006,14.497209546000022],[101.25568735600007,14.497529335000024],[101.25064798800008,14.494248112000037],[101.25036339100006,14.490687470000069],[101.24858727800006,14.489305018000039],[101.24549245200006,14.489836311000033],[101.24225358700005,14.485036621000063],[101.24127735600007,14.480352775000028],[101.24336031500007,14.473129863000054],[101.24283172200006,14.471104316000037],[101.23910401300009,14.471124644000042],[101.22903631900004,14.474022438000077],[101.22583848100004,14.47301494900006],[101.22499578300005,14.471260234000056],[101.22693303000005,14.466576099000065],[101.22590356300009,14.46380061700006],[101.22716354900007,14.462631338000051],[101.23111197300005,14.463010199000053],[101.23421780100006,14.458825081000043],[101.23407570600006,14.456553050000025],[101.23137373800006,14.451902380000035],[101.22748195700007,14.451582063000046],[101.22343511600008,14.447732876000032],[101.22248391200009,14.44537832800006],[101.22449937900006,14.443880485000022],[101.22861197900005,14.437599529000067],[101.23006553500005,14.433832948000031],[101.22674762400004,14.430714988000034],[101.22367885900007,14.434060333000048],[101.21967203000008,14.43619622600005],[101.21501004200007,14.43763883500003],[101.21177853200004,14.43391284200004],[101.20919893300004,14.428206621000072],[101.21100259100007,14.42097030800005],[101.21059542700004,14.418413488000056],[101.21127557700004,14.413617411000075],[101.20522500700008,14.407273841000062],[101.20247293400007,14.402987296000049],[101.20503336800004,14.397686595000039],[101.20420710600007,14.391007584000022],[101.20902662800006,14.385289840000041],[101.20989876400006,14.382498399000042],[101.21184516600005,14.38154053900007],[101.21006418900004,14.371997684000064],[101.20669550200006,14.370793588000026],[101.20308694100004,14.37120105400004],[101.19999732100007,14.369525717000045],[101.19680130800003,14.369444540000075],[101.19267346600009,14.370566556000028],[101.18642948200005,14.366197922000026],[101.18623062400007,14.360229620000041],[101.18513259200006,14.358057250000059],[101.18550349600008,14.354304480000053],[101.17869592600005,14.34919231200007],[101.17816203800004,14.347169569000073],[101.16817755800008,14.348987461000036],[101.16634907200006,14.348019650000026],[101.16572385300003,14.34237577700003],[101.15891674200009,14.339811059000056],[101.15548748000003,14.339429591000055],[101.15117985000006,14.33790212100007],[101.14769243700005,14.332153362000042],[101.14345890000004,14.326309442000024],[101.14385578700006,14.32273377200005],[101.14925918800009,14.31452080500003],[101.15043876900006,14.313778003000039],[101.15109452900003,14.310240584000042],[101.14999368300005,14.308029944000054],[101.15127963200007,14.303695911000034],[101.14806102700004,14.304142745000036],[101.14549796300008,14.300569774000053],[101.14110007300008,14.297847666000052],[101.13955731100003,14.297859410000058],[101.13548431700008,14.29039350100004],[101.13190951400009,14.292143803000044],[101.13109701300004,14.290024235000033],[101.12777849600008,14.290072584000029],[101.12778349100006,14.28466531500004],[101.13095129600003,14.277456013000062],[101.13509480400006,14.275500665000038],[101.13690543400008,14.27058108700004],[101.13975362100007,14.270323503000043],[101.14031079900008,14.263839048000023],[101.13618219700004,14.261204342000042],[101.13397608200006,14.26189947000006],[101.12907011100003,14.258860756000047],[101.12870523000004,14.25142442300006],[101.12622010500007,14.247471869000037],[101.12520447200006,14.247475282000039],[101.12590296400003,14.239624438000021],[101.12387019700009,14.234339189000025],[101.12405660700006,14.232461563000072],[101.12650025400006,14.229544120000071],[101.13069832400004,14.227862544000061],[101.13140472700007,14.224554512000054],[101.13309780300006,14.222922048000044],[101.13498787500004,14.215306820000023],[101.13358171400006,14.20943995400006],[101.12729411600009,14.212028719000045],[101.12676760300008,14.21039219000005],[101.12310721600005,14.212232603000075],[101.11948592500005,14.20967710800005],[101.11921696500008,14.210844337000026],[101.11475204900006,14.209332419000077],[101.11320660000007,14.207833338000057],[101.11238166100009,14.202283752000028],[101.11538966300009,14.198568383000065],[101.11572819600008,14.193513468000049],[101.11096556800004,14.187759052000047],[101.10653420900007,14.188251638000054],[101.10506350900005,14.189496318000067],[101.10413898900003,14.187580920000073],[101.10239711300005,14.189151176000053],[101.09886184000004,14.188871969000047],[101.09561320800003,14.185747657000036],[101.09527580800005,14.183077512000068],[101.09721482400005,14.179626387000042],[101.10021077800008,14.178484359000038],[101.09936205100007,14.173722336000026],[101.09680525700009,14.17171369700003],[101.09596626300004,14.166300334000027],[101.09714635700004,14.163142728000025],[101.09514400100005,14.159437581000077],[101.09485130700006,14.156561491000048],[101.07307675200008,14.153176099000063],[101.06643623200006,14.147070692000057],[101.06729350900008,14.146140850000052],[101.10172667300009,14.103092254000046],[101.11144875200006,14.090818499000022],[101.11154514100008,14.088354816000049],[101.11151954100006,14.05402644000003],[101.12272866500007,14.052682298000036],[101.13950424900008,14.028821526000058],[101.15178803100008,14.011582111000052],[101.15279993000007,14.010750242000029],[101.16249689700004,14.014232091000054],[101.16754065600009,14.014920802000063],[101.16872844200009,14.012910223000063],[101.17330925900006,14.011505714000066],[101.17560051800007,14.007740455000032],[101.17850161100006,14.008831488000055],[101.17788718200006,14.012122609000073],[101.18654191300004,14.012504628000045],[101.19255927700004,14.015117731000032],[101.19617312000008,14.013468685000078],[101.19714668000006,14.015291991000026],[101.19514862700004,14.021155408000027],[101.19348663100004,14.023981439000067],[101.19534999900009,14.025299750000045],[101.19833421400006,14.023045554000078],[101.20039824600008,14.024379570000065],[101.19681320200004,14.029065272000025],[101.20055513000005,14.03354887200004],[101.20095041900004,14.03779432600004],[101.20348050800004,14.040534545000071],[101.20289954200007,14.042886198000076],[101.20065293700009,14.045134433000044],[101.17813838100005,14.077207655000052],[101.18018300800009,14.079594364000059],[101.18243534400006,14.079732663000073],[101.18618512700004,14.083501247000072],[101.18942966900005,14.080749069000035],[101.19033452200006,14.083135871000025],[101.18877548000006,14.087987975000033],[101.18959153300005,14.089344984000036],[101.18852939400006,14.094171548000077],[101.18574859800003,14.093014510000046],[101.18287260600005,14.095865193000066],[101.18287182100005,14.098693340000068],[101.18806688700005,14.101191720000031],[101.19428623100004,14.102682574000028],[101.19534609800007,14.104701874000057],[101.19777041000003,14.104946786000028],[101.20072296700005,14.107691472000056],[101.20108148600008,14.110664151000037],[101.20341139100003,14.116245972000058],[101.20706351600006,14.11682315400003],[101.20843816400009,14.121697951000044],[101.20433491000006,14.12435550300006],[101.19730739900007,14.133782821000068],[101.19649786200006,14.136211279000065],[101.20391600200008,14.140359217000025],[101.19919492200006,14.142110734000028],[101.19987004300003,14.145481475000054],[101.20203915100006,14.147169645000076],[101.20303772600005,14.149735951000025],[101.20004014200003,14.151470924000023],[101.19729693800008,14.150871261000077],[101.20160961800008,14.154573522000021],[101.20259633400008,14.153159229000039],[101.20708796700006,14.154514723000034],[101.20915918700007,14.148905545000048],[101.21096068800006,14.149687457000027],[101.20991004600006,14.152192447000061],[101.21147436800004,14.15268754300007],[101.21215064700004,14.155437684000049],[101.21655680300006,14.158608440000023],[101.21482577200004,14.16082429000005],[101.21507869000004,14.163706552000065],[101.22013463000008,14.164186683000025],[101.21998539600008,14.166213625000069],[101.22278425700006,14.16711430600003],[101.22459986000007,14.170212289000062],[101.22944489800005,14.172792451000078],[101.22876562900007,14.180654117000074],[101.22772591800003,14.183425076000049],[101.23447736100007,14.184706169000037],[101.23848512000006,14.186278222000055],[101.24127789500005,14.190866096000036],[101.24468147900006,14.190101753000022],[101.24997854800006,14.192766197000026],[101.25032143300007,14.194539613000074],[101.25367071900007,14.194295313000055],[101.26021482200008,14.195291675000021],[101.26363808600007,14.194920964000062],[101.26329710400006,14.193072476000054],[101.26067038500008,14.193197921000035],[101.26032541200004,14.191382420000025],[101.26460225000005,14.190117876000045],[101.26910283800004,14.187987656000075],[101.27274992600007,14.189283519000071],[101.27094431100005,14.192265081000073],[101.27312019600004,14.194025215000067],[101.27400830800008,14.191921604000072],[101.27651780000008,14.193403346000025],[101.27878907800005,14.192785270000059],[101.28137547400007,14.199136255000042],[101.28377390900005,14.200764696000022],[101.28306987800005,14.203807191000067],[101.28506578500009,14.207538870000064],[101.28832126800006,14.208371425000053],[101.29016693200003,14.211106832000041],[101.28874153700008,14.211693105000052],[101.28798574800004,14.215338904000077],[101.28929865700007,14.218023608000067],[101.29252355200003,14.221896593000054],[101.29043927600009,14.221378359000028],[101.28843091300007,14.223465408000038],[101.28974391600008,14.22753416300003],[101.29271050300008,14.228282887000034],[101.29435846000007,14.231360213000073],[101.29348037700004,14.235039018000066],[101.29621154300008,14.239449551000064],[101.29936506700005,14.23968259000003],[101.30235147700006,14.238015739000048],[101.30443279700006,14.239009714000076],[101.30847358500006,14.238987260000044],[101.31622544800007,14.24629462200005],[101.31964850300005,14.248299734000057],[101.32252023300003,14.248996092000027],[101.32101872100009,14.256307347000075],[101.32245558800008,14.259551288000068],[101.33076329100004,14.263391599000045],[101.33408531000003,14.266666698000051],[101.33803259800004,14.267507642000055],[101.34392684900007,14.27708382700007],[101.34407642600007,14.282533895000029],[101.34311154500006,14.288962755000057],[101.34604725300005,14.294269965000069],[101.34574940200008,14.298336376000066],[101.33670694900007,14.307109298000057],[101.33708517800005,14.31040633400005],[101.33914390900009,14.313911864000033],[101.33843349000006,14.318982791000053],[101.34031984800004,14.323053371000071],[101.34425527500008,14.325722504000055],[101.34416782000005,14.326860742000065],[101.33987422500007,14.331264697000051],[101.33919359900005,14.334798651000028],[101.33507698300008,14.341453625000042],[101.33518275600005,14.343719132000047],[101.33795140800004,14.344338949000075],[101.34021741800007,14.346723884000028],[101.34369499200005,14.347907103000068],[101.34367006800005,14.35136712600007],[101.34242237900008,14.354261778000023],[101.34528079800003,14.357280702000025],[101.34521628800007,14.359941814000024],[101.34981903000005,14.36193888200006],[101.35320175400005,14.360340226000062],[101.35715874900006,14.360081061000074],[101.36266993100008,14.355504255000028],[101.36431373600004,14.352236293000033],[101.37001471500008,14.352979764000054],[101.38389966200003,14.360325927000076],[101.39321318900005,14.36295913300006],[101.40413273000007,14.36705685100003],[101.40674993200008,14.370796923000057],[101.41095012100004,14.372289825000053],[101.41575034200008,14.377774517000034],[101.42220888000008,14.383705732000067]]]},"properties":{"Shape_Leng":1.87299458655,"Shape_Area":0.0692864585613,"ADM2_EN":"Mueang Nakhon Nayok","ADM2_TH":"เมืองนครนายก","ADM2_PCODE":"TH2601","ADM1_EN":"Nakhon Nayok","ADM1_TH":"นครนายก","ADM1_PCODE":"TH26","ADM0_EN":"Thailand","ADM0_TH":"ประเทศไทย","ADM0_PCODE":"TH"}},
{"type":"Feature","geometry":{"type":"Polygon","coordinates":[[[101.20289954200007,14.042886198000076],[101.20249581100006,14.045562310000037],[101.20771680200005,14.046060703000023],[101.20906027700005,14.048750772000062],[101.21306525200004,14.052918007000073],[101.21400959300007,14.055741255000044],[101.22147957300007,14.05322781600006],[101.22567908300005,14.053340125000034],[101.22704156300006,14.051716586000055],[101.22976678300006,14.052984843000047],[101.22829454600009,14.055105827000034],[101.23034387500007,14.056521340000074],[101.23956788200007,14.057803087000025],[101.24018993200008,14.058609324000031],[101.25905958600003,14.062166317000049],[101.26540577500003,14.062052040000026],[101.27578475900003,14.060007105000068],[101.27609273100006,14.057918288000053],[101.27848321400006,14.05484004300007],[101.32123220600005,14.077255618000038],[101.31870395100003,14.084970242000054],[101.31640248000008,14.08590096100005],[101.31318696300008,14.091049798000029],[101.30887258300004,14.09564845500006],[101.30739708800007,14.100637164000034],[101.30843413000008,14.107091294000043],[101.30842434900006,14.112100788000078],[101.30441590600009,14.117763529000058],[101.30362471700005,14.120198893000065],[101.29378863700003,14.124605920000022],[101.28638687300008,14.133679364000045],[101.28817912000005,14.136488062000069],[101.28719704200006,14.139743137000039],[101.28886258000006,14.142140254000026],[101.28948722700005,14.146023196000044],[101.28856823700005,14.149426267000024],[101.29051079500005,14.151670891000037],[101.29037517100005,14.153533838000044],[101.29243730000007,14.153777025000068],[101.29639416000003,14.15661411800005],[101.29618024800004,14.157992686000057],[101.29926519700007,14.157167337000033],[101.29873287300006,14.158541791000061],[101.30783630400003,14.164056578000043],[101.31141803100007,14.164399673000048],[101.31233436800005,14.16733503200004],[101.31118122400005,14.169071558000041],[101.31458857400008,14.172914140000046],[101.32021399300004,14.174111310000058],[101.32427371500006,14.176041163000036],[101.32823263800009,14.17474568700004],[101.32893971900006,14.179332067000075],[101.33032554500005,14.182079096000052],[101.33454568400003,14.18402891200003],[101.33735548800007,14.187656184000048],[101.34030261700008,14.188294229000064],[101.34213130800003,14.191809099000068],[101.34565715700006,14.194069152000054],[101.34557888300009,14.196863428000029],[101.35045330700007,14.19737791800003],[101.35051700200006,14.199498522000056],[101.35437959700005,14.200372677000075],[101.35818019200008,14.20236510500007],[101.36146466100007,14.202967436000051],[101.36273360800004,14.201305254000033],[101.36406919100006,14.203002082000069],[101.36689628400006,14.201538389000063],[101.36785315900005,14.203445349000049],[101.37269485300004,14.204818329000034],[101.37451702700008,14.209914242000025],[101.37804463400005,14.21165644100006],[101.37928694500005,14.210512985000037],[101.38297748600007,14.210845554000059],[101.38164750900006,14.212409053000044],[101.38277430800008,14.215088915000024],[101.38646301900008,14.219516555000041],[101.38521673400004,14.223020252000026],[101.38627335600006,14.225339908000024],[101.38455267000006,14.22615567300005],[101.38433641500006,14.228336266000042],[101.38251407200005,14.22887550300004],[101.38401918600005,14.232623624000041],[101.38247887300008,14.234884649000037],[101.38018464400005,14.235965589000045],[101.37874353800004,14.23869650100005],[101.38242046900007,14.24645730800006],[101.38173881300008,14.251487140000052],[101.37840431100005,14.256285215000048],[101.37879210900007,14.258431250000058],[101.38136494200006,14.259269991000053],[101.38251058100008,14.261855340000068],[101.38191408000006,14.26391919300005],[101.38342014600005,14.267534929000021],[101.38150797500003,14.26965285500006],[101.38101100300008,14.272158044000037],[101.38338418700005,14.273763707000057],[101.38983297900006,14.273359265000067],[101.39285533900005,14.274484288000053],[101.39682742100007,14.27272034400005],[101.39894913000006,14.269516055000054],[101.40332260300005,14.265312644000062],[101.40567345300008,14.261515641000074],[101.41301013200007,14.253926575000037],[101.41452073700003,14.25374776800004],[101.42550263500004,14.255358299000022],[101.42912157700005,14.256843506000052],[101.43386562800004,14.25565337300003],[101.44086593500003,14.25509334800006],[101.44529447800005,14.256181740000045],[101.44921937300006,14.25558102900004],[101.45173613400004,14.256204063000041],[101.46372996100007,14.263454250000052],[101.46882936000009,14.262398629000074],[101.47330913400003,14.262765109000043],[101.48051089800003,14.268677738000065],[101.48491494700005,14.270401531000061],[101.49452611300006,14.267115637000074],[101.50177978400006,14.269458128000053],[101.49989964400004,14.282691442000043],[101.50180625300004,14.28827536700004],[101.50174945100008,14.291343398000038],[101.50014940900007,14.297082167000042],[101.50045322700004,14.299939943000027],[101.50388745800007,14.304150999000058],[101.50537444000008,14.307320723000032],[101.50529863000008,14.309522638000033],[101.50100686200005,14.311702431000072],[101.49447166100003,14.316841454000041],[101.49283420200004,14.32214095300003],[101.49318320100008,14.323612024000056],[101.49605111200003,14.325823471000035],[101.49620330900007,14.334109838000074],[101.49305323100003,14.337587109000026],[101.48745208000008,14.341545952000047],[101.48320389900005,14.345867226000053],[101.48181314900006,14.348414353000067],[101.48127097300005,14.353558461000034],[101.47694348400006,14.359793790000026],[101.47689352200007,14.364182205000077],[101.47178259500004,14.368956462000028],[101.46762136100006,14.37079577000003],[101.45846553000007,14.37757849600007],[101.45280015800006,14.381144454000037],[101.44508808200004,14.384376361000022],[101.44208208500004,14.38498811900007],[101.43926485400004,14.386786924000035],[101.42931186000004,14.390366853000046],[101.42614101400005,14.389747706000037],[101.42220888000008,14.383705732000067],[101.41575034200008,14.377774517000034],[101.41095012100004,14.372289825000053],[101.40674993200008,14.370796923000057],[101.40413273000007,14.36705685100003],[101.39321318900005,14.36295913300006],[101.38389966200003,14.360325927000076],[101.37001471500008,14.352979764000054],[101.36431373600004,14.352236293000033],[101.36266993100008,14.355504255000028],[101.35715874900006,14.360081061000074],[101.35320175400005,14.360340226000062],[101.34981903000005,14.36193888200006],[101.34521628800007,14.359941814000024],[101.34528079800003,14.357280702000025],[101.34242237900008,14.354261778000023],[101.34367006800005,14.35136712600007],[101.34369499200005,14.347907103000068],[101.34021741800007,14.346723884000028],[101.33795140800004,14.344338949000075],[101.33518275600005,14.343719132000047],[101.33507698300008,14.341453625000042],[101.33919359900005,14.334798651000028],[101.33987422500007,14.331264697000051],[101.34416782000005,14.326860742000065],[101.34425527500008,14.325722504000055],[101.34031984800004,14.323053371000071],[101.33843349000006,14.318982791000053],[101.33914390900009,14.313911864000033],[101.33708517800005,14.31040633400005],[101.33670694900007,14.307109298000057],[101.34574940200008,14.298336376000066],[101.34604725300005,14.294269965000069],[101.34311154500006,14.288962755000057],[101.34407642600007,14.282533895000029],[101.34392684900007,14.27708382700007],[101.33803259800004,14.267507642000055],[101.33408531000003,14.266666698000051],[101.33076329100004,14.263391599000045],[101.32245558800008,14.259551288000068],[101.32101872100009,14.256307347000075],[101.32252023300003,14.248996092000027],[101.31964850300005,14.248299734000057],[101.31622544800007,14.24629462200005],[101.30847358500006,14.238987260000044],[101.30443279700006,14.239009714000076],[101.30235147700006,14.238015739000048],[101.29936506700005,14.23968259000003],[101.29621154300008,14.239449551000064],[101.29348037700004,14.235039018000066],[101.29435846000007,14.231360213000073],[101.29271050300008,14.228282887000034],[101.28974391600008,14.22753416300003],[101.28843091300007,14.223465408000038],[101.29043927600009,14.221378359000028],[101.29252355200003,14.221896593000054],[101.28929865700007,14.218023608000067],[101.28798574800004,14.215338904000077],[101.28874153700008,14.211693105000052],[101.29016693200003,14.211106832000041],[101.28832126800006,14.208371425000053],[101.28506578500009,14.207538870000064],[101.28306987800005,14.203807191000067],[101.28377390900005,14.200764696000022],[101.28137547400007,14.199136255000042],[101.27878907800005,14.192785270000059],[101.27651780000008,14.193403346000025],[101.27400830800008,14.191921604000072],[101.27312019600004,14.194025215000067],[101.27094431100005,14.192265081000073],[101.27274992600007,14.189283519000071],[101.26910283800004,14.187987656000075],[101.26460225000005,14.190117876000045],[101.26032541200004,14.191382420000025],[101.26067038500008,14.193197921000035],[101.26329710400006,14.193072476000054],[101.26363808600007,14.194920964000062],[101.26021482200008,14.195291675000021],[101.25367071900007,14.194295313000055],[101.25032143300007,14.194539613000074],[101.24997854800006,14.192766197000026],[101.24468147900006,14.190101753000022],[101.24127789500005,14.190866096000036],[101.23848512000006,14.186278222000055],[101.23447736100007,14.184706169000037],[101.22772591800003,14.183425076000049],[101.22876562900007,14.180654117000074],[101.22944489800005,14.172792451000078],[101.22459986000007,14.170212289000062],[101.22278425700006,14.16711430600003],[101.21998539600008,14.166213625000069],[101.22013463000008,14.164186683000025],[101.21507869000004,14.163706552000065],[101.21482577200004,14.16082429000005],[101.21655680300006,14.158608440000023],[101.21215064700004,14.155437684000049],[101.21147436800004,14.15268754300007],[101.20991004600006,14.152192447000061],[101.21096068800006,14.149687457000027],[101.20915918700007,14.148905545000048],[101.20708796700006,14.154514723000034],[101.20259633400008,14.153159229000039],[101.20160961800008,14.154573522000021],[101.19729693800008,14.150871261000077],[101.20004014200003,14.151470924000023],[101.20303772600005,14.149735951000025],[101.20203915100006,14.147169645000076],[101.19987004300003,14.145481475000054],[101.19919492200006,14.142110734000028],[101.20391600200008,14.140359217000025],[101.19649786200006,14.136211279000065],[101.19730739900007,14.133782821000068],[101.20433491000006,14.12435550300006],[101.20843816400009,14.121697951000044],[101.20706351600006,14.11682315400003],[101.20341139100003,14.116245972000058],[101.20108148600008,14.110664151000037],[101.20072296700005,14.107691472000056],[101.19777041000003,14.104946786000028],[101.19534609800007,14.104701874000057],[101.19428623100004,14.102682574000028],[101.18806688700005,14.101191720000031],[101.18287182100005,14.098693340000068],[101.18287260600005,14.095865193000066],[101.18574859800003,14.093014510000046],[101.18852939400006,14.094171548000077],[101.18959153300005,14.089344984000036],[101.18877548000006,14.087987975000033],[101.19033452200006,14.083135871000025],[101.18942966900005,14.080749069000035],[101.18618512700004,14.083501247000072],[101.18243534400006,14.079732663000073],[101.18018300800009,14.079594364000059],[101.17813838100005,14.077207655000052],[101.20065293700009,14.045134433000044],[101.20289954200007,14.042886198000076]]]},"properties":{"Shape_Leng":1.48069469393,"Shape_Area":0.0360258246005,"ADM2_EN":"Pak Phli","ADM2_TH":"ปากพลี","ADM2_PCODE":"TH2602","ADM1_EN":"Nakhon Nayok","ADM1_TH":"นครนายก","ADM1_PCODE":"TH26","ADM0_EN":"Thailand","ADM0_TH":"ประเทศไทย","ADM0_PCODE":"TH"}},
{"type":"Feature","geometry":{"type":"Polygon","coordinates":[[[101.16572385300003,14.34237577700003],[101.16387808600007,14.345129315000065],[101.15754658300006,14.347433390000049],[101.15638398000004,14.354790646000026],[101.15764321600005,14.357384932000059],[101.15273178200005,14.365641236000045],[101.15107019500005,14.370294043000058],[101.14764310700008,14.372223423000037],[101.14665313600005,14.37377818300007],[101.14380205200007,14.373414695000065],[101.13243766100004,14.376625026000056],[101.12982361300004,14.37845638300007],[101.12840645500006,14.382230254000035],[101.12569546500004,14.383727962000023],[101.12165545300007,14.38437725700004],[101.11626402100006,14.382559890000039],[101.11454351600008,14.385452626000074],[101.11233246500007,14.383083947000046],[101.10639553000004,14.385031770000069],[101.10112443900005,14.384521188000065],[101.10104137600007,14.383186181000042],[101.09802969500004,14.383340324000073],[101.09831745000008,14.380021278000072],[101.09542102400007,14.381606846000068],[101.09014611000003,14.382069174000037],[101.08544059400003,14.383227967000039],[101.08463223000007,14.385202456000059],[101.08158488800007,14.385889078000048],[101.07663718800006,14.388352700000041],[101.07306183200006,14.396653726000068],[101.07168304000004,14.401201010000023],[101.07178468600006,14.40519422400007],[101.06752266700005,14.406246193000072],[101.06413709700007,14.409986133000075],[101.06430288200005,14.41162257700006],[101.06193896400003,14.414610621000065],[101.05837563700004,14.413046842000028],[101.05707182500004,14.414346968000075],[101.05324805900005,14.412281515000075],[101.05648825000009,14.410594823000054],[101.05722768200008,14.40853171200007],[101.05710478900005,14.402900751000061],[101.05810049600007,14.39799425900003],[101.05622646300009,14.396198383000069],[101.05449056400005,14.391782516000035],[101.05569984200008,14.390582565000045],[101.05712602600005,14.385672339000052],[101.06317815200003,14.379386054000065],[101.06282878300004,14.372215316000052],[101.05647222200008,14.363848398000073],[101.05511473400009,14.35896875700007],[101.05118262400003,14.358969022000053],[101.05031764800003,14.353841399000032],[101.04871472000008,14.352257757000075],[101.04915813900004,14.350225324000064],[101.04821518800009,14.339875636000045],[101.04445333200005,14.33738898300004],[101.04270220800004,14.337910952000072],[101.04060148500008,14.333699718000048],[101.03369990500005,14.328831334000029],[101.03328499500009,14.32559348500007],[101.02923717900006,14.324746227000048],[101.02538589500006,14.321110516000033],[101.02542992500008,14.319759506000025],[101.02204017700006,14.315389720000042],[101.01937346900007,14.315639993000048],[101.01475750300006,14.30623709400004],[101.01543911600004,14.30217378900005],[101.01134928200008,14.300062270000069],[101.00375363700005,14.299793844000021],[100.99811491600008,14.298955871000032],[100.99670673800006,14.29998779400006],[100.98868492300005,14.297498637000047],[100.98992043400006,14.293746227000042],[100.98998085800008,14.290551492000077],[100.98854675600006,14.287533275000044],[100.98717493300006,14.287065598000027],[100.98456034400004,14.291257199000029],[100.98061399400007,14.291513574000021],[100.96425733200005,14.281757712000058],[100.96557097800007,14.279502849000039],[100.95913132100009,14.275519422000059],[100.95111814600006,14.271684207000021],[100.95184798700006,14.270385711000074],[100.94978285700006,14.26596587000006],[100.95127546000003,14.262145949000057],[100.94950396200005,14.258012992000033],[100.94822576200005,14.257837658000028],[100.94926688300006,14.254984612000044],[100.94537181800007,14.249478364000026],[100.94648856800006,14.243878082000037],[100.94643576800007,14.237134961000038],[100.95933061300008,14.243060898000067],[100.96616776800005,14.229650432000028],[100.96687435200005,14.230000302000064],[100.96597999500005,14.22344133300004],[100.96933588500008,14.222283825000034],[100.97410436900009,14.21944729300003],[100.97913975200004,14.214999104000071],[100.98372938400007,14.218444456000043],[100.99296411900008,14.206862788000024],[100.99199616100003,14.206112405000056],[100.99767020100006,14.192264386000033],[101.00223680500005,14.195714047000024],[101.00695970000004,14.18960282200004],[101.00862406300007,14.190843528000073],[101.01325688400004,14.185053391000054],[101.01956384000005,14.18974273300006],[101.02433678200003,14.183502446000034],[101.02314631400009,14.180461254000022],[101.02918739800003,14.17863060600007],[101.03314591400004,14.174666725000066],[101.03196629600006,14.170834929000023],[101.03307354100008,14.169814422000059],[101.03295934900007,14.165053872000044],[101.03533925700003,14.164934858000038],[101.03860903900005,14.163014675000056],[101.03903793400008,14.159085829000048],[101.03735624300003,14.156333707000044],[101.04089137800008,14.15033866300007],[101.04162861400005,14.146670638000046],[101.04355637200007,14.144712497000057],[101.04529595800005,14.139114532000065],[101.05104959300007,14.132415275000028],[101.06643623200006,14.147070692000057],[101.07307675200008,14.153176099000063],[101.09485130700006,14.156561491000048],[101.09514400100005,14.159437581000077],[101.09714635700004,14.163142728000025],[101.09596626300004,14.166300334000027],[101.09680525700009,14.17171369700003],[101.09936205100007,14.173722336000026],[101.10021077800008,14.178484359000038],[101.09721482400005,14.179626387000042],[101.09527580800005,14.183077512000068],[101.09561320800003,14.185747657000036],[101.09886184000004,14.188871969000047],[101.10239711300005,14.189151176000053],[101.10413898900003,14.187580920000073],[101.10506350900005,14.189496318000067],[101.10653420900007,14.188251638000054],[101.11096556800004,14.187759052000047],[101.11572819600008,14.193513468000049],[101.11538966300009,14.198568383000065],[101.11238166100009,14.202283752000028],[101.11320660000007,14.207833338000057],[101.11475204900006,14.209332419000077],[101.11921696500008,14.210844337000026],[101.11948592500005,14.20967710800005],[101.12310721600005,14.212232603000075],[101.12676760300008,14.21039219000005],[101.12729411600009,14.212028719000045],[101.13358171400006,14.20943995400006],[101.13498787500004,14.215306820000023],[101.13309780300006,14.222922048000044],[101.13140472700007,14.224554512000054],[101.13069832400004,14.227862544000061],[101.12650025400006,14.229544120000071],[101.12405660700006,14.232461563000072],[101.12387019700009,14.234339189000025],[101.12590296400003,14.239624438000021],[101.12520447200006,14.247475282000039],[101.12622010500007,14.247471869000037],[101.12870523000004,14.25142442300006],[101.12907011100003,14.258860756000047],[101.13397608200006,14.26189947000006],[101.13618219700004,14.261204342000042],[101.14031079900008,14.263839048000023],[101.13975362100007,14.270323503000043],[101.13690543400008,14.27058108700004],[101.13509480400006,14.275500665000038],[101.13095129600003,14.277456013000062],[101.12778349100006,14.28466531500004],[101.12777849600008,14.290072584000029],[101.13109701300004,14.290024235000033],[101.13190951400009,14.292143803000044],[101.13548431700008,14.29039350100004],[101.13955731100003,14.297859410000058],[101.14110007300008,14.297847666000052],[101.14549796300008,14.300569774000053],[101.14806102700004,14.304142745000036],[101.15127963200007,14.303695911000034],[101.14999368300005,14.308029944000054],[101.15109452900003,14.310240584000042],[101.15043876900006,14.313778003000039],[101.14925918800009,14.31452080500003],[101.14385578700006,14.32273377200005],[101.14345890000004,14.326309442000024],[101.14769243700005,14.332153362000042],[101.15117985000006,14.33790212100007],[101.15548748000003,14.339429591000055],[101.15891674200009,14.339811059000056],[101.16572385300003,14.34237577700003]]]},"properties":{"Shape_Leng":1.03291979076,"Shape_Area":0.0296577114211,"ADM2_EN":"Ban Na","ADM2_TH":"บ้านนา","ADM2_PCODE":"TH2603","ADM1_EN":"Nakhon Nayok","ADM1_TH":"นครนายก","ADM1_PCODE":"TH26","ADM0_EN":"Thailand","ADM0_TH":"ประเทศไทย","ADM0_PCODE":"TH"}},
{"type":"Feature","geometry":{"type":"Polygon","coordinates":[[[101.06643623200006,14.147070692000057],[101.05104959300007,14.132415275000028],[101.04529595800005,14.139114532000065],[101.04355637200007,14.144712497000057],[101.04162861400005,14.146670638000046],[101.04089137800008,14.15033866300007],[101.03735624300003,14.156333707000044],[101.03903793400008,14.159085829000048],[101.03860903900005,14.163014675000056],[101.03533925700003,14.164934858000038],[101.03295934900007,14.165053872000044],[101.03307354100008,14.169814422000059],[101.03196629600006,14.170834929000023],[101.03314591400004,14.174666725000066],[101.02918739800003,14.17863060600007],[101.02314631400009,14.180461254000022],[101.02433678200003,14.183502446000034],[101.01956384000005,14.18974273300006],[101.01325688400004,14.185053391000054],[101.00862406300007,14.190843528000073],[101.00695970000004,14.18960282200004],[101.00223680500005,14.195714047000024],[100.99767020100006,14.192264386000033],[100.99199616100003,14.206112405000056],[100.99296411900008,14.206862788000024],[100.98372938400007,14.218444456000043],[100.97913975200004,14.214999104000071],[100.97410436900009,14.21944729300003],[100.96933588500008,14.222283825000034],[100.96597999500005,14.22344133300004],[100.96687435200005,14.230000302000064],[100.96616776800005,14.229650432000028],[100.95933061300008,14.243060898000067],[100.94643576800007,14.237134961000038],[100.94507064800007,14.23634374900007],[100.91412191900008,14.221583243000055],[100.91394452200007,14.221275423000066],[100.91367011900007,14.15627537000006],[100.91354390500004,14.113967245000026],[100.91494213000004,14.083388587000059],[100.91457312800009,14.033228119000057],[100.91421818800006,13.961278383000035],[100.98213923400004,13.970530648000022],[101.02236663800005,13.97112024300003],[101.04347899900006,13.976541222000037],[101.04875098200006,13.97665112900006],[101.08293051100009,13.975186436000058],[101.10290682800007,13.974452417000066],[101.13780002200008,13.969887645000028],[101.14027860400006,13.970418407000068],[101.14310665100004,13.972879707000061],[101.14229695800009,13.981217506000064],[101.14044552900003,13.987820598000042],[101.14007206600007,13.995058710000023],[101.13923550200008,14.001490085000057],[101.14259951400004,14.002485008000065],[101.14409872600004,14.001382401000058],[101.14385616000004,13.997731011000042],[101.14634075700008,13.996301097000071],[101.14838045400006,13.997949852000033],[101.15321993900005,13.999959033000039],[101.15529789100003,14.001651820000063],[101.15571454900004,14.00407662200007],[101.15941986000007,14.001832730000046],[101.16220999100005,14.002576073000057],[101.16565129600008,14.002168511000036],[101.16383430900004,14.005094106000058],[101.16488718000005,14.008418111000026],[101.16721581400009,14.007838741000057],[101.16825833900003,14.004839504000074],[101.17096252400006,14.005431065000039],[101.17022434100005,14.008565270000076],[101.17330925900006,14.011505714000066],[101.16872844200009,14.012910223000063],[101.16754065600009,14.014920802000063],[101.16249689700004,14.014232091000054],[101.15279993000007,14.010750242000029],[101.15178803100008,14.011582111000052],[101.13950424900008,14.028821526000058],[101.12272866500007,14.052682298000036],[101.11151954100006,14.05402644000003],[101.11154514100008,14.088354816000049],[101.11144875200006,14.090818499000022],[101.10172667300009,14.103092254000046],[101.06729350900008,14.146140850000052],[101.06643623200006,14.147070692000057]]]},"properties":{"Shape_Leng":1.04174819578,"Shape_Area":0.0439388949335,"ADM2_EN":"Ongkharak","ADM2_TH":"องครักษ์","ADM2_PCODE":"TH2604","ADM1_EN":"Nakhon Nayok","ADM1_TH":"นครนายก","ADM1_PCODE":"TH26","ADM0_EN":"Thailand","ADM0_TH":"ประเทศไทย","ADM0_PCODE":"TH"}}
]}