{"type":"FeatureCollection", "features": [
{"type":"Feature","geometry":{"type":"Polygon","coordinates":[[[101.32415748800008,6.8766590070000575],[101.31869317000007,6.878492921000031],[101.30913608000009,6.886434569000073],[101.29350585700007,6.878638030000047],[101.28921989800006,6.8777958490000515],[101.28350613900005,6.882070381000062],[101.28439870800008,6.891228478000073],[101.27233582600007,6.892421155000022],[101.26686142600005,6.900198575000047],[101.25803065200006,6.903078641000036],[101.24766302000006,6.900974869000038],[101.23849507500006,6.8878203470000585],[101.22432946900005,6.877264558000036],[101.20896050100004,6.870897911000043],[101.19247565800003,6.866092363000064],[101.20675784600007,6.857601872000032],[101.20973005200005,6.853444120000063],[101.22719822000005,6.853978315000063],[101.23087097900009,6.847123448000048],[101.22628437900005,6.84260127400006],[101.21988185100008,6.843260224000062],[101.21373953000005,6.832058650000022],[101.21622854800006,6.825225215000046],[101.21515425400008,6.819982151000033],[101.22734697000004,6.822550293000063],[101.23994200300007,6.821442317000049],[101.24632651500008,6.818528505000074],[101.24338043900008,6.811697903000038],[101.25216626500008,6.805565735000073],[101.25246292000008,6.802896997000062],[101.27574148400004,6.8033811720000585],[101.28316964200008,6.804490102000045],[101.29077113800008,6.81565272000006],[101.29081095700008,6.823235508000039],[101.28460353500009,6.830414873000052],[101.29042154900009,6.834040678000065],[101.29868129600004,6.833127674000025],[101.30563976600007,6.835162995000076],[101.32154659600008,6.843444653000063],[101.32463031100008,6.852611552000042],[101.32194132300003,6.866485561000047],[101.32415748800008,6.8766590070000575]]]},"properties":{"Shape_Leng":0.467691356604,"Shape_Area":0.00744427156159,"ADM2_EN":"Mueang Pattani","ADM2_TH":"เมืองปัตตานี","ADM2_PCODE":"TH9401","ADM1_EN":"Pattani","ADM1_TH":"ปัตตานี","ADM1_PCODE":"TH94","ADM0_EN":"Thailand","ADM0_TH":"ประเทศไทย","ADM0_PCODE":"TH"}},
{"type":"Feature","geometry":{"type":"Polygon","coordinates":[[[101.20823795700005,6.723281038000039],[101.19743689000006,6.729751759000067],[101.19395434100005,6.736391198000035],[101.19074173500007,6.7555409160000295],[101.18522434600004,6.761390898000059],[101.17574762800007,6.764780287000065],[101.16042055000008,6.7598047070000575],[101.15306741900008,6.76079229100003],[101.14725840200003,6.764349338000045],[101.14358359700009,6.77172052100002],[101.12386967600008,6.778132312000025],[101.12409316800006,6.782749183000021],[101.11673862000004,6.786311816000023],[101.11504856200008,6.790550492000023],[101.11172180700004,6.787649627000064],[101.10469975000007,6.79081566800005],[101.08796089900005,6.790111976000048],[101.07535625100007,6.794025869000052],[101.07121502200005,6.793111922000037],[101.06661799800008,6.796421379000037],[101.06017719100004,6.796771829000022],[101.05437259300004,6.801492333000056],[101.04187419900006,6.795309057000054],[101.03500645700007,6.782945579000057],[101.02859164200004,6.77957155200005],[101.02724989300003,6.767899911000029],[101.03166294600004,6.757697243000052],[101.02749395900008,6.753919056000029],[101.03122434700003,6.747596003000069],[101.03013846000005,6.737300864000076],[101.02290068400004,6.732862930000067],[101.02329834500006,6.729510549000054],[101.01761865100008,6.724940731000061],[101.02500655100005,6.720029657000055],[101.03470273100004,6.718014620000076],[101.03957753600008,6.7191277890000265],[101.03929052900008,6.706364504000021],[101.04327378500005,6.70974321500006],[101.05739495200004,6.712540378000028],[101.06257504400008,6.698376633000066],[101.05972320100005,6.688246056000025],[101.06362472600006,6.684509691000073],[101.04887071700006,6.663359934000027],[101.06185151200003,6.655822723000028],[101.06889717400009,6.64419446900007],[101.07365504400008,6.642013376000023],[101.08171979100007,6.643205056000056],[101.09012240000004,6.6422077480000326],[101.10118432700006,6.6374240220000615],[101.10515505500007,6.629540527000074],[101.11138102300004,6.628350147000049],[101.12709057300003,6.612904238000056],[101.13835765100004,6.608523489000049],[101.14744710600007,6.610611602000063],[101.15682483900008,6.607250572000055],[101.16116685300005,6.6034440230000655],[101.16985997400008,6.603950868000027],[101.17622404600007,6.599772159000054],[101.18623782500003,6.599728334000076],[101.21274173800003,6.595697242000028],[101.21891955900008,6.59844041100007],[101.22402740100006,6.606261136000057],[101.21416997200004,6.617166659000077],[101.20208706000005,6.633796762000031],[101.19838799400009,6.6470749220000585],[101.20636364600006,6.651017424000031],[101.18430659700005,6.661945446000061],[101.18822399000004,6.672979740000073],[101.18893060100004,6.68270160000003],[101.18743200900008,6.6937593000000675],[101.19210831900006,6.701253257000076],[101.20823795700005,6.723281038000039]]]},"properties":{"Shape_Leng":0.823562654082,"Shape_Area":0.0245271289028,"ADM2_EN":"Khok Pho","ADM2_TH":"โคกโพธิ์","ADM2_PCODE":"TH9402","ADM1_EN":"Pattani","ADM1_TH":"ปัตตานี","ADM1_PCODE":"TH94","ADM0_EN":"Thailand","ADM0_TH":"ประเทศไทย","ADM0_PCODE":"TH"}},
{"type":"Feature","geometry":{"type":"Polygon","coordinates":[[[101.19247565800003,6.866092363000064],[101.16971908500005,6.863892343000032],[101.15979108900007,6.860363053000071],[101.14144124100005,6.860696691000044],[101.13228765700006,6.859361153000066],[101.11688112700006,6.861170110000046],[101.10281715400004,6.86094550100006],[101.06609815300004,6.857092431000069],[101.06225768400009,6.851196697000034],[101.05735899000007,6.851419814000053],[101.04555719400008,6.845215155000062],[101.04318192400007,6.838497160000031],[101.05045410600007,6.836351678000028],[101.04311103700007,6.828955844000063],[101.04212917300003,6.81756157600006],[101.04429333500008,6.808750620000069],[101.05437259300004,6.801492333000056],[101.06017719100004,6.796771829000022],[101.06661799800008,6.796421379000037],[101.07121502200005,6.793111922000037],[101.07535625100007,6.794025869000052],[101.08796089900005,6.790111976000048],[101.10469975000007,6.79081566800005],[101.11172180700004,6.787649627000064],[101.11504856200008,6.790550492000023],[101.11673862000004,6.786311816000023],[101.12409316800006,6.782749183000021],[101.12386967600008,6.778132312000025],[101.14358359700009,6.77172052100002],[101.14725840200003,6.764349338000045],[101.15306741900008,6.76079229100003],[101.16042055000008,6.7598047070000575],[101.17574762800007,6.764780287000065],[101.18522434600004,6.761390898000059],[101.19074173500007,6.7555409160000295],[101.19395434100005,6.736391198000035],[101.19743689000006,6.729751759000067],[101.20823795700005,6.723281038000039],[101.22549224000005,6.709198492000041],[101.23990165400005,6.703602500000045],[101.24526345600003,6.698582080000051],[101.25895304400007,6.694983258000036],[101.26645642900007,6.695180338000057],[101.27341607300008,6.698620331000029],[101.27395892100009,6.703978808000045],[101.26703959000008,6.704537372000061],[101.26853085300007,6.7070378310000365],[101.26364498500004,6.710850736000054],[101.26081906200005,6.720663359000071],[101.26156051100008,6.726426864000075],[101.25613988900005,6.725737307000031],[101.25655308100005,6.735691551000059],[101.24190262600007,6.750885087000029],[101.23844502400004,6.757266105000042],[101.23857353800008,6.76310456300007],[101.24892817700004,6.76409407400007],[101.25054620600008,6.770829347000074],[101.26294597400005,6.771896426000069],[101.26956737000006,6.7799326900000665],[101.27182309600005,6.785999289000074],[101.26566095700008,6.796097951000036],[101.25632365200005,6.796107694000057],[101.25246292000008,6.802896997000062],[101.25216626500008,6.805565735000073],[101.24338043900008,6.811697903000038],[101.24632651500008,6.818528505000074],[101.23994200300007,6.821442317000049],[101.22734697000004,6.822550293000063],[101.21515425400008,6.819982151000033],[101.21622854800006,6.825225215000046],[101.21373953000005,6.832058650000022],[101.21988185100008,6.843260224000062],[101.22628437900005,6.84260127400006],[101.23087097900009,6.847123448000048],[101.22719822000005,6.853978315000063],[101.20973005200005,6.853444120000063],[101.20675784600007,6.857601872000032],[101.19247565800003,6.866092363000064]]]},"properties":{"Shape_Leng":0.851889247318,"Shape_Area":0.0196597082036,"ADM2_EN":"Nong Chik","ADM2_TH":"หนองจิก","ADM2_PCODE":"TH9403","ADM1_EN":"Pattani","ADM1_TH":"ปัตตานี","ADM1_PCODE":"TH94","ADM0_EN":"Thailand","ADM0_TH":"ประเทศไทย","ADM0_PCODE":"TH"}},
{"type":"Feature","geometry":{"type":"Polygon","coordinates":[[[101.59532410800006,6.781710246000046],[101.56967336500009,6.826037561000021],[101.55759332000008,6.845412225000075],[101.54683356000004,6.844735557000035],[101.53790981900005,6.851643277000051],[101.52629532900005,6.865017248000072],[101.52024548700007,6.860555183000031],[101.50749534100004,6.865520364000076],[101.48762239000007,6.8703964340000425],[101.48299419000006,6.870420442000068],[101.46239425400006,6.88134622900003],[101.45664238700004,6.88279170900006],[101.45414369900004,6.873072670000056],[101.45414932100005,6.863844918000041],[101.46100620600004,6.858811861000049],[101.46967018800007,6.863382487000024],[101.47250980700005,6.858211190000077],[101.47947133300005,6.855922312000075],[101.48125011500008,6.84997855000006],[101.47273235600005,6.847543401000053],[101.47066586500006,6.837958277000041],[101.46276989500006,6.83491211300003],[101.45103136300008,6.826395350000041],[101.45375389800006,6.821047190000058],[101.46423469400008,6.810764852000034],[101.47094043800007,6.791983540000047],[101.47208931300008,6.783228525000027],[101.46596873600004,6.77575663600004],[101.46143422200004,6.7738206800000285],[101.47023133000005,6.764564714000073],[101.47435088000009,6.762266217000047],[101.48978207400006,6.746767949000059],[101.49614662200008,6.737030000000061],[101.50123982900004,6.733949216000042],[101.51043060200004,6.736171073000037],[101.51371445800004,6.742299222000042],[101.52015212800006,6.743672480000043],[101.52887869100005,6.752547357000026],[101.52836008200006,6.758115429000043],[101.53538220000007,6.767829242000062],[101.54082683600006,6.7688779450000425],[101.54716926700007,6.766680326000028],[101.57300109300007,6.7704150570000365],[101.58027009400007,6.775269020000053],[101.59532410800006,6.781710246000046]]]},"properties":{"Shape_Leng":0.538163130276,"Shape_Area":0.011653281282,"ADM2_EN":"Panare","ADM2_TH":"ปะนาเระ","ADM2_PCODE":"TH9404","ADM1_EN":"Pattani","ADM1_TH":"ปัตตานี","ADM1_PCODE":"TH94","ADM0_EN":"Thailand","ADM0_TH":"ประเทศไทย","ADM0_PCODE":"TH"}},
{"type":"Feature","geometry":{"type":"Polygon","coordinates":[[[101.46143422200004,6.7738206800000285],[101.45384879200009,6.770454400000062],[101.43496108200009,6.768769593000059],[101.41923684100004,6.7792393700000275],[101.41709779900003,6.778778747000047],[101.40862194700009,6.7605178410000235],[101.39954386600004,6.75790587900002],[101.37223829800007,6.761627989000033],[101.34959741100005,6.769319573000075],[101.33406086200006,6.770260457000063],[101.33918729800007,6.756098523000048],[101.33836986900008,6.743180971000072],[101.33318972600006,6.7321926520000375],[101.31926500200007,6.724010220000025],[101.31696665400005,6.721300030000066],[101.31836994300005,6.7148957330000485],[101.32291849900008,6.710179818000029],[101.33356569400007,6.693249858000058],[101.33826314500004,6.689352568000061],[101.35262241900006,6.665546781000046],[101.36097424300004,6.642986934000021],[101.36198145000009,6.621373566000045],[101.35874278800009,6.61343650200007],[101.36530844500004,6.606244833000062],[101.36636851600008,6.6014489730000605],[101.37263981300003,6.599366802000077],[101.38310000400008,6.602320787000053],[101.37773800200006,6.616565536000053],[101.38553202500003,6.6248571380000385],[101.39615648900008,6.623609549000037],[101.39988813400004,6.633968092000032],[101.40608972700005,6.63168326400006],[101.41699336900007,6.6310780540000565],[101.42970070400008,6.6428730680000285],[101.43103565300004,6.654372090000038],[101.43419498900005,6.65821741600007],[101.43641904800006,6.672536524000066],[101.43322702600005,6.679989344000035],[101.43507504600007,6.69093250100002],[101.43768414600004,6.696156571000074],[101.43913378500008,6.708232262000024],[101.45128673700003,6.709244392000073],[101.45329626800009,6.712241164000034],[101.47563909600007,6.71099120100007],[101.48665708100003,6.7126176060000375],[101.49024046400007,6.721088149000025],[101.50123982900004,6.733949216000042],[101.49614662200008,6.737030000000061],[101.48978207400006,6.746767949000059],[101.47435088000009,6.762266217000047],[101.47023133000005,6.764564714000073],[101.46143422200004,6.7738206800000285]]]},"properties":{"Shape_Leng":0.649865950506,"Shape_Area":0.0163825518596,"ADM2_EN":"Mayo","ADM2_TH":"มายอ","ADM2_PCODE":"TH9405","ADM1_EN":"Pattani","ADM1_TH":"ปัตตานี","ADM1_PCODE":"TH94","ADM0_EN":"Thailand","ADM0_TH":"ประเทศไทย","ADM0_PCODE":"TH"}},
{"type":"Feature","geometry":{"type":"Polygon","coordinates":[[[101.37263981300003,6.599366802000077],[101.37684683800006,6.590585846000067],[101.37281411800006,6.584790132000023],[101.37648522800004,6.576940365000041],[101.38244364100007,6.569576460000064],[101.38799227800007,6.568036767000024],[101.40080854500007,6.5739602150000565],[101.40298276600004,6.578600135000045],[101.41329718200006,6.585514700000033],[101.42192079700004,6.593453938000039],[101.42955910600006,6.593512674000067],[101.43787060800008,6.590789448000066],[101.44614159400004,6.582573357000058],[101.44810092400007,6.578049327000031],[101.45285077200003,6.577331812000068],[101.45979627600008,6.588906464000047],[101.45824311200005,6.5972435230000315],[101.46538090300004,6.597536756000068],[101.47683159000007,6.594022601000063],[101.47674724400008,6.5976024900000425],[101.48307457200008,6.598984938000058],[101.48915675700005,6.6041269270000384],[101.49551149300004,6.599375955000028],[101.50236486500006,6.603703730000063],[101.49848791800008,6.640384318000031],[101.49006058000003,6.652310319000037],[101.48622058500007,6.661827261000042],[101.48622447200006,6.670444797000073],[101.49602738900006,6.672969933000047],[101.50275743400005,6.671582971000021],[101.51070959100008,6.675923386000022],[101.51378339600006,6.685113666000063],[101.51502466500006,6.699637740000071],[101.50780848000005,6.7042301850000285],[101.50579613500008,6.709671575000073],[101.50013216900004,6.709031119000031],[101.48665708100003,6.7126176060000375],[101.47563909600007,6.71099120100007],[101.45329626800009,6.712241164000034],[101.45128673700003,6.709244392000073],[101.43913378500008,6.708232262000024],[101.43768414600004,6.696156571000074],[101.43507504600007,6.69093250100002],[101.43322702600005,6.679989344000035],[101.43641904800006,6.672536524000066],[101.43419498900005,6.65821741600007],[101.43103565300004,6.654372090000038],[101.42970070400008,6.6428730680000285],[101.41699336900007,6.6310780540000565],[101.40608972700005,6.63168326400006],[101.39988813400004,6.633968092000032],[101.39615648900008,6.623609549000037],[101.38553202500003,6.6248571380000385],[101.37773800200006,6.616565536000053],[101.38310000400008,6.602320787000053],[101.37263981300003,6.599366802000077]]]},"properties":{"Shape_Leng":0.624745202786,"Shape_Area":0.0106713555822,"ADM2_EN":"Thung Yang Daeng","ADM2_TH":"ทุ่งยางแดง","ADM2_PCODE":"TH9406","ADM1_EN":"Pattani","ADM1_TH":"ปัตตานี","ADM1_PCODE":"TH94","ADM0_EN":"Thailand","ADM0_TH":"ประเทศไทย","ADM0_PCODE":"TH"}},
{"type":"Feature","geometry":{"type":"Polygon","coordinates":[[[101.50123982900004,6.733949216000042],[101.49024046400007,6.721088149000025],[101.48665708100003,6.7126176060000375],[101.50013216900004,6.709031119000031],[101.50579613500008,6.709671575000073],[101.50780848000005,6.7042301850000285],[101.51502466500006,6.699637740000071],[101.51378339600006,6.685113666000063],[101.51070959100008,6.675923386000022],[101.51768471400004,6.673838120000028],[101.52207987900005,6.668954575000043],[101.53532556400006,6.666013883000062],[101.54792141400009,6.665728168000044],[101.54967418300004,6.662846320000028],[101.53677583800004,6.647223689000043],[101.53674300100005,6.640815713000052],[101.54904580200008,6.626610724000045],[101.55965165000003,6.626335292000022],[101.56311534900004,6.631258717000037],[101.56366580500008,6.64058589900003],[101.56906425600005,6.643114073000049],[101.57806377800006,6.639939860000027],[101.57957819400008,6.633744873000069],[101.58668031700006,6.626373642000033],[101.59915954400009,6.623557193000067],[101.60615004400006,6.6317226140000685],[101.61341526100006,6.63311430300007],[101.61461080900006,6.629772399000046],[101.62022601400008,6.629344969000044],[101.62328484000005,6.633355087000041],[101.62691123300004,6.632005398000047],[101.62328492800003,6.627907986000025],[101.62714130000006,6.624625059000039],[101.63057626200003,6.62789695400005],[101.63140115900006,6.635138712000071],[101.64303559500007,6.633692742000051],[101.64366936200008,6.638950381000029],[101.63883930700007,6.642167599000061],[101.63635348200006,6.647738117000074],[101.64312744000006,6.665926955000032],[101.63843526400007,6.669527114000061],[101.64074654400008,6.673838087000036],[101.64507995700006,6.671624596000072],[101.66377691100007,6.671549918000039],[101.64061874900005,6.7156490500000245],[101.62899632600005,6.724161234000064],[101.59532410800006,6.781710246000046],[101.58027009400007,6.775269020000053],[101.57300109300007,6.7704150570000365],[101.54716926700007,6.766680326000028],[101.54082683600006,6.7688779450000425],[101.53538220000007,6.767829242000062],[101.52836008200006,6.758115429000043],[101.52887869100005,6.752547357000026],[101.52015212800006,6.743672480000043],[101.51371445800004,6.742299222000042],[101.51043060200004,6.736171073000037],[101.50123982900004,6.733949216000042]]]},"properties":{"Shape_Leng":0.674640446561,"Shape_Area":0.0161348411239,"ADM2_EN":"Sai Buri","ADM2_TH":"สายบุรี","ADM2_PCODE":"TH9407","ADM1_EN":"Pattani","ADM1_TH":"ปัตตานี","ADM1_PCODE":"TH94","ADM0_EN":"Thailand","ADM0_TH":"ประเทศไทย","ADM0_PCODE":"TH"}},
{"type":"Feature","geometry":{"type":"Polygon","coordinates":[[[101.63140115900006,6.635138712000071],[101.63295821000008,6.62306346400004],[101.63826771700008,6.618499950000057],[101.64283141600004,6.6203807690000644],[101.64697485500005,6.614731102000064],[101.65250704200008,6.601118341000074],[101.66144358900004,6.591495370000075],[101.65973440800008,6.587787399000035],[101.66571274700004,6.584092220000059],[101.66569605200004,6.5778837080000585],[101.66892866100005,6.573950068000045],[101.68786351800009,6.572813110000027],[101.70547107000004,6.568047561000071],[101.71080957000004,6.569297876000064],[101.72484185400003,6.576857325000049],[101.70578233800006,6.60610512300002],[101.68529213000005,6.640124117000028],[101.66377691100007,6.671549918000039],[101.64507995700006,6.671624596000072],[101.64074654400008,6.673838087000036],[101.63843526400007,6.669527114000061],[101.64312744000006,6.665926955000032],[101.63635348200006,6.647738117000074],[101.63883930700007,6.642167599000061],[101.64366936200008,6.638950381000029],[101.64303559500007,6.633692742000051],[101.63140115900006,6.635138712000071]]]},"properties":{"Shape_Leng":0.352295014203,"Shape_Area":0.00490406002195,"ADM2_EN":"Mai Kaen","ADM2_TH":"ไม้แก่น","ADM2_PCODE":"TH9408","ADM1_EN":"Pattani","ADM1_TH":"ปัตตานี","ADM1_PCODE":"TH94","ADM0_EN":"Thailand","ADM0_TH":"ประเทศไทย","ADM0_PCODE":"TH"}},
{"type":"Feature","geometry":{"type":"Polygon","coordinates":[[[101.32154659600008,6.843444653000063],[101.32362938600005,6.830080063000025],[101.33187406900004,6.823724101000039],[101.33545560000005,6.809179904000075],[101.33550461500005,6.794632773000046],[101.33406086200006,6.770260457000063],[101.34959741100005,6.769319573000075],[101.37223829800007,6.761627989000033],[101.39954386600004,6.75790587900002],[101.40862194700009,6.7605178410000235],[101.41709779900003,6.778778747000047],[101.41923684100004,6.7792393700000275],[101.43496108200009,6.768769593000059],[101.45384879200009,6.770454400000062],[101.46143422200004,6.7738206800000285],[101.46596873600004,6.77575663600004],[101.47208931300008,6.783228525000027],[101.47094043800007,6.791983540000047],[101.46423469400008,6.810764852000034],[101.45375389800006,6.821047190000058],[101.45103136300008,6.826395350000041],[101.46276989500006,6.83491211300003],[101.47066586500006,6.837958277000041],[101.47273235600005,6.847543401000053],[101.48125011500008,6.84997855000006],[101.47947133300005,6.855922312000075],[101.47250980700005,6.858211190000077],[101.46967018800007,6.863382487000024],[101.46100620600004,6.858811861000049],[101.45414932100005,6.863844918000041],[101.45414369900004,6.873072670000056],[101.45664238700004,6.88279170900006],[101.44369431700005,6.886250353000037],[101.43993282700006,6.885179887000049],[101.42061601400007,6.887942099000043],[101.38570837200007,6.8949839730000235],[101.36203168600008,6.902055179000058],[101.35401893400007,6.905727171000024],[101.33487086400004,6.918845541000053],[101.31993419800006,6.933189196000058],[101.30998057700003,6.9401908520000575],[101.29041659000006,6.950215003000039],[101.27813495800007,6.952055490000021],[101.26708424900005,6.94710927400007],[101.24885537400007,6.943390648000047],[101.23996334000009,6.937205811000069],[101.23631703900008,6.927561107000031],[101.24229834900007,6.935781255000052],[101.24555759700007,6.9332529380000665],[101.25115340400004,6.938607607000051],[101.25754115700005,6.9384077610000645],[101.26099441100007,6.9416166300000555],[101.27283413900005,6.944197750000058],[101.27501643400007,6.9412495740000395],[101.28083507400004,6.9481709860000365],[101.28716123500004,6.947526974000027],[101.28579094400004,6.937599135000028],[101.29388256500005,6.938374170000031],[101.29856313900007,6.934541029000059],[101.30130418300007,6.927719780000075],[101.30752055500005,6.928881605000072],[101.31254484900006,6.923005118000049],[101.32405751000005,6.928069438000023],[101.32818293100007,6.9217842710000355],[101.33035051100006,6.910280330000035],[101.33915366200006,6.913110947000064],[101.34298942100008,6.91062340600007],[101.34164621600007,6.899689260000059],[101.34527097900008,6.896520938000037],[101.34664932500004,6.890122713000039],[101.34452443500004,6.886080971000069],[101.33777101300007,6.882928485000036],[101.33252791900009,6.874774037000066],[101.33587041900006,6.870518583000035],[101.32996198100005,6.871010579000028],[101.32415748800008,6.8766590070000575],[101.32194132300003,6.866485561000047],[101.32463031100008,6.852611552000042],[101.32154659600008,6.843444653000063]]]},"properties":{"Shape_Leng":0.917827940202,"Shape_Area":0.0176317344331,"ADM2_EN":"Yaring","ADM2_TH":"ยะหริ่ง","ADM2_PCODE":"TH9409","ADM1_EN":"Pattani","ADM1_TH":"ปัตตานี","ADM1_PCODE":"TH94","ADM0_EN":"Thailand","ADM0_TH":"ประเทศไทย","ADM0_PCODE":"TH"}},
{"type":"Feature","geometry":{"type":"Polygon","coordinates":[[[101.25246292000008,6.802896997000062],[101.25632365200005,6.796107694000057],[101.26566095700008,6.796097951000036],[101.27182309600005,6.785999289000074],[101.26956737000006,6.7799326900000665],[101.26294597400005,6.771896426000069],[101.25054620600008,6.770829347000074],[101.24892817700004,6.76409407400007],[101.23857353800008,6.76310456300007],[101.23844502400004,6.757266105000042],[101.24190262600007,6.750885087000029],[101.25655308100005,6.735691551000059],[101.25613988900005,6.725737307000031],[101.26156051100008,6.726426864000075],[101.26081906200005,6.720663359000071],[101.26364498500004,6.710850736000054],[101.26853085300007,6.7070378310000365],[101.26703959000008,6.704537372000061],[101.27395892100009,6.703978808000045],[101.27341607300008,6.698620331000029],[101.26645642900007,6.695180338000057],[101.26965917900009,6.6908140170000365],[101.27174006400008,6.694028775000049],[101.27686788900007,6.690792219000059],[101.27822569100005,6.700255544000072],[101.28401093100007,6.701675182000031],[101.28360716800006,6.712886617000038],[101.28667625000008,6.712244578000025],[101.28711087500005,6.703342948000056],[101.29053008600005,6.692084858000044],[101.28730893700003,6.691797344000065],[101.28000784000005,6.6842892840000445],[101.28036161800009,6.68187537600005],[101.28527681500003,6.680377503000045],[101.29080508800007,6.682768087000056],[101.29672037100005,6.677634592000061],[101.29682814600005,6.673850134000077],[101.29187510900005,6.672655170000041],[101.28921911100008,6.664789367000026],[101.29644864800008,6.653727572000037],[101.29894172300004,6.647220296000057],[101.29793352400009,6.632798112000046],[101.30304521200009,6.622493071000065],[101.30219221700008,6.618134575000056],[101.29572838800004,6.6178927210000325],[101.29256134300005,6.614141979000067],[101.29366036500005,6.601176553000073],[101.29686155400003,6.596672793000039],[101.30010648400008,6.585978208000029],[101.29836619700006,6.577938605000043],[101.30045264900008,6.570719499000063],[101.30663259900007,6.56469671900004],[101.31282496800009,6.566151672000046],[101.32542035400007,6.572223257000076],[101.33138810000008,6.566277769000067],[101.34782308800004,6.55672409400006],[101.35666664500008,6.557505617000061],[101.36029422300004,6.554146056000036],[101.36193058200007,6.563594076000072],[101.37164250900008,6.567888177000043],[101.38244364100007,6.569576460000064],[101.37648522800004,6.576940365000041],[101.37281411800006,6.584790132000023],[101.37684683800006,6.590585846000067],[101.37263981300003,6.599366802000077],[101.36636851600008,6.6014489730000605],[101.36530844500004,6.606244833000062],[101.35874278800009,6.61343650200007],[101.36198145000009,6.621373566000045],[101.36097424300004,6.642986934000021],[101.35262241900006,6.665546781000046],[101.33826314500004,6.689352568000061],[101.33356569400007,6.693249858000058],[101.32291849900008,6.710179818000029],[101.31836994300005,6.7148957330000485],[101.31696665400005,6.721300030000066],[101.31926500200007,6.724010220000025],[101.33318972600006,6.7321926520000375],[101.33836986900008,6.743180971000072],[101.33918729800007,6.756098523000048],[101.33406086200006,6.770260457000063],[101.33550461500005,6.794632773000046],[101.33545560000005,6.809179904000075],[101.33187406900004,6.823724101000039],[101.32362938600005,6.830080063000025],[101.32154659600008,6.843444653000063],[101.30563976600007,6.835162995000076],[101.29868129600004,6.833127674000025],[101.29042154900009,6.834040678000065],[101.28460353500009,6.830414873000052],[101.29081095700008,6.823235508000039],[101.29077113800008,6.81565272000006],[101.28316964200008,6.804490102000045],[101.27574148400004,6.8033811720000585],[101.25246292000008,6.802896997000062]]]},"properties":{"Shape_Leng":0.961558607972,"Shape_Area":0.0178920479849,"ADM2_EN":"Yarang","ADM2_TH":"ยะรัง","ADM2_PCODE":"TH9410","ADM1_EN":"Pattani","ADM1_TH":"ปัตตานี","ADM1_PCODE":"TH94","ADM0_EN":"Thailand","ADM0_TH":"ประเทศไทย","ADM0_PCODE":"TH"}},
{"type":"Feature","geometry":{"type":"Polygon","coordinates":[[[101.50236486500006,6.603703730000063],[101.50934895900008,6.602380172000039],[101.52068746000003,6.58916939300002],[101.52208854100007,6.58361196200002],[101.51723241400003,6.577746710000042],[101.52604702000008,6.571663484000055],[101.52946750200005,6.562694479000072],[101.53677912900008,6.556012145000068],[101.55004569900007,6.555221304000042],[101.56337858400008,6.549858604000065],[101.57441409700004,6.555072007000035],[101.58209005400005,6.556270095000059],[101.58691392100008,6.562621503000059],[101.59368866400007,6.566349355000057],[101.59390360700007,6.574043312000072],[101.59678387300005,6.578135176000046],[101.59524772200007,6.582613683000034],[101.58777468000005,6.590132381000046],[101.57914693600009,6.5926351510000245],[101.57366406100004,6.601484407000044],[101.57690055800003,6.6091148770000245],[101.57697192800003,6.619399969000028],[101.58668031700006,6.626373642000033],[101.57957819400008,6.633744873000069],[101.57806377800006,6.639939860000027],[101.56906425600005,6.643114073000049],[101.56366580500008,6.64058589900003],[101.56311534900004,6.631258717000037],[101.55965165000003,6.626335292000022],[101.54904580200008,6.626610724000045],[101.53674300100005,6.640815713000052],[101.53677583800004,6.647223689000043],[101.54967418300004,6.662846320000028],[101.54792141400009,6.665728168000044],[101.53532556400006,6.666013883000062],[101.52207987900005,6.668954575000043],[101.51768471400004,6.673838120000028],[101.51070959100008,6.675923386000022],[101.50275743400005,6.671582971000021],[101.49602738900006,6.672969933000047],[101.48622447200006,6.670444797000073],[101.48622058500007,6.661827261000042],[101.49006058000003,6.652310319000037],[101.49848791800008,6.640384318000031],[101.50236486500006,6.603703730000063]]]},"properties":{"Shape_Leng":0.461871088242,"Shape_Area":0.00741560050959,"ADM2_EN":"Kapho","ADM2_TH":"กะพ้อ","ADM2_PCODE":"TH9411","ADM1_EN":"Pattani","ADM1_TH":"ปัตตานี","ADM1_PCODE":"TH94","ADM0_EN":"Thailand","ADM0_TH":"ประเทศไทย","ADM0_PCODE":"TH"}},
{"type":"Feature","geometry":{"type":"Polygon","coordinates":[[[101.22402740100006,6.606261136000057],[101.23189171100006,6.615259197000057],[101.23894176800007,6.633938503000024],[101.24864003300007,6.643983690000027],[101.25548622000008,6.641344137000033],[101.27183070900008,6.646452255000042],[101.27797398400008,6.655598423000072],[101.27872424900005,6.666847131000054],[101.28323955600007,6.675201884000046],[101.28036161800009,6.68187537600005],[101.28000784000005,6.6842892840000445],[101.28730893700003,6.691797344000065],[101.29053008600005,6.692084858000044],[101.28711087500005,6.703342948000056],[101.28667625000008,6.712244578000025],[101.28360716800006,6.712886617000038],[101.28401093100007,6.701675182000031],[101.27822569100005,6.700255544000072],[101.27686788900007,6.690792219000059],[101.27174006400008,6.694028775000049],[101.26965917900009,6.6908140170000365],[101.26645642900007,6.695180338000057],[101.25895304400007,6.694983258000036],[101.24526345600003,6.698582080000051],[101.23990165400005,6.703602500000045],[101.22549224000005,6.709198492000041],[101.20823795700005,6.723281038000039],[101.19210831900006,6.701253257000076],[101.18743200900008,6.6937593000000675],[101.18893060100004,6.68270160000003],[101.18822399000004,6.672979740000073],[101.18430659700005,6.661945446000061],[101.20636364600006,6.651017424000031],[101.19838799400009,6.6470749220000585],[101.20208706000005,6.633796762000031],[101.21416997200004,6.617166659000077],[101.22402740100006,6.606261136000057]]]},"properties":{"Shape_Leng":0.427751543525,"Shape_Area":0.00650819575,"ADM2_EN":"Mae Lan","ADM2_TH":"แม่ลาน","ADM2_PCODE":"TH9412","ADM1_EN":"Pattani","ADM1_TH":"ปัตตานี","ADM1_PCODE":"TH94","ADM0_EN":"Thailand","ADM0_TH":"ประเทศไทย","ADM0_PCODE":"TH"}}
]}