{"type":"FeatureCollection", "features": [
{"type":"Feature","geometry":{"type":"MultiPolygon","coordinates":[[[[98.59488870800004,8.291093376000049],[98.58745808200007,8.293152611000039],[98.57792591300006,8.288816788000076],[98.57416338800004,8.28060492700007],[98.57508474900004,8.279892830000051],[98.58803340600008,8.28346285300006],[98.59476215300003,8.284715491000043],[98.59919807200004,8.287381417000063],[98.59488870800004,8.291093376000049]]],[[[98.50365636600009,8.337477079000053],[98.50181582300007,8.336702529000036],[98.50373096700008,8.333216039000035],[98.50365636600009,8.337477079000053]]],[[[98.53694575400004,8.660817648000034],[98.53147192200004,8.662533151000048],[98.52714266800007,8.661984664000045],[98.52999099000004,8.654768441000044],[98.52571839500007,8.645443475000036],[98.52050511300007,8.63895493900003],[98.52036303000006,8.636029035000035],[98.51739817000004,8.630165807000026],[98.51508843800008,8.628226109000025],[98.51527411700005,8.62487989400006],[98.51069824200005,8.617573679000031],[98.50310608500007,8.611403947000042],[98.50157960000007,8.608264676000033],[98.49840453600007,8.607602049000036],[98.49505083300005,8.603003898000054],[98.49008033900009,8.602695709000045],[98.48738274400006,8.60733198500003],[98.47945392500009,8.608517212000038],[98.47537927900004,8.607134925000025],[98.46982116900006,8.608498277000024],[98.46915943700009,8.61359471000003],[98.46409261000008,8.615353361000075],[98.46261751900005,8.617841128000066],[98.46378610200009,8.621391237000068],[98.45641879700008,8.626530541000022],[98.44746207000009,8.625529089000054],[98.44350124000005,8.626313223000068],[98.43961482900005,8.631541037000034],[98.43366111500006,8.62681273000004],[98.43052900900005,8.626578972000061],[98.42744038300003,8.630255258000034],[98.42344074300007,8.630156699000054],[98.41794967700008,8.634016402000043],[98.41536967000008,8.629830237000021],[98.41108145600003,8.62872083600007],[98.41186167300003,8.62606260800004],[98.41604199600005,8.623741121000023],[98.41548497200006,8.619652980000069],[98.41880394000003,8.615545323000049],[98.41527104400006,8.611399765000044],[98.41349892400007,8.605117824000047],[98.41382262200005,8.59913744000005],[98.41231746100004,8.597457968000072],[98.41322574200007,8.591474621000032],[98.41539526700006,8.590852075000043],[98.42503002700005,8.580372762000025],[98.42541536300007,8.577917821000028],[98.42119176200003,8.575240509000025],[98.42303980800006,8.569757265000021],[98.41582050000005,8.563216182000076],[98.41541692500005,8.561102672000061],[98.40953803400004,8.558081920000063],[98.40672708300008,8.554996699000071],[98.40640068900007,8.550737307000077],[98.40262636100005,8.549241259000041],[98.40098029500007,8.542299205000063],[98.39571651600005,8.53965753500006],[98.39457742300004,8.532543820000058],[98.38946577100006,8.531132496000055],[98.38721682100004,8.526439434000054],[98.37958797200008,8.521802747000038],[98.37765603900004,8.518616206000047],[98.37806585600003,8.508076317000075],[98.37630578900007,8.503766183000039],[98.37171479500006,8.49796255700005],[98.37136195700003,8.493884748000028],[98.36792195100008,8.490093685000033],[98.36933222400006,8.482442009000067],[98.37502274700006,8.47639072100003],[98.37960345700009,8.474937999000076],[98.38818946500004,8.474516639000058],[98.39039358800005,8.47189596800007],[98.39172171500007,8.466885572000024],[98.39743115700009,8.458392073000027],[98.39686962600007,8.455596270000058],[98.39989872400008,8.456759086000034],[98.40553763800006,8.462250095000059],[98.41384346700005,8.462581483000065],[98.41655532900006,8.464797493000049],[98.42168732900006,8.463277323000057],[98.42687595100006,8.464444744000048],[98.43080824100008,8.463792985000055],[98.43648073700007,8.456056260000025],[98.45154220000006,8.454360314000041],[98.45482100800007,8.456780913000046],[98.46020332700004,8.458042958000021],[98.46577903100007,8.454783440000028],[98.47461992700005,8.452383845000043],[98.47575230100006,8.448678932000064],[98.47935882500008,8.447055668000075],[98.47973434000005,8.44185561300003],[98.47636366100005,8.440240155000026],[98.47907035200006,8.438345104000064],[98.47731067200004,8.433929741000043],[98.47352643900007,8.430013092000024],[98.47359239200006,8.427181966000035],[98.46957083900008,8.426432118000037],[98.47207980500008,8.421683758000029],[98.46187525900007,8.415127893000033],[98.46102307300004,8.41010380800003],[98.46277744800005,8.40881564600005],[98.46408115900005,8.402795430000026],[98.46652266600006,8.397713736000071],[98.46405363100007,8.392738142000042],[98.46109671400006,8.389861143000076],[98.46562631300009,8.387152103000062],[98.46587794200008,8.38268496400002],[98.46322345200008,8.37545822900006],[98.46463211000008,8.372917142000063],[98.46878957200005,8.371836451000036],[98.47179606200007,8.362521677000075],[98.47819892200005,8.358555060000072],[98.47673571600006,8.350844387000052],[98.47778416000006,8.347855147000075],[98.48860632100008,8.344414251000046],[98.49356220800007,8.339777566000066],[98.49838969200005,8.342640152000058],[98.50716175300005,8.342904490000024],[98.50711319700008,8.338886098000046],[98.51109897500004,8.328757190000033],[98.51313756300004,8.325974816000041],[98.51653580600004,8.325591205000023],[98.52404723500007,8.332793440000046],[98.52883033700004,8.332131786000048],[98.53623892300004,8.33604419900007],[98.53752038100004,8.341703117000066],[98.53971032100009,8.342574464000052],[98.54571341000008,8.340094527000076],[98.54930693900008,8.340167876000066],[98.55214813100008,8.347924122000052],[98.56268889000006,8.35591585000003],[98.56730315200008,8.355308723000064],[98.57014546000005,8.359829825000077],[98.57402442400007,8.359576752000066],[98.57536265000005,8.362611971000035],[98.57923598600007,8.358888466000053],[98.58328779100003,8.358432059000052],[98.59349427300003,8.361985385000025],[98.59864563100007,8.367949441000064],[98.60336748500004,8.370413380000059],[98.60502539500004,8.366241700000046],[98.60723939700006,8.365562812000064],[98.60969466600005,8.37501657200005],[98.60922401900007,8.381996539000056],[98.61564618500006,8.382002845000045],[98.61245590000004,8.407448705000036],[98.60924707300006,8.417790079000042],[98.60286565800004,8.42188851900005],[98.60138081800005,8.425902869000026],[98.59478611900005,8.431025023000075],[98.59031894800006,8.431457916000056],[98.58878382400007,8.435020348000023],[98.59472071300007,8.442751649000058],[98.59219770300007,8.446239822000052],[98.59296540900004,8.450988295000059],[98.58950939800008,8.453352500000051],[98.58699283800007,8.459566678000044],[98.57955411700004,8.464095907000058],[98.57869629500004,8.475525969000046],[98.57928170000008,8.480485938000072],[98.58224616900009,8.486762308000039],[98.58416638700004,8.48690078900006],[98.58830730000005,8.492030268000065],[98.58363008800006,8.496331463000047],[98.58305183000004,8.503517886000054],[98.57663716000008,8.50425019000005],[98.56487466600004,8.502422009000043],[98.56243104600009,8.508059696000032],[98.56291118600006,8.512799223000059],[98.55306918200006,8.515202224000063],[98.54866190700005,8.518061998000064],[98.54918761800008,8.521207270000048],[98.55461756000005,8.52503273000002],[98.55477486000007,8.526755586000036],[98.54927807000007,8.535216899000034],[98.55472061900008,8.548127992000047],[98.56093020700007,8.549770677000026],[98.56251781800006,8.552926358000036],[98.56922566100008,8.553272384000024],[98.57007288300008,8.564888168000039],[98.57152753800005,8.57298699000006],[98.57431516000008,8.578782278000062],[98.57854485300004,8.58085679900006],[98.58624163500008,8.59048240900006],[98.58693938900007,8.595788932000062],[98.58979484400004,8.606071933000067],[98.59332744600005,8.610064573000045],[98.59731994000003,8.611864255000057],[98.59789902800009,8.614352827000062],[98.60398395200008,8.619429901000046],[98.60431786100008,8.625686161000033],[98.60223954700007,8.629691798000067],[98.59577738700006,8.62971845900006],[98.59338463200004,8.631126572000028],[98.58853956400009,8.62799946000007],[98.58300624100008,8.629891178000037],[98.57771890000004,8.633727237000073],[98.57419447100006,8.634017357000062],[98.56392391100007,8.638570234000042],[98.56418826000004,8.64178182300003],[98.55344453400005,8.649362887000052],[98.55333021100006,8.652072050000072],[98.55009893100004,8.654953510000041],[98.54252586900009,8.657127504000073],[98.53694575400004,8.660817648000034]]]]},"properties":{"Shape_Leng":1.472376805,"Shape_Area":0.0454673088808,"ADM2_EN":"Mueang Phangnga","ADM2_TH":"เมืองพังงา","ADM2_PCODE":"TH8201","ADM1_EN":"Phangnga","ADM1_TH":"พังงา","ADM1_PCODE":"TH82","ADM0_EN":"Thailand","ADM0_TH":"ประเทศไทย","ADM0_PCODE":"TH"}},
{"type":"Feature","geometry":{"type":"MultiPolygon","coordinates":[[[[98.58339898000008,7.893540443000063],[98.57993470400004,7.892847273000029],[98.58235078900003,7.887862164000069],[98.58339898000008,7.893540443000063]]],[[[98.51430320800006,7.950632093000024],[98.51667213500008,7.9567546860000675],[98.51660346900007,7.960004807000075],[98.51331519900003,7.9541606900000374],[98.51430320800006,7.950632093000024]]],[[[98.56756438200006,7.997597090000056],[98.56458042800006,7.99641043400004],[98.56719442200006,7.994570267000029],[98.56756438200006,7.997597090000056]]],[[[98.62522837400007,8.036899020000021],[98.62363696500006,8.04130901000002],[98.62149110600006,8.03988294100003],[98.62231830100006,8.036852688000067],[98.62522837400007,8.036899020000021]]],[[[98.53003387700005,8.114679035000051],[98.52763101400006,8.115328436000027],[98.53361477300007,8.104062042000066],[98.53058628400004,8.100728205000053],[98.53325847900004,8.094995527000037],[98.53079696800006,8.089503808000075],[98.52766894200005,8.089938127000039],[98.52877987300008,8.093439388000036],[98.52694211300008,8.09614977800004],[98.52434165300008,8.092456894000065],[98.52463332900004,8.08820111500006],[98.52646450200007,8.08739231100003],[98.53063921200004,8.081174089000058],[98.53206644400007,8.07315107200003],[98.53079717500003,8.07099670100007],[98.53641310100005,8.06948131400003],[98.54153935900007,8.065653637000025],[98.54257458000006,8.063300624000021],[98.53838857400007,8.062952422000023],[98.54192524300004,8.05872750900005],[98.54367676200008,8.054289333000042],[98.54663648200005,8.056822477000026],[98.54842938900003,8.05463142700006],[98.54563247000004,8.052382480000063],[98.54601205100005,8.048024922000025],[98.55167581000006,8.035861311000076],[98.55492081400007,8.034446643000024],[98.55317436900003,8.032554676000075],[98.55459179500008,8.026629436000064],[98.55771335600008,8.02610467200003],[98.55917016700005,8.028911107000056],[98.56498326400003,8.032552708000026],[98.57485320100005,8.02069539100006],[98.58394092200007,8.00889373900003],[98.58489009500005,8.000756003000049],[98.58383188200008,7.996700719000046],[98.58034735800004,7.9908881660000475],[98.57330762500004,7.989160188000028],[98.56832219500006,7.992564386000026],[98.56510079200007,7.987421219000055],[98.57075267700009,7.976744876000055],[98.57051313000005,7.972324320000041],[98.56779536800008,7.968099880000068],[98.56469921500008,7.960093941000025],[98.56887344600005,7.947787945000073],[98.57095046900008,7.937824424000041],[98.57735804500004,7.923579367000059],[98.57427911800005,7.916144639000038],[98.57630913200006,7.913211727000032],[98.57570602000004,7.910118228000044],[98.57678740700004,7.901439581000034],[98.58009789900007,7.895708748000061],[98.58299535200007,7.896716137000055],[98.58033978600008,7.912706169000046],[98.58258612200007,7.915900506000071],[98.58645419100009,7.91297699200004],[98.58912353400007,7.9154197810000255],[98.59243584400008,7.905715072000021],[98.59545306900009,7.901149565000026],[98.59323867900008,7.899697192000076],[98.59531449500008,7.889907077000032],[98.59702911700003,7.8884367880000354],[98.59790217100004,7.89656900500006],[98.60049445800007,7.908297925000056],[98.60039443500006,7.913674901000036],[98.60409813300004,7.921851267000022],[98.60561076000005,7.930416464000075],[98.60968329200006,7.939112311000031],[98.61157010200009,7.945187505000035],[98.61118798700005,7.949956672000042],[98.61424889500006,7.965026278000039],[98.61307324000006,7.969688141000063],[98.61278150400005,7.979725113000029],[98.61031834900007,7.985495428000036],[98.60794426100006,7.984033071000056],[98.60366056700008,7.991397496000047],[98.60377416100005,8.006906884000045],[98.60101844500008,8.011848881000049],[98.60008415900006,8.019013010000037],[98.60139434700005,8.02398525600006],[98.60066463100009,8.027455366000027],[98.60190585900006,8.034161332000053],[98.61038568500004,8.043877689000055],[98.60641686100007,8.04838311900005],[98.60321486700008,8.049255843000026],[98.59494500100004,8.058121808000067],[98.59235108500008,8.065616978000037],[98.59343659200005,8.07296896400004],[98.59965270900005,8.082859259000031],[98.59285003900004,8.079931310000063],[98.58735387800004,8.07607246200007],[98.58305748800007,8.075343478000036],[98.57547225100006,8.07637317800004],[98.56685821400004,8.081045798000048],[98.56260048100006,8.085420982000073],[98.55667108800009,8.087646448000044],[98.55184406100005,8.093660698000065],[98.54569428500008,8.097523562000049],[98.54128047300009,8.102696320000064],[98.53762834600008,8.104426860000046],[98.53333023400006,8.108656364000069],[98.53003387700005,8.114679035000051]]],[[[98.53535258600004,8.156146387000035],[98.53461082100006,8.149536026000021],[98.53563832500004,8.144143001000032],[98.53874450700005,8.138497504000043],[98.54700036500009,8.131035241000063],[98.55705939200004,8.12616121800005],[98.55795978800006,8.130305485000065],[98.55565487500007,8.137670989000071],[98.55104132500009,8.14427915400006],[98.54480008700006,8.150238072000036],[98.53927098700007,8.152259515000026],[98.53535258600004,8.156146387000035]]],[[[98.53906032300006,8.167336576000025],[98.54082134400005,8.16880320000007],[98.54099552100007,8.174825605000024],[98.53944601500007,8.182994903000065],[98.53751468600007,8.185686647000068],[98.53449342300007,8.173305855000024],[98.53906032300006,8.167336576000025]]],[[[98.63566938000008,8.186325194000062],[98.63438982100007,8.187174148000054],[98.62715534700004,8.18576534400006],[98.62865102000006,8.180356860000074],[98.62423662600008,8.176181880000058],[98.62355360500004,8.181683965000047],[98.62126945200004,8.182381877000068],[98.62036643900007,8.17450025200003],[98.61470358900004,8.167249113000025],[98.60095264100005,8.154709194000077],[98.59791831300004,8.148852264000027],[98.59742501300008,8.142335348000074],[98.59269274700006,8.138470896000058],[98.59242633500008,8.126987417000066],[98.59116592200007,8.122932654000067],[98.58685702800005,8.118507151000074],[98.58202435200008,8.119878522000022],[98.57860407800007,8.114609718000054],[98.57416778400005,8.114359486000069],[98.56997440500004,8.117466254000021],[98.56359089200004,8.12024277100005],[98.56236227800008,8.119515480000075],[98.56560663600004,8.113895384000045],[98.57549911000007,8.106002728000021],[98.57853065800003,8.102295887000025],[98.58590415500004,8.097552773000075],[98.59276568500007,8.095606876000033],[98.59678428000007,8.101179478000063],[98.60129444200004,8.102075244000048],[98.60926537500006,8.09585542700006],[98.61043567800004,8.089272825000023],[98.60845967300008,8.082336316000067],[98.61147833200005,8.080685062000043],[98.61764920600007,8.080378341000028],[98.61883764200007,8.098812464000048],[98.62315585300007,8.102240240000071],[98.62324488600007,8.109006066000063],[98.62610006800008,8.117362945000025],[98.62568247700005,8.122694394000064],[98.62754445700006,8.126198805000058],[98.62255875600005,8.127814847000025],[98.62326309400004,8.13178885900004],[98.63282885000007,8.138464369000076],[98.63467269400007,8.143585639000037],[98.63500786700007,8.149086126000043],[98.63109205100005,8.14907701200002],[98.62989745300007,8.152156024000021],[98.63402404500005,8.15241652900005],[98.63402975000008,8.155827962000046],[98.63672394600007,8.167710819000035],[98.63210166500005,8.167843422000033],[98.63524917500007,8.176407113000039],[98.63906689600003,8.178704638000056],[98.63571708000006,8.179860440000027],[98.63768704100005,8.183213634000026],[98.63566938000008,8.186325194000062]]],[[[98.61144361200007,8.19605690000003],[98.60906827500008,8.19447718400005],[98.61186404000006,8.190770362000023],[98.61470613900008,8.194980422000071],[98.61144361200007,8.19605690000003]]],[[[98.63810397200007,8.199898818000065],[98.63421132100007,8.194440429000053],[98.63884119600004,8.190179745000023],[98.64001947100007,8.194767321000029],[98.63810397200007,8.199898818000065]]],[[[98.49152940400006,8.201008372000047],[98.48809293400006,8.199786807000066],[98.48674888000005,8.19608932500006],[98.48840602300004,8.191086682000048],[98.48596334100006,8.183648062000032],[98.48744582300009,8.178163811000047],[98.49085892700003,8.174957488000075],[98.49170924900005,8.168853683000066],[98.49383911800004,8.169000010000047],[98.49544958800004,8.17524241500007],[98.49367996800004,8.185396849000028],[98.49245858500007,8.186954702000037],[98.49338442000004,8.195446704000062],[98.49152940400006,8.201008372000047]]],[[[98.50986279100005,8.200779220000072],[98.51133997300008,8.205309341000032],[98.50942636800005,8.205727808000063],[98.50986279100005,8.200779220000072]]],[[[98.59271675800005,8.20806622400005],[98.59382308100004,8.214123837000045],[98.59329862900006,8.220552750000024],[98.59048292400007,8.220060796000041],[98.59176070600006,8.215310204000048],[98.59074305500008,8.210588976000054],[98.59271675800005,8.20806622400005]]],[[[98.50747430100006,8.225359144000038],[98.50407100300004,8.224146455000039],[98.50454182100003,8.214606410000044],[98.50764383700005,8.208411008000041],[98.50919891700005,8.208200151000028],[98.50965697600009,8.216366980000032],[98.50747430100006,8.225359144000038]]],[[[98.50083837000005,8.226984628000025],[98.49864807200004,8.22226518900004],[98.50122194100004,8.221094100000073],[98.50243245000007,8.224978150000027],[98.50083837000005,8.226984628000025]]],[[[98.50157165000007,8.239347278000025],[98.50099442100009,8.235764992000043],[98.50376915800007,8.236383404000037],[98.50653717000006,8.229054398000073],[98.50792133900006,8.228486672000031],[98.50466194900008,8.237193510000054],[98.50157165000007,8.239347278000025]]]]},"properties":{"Shape_Leng":1.73371764172,"Shape_Area":0.0113834742145,"ADM2_EN":"Ko Yao","ADM2_TH":"เกาะยาว","ADM2_PCODE":"TH8202","ADM1_EN":"Phangnga","ADM1_TH":"พังงา","ADM1_PCODE":"TH82","ADM0_EN":"Thailand","ADM0_TH":"ประเทศไทย","ADM0_PCODE":"TH"}},
{"type":"Feature","geometry":{"type":"Polygon","coordinates":[[[98.53694575400004,8.660817648000034],[98.53916314000008,8.666976630000022],[98.54625318300003,8.674036656000055],[98.55202215900005,8.673253886000055],[98.56033336700006,8.67527953800004],[98.56422450100007,8.681002442000022],[98.56940670200004,8.681353849000061],[98.57263251000006,8.684493122000049],[98.57343194600008,8.69149091600002],[98.58103985000008,8.696544033000066],[98.58214425300008,8.702695593000044],[98.58935118100004,8.705835345000025],[98.59479828200006,8.71261695100003],[98.59583080200008,8.723421492000057],[98.59367154700004,8.730644485000028],[98.59472739800003,8.738230396000063],[98.59442201300004,8.744829906000064],[98.59638684100008,8.745668174000059],[98.59697002500008,8.754838291000056],[98.59591454200006,8.75977668400003],[98.59863359100007,8.771312659000046],[98.59752119100006,8.77441727200005],[98.60152785300005,8.782487486000036],[98.59991488100007,8.78453881400003],[98.59989415800004,8.791349557000046],[98.59870699100009,8.796834490000037],[98.59562724500006,8.800348762000056],[98.58740549700008,8.802586374000043],[98.58424636100006,8.805955881000045],[98.57878023000006,8.803478489000042],[98.57474730600006,8.804105599000025],[98.57046693900008,8.806642878000048],[98.56447257000008,8.807271798000045],[98.55432478700004,8.815648891000023],[98.55575303200004,8.82052341700006],[98.55302773000005,8.829324990000032],[98.54869179500008,8.830819938000047],[98.54709881800005,8.835233970000047],[98.54317467600004,8.840030461000026],[98.53701238200006,8.841854647000048],[98.53264163900008,8.845616149000023],[98.53471394100006,8.849080108000067],[98.53620965700009,8.856579504000024],[98.52562858100003,8.861005624000029],[98.52300926700008,8.859058786000048],[98.51482875800008,8.860322979000046],[98.51092463000003,8.865594325000075],[98.50694317600005,8.878978482000036],[98.50472017100009,8.88106976000006],[98.49990978000005,8.880820522000022],[98.48424329100004,8.886165942000048],[98.47460032300006,8.890135189000034],[98.47281486900005,8.88905968000006],[98.46007744400004,8.889474644000074],[98.45589242800008,8.890629258000047],[98.45181487200006,8.894569363000073],[98.44599597900003,8.89525517800007],[98.44435966600008,8.888963586000045],[98.43870028200007,8.88005251100003],[98.43636454800009,8.873870913000076],[98.42440006100009,8.865152408000029],[98.42429133200005,8.861211011000023],[98.41935395100006,8.860118113000055],[98.41638239900004,8.85412517900005],[98.41681974100004,8.851905429000055],[98.40918811500006,8.845088788000055],[98.40086670500006,8.838926334000064],[98.40234016700003,8.826995534000048],[98.40378836000008,8.825507990000062],[98.40379720500005,8.819996002000039],[98.40644803300006,8.814178798000057],[98.40352635100004,8.808829648000028],[98.40332351600006,8.805104139000036],[98.40577202100008,8.799737664000077],[98.40548471000005,8.794843980000053],[98.40781861700003,8.790543203000027],[98.40648896100004,8.787518214000045],[98.40774648900003,8.784122912000043],[98.40703744600006,8.777458917000047],[98.40147590600009,8.774819964000073],[98.40256062300006,8.770687923000025],[98.40099460400006,8.767339785000047],[98.39473940100004,8.768030775000057],[98.39052130100004,8.766786903000025],[98.38455934500007,8.761651765000067],[98.38000609400007,8.756159189000073],[98.37558174400004,8.758258815000033],[98.37035578100006,8.75832156000007],[98.36679483100005,8.760220577000041],[98.36297374600008,8.758718834000035],[98.35835847300007,8.750237766000055],[98.35699072500006,8.745195137000053],[98.35738069100006,8.740840687000059],[98.35305650300006,8.734579515000064],[98.34588392900008,8.735478378000039],[98.34008458500006,8.73254924300005],[98.33370419200008,8.73443695900005],[98.32916598700007,8.729336464000028],[98.32616794100005,8.721564256000022],[98.32642128500004,8.716981795000038],[98.32246915200005,8.714941406000037],[98.32253425300007,8.709540143000027],[98.32666565900007,8.704767270000048],[98.32319399500005,8.698515092000036],[98.32354713500007,8.696310167000036],[98.31234689000007,8.68119316000002],[98.31107438600009,8.67341409100004],[98.32106270000008,8.670426957000075],[98.32748782800007,8.662697990000026],[98.32588617000005,8.655147945000067],[98.32677797900004,8.652776063000033],[98.32987493900004,8.65285293900007],[98.33605424300004,8.648479320000035],[98.33643654000008,8.64232120500003],[98.34258168400004,8.638552632000028],[98.34631770600004,8.641858859000024],[98.35175066400006,8.640894503000027],[98.35148780100008,8.636082359000056],[98.35625102600005,8.62943258000007],[98.35970047200004,8.629483650000054],[98.36214018900006,8.633879669000066],[98.36964512500003,8.639406912000027],[98.38095759400005,8.640009225000028],[98.38533641400005,8.64152699400006],[98.39146329700009,8.634628122000038],[98.39651921800004,8.63038485800007],[98.40321130300003,8.631862941000065],[98.41108145600003,8.62872083600007],[98.41536967000008,8.629830237000021],[98.41794967700008,8.634016402000043],[98.42344074300007,8.630156699000054],[98.42744038300003,8.630255258000034],[98.43052900900005,8.626578972000061],[98.43366111500006,8.62681273000004],[98.43961482900005,8.631541037000034],[98.44350124000005,8.626313223000068],[98.44746207000009,8.625529089000054],[98.45641879700008,8.626530541000022],[98.46378610200009,8.621391237000068],[98.46261751900005,8.617841128000066],[98.46409261000008,8.615353361000075],[98.46915943700009,8.61359471000003],[98.46982116900006,8.608498277000024],[98.47537927900004,8.607134925000025],[98.47945392500009,8.608517212000038],[98.48738274400006,8.60733198500003],[98.49008033900009,8.602695709000045],[98.49505083300005,8.603003898000054],[98.49840453600007,8.607602049000036],[98.50157960000007,8.608264676000033],[98.50310608500007,8.611403947000042],[98.51069824200005,8.617573679000031],[98.51527411700005,8.62487989400006],[98.51508843800008,8.628226109000025],[98.51739817000004,8.630165807000026],[98.52036303000006,8.636029035000035],[98.52050511300007,8.63895493900003],[98.52571839500007,8.645443475000036],[98.52999099000004,8.654768441000044],[98.52714266800007,8.661984664000045],[98.53147192200004,8.662533151000048],[98.53694575400004,8.660817648000034]]]},"properties":{"Shape_Leng":1.09365547674,"Shape_Area":0.0498362327425,"ADM2_EN":"Kapong","ADM2_TH":"กะปง","ADM2_PCODE":"TH8203","ADM1_EN":"Phangnga","ADM1_TH":"พังงา","ADM1_PCODE":"TH82","ADM0_EN":"Thailand","ADM0_TH":"ประเทศไทย","ADM0_PCODE":"TH"}},
{"type":"Feature","geometry":{"type":"MultiPolygon","coordinates":[[[[98.39686962600007,8.455596270000058],[98.39498738400005,8.451425527000026],[98.39392251200007,8.442057402000046],[98.39836407300004,8.438918753000053],[98.39842600400004,8.433552527000074],[98.39627375000003,8.430706942000029],[98.39478307400003,8.425133543000072],[98.39595872700005,8.421897055000045],[98.39412680900006,8.414928014000054],[98.39186875800004,8.410593882000057],[98.38494997200007,8.407079880000026],[98.38313426600007,8.402588233000074],[98.37783639200006,8.399755557000049],[98.37748774200008,8.396334312000022],[98.38113115100003,8.394880513000032],[98.38140653700003,8.388263442000039],[98.37740226900007,8.380175018000045],[98.37530375300008,8.373368381000034],[98.37191546600008,8.368940792000046],[98.36797470200008,8.368059235000032],[98.36729576800008,8.365352158000064],[98.37008877400007,8.362277438000035],[98.37012567200009,8.356914091000021],[98.36503513700006,8.348653339000066],[98.36413351000004,8.34258253300004],[98.35931242600009,8.340047354000035],[98.35390990500008,8.341381840000054],[98.35138028900008,8.338996455000029],[98.35401554400005,8.335483644000021],[98.35351227200005,8.329473454000038],[98.35131358300004,8.32394640900003],[98.34735821600003,8.32117549700007],[98.34271373900003,8.320539367000038],[98.33791638000008,8.323114505000035],[98.32332928400007,8.316291697000054],[98.31999106400008,8.313379416000032],[98.31359076700005,8.311101461000021],[98.31263828200008,8.306439214000022],[98.30834685000008,8.30381675500007],[98.30427709100007,8.304544492000048],[98.30114933100003,8.301815310000052],[98.28823632800004,8.302738677000036],[98.28417522900008,8.309055475000036],[98.27814892600009,8.30970730000007],[98.26907470800006,8.30808845000007],[98.27332965700003,8.286623115000054],[98.27786331700008,8.268106317000047],[98.28181934700007,8.246522526000035],[98.28235259100006,8.240828967000027],[98.28037677900005,8.237166393000052],[98.28278496500008,8.218187416000035],[98.28201901900007,8.205907566000064],[98.28455481500004,8.204051297000035],[98.28611735700008,8.207316269000046],[98.29402882700003,8.207437933000051],[98.30161236400005,8.203508791000047],[98.30646769400005,8.20410772300005],[98.30835903000008,8.20075653200007],[98.31771599800004,8.199690622000048],[98.32413211800008,8.196353157000033],[98.32472580300004,8.190910010000039],[98.32807355200003,8.185821073000056],[98.33551792700007,8.18011442900007],[98.33941143400006,8.181855718000065],[98.34548319000004,8.187860365000063],[98.35333019100005,8.190755190000061],[98.35716599600005,8.186858284000039],[98.35945547100005,8.188509768000074],[98.36177122700008,8.183754324000063],[98.36029872700004,8.182394515000055],[98.36386174900008,8.179445663000024],[98.36236208200006,8.175051522000047],[98.36657718600009,8.172039922000067],[98.36824414400007,8.168513414000074],[98.36783402600008,8.160878534000062],[98.37221297200006,8.153555047000054],[98.37362112500006,8.139567274000058],[98.37809696000005,8.136747448000051],[98.37813178100004,8.134683317000054],[98.38681472300004,8.126747304000048],[98.39146138800004,8.130459009000049],[98.39319436000005,8.134647336000057],[98.39738965600009,8.138152603000037],[98.40421724800007,8.137050861000034],[98.40154850800008,8.14563174400007],[98.40507006400009,8.148600867000027],[98.40743800200005,8.152838553000038],[98.40651820900007,8.162490517000037],[98.41240401000005,8.162524818000065],[98.42082504300004,8.158231931000046],[98.42325534200006,8.149284740000041],[98.42614587700007,8.143398643000069],[98.42338665500006,8.141626444000053],[98.42699067500007,8.135559364000073],[98.43338716400007,8.137633233000031],[98.43821836600006,8.145204205000027],[98.43983405200004,8.144238019000056],[98.44340335200008,8.151042981000046],[98.44244293800006,8.155784921000077],[98.43841331400006,8.156019965000041],[98.43694791200005,8.158385285000065],[98.43872718100005,8.161771887000043],[98.43622398900004,8.16262478300007],[98.43727657100004,8.168951401000072],[98.44157714900007,8.181051212000057],[98.44413416900005,8.19151258100004],[98.44719739600004,8.195774695000068],[98.45966759800007,8.196229694000067],[98.46905497000006,8.20297984900003],[98.46766849100004,8.209116164000022],[98.46223099200006,8.214008418000049],[98.46268938700007,8.218164265000041],[98.46488487400006,8.220230652000055],[98.46710334500006,8.217506779000075],[98.46832975800004,8.22034429100006],[98.46619792000007,8.23402446600005],[98.46433666100006,8.240031180000074],[98.46162377100006,8.241281751000031],[98.45484333300004,8.241466728000034],[98.45830568800005,8.24420254000006],[98.45615622100007,8.246211622000033],[98.45980436800005,8.246537653000075],[98.46158096600004,8.250509495000074],[98.45993006800006,8.258117007000067],[98.46008094100006,8.262372646000074],[98.45636741700008,8.26489013500003],[98.45659619200006,8.27442372300004],[98.45373454500003,8.277912611000033],[98.45681028900003,8.280173524000077],[98.45731158700005,8.284546972000044],[98.45915376900007,8.285152255000071],[98.46325187900004,8.28191189000006],[98.46636643100004,8.28197227100003],[98.46769148100003,8.293351081000026],[98.46547019400003,8.297377633000053],[98.46844888600003,8.302113405000057],[98.46855424200004,8.306109111000069],[98.47354040200008,8.316669500000046],[98.48310336300005,8.317466120000063],[98.48983790400007,8.31646354000003],[98.49605905900006,8.318494075000046],[98.49814255500007,8.32108629000004],[98.49848996900005,8.325640533000069],[98.49571704900006,8.329644821000045],[98.49527189000008,8.333155435000037],[98.49214697800005,8.33882608600004],[98.49356220800007,8.339777566000066],[98.48860632100008,8.344414251000046],[98.47778416000006,8.347855147000075],[98.47673571600006,8.350844387000052],[98.47819892200005,8.358555060000072],[98.47179606200007,8.362521677000075],[98.46878957200005,8.371836451000036],[98.46463211000008,8.372917142000063],[98.46322345200008,8.37545822900006],[98.46587794200008,8.38268496400002],[98.46562631300009,8.387152103000062],[98.46109671400006,8.389861143000076],[98.46405363100007,8.392738142000042],[98.46652266600006,8.397713736000071],[98.46408115900005,8.402795430000026],[98.46277744800005,8.40881564600005],[98.46102307300004,8.41010380800003],[98.46187525900007,8.415127893000033],[98.47207980500008,8.421683758000029],[98.46957083900008,8.426432118000037],[98.47359239200006,8.427181966000035],[98.47352643900007,8.430013092000024],[98.47731067200004,8.433929741000043],[98.47907035200006,8.438345104000064],[98.47636366100005,8.440240155000026],[98.47973434000005,8.44185561300003],[98.47935882500008,8.447055668000075],[98.47575230100006,8.448678932000064],[98.47461992700005,8.452383845000043],[98.46577903100007,8.454783440000028],[98.46020332700004,8.458042958000021],[98.45482100800007,8.456780913000046],[98.45154220000006,8.454360314000041],[98.43648073700007,8.456056260000025],[98.43080824100008,8.463792985000055],[98.42687595100006,8.464444744000048],[98.42168732900006,8.463277323000057],[98.41655532900006,8.464797493000049],[98.41384346700005,8.462581483000065],[98.40553763800006,8.462250095000059],[98.39989872400008,8.456759086000034],[98.39686962600007,8.455596270000058]]],[[[98.45463801700004,8.116118701000062],[98.45439737600003,8.118340236000051],[98.45125018900006,8.116262280000058],[98.45463801700004,8.116118701000062]]],[[[98.44500187600005,8.129250002000049],[98.44229598600003,8.13158052600005],[98.44187152000006,8.12584587300006],[98.44706696600008,8.121256337000034],[98.44821813500005,8.127465182000037],[98.44500187600005,8.129250002000049]]],[[[98.40988437300007,8.158796616000075],[98.40792491900004,8.158826541000053],[98.41020566900005,8.14947144100006],[98.41287648900004,8.149904819000028],[98.41350904900008,8.153125990000035],[98.41204817100004,8.158630714000026],[98.40988437300007,8.158796616000075]]],[[[98.47319144200009,8.252721415000053],[98.46947635200007,8.252097479000042],[98.46440262100003,8.243722211000033],[98.46744458100005,8.246393640000065],[98.47434676200004,8.24909451700006],[98.47319144200009,8.252721415000053]]],[[[98.49047693800009,8.26871075500003],[98.48884096600005,8.270369542000026],[98.48673787600006,8.267797813000072],[98.49181837400005,8.26574207300007],[98.49047693800009,8.26871075500003]]],[[[98.48493211400006,8.271199583000055],[98.48266991200006,8.274807828000064],[98.48180637100006,8.280502041000034],[98.47978484700008,8.276511154000048],[98.47993362400007,8.270551513000044],[98.48255934600007,8.26730419100005],[98.48493211400006,8.271199583000055]]],[[[98.49745943100004,8.276999774000046],[98.49756926400005,8.282878291000031],[98.50107117600004,8.28497969700004],[98.49940870100005,8.295459243000039],[98.49487488300008,8.298534464000056],[98.48971260100006,8.306130460000077],[98.48756245800007,8.30023953500006],[98.48558607200005,8.285929761000034],[98.49199798900008,8.278746601000023],[98.49745943100004,8.276999774000046]]],[[[98.50031044000008,8.302750821000075],[98.49989195900008,8.306876146000036],[98.49562890800007,8.30535168800003],[98.49621725800006,8.301544964000072],[98.50031044000008,8.302750821000075]]],[[[98.48069395100003,8.295417346000022],[98.47950910900005,8.300135289000025],[98.48051060100005,8.307253561000039],[98.47834654600007,8.305668518000061],[98.47897518100007,8.297161336000045],[98.48069395100003,8.295417346000022]]],[[[98.49139181700008,8.309602548000043],[98.49392343100004,8.313152612000067],[98.48792358700007,8.313322656000025],[98.49139181700008,8.309602548000043]]]]},"properties":{"Shape_Leng":1.74504458948,"Shape_Area":0.0404391286842,"ADM2_EN":"Takua Thung","ADM2_TH":"ตะกั่วทุ่ง","ADM2_PCODE":"TH8204","ADM1_EN":"Phangnga","ADM1_TH":"พังงา","ADM1_PCODE":"TH82","ADM0_EN":"Thailand","ADM0_TH":"ประเทศไทย","ADM0_PCODE":"TH"}},
{"type":"Feature","geometry":{"type":"MultiPolygon","coordinates":[[[[98.44599597900003,8.89525517800007],[98.44761270400005,8.902994086000035],[98.45211018900005,8.909129638000024],[98.45456301600007,8.91424470100003],[98.45447457700004,8.924588610000058],[98.45714287800007,8.932344491000038],[98.45513875300009,8.936677811000038],[98.44794728300008,8.939719510000032],[98.44309888900005,8.945222037000065],[98.43614042500008,8.940840576000028],[98.43338324500007,8.94099882200004],[98.42763698000005,8.945965028000046],[98.41761833400005,8.950893251000025],[98.41377866500005,8.959062912000036],[98.40876340200003,8.964423597000064],[98.39971342800004,8.964600462000021],[98.38458481000004,8.977299021000022],[98.38211442900007,8.985750472000063],[98.37800697300008,8.991026314000067],[98.37390297000007,8.99317310300006],[98.36398744200005,8.995030582000027],[98.36040784400006,8.994389885000032],[98.36054015000008,8.98936296100004],[98.35877492600008,8.983415343000047],[98.35286043200006,8.980934670000067],[98.34169678700005,8.973753831000067],[98.33296820100009,8.978875026000026],[98.32883514800005,8.978187604000027],[98.32210105900003,8.97083654200003],[98.32102856300008,8.96610690500006],[98.31564364500008,8.95803406300007],[98.31357655100004,8.951953503000027],[98.30912480600006,8.94340008000006],[98.30588751800008,8.940642147000062],[98.30196010400005,8.940589362000026],[98.29852928400004,8.93649506600002],[98.29849953700005,8.92838204900005],[98.29649935900005,8.924295467000036],[98.29148671300004,8.921444611000027],[98.28811424300005,8.914590477000047],[98.28844751500009,8.908129741000039],[98.28712362900006,8.896712881000042],[98.28416109600005,8.88850893600005],[98.28235083000004,8.886058074000061],[98.27926830700005,8.874144539000042],[98.27511773100008,8.866827650000062],[98.26780884300007,8.860254232000045],[98.26361608500008,8.858189107000044],[98.26554338700004,8.84534454200002],[98.26606573100008,8.82841914200003],[98.26440054900007,8.821094252000023],[98.25953545200008,8.813620507000053],[98.25285536100006,8.809634617000029],[98.25819996500007,8.803163642000072],[98.25967682900006,8.79944583400004],[98.26258001400004,8.783764219000034],[98.26261761000006,8.771654194000064],[98.26148833600007,8.762429454000028],[98.25846228700004,8.75921302200004],[98.25664938100005,8.75133603300003],[98.25029980100004,8.742933934000064],[98.24643267100004,8.742584083000054],[98.23853166900005,8.735736582000072],[98.23309604200006,8.733455948000028],[98.22377069000004,8.735055902000056],[98.22110272300006,8.738886879000063],[98.22203456600005,8.729051292000065],[98.22826791800009,8.726369107000039],[98.23436879500008,8.72125737600004],[98.23675796500004,8.713141173000054],[98.24178890400003,8.67489189400004],[98.24160784300005,8.672362390000046],[98.24556479300009,8.661273761000075],[98.24693662700008,8.65376344200007],[98.24536176500004,8.647561417000077],[98.24664799400006,8.639730689000032],[98.24405577700009,8.63642035600003],[98.24324793400007,8.629719908000027],[98.23751154900003,8.626582987000063],[98.23224769700005,8.62510030900006],[98.23024062800005,8.622100074000059],[98.23170168800004,8.617576020000058],[98.23578111700004,8.616559988000063],[98.23553931100008,8.619705280000062],[98.23967732300008,8.621728652000058],[98.24687993200007,8.623244016000058],[98.24742906200004,8.626591759000064],[98.25418797400005,8.630243697000026],[98.25739334400004,8.634740263000026],[98.26230839400006,8.634509346000073],[98.26555198000005,8.639565896000022],[98.26798553300006,8.646114503000035],[98.27301544300008,8.64411549600004],[98.27390849500006,8.633792119000077],[98.27717512500004,8.628624229000025],[98.27936997100005,8.628568242000028],[98.28415195200006,8.632989033000058],[98.28885374400005,8.632851971000036],[98.29379001300003,8.635400915000048],[98.29927189400007,8.636075532000064],[98.30608812800006,8.644919203000029],[98.31601827300005,8.645005906000051],[98.31982966000004,8.64686701200003],[98.32247723200004,8.652077813000062],[98.32677797900004,8.652776063000033],[98.32588617000005,8.655147945000067],[98.32748782800007,8.662697990000026],[98.32106270000008,8.670426957000075],[98.31107438600009,8.67341409100004],[98.31234689000007,8.68119316000002],[98.32354713500007,8.696310167000036],[98.32319399500005,8.698515092000036],[98.32666565900007,8.704767270000048],[98.32253425300007,8.709540143000027],[98.32246915200005,8.714941406000037],[98.32642128500004,8.716981795000038],[98.32616794100005,8.721564256000022],[98.32916598700007,8.729336464000028],[98.33370419200008,8.73443695900005],[98.34008458500006,8.73254924300005],[98.34588392900008,8.735478378000039],[98.35305650300006,8.734579515000064],[98.35738069100006,8.740840687000059],[98.35699072500006,8.745195137000053],[98.35835847300007,8.750237766000055],[98.36297374600008,8.758718834000035],[98.36679483100005,8.760220577000041],[98.37035578100006,8.75832156000007],[98.37558174400004,8.758258815000033],[98.38000609400007,8.756159189000073],[98.38455934500007,8.761651765000067],[98.39052130100004,8.766786903000025],[98.39473940100004,8.768030775000057],[98.40099460400006,8.767339785000047],[98.40256062300006,8.770687923000025],[98.40147590600009,8.774819964000073],[98.40703744600006,8.777458917000047],[98.40774648900003,8.784122912000043],[98.40648896100004,8.787518214000045],[98.40781861700003,8.790543203000027],[98.40548471000005,8.794843980000053],[98.40577202100008,8.799737664000077],[98.40332351600006,8.805104139000036],[98.40352635100004,8.808829648000028],[98.40644803300006,8.814178798000057],[98.40379720500005,8.819996002000039],[98.40378836000008,8.825507990000062],[98.40234016700003,8.826995534000048],[98.40086670500006,8.838926334000064],[98.40918811500006,8.845088788000055],[98.41681974100004,8.851905429000055],[98.41638239900004,8.85412517900005],[98.41935395100006,8.860118113000055],[98.42429133200005,8.861211011000023],[98.42440006100009,8.865152408000029],[98.43636454800009,8.873870913000076],[98.43870028200007,8.88005251100003],[98.44435966600008,8.888963586000045],[98.44599597900003,8.89525517800007]]],[[[97.80370521700007,8.817014697000047],[97.80757713300005,8.818040847000077],[97.80836296100006,8.822916030000044],[97.80635643000005,8.826375959000075],[97.80189323300004,8.828283311000064],[97.79809379800008,8.821844102000057],[97.79968070800004,8.818037032000063],[97.80370521700007,8.817014697000047]]],[[[98.32501109800006,8.977729343000021],[98.32687600700007,8.979555874000027],[98.32631512200004,8.98317886500007],[98.32501109800006,8.977729343000021]]],[[[98.26469533300008,9.015104478000069],[98.25699924700007,9.013464168000041],[98.24751242800005,9.007142161000047],[98.25335050200005,8.999351425000043],[98.25772415500006,8.988311426000053],[98.26073755800007,8.977159705000076],[98.26262445200007,8.959588838000059],[98.26232432400008,8.945714550000048],[98.26095658700007,8.938559690000034],[98.25306292000005,8.92326939000003],[98.24846063500007,8.915807595000047],[98.24995310900005,8.91048227400006],[98.25451569400008,8.904427491000035],[98.26223135000004,8.89204806400005],[98.26595830200006,8.880324942000072],[98.26693525700006,8.868747722000023],[98.26643099200004,8.864103130000046],[98.27017428000005,8.86855358300005],[98.27763524100004,8.884916726000029],[98.28126327700005,8.890796925000075],[98.28365227800003,8.897524579000049],[98.28538285500008,8.911242444000038],[98.28556824600008,8.917447431000028],[98.28696436400008,8.920434618000058],[98.29554546600008,8.92675183700004],[98.29648784200003,8.929581056000075],[98.29573071300007,8.93722938600007],[98.29908458100005,8.942937725000036],[98.30500949400005,8.942461933000061],[98.31006762000004,8.949272937000046],[98.31323695500004,8.960887024000044],[98.31451309700009,8.96275864200004],[98.32384191800008,8.984122981000041],[98.32255194600003,8.989634116000047],[98.31421704300004,8.994205433000047],[98.30866334900008,8.998436200000071],[98.28866268100006,9.005592329000024],[98.28226350900007,9.008863034000058],[98.27688086800003,9.009510128000045],[98.27381503600009,9.01384089100003],[98.26469533300008,9.015104478000069]]]]},"properties":{"Shape_Leng":1.63848960655,"Shape_Area":0.0475749234551,"ADM2_EN":"Takua Pa","ADM2_TH":"ตะกั่วป่า","ADM2_PCODE":"TH8205","ADM1_EN":"Phangnga","ADM1_TH":"พังงา","ADM1_PCODE":"TH82","ADM0_EN":"Thailand","ADM0_TH":"ประเทศไทย","ADM0_PCODE":"TH"}},
{"type":"Feature","geometry":{"type":"MultiPolygon","coordinates":[[[[98.44309888900005,8.945222037000065],[98.44988321600005,8.950757654000029],[98.44892571100007,8.956838178000055],[98.45089151500008,8.965086108000037],[98.46342190000007,8.969512164000037],[98.47441093200007,8.974426660000063],[98.47982633000004,8.977829604000021],[98.48457740100008,8.978378065000072],[98.49422446200003,8.985051947000045],[98.49879204500007,8.983107631000053],[98.50538823000005,8.982517205000022],[98.51093781400004,8.995050251000066],[98.51070423100003,8.99778434600006],[98.50464598500008,9.000713829000063],[98.50182781600006,9.006045925000024],[98.49843218300003,9.008316874000059],[98.49690812100005,9.011877136000066],[98.49239916800008,9.016157931000066],[98.48879654600006,9.015940452000052],[98.48930678200009,9.021698901000036],[98.48517830100008,9.027952337000045],[98.48621742900008,9.030215803000033],[98.48431714900005,9.035170625000035],[98.47966686200004,9.036864772000058],[98.47516258000007,9.044499916000063],[98.47406623200004,9.048883468000042],[98.47476036700004,9.055355084000041],[98.47298890800005,9.06401042400006],[98.48151615100005,9.069831559000022],[98.48551522800005,9.070121649000043],[98.49024762200008,9.074475145000065],[98.49444208300008,9.080646041000023],[98.49177150100007,9.085524866000071],[98.49174366000005,9.091677193000066],[98.48963786200005,9.100618143000077],[98.48910205200008,9.109055456000021],[98.48516632100007,9.113150425000072],[98.48591951500003,9.116571575000023],[98.48057593600004,9.123548195000069],[98.48518332600008,9.131228090000036],[98.48367654300006,9.140106735000074],[98.49218293200005,9.147802467000076],[98.49642648500009,9.152719658000024],[98.50329460000006,9.154274288000067],[98.50255984400007,9.159776759000067],[98.49684405900007,9.165013628000054],[98.49460466800008,9.172466728000074],[98.49626567600006,9.177228856000056],[98.49548741900009,9.182236802000034],[98.49310698800008,9.187030801000049],[98.49430013400007,9.191103645000055],[98.49871562400006,9.194342415000051],[98.49737144600005,9.201294784000027],[98.49979083500006,9.206983147000074],[98.50035256500007,9.21334438200006],[98.50265092300003,9.215901787000064],[98.50650199400008,9.21664413700006],[98.51230670700005,9.222984394000036],[98.51185719400007,9.225765574000036],[98.51783776700006,9.22782445100006],[98.51765446500008,9.231884157000025],[98.52041906400007,9.234265290000053],[98.52499958200008,9.235326385000064],[98.52424852200005,9.241274297000075],[98.52779884200004,9.243362528000034],[98.52754802100009,9.247731014000067],[98.53116710900008,9.25554167000007],[98.52706738000006,9.263635237000074],[98.52766493600006,9.270095876000028],[98.52642681900005,9.279637974000025],[98.52453217700008,9.282581854000057],[98.52478029500008,9.288073248000046],[98.52743209100004,9.292572691000032],[98.52738587600004,9.296866860000023],[98.51784323300006,9.299760625000033],[98.51579367700003,9.304384225000035],[98.50606009400008,9.308902024000076],[98.50025387000005,9.306984274000058],[98.48537831700008,9.307514611000045],[98.48007387100006,9.304004464000059],[98.48180706500005,9.310476699000048],[98.47776342100008,9.315721678000045],[98.47625225500008,9.314929608000057],[98.47041571100004,9.321555494000052],[98.46693126500008,9.315011221000077],[98.46370210600008,9.314418419000049],[98.45970254900004,9.316340633000038],[98.45526904200005,9.316529419000062],[98.45078051400009,9.322349063000047],[98.44732002400008,9.323654670000053],[98.44733290100004,9.330427777000068],[98.43979348800008,9.332932816000039],[98.43993877100007,9.330349857000044],[98.43719176600007,9.326806627000053],[98.42145647500007,9.335064301000045],[98.41723893200003,9.335359530000062],[98.41279500800005,9.339475049000043],[98.41292899600006,9.341875685000048],[98.40961480600004,9.343334945000038],[98.40758582700005,9.34833069800004],[98.40250650400009,9.347603033000041],[98.40102322400008,9.33702386400006],[98.40227819000006,9.33293094000004],[98.40111922300008,9.329472887000065],[98.39468238100005,9.33014604400006],[98.39331914400003,9.332799158000057],[98.38784969200003,9.331519717000049],[98.38491018000008,9.328791935000027],[98.38430805800004,9.32477741100007],[98.38102731700008,9.31985067000005],[98.38084759000009,9.311171935000061],[98.37804379200008,9.293427676000022],[98.37681342600007,9.29036867800005],[98.37289193600009,9.288195544000075],[98.37065844700004,9.290598585000055],[98.36492982700008,9.287603816000058],[98.36110377900008,9.284281837000037],[98.36092655000004,9.280359219000047],[98.36411503400006,9.277255214000036],[98.36848682500005,9.277359902000057],[98.36850528500008,9.273337377000075],[98.36430294200005,9.262448655000071],[98.36028103500007,9.256038443000023],[98.35301936500008,9.249406108000073],[98.34802571700004,9.24593808700007],[98.34543507500007,9.239694756000063],[98.34700106700006,9.235611517000052],[98.36685071500006,9.227519183000027],[98.36610729200004,9.212315990000036],[98.36902080200008,9.20709763900004],[98.36475358100006,9.204924793000032],[98.35868433000007,9.207170680000047],[98.35354617200005,9.212402650000058],[98.35214327200003,9.216446979000068],[98.34923114600008,9.219043699000053],[98.34527256800004,9.219215051000049],[98.34326778900004,9.215861637000046],[98.33371600200007,9.21583775800002],[98.33302665000008,9.220233324000048],[98.32916490000008,9.223047622000024],[98.32622110100004,9.21668492200007],[98.32023302500005,9.211079657000028],[98.31921423400007,9.205521614000077],[98.31678520600008,9.199746173000051],[98.31628922800007,9.19331777800005],[98.31766217300009,9.186438341000041],[98.32016307700007,9.179674687000045],[98.32596283700008,9.171893045000047],[98.32743979200006,9.167535482000062],[98.33725894200006,9.155504116000031],[98.34099634700004,9.147252725000044],[98.34096626000007,9.141721963000066],[98.33929036000006,9.136453067000048],[98.34154374000008,9.129696042000035],[98.34678471500007,9.127332046000049],[98.34262950400006,9.119608451000033],[98.34337287300008,9.116099312000074],[98.34577049600006,9.117505773000062],[98.34773165800004,9.114836940000032],[98.34810876000006,9.109661156000072],[98.35081876500004,9.101787270000045],[98.35182546100003,9.095542841000054],[98.35804461000004,9.094137689000036],[98.36230139200006,9.096230859000059],[98.36565247800007,9.100041042000043],[98.37256319400007,9.10079988700005],[98.37306512300006,9.098120288000075],[98.36420602800007,9.093809994000026],[98.36861166500006,9.080262702000027],[98.37234100600006,9.078886341000043],[98.37447722400003,9.081552270000032],[98.37785771100005,9.081356262000043],[98.37617172000006,9.076128070000038],[98.37639420900007,9.070537872000045],[98.38049239300005,9.068871485000045],[98.38643926700007,9.06252814100003],[98.38509326000008,9.058401017000051],[98.37985857000007,9.058422277000034],[98.37449743300004,9.061025287000064],[98.36996474700004,9.060335030000033],[98.37035168600005,9.062465513000063],[98.36679237100009,9.069483913000056],[98.35225588300005,9.070103472000028],[98.34545903700007,9.068062416000032],[98.33829884000005,9.063341990000026],[98.33078850000004,9.057052173000045],[98.32727517200004,9.052236182000058],[98.32602342700005,9.045780207000064],[98.32224605400006,9.044226717000072],[98.32036436900006,9.041260891000036],[98.31849366000006,9.033294346000048],[98.31925631800004,9.030855505000034],[98.32523779500008,9.025879678000024],[98.32719883100003,9.020328284000072],[98.32638991900006,9.017577748000065],[98.33381405200004,9.013200028000028],[98.33593524200006,9.008057025000028],[98.34201220500006,9.004216085000053],[98.34795619600004,9.00244196400007],[98.35259147000005,9.005700311000055],[98.35493301300005,9.011166480000043],[98.36380148300003,9.017435990000024],[98.36939873900008,9.018253575000074],[98.37219233600007,9.021579898000027],[98.37901293600004,9.025728428000036],[98.38434749600003,9.031423130000064],[98.38989425400007,9.034509334000063],[98.39913275500004,9.032955092000066],[98.39414689000006,9.027980127000035],[98.38433297200004,9.026856053000074],[98.38093297100005,9.021168150000051],[98.38133722400005,9.016344434000075],[98.37373196700008,9.010815317000038],[98.36835835700003,9.007983548000027],[98.36157309500004,9.002499962000059],[98.35994296600006,9.000000164000028],[98.36040784400006,8.994389885000032],[98.36398744200005,8.995030582000027],[98.37390297000007,8.99317310300006],[98.37800697300008,8.991026314000067],[98.38211442900007,8.985750472000063],[98.38458481000004,8.977299021000022],[98.39971342800004,8.964600462000021],[98.40876340200003,8.964423597000064],[98.41377866500005,8.959062912000036],[98.41761833400005,8.950893251000025],[98.42763698000005,8.945965028000046],[98.43338324500007,8.94099882200004],[98.43614042500008,8.940840576000028],[98.44309888900005,8.945222037000065]]],[[[97.64339857800007,8.485794619000046],[97.63915073000004,8.485432457000059],[97.64580907900006,8.477088037000044],[97.64940390300006,8.475314079000043],[97.65397897200006,8.478301041000066],[97.64962525000004,8.481511469000054],[97.64613487100007,8.481908757000042],[97.64339857800007,8.485794619000046]]],[[[97.64606248500007,8.494419010000058],[97.64827752100007,8.497307673000023],[97.63642269700006,8.50784897400007],[97.63821639500009,8.502713153000059],[97.64222650800008,8.496770114000071],[97.64606248500007,8.494419010000058]]],[[[97.63227880200009,8.573505847000035],[97.63561197500007,8.561606614000027],[97.63856004600007,8.560170877000076],[97.64006653400008,8.570707009000046],[97.63474017600004,8.571611103000066],[97.63227880200009,8.573505847000035]]],[[[97.63992128500007,8.591767357000037],[97.63568259500005,8.596540986000036],[97.63537989400004,8.588217591000046],[97.63865291100007,8.586843147000025],[97.64095853000003,8.589379829000052],[97.63992128500007,8.591767357000037]]],[[[97.64685140600005,8.668200565000063],[97.64689997100004,8.664567068000053],[97.63978137700008,8.664353035000033],[97.63709424700005,8.659919364000075],[97.63944787300005,8.656535940000026],[97.63877131500004,8.651808591000076],[97.64451978100004,8.645558556000026],[97.64429089100008,8.638284503000023],[97.64622316200007,8.631655161000026],[97.65261599800004,8.629099877000044],[97.65335226400003,8.63041200500004],[97.64928019200005,8.638738635000038],[97.65201355300007,8.643520416000058],[97.64819677900005,8.648349898000049],[97.65036780600008,8.652917354000067],[97.65175986300005,8.663174429000037],[97.65066869400005,8.66828485600007],[97.64685140600005,8.668200565000063]]],[[[97.64849568300008,8.68164590200007],[97.64087183500004,8.678594058000044],[97.64808404200005,8.674856319000071],[97.65218503000006,8.674612894000063],[97.65231077500005,8.678998077000074],[97.64849568300008,8.68164590200007]]],[[[98.34871902900005,8.986038768000071],[98.34019810600006,8.993286415000057],[98.34218856000007,8.988932024000064],[98.34871902900005,8.986038768000071]]],[[[98.36711351800005,9.078513082000029],[98.36733003900008,9.082856069000059],[98.36484162300007,9.07981432500003],[98.36711351800005,9.078513082000029]]],[[[97.81387138600007,9.060247422000032],[97.81877708200005,9.065759659000037],[97.81574058300004,9.075040816000069],[97.80925178400008,9.084474562000025],[97.80638313400004,9.082033159000048],[97.80823707600007,9.072919845000058],[97.80567741100003,9.070997239000064],[97.80790901000006,9.064317704000075],[97.81031990000008,9.061044695000021],[97.81387138600007,9.060247422000032]]],[[[98.35102870200006,9.09628682600004],[98.34909506400004,9.103146449000064],[98.34696221200005,9.100601091000044],[98.35102870200006,9.09628682600004]]],[[[98.34712180100007,9.105165853000074],[98.34446990600009,9.104565925000031],[98.34642012700004,9.101810711000041],[98.34712180100007,9.105165853000074]]],[[[98.28935407500006,9.167469965000066],[98.28590484900008,9.16801997500005],[98.27381404000005,9.166650325000035],[98.26970739700005,9.165499916000044],[98.26309663300003,9.16642878500005],[98.26072316400007,9.160884553000074],[98.26200590800005,9.146706754000036],[98.26171560100005,9.141181047000032],[98.25918790800006,9.133873319000031],[98.25538834700006,9.126862785000071],[98.25217322400005,9.124931493000076],[98.25008612700003,9.127515751000033],[98.25012543000008,9.11901401700004],[98.25121998400004,9.110771431000046],[98.25209268100008,9.084818003000066],[98.25162519400004,9.071282630000042],[98.24814442400003,9.045984107000038],[98.24698939800004,9.031612111000072],[98.25694628900004,9.029533696000044],[98.28072869500005,9.029773790000036],[98.28235800300007,9.030982393000045],[98.28665472300008,9.028843069000061],[98.28744312800006,9.033256180000024],[98.29573316000005,9.035285232000035],[98.30387044200006,9.038384593000046],[98.30448454700007,9.043932372000029],[98.30964843500004,9.047368611000024],[98.31622290800004,9.056846601000075],[98.31749548800008,9.061278703000028],[98.32167474700003,9.064012855000044],[98.32469782200008,9.064100792000033],[98.32871689700005,9.069376415000022],[98.32894649300005,9.073360132000062],[98.33432044900007,9.080073038000023],[98.33364141400006,9.086089577000052],[98.32688219900007,9.105800877000036],[98.32508186900009,9.108303978000038],[98.32499070900008,9.11479188900006],[98.31505990700003,9.124667274000046],[98.31462542700007,9.126508183000055],[98.30972814100005,9.129518493000035],[98.30972064200006,9.133416079000028],[98.30755476400009,9.139108457000077],[98.30473100400008,9.139531365000039],[98.30299018800008,9.137129506000065],[98.29757733100007,9.139196361000074],[98.29884294000004,9.15316161800007],[98.29503708200008,9.15979298700006],[98.29270909900004,9.160066846000063],[98.28935407500006,9.167469965000066]]],[[[98.33859012400006,9.14318965800004],[98.33880429000004,9.147059410000054],[98.33227987800007,9.155471214000045],[98.32571275000004,9.16259642600005],[98.31351422200004,9.179804352000076],[98.31183505600006,9.179166445000021],[98.30940740700004,9.169474068000056],[98.31002376200007,9.158818564000057],[98.31316866000009,9.151035547000049],[98.31640496600005,9.147573481000052],[98.32444140600006,9.13489977300003],[98.33140140800003,9.12649162300005],[98.33711689600005,9.129890714000055],[98.33690007200005,9.135242754000046],[98.33859012400006,9.14318965800004]]],[[[98.36457480700005,9.20903792100006],[98.36193443500008,9.214678195000033],[98.36246144300009,9.210362806000035],[98.36457480700005,9.20903792100006]]],[[[98.35391206200006,9.225036957000043],[98.35303227000009,9.219508106000035],[98.35750837200004,9.21339604700006],[98.36103708700006,9.211212645000046],[98.35902518500006,9.219919417000028],[98.35391206200006,9.225036957000043]]],[[[98.31704807500006,9.251750246000029],[98.31503415500003,9.256443040000022],[98.30819888600007,9.260755950000032],[98.30615183400005,9.264452360000064],[98.29950395300006,9.251629598000022],[98.29764918900008,9.242558587000076],[98.29285827700005,9.23792995100007],[98.28777413300008,9.229323006000072],[98.28228469900006,9.228425242000071],[98.28165565000006,9.22141965700007],[98.27668757400005,9.20889930800007],[98.27381019900008,9.205600187000073],[98.26393041000006,9.205965081000045],[98.26385159500006,9.199161445000072],[98.26261502700004,9.197238783000046],[98.26401247300004,9.187082063000048],[98.26411669200007,9.178292931000044],[98.25963902600006,9.16851071900004],[98.26181589800007,9.168279933000065],[98.26517954300004,9.171664172000021],[98.27011620700006,9.17154733500007],[98.27924922200003,9.178173725000022],[98.28365932000008,9.179059290000055],[98.28584227400006,9.188936781000052],[98.29225801500007,9.19488003600003],[98.29569883800008,9.196276822000073],[98.29537586400005,9.200106661000063],[98.28970170200006,9.203236693000065],[98.28928333000005,9.207962033000058],[98.29395753300008,9.216953078000074],[98.29601138900006,9.223223012000062],[98.30321607900004,9.226230995000037],[98.30594088000004,9.230727200000047],[98.30724372900005,9.235926367000047],[98.31347396600006,9.243568167000035],[98.31704807500006,9.251750246000029]]],[[[98.32437520400003,9.333033602000057],[98.32385595700003,9.33762090600004],[98.32102811600004,9.334408299000074],[98.32310136800004,9.331143393000048],[98.32437520400003,9.333033602000057]]],[[[97.86709022300005,9.37498664900005],[97.86249733000005,9.370805743000062],[97.86301994100006,9.366380693000053],[97.86654472500004,9.36514091600003],[97.87052345400008,9.368089677000057],[97.86945152300007,9.37347221500005],[97.86709022300005,9.37498664900005]]],[[[97.89684104700007,9.395780564000063],[97.89196586600008,9.397893905000046],[97.89615821900009,9.394342424000058],[97.89684104700007,9.395780564000063]]],[[[97.86497688100008,9.423669817000075],[97.85662650800003,9.421564104000026],[97.85301780900005,9.417184831000043],[97.85497093000004,9.415624618000038],[97.85306358500009,9.412069319000068],[97.84897804200006,9.412454603000072],[97.84622764500006,9.415506364000066],[97.84089469800006,9.416521074000059],[97.84059333700009,9.413518907000025],[97.84558677600006,9.403573992000076],[97.85301017600005,9.400506974000052],[97.85501289300004,9.40172386300003],[97.85993385200004,9.40040779100002],[97.85901451300003,9.397420884000041],[97.86993598900006,9.390378954000028],[97.87232780300008,9.383375168000043],[97.87254905700007,9.378873827000064],[97.87596321000007,9.378824234000035],[97.87961006000006,9.381296158000055],[97.88306999300005,9.381116870000028],[97.88314247300008,9.38414573600005],[97.88078498700008,9.392885209000042],[97.87856102100005,9.397390367000071],[97.87326622200004,9.398118972000077],[97.87432670400005,9.403593066000042],[97.86355399900003,9.40436363300006],[97.86305046000007,9.40750312700004],[97.87048530800007,9.411771772000066],[97.86937523100005,9.416955947000076],[97.86497688100008,9.423669817000075]]],[[[97.83334923000007,9.425439837000056],[97.83174324000004,9.425523757000065],[97.82866859500007,9.418588638000074],[97.83390617400005,9.419057848000023],[97.83559989900004,9.423868182000035],[97.83334923000007,9.425439837000056]]],[[[97.88627433700003,9.462369919000025],[97.88487434500007,9.463808062000055],[97.87862968200005,9.46224022000007],[97.87807273800007,9.458017351000024],[97.87088585000004,9.457540512000037],[97.86903572000006,9.455186844000025],[97.86231422400004,9.454141617000062],[97.85508918600004,9.455816268000035],[97.85213661400007,9.445871354000076],[97.85719871500004,9.445421218000035],[97.86131859000005,9.43623161100004],[97.85895728900005,9.434278489000064],[97.85161018300005,9.438474657000029],[97.84686851600009,9.437120436000043],[97.84756279000004,9.435026170000071],[97.85299110400007,9.430334091000077],[97.85728645400008,9.431451797000022],[97.86122703400008,9.42994499100007],[97.86340904400004,9.431959152000047],[97.86638069200006,9.430345534000026],[97.86849785000004,9.422372817000053],[97.87341880600007,9.420488359000046],[97.88050270100007,9.414075852000053],[97.88121986400006,9.417264939000063],[97.87754631200005,9.421506881000028],[97.87804222000005,9.424371717000042],[97.87483787500008,9.431226732000027],[97.87148094100007,9.435228348000066],[97.87134361300008,9.441820148000033],[97.87892341600008,9.442464826000048],[97.87970924600006,9.439748762000022],[97.88956641900006,9.430906295000057],[97.89719581700007,9.428655626000022],[97.90149498200003,9.421293261000073],[97.90444755700008,9.426378249000038],[97.90196037100009,9.432222366000076],[97.90427207700009,9.433271407000063],[97.89475059500006,9.437150956000039],[97.89295768800008,9.439893721000033],[97.89355278100004,9.444330217000072],[97.89726447800007,9.44369697600007],[97.90448570200004,9.448419571000045],[97.90344047600007,9.452653883000039],[97.89926719700009,9.450639723000052],[97.89247703500007,9.456171036000057],[97.89338111800004,9.458997727000053],[97.89104270700005,9.46150780000005],[97.88627433700003,9.462369919000025]]],[[[97.90428352400005,9.478956221000033],[97.90255546400005,9.47839164900006],[97.90504646500005,9.473051071000043],[97.90601158300007,9.477956772000027],[97.90428352400005,9.478956221000033]]]]},"properties":{"Shape_Leng":3.62545731007,"Shape_Area":0.0672796227844,"ADM2_EN":"Khura Buri","ADM2_TH":"คุระบุรี","ADM2_PCODE":"TH8206","ADM1_EN":"Phangnga","ADM1_TH":"พังงา","ADM1_PCODE":"TH82","ADM0_EN":"Thailand","ADM0_TH":"ประเทศไทย","ADM0_PCODE":"TH"}},
{"type":"Feature","geometry":{"type":"Polygon","coordinates":[[[98.61564618500006,8.382002845000045],[98.62160919600007,8.382008607000046],[98.62306878800007,8.380562716000043],[98.63407869900004,8.37929250700006],[98.63543150500004,8.375372567000056],[98.64391917700004,8.377913098000022],[98.65908657200004,8.38109739400005],[98.66240474600005,8.384786450000036],[98.66081499700005,8.39194419100005],[98.65712547100009,8.39762341100004],[98.65119861700003,8.403521535000039],[98.64508320700008,8.407934838000074],[98.64409561300005,8.411296587000038],[98.64514631100008,8.415596571000037],[98.64912957400009,8.420621161000042],[98.65590994400009,8.424497203000044],[98.66320119300008,8.425260015000049],[98.66525365000007,8.428596442000071],[98.66572708400008,8.435997193000048],[98.66364188600005,8.440084324000054],[98.66374135300003,8.44541695700002],[98.66577774500007,8.44961765000005],[98.66506994700006,8.45499452200005],[98.66705223300005,8.45471003800003],[98.67098919800009,8.45838974000003],[98.67018403200007,8.460693124000045],[98.66601984500005,8.45885777500007],[98.66518609800005,8.466373224000051],[98.66130249800005,8.467616966000037],[98.66034759000007,8.470993786000065],[98.65813830900004,8.47038236000003],[98.65521987900007,8.475903918000029],[98.65367529000008,8.475003482000034],[98.65026726100007,8.483344674000023],[98.65397481100007,8.482411647000049],[98.65703240300007,8.487381783000046],[98.66221037000008,8.490524226000048],[98.66233945300007,8.49784298700007],[98.66539958600004,8.499121796000054],[98.66896629200005,8.509551758000043],[98.67425766000008,8.521357221000073],[98.67752745300004,8.52052485400003],[98.67756187500004,8.528098451000062],[98.68115124600007,8.537419582000041],[98.68048134700007,8.544209344000024],[98.68242957000007,8.553130590000023],[98.68730064100004,8.565774328000032],[98.69193606200008,8.572198798000045],[98.69106388200004,8.576006620000044],[98.69677297900006,8.580914522000057],[98.70257110900008,8.588278353000021],[98.70374747700004,8.592755371000067],[98.70741058200008,8.596373034000067],[98.70649088800008,8.603404174000048],[98.70338042500003,8.603928979000045],[98.70386162200003,8.610199863000048],[98.70213958800008,8.612647989000038],[98.70359942000005,8.617571609000038],[98.70147429300005,8.622662632000072],[98.70343810700007,8.631978692000075],[98.69892750300005,8.632979348000049],[98.69859786700005,8.641793945000074],[98.69396904300004,8.64619893300005],[98.68717968300007,8.648850022000033],[98.68451229100003,8.656317200000046],[98.67851091400007,8.658377503000054],[98.67489106200009,8.661650566000048],[98.67129836200007,8.661624352000047],[98.66361172900008,8.656549166000048],[98.65758309400007,8.658463436000034],[98.64807140800008,8.659165255000062],[98.64405564100008,8.651041922000047],[98.63762141200004,8.643395938000026],[98.63462534300004,8.642564657000037],[98.62982904300009,8.643935249000037],[98.62257430000005,8.639587205000055],[98.62077898300004,8.63680191700007],[98.61526023000005,8.637939648000042],[98.60968107100007,8.635943139000062],[98.60866520600007,8.630361150000056],[98.60431786100008,8.625686161000033],[98.60398395200008,8.619429901000046],[98.59789902800009,8.614352827000062],[98.59731994000003,8.611864255000057],[98.59332744600005,8.610064573000045],[98.58979484400004,8.606071933000067],[98.58693938900007,8.595788932000062],[98.58624163500008,8.59048240900006],[98.57854485300004,8.58085679900006],[98.57431516000008,8.578782278000062],[98.57152753800005,8.57298699000006],[98.57007288300008,8.564888168000039],[98.56922566100008,8.553272384000024],[98.56251781800006,8.552926358000036],[98.56093020700007,8.549770677000026],[98.55472061900008,8.548127992000047],[98.54927807000007,8.535216899000034],[98.55477486000007,8.526755586000036],[98.55461756000005,8.52503273000002],[98.54918761800008,8.521207270000048],[98.54866190700005,8.518061998000064],[98.55306918200006,8.515202224000063],[98.56291118600006,8.512799223000059],[98.56243104600009,8.508059696000032],[98.56487466600004,8.502422009000043],[98.57663716000008,8.50425019000005],[98.58305183000004,8.503517886000054],[98.58363008800006,8.496331463000047],[98.58830730000005,8.492030268000065],[98.58416638700004,8.48690078900006],[98.58224616900009,8.486762308000039],[98.57928170000008,8.480485938000072],[98.57869629500004,8.475525969000046],[98.57955411700004,8.464095907000058],[98.58699283800007,8.459566678000044],[98.58950939800008,8.453352500000051],[98.59296540900004,8.450988295000059],[98.59219770300007,8.446239822000052],[98.59472071300007,8.442751649000058],[98.58878382400007,8.435020348000023],[98.59031894800006,8.431457916000056],[98.59478611900005,8.431025023000075],[98.60138081800005,8.425902869000026],[98.60286565800004,8.42188851900005],[98.60924707300006,8.417790079000042],[98.61245590000004,8.407448705000036],[98.61564618500006,8.382002845000045]]]},"properties":{"Shape_Leng":0.884097665156,"Shape_Area":0.0243438504877,"ADM2_EN":"Thap Put","ADM2_TH":"ทับปุด","ADM2_PCODE":"TH8207","ADM1_EN":"Phangnga","ADM1_TH":"พังงา","ADM1_PCODE":"TH82","ADM0_EN":"Thailand","ADM0_TH":"ประเทศไทย","ADM0_PCODE":"TH"}},
{"type":"Feature","geometry":{"type":"Polygon","coordinates":[[[98.41108145600003,8.62872083600007],[98.40321130300003,8.631862941000065],[98.39651921800004,8.63038485800007],[98.39146329700009,8.634628122000038],[98.38533641400005,8.64152699400006],[98.38095759400005,8.640009225000028],[98.36964512500003,8.639406912000027],[98.36214018900006,8.633879669000066],[98.35970047200004,8.629483650000054],[98.35625102600005,8.62943258000007],[98.35148780100008,8.636082359000056],[98.35175066400006,8.640894503000027],[98.34631770600004,8.641858859000024],[98.34258168400004,8.638552632000028],[98.33643654000008,8.64232120500003],[98.33605424300004,8.648479320000035],[98.32987493900004,8.65285293900007],[98.32677797900004,8.652776063000033],[98.32247723200004,8.652077813000062],[98.31982966000004,8.64686701200003],[98.31601827300005,8.645005906000051],[98.30608812800006,8.644919203000029],[98.29927189400007,8.636075532000064],[98.29379001300003,8.635400915000048],[98.28885374400005,8.632851971000036],[98.28415195200006,8.632989033000058],[98.27936997100005,8.628568242000028],[98.27717512500004,8.628624229000025],[98.27390849500006,8.633792119000077],[98.27301544300008,8.64411549600004],[98.26798553300006,8.646114503000035],[98.26555198000005,8.639565896000022],[98.26230839400006,8.634509346000073],[98.25739334400004,8.634740263000026],[98.25418797400005,8.630243697000026],[98.24742906200004,8.626591759000064],[98.24687993200007,8.623244016000058],[98.23967732300008,8.621728652000058],[98.23553931100008,8.619705280000062],[98.23578111700004,8.616559988000063],[98.23755955600006,8.616267694000044],[98.23808667700007,8.61170944600002],[98.23701169400005,8.606099690000065],[98.23956339400007,8.599787236000054],[98.24184931600007,8.59813573200006],[98.24022993900007,8.590729904000057],[98.23800372800008,8.585993991000066],[98.23403402300005,8.582636646000026],[98.22335796600004,8.57930617900007],[98.21776070300007,8.587908542000037],[98.21456021300008,8.584804520000034],[98.21226537200005,8.57714066400007],[98.20724074000003,8.565859856000031],[98.20518825200008,8.552651516000026],[98.20804674700008,8.544223889000023],[98.21184223400007,8.535859513000048],[98.21962927700008,8.507431994000058],[98.22316569900005,8.49205067400004],[98.22509275600004,8.478789359000075],[98.23240746200008,8.453051260000052],[98.23371737500008,8.44193292600005],[98.23556828900007,8.434809922000056],[98.24140469400004,8.417687785000055],[98.24766862500007,8.396060447000025],[98.25315201800004,8.374389349000069],[98.25776939900004,8.353752504000056],[98.26252813600007,8.335097381000026],[98.26493955200004,8.318822041000033],[98.26907470800006,8.30808845000007],[98.27814892600009,8.30970730000007],[98.28417522900008,8.309055475000036],[98.28823632800004,8.302738677000036],[98.30114933100003,8.301815310000052],[98.30427709100007,8.304544492000048],[98.30834685000008,8.30381675500007],[98.31263828200008,8.306439214000022],[98.31359076700005,8.311101461000021],[98.31999106400008,8.313379416000032],[98.32332928400007,8.316291697000054],[98.33791638000008,8.323114505000035],[98.34271373900003,8.320539367000038],[98.34735821600003,8.32117549700007],[98.35131358300004,8.32394640900003],[98.35351227200005,8.329473454000038],[98.35401554400005,8.335483644000021],[98.35138028900008,8.338996455000029],[98.35390990500008,8.341381840000054],[98.35931242600009,8.340047354000035],[98.36413351000004,8.34258253300004],[98.36503513700006,8.348653339000066],[98.37012567200009,8.356914091000021],[98.37008877400007,8.362277438000035],[98.36729576800008,8.365352158000064],[98.36797470200008,8.368059235000032],[98.37191546600008,8.368940792000046],[98.37530375300008,8.373368381000034],[98.37740226900007,8.380175018000045],[98.38140653700003,8.388263442000039],[98.38113115100003,8.394880513000032],[98.37748774200008,8.396334312000022],[98.37783639200006,8.399755557000049],[98.38313426600007,8.402588233000074],[98.38494997200007,8.407079880000026],[98.39186875800004,8.410593882000057],[98.39412680900006,8.414928014000054],[98.39595872700005,8.421897055000045],[98.39478307400003,8.425133543000072],[98.39627375000003,8.430706942000029],[98.39842600400004,8.433552527000074],[98.39836407300004,8.438918753000053],[98.39392251200007,8.442057402000046],[98.39498738400005,8.451425527000026],[98.39686962600007,8.455596270000058],[98.39743115700009,8.458392073000027],[98.39172171500007,8.466885572000024],[98.39039358800005,8.47189596800007],[98.38818946500004,8.474516639000058],[98.37960345700009,8.474937999000076],[98.37502274700006,8.47639072100003],[98.36933222400006,8.482442009000067],[98.36792195100008,8.490093685000033],[98.37136195700003,8.493884748000028],[98.37171479500006,8.49796255700005],[98.37630578900007,8.503766183000039],[98.37806585600003,8.508076317000075],[98.37765603900004,8.518616206000047],[98.37958797200008,8.521802747000038],[98.38721682100004,8.526439434000054],[98.38946577100006,8.531132496000055],[98.39457742300004,8.532543820000058],[98.39571651600005,8.53965753500006],[98.40098029500007,8.542299205000063],[98.40262636100005,8.549241259000041],[98.40640068900007,8.550737307000077],[98.40672708300008,8.554996699000071],[98.40953803400004,8.558081920000063],[98.41541692500005,8.561102672000061],[98.41582050000005,8.563216182000076],[98.42303980800006,8.569757265000021],[98.42119176200003,8.575240509000025],[98.42541536300007,8.577917821000028],[98.42503002700005,8.580372762000025],[98.41539526700006,8.590852075000043],[98.41322574200007,8.591474621000032],[98.41231746100004,8.597457968000072],[98.41382262200005,8.59913744000005],[98.41349892400007,8.605117824000047],[98.41527104400006,8.611399765000044],[98.41880394000003,8.615545323000049],[98.41548497200006,8.619652980000069],[98.41604199600005,8.623741121000023],[98.41186167300003,8.62606260800004],[98.41108145600003,8.62872083600007]]]},"properties":{"Shape_Leng":1.13498137718,"Shape_Area":0.0501677578047,"ADM2_EN":"Thai Mueang","ADM2_TH":"ท้ายเหมือง","ADM2_PCODE":"TH8208","ADM1_EN":"Phangnga","ADM1_TH":"พังงา","ADM1_PCODE":"TH82","ADM0_EN":"Thailand","ADM0_TH":"ประเทศไทย","ADM0_PCODE":"TH"}}
]}