{"type":"FeatureCollection", "features": [
{"type":"Feature","geometry":{"type":"Polygon","coordinates":[[[100.07932617500006,13.020380765000027],[100.07812841300006,13.02142763300003],[100.07395508100007,13.017012845000068],[100.07219829100006,13.016625818000023],[100.07099378700008,13.012833110000031],[100.06299380800004,13.009640486000023],[100.06274805300006,13.007308326000043],[100.05667594500005,13.014871396000046],[100.05351799500005,13.028146149000065],[100.05383900100009,13.030749624000066],[100.05070181200006,13.030911355000057],[100.05063206000005,13.034041780000052],[100.05564922900004,13.042704398000069],[100.05359496600005,13.043756313000074],[100.05581461100007,13.047635928000034],[100.05662342700003,13.056677300000047],[100.05508615800005,13.063603311000065],[100.05524437000008,13.067280288000063],[100.05241815900007,13.067311527000072],[100.05073129300007,13.082529159000046],[100.05264696400008,13.082488504000025],[100.05357106600007,13.089751647000071],[100.03562230100005,13.089843538000025],[100.03631206700004,13.092814114000078],[100.03353436500004,13.09266073200007],[100.03317290700005,13.095631137000055],[100.03011396300008,13.098452498000029],[100.03035674000006,13.103595437000024],[100.02541523200006,13.103691077000065],[100.02638016800006,13.109471791000033],[100.02234226400009,13.115744792000044],[100.02218844200007,13.122001753000063],[100.02636039600009,13.121954279000022],[100.03027903100008,13.120409344000052],[100.03808091000008,13.122350320000066],[100.04591279500005,13.131446821000054],[100.03580926600006,13.142035360000023],[100.03110474300007,13.14457311700005],[100.02844407000003,13.142788195000037],[100.02541691000005,13.14389154500003],[100.02284808300004,13.14065658800007],[100.01648954300003,13.13778658800004],[100.01487309600009,13.141598999000053],[100.00361727000006,13.136940902000049],[99.99841501200007,13.136216446000049],[99.99551489700008,13.134628669000051],[99.99237386200008,13.141183417000036],[99.99243922800008,13.145238866000057],[99.98377719100006,13.149374555000065],[99.98000520700003,13.146356471000047],[99.97744301400007,13.146215228000074],[99.97446039200008,13.143624246000059],[99.96954710700004,13.145836197000051],[99.96891716800008,13.140896222000038],[99.96045604900007,13.141092786000058],[99.95885803700008,13.136914257000058],[99.95549227900005,13.137853624000059],[99.95484024400008,13.13433953200007],[99.95101394500006,13.132726010000056],[99.94883972700006,13.137230342000066],[99.94916520800007,13.139816288000077],[99.94659725600008,13.150536407000061],[99.94759483000007,13.154767959000026],[99.94974722900008,13.158063712000057],[99.95243748200005,13.16718166100003],[99.95257554000005,13.173027671000057],[99.95119593500004,13.17438713000007],[99.95010398100004,13.183689343000026],[99.94779866300007,13.188098685000057],[99.93169631100005,13.187872370000036],[99.92292998500005,13.184379854000042],[99.92284457900007,13.183166400000061],[99.91405341000007,13.182989184000064],[99.91017197300005,13.184850027000039],[99.90542919700005,13.18328849900007],[99.90239606700004,13.180658899000036],[99.90401128600007,13.17717540800004],[99.89964396600004,13.176176445000067],[99.89325102200007,13.17337532700003],[99.89169838800007,13.174253676000035],[99.88354674900006,13.169629436000037],[99.88411445600008,13.167141642000047],[99.87799297300006,13.163006592000045],[99.87546673400004,13.16240483300004],[99.87008654600004,13.157995227000072],[99.86628789200006,13.153561452000076],[99.86157198700005,13.155031390000033],[99.86083002600009,13.158062146000077],[99.85895851600009,13.157103068000026],[99.85541517000007,13.160090750000052],[99.84895256800007,13.154851440000073],[99.84150925100005,13.152690305000021],[99.84105786800006,13.150968424000041],[99.84619587200007,13.143557261000069],[99.84591246500008,13.130163982000056],[99.84625211000008,13.122565093000048],[99.83858734800003,13.121866843000078],[99.84230789400004,13.113247371000057],[99.84694222300004,13.09711164500004],[99.85908929100003,13.096802445000037],[99.86104512000009,13.095759919000045],[99.86602476900003,13.096055378000074],[99.86964265500006,13.097566698000037],[99.87959589000008,13.097401791000038],[99.88184213200009,13.099727892000033],[99.88648178300008,13.099599660000024],[99.89126077000009,13.103109964000055],[99.88698127200007,13.10508010500007],[99.88832913600004,13.109108328000048],[99.88683579600007,13.11104027600004],[99.88950605400004,13.11575838300007],[99.89796512500004,13.113890892000029],[99.90319489300003,13.117075948000036],[99.90489060300007,13.116681613000026],[99.90328342100008,13.110226730000022],[99.90022402100004,13.106048790000045],[99.90261490800003,13.10406183200007],[99.90310636600003,13.099500800000044],[99.90043092900004,13.096230243000036],[99.90025887700006,13.093480062000026],[99.89767886600004,13.094078808000063],[99.89804087900006,13.090539700000022],[99.89666748800005,13.087419324000052],[99.89938237600006,13.085151229000076],[99.90366545300009,13.086204490000057],[99.90612621200006,13.084750854000049],[99.91394349800004,13.085312483000052],[99.91656659600005,13.086560852000048],[99.91433519600008,13.090741187000049],[99.91384711700005,13.094456194000031],[99.91050083100004,13.097633450000046],[99.92316880700008,13.094972246000054],[99.92469928700007,13.091349689000026],[99.92646788300004,13.082441884000048],[99.92932440900006,13.077454075000048],[99.93210413900005,13.075929107000036],[99.93152629400004,13.072781047000035],[99.93446376000009,13.066364365000027],[99.93795798300005,13.069094023000048],[99.94529903200004,13.072313398000063],[99.95087209300004,13.072020576000057],[99.95510865300008,13.069109942000068],[99.96150139800005,13.06948098600003],[99.96637068400008,13.06796681700007],[99.96711037500006,13.063642117000029],[99.96536912100004,13.058581218000029],[99.96238513700007,13.055390590000059],[99.95892715800005,13.049387827000032],[99.96165110000004,13.014826619000075],[99.95903404700005,13.01309817400005],[99.95946347700004,13.008086227000035],[99.96135748900008,13.002943151000068],[99.96261030300008,13.002847430000031],[99.96413542600004,12.983794526000054],[99.96684547900009,12.984500808000064],[99.98419988700005,12.977765471000055],[99.99025085000005,12.976782066000055],[99.99722618300007,12.974034299000039],[100.00163710700008,12.970877831000053],[100.01230709000004,12.97210166900004],[100.01651006200007,12.969580975000042],[100.01845429800005,12.965674192000051],[100.02051581700005,12.965483470000038],[100.03175976800009,12.958301909000056],[100.03343252800005,12.958435114000054],[100.03753792700007,12.954191176000052],[100.04135108700007,12.961669672000028],[100.04083706300008,12.965343768000025],[100.04585043200007,12.976187631000073],[100.04729818400006,12.97733837000004],[100.06299801900008,13.00178051100005],[100.06757565200007,13.008121538000069],[100.07932617500006,13.020380765000027]]]},"properties":{"Shape_Leng":1.14343444621,"Shape_Area":0.0240949333024,"ADM2_EN":"Mueang Phetchaburi","ADM2_TH":"เมืองเพชรบุรี","ADM2_PCODE":"TH7601","ADM1_EN":"Phetchaburi","ADM1_TH":"เพชรบุรี","ADM1_PCODE":"TH76","ADM0_EN":"Thailand","ADM0_TH":"ประเทศไทย","ADM0_PCODE":"TH"}},
{"type":"Feature","geometry":{"type":"Polygon","coordinates":[[[99.90239606700004,13.180658899000036],[99.89971625200008,13.184086380000053],[99.90104113600006,13.193613638000045],[99.90462463900008,13.199641903000042],[99.90549489300008,13.202976707000062],[99.91001120600004,13.212814396000056],[99.90978755600008,13.216183347000026],[99.90756169700006,13.222709980000047],[99.90356087200007,13.222092859000043],[99.90251896500007,13.223968158000048],[99.90526079000006,13.22578012100007],[99.89965804500008,13.225484596000058],[99.89834247300007,13.22154448200007],[99.89404151100007,13.221459631000073],[99.89416208900008,13.22451201900003],[99.88856563100006,13.226808300000073],[99.88462098600007,13.230745960000036],[99.87696886200007,13.229240640000057],[99.87760434800003,13.233123504000048],[99.87499890600009,13.232126424000057],[99.87640872300005,13.236207513000068],[99.88375008100007,13.246462721000057],[99.88208862600004,13.248787913000058],[99.87331706300006,13.25078116700007],[99.86908620800006,13.248453824000023],[99.86573190400009,13.249035849000052],[99.86640198200007,13.246068252000043],[99.86030882900008,13.244605060000026],[99.85215367500007,13.30794376800003],[99.85497628700006,13.321627555000077],[99.85577051900003,13.329618108000034],[99.85247209100004,13.330952044000071],[99.85122570400006,13.329427726000063],[99.84688393000005,13.331743737000068],[99.83607923700004,13.333812687000034],[99.82897771400008,13.339718160000075],[99.82388385300004,13.339906239000072],[99.81801032800007,13.338977732000046],[99.81540396800006,13.337283660000026],[99.81078726500004,13.340249639000035],[99.80695321500008,13.33662477100006],[99.80376114100005,13.335924373000068],[99.80511334100004,13.329889912000056],[99.80324389300006,13.329399868000053],[99.79939246400005,13.331692498000052],[99.79454921100006,13.333002331000046],[99.78774654600005,13.33202235300007],[99.78271787800008,13.334300903000042],[99.78187595100007,13.332374085000026],[99.77490250700004,13.338583524000057],[99.77303600800008,13.337735722000048],[99.77160232800009,13.340967566000074],[99.76572061100006,13.338555064000047],[99.76576937700008,13.341018447000067],[99.76248598400008,13.340621526000064],[99.76190683500005,13.342364432000068],[99.75709673500006,13.343409245000032],[99.75599367300003,13.341026916000033],[99.75332423500004,13.340661411000042],[99.75047387700005,13.337591619000023],[99.74659287800006,13.339023096000062],[99.73772282000004,13.332875436000052],[99.73056587400004,13.331301806000056],[99.72897636600004,13.328162589000044],[99.72184973100008,13.326754729000072],[99.71567241000008,13.324346888000036],[99.71476088100007,13.322789948000036],[99.70600409200006,13.321139452000068],[99.70232606400003,13.317867369000055],[99.69936953000007,13.316951889000052],[99.69828020800009,13.312485078000066],[99.69306875700005,13.304345960000035],[99.68824370900006,13.300372667000033],[99.68985111500007,13.299097391000032],[99.68909923600006,13.29412463500006],[99.69156781700008,13.288141254000038],[99.69631628100007,13.284907132000058],[99.69992023500004,13.286802045000059],[99.70528219200008,13.284579810000025],[99.70598703000007,13.280625601000054],[99.70982923900004,13.277982199000064],[99.71322514500008,13.27247139900004],[99.71620118300007,13.270310835000032],[99.71501460500008,13.264128646000074],[99.71674415400008,13.261187426000049],[99.71854310500004,13.264735614000074],[99.72288010100004,13.263215456000069],[99.72540814000007,13.264123386000051],[99.72962093700005,13.26237036200007],[99.73200753300006,13.259096014000022],[99.72971834400005,13.255919457000061],[99.73126776200007,13.251781910000034],[99.73682081100009,13.247188666000056],[99.73813337400009,13.24391539800007],[99.74192912700005,13.241362845000026],[99.74632745800005,13.235701186000028],[99.75234868600006,13.230621702000064],[99.75483641600005,13.224642957000071],[99.75047617500007,13.218461782000077],[99.75007378500004,13.212128392000068],[99.75172926700009,13.208853162000025],[99.76269863100003,13.205941680000024],[99.76461576200006,13.20397777900007],[99.76660226300004,13.197304897000038],[99.77003264400008,13.192944190000048],[99.77071812100007,13.185654881000062],[99.77954053400003,13.184400321000055],[99.78694222800004,13.182462838000049],[99.79060260400007,13.180187749000027],[99.79041968900003,13.177901045000056],[99.78619077300004,13.176053122000042],[99.78417223300005,13.173414001000026],[99.78506760700009,13.168103734000056],[99.78249361300004,13.156297098000039],[99.78863681600006,13.155845274000058],[99.78725072700007,13.149253481000073],[99.78498934100008,13.147763517000044],[99.78511443900004,13.143727563000027],[99.78831683000004,13.13383139900003],[99.78914309000004,13.126507401000026],[99.79385227900008,13.122790792000046],[99.79586194000007,13.117652110000051],[99.80088059400003,13.120246611000027],[99.80450296400005,13.120136466000076],[99.80941687700005,13.123546156000032],[99.81882756100003,13.125879870000063],[99.82566320500007,13.126669408000055],[99.83056160400008,13.128983848000075],[99.84591246500008,13.130163982000056],[99.84619587200007,13.143557261000069],[99.84105786800006,13.150968424000041],[99.84150925100005,13.152690305000021],[99.84895256800007,13.154851440000073],[99.85541517000007,13.160090750000052],[99.85895851600009,13.157103068000026],[99.86083002600009,13.158062146000077],[99.86157198700005,13.155031390000033],[99.86628789200006,13.153561452000076],[99.87008654600004,13.157995227000072],[99.87546673400004,13.16240483300004],[99.87799297300006,13.163006592000045],[99.88411445600008,13.167141642000047],[99.88354674900006,13.169629436000037],[99.89169838800007,13.174253676000035],[99.89325102200007,13.17337532700003],[99.89964396600004,13.176176445000067],[99.90401128600007,13.17717540800004],[99.90239606700004,13.180658899000036]]]},"properties":{"Shape_Leng":0.960478924018,"Shape_Area":0.026439512725,"ADM2_EN":"Khao Yoi","ADM2_TH":"เขาย้อย","ADM2_PCODE":"TH7602","ADM1_EN":"Phetchaburi","ADM1_TH":"เพชรบุรี","ADM1_PCODE":"TH76","ADM0_EN":"Thailand","ADM0_TH":"ประเทศไทย","ADM0_PCODE":"TH"}},
{"type":"Feature","geometry":{"type":"Polygon","coordinates":[[[99.68824370900006,13.300372667000033],[99.68529211200007,13.296715319000043],[99.68408641300005,13.291502370000046],[99.67866128900005,13.290685515000064],[99.67658288500007,13.288978735000057],[99.67178824100006,13.288675321000028],[99.67084562200006,13.287088091000044],[99.66629749200007,13.28685680500007],[99.66357870800005,13.281552790000035],[99.66424226700008,13.279308918000027],[99.66098879300006,13.278978794000068],[99.66113084000006,13.274093884000024],[99.65997981900006,13.272147207000046],[99.66470842000007,13.271375705000025],[99.66795686700004,13.269415908000042],[99.66789535300006,13.262267518000044],[99.66901162200008,13.25910185600003],[99.66716797700008,13.255073228000072],[99.66456425200005,13.254182426000057],[99.66635333800008,13.251052744000049],[99.66522083400008,13.246936539000046],[99.66550589000008,13.242701447000059],[99.66766852900008,13.238705477000053],[99.66713497700005,13.235663779000049],[99.66486700100006,13.233648086000073],[99.66577790600007,13.230391504000067],[99.66352613800007,13.229193124000062],[99.66508529700008,13.222729934000029],[99.66252695900005,13.21953867700006],[99.66429005900005,13.214483844000029],[99.66060970700005,13.211444253000025],[99.65853613300004,13.213437741000064],[99.65254093100003,13.213660023000045],[99.64299207100004,13.212091456000053],[99.63835775300004,13.210232939000036],[99.63691244400007,13.207682569000042],[99.63716530000005,13.20192015300006],[99.62680834300005,13.20570976600004],[99.62221463600008,13.203876273000049],[99.61746081700005,13.205293829000027],[99.61308948000004,13.203407582000068],[99.60260567800003,13.205700293000064],[99.59738073800008,13.203333719000057],[99.59494304700007,13.198879710000028],[99.59292232700005,13.19825052400006],[99.58621317000006,13.200276763000033],[99.57923699200006,13.197852607000073],[99.57434835700008,13.198476909000021],[99.57042292400007,13.202547796000033],[99.56446177600009,13.205005602000028],[99.55485644000004,13.204627169000048],[99.55333439900005,13.207304265000062],[99.54963908900004,13.207027882000034],[99.54756441700005,13.203214481000032],[99.54422449200007,13.202686368000059],[99.53879165600006,13.204388722000033],[99.53849996200006,13.206926571000054],[99.53504480100008,13.207143325000061],[99.53146750500008,13.209278010000048],[99.52929815300007,13.207145706000063],[99.52323854500008,13.209977601000048],[99.51970436400006,13.208156459000065],[99.51490019300007,13.201932795000062],[99.51385161200005,13.199173285000029],[99.51498717200008,13.194487984000034],[99.50955434000008,13.189807428000051],[99.50869250000005,13.183081990000062],[99.50666288300005,13.180379064000022],[99.50138378500009,13.18028223600004],[99.49953441900004,13.185485325000059],[99.49404059200003,13.187479281000037],[99.49035681200007,13.19190859400004],[99.48638935000008,13.191272924000032],[99.48281442300004,13.195514316000072],[99.48139891300008,13.199027970000031],[99.47832967600004,13.200517271000024],[99.46923790800008,13.192754329000024],[99.46394390200004,13.183987674000036],[99.46037647300005,13.186371621000035],[99.45617059800009,13.186232185000051],[99.44248258900006,13.183454955000059],[99.43704557100006,13.186894895000023],[99.43330641800009,13.191537931000028],[99.43228949400009,13.195224863000021],[99.42805833000006,13.198434357000053],[99.42021842600008,13.19737987700006],[99.41453173000008,13.198990338000044],[99.41199505800006,13.202226477000067],[99.41082138000007,13.206172052000056],[99.40665650000005,13.213146876000053],[99.40154219500005,13.213421818000029],[99.39939937600008,13.217101998000032],[99.39732473000004,13.217658030000052],[99.39427826300005,13.213195902000052],[99.38299388700005,13.216029972000058],[99.37156646000005,13.220764871000029],[99.37171387600006,13.228170214000045],[99.36824903400009,13.233679359000064],[99.36060307600007,13.232639475000042],[99.35782925600006,13.233544054000049],[99.35262974600005,13.240689974000077],[99.35123799600007,13.243744185000025],[99.34417247600004,13.238603951000073],[99.34229630300007,13.234592341000052],[99.33851208000004,13.232940583000072],[99.33877791200007,13.228181093000046],[99.33641623600005,13.222035131000041],[99.33335690600006,13.22023037100007],[99.32727690700005,13.222817948000056],[99.32331207500005,13.222852641000031],[99.32480121400005,13.215104179000036],[99.32227603500007,13.214820948000067],[99.32102083400008,13.21016166000004],[99.31909834800007,13.208065516000033],[99.31869879800007,13.202535311000076],[99.32054085500005,13.18855037700007],[99.32508249800009,13.186643852000032],[99.32629391000006,13.182962798000062],[99.32493894000004,13.178546079000057],[99.31922065100008,13.17529335100005],[99.31711942800007,13.17306175300007],[99.31244038200003,13.171244798000032],[99.30116398700005,13.16323841600007],[99.29584741000008,13.161317745000076],[99.28225948300008,13.152532000000065],[99.27191953800008,13.148793589000036],[99.26520881500005,13.155332970000075],[99.26320441100006,13.160941317000038],[99.26033753900003,13.16304954900005],[99.25557549300004,13.169975171000033],[99.25134482400006,13.173725182000055],[99.25100531600003,13.176168910000058],[99.24711861000009,13.17949754500006],[99.24595564700007,13.18542803400004],[99.24157298200004,13.186177341000075],[99.23427531300007,13.193395567000039],[99.23154191400005,13.198727228000052],[99.22776037200003,13.202857660000063],[99.22184866200007,13.204548226000043],[99.21591042600005,13.201252598000053],[99.21171430900006,13.206754186000069],[99.21004865800006,13.207412135000027],[99.20408753900006,13.203463979000048],[99.20343664400008,13.19887088400003],[99.19729116800005,13.193528438000044],[99.19532840200009,13.197130667000067],[99.19262970700004,13.196498696000049],[99.19063682100006,13.192863574000057],[99.18636436600008,13.193704095000044],[99.18139507200004,13.193324859000029],[99.17493081200007,13.202373044000069],[99.16652063800007,13.205393215000072],[99.16428797000003,13.207882867000023],[99.15627878200007,13.208366386000023],[99.14711986300006,13.205524725000032],[99.13917155600006,13.205648796000048],[99.12968259300004,13.201514729000053],[99.12864365800004,13.199326104000022],[99.12322029200004,13.194364301000064],[99.12517060000005,13.188226549000035],[99.12348268700003,13.182006823000052],[99.12108931300008,13.180907406000074],[99.11707071400008,13.176542924000046],[99.11746007800008,13.173827237000069],[99.12009655800006,13.172940783000058],[99.12248773800007,13.169793489000028],[99.12585712500004,13.169899520000058],[99.13012778800004,13.166033471000048],[99.13444785100006,13.163459286000034],[99.13561545400006,13.15562316300003],[99.13729098500005,13.150984621000077],[99.13245975200005,13.14390144500004],[99.13035962500004,13.142730182000037],[99.13121132000003,13.137549930000034],[99.13588479200007,13.134867876000044],[99.13568580500004,13.128144980000059],[99.13321687800004,13.121865885000034],[99.13353226300006,13.118241039000054],[99.12943157600006,13.118721638000068],[99.12791621400004,13.115013974000021],[99.12881643300005,13.109343227000068],[99.12749518900006,13.103254891000063],[99.13097130200003,13.099185844000033],[99.12970038300006,13.095980490000045],[99.12431814700005,13.095504634000065],[99.12201206300006,13.096486673000072],[99.11750829100004,13.095519789000036],[99.11684802400003,13.092876336000074],[99.11045050800004,13.086909776000027],[99.10795942500005,13.083369876000063],[99.10543385700004,13.084662888000025],[99.10252886900008,13.083336200000076],[99.09959783900007,13.077858434000063],[99.09952668500006,13.072752298000069],[99.10335251000004,13.068454277000058],[99.10415569900005,13.06322625200005],[99.10991531900004,13.063343495000026],[99.11240279500004,13.059299031000023],[99.11441575100008,13.058388981000064],[99.11376709700005,13.054154468000036],[99.11983880600008,13.043983419000028],[99.12577799800005,13.038142794000066],[99.13451146300008,13.033293503000039],[99.14024550400006,13.032536811000057],[99.14146699200006,13.034988506000047],[99.14576561000007,13.033351892000042],[99.14792870800005,13.02681435900007],[99.15396812700004,13.026954394000029],[99.15792875100004,13.019702602000052],[99.16299110800009,13.02015799700007],[99.16907199600007,13.016649189000077],[99.17130014400004,13.014011002000075],[99.16880260300007,13.009931188000053],[99.17314570900004,13.003575407000028],[99.17402883700004,13.000343207000071],[99.17686474500005,12.999585645000025],[99.18032118800005,12.995387006000044],[99.18100792600006,12.992814116000034],[99.19499103000004,12.990311968000071],[99.19267903800005,12.985886010000058],[99.19029337200004,12.984008037000024],[99.18960697100005,12.979678026000045],[99.18733730000008,12.978638911000075],[99.18753519000006,12.975581283000054],[99.19486156000005,12.975560836000056],[99.19839528800009,12.977350480000041],[99.20125453900005,12.980661809000026],[99.20622247500006,12.989453818000072],[99.20760511200007,12.989874446000044],[99.21174311300007,12.997552445000053],[99.21254462400003,13.000880374000076],[99.21610753300007,13.000335217000043],[99.22174773800003,13.005394721000073],[99.22806089600004,13.006623954000077],[99.23101722700005,13.011131799000054],[99.23086489700006,13.013667019000025],[99.23915003300004,13.018549276000044],[99.24365619100007,13.024028394000027],[99.24336565000004,13.031406794000077],[99.23888377700007,13.036700819000032],[99.23935664300006,13.038918490000071],[99.24976562900008,13.034457295000038],[99.26301804800005,13.032664508000039],[99.26882566600005,13.032980842000029],[99.27101831900006,13.034106587000053],[99.27484549800005,13.04298847900003],[99.27321840400003,13.04109507100003],[99.27209612200005,13.046454891000053],[99.27051192600004,13.044794532000026],[99.26956880100005,13.04843100100004],[99.27180071000004,13.050518557000032],[99.26796708000006,13.05060799000006],[99.26260019300008,13.053124904000072],[99.26187838900006,13.059548852000034],[99.25752828000009,13.059816313000056],[99.25975055400005,13.063497339000037],[99.25263094000007,13.07028624700007],[99.25510760600008,13.071938352000075],[99.25181933700009,13.072701606000066],[99.25222867800005,13.076434151000058],[99.24790282200007,13.077408845000036],[99.24899103800004,13.080187766000051],[99.24552359600006,13.083830488000046],[99.24148548300008,13.08475048400004],[99.24086065600005,13.089896016000068],[99.24572325500009,13.091929942000036],[99.25166889100007,13.092087349000053],[99.25545336300007,13.094570071000021],[99.25571489800006,13.097748187000036],[99.26191668400008,13.102108250000072],[99.27333223600004,13.100152113000036],[99.27688081300005,13.105645783000057],[99.28538019200005,13.111572747000025],[99.29051812900008,13.113862174000076],[99.29712579900007,13.121212692000029],[99.30566845300007,13.123016893000056],[99.30574832300005,13.124953345000051],[99.30934939400004,13.126813867000067],[99.31142369300005,13.12976048400003],[99.31540412000004,13.131953760000044],[99.31942486000008,13.131974118000073],[99.32628000200003,13.136640219000071],[99.33240622300008,13.136893963000034],[99.33823960700005,13.143349927000031],[99.34278219400005,13.140816709000035],[99.34311711600009,13.137090852000028],[99.34591185800008,13.134631618000071],[99.34984107900004,13.136879273000034],[99.35259853500008,13.13548744700006],[99.35284585100004,13.130812416000026],[99.35619554400006,13.131204388000072],[99.35950474400005,13.12741952400006],[99.35930445000008,13.125854546000028],[99.36453769300005,13.122066937000056],[99.36893841700004,13.120103028000074],[99.36909893400008,13.118056570000022],[99.37383974800008,13.116189131000056],[99.37658233100007,13.113754975000063],[99.37589841700009,13.10983157000004],[99.37988656600004,13.10943194400005],[99.37949666500003,13.105922285000076],[99.38596663600003,13.103505010000049],[99.38430424300009,13.101049206000027],[99.38736511300004,13.100479278000023],[99.38876142500004,13.102802335000035],[99.39141589600007,13.10049479600002],[99.39179582100007,13.09456976000007],[99.39528453000008,13.094241920000059],[99.39663841800007,13.089154501000053],[99.39888348300008,13.08661690200006],[99.39801220700008,13.078746580000029],[99.40110053000006,13.076264177000041],[99.39817818200004,13.07033318300006],[99.40168770200006,13.069773459000032],[99.40142694800005,13.066720610000061],[99.40509781200007,13.068090855000037],[99.40971130400004,13.065694123000071],[99.41706373800008,13.067858171000069],[99.41728544200004,13.069856726000069],[99.42054471600005,13.07115989600004],[99.42234630100006,13.069130204000032],[99.42449770800005,13.070002074000058],[99.42670133600006,13.067179897000074],[99.43043155700008,13.067670770000063],[99.43215041100007,13.065450290000058],[99.43585881800004,13.066368354000076],[99.43360190300007,13.063425109000036],[99.43634340200003,13.057985478000035],[99.43981702200006,13.055793369000071],[99.43905063500006,13.050390566000033],[99.43665836700006,13.050797815000067],[99.43205537000006,13.048558111000034],[99.43636795600008,13.046672210000054],[99.43755351900006,13.04320057700005],[99.44018980600003,13.044808059000047],[99.44108152200005,13.039361709000048],[99.44320110800004,13.037077374000035],[99.44863531500005,13.03723152300006],[99.44872479800006,13.033728145000055],[99.44492872600006,13.032223154000064],[99.44716615400006,13.030710415000044],[99.44744776300007,13.024128176000033],[99.45021303200008,13.026133701000049],[99.45382987400006,13.026440717000071],[99.45431213000006,13.023920898000029],[99.45771982300005,13.020196228000032],[99.45573452200006,13.018076498000028],[99.46068726600004,13.018253628000025],[99.46263994500003,13.02032390900007],[99.46490210800005,13.017494243000044],[99.46926216200006,13.020050895000054],[99.46799166700004,13.021469067000055],[99.47180703800007,13.02532151500003],[99.47635360400005,13.026093633000073],[99.47889432900007,13.029956695000067],[99.47820919400004,13.031992064000065],[99.48819212300003,13.033542017000059],[99.49631320700007,13.030235751000077],[99.49906801100008,13.032707405000053],[99.50808515400007,13.036214662000077],[99.51027402200003,13.038196135000021],[99.50916456700008,13.041035819000058],[99.51045486900006,13.043773868000073],[99.51756745800009,13.048980929000038],[99.52689084400004,13.04874812600002],[99.53032154300007,13.045997536000073],[99.53567622800006,13.048038062000046],[99.53960970700007,13.05363187100005],[99.54462733300005,13.055681032000052],[99.54770691200008,13.059040005000043],[99.55350277800005,13.063092836000067],[99.55777861800004,13.063453034000077],[99.56053268400007,13.062304047000055],[99.56046798400007,13.055625128000031],[99.56241363400005,13.053491845000053],[99.55945817800006,13.047628398000029],[99.56417855000007,13.046235528000068],[99.56830768300006,13.043196477000038],[99.56857868500003,13.039689986000042],[99.57046502300005,13.039068886000052],[99.56976230000004,13.03378875200002],[99.57342752400007,13.026913123000043],[99.57503204900007,13.032169646000057],[99.57829841200004,13.032467180000026],[99.57744258000008,13.036323082000024],[99.58234112600007,13.041248855000049],[99.58615229200007,13.047551569000063],[99.59505392200003,13.051122809000049],[99.59708422200003,13.053295816000059],[99.59580782200004,13.055104564000032],[99.59932198100006,13.055665282000064],[99.60322738400004,13.060191785000029],[99.60658661100007,13.065927370000054],[99.61014824500006,13.06523844000003],[99.61074364100006,13.060272155000064],[99.61415212300005,13.058230732000027],[99.61539879600008,13.051198212000031],[99.61984074600008,13.048902782000027],[99.62060691100004,13.045176023000067],[99.62452028000007,13.042677983000033],[99.62474123800007,13.040223851000064],[99.63045579700008,13.044016586000055],[99.63418488900004,13.04100247100007],[99.63948072400007,13.041308749000052],[99.64131303200008,13.040063577000069],[99.64277926100004,13.033912416000021],[99.64614503200005,13.031749041000069],[99.65424434900007,13.030739091000044],[99.66703986100003,13.030539555000075],[99.67035447200004,13.029619361000073],[99.67661574100003,13.031118384000024],[99.69327043400006,13.027918543000055],[99.69906339600004,13.03066253000003],[99.70464781700008,13.029975430000036],[99.70818162600006,13.027825478000068],[99.71602213300008,13.02935283200003],[99.72047823400004,13.028648610000062],[99.72709981500009,13.031382135000058],[99.73449969700005,13.029055808000066],[99.73574497800007,13.034306030000039],[99.73519250400005,13.036905569000055],[99.74075679600008,13.03796230200004],[99.74970087200006,13.045166811000058],[99.74897828500008,13.051221489000056],[99.75186044100008,13.054856397000037],[99.74912813400005,13.05751387600003],[99.74837806000005,13.06077319700006],[99.75324438400008,13.063571473000025],[99.75345619200004,13.065708826000048],[99.75686293100006,13.068428315000062],[99.75932482400003,13.067860836000023],[99.76298405500006,13.073272279000037],[99.77329102500005,13.079455859000063],[99.77744349100004,13.090665318000049],[99.78166482100005,13.089150392000022],[99.78423958000008,13.092469010000059],[99.79083158600008,13.095390724000026],[99.79170081100006,13.098344311000062],[99.79442108800004,13.099663939000038],[99.79619887700005,13.104182459000072],[99.79402737800007,13.10941521500007],[99.79586194000007,13.117652110000051],[99.79385227900008,13.122790792000046],[99.78914309000004,13.126507401000026],[99.78831683000004,13.13383139900003],[99.78511443900004,13.143727563000027],[99.78498934100008,13.147763517000044],[99.78725072700007,13.149253481000073],[99.78863681600006,13.155845274000058],[99.78249361300004,13.156297098000039],[99.78506760700009,13.168103734000056],[99.78417223300005,13.173414001000026],[99.78619077300004,13.176053122000042],[99.79041968900003,13.177901045000056],[99.79060260400007,13.180187749000027],[99.78694222800004,13.182462838000049],[99.77954053400003,13.184400321000055],[99.77071812100007,13.185654881000062],[99.77003264400008,13.192944190000048],[99.76660226300004,13.197304897000038],[99.76461576200006,13.20397777900007],[99.76269863100003,13.205941680000024],[99.75172926700009,13.208853162000025],[99.75007378500004,13.212128392000068],[99.75047617500007,13.218461782000077],[99.75483641600005,13.224642957000071],[99.75234868600006,13.230621702000064],[99.74632745800005,13.235701186000028],[99.74192912700005,13.241362845000026],[99.73813337400009,13.24391539800007],[99.73682081100009,13.247188666000056],[99.73126776200007,13.251781910000034],[99.72971834400005,13.255919457000061],[99.73200753300006,13.259096014000022],[99.72962093700005,13.26237036200007],[99.72540814000007,13.264123386000051],[99.72288010100004,13.263215456000069],[99.71854310500004,13.264735614000074],[99.71674415400008,13.261187426000049],[99.71501460500008,13.264128646000074],[99.71620118300007,13.270310835000032],[99.71322514500008,13.27247139900004],[99.70982923900004,13.277982199000064],[99.70598703000007,13.280625601000054],[99.70528219200008,13.284579810000025],[99.69992023500004,13.286802045000059],[99.69631628100007,13.284907132000058],[99.69156781700008,13.288141254000038],[99.68909923600006,13.29412463500006],[99.68985111500007,13.299097391000032],[99.68824370900006,13.300372667000033]]]},"properties":{"Shape_Leng":2.79920967295,"Shape_Area":0.102320780291,"ADM2_EN":"Nong Ya Plong","ADM2_TH":"หนองหญ้าปล้อง","ADM2_PCODE":"TH7603","ADM1_EN":"Phetchaburi","ADM1_TH":"เพชรบุรี","ADM1_PCODE":"TH76","ADM0_EN":"Thailand","ADM0_TH":"ประเทศไทย","ADM0_PCODE":"TH"}},
{"type":"Feature","geometry":{"type":"Polygon","coordinates":[[[100.02690628200008,12.917015787000025],[100.02232193500004,12.918287677000023],[100.02086059500004,12.915996894000045],[100.00755156800005,12.917622111000071],[100.00678519000007,12.919989818000033],[100.00899509500005,12.922814318000064],[100.00419256500004,12.923495501000048],[99.99774744200005,12.926108885000076],[99.99367106400007,12.920005447000051],[99.99024035600007,12.91852937300007],[99.98228547200006,12.911490117000028],[99.97364062900004,12.909292833000052],[99.96431326600003,12.908266979000075],[99.96633083200004,12.904859504000058],[99.95305058400004,12.901029365000056],[99.94874270400004,12.902873359000068],[99.94262685500007,12.902986481000028],[99.93898836300008,12.904759218000038],[99.93517994000007,12.902827666000064],[99.93163614800005,12.905393995000054],[99.92461114400004,12.904001809000022],[99.92034343600005,12.904923534000034],[99.91378429100007,12.90365556200004],[99.91319062300005,12.90559361000004],[99.90958158500007,12.905849557000067],[99.90333790700004,12.902454678000026],[99.89941671000008,12.897113125000033],[99.88133849400003,12.882382249000045],[99.87504383500004,12.882215870000039],[99.87445923000007,12.878952489000028],[99.87181722900004,12.878620881000074],[99.87284334700007,12.872579744000063],[99.86519982200008,12.864097812000068],[99.86213004400008,12.865886725000053],[99.86033208900005,12.862638022000056],[99.85714612700008,12.861563273000058],[99.85334132400004,12.858062510000025],[99.85161864500009,12.853229191000025],[99.85216329100007,12.849309293000033],[99.85465818600005,12.847928386000035],[99.85735014900007,12.841880040000035],[99.85803614100007,12.831452970000043],[99.85054159900005,12.826999604000036],[99.84882878600007,12.824496970000041],[99.85327442500005,12.822032136000075],[99.85576750700005,12.817251860000056],[99.85903117100008,12.817151541000044],[99.86652918600004,12.813893888000052],[99.86455149000005,12.806575107000072],[99.86433655100006,12.79867099200004],[99.86205191200008,12.796099884000057],[99.85978444800008,12.790142661000061],[99.85626603800006,12.786841579000054],[99.85147882700005,12.787557200000037],[99.84817409700008,12.789802760000043],[99.84668061900004,12.78891359000005],[99.84284286000008,12.78027067100004],[99.84278219600009,12.774460082000076],[99.84959413700005,12.769027884000025],[99.85295767600007,12.767901144000064],[99.85431231300004,12.765342843000042],[99.85407093400005,12.760772983000038],[99.85025839100007,12.754582655000036],[99.84584599900006,12.754013374000067],[99.83683933800006,12.74819529000007],[99.83275611300007,12.747115003000033],[99.83014959600007,12.74861272000004],[99.82396509400007,12.748057032000077],[99.81905515000005,12.74293054800006],[99.81667451700008,12.736640392000027],[99.81349236600005,12.730896557000051],[99.80849035200004,12.73052836900007],[99.79651846600007,12.734373452000057],[99.78658599300007,12.734545795000031],[99.78439518300007,12.737189915000044],[99.78185917900004,12.736051418000045],[99.78231641800005,12.73293030900004],[99.78469059500009,12.731925377000039],[99.78219218000004,12.729706011000076],[99.78417057100006,12.727221450000059],[99.78373283800005,12.722871230000067],[99.78574621200005,12.719602911000038],[99.79065436700006,12.716976972000055],[99.79239225200007,12.713753368000027],[99.79506067900007,12.712627264000048],[99.79342714100005,12.710147533000054],[99.79225137900005,12.704125986000065],[99.79054154700003,12.701061668000023],[99.77997389100005,12.689065748000075],[99.77622192300004,12.682658717000038],[99.78193504300003,12.663914567000063],[99.78047867800007,12.66106886700004],[99.78132301300008,12.658793063000076],[99.77619163900005,12.654377301000068],[99.77578294400007,12.651913944000057],[99.77199521400007,12.651954829000033],[99.77141517400008,12.646449879000045],[99.76930040300005,12.642468311000073],[99.75950742500004,12.633422261000021],[99.75360705100007,12.632361738000043],[99.75070426900004,12.62718618200006],[99.75476142600007,12.618874598000048],[99.75784516500005,12.615437555000028],[99.76603020400006,12.615083733000063],[99.77259989000004,12.612628138000048],[99.77473550400003,12.613984622000032],[99.78686964900004,12.617896003000055],[99.79292400300005,12.615433845000041],[99.80074852800004,12.622821639000051],[99.81298860200008,12.62492422400004],[99.82058629700003,12.63174628400003],[99.82774895900008,12.633421468000051],[99.83123263900006,12.630382669000028],[99.83780847800006,12.629930310000077],[99.84015719900003,12.626201707000064],[99.84399566600007,12.627638399000034],[99.84631703700006,12.630213386000037],[99.84926583000004,12.628396795000072],[99.85428351700006,12.630535795000071],[99.85385055900008,12.627527116000067],[99.85555239500007,12.625165522000032],[99.86395196000007,12.623364498000058],[99.86704999800008,12.623791089000065],[99.87132901900009,12.626557953000031],[99.87608926300004,12.626213094000036],[99.88363269100006,12.620107306000023],[99.89001373300005,12.623842689000071],[99.89285083600004,12.628670683000053],[99.89772681000005,12.628625064000062],[99.90474967900008,12.635977299000047],[99.90783707500003,12.632288430000074],[99.91290067000006,12.629828049000025],[99.91578978400008,12.625414714000044],[99.92264168400004,12.623320183000033],[99.92482423900003,12.624265150000042],[99.92803719100004,12.630703372000028],[99.93144511600008,12.628967868000075],[99.93412033900006,12.631143174000044],[99.93732835000009,12.630188903000032],[99.94365705000007,12.630372716000068],[99.94615482100005,12.63394917100004],[99.95239233100006,12.634927079000022],[99.95611290700003,12.632498751000071],[99.95606366900006,12.636799565000047],[99.95861592900008,12.661280540000064],[99.96438982200004,12.693830499000057],[99.96486746500005,12.707686428000045],[99.96414847100004,12.716080945000044],[99.96460351500008,12.728198657000064],[99.96643138400003,12.738875902000075],[99.97089505100007,12.75607395700007],[99.97467508200003,12.768370288000028],[99.97895352800003,12.780749841000045],[99.98438724600004,12.794013931000052],[99.98660065700005,12.800999176000062],[99.99107123900006,12.810397015000035],[99.99602369300004,12.815151662000062],[99.99278005600007,12.816955483000072],[99.99432400500007,12.817982994000033],[99.99407808900008,12.823098130000062],[100.00023428500003,12.838083237000035],[100.00563867800008,12.847502526000028],[100.01514396200008,12.860207229000025],[100.01324609000005,12.86090665000006],[100.01853472100004,12.876173359000063],[100.02163882600007,12.882124476000058],[100.02561579100006,12.895093235000047],[100.02678073200008,12.901959740000052],[100.02596022000006,12.905279678000056],[100.02690628200008,12.917015787000025]]]},"properties":{"Shape_Leng":1.26533366256,"Shape_Area":0.043818275983,"ADM2_EN":"Cha-Am","ADM2_TH":"ชะอำ","ADM2_PCODE":"TH7604","ADM1_EN":"Phetchaburi","ADM1_TH":"เพชรบุรี","ADM1_PCODE":"TH76","ADM0_EN":"Thailand","ADM0_TH":"ประเทศไทย","ADM0_PCODE":"TH"}},
{"type":"Feature","geometry":{"type":"Polygon","coordinates":[[[99.96413542600004,12.983794526000054],[99.96436384000003,12.98087113500003],[99.96146169000008,12.978479655000058],[99.95751432500003,12.978005727000038],[99.95746552500003,12.975722940000026],[99.95277620500008,12.979156666000051],[99.94598235700005,12.977388618000077],[99.94512983700008,12.983905089000075],[99.94607324400005,12.988438798000061],[99.94321185000007,12.991079958000057],[99.94303720400006,12.993825255000047],[99.93949213600007,12.993701785000042],[99.93475374300004,12.995336382000062],[99.92802114300008,12.993784582000046],[99.92488507700006,12.994051326000033],[99.92260557100008,12.996546172000023],[99.91792355600006,12.996527957000069],[99.91330561200004,13.000411263000046],[99.91305530200003,13.002372686000058],[99.90880331600005,13.007102778000046],[99.90271492700003,13.008474343000046],[99.89867746800007,13.015490985000042],[99.89360417000006,13.016027983000072],[99.89535344500007,13.014077244000077],[99.89483066100007,13.009055003000071],[99.88967857400007,13.00952529600005],[99.88195033100004,13.006622844000049],[99.87916179900009,13.006906400000048],[99.87534920700006,13.003671389000033],[99.87758359300005,13.007711390000054],[99.87596055900008,13.010801486000048],[99.87154424800008,13.012840698000048],[99.86358477800007,13.01118774400004],[99.85483558500005,13.004351882000037],[99.85082412500009,13.00429861300006],[99.85142423400004,13.002311961000032],[99.84691433700004,12.992815276000044],[99.84399580200005,12.99013065500003],[99.83429960200004,12.990301852000073],[99.83163335800003,12.988225501000045],[99.82406827800008,12.985930617000065],[99.81839433400006,12.986036407000029],[99.81639338000008,12.983924863000027],[99.81223391500004,12.986019099000032],[99.81165870500007,12.983709532000034],[99.80856034000004,12.983618901000057],[99.80804847300004,12.980975126000033],[99.79853585900008,12.978508693000038],[99.79193463700005,12.978891248000025],[99.79075925400008,12.977595733000044],[99.78654458300008,12.977965057000063],[99.78302953600007,12.976151939000033],[99.78755193500007,12.962980702000038],[99.79215413800006,12.951943988000039],[99.79174647200006,12.947642859000041],[99.78867817100007,12.945666477000032],[99.78454450000004,12.940025224000067],[99.78421146400007,12.936035709000066],[99.78083754100004,12.93450923100005],[99.78305920500009,12.92824205100004],[99.78528242600004,12.926929175000055],[99.79126548300007,12.920757311000045],[99.79023652900008,12.91798656700007],[99.78467610700005,12.916663148000055],[99.78145811800005,12.914507429000025],[99.78198564900003,12.912680543000022],[99.77479534000008,12.902333552000073],[99.76757882800007,12.901923822000072],[99.75745565100004,12.892300059000036],[99.75201998800009,12.890880210000034],[99.74872403100005,12.88487390000006],[99.73508818900007,12.877711874000056],[99.73842378200004,12.873706990000073],[99.74166623400004,12.872078543000043],[99.74533504800007,12.867785824000066],[99.75030750900004,12.865879239000037],[99.75302246700005,12.863144050000074],[99.75360673900008,12.857965857000067],[99.75584361900007,12.85258411600006],[99.75518876900009,12.850399305000053],[99.75723207400006,12.848063591000027],[99.76303640100008,12.844923538000046],[99.76216688000005,12.841872059000025],[99.75874498400003,12.841066356000056],[99.75383138800004,12.837000819000025],[99.74937684300005,12.830872904000046],[99.74933097200005,12.827633168000034],[99.74255871200006,12.830157101000054],[99.73269978600007,12.837635767000052],[99.72572519000005,12.835595220000073],[99.72130558600008,12.831274780000058],[99.72276389300004,12.828931187000023],[99.72239252000008,12.824307055000077],[99.71788259700008,12.822032114000024],[99.71609811800005,12.816973473000076],[99.71221769000005,12.816119883000056],[99.71189358100008,12.81085678200003],[99.70408015900006,12.812141430000054],[99.70302099500003,12.815560897000069],[99.69776415900009,12.813776038000071],[99.69343416700008,12.817301512000029],[99.68697350100007,12.81331496200005],[99.68308565900008,12.813287426000045],[99.68193001400005,12.808383312000046],[99.67655624800005,12.799946022000029],[99.67246478500005,12.798071178000043],[99.67219213700008,12.795985753000025],[99.66517453600005,12.793117430000052],[99.66349660600008,12.793929153000022],[99.66078062300005,12.791764478000061],[99.65350093700005,12.788723832000073],[99.64883339400006,12.791841583000064],[99.64033649200007,12.781304745000057],[99.64631817400004,12.771863650000057],[99.64905092400005,12.769925820000026],[99.65085680000004,12.763413269000068],[99.64910605200004,12.757447124000066],[99.64597750700005,12.754603356000075],[99.64466975100004,12.755658463000032],[99.63576411100007,12.752655091000065],[99.63069246900005,12.755166221000025],[99.62783905900005,12.754306408000048],[99.62536318900004,12.755688494000026],[99.62540471500006,12.75337743700004],[99.62196002900004,12.755947236000054],[99.61715596400006,12.754394239000021],[99.61421670000004,12.75705541900004],[99.60730209600007,12.751789201000065],[99.60449117600007,12.74662427000004],[99.60581771800008,12.740524575000052],[99.60367919400005,12.738296891000061],[99.60238536600008,12.727857319000066],[99.60268272400003,12.72479257200007],[99.60861457000004,12.722550074000026],[99.61543628600003,12.717121611000039],[99.61498947200005,12.712022034000029],[99.61710608000004,12.705817697000043],[99.61537208300007,12.69729824500007],[99.61611422800007,12.69151589300003],[99.61601837400008,12.669419886000071],[99.61551679800004,12.662919333000048],[99.61623143500003,12.640737780000052],[99.62163267200003,12.644308412000044],[99.62998889800008,12.643150658000025],[99.63794891900005,12.64094016100006],[99.64016622000008,12.642200685000034],[99.64751584100009,12.642570031000048],[99.64978545600007,12.639799107000044],[99.65619293100008,12.638695939000058],[99.65777974100007,12.633287360000054],[99.66421197900007,12.63764055200005],[99.67136502600005,12.635986995000053],[99.67390302700005,12.637284160000036],[99.67489431400008,12.63501401800005],[99.67819222600008,12.636705325000037],[99.67928336300008,12.634946863000039],[99.68434974500008,12.635231579000049],[99.68679947300006,12.631473395000057],[99.68899759300007,12.62172183000007],[99.69111739900006,12.619409971000039],[99.69275133200006,12.614008391000027],[99.69725211100007,12.611103266000043],[99.70027420600007,12.611108213000023],[99.70393938200004,12.60755036300003],[99.70937831200007,12.60506728300004],[99.71159387000006,12.605806628000039],[99.71881280400004,12.60116171900006],[99.72162200900004,12.605077549000043],[99.72192309100006,12.608885137000073],[99.72485067700006,12.61158329500006],[99.73084262200007,12.612225980000062],[99.73468164000008,12.609682067000051],[99.73811868500007,12.609674951000045],[99.74010990800008,12.615545072000032],[99.75262073800008,12.617134900000053],[99.75476142600007,12.618874598000048],[99.75070426900004,12.62718618200006],[99.75360705100007,12.632361738000043],[99.75950742500004,12.633422261000021],[99.76930040300005,12.642468311000073],[99.77141517400008,12.646449879000045],[99.77199521400007,12.651954829000033],[99.77578294400007,12.651913944000057],[99.77619163900005,12.654377301000068],[99.78132301300008,12.658793063000076],[99.78047867800007,12.66106886700004],[99.78193504300003,12.663914567000063],[99.77622192300004,12.682658717000038],[99.77997389100005,12.689065748000075],[99.79054154700003,12.701061668000023],[99.79225137900005,12.704125986000065],[99.79342714100005,12.710147533000054],[99.79506067900007,12.712627264000048],[99.79239225200007,12.713753368000027],[99.79065436700006,12.716976972000055],[99.78574621200005,12.719602911000038],[99.78373283800005,12.722871230000067],[99.78417057100006,12.727221450000059],[99.78219218000004,12.729706011000076],[99.78469059500009,12.731925377000039],[99.78231641800005,12.73293030900004],[99.78185917900004,12.736051418000045],[99.78439518300007,12.737189915000044],[99.78658599300007,12.734545795000031],[99.79651846600007,12.734373452000057],[99.80849035200004,12.73052836900007],[99.81349236600005,12.730896557000051],[99.81667451700008,12.736640392000027],[99.81905515000005,12.74293054800006],[99.82396509400007,12.748057032000077],[99.83014959600007,12.74861272000004],[99.83275611300007,12.747115003000033],[99.83683933800006,12.74819529000007],[99.84584599900006,12.754013374000067],[99.85025839100007,12.754582655000036],[99.85407093400005,12.760772983000038],[99.85431231300004,12.765342843000042],[99.85295767600007,12.767901144000064],[99.84959413700005,12.769027884000025],[99.84278219600009,12.774460082000076],[99.84284286000008,12.78027067100004],[99.84668061900004,12.78891359000005],[99.84817409700008,12.789802760000043],[99.85147882700005,12.787557200000037],[99.85626603800006,12.786841579000054],[99.85978444800008,12.790142661000061],[99.86205191200008,12.796099884000057],[99.86433655100006,12.79867099200004],[99.86455149000005,12.806575107000072],[99.86652918600004,12.813893888000052],[99.85903117100008,12.817151541000044],[99.85576750700005,12.817251860000056],[99.85327442500005,12.822032136000075],[99.84882878600007,12.824496970000041],[99.85054159900005,12.826999604000036],[99.85803614100007,12.831452970000043],[99.85735014900007,12.841880040000035],[99.85465818600005,12.847928386000035],[99.85216329100007,12.849309293000033],[99.85161864500009,12.853229191000025],[99.85334132400004,12.858062510000025],[99.85714612700008,12.861563273000058],[99.86033208900005,12.862638022000056],[99.86213004400008,12.865886725000053],[99.86519982200008,12.864097812000068],[99.87284334700007,12.872579744000063],[99.87181722900004,12.878620881000074],[99.87445923000007,12.878952489000028],[99.87504383500004,12.882215870000039],[99.88133849400003,12.882382249000045],[99.89941671000008,12.897113125000033],[99.90333790700004,12.902454678000026],[99.90958158500007,12.905849557000067],[99.91319062300005,12.90559361000004],[99.91378429100007,12.90365556200004],[99.92034343600005,12.904923534000034],[99.92461114400004,12.904001809000022],[99.93163614800005,12.905393995000054],[99.93517994000007,12.902827666000064],[99.93898836300008,12.904759218000038],[99.94262685500007,12.902986481000028],[99.94874270400004,12.902873359000068],[99.95305058400004,12.901029365000056],[99.96633083200004,12.904859504000058],[99.96431326600003,12.908266979000075],[99.97364062900004,12.909292833000052],[99.98228547200006,12.911490117000028],[99.99024035600007,12.91852937300007],[99.99367106400007,12.920005447000051],[99.99774744200005,12.926108885000076],[100.00419256500004,12.923495501000048],[100.00899509500005,12.922814318000064],[100.00678519000007,12.919989818000033],[100.00755156800005,12.917622111000071],[100.02086059500004,12.915996894000045],[100.02232193500004,12.918287677000023],[100.02690628200008,12.917015787000025],[100.02865240700004,12.931727735000038],[100.03753792700007,12.954191176000052],[100.03343252800005,12.958435114000054],[100.03175976800009,12.958301909000056],[100.02051581700005,12.965483470000038],[100.01845429800005,12.965674192000051],[100.01651006200007,12.969580975000042],[100.01230709000004,12.97210166900004],[100.00163710700008,12.970877831000053],[99.99722618300007,12.974034299000039],[99.99025085000005,12.976782066000055],[99.98419988700005,12.977765471000055],[99.96684547900009,12.984500808000064],[99.96413542600004,12.983794526000054]]]},"properties":{"Shape_Leng":1.83343297065,"Shape_Area":0.0650701027806,"ADM2_EN":"Tha Yang","ADM2_TH":"ท่ายาง","ADM2_PCODE":"TH7605","ADM1_EN":"Phetchaburi","ADM1_TH":"เพชรบุรี","ADM1_PCODE":"TH76","ADM0_EN":"Thailand","ADM0_TH":"ประเทศไทย","ADM0_PCODE":"TH"}},
{"type":"Feature","geometry":{"type":"Polygon","coordinates":[[[99.84591246500008,13.130163982000056],[99.83056160400008,13.128983848000075],[99.82566320500007,13.126669408000055],[99.81882756100003,13.125879870000063],[99.80941687700005,13.123546156000032],[99.80450296400005,13.120136466000076],[99.80088059400003,13.120246611000027],[99.79586194000007,13.117652110000051],[99.79402737800007,13.10941521500007],[99.79619887700005,13.104182459000072],[99.79442108800004,13.099663939000038],[99.79170081100006,13.098344311000062],[99.79083158600008,13.095390724000026],[99.78423958000008,13.092469010000059],[99.78166482100005,13.089150392000022],[99.77744349100004,13.090665318000049],[99.77329102500005,13.079455859000063],[99.76298405500006,13.073272279000037],[99.75932482400003,13.067860836000023],[99.75686293100006,13.068428315000062],[99.75345619200004,13.065708826000048],[99.75324438400008,13.063571473000025],[99.74837806000005,13.06077319700006],[99.74912813400005,13.05751387600003],[99.75186044100008,13.054856397000037],[99.74897828500008,13.051221489000056],[99.74970087200006,13.045166811000058],[99.74075679600008,13.03796230200004],[99.73519250400005,13.036905569000055],[99.73574497800007,13.034306030000039],[99.73449969700005,13.029055808000066],[99.73986990300006,13.023550705000048],[99.74494716300006,13.014887995000038],[99.74954699600005,13.013809110000068],[99.75539989400005,13.008741697000062],[99.76485222900004,13.001736444000073],[99.77084694300004,12.998176135000051],[99.77423291100007,12.99432140500005],[99.78024865200007,12.98368484200006],[99.78302953600007,12.976151939000033],[99.78654458300008,12.977965057000063],[99.79075925400008,12.977595733000044],[99.79193463700005,12.978891248000025],[99.79853585900008,12.978508693000038],[99.80804847300004,12.980975126000033],[99.80856034000004,12.983618901000057],[99.81165870500007,12.983709532000034],[99.81223391500004,12.986019099000032],[99.81639338000008,12.983924863000027],[99.81839433400006,12.986036407000029],[99.82406827800008,12.985930617000065],[99.83163335800003,12.988225501000045],[99.83429960200004,12.990301852000073],[99.84399580200005,12.99013065500003],[99.84691433700004,12.992815276000044],[99.85142423400004,13.002311961000032],[99.85082412500009,13.00429861300006],[99.85483558500005,13.004351882000037],[99.86358477800007,13.01118774400004],[99.87154424800008,13.012840698000048],[99.87596055900008,13.010801486000048],[99.87758359300005,13.007711390000054],[99.87534920700006,13.003671389000033],[99.87916179900009,13.006906400000048],[99.88195033100004,13.006622844000049],[99.88967857400007,13.00952529600005],[99.89483066100007,13.009055003000071],[99.89535344500007,13.014077244000077],[99.89360417000006,13.016027983000072],[99.89867746800007,13.015490985000042],[99.90271492700003,13.008474343000046],[99.90880331600005,13.007102778000046],[99.91305530200003,13.002372686000058],[99.91330561200004,13.000411263000046],[99.91792355600006,12.996527957000069],[99.92260557100008,12.996546172000023],[99.92488507700006,12.994051326000033],[99.92802114300008,12.993784582000046],[99.93475374300004,12.995336382000062],[99.93949213600007,12.993701785000042],[99.94303720400006,12.993825255000047],[99.94321185000007,12.991079958000057],[99.94607324400005,12.988438798000061],[99.94512983700008,12.983905089000075],[99.94598235700005,12.977388618000077],[99.95277620500008,12.979156666000051],[99.95746552500003,12.975722940000026],[99.95751432500003,12.978005727000038],[99.96146169000008,12.978479655000058],[99.96436384000003,12.98087113500003],[99.96413542600004,12.983794526000054],[99.96261030300008,13.002847430000031],[99.96135748900008,13.002943151000068],[99.95946347700004,13.008086227000035],[99.95903404700005,13.01309817400005],[99.96165110000004,13.014826619000075],[99.95892715800005,13.049387827000032],[99.96238513700007,13.055390590000059],[99.96536912100004,13.058581218000029],[99.96711037500006,13.063642117000029],[99.96637068400008,13.06796681700007],[99.96150139800005,13.06948098600003],[99.95510865300008,13.069109942000068],[99.95087209300004,13.072020576000057],[99.94529903200004,13.072313398000063],[99.93795798300005,13.069094023000048],[99.93446376000009,13.066364365000027],[99.93152629400004,13.072781047000035],[99.93210413900005,13.075929107000036],[99.92932440900006,13.077454075000048],[99.92646788300004,13.082441884000048],[99.92469928700007,13.091349689000026],[99.92316880700008,13.094972246000054],[99.91050083100004,13.097633450000046],[99.91384711700005,13.094456194000031],[99.91433519600008,13.090741187000049],[99.91656659600005,13.086560852000048],[99.91394349800004,13.085312483000052],[99.90612621200006,13.084750854000049],[99.90366545300009,13.086204490000057],[99.89938237600006,13.085151229000076],[99.89666748800005,13.087419324000052],[99.89804087900006,13.090539700000022],[99.89767886600004,13.094078808000063],[99.90025887700006,13.093480062000026],[99.90043092900004,13.096230243000036],[99.90310636600003,13.099500800000044],[99.90261490800003,13.10406183200007],[99.90022402100004,13.106048790000045],[99.90328342100008,13.110226730000022],[99.90489060300007,13.116681613000026],[99.90319489300003,13.117075948000036],[99.89796512500004,13.113890892000029],[99.88950605400004,13.11575838300007],[99.88683579600007,13.11104027600004],[99.88832913600004,13.109108328000048],[99.88698127200007,13.10508010500007],[99.89126077000009,13.103109964000055],[99.88648178300008,13.099599660000024],[99.88184213200009,13.099727892000033],[99.87959589000008,13.097401791000038],[99.86964265500006,13.097566698000037],[99.86602476900003,13.096055378000074],[99.86104512000009,13.095759919000045],[99.85908929100003,13.096802445000037],[99.84694222300004,13.09711164500004],[99.84230789400004,13.113247371000057],[99.83858734800003,13.121866843000078],[99.84625211000008,13.122565093000048],[99.84591246500008,13.130163982000056]]]},"properties":{"Shape_Leng":0.917469625205,"Shape_Area":0.0216977591161,"ADM2_EN":"Ban Lat","ADM2_TH":"บ้านลาด","ADM2_PCODE":"TH7606","ADM1_EN":"Phetchaburi","ADM1_TH":"เพชรบุรี","ADM1_PCODE":"TH76","ADM0_EN":"Thailand","ADM0_TH":"ประเทศไทย","ADM0_PCODE":"TH"}},
{"type":"Feature","geometry":{"type":"Polygon","coordinates":[[[100.07932617500006,13.020380765000027],[100.09174202700007,13.036730939000051],[100.09384693700008,13.040032868000026],[100.09344007000004,13.042363306000027],[100.10158498600003,13.054525261000038],[100.10204069400004,13.056547610000052],[100.09496319300007,13.056614615000058],[100.08479896900008,13.061174765000032],[100.08268646300007,13.060665253000025],[100.08226501800004,13.063578673000052],[100.07512714100005,13.06969709200007],[100.06737195400007,13.079596369000058],[100.06412472700003,13.089850487000035],[100.06433559000004,13.098900964000052],[100.06295475100006,13.107256990000053],[100.06261005100004,13.11729693500007],[100.06332770400007,13.12079140700007],[100.06258132800008,13.125159874000076],[100.06311412000008,13.132389523000029],[100.06676088400008,13.143400367000027],[100.06886140000006,13.151911239000071],[100.06603353700007,13.158124176000058],[100.05737749300005,13.165242034000073],[100.04657167300007,13.17206502700003],[100.03120559300004,13.179431916000055],[100.02563159000005,13.18334307200007],[100.01858364300006,13.185755706000066],[100.01654563000005,13.188955159000045],[100.01090208700003,13.193249458000025],[100.00528128200006,13.199988142000052],[99.99988659300004,13.211007633000065],[99.99800835100007,13.218654112000024],[99.99343727800004,13.226019762000021],[99.98541453800004,13.235278080000057],[99.97457960000008,13.245287785000073],[99.97111681100006,13.245080717000064],[99.96963284700007,13.243038144000025],[99.96499182700006,13.24513888100006],[99.96551089600007,13.24703975500006],[99.95831840100004,13.254825935000042],[99.95539024900006,13.259581172000026],[99.95243160800004,13.262296638000066],[99.94780379700006,13.26445700100004],[99.94311615900006,13.264627459000053],[99.94127567300006,13.266373539000028],[99.94684488700005,13.273629388000074],[99.94982992700005,13.280674314000066],[99.95258332800006,13.293463764000023],[99.95250447900008,13.296620133000033],[99.94595456800005,13.296371511000075],[99.93574700700003,13.292969830000061],[99.93327289000007,13.287901766000061],[99.93404774900006,13.285121340000046],[99.92947387500004,13.282074471000044],[99.92285616700008,13.280263665000064],[99.91857756600007,13.285042009000051],[99.91655451500009,13.282930001000068],[99.91150161100006,13.280849405000026],[99.90987771700009,13.281583327000021],[99.90751144400008,13.27758207000005],[99.90929151700004,13.27425289000007],[99.90807682300004,13.271137207000038],[99.91075707200008,13.267823599000053],[99.90816319400005,13.264272050000045],[99.90221269600005,13.26675192600004],[99.89772835200006,13.267084195000052],[99.89345823300005,13.266091694000067],[99.89235149600006,13.26392607300005],[99.88666323100006,13.263922055000023],[99.88633346100005,13.260772923000047],[99.88421782700004,13.26099028300007],[99.88147863500006,13.25854954700003],[99.88485615900004,13.25260712000005],[99.88737173700008,13.252407120000044],[99.89323010200008,13.24421571800002],[99.88928433000007,13.24256863100004],[99.88879491200004,13.244206886000029],[99.88375008100007,13.246462721000057],[99.87640872300005,13.236207513000068],[99.87499890600009,13.232126424000057],[99.87760434800003,13.233123504000048],[99.87696886200007,13.229240640000057],[99.88462098600007,13.230745960000036],[99.88856563100006,13.226808300000073],[99.89416208900008,13.22451201900003],[99.89404151100007,13.221459631000073],[99.89834247300007,13.22154448200007],[99.89965804500008,13.225484596000058],[99.90526079000006,13.22578012100007],[99.90251896500007,13.223968158000048],[99.90356087200007,13.222092859000043],[99.90756169700006,13.222709980000047],[99.90978755600008,13.216183347000026],[99.91001120600004,13.212814396000056],[99.90549489300008,13.202976707000062],[99.90462463900008,13.199641903000042],[99.90104113600006,13.193613638000045],[99.89971625200008,13.184086380000053],[99.90239606700004,13.180658899000036],[99.90542919700005,13.18328849900007],[99.91017197300005,13.184850027000039],[99.91405341000007,13.182989184000064],[99.92284457900007,13.183166400000061],[99.92292998500005,13.184379854000042],[99.93169631100005,13.187872370000036],[99.94779866300007,13.188098685000057],[99.95010398100004,13.183689343000026],[99.95119593500004,13.17438713000007],[99.95257554000005,13.173027671000057],[99.95243748200005,13.16718166100003],[99.94974722900008,13.158063712000057],[99.94759483000007,13.154767959000026],[99.94659725600008,13.150536407000061],[99.94916520800007,13.139816288000077],[99.94883972700006,13.137230342000066],[99.95101394500006,13.132726010000056],[99.95484024400008,13.13433953200007],[99.95549227900005,13.137853624000059],[99.95885803700008,13.136914257000058],[99.96045604900007,13.141092786000058],[99.96891716800008,13.140896222000038],[99.96954710700004,13.145836197000051],[99.97446039200008,13.143624246000059],[99.97744301400007,13.146215228000074],[99.98000520700003,13.146356471000047],[99.98377719100006,13.149374555000065],[99.99243922800008,13.145238866000057],[99.99237386200008,13.141183417000036],[99.99551489700008,13.134628669000051],[99.99841501200007,13.136216446000049],[100.00361727000006,13.136940902000049],[100.01487309600009,13.141598999000053],[100.01648954300003,13.13778658800004],[100.02284808300004,13.14065658800007],[100.02541691000005,13.14389154500003],[100.02844407000003,13.142788195000037],[100.03110474300007,13.14457311700005],[100.03580926600006,13.142035360000023],[100.04591279500005,13.131446821000054],[100.03808091000008,13.122350320000066],[100.03027903100008,13.120409344000052],[100.02636039600009,13.121954279000022],[100.02218844200007,13.122001753000063],[100.02234226400009,13.115744792000044],[100.02638016800006,13.109471791000033],[100.02541523200006,13.103691077000065],[100.03035674000006,13.103595437000024],[100.03011396300008,13.098452498000029],[100.03317290700005,13.095631137000055],[100.03353436500004,13.09266073200007],[100.03631206700004,13.092814114000078],[100.03562230100005,13.089843538000025],[100.05357106600007,13.089751647000071],[100.05264696400008,13.082488504000025],[100.05073129300007,13.082529159000046],[100.05241815900007,13.067311527000072],[100.05524437000008,13.067280288000063],[100.05508615800005,13.063603311000065],[100.05662342700003,13.056677300000047],[100.05581461100007,13.047635928000034],[100.05359496600005,13.043756313000074],[100.05564922900004,13.042704398000069],[100.05063206000005,13.034041780000052],[100.05070181200006,13.030911355000057],[100.05383900100009,13.030749624000066],[100.05351799500005,13.028146149000065],[100.05667594500005,13.014871396000046],[100.06274805300006,13.007308326000043],[100.06299380800004,13.009640486000023],[100.07099378700008,13.012833110000031],[100.07219829100006,13.016625818000023],[100.07395508100007,13.017012845000068],[100.07812841300006,13.02142763300003],[100.07932617500006,13.020380765000027]]]},"properties":{"Shape_Leng":1.1647750421,"Shape_Area":0.0166868098591,"ADM2_EN":"Ban Laem","ADM2_TH":"บ้านแหลม","ADM2_PCODE":"TH7607","ADM1_EN":"Phetchaburi","ADM1_TH":"เพชรบุรี","ADM1_PCODE":"TH76","ADM0_EN":"Thailand","ADM0_TH":"ประเทศไทย","ADM0_PCODE":"TH"}},
{"type":"Feature","geometry":{"type":"Polygon","coordinates":[[[99.18753519000006,12.975581283000054],[99.19006141500006,12.967702981000059],[99.19362095700006,12.964853223000034],[99.19524264400007,12.956538766000051],[99.19355285000006,12.953607903000034],[99.19045488000006,12.953117379000048],[99.18819330400004,12.94899457400004],[99.18548462300004,12.947668649000036],[99.18466534300006,12.944822088000024],[99.17591967500005,12.943871113000057],[99.17194545700005,12.942614650000053],[99.17099032400006,12.935844185000064],[99.16826124800008,12.932893781000075],[99.16788598100004,12.93003086300007],[99.16232270300009,12.92849577000004],[99.16560067900008,12.92437850500005],[99.16960018600008,12.923383025000021],[99.17579339800005,12.920292526000026],[99.18257971800006,12.911267915000053],[99.18184462900007,12.906579005000026],[99.18327481800009,12.900671782000074],[99.18329048500004,12.893077353000024],[99.18089616100008,12.888993954000057],[99.18201183100007,12.884830472000033],[99.18536414200008,12.88351220800007],[99.18851405200007,12.880384350000043],[99.18732248700007,12.877003032000061],[99.18723417600006,12.868594577000067],[99.18495742500005,12.861330339000062],[99.18730044600005,12.85465614800006],[99.18590137700005,12.850827517000027],[99.18922498000006,12.844893368000044],[99.19144455800006,12.845777012000042],[99.19800221500009,12.843786315000045],[99.19957145800004,12.839358868000033],[99.20375230400003,12.83830292700003],[99.20616448100009,12.836171656000033],[99.20812262000004,12.830487751000021],[99.21133715500008,12.825795743000072],[99.21774819800004,12.828418709000061],[99.21941721100006,12.822918040000047],[99.22176953800005,12.822365775000037],[99.22323718200005,12.813930712000058],[99.22625407700008,12.806870040000035],[99.22571064200008,12.798915192000038],[99.22925200400005,12.79657141000007],[99.22793354600003,12.790240185000073],[99.23158346300005,12.782748236000032],[99.23379392500004,12.781961577000061],[99.23448381600008,12.77831752800006],[99.23245880400003,12.769816456000058],[99.23375862900008,12.763746419000029],[99.23416614300004,12.754800610000075],[99.23189927200008,12.747885752000059],[99.22872032000004,12.74645975900006],[99.22797874200006,12.742660783000076],[99.23405457900009,12.737904462000074],[99.23656502200004,12.729604552000069],[99.24033993900008,12.723262404000025],[99.24400600400008,12.720160723000049],[99.24772968700006,12.719174630000055],[99.25294930000007,12.723332800000037],[99.26068942400008,12.72566450100004],[99.26521011600005,12.725348979000046],[99.27029501000004,12.728490086000022],[99.27225215700008,12.72396610100003],[99.27529677000007,12.722228334000022],[99.27844665800006,12.71649480800005],[99.28378215600009,12.714886121000063],[99.28926599000005,12.715203194000026],[99.29025046200007,12.714048027000047],[99.28856404300006,12.708672211000021],[99.29004498300009,12.707149371000071],[99.28940665900006,12.69912996000005],[99.29542159300007,12.695768644000054],[99.30032580000005,12.689866985000037],[99.29889324700008,12.684243578000064],[99.29617465100006,12.683170848000032],[99.29400003100005,12.678053128000045],[99.30264578300006,12.674071737000077],[99.30678489000007,12.671315521000054],[99.30870541400009,12.66761675400005],[99.31369990300004,12.66705339200007],[99.31757504500007,12.669354790000057],[99.33400910700004,12.664615325000057],[99.33801358400007,12.662122368000041],[99.33847919300007,12.659068077000029],[99.34248407500007,12.651142102000051],[99.34463216400007,12.64832434400006],[99.34372858600005,12.642418613000075],[99.34898106500003,12.639172167000027],[99.35464301200005,12.63999437800004],[99.35473061300007,12.637294248000046],[99.35728882800004,12.635551919000022],[99.36440887700007,12.635405538000043],[99.36688453100004,12.63349289000007],[99.36533738700007,12.626301887000068],[99.37011648500004,12.622258919000046],[99.37793560100005,12.62151822800007],[99.37958388600003,12.615869405000069],[99.38679640200007,12.616899828000044],[99.39007188800008,12.616153366000049],[99.39725237300007,12.61218307200005],[99.40003236100006,12.614009243000055],[99.40677881400006,12.61300613700007],[99.41225911400005,12.615417601000047],[99.42095998600007,12.607123619000049],[99.42045591800007,12.60455115600007],[99.42338630800003,12.601496006000048],[99.42584761600006,12.594697199000052],[99.42828246200008,12.594047319000026],[99.43373152900006,12.589648177000072],[99.43678346000007,12.584854882000059],[99.44079603200004,12.58107360200006],[99.44476564100006,12.581393222000031],[99.45529853500005,12.579188478000049],[99.46140351800005,12.58192617700007],[99.46320742700004,12.58548150300004],[99.46863231900005,12.58632145000007],[99.47342896000004,12.589115136000032],[99.47911068700006,12.590146854000068],[99.48382850000007,12.588631141000064],[99.48703942300006,12.590721279000036],[99.49087601500008,12.589672310000026],[99.49736277900007,12.591385891000073],[99.49705995300008,12.578080025000077],[99.49874252600006,12.573419873000034],[99.50197771000006,12.572257438000065],[99.50563510200004,12.568791823000026],[99.50968229100005,12.568405319000021],[99.51472486700004,12.563694338000062],[99.51963081900004,12.564544264000062],[99.52407429900006,12.56320812100006],[99.52604116000003,12.565333876000068],[99.53058773400005,12.56575304100005],[99.53387977900007,12.56778617200007],[99.53646271900004,12.572621052000045],[99.53980557200003,12.573616776000051],[99.53929603700004,12.576906981000036],[99.53590450200005,12.581069117000027],[99.53744310600007,12.581847251000056],[99.54099231800006,12.578317440000035],[99.54848617900007,12.579835272000025],[99.55000658300008,12.578906457000073],[99.56031134200003,12.577305118000027],[99.56810639500009,12.578275914000073],[99.57243966000004,12.576932032000059],[99.57760716900003,12.577965698000071],[99.58072951800006,12.574281016000043],[99.58905786800005,12.570660929000042],[99.59006533200005,12.572090210000056],[99.59760774700004,12.573050006000074],[99.60966407100005,12.579597043000035],[99.61573095400007,12.580729259000066],[99.62104556800006,12.589092169000025],[99.62360866600005,12.594667445000027],[99.62822416500006,12.599673951000057],[99.62815095400003,12.601530068000045],[99.62337928300008,12.605868882000038],[99.61860088000009,12.607450784000036],[99.61696157900008,12.61195611900007],[99.61435147100008,12.61364287300006],[99.61373680700007,12.618646801000068],[99.61960781600004,12.622504227000036],[99.61962284400005,12.628187592000074],[99.61736965700004,12.630416152000066],[99.61962228700008,12.632084256000041],[99.61943873500007,12.637042361000056],[99.61623143500003,12.640737780000052],[99.61551679800004,12.662919333000048],[99.61601837400008,12.669419886000071],[99.61611422800007,12.69151589300003],[99.61537208300007,12.69729824500007],[99.61710608000004,12.705817697000043],[99.61498947200005,12.712022034000029],[99.61543628600003,12.717121611000039],[99.60861457000004,12.722550074000026],[99.60268272400003,12.72479257200007],[99.60238536600008,12.727857319000066],[99.60367919400005,12.738296891000061],[99.60581771800008,12.740524575000052],[99.60449117600007,12.74662427000004],[99.60730209600007,12.751789201000065],[99.61421670000004,12.75705541900004],[99.61715596400006,12.754394239000021],[99.62196002900004,12.755947236000054],[99.62540471500006,12.75337743700004],[99.62536318900004,12.755688494000026],[99.62783905900005,12.754306408000048],[99.63069246900005,12.755166221000025],[99.63576411100007,12.752655091000065],[99.64466975100004,12.755658463000032],[99.64597750700005,12.754603356000075],[99.64910605200004,12.757447124000066],[99.65085680000004,12.763413269000068],[99.64905092400005,12.769925820000026],[99.64631817400004,12.771863650000057],[99.64033649200007,12.781304745000057],[99.64883339400006,12.791841583000064],[99.65350093700005,12.788723832000073],[99.66078062300005,12.791764478000061],[99.66349660600008,12.793929153000022],[99.66517453600005,12.793117430000052],[99.67219213700008,12.795985753000025],[99.67246478500005,12.798071178000043],[99.67655624800005,12.799946022000029],[99.68193001400005,12.808383312000046],[99.68308565900008,12.813287426000045],[99.68697350100007,12.81331496200005],[99.69343416700008,12.817301512000029],[99.69776415900009,12.813776038000071],[99.70302099500003,12.815560897000069],[99.70408015900006,12.812141430000054],[99.71189358100008,12.81085678200003],[99.71221769000005,12.816119883000056],[99.71609811800005,12.816973473000076],[99.71788259700008,12.822032114000024],[99.72239252000008,12.824307055000077],[99.72276389300004,12.828931187000023],[99.72130558600008,12.831274780000058],[99.72572519000005,12.835595220000073],[99.73269978600007,12.837635767000052],[99.74255871200006,12.830157101000054],[99.74933097200005,12.827633168000034],[99.74937684300005,12.830872904000046],[99.75383138800004,12.837000819000025],[99.75874498400003,12.841066356000056],[99.76216688000005,12.841872059000025],[99.76303640100008,12.844923538000046],[99.75723207400006,12.848063591000027],[99.75518876900009,12.850399305000053],[99.75584361900007,12.85258411600006],[99.75360673900008,12.857965857000067],[99.75302246700005,12.863144050000074],[99.75030750900004,12.865879239000037],[99.74533504800007,12.867785824000066],[99.74166623400004,12.872078543000043],[99.73842378200004,12.873706990000073],[99.73508818900007,12.877711874000056],[99.74872403100005,12.88487390000006],[99.75201998800009,12.890880210000034],[99.75745565100004,12.892300059000036],[99.76757882800007,12.901923822000072],[99.77479534000008,12.902333552000073],[99.78198564900003,12.912680543000022],[99.78145811800005,12.914507429000025],[99.78467610700005,12.916663148000055],[99.79023652900008,12.91798656700007],[99.79126548300007,12.920757311000045],[99.78528242600004,12.926929175000055],[99.78305920500009,12.92824205100004],[99.78083754100004,12.93450923100005],[99.78421146400007,12.936035709000066],[99.78454450000004,12.940025224000067],[99.78867817100007,12.945666477000032],[99.79174647200006,12.947642859000041],[99.79215413800006,12.951943988000039],[99.78755193500007,12.962980702000038],[99.78302953600007,12.976151939000033],[99.78024865200007,12.98368484200006],[99.77423291100007,12.99432140500005],[99.77084694300004,12.998176135000051],[99.76485222900004,13.001736444000073],[99.75539989400005,13.008741697000062],[99.74954699600005,13.013809110000068],[99.74494716300006,13.014887995000038],[99.73986990300006,13.023550705000048],[99.73449969700005,13.029055808000066],[99.72709981500009,13.031382135000058],[99.72047823400004,13.028648610000062],[99.71602213300008,13.02935283200003],[99.70818162600006,13.027825478000068],[99.70464781700008,13.029975430000036],[99.69906339600004,13.03066253000003],[99.69327043400006,13.027918543000055],[99.67661574100003,13.031118384000024],[99.67035447200004,13.029619361000073],[99.66703986100003,13.030539555000075],[99.65424434900007,13.030739091000044],[99.64614503200005,13.031749041000069],[99.64277926100004,13.033912416000021],[99.64131303200008,13.040063577000069],[99.63948072400007,13.041308749000052],[99.63418488900004,13.04100247100007],[99.63045579700008,13.044016586000055],[99.62474123800007,13.040223851000064],[99.62452028000007,13.042677983000033],[99.62060691100004,13.045176023000067],[99.61984074600008,13.048902782000027],[99.61539879600008,13.051198212000031],[99.61415212300005,13.058230732000027],[99.61074364100006,13.060272155000064],[99.61014824500006,13.06523844000003],[99.60658661100007,13.065927370000054],[99.60322738400004,13.060191785000029],[99.59932198100006,13.055665282000064],[99.59580782200004,13.055104564000032],[99.59708422200003,13.053295816000059],[99.59505392200003,13.051122809000049],[99.58615229200007,13.047551569000063],[99.58234112600007,13.041248855000049],[99.57744258000008,13.036323082000024],[99.57829841200004,13.032467180000026],[99.57503204900007,13.032169646000057],[99.57342752400007,13.026913123000043],[99.56976230000004,13.03378875200002],[99.57046502300005,13.039068886000052],[99.56857868500003,13.039689986000042],[99.56830768300006,13.043196477000038],[99.56417855000007,13.046235528000068],[99.55945817800006,13.047628398000029],[99.56241363400005,13.053491845000053],[99.56046798400007,13.055625128000031],[99.56053268400007,13.062304047000055],[99.55777861800004,13.063453034000077],[99.55350277800005,13.063092836000067],[99.54770691200008,13.059040005000043],[99.54462733300005,13.055681032000052],[99.53960970700007,13.05363187100005],[99.53567622800006,13.048038062000046],[99.53032154300007,13.045997536000073],[99.52689084400004,13.04874812600002],[99.51756745800009,13.048980929000038],[99.51045486900006,13.043773868000073],[99.50916456700008,13.041035819000058],[99.51027402200003,13.038196135000021],[99.50808515400007,13.036214662000077],[99.49906801100008,13.032707405000053],[99.49631320700007,13.030235751000077],[99.48819212300003,13.033542017000059],[99.47820919400004,13.031992064000065],[99.47889432900007,13.029956695000067],[99.47635360400005,13.026093633000073],[99.47180703800007,13.02532151500003],[99.46799166700004,13.021469067000055],[99.46926216200006,13.020050895000054],[99.46490210800005,13.017494243000044],[99.46263994500003,13.02032390900007],[99.46068726600004,13.018253628000025],[99.45573452200006,13.018076498000028],[99.45771982300005,13.020196228000032],[99.45431213000006,13.023920898000029],[99.45382987400006,13.026440717000071],[99.45021303200008,13.026133701000049],[99.44744776300007,13.024128176000033],[99.44716615400006,13.030710415000044],[99.44492872600006,13.032223154000064],[99.44872479800006,13.033728145000055],[99.44863531500005,13.03723152300006],[99.44320110800004,13.037077374000035],[99.44108152200005,13.039361709000048],[99.44018980600003,13.044808059000047],[99.43755351900006,13.04320057700005],[99.43636795600008,13.046672210000054],[99.43205537000006,13.048558111000034],[99.43665836700006,13.050797815000067],[99.43905063500006,13.050390566000033],[99.43981702200006,13.055793369000071],[99.43634340200003,13.057985478000035],[99.43360190300007,13.063425109000036],[99.43585881800004,13.066368354000076],[99.43215041100007,13.065450290000058],[99.43043155700008,13.067670770000063],[99.42670133600006,13.067179897000074],[99.42449770800005,13.070002074000058],[99.42234630100006,13.069130204000032],[99.42054471600005,13.07115989600004],[99.41728544200004,13.069856726000069],[99.41706373800008,13.067858171000069],[99.40971130400004,13.065694123000071],[99.40509781200007,13.068090855000037],[99.40142694800005,13.066720610000061],[99.40168770200006,13.069773459000032],[99.39817818200004,13.07033318300006],[99.40110053000006,13.076264177000041],[99.39801220700008,13.078746580000029],[99.39888348300008,13.08661690200006],[99.39663841800007,13.089154501000053],[99.39528453000008,13.094241920000059],[99.39179582100007,13.09456976000007],[99.39141589600007,13.10049479600002],[99.38876142500004,13.102802335000035],[99.38736511300004,13.100479278000023],[99.38430424300009,13.101049206000027],[99.38596663600003,13.103505010000049],[99.37949666500003,13.105922285000076],[99.37988656600004,13.10943194400005],[99.37589841700009,13.10983157000004],[99.37658233100007,13.113754975000063],[99.37383974800008,13.116189131000056],[99.36909893400008,13.118056570000022],[99.36893841700004,13.120103028000074],[99.36453769300005,13.122066937000056],[99.35930445000008,13.125854546000028],[99.35950474400005,13.12741952400006],[99.35619554400006,13.131204388000072],[99.35284585100004,13.130812416000026],[99.35259853500008,13.13548744700006],[99.34984107900004,13.136879273000034],[99.34591185800008,13.134631618000071],[99.34311711600009,13.137090852000028],[99.34278219400005,13.140816709000035],[99.33823960700005,13.143349927000031],[99.33240622300008,13.136893963000034],[99.32628000200003,13.136640219000071],[99.31942486000008,13.131974118000073],[99.31540412000004,13.131953760000044],[99.31142369300005,13.12976048400003],[99.30934939400004,13.126813867000067],[99.30574832300005,13.124953345000051],[99.30566845300007,13.123016893000056],[99.29712579900007,13.121212692000029],[99.29051812900008,13.113862174000076],[99.28538019200005,13.111572747000025],[99.27688081300005,13.105645783000057],[99.27333223600004,13.100152113000036],[99.26191668400008,13.102108250000072],[99.25571489800006,13.097748187000036],[99.25545336300007,13.094570071000021],[99.25166889100007,13.092087349000053],[99.24572325500009,13.091929942000036],[99.24086065600005,13.089896016000068],[99.24148548300008,13.08475048400004],[99.24552359600006,13.083830488000046],[99.24899103800004,13.080187766000051],[99.24790282200007,13.077408845000036],[99.25222867800005,13.076434151000058],[99.25181933700009,13.072701606000066],[99.25510760600008,13.071938352000075],[99.25263094000007,13.07028624700007],[99.25975055400005,13.063497339000037],[99.25752828000009,13.059816313000056],[99.26187838900006,13.059548852000034],[99.26260019300008,13.053124904000072],[99.26796708000006,13.05060799000006],[99.27180071000004,13.050518557000032],[99.26956880100005,13.04843100100004],[99.27051192600004,13.044794532000026],[99.27209612200005,13.046454891000053],[99.27321840400003,13.04109507100003],[99.27484549800005,13.04298847900003],[99.27101831900006,13.034106587000053],[99.26882566600005,13.032980842000029],[99.26301804800005,13.032664508000039],[99.24976562900008,13.034457295000038],[99.23935664300006,13.038918490000071],[99.23888377700007,13.036700819000032],[99.24336565000004,13.031406794000077],[99.24365619100007,13.024028394000027],[99.23915003300004,13.018549276000044],[99.23086489700006,13.013667019000025],[99.23101722700005,13.011131799000054],[99.22806089600004,13.006623954000077],[99.22174773800003,13.005394721000073],[99.21610753300007,13.000335217000043],[99.21254462400003,13.000880374000076],[99.21174311300007,12.997552445000053],[99.20760511200007,12.989874446000044],[99.20622247500006,12.989453818000072],[99.20125453900005,12.980661809000026],[99.19839528800009,12.977350480000041],[99.19486156000005,12.975560836000056],[99.18753519000006,12.975581283000054]]]},"properties":{"Shape_Leng":2.75235225942,"Shape_Area":0.214943667971,"ADM2_EN":"Kaeng Krachan","ADM2_TH":"แก่งกระจาน","ADM2_PCODE":"TH7608","ADM1_EN":"Phetchaburi","ADM1_TH":"เพชรบุรี","ADM1_PCODE":"TH76","ADM0_EN":"Thailand","ADM0_TH":"ประเทศไทย","ADM0_PCODE":"TH"}}
]}