{"type":"FeatureCollection", "features": [
{"type":"Feature","geometry":{"type":"Polygon","coordinates":[[[100.27503052700007,18.259370747000048],[100.27095841200008,18.260796722000066],[100.27007644500009,18.258987730000058],[100.26228890000004,18.256551925000053],[100.26095103100005,18.254814415000055],[100.24949877200004,18.25988115900003],[100.24898094500008,18.26430460100005],[100.24498378900006,18.267082833000075],[100.24551217700008,18.26985770700003],[100.24283147400007,18.27008479600005],[100.24005414600003,18.266437203000066],[100.23297668400005,18.267848666000077],[100.22960774000006,18.265548758000023],[100.22908470000004,18.268683459000044],[100.22259875700007,18.266203822000023],[100.21671575300007,18.259757312000033],[100.21064203500003,18.258425269000043],[100.20358130400007,18.258633297000074],[100.20298492600006,18.255575109000063],[100.19941735800006,18.255098934000046],[100.20052743500008,18.252476084000023],[100.19644743800006,18.251112788000057],[100.19859767200006,18.245809227000052],[100.19226854000004,18.24588453700005],[100.18867576100007,18.241756977000023],[100.18972779500007,18.240190036000058],[100.18552885500009,18.23522239700003],[100.18851264200003,18.236029372000075],[100.18970218600003,18.233146774000033],[100.18637119500005,18.23332630300007],[100.18268589500008,18.231009560000075],[100.17923753000008,18.232648398000038],[100.18045980500005,18.23615830800003],[100.17495569000005,18.24307242900005],[100.17827240400004,18.245496338000066],[100.17486857500006,18.24690331000005],[100.16667015500008,18.246133108000038],[100.16790826100004,18.24190982300007],[100.16662386200005,18.237474276000057],[100.16486971200004,18.238500225000053],[100.16180572500008,18.24967229400005],[100.15640358800005,18.25189626200006],[100.14892804800007,18.25835731600006],[100.14303332500003,18.258417176000023],[100.13389217700006,18.25649849900003],[100.12652179000008,18.262041838000073],[100.12170402500004,18.26367827400003],[100.11839524700008,18.268031158000042],[100.10942953600005,18.269991236000067],[100.10649787400007,18.273492357000066],[100.10881890400003,18.277774961000034],[100.09881280000008,18.278601450000053],[100.09229890400007,18.275624351000033],[100.09004246900008,18.276669191000053],[100.08836151500009,18.276202743000056],[100.08549612400009,18.268766604000064],[100.08555850200008,18.255503132000058],[100.08481691400004,18.25287273400005],[100.07818393300005,18.255421012000056],[100.07633906200005,18.254186787000037],[100.07172562700003,18.245399657000064],[100.07273874000003,18.23729107500003],[100.07681041700005,18.237515615000063],[100.07530914500006,18.231060813000056],[100.07158168600006,18.22681023000007],[100.06924738700008,18.22710352200005],[100.06948095500007,18.223005397000065],[100.06667559800007,18.21995686400004],[100.06330088900006,18.210279627000034],[100.06190360500005,18.20348338900004],[100.06321945000008,18.19607062800003],[100.06354988800007,18.188702885000055],[100.06068112600008,18.182700441000065],[100.05677568300007,18.179963419000046],[100.05559139500008,18.168771579000065],[100.05221922000004,18.164528759000063],[100.04952816000008,18.16432896200007],[100.04767079500004,18.15848234500004],[100.04312916200007,18.157711092000056],[100.04108326800008,18.152155211000036],[100.03660663600004,18.147542134000048],[100.04220065900006,18.14642894700006],[100.04863596100006,18.141640074000065],[100.04785314600008,18.136344356000052],[100.05305986000008,18.13372516900006],[100.05937843600003,18.134089682000024],[100.06328312600004,18.136544598000057],[100.06603878100003,18.128392830000053],[100.07141287100006,18.125090923000073],[100.07292107000006,18.126369141000055],[100.07769333200008,18.124457736000068],[100.07891755600008,18.11950912100002],[100.08257883200008,18.11819414000007],[100.08872334900008,18.119715075000045],[100.09214748700003,18.119357299000058],[100.10388282100007,18.12072088700006],[100.11127982900007,18.125400459000048],[100.11913007100009,18.127776657000027],[100.13185666200008,18.121130011000048],[100.13799955900004,18.115815403000056],[100.14814866900008,18.111837706000074],[100.15039788700005,18.10881256500005],[100.15609065200005,18.105428490000065],[100.16288420000006,18.102926058000037],[100.16740727200005,18.103166608000038],[100.16812736100007,18.099880019000068],[100.17098475100005,18.10069793300005],[100.18350781400005,18.08791442000006],[100.18097147200007,18.086988001000066],[100.18373295100008,18.076929249000045],[100.18778767500004,18.07309130400006],[100.19153965700008,18.07205351300007],[100.19135574300009,18.06961442000005],[100.19437105800006,18.06821018100004],[100.19607186900004,18.070588565000037],[100.20463795800003,18.068726593000065],[100.20704329200004,18.063860593000072],[100.21116880300008,18.06227137700006],[100.21594993500008,18.05273561000007],[100.21793597500005,18.051843141000063],[100.22079584600004,18.044274746000042],[100.22510049500005,18.04519040300005],[100.23262157700003,18.038524538000047],[100.23362422500009,18.03490224600006],[100.23954236900005,18.02774222000005],[100.23513399600006,18.02620476800007],[100.22833699400007,18.02193451100004],[100.22583878900008,18.023249020000037],[100.22257219300008,18.020970127000055],[100.21982016300007,18.021839485000044],[100.21762323500008,18.017537464000043],[100.22024166100005,18.01389264000005],[100.22581852200005,18.011511203000055],[100.22465199000004,18.006688910000037],[100.21995052200003,18.006040084000063],[100.22662170900009,17.998883258000035],[100.22506447900008,17.997213145000046],[100.22755336000006,17.991482296000072],[100.22965913700006,17.990227443000038],[100.22967992400004,17.984366845000068],[100.23215541300004,17.982179520000045],[100.23802121400007,17.980787156000076],[100.24152592600007,17.982043111000053],[100.24880552300004,17.979857496000022],[100.25460409700008,17.981443649000028],[100.26020223400008,17.979181418000053],[100.26330485000005,17.973765203000028],[100.26607867400008,17.97216793700005],[100.26983273400003,17.964310542000078],[100.26899604000005,17.957283603000064],[100.27185651100007,17.955677785000034],[100.27620351200005,17.957669262000024],[100.27978131300006,17.957462580000026],[100.28633455400006,17.94905953500006],[100.28720272100009,17.93716696900003],[100.29941381100008,17.939088472000037],[100.30117131400004,17.936626619000037],[100.30682403900005,17.933414518000063],[100.30909030500004,17.928103715000077],[100.30880140700003,17.92018151900004],[100.31194118400003,17.91678964500005],[100.31301701300004,17.909218598000052],[100.31726834800008,17.908829533000073],[100.32107901100005,17.90151780700006],[100.32504768700005,17.896618880000062],[100.32514943600006,17.89196877300003],[100.33024763600008,17.89302223800007],[100.33484299000008,17.88916400000005],[100.33698557100007,17.891933624000046],[100.34208804500008,17.89445498200007],[100.34250930100006,17.900205373000063],[100.34892524700007,17.909283121000044],[100.34768703000003,17.915229241000077],[100.35362654600004,17.920951880000075],[100.35867197000005,17.92319610000004],[100.35971881700004,17.927371922000077],[100.35851861200007,17.93222592500007],[100.36003857600008,17.936302125000054],[100.35469295000007,17.943004406000057],[100.35582732400007,17.947175147000053],[100.35458285400006,17.952605541000025],[100.35588950800008,17.955338770000026],[100.35636455600007,17.962967887000048],[100.35367746400004,17.97255223800005],[100.35136595900008,17.97787934100006],[100.35037815700008,17.983298172000048],[100.35619150000008,17.98545228100005],[100.36494330200009,17.99116351200007],[100.36932052600008,17.996074417000045],[100.37605033600005,18.000225759000045],[100.37915085300006,18.003839581000022],[100.38154609100008,18.011585839000077],[100.38820880500003,18.01465810600007],[100.39035748500004,18.018789600000048],[100.39400220500005,18.021012057000064],[100.40064534500004,18.020895951000057],[100.40806194600003,18.024005835000025],[100.41429748700006,18.021697394000057],[100.41743529200005,18.02732012000007],[100.41772912700009,18.03026324700005],[100.41573080200004,18.03723799900007],[100.41226248800007,18.040938107000045],[100.40864257000004,18.047182388000067],[100.40790974800007,18.051799419000076],[100.40915200600006,18.05708067100005],[100.40337465400006,18.065252197000063],[100.40984215600008,18.075123016000077],[100.40097423500004,18.08336981700006],[100.39712244500004,18.08310603800004],[100.39583724100004,18.085818964000055],[100.39657193600004,18.09613969000003],[100.40002831700008,18.10024755200004],[100.39745841000007,18.10797217000004],[100.39360715000004,18.11296190300004],[100.39229213800007,18.11847707900006],[100.39643374600007,18.12766638900007],[100.39790559900007,18.134939664000058],[100.39949911600007,18.137903771000026],[100.41003010400004,18.141606801000023],[100.41396193000008,18.149225564000062],[100.41437905900005,18.153567800000076],[100.40590545500004,18.15189384300004],[100.39881288700008,18.154344696000067],[100.39039789500004,18.15902440800005],[100.38338278700007,18.159526826000047],[100.38173295900003,18.158126758000037],[100.37529658300008,18.158448512000064],[100.37032582300009,18.15595607100005],[100.36305817400006,18.157181336000065],[100.35715557600008,18.163817424000058],[100.35034169700003,18.167256336000037],[100.34738318200004,18.166445746000022],[100.33481984000008,18.172081813000034],[100.33142913700004,18.17217197100007],[100.32961426000008,18.17484804700007],[100.32445742400006,18.174228518000064],[100.32061680200007,18.181040266000025],[100.31736374000008,18.180681931000038],[100.31226987700006,18.182577208000055],[100.30327582000007,18.180460636000078],[100.30123874100008,18.185272870000063],[100.29905229600007,18.185590150000053],[100.29435948600008,18.189807720000033],[100.29199878600008,18.19595711000005],[100.28959791900007,18.19289092100007],[100.28505985800007,18.194348498000068],[100.28285973000004,18.198832848000052],[100.26796097100004,18.210988620000023],[100.26747884100007,18.21240345700005],[100.27329931800006,18.213229629000068],[100.26827449800004,18.222979812000062],[100.27031446600006,18.230422188000034],[100.27040819000007,18.238013109000065],[100.27642754800007,18.250820454000063],[100.27658547300007,18.257691368000053],[100.27503052700007,18.259370747000048]]]},"properties":{"Shape_Leng":1.71908135174,"Shape_Area":0.0678298268996,"ADM2_EN":"Mueang Phrae","ADM2_TH":"เมืองแพร่","ADM2_PCODE":"TH5401","ADM1_EN":"Phrae","ADM1_TH":"แพร่","ADM1_PCODE":"TH54","ADM0_EN":"Thailand","ADM0_TH":"ประเทศไทย","ADM0_PCODE":"TH"}},
{"type":"Feature","geometry":{"type":"Polygon","coordinates":[[[100.41437905900005,18.153567800000076],[100.41849791500005,18.155483657000048],[100.42129437200003,18.153851161000034],[100.43588084000004,18.152282342000035],[100.44028303900006,18.152926001000026],[100.44699117100004,18.158546974000046],[100.44799624800004,18.165235193000058],[100.45243686200007,18.173122974000023],[100.45269916700005,18.180831058000024],[100.45141855600008,18.183586598000034],[100.45558865800007,18.190789794000068],[100.46000384100006,18.194833003000042],[100.45759890300008,18.207443639000076],[100.45405139700006,18.214648588000045],[100.45856793900003,18.217431047000048],[100.46183763900007,18.223115291000056],[100.46121381700004,18.230095391000077],[100.46788069700006,18.237185762000024],[100.46809108300005,18.24490916700006],[100.47006363000008,18.24607406800004],[100.47376691900007,18.256855533000078],[100.47679292200007,18.26103816500006],[100.47563237300005,18.263596825000036],[100.47834806500003,18.267579526000077],[100.48040729900003,18.26748352800007],[100.48543128700004,18.27106472500003],[100.48774878200004,18.275387514000045],[100.49367317600007,18.27799310300003],[100.49219028000005,18.284674490000043],[100.48894729600005,18.28523447200007],[100.48349832600007,18.29004040600006],[100.48339933600005,18.295568896000077],[100.48630222900005,18.297926155000027],[100.48499462700005,18.304406547000042],[100.48249128500004,18.305389742000045],[100.48172514000004,18.31311588600005],[100.47983351200008,18.318518294000057],[100.48106812200007,18.323578613000052],[100.48502856900006,18.32474737600006],[100.48840978200008,18.329729391000058],[100.48985425200004,18.33480849600005],[100.49254546100008,18.33878593000003],[100.48720671600006,18.342234054000073],[100.48281417200008,18.341921971000033],[100.48352291100008,18.346691860000078],[100.48145602300008,18.349405500000046],[100.49780186600003,18.352982059000055],[100.49821802500009,18.35741537100006],[100.50213871900007,18.358865242000036],[100.50573538900005,18.36277304600003],[100.50685371800006,18.372027005000064],[100.51050085900005,18.376117264000072],[100.51037471500007,18.38173738100005],[100.51344569700007,18.388498815000048],[100.51776637100005,18.39256885900005],[100.52697616700004,18.390561493000064],[100.53285342800007,18.392007357000068],[100.53639626300009,18.390819945000032],[100.53715617500006,18.395665948000044],[100.53916541700005,18.397967334000043],[100.54118657600009,18.40486095600005],[100.54622297000009,18.407144457000072],[100.54777742000005,18.414133251000067],[100.55057757000009,18.417043601000046],[100.55117837800003,18.42315238200007],[100.54990911400006,18.426827811000067],[100.55126659100006,18.42903043800004],[100.54817349600006,18.432280251000066],[100.54737210800005,18.43747320600005],[100.54807024500008,18.443609440000046],[100.55057927000007,18.449299419000056],[100.54878125200008,18.45928936200005],[100.54561898600008,18.462279973000022],[100.54661104500008,18.465212953000048],[100.54325219600008,18.469197910000048],[100.54380591200004,18.472215793000032],[100.54299298200004,18.483562449000033],[100.54186485200006,18.48922513900004],[100.53665078000006,18.491318766000063],[100.53417047600004,18.490318528000046],[100.53233812500008,18.485642021000046],[100.52442607300009,18.48282240800006],[100.52378684300004,18.480007302000047],[100.51691860600005,18.475515100000052],[100.51285744100005,18.47673364800005],[100.50606636500004,18.473085404000074],[100.50297395300004,18.475503699000058],[100.49392928900005,18.474061152000047],[100.48190781800008,18.48242123700004],[100.48037057500005,18.48625876500006],[100.47734198200004,18.488609129000054],[100.47676123800005,18.494743304000053],[100.47284642800008,18.492314350000072],[100.46018084900004,18.490539240000032],[100.45456879900007,18.496058194000057],[100.44559875900006,18.495399536000036],[100.44406015600003,18.489874608000036],[100.43801604000004,18.496947428000055],[100.43684909200005,18.50189794100004],[100.42851786400007,18.49739400800007],[100.42187152900004,18.495628440000075],[100.41832690700005,18.49007925500007],[100.41877309800009,18.486175179000043],[100.41466628900008,18.480520623000075],[100.41115522200005,18.483689079000044],[100.39931541800007,18.48575016800004],[100.39988735600008,18.481477562000066],[100.40557175800006,18.477562395000064],[100.40503152600007,18.474890625000057],[100.40784126300008,18.471727497000074],[100.41547570500006,18.465852566000024],[100.41643377500009,18.463751321000075],[100.42310194500004,18.459046732000047],[100.42151742200008,18.45862523900007],[100.41166901400004,18.450086706000036],[100.41249625100005,18.444366900000034],[100.40973292300004,18.440425429000072],[100.40678143800005,18.438852096000062],[100.39890044800006,18.440995643000065],[100.39416980300007,18.440809313000045],[100.39169294200008,18.438901302000033],[100.39233514100005,18.434755808000034],[100.39596813700007,18.426379144000066],[100.39420611400004,18.42458147600007],[100.39566177300009,18.42080564200006],[100.39268491700005,18.419296804000055],[100.38320548700005,18.423849321000034],[100.38120367600004,18.42886878400003],[100.37610539900004,18.431668605000027],[100.37506625600008,18.435300746000053],[100.36848637600008,18.435680383000033],[100.36471473200004,18.438602509000077],[100.35455069300008,18.440741224000078],[100.35343748000008,18.442610623000064],[100.33969922600005,18.44307641200004],[100.34130564900005,18.45239830400004],[100.33056131400008,18.456561754000063],[100.33091426800007,18.460661732000062],[100.32783206900007,18.461121604000027],[100.32445838100006,18.465551520000076],[100.31998268700005,18.466912196000067],[100.31758047300008,18.465293346000067],[100.31365104200006,18.465727255000047],[100.31136726800008,18.46161574100006],[100.30109954300008,18.456405896000035],[100.29700975100008,18.452096467000047],[100.29053045400008,18.451893288000065],[100.28178899600005,18.454992196000035],[100.28048503800005,18.45177161400005],[100.27289305900007,18.45187468000006],[100.26895362800008,18.453021598000078],[100.26758492700009,18.446913084000073],[100.26846415100005,18.444712492000065],[100.25848398100004,18.44115081600006],[100.25930495100005,18.438172371000064],[100.25455300400006,18.434232310000027],[100.25472655300007,18.430015640000022],[100.25204882800006,18.430399299000044],[100.24191435200004,18.416886220000038],[100.24027601100005,18.412761567000075],[100.23464584800007,18.41104176400006],[100.23286690400005,18.406829837000032],[100.23361612100007,18.40137366500005],[100.23240022400006,18.398833024000055],[100.22731403900008,18.397943285000053],[100.22434422300006,18.395105949000026],[100.22404044700005,18.39234168100006],[100.22008756300005,18.390349240000035],[100.21310870300005,18.382206754000038],[100.21089307100004,18.375618157000076],[100.20827322300005,18.373831965000022],[100.20750033800005,18.36955374100006],[100.20953924600008,18.368264974000056],[100.20741213900004,18.365807219000033],[100.21364972400005,18.355002784000078],[100.21224503000008,18.352495240000053],[100.21440096700007,18.35081221100006],[100.21549843500009,18.34526313300006],[100.21222028700004,18.33246925900005],[100.20944292000007,18.333101637000027],[100.20717231300006,18.326822527000047],[100.20479184700008,18.32628519800005],[100.20231708700004,18.32220265500007],[100.20545957100006,18.317537273000028],[100.21939396000005,18.312187333000054],[100.22382551200008,18.307550374000073],[100.23002636300004,18.304550753000058],[100.23085112100006,18.295399175000057],[100.23700179900004,18.293923170000028],[100.24113974200009,18.290716157000077],[100.25484644600004,18.28355153600006],[100.25854468200004,18.288389703000064],[100.26460443500008,18.288189464000027],[100.26517455300007,18.285077030000025],[100.27464524000004,18.278892083000073],[100.27813684300008,18.27343267400005],[100.27930415800006,18.266550421000034],[100.27801945900006,18.259642194000037],[100.27503052700007,18.259370747000048],[100.27658547300007,18.257691368000053],[100.27642754800007,18.250820454000063],[100.27040819000007,18.238013109000065],[100.27031446600006,18.230422188000034],[100.26827449800004,18.222979812000062],[100.27329931800006,18.213229629000068],[100.26747884100007,18.21240345700005],[100.26796097100004,18.210988620000023],[100.28285973000004,18.198832848000052],[100.28505985800007,18.194348498000068],[100.28959791900007,18.19289092100007],[100.29199878600008,18.19595711000005],[100.29435948600008,18.189807720000033],[100.29905229600007,18.185590150000053],[100.30123874100008,18.185272870000063],[100.30327582000007,18.180460636000078],[100.31226987700006,18.182577208000055],[100.31736374000008,18.180681931000038],[100.32061680200007,18.181040266000025],[100.32445742400006,18.174228518000064],[100.32961426000008,18.17484804700007],[100.33142913700004,18.17217197100007],[100.33481984000008,18.172081813000034],[100.34738318200004,18.166445746000022],[100.35034169700003,18.167256336000037],[100.35715557600008,18.163817424000058],[100.36305817400006,18.157181336000065],[100.37032582300009,18.15595607100005],[100.37529658300008,18.158448512000064],[100.38173295900003,18.158126758000037],[100.38338278700007,18.159526826000047],[100.39039789500004,18.15902440800005],[100.39881288700008,18.154344696000067],[100.40590545500004,18.15189384300004],[100.41437905900005,18.153567800000076]]]},"properties":{"Shape_Leng":1.54093113053,"Shape_Area":0.0739519738455,"ADM2_EN":"Rong Kwang","ADM2_TH":"ร้องกวาง","ADM2_PCODE":"TH5402","ADM1_EN":"Phrae","ADM1_TH":"แพร่","ADM1_PCODE":"TH54","ADM0_EN":"Thailand","ADM0_TH":"ประเทศไทย","ADM0_PCODE":"TH"}},
{"type":"Feature","geometry":{"type":"Polygon","coordinates":[[[100.09004246900008,18.276669191000053],[100.09108517600004,18.28591132400004],[100.08485080900005,18.298807417000035],[100.08024533400004,18.300559144000033],[100.07959430800008,18.303581846000043],[100.07524890200006,18.30990504500005],[100.07851752600004,18.315544961000057],[100.08207369500008,18.31746448100006],[100.08243819000006,18.321996505000072],[100.07666972100009,18.32840404500007],[100.07247518300005,18.336272766000036],[100.07334538000003,18.345212502000038],[100.07517575400004,18.348789302000057],[100.06829448100007,18.348112954000044],[100.05957426900005,18.349168129000077],[100.05776841900007,18.350616193000064],[100.06483486500008,18.36180814900007],[100.06020931000006,18.36066991000007],[100.05589108600009,18.362206467000078],[100.05470554800007,18.35896986800003],[100.04630112400008,18.36057939500006],[100.04456062000008,18.362720069000034],[100.03985299000004,18.36299396000004],[100.03601585000007,18.36507120400006],[100.03512487700004,18.369244022000032],[100.03570722200004,18.374838200000056],[100.04026490600006,18.385922177000054],[100.03165207200004,18.38688748100003],[100.03029121600008,18.38477339700006],[100.02501704200006,18.384973591000062],[100.02427652100005,18.388107800000057],[100.02117056000009,18.388114340000072],[100.01888601500008,18.39179000400003],[100.01300378700006,18.393270763000032],[100.00915530200007,18.396342378000043],[100.00483429000008,18.396411585000067],[99.99920720100005,18.402593799000044],[99.99662503500008,18.402960784000072],[99.98927672000008,18.39722286800003],[99.98731875200008,18.391751777000025],[99.97680896700007,18.39088987200006],[99.96779470900003,18.394021061000046],[99.96689749100005,18.392553934000034],[99.97062627700006,18.390095861000077],[99.96649955600009,18.38310287300004],[99.96041342600006,18.383792904000074],[99.95575142100006,18.377290166000023],[99.95012999100004,18.364463621000027],[99.95091383100004,18.356311808000044],[99.94191435300007,18.354299764000075],[99.93978857600007,18.351844784000036],[99.93831716200003,18.345273040000052],[99.93907152100007,18.34142078700006],[99.93712301500005,18.337467907000075],[99.93830588900005,18.33408688700007],[99.93576934200007,18.327072072000078],[99.93020933900004,18.319966488000034],[99.92699109300008,18.313382104000027],[99.92117428900008,18.30689519500004],[99.91971881700005,18.300937719000046],[99.91363196500004,18.292173562000073],[99.91153784900007,18.28632155200006],[99.90805870100007,18.283994317000065],[99.90687505500006,18.28051904000006],[99.89614348900005,18.279715122000027],[99.89083760400007,18.281742432000044],[99.88112233500004,18.28265773800007],[99.87826662900005,18.279406143000074],[99.87202307100006,18.277915778000022],[99.86358012300008,18.279919396000025],[99.85759805600009,18.28390885500005],[99.85654025300005,18.278755094000076],[99.85862098400008,18.27566841500004],[99.85626600000006,18.273361099000056],[99.85497991400007,18.26856146800003],[99.85186451800007,18.26277600000003],[99.84983657800007,18.26183502600003],[99.85160834900006,18.257662651000032],[99.84961920500007,18.254867542000056],[99.84586694700005,18.25626311700006],[99.84391839100005,18.254979284000058],[99.83942321600006,18.24462090000003],[99.83456227200008,18.240267740000036],[99.83409610000007,18.236248850000038],[99.82895370900007,18.23747891900007],[99.82166306100004,18.237510326000063],[99.81996950800004,18.23464548900006],[99.81030106800006,18.226592873000072],[99.80528047100006,18.218290418000038],[99.80159974800006,18.214955988000042],[99.80147793100008,18.20971915900003],[99.79961652100008,18.205365307000022],[99.79935785600009,18.199363841000036],[99.79045718900005,18.19125126700004],[99.78883191900007,18.18503015400006],[99.78622086700005,18.18396107500007],[99.78355619900003,18.178845128000034],[99.77932353900007,18.175121353000065],[99.77750909800005,18.171115643000064],[99.77363957400007,18.166973660000053],[99.77206368600008,18.162558815000068],[99.75892700900005,18.148080701000026],[99.75386748600005,18.13995537900007],[99.75626370900005,18.136306194000042],[99.75447078600007,18.12996677800004],[99.76201626700004,18.12342329300003],[99.75989702900006,18.120492030000037],[99.75496078300006,18.12000845600005],[99.74671053600008,18.111427606000063],[99.73946447400004,18.108827766000047],[99.73606759300009,18.102813870000034],[99.73448392000006,18.09515456200006],[99.72693970200004,18.087435905000063],[99.72287769500008,18.075436274000026],[99.72006687800007,18.073635331000048],[99.71982770900007,18.07008496800006],[99.71633149300004,18.071571212000038],[99.70930935600006,18.068774997000048],[99.70447650700004,18.070374340000058],[99.70067490200006,18.067099450000057],[99.69322733400008,18.066247375000046],[99.68939425000008,18.06300513800005],[99.69179405700004,18.056602122000072],[99.69062987900008,18.05488339900006],[99.68427468900006,18.051723467000045],[99.68021859300006,18.045796351000035],[99.67225532000003,18.043859558000065],[99.66882569900008,18.041677436000043],[99.66960057600005,18.03398711500006],[99.67072083400006,18.032411566000064],[99.68135118000004,18.025675412000055],[99.68765853600007,18.017103776000056],[99.68771585000007,18.01132762800006],[99.68935897900008,18.008001877000027],[99.68577963100006,18.001360126000066],[99.68667018200006,17.993831897000064],[99.67833193700005,17.985082306000038],[99.68046074200004,17.983468559000073],[99.67832100000004,17.979893477000076],[99.67754877000004,17.974374632000035],[99.67510577600007,17.97262550000005],[99.67668282600005,17.969894330000045],[99.67445367600004,17.966219180000053],[99.67471220100003,17.958417333000057],[99.67090473100006,17.958449074000043],[99.66861330100005,17.955870135000055],[99.66458216600006,17.954501178000044],[99.66831401500008,17.95265194700005],[99.66577521400006,17.94891192800003],[99.66154573100005,17.946509005000053],[99.65215830700004,17.943655343000046],[99.64603130400008,17.944583462000026],[99.63680245000006,17.94835959200003],[99.63399210100005,17.946809161000033],[99.63542620200008,17.94446503100005],[99.64183976500004,17.941503672000067],[99.64270494700008,17.93698812200006],[99.64104396800008,17.93562573500003],[99.63133947800009,17.93322856700007],[99.63314163500007,17.929246927000065],[99.63218040900006,17.924767933000055],[99.63539669600004,17.91563430800005],[99.63259153200005,17.912920517000032],[99.63515387300004,17.91042224000006],[99.64241045000006,17.910497732000067],[99.65007369800009,17.903796125000042],[99.65433638100006,17.901513515000033],[99.65675802100009,17.904271945000062],[99.66556594000008,17.904210720000037],[99.66727725100009,17.905519585000036],[99.67583955400005,17.90373386300007],[99.68558313700004,17.90581232200003],[99.68843375000006,17.905297279000024],[99.69542261100008,17.907032575000073],[99.69839646800006,17.90657426200005],[99.70018426200005,17.909894809000036],[99.70759848300008,17.912658365000027],[99.71287721600004,17.91259119500006],[99.71618870700007,17.91468450800005],[99.72140403300006,17.91387594200006],[99.73389791700004,17.919842161000076],[99.73911939600004,17.924025846000063],[99.75592124000008,17.925916722000068],[99.76572047900004,17.928401561000044],[99.77172905100008,17.927012993000062],[99.77774772400005,17.929586053000037],[99.78467197100008,17.930482168000026],[99.78600141400005,17.92765543300004],[99.79117627300008,17.924732798000036],[99.80836120800006,17.92760293200007],[99.80981364500008,17.929821809000032],[99.82133575800003,17.927294844000073],[99.82731117700007,17.924550236000073],[99.83176527700004,17.92658168500003],[99.83443107500005,17.924078965000035],[99.83746191000006,17.924065936000034],[99.84650313700007,17.927020205000076],[99.84968159600004,17.93292745100007],[99.85379515400007,17.933892296000067],[99.85604337100006,17.938653267000063],[99.86002838700006,17.93754136000007],[99.86323915000008,17.934830803000068],[99.86418074700003,17.938670358000024],[99.86801629100006,17.938867445000028],[99.87135272200004,17.931626676000064],[99.87680672400006,17.925381531000028],[99.88295809400006,17.92624139800006],[99.88696451100009,17.931044843000052],[99.89274643000005,17.935540678000052],[99.88832901400008,17.940902263000055],[99.88453854900007,17.941014453000037],[99.88884217700007,17.946215967000057],[99.89482064000003,17.948268622000057],[99.90350273700005,17.95584757100005],[99.90963627400004,17.956940727000074],[99.91760921800005,17.966103107000038],[99.92110264700005,17.967295671000045],[99.92057468800004,17.97016614200004],[99.92538168600004,17.973644611000054],[99.93257058400008,17.97603188100004],[99.93576460000008,17.982110259000024],[99.94297521400006,17.987893860000042],[99.94172933700008,17.992034784000055],[99.94297415500006,17.994999893000056],[99.94863308700008,17.99737341900004],[99.95842137100004,18.005062233000046],[99.96101484400003,18.008313491000024],[99.96243068900009,18.017800426000065],[99.96905407500009,18.02200904700004],[99.96949774000007,18.02666508300007],[99.97175320200006,18.032888521000075],[99.97450937300005,18.033502915000042],[99.97425846900006,18.03818209800005],[99.97217582300004,18.043810327000074],[99.97402441100007,18.04554782500003],[99.97260381500007,18.050608098000055],[99.97575162100009,18.052626797000073],[99.97916715600007,18.057126021000045],[99.97648578200005,18.064631689000066],[99.97694185600005,18.068936896000025],[99.97575226200007,18.075739114000044],[99.98077953500007,18.083985202000065],[99.97757356100004,18.086080091000042],[99.97797461900007,18.089175658000045],[99.98051095900007,18.089325461000044],[99.98620503000006,18.092593975000057],[99.98955644400007,18.097999283000036],[99.98937187100006,18.10173721700005],[99.99477672200004,18.102427885000054],[100.00327794700007,18.10811695500007],[100.00417380900006,18.11388945400006],[100.01125106200004,18.114943708000055],[100.01183738300006,18.12251395800007],[100.01599594700008,18.129146952000042],[100.02019893400006,18.12901854200004],[100.02564724100006,18.137108529000045],[100.02962052100008,18.135755431000064],[100.03780967400007,18.14106268100005],[100.03660663600004,18.147542134000048],[100.04108326800008,18.152155211000036],[100.04312916200007,18.157711092000056],[100.04767079500004,18.15848234500004],[100.04952816000008,18.16432896200007],[100.05221922000004,18.164528759000063],[100.05559139500008,18.168771579000065],[100.05677568300007,18.179963419000046],[100.06068112600008,18.182700441000065],[100.06354988800007,18.188702885000055],[100.06321945000008,18.19607062800003],[100.06190360500005,18.20348338900004],[100.06330088900006,18.210279627000034],[100.06667559800007,18.21995686400004],[100.06948095500007,18.223005397000065],[100.06924738700008,18.22710352200005],[100.07158168600006,18.22681023000007],[100.07530914500006,18.231060813000056],[100.07681041700005,18.237515615000063],[100.07273874000003,18.23729107500003],[100.07172562700003,18.245399657000064],[100.07633906200005,18.254186787000037],[100.07818393300005,18.255421012000056],[100.08481691400004,18.25287273400005],[100.08555850200008,18.255503132000058],[100.08549612400009,18.268766604000064],[100.08836151500009,18.276202743000056],[100.09004246900008,18.276669191000053]]]},"properties":{"Shape_Leng":1.93551260591,"Shape_Area":0.108753523988,"ADM2_EN":"Long","ADM2_TH":"ลอง","ADM2_PCODE":"TH5403","ADM1_EN":"Phrae","ADM1_TH":"แพร่","ADM1_PCODE":"TH54","ADM0_EN":"Thailand","ADM0_TH":"ประเทศไทย","ADM0_PCODE":"TH"}},
{"type":"Feature","geometry":{"type":"Polygon","coordinates":[[[100.03660663600004,18.147542134000048],[100.03780967400007,18.14106268100005],[100.02962052100008,18.135755431000064],[100.02564724100006,18.137108529000045],[100.02019893400006,18.12901854200004],[100.01599594700008,18.129146952000042],[100.01183738300006,18.12251395800007],[100.01125106200004,18.114943708000055],[100.00417380900006,18.11388945400006],[100.00327794700007,18.10811695500007],[99.99477672200004,18.102427885000054],[99.98937187100006,18.10173721700005],[99.98955644400007,18.097999283000036],[99.98620503000006,18.092593975000057],[99.98051095900007,18.089325461000044],[99.97797461900007,18.089175658000045],[99.97757356100004,18.086080091000042],[99.98077953500007,18.083985202000065],[99.97575226200007,18.075739114000044],[99.97694185600005,18.068936896000025],[99.97648578200005,18.064631689000066],[99.97916715600007,18.057126021000045],[99.97575162100009,18.052626797000073],[99.97260381500007,18.050608098000055],[99.97402441100007,18.04554782500003],[99.97217582300004,18.043810327000074],[99.97943940600004,18.043397423000044],[99.98758045200003,18.043967531000078],[99.98981735700005,18.04613914600003],[99.99285755700004,18.045639824000034],[99.99687899300005,18.047703241000022],[99.99933074300009,18.04260762900003],[100.00707817200004,18.04470846600003],[100.00933348400008,18.039405888000033],[100.01493822600008,18.039119606000042],[100.01461868500007,18.03765835400003],[100.02556720200005,18.031970258000058],[100.03065026300004,18.03409774200003],[100.03388558600005,18.030415477000076],[100.04990511100004,18.02662805600005],[100.05612423400004,18.027739518000033],[100.06907278900007,18.026342853000074],[100.06836009800008,18.02308638100004],[100.06529606000004,18.021500227000047],[100.07826023500007,18.02027484300004],[100.08194077500008,18.018183260000058],[100.08979917200008,18.019417848000046],[100.09449305100009,18.014182885000025],[100.09911145400008,18.013425779000045],[100.10102745600005,18.011065561000066],[100.10231023200004,18.003589203000047],[100.10780408700003,17.99945563700004],[100.11521258200008,18.00007246200005],[100.11885622000005,17.998417808000056],[100.11933104900004,17.995971478000058],[100.12406056300006,17.99430354200007],[100.12751760800006,17.995031530000063],[100.13074629300007,17.992128836000063],[100.13132406000005,17.989011945000073],[100.13690108500003,17.98526373900006],[100.13949861600008,17.98494349400005],[100.14403112300005,17.988138337000066],[100.14859297100008,17.980448313000068],[100.14865725200008,17.97807434400005],[100.14511804500006,17.969900361000043],[100.13714745900006,17.96770330100003],[100.12922477700005,17.959987713000032],[100.12862683700007,17.955134792000024],[100.13009734700006,17.951121614000044],[100.12808223000008,17.94919483900003],[100.12823074800008,17.93928008200004],[100.13352468200009,17.934069754000063],[100.14093855300007,17.929442235000067],[100.15731842000008,17.921452916000078],[100.16886633300004,17.92021496700005],[100.17152399400004,17.917976700000054],[100.17926912900003,17.916603601000077],[100.18767176100005,17.907733106000023],[100.18822022800003,17.903718406000053],[100.19592753000006,17.906358607000072],[100.19729142800009,17.910385293000047],[100.20276082100008,17.917941600000063],[100.20855284900006,17.91731941000006],[100.21040460500006,17.919535534000033],[100.21494295700006,17.92065946200006],[100.21501434000004,17.92809876800004],[100.21839579500005,17.933093162000034],[100.21780131900005,17.93572440500003],[100.22016663400007,17.938357418000066],[100.22540923500009,17.939354647000073],[100.22632009400007,17.942749074000062],[100.22583318700003,17.949076929000057],[100.23131603600007,17.94935514200006],[100.23499964800004,17.95515834100007],[100.23970177000007,17.956174403000034],[100.24145501400005,17.958790693000026],[100.24597502900008,17.961423112000034],[100.25282718000005,17.960914743000046],[100.26182349600003,17.953457514000036],[100.26893652800004,17.95430736700007],[100.27185651100007,17.955677785000034],[100.26899604000005,17.957283603000064],[100.26983273400003,17.964310542000078],[100.26607867400008,17.97216793700005],[100.26330485000005,17.973765203000028],[100.26020223400008,17.979181418000053],[100.25460409700008,17.981443649000028],[100.24880552300004,17.979857496000022],[100.24152592600007,17.982043111000053],[100.23802121400007,17.980787156000076],[100.23215541300004,17.982179520000045],[100.22967992400004,17.984366845000068],[100.22965913700006,17.990227443000038],[100.22755336000006,17.991482296000072],[100.22506447900008,17.997213145000046],[100.22662170900009,17.998883258000035],[100.21995052200003,18.006040084000063],[100.22465199000004,18.006688910000037],[100.22581852200005,18.011511203000055],[100.22024166100005,18.01389264000005],[100.21762323500008,18.017537464000043],[100.21982016300007,18.021839485000044],[100.22257219300008,18.020970127000055],[100.22583878900008,18.023249020000037],[100.22833699400007,18.02193451100004],[100.23513399600006,18.02620476800007],[100.23954236900005,18.02774222000005],[100.23362422500009,18.03490224600006],[100.23262157700003,18.038524538000047],[100.22510049500005,18.04519040300005],[100.22079584600004,18.044274746000042],[100.21793597500005,18.051843141000063],[100.21594993500008,18.05273561000007],[100.21116880300008,18.06227137700006],[100.20704329200004,18.063860593000072],[100.20463795800003,18.068726593000065],[100.19607186900004,18.070588565000037],[100.19437105800006,18.06821018100004],[100.19135574300009,18.06961442000005],[100.19153965700008,18.07205351300007],[100.18778767500004,18.07309130400006],[100.18373295100008,18.076929249000045],[100.18097147200007,18.086988001000066],[100.18350781400005,18.08791442000006],[100.17098475100005,18.10069793300005],[100.16812736100007,18.099880019000068],[100.16740727200005,18.103166608000038],[100.16288420000006,18.102926058000037],[100.15609065200005,18.105428490000065],[100.15039788700005,18.10881256500005],[100.14814866900008,18.111837706000074],[100.13799955900004,18.115815403000056],[100.13185666200008,18.121130011000048],[100.11913007100009,18.127776657000027],[100.11127982900007,18.125400459000048],[100.10388282100007,18.12072088700006],[100.09214748700003,18.119357299000058],[100.08872334900008,18.119715075000045],[100.08257883200008,18.11819414000007],[100.07891755600008,18.11950912100002],[100.07769333200008,18.124457736000068],[100.07292107000006,18.126369141000055],[100.07141287100006,18.125090923000073],[100.06603878100003,18.128392830000053],[100.06328312600004,18.136544598000057],[100.05937843600003,18.134089682000024],[100.05305986000008,18.13372516900006],[100.04785314600008,18.136344356000052],[100.04863596100006,18.141640074000065],[100.04220065900006,18.14642894700006],[100.03660663600004,18.147542134000048]]]},"properties":{"Shape_Leng":1.15455504621,"Shape_Area":0.0317207886976,"ADM2_EN":"Sung Men","ADM2_TH":"สูงเม่น","ADM2_PCODE":"TH5404","ADM1_EN":"Phrae","ADM1_TH":"แพร่","ADM1_PCODE":"TH54","ADM0_EN":"Thailand","ADM0_TH":"ประเทศไทย","ADM0_PCODE":"TH"}},
{"type":"Feature","geometry":{"type":"Polygon","coordinates":[[[99.87680672400006,17.925381531000028],[99.87799390000004,17.92336448800006],[99.87671831600005,17.91815014900004],[99.87796521300004,17.91229025900003],[99.87564484700005,17.90738407400005],[99.87694737600003,17.899451700000043],[99.87438770400007,17.89772977900003],[99.87677208500008,17.895599540000035],[99.88111024000006,17.89583209400007],[99.88898998400003,17.888374054000053],[99.88999171300009,17.88131757000002],[99.89597556200005,17.87831968000006],[99.90109445500008,17.883273990000077],[99.90648905500007,17.88292830900002],[99.90525741000005,17.878692602000058],[99.90807187700005,17.874553681000066],[99.91242264600004,17.872674321000034],[99.92267093200007,17.87282342700007],[99.92337151900006,17.870432306000055],[99.91913779600009,17.867446659000052],[99.92416001600009,17.860507099000074],[99.93076741300007,17.86146713900007],[99.93614492100005,17.854186190000064],[99.93644003200006,17.851823791000072],[99.93248152800004,17.85343653600006],[99.93291680800007,17.848893002000068],[99.93082757000008,17.848561656000072],[99.93150567100008,17.84515333300004],[99.92452610300006,17.845950421000055],[99.91150617900007,17.841939597000078],[99.90803983400008,17.840009046000034],[99.90620223700006,17.834599745000048],[99.90694851100005,17.830045298000073],[99.91153339200008,17.823683281000058],[99.90999005600008,17.820047877000036],[99.89900922900006,17.814390006000053],[99.89449126700003,17.807192434000058],[99.90057958500006,17.80414822700004],[99.90616000300008,17.805799714000045],[99.91093496100007,17.802965658000062],[99.91195113200007,17.79822514800003],[99.91628408100007,17.797632660000033],[99.91716757400008,17.79563050200005],[99.92513227600006,17.791868641000065],[99.92802724300009,17.78925965600007],[99.93235038200004,17.790150314000073],[99.93675568300006,17.781781485000067],[99.94289041800005,17.780664745000024],[99.94561195800009,17.777287260000037],[99.94990556800008,17.77716782400006],[99.95277804300008,17.778988973000025],[99.95962152600003,17.778376240000057],[99.96154931500007,17.783165266000026],[99.96148565800007,17.792769901000042],[99.96425538600005,17.79736321400003],[99.96867919600004,17.799446129000046],[99.97342482300007,17.79670392400004],[99.97802291800008,17.797154566000074],[99.98420323600004,17.802332842000055],[99.99071648800003,17.811367931000063],[99.99097360800005,17.814821923000068],[99.98818451300008,17.820036747000074],[99.98603080400005,17.829086311000026],[99.98998838600005,17.82946093700002],[99.98861023100005,17.835040109000033],[99.99417953400007,17.830972288000055],[99.99883934500008,17.83402129500007],[100.00188435100006,17.83402854900004],[100.00520247000009,17.836839502000032],[100.01136717400004,17.83292648400004],[100.01584979100005,17.836328609000077],[100.02549552000005,17.839731203000042],[100.02758464700008,17.838124934000064],[100.02994779700003,17.841544759000044],[100.03365252300006,17.843755818000034],[100.04571678500008,17.846288207000043],[100.05076384600005,17.838802668000028],[100.05517732400006,17.836903041000028],[100.05756748200008,17.833314124000026],[100.06281131400004,17.840323065000064],[100.06890184900004,17.840244679000023],[100.07559366500004,17.83827847400005],[100.08077881300005,17.842413401000044],[100.08542810000006,17.84362877600006],[100.08804899500007,17.842576122000025],[100.08937190000006,17.84700309300007],[100.09528875200004,17.851020213000027],[100.10021375300005,17.847427461000052],[100.11021090000008,17.850327067000023],[100.11306709800004,17.85491435800003],[100.11984138400004,17.858599060000074],[100.12521519500007,17.858759951000025],[100.12968986100003,17.856362438000076],[100.14438416600007,17.867001120000054],[100.14655530200008,17.871096155000032],[100.15322617100009,17.877351241000042],[100.15851318800009,17.883950107000032],[100.15854505200008,17.88760473800005],[100.16441776300007,17.89138072700007],[100.16907181300007,17.890876469000034],[100.18822022800003,17.903718406000053],[100.18767176100005,17.907733106000023],[100.17926912900003,17.916603601000077],[100.17152399400004,17.917976700000054],[100.16886633300004,17.92021496700005],[100.15731842000008,17.921452916000078],[100.14093855300007,17.929442235000067],[100.13352468200009,17.934069754000063],[100.12823074800008,17.93928008200004],[100.12808223000008,17.94919483900003],[100.13009734700006,17.951121614000044],[100.12862683700007,17.955134792000024],[100.12922477700005,17.959987713000032],[100.13714745900006,17.96770330100003],[100.14511804500006,17.969900361000043],[100.14865725200008,17.97807434400005],[100.14859297100008,17.980448313000068],[100.14403112300005,17.988138337000066],[100.13949861600008,17.98494349400005],[100.13690108500003,17.98526373900006],[100.13132406000005,17.989011945000073],[100.13074629300007,17.992128836000063],[100.12751760800006,17.995031530000063],[100.12406056300006,17.99430354200007],[100.11933104900004,17.995971478000058],[100.11885622000005,17.998417808000056],[100.11521258200008,18.00007246200005],[100.10780408700003,17.99945563700004],[100.10231023200004,18.003589203000047],[100.10102745600005,18.011065561000066],[100.09911145400008,18.013425779000045],[100.09449305100009,18.014182885000025],[100.08979917200008,18.019417848000046],[100.08194077500008,18.018183260000058],[100.07826023500007,18.02027484300004],[100.06529606000004,18.021500227000047],[100.06836009800008,18.02308638100004],[100.06907278900007,18.026342853000074],[100.05612423400004,18.027739518000033],[100.04990511100004,18.02662805600005],[100.03388558600005,18.030415477000076],[100.03065026300004,18.03409774200003],[100.02556720200005,18.031970258000058],[100.01461868500007,18.03765835400003],[100.01493822600008,18.039119606000042],[100.00933348400008,18.039405888000033],[100.00707817200004,18.04470846600003],[99.99933074300009,18.04260762900003],[99.99687899300005,18.047703241000022],[99.99285755700004,18.045639824000034],[99.98981735700005,18.04613914600003],[99.98758045200003,18.043967531000078],[99.97943940600004,18.043397423000044],[99.97217582300004,18.043810327000074],[99.97425846900006,18.03818209800005],[99.97450937300005,18.033502915000042],[99.97175320200006,18.032888521000075],[99.96949774000007,18.02666508300007],[99.96905407500009,18.02200904700004],[99.96243068900009,18.017800426000065],[99.96101484400003,18.008313491000024],[99.95842137100004,18.005062233000046],[99.94863308700008,17.99737341900004],[99.94297415500006,17.994999893000056],[99.94172933700008,17.992034784000055],[99.94297521400006,17.987893860000042],[99.93576460000008,17.982110259000024],[99.93257058400008,17.97603188100004],[99.92538168600004,17.973644611000054],[99.92057468800004,17.97016614200004],[99.92110264700005,17.967295671000045],[99.91760921800005,17.966103107000038],[99.90963627400004,17.956940727000074],[99.90350273700005,17.95584757100005],[99.89482064000003,17.948268622000057],[99.88884217700007,17.946215967000057],[99.88453854900007,17.941014453000037],[99.88832901400008,17.940902263000055],[99.89274643000005,17.935540678000052],[99.88696451100009,17.931044843000052],[99.88295809400006,17.92624139800006],[99.87680672400006,17.925381531000028]]]},"properties":{"Shape_Leng":1.26839933633,"Shape_Area":0.0462795208778,"ADM2_EN":"Den Chai","ADM2_TH":"เด่นชัย","ADM2_PCODE":"TH5405","ADM1_EN":"Phrae","ADM1_TH":"แพร่","ADM1_PCODE":"TH54","ADM0_EN":"Thailand","ADM0_TH":"ประเทศไทย","ADM0_PCODE":"TH"}},
{"type":"Feature","geometry":{"type":"Polygon","coordinates":[[[100.39931541800007,18.48575016800004],[100.40013965900005,18.493806453000047],[100.39565776300009,18.49571678600006],[100.39744212600004,18.497652000000073],[100.39649338600003,18.501903687000038],[100.39240014400008,18.508570809000048],[100.38685869700004,18.513343002000056],[100.39186039900005,18.52278728700003],[100.39568510500004,18.527562853000063],[100.39533051600006,18.532893305000073],[100.38688897400004,18.542716604000077],[100.38755874100008,18.558415118000028],[100.37948603300003,18.56165043900006],[100.37101007500007,18.567448975000048],[100.37615237300008,18.575253665000048],[100.37617556200007,18.581021845000066],[100.37926671200006,18.587079733000053],[100.37673558700004,18.592496864000054],[100.37813519800005,18.598444662000077],[100.37681496100004,18.602443763000053],[100.37818685300005,18.60452103800003],[100.37780982200007,18.61099400300003],[100.38120901400004,18.617320919000065],[100.38110556100008,18.622185244000036],[100.38467344800006,18.62505281500006],[100.38978906000006,18.625186777000067],[100.39173781500006,18.626826950000066],[100.39258899400005,18.638393515000075],[100.38869416500006,18.63755711500005],[100.38684644900007,18.639385851000043],[100.37506945300004,18.637074446000042],[100.36813666600005,18.639178440000023],[100.36503033100007,18.64352021600007],[100.36106034600004,18.644184901000074],[100.35926435300007,18.649060398000074],[100.36039841600007,18.655169535000027],[100.35937016600008,18.658851242000026],[100.35570614600005,18.659593823000023],[100.35422435800007,18.661988893000057],[100.35746086400007,18.666934181000045],[100.35464267500004,18.669154795000054],[100.35617551300004,18.673171516000025],[100.35157959900005,18.68055431700003],[100.35889557700006,18.69000505100007],[100.36010857000008,18.699124823000034],[100.36395951900005,18.704304923000052],[100.36331556400006,18.70722369400005],[100.36723052400004,18.70985851200004],[100.37058841200007,18.709837383000036],[100.37756948000003,18.719428597000046],[100.37774542100004,18.72267961600005],[100.38288233900005,18.726411446000043],[100.38839754700007,18.727465254000037],[100.38737643000007,18.73178639200006],[100.39136919900005,18.739382987000056],[100.39066704900006,18.741087123000057],[100.38386621000006,18.739094520000037],[100.37271234600007,18.741525437000064],[100.36930319900006,18.745226221000053],[100.36543488200005,18.745892420000075],[100.35828115200007,18.750559081000063],[100.35730929400006,18.76121077600004],[100.36110322200005,18.76706276500005],[100.35894656700003,18.771381494000025],[100.36233758200007,18.778036120000024],[100.35790498100005,18.781287631000055],[100.35604346000008,18.784598003000042],[100.34841756900005,18.786087980000048],[100.34137112700006,18.78473182700003],[100.33711512100007,18.78692536400007],[100.33604016400005,18.795304456000054],[100.34038381300007,18.80595545500006],[100.33840212200005,18.81324698000003],[100.33422897800006,18.81227727000004],[100.33089830600005,18.813307447000057],[100.32549403900003,18.810672410000052],[100.31820593400005,18.811769962000028],[100.31135353100007,18.810485449000055],[100.30531778600005,18.816806674000077],[100.30201088600006,18.818500311000037],[100.29116536600009,18.817700357000035],[100.27832050500007,18.82103391000004],[100.27105762700006,18.818658506000077],[100.26712689000004,18.820082735000028],[100.26322606900004,18.818961226000056],[100.25802009100005,18.82107455700003],[100.25430200800008,18.81933547600005],[100.24938253400006,18.822686334000025],[100.24577585300005,18.822252922000075],[100.24089366600003,18.81960097500007],[100.23425873800005,18.823601894000035],[100.22572493200005,18.825282015000028],[100.22181226600009,18.820902841000077],[100.21932942600006,18.82179632900005],[100.21587503000006,18.818421913000066],[100.20844909200008,18.818787481000072],[100.20435151200007,18.815883622000058],[100.19839751900008,18.814524426000048],[100.19434260600008,18.81684389000003],[100.18717092900005,18.819092261000037],[100.17649977300005,18.813472943000022],[100.17227939100007,18.813783143000023],[100.16539745100005,18.81910308500005],[100.15944232100009,18.82767947600007],[100.15593258000007,18.835470908000048],[100.15319531400007,18.83275557500002],[100.15372062000006,18.83006276800006],[100.14912226500007,18.827297910000027],[100.14667438800006,18.827619180000056],[100.14462609400005,18.824508399000024],[100.13869224900009,18.823873753000044],[100.13412827400003,18.817506023000078],[100.11766802000005,18.81971652900006],[100.11373889800007,18.80719707700007],[100.11615266000007,18.80407037300006],[100.11549146800007,18.799882284000034],[100.12105546000004,18.798201007000046],[100.12599415200003,18.787406514000054],[100.12280248600007,18.781802337000045],[100.12003391500008,18.78148155100007],[100.11453532200005,18.776437299000065],[100.11613756800006,18.768715632000067],[100.11581283000004,18.765504187000033],[100.10833606500006,18.762206733000028],[100.10693092600008,18.75623815700004],[100.10025915200004,18.75214830500005],[100.10166006200006,18.747111089000043],[100.10163178800008,18.737551389000032],[100.09759893200004,18.73458660600005],[100.09635833800007,18.730496781000056],[100.09847755800007,18.72441102500005],[100.10150269200005,18.72283475200004],[100.10020614800004,18.715306929000064],[100.10282548300006,18.71098556100003],[100.10291955700006,18.704686723000066],[100.10733101700004,18.703744895000057],[100.10859110300004,18.697910062000062],[100.10853312600005,18.691558969000027],[100.10466742900007,18.690095178000036],[100.10457724600008,18.686419029000035],[100.10935370400006,18.680557030000045],[100.10892683700007,18.676259566000056],[100.11131553800004,18.671316190000027],[100.10893338900007,18.666689434000034],[100.10531188500005,18.663702623000063],[100.10644433300007,18.658692484000028],[100.10646417000004,18.651648883000064],[100.10364092700007,18.64883559900005],[100.10238477500008,18.640329996000048],[100.09956406500004,18.63369326700007],[100.09954370700007,18.62892375100006],[100.10552889000007,18.62127693800005],[100.10641856800004,18.615477586000054],[100.11064788300007,18.614249217000065],[100.11235527200006,18.61100034900005],[100.11597357000005,18.609971821000045],[100.12085680100006,18.60232080000003],[100.11304116700006,18.592180907000056],[100.10900865300005,18.588908659000026],[100.10992844500004,18.582677421000028],[100.11189649100004,18.580183632000058],[100.11127381100005,18.576280908000058],[100.10664450600007,18.57303244700006],[100.10592641400007,18.56754327300007],[100.10927866100008,18.560182800000064],[100.10525611600008,18.559282215000053],[100.09678385700005,18.566856463000022],[100.09462722800004,18.570099086000027],[100.08913228800009,18.57274908200003],[100.08132835800006,18.564568242000064],[100.07850909500007,18.562838917000022],[100.06960804100004,18.562418102000038],[100.06295118100007,18.560910877000026],[100.05590332900005,18.557379240000046],[100.05538417600008,18.54992039600006],[100.05186085900004,18.542301930000065],[100.05286337800004,18.539033578000044],[100.04928579000006,18.529670706000047],[100.05650790900006,18.52709833700004],[100.05546733100005,18.522688994000077],[100.05261453400004,18.518891288000077],[100.05318186100004,18.514034437000078],[100.05124666500006,18.511692651000033],[100.05111633700005,18.503100354000026],[100.04967828000008,18.497657208000078],[100.03869826200008,18.48525354800006],[100.03851141400008,18.483071751000068],[100.02985977200007,18.46931463100003],[100.02342372400005,18.46957237400005],[100.02863648500005,18.464905545000022],[100.02458913900006,18.45441048400005],[100.02064963100008,18.44725788200003],[100.01421331100005,18.44733418900006],[100.00538883200005,18.445862807000026],[100.01048017000005,18.442924420000054],[100.01418577200008,18.437667030000057],[100.00654630800005,18.422800410000036],[100.00444163000009,18.415549432000034],[100.00689031200005,18.41169181400005],[100.00154836800004,18.406482393000033],[99.99920720100005,18.402593799000044],[100.00483429000008,18.396411585000067],[100.00915530200007,18.396342378000043],[100.01300378700006,18.393270763000032],[100.01888601500008,18.39179000400003],[100.02117056000009,18.388114340000072],[100.02427652100005,18.388107800000057],[100.02501704200006,18.384973591000062],[100.03029121600008,18.38477339700006],[100.03165207200004,18.38688748100003],[100.04026490600006,18.385922177000054],[100.03570722200004,18.374838200000056],[100.03512487700004,18.369244022000032],[100.03601585000007,18.36507120400006],[100.03985299000004,18.36299396000004],[100.04456062000008,18.362720069000034],[100.04630112400008,18.36057939500006],[100.05470554800007,18.35896986800003],[100.05589108600009,18.362206467000078],[100.06020931000006,18.36066991000007],[100.06483486500008,18.36180814900007],[100.05776841900007,18.350616193000064],[100.05957426900005,18.349168129000077],[100.06829448100007,18.348112954000044],[100.07517575400004,18.348789302000057],[100.07801400100004,18.353705218000073],[100.08457887900005,18.35404511300004],[100.08628984800004,18.352430608000077],[100.09151086700007,18.35420562300004],[100.09280543900007,18.357485851000035],[100.09823409100005,18.35696956700002],[100.10211462000007,18.347501614000066],[100.10768103400005,18.344730565000077],[100.10801431400006,18.341624679000063],[100.11079898500009,18.338700966000033],[100.11764831300007,18.337394594000045],[100.11650113400003,18.343601329000023],[100.11940175600006,18.346429063000073],[100.12662500500005,18.348625970000057],[100.13902260100008,18.344689569000025],[100.13987531900005,18.34631113100005],[100.14386997400004,18.344649995000054],[100.14688333100008,18.347513653000078],[100.15081159500005,18.34793939900004],[100.15387619800003,18.344645378000052],[100.15635260300007,18.345177722000074],[100.15883299500007,18.340612968000073],[100.16094610200008,18.332348524000054],[100.16156039600008,18.326303953000036],[100.16017621200007,18.31886781700007],[100.16839304300004,18.309585819000063],[100.16777663400006,18.30679820200004],[100.16200134100006,18.30368227100007],[100.16077811500008,18.297401575000038],[100.16614115200008,18.297736905000022],[100.16633428900008,18.294597767000027],[100.17485608100009,18.289363498000057],[100.18197363800004,18.29037892100007],[100.18337962300006,18.30180083500005],[100.18955006000004,18.30250340300006],[100.19624662500007,18.311782153000024],[100.20305658700005,18.31505978900003],[100.20545957100006,18.317537273000028],[100.20231708700004,18.32220265500007],[100.20479184700008,18.32628519800005],[100.20717231300006,18.326822527000047],[100.20944292000007,18.333101637000027],[100.21222028700004,18.33246925900005],[100.21549843500009,18.34526313300006],[100.21440096700007,18.35081221100006],[100.21224503000008,18.352495240000053],[100.21364972400005,18.355002784000078],[100.20741213900004,18.365807219000033],[100.20953924600008,18.368264974000056],[100.20750033800005,18.36955374100006],[100.20827322300005,18.373831965000022],[100.21089307100004,18.375618157000076],[100.21310870300005,18.382206754000038],[100.22008756300005,18.390349240000035],[100.22404044700005,18.39234168100006],[100.22434422300006,18.395105949000026],[100.22731403900008,18.397943285000053],[100.23240022400006,18.398833024000055],[100.23361612100007,18.40137366500005],[100.23286690400005,18.406829837000032],[100.23464584800007,18.41104176400006],[100.24027601100005,18.412761567000075],[100.24191435200004,18.416886220000038],[100.25204882800006,18.430399299000044],[100.25472655300007,18.430015640000022],[100.25455300400006,18.434232310000027],[100.25930495100005,18.438172371000064],[100.25848398100004,18.44115081600006],[100.26846415100005,18.444712492000065],[100.26758492700009,18.446913084000073],[100.26895362800008,18.453021598000078],[100.27289305900007,18.45187468000006],[100.28048503800005,18.45177161400005],[100.28178899600005,18.454992196000035],[100.29053045400008,18.451893288000065],[100.29700975100008,18.452096467000047],[100.30109954300008,18.456405896000035],[100.31136726800008,18.46161574100006],[100.31365104200006,18.465727255000047],[100.31758047300008,18.465293346000067],[100.31998268700005,18.466912196000067],[100.32445838100006,18.465551520000076],[100.32783206900007,18.461121604000027],[100.33091426800007,18.460661732000062],[100.33056131400008,18.456561754000063],[100.34130564900005,18.45239830400004],[100.33969922600005,18.44307641200004],[100.35343748000008,18.442610623000064],[100.35455069300008,18.440741224000078],[100.36471473200004,18.438602509000077],[100.36848637600008,18.435680383000033],[100.37506625600008,18.435300746000053],[100.37610539900004,18.431668605000027],[100.38120367600004,18.42886878400003],[100.38320548700005,18.423849321000034],[100.39268491700005,18.419296804000055],[100.39566177300009,18.42080564200006],[100.39420611400004,18.42458147600007],[100.39596813700007,18.426379144000066],[100.39233514100005,18.434755808000034],[100.39169294200008,18.438901302000033],[100.39416980300007,18.440809313000045],[100.39890044800006,18.440995643000065],[100.40678143800005,18.438852096000062],[100.40973292300004,18.440425429000072],[100.41249625100005,18.444366900000034],[100.41166901400004,18.450086706000036],[100.42151742200008,18.45862523900007],[100.42310194500004,18.459046732000047],[100.41643377500009,18.463751321000075],[100.41547570500006,18.465852566000024],[100.40784126300008,18.471727497000074],[100.40503152600007,18.474890625000057],[100.40557175800006,18.477562395000064],[100.39988735600008,18.481477562000066],[100.39931541800007,18.48575016800004]]]},"properties":{"Shape_Leng":2.26084316603,"Shape_Area":0.129570185763,"ADM2_EN":"Song","ADM2_TH":"สอง","ADM2_PCODE":"TH5406","ADM1_EN":"Phrae","ADM1_TH":"แพร่","ADM1_PCODE":"TH54","ADM0_EN":"Thailand","ADM0_TH":"ประเทศไทย","ADM0_PCODE":"TH"}},
{"type":"Feature","geometry":{"type":"Polygon","coordinates":[[[99.66882569900008,18.041677436000043],[99.65946037100008,18.041057323000075],[99.65097002900006,18.052293461000033],[99.65009123000004,18.05674034200007],[99.64184573700004,18.05562888000003],[99.63474781800005,18.06134522700006],[99.63132889700006,18.062295276000043],[99.62759932200004,18.06075962700004],[99.62401576200006,18.054395942000042],[99.61879513000008,18.048588752000057],[99.61379828800005,18.047955055000045],[99.61003819400008,18.049824623000063],[99.60446643400007,18.04247228400004],[99.59693063300006,18.038158458000055],[99.59413895200004,18.038731942000027],[99.58500429100008,18.035207334000063],[99.58459181200004,18.033476911000037],[99.58884072400008,18.026829213000042],[99.58829609000009,18.022043732000043],[99.59162391000007,18.018012699000053],[99.59173442000008,18.013265028000035],[99.59497454500007,18.009739210000077],[99.58020455700006,18.00035494800005],[99.57636369300008,17.995536221000066],[99.57212689000005,17.995607703000076],[99.56501863200003,17.991587045000074],[99.56148488400004,17.98651994200003],[99.56116266200007,17.977832919000036],[99.55802649500004,17.97409974800007],[99.54852701700008,17.971362485000043],[99.54709646700007,17.972626466000065],[99.54298183700007,17.970080524000025],[99.53833101900005,17.96238081300004],[99.53316818000008,17.961820240000065],[99.52293942800009,17.957051301000035],[99.52176541600005,17.952081428000042],[99.51215062800009,17.943517222000025],[99.50667958300005,17.94280734000006],[99.50148679600005,17.937219207000055],[99.49845151700003,17.93104136100004],[99.49816790200003,17.927174016000038],[99.48522804800007,17.919526133000033],[99.48303666200007,17.920189523000033],[99.48414980200005,17.916458462000037],[99.47870278100004,17.903918240000053],[99.47646598600005,17.90190227100004],[99.47718758600007,17.898536384000067],[99.47423771100006,17.893592161000072],[99.46899905300006,17.892705524000064],[99.46879554300006,17.889212099000076],[99.46312066900003,17.88280863600005],[99.45725927400008,17.88262175600005],[99.45202401100005,17.87823770600005],[99.44801034800008,17.869591400000047],[99.44459124500008,17.868367969000076],[99.44206576300007,17.86374269500004],[99.43759802300008,17.863767933000076],[99.42857861000005,17.857377575000044],[99.42795464200003,17.853244104000055],[99.42299713600005,17.850461594000024],[99.42024321600007,17.84285270400005],[99.41782498000003,17.843160832000024],[99.41625959300006,17.83790033400004],[99.41267956000007,17.83189812100005],[99.41254291100006,17.826848675000065],[99.40834349600004,17.823218315000076],[99.40442315500007,17.823161388000074],[99.40154095900004,17.818855964000022],[99.39264593200005,17.814699792000056],[99.39355660200005,17.807868057000064],[99.38650052200006,17.794903632000057],[99.38539000200007,17.790251579000028],[99.37958242400003,17.785600110000075],[99.37639802400008,17.781663423000055],[99.37089971100005,17.779231063000054],[99.36757282600007,17.773487857000077],[99.37406044800008,17.76255253000005],[99.38020511800005,17.757184212000027],[99.38095166200009,17.75123727400006],[99.37918950800008,17.74577166800003],[99.38111295400006,17.741683157000068],[99.37898559000007,17.73970316900005],[99.37969064100008,17.73564773800007],[99.37672980400004,17.733455451000054],[99.37689893000004,17.726345566000077],[99.37973615000004,17.72244261000003],[99.38588337200008,17.721712317000026],[99.38482880100008,17.71534272100007],[99.37960151900006,17.711229262000074],[99.38167726100005,17.70833870100006],[99.38147090300004,17.702632529000027],[99.38921570900004,17.696511715000042],[99.38720594500006,17.687556630000074],[99.39953371800004,17.694348267000066],[99.40251499100003,17.697278652000023],[99.40550421700004,17.697116465000022],[99.40857620000008,17.70082678800003],[99.41454681700009,17.703495403000034],[99.42208082700006,17.710075750000044],[99.43051703600008,17.70992977700007],[99.43220056200005,17.708351463000042],[99.44215944100006,17.70750653700003],[99.44898828400005,17.709047144000067],[99.45589260100007,17.715493886000047],[99.45816871900007,17.722429867000074],[99.45552759200007,17.724617728000055],[99.45646743400005,17.728192888000024],[99.46247283100007,17.733407492000026],[99.46416966300006,17.736918072000037],[99.47105082100006,17.73786806100003],[99.47451009800005,17.741468363000024],[99.48188278700007,17.745257043000038],[99.48429752300007,17.754587679000053],[99.48746750300006,17.758177584000066],[99.48671101100007,17.762812981000025],[99.49627321800006,17.769034101000045],[99.49821072300006,17.773750912000025],[99.51040348700008,17.782470112000055],[99.51533625400003,17.783045479000066],[99.51464100900006,17.788883054000053],[99.51737284800004,17.791909845000077],[99.51643965400007,17.794591312000023],[99.51927372800009,17.797552389000032],[99.52847259100008,17.799834118000035],[99.53960818700006,17.804744088000064],[99.54202342900004,17.809657194000067],[99.54761497300007,17.811933372000055],[99.55877850800005,17.811354926000035],[99.56023909200007,17.812341226000058],[99.56607200000008,17.811302494000074],[99.57145020800004,17.816167078000035],[99.57450854100006,17.815492885000026],[99.58362044000006,17.816432709000026],[99.59236938800007,17.820331253000063],[99.59732386500008,17.820003238000027],[99.59846545700003,17.821580273000052],[99.60671341300008,17.819104174000074],[99.60796859200008,17.816257735000022],[99.61499711100004,17.817692924000028],[99.62064320400003,17.813371234000044],[99.62566342600007,17.812407836000034],[99.62685681100004,17.81429118500006],[99.63047873900007,17.812679107000065],[99.63516493500003,17.808587363000072],[99.63696743700007,17.805142070000045],[99.63974198400007,17.80527237700005],[99.64234657900005,17.80176401700004],[99.64491354100005,17.802282612000056],[99.64946711000005,17.79660763800007],[99.65469257000007,17.79601371800004],[99.66205221100006,17.79871197600005],[99.67069502200007,17.79925189200003],[99.67125700900004,17.795827641000074],[99.67501092600008,17.78920303500007],[99.68074215000007,17.785663447000047],[99.68633512400004,17.777274602000034],[99.68501227000007,17.773302192000074],[99.69055920200003,17.768460334000054],[99.69202106000006,17.764609220000068],[99.69069220600005,17.759443729000054],[99.69413808100006,17.76002612600007],[99.69787267500004,17.75622758800006],[99.70666005500004,17.757586855000056],[99.70904751700004,17.749934535000023],[99.70805099400008,17.748179832000062],[99.71017258000006,17.74319153700003],[99.71035948300005,17.737233894000042],[99.71344966400005,17.73682057800005],[99.71566384000005,17.73212356500005],[99.71994983000008,17.731722295000054],[99.72474568600006,17.72602329700004],[99.72629227100003,17.72151345800006],[99.73669694200004,17.724011674000053],[99.73494446400008,17.726482302000022],[99.74109105400004,17.728639008000073],[99.74202862400006,17.731850258000065],[99.74473829600004,17.733019788000036],[99.74474465300005,17.735897356000066],[99.74824697100007,17.73499373100003],[99.75303378400008,17.740440254000077],[99.75319736900008,17.74526555500006],[99.75639190800007,17.749246753000023],[99.75148820000004,17.749650123000038],[99.75050542100007,17.75217827000006],[99.75439708500005,17.752015047000043],[99.76510411300006,17.760648353000022],[99.76741573600003,17.76467137700007],[99.76937915300005,17.771766166000077],[99.77145368800007,17.77124627200004],[99.77229742300005,17.774956521000036],[99.77706581000007,17.777193322000073],[99.77279809300006,17.781434671000056],[99.77579658900004,17.781461516000036],[99.77543756400007,17.784951841000066],[99.77852473400009,17.78839619200005],[99.78233045500008,17.78855418200004],[99.78267209700005,17.79103277300004],[99.78595214500007,17.790884138000024],[99.78798239600007,17.793118829000036],[99.78998915900007,17.791150965000043],[99.79488874900005,17.791723898000043],[99.79912239700008,17.79493808500007],[99.80209878500006,17.795282477000057],[99.80354330500006,17.800368411000022],[99.80764340800005,17.802707893000047],[99.81121664900007,17.801580027000057],[99.81134382100004,17.804045992000056],[99.81461804300005,17.80169021100005],[99.81919446000006,17.801279185000055],[99.82315329600004,17.802694449000057],[99.82482407300006,17.800762340000063],[99.82984660300008,17.800604861000068],[99.83238466900008,17.80293331400003],[99.83566293700005,17.797134603000075],[99.83961398700006,17.79992150000004],[99.84095544000007,17.797863969000048],[99.84550386100005,17.801335469000037],[99.84936635300005,17.802124011000046],[99.85116994800006,17.79820977600002],[99.85364321300005,17.798527406000062],[99.85678448500005,17.801858948000074],[99.85726654100006,17.798433345000035],[99.86794685600006,17.80216682500003],[99.86952119200004,17.804901115000064],[99.87577959100008,17.801414844000078],[99.87857102600003,17.80551596400005],[99.87881417500006,17.802072344000067],[99.88271183400008,17.802741660000038],[99.88240449200003,17.806840070000078],[99.88440885700004,17.809882909000066],[99.88519253200008,17.80717353600005],[99.89089700200009,17.80410376900005],[99.89449126700003,17.807192434000058],[99.89900922900006,17.814390006000053],[99.90999005600008,17.820047877000036],[99.91153339200008,17.823683281000058],[99.90694851100005,17.830045298000073],[99.90620223700006,17.834599745000048],[99.90803983400008,17.840009046000034],[99.91150617900007,17.841939597000078],[99.92452610300006,17.845950421000055],[99.93150567100008,17.84515333300004],[99.93082757000008,17.848561656000072],[99.93291680800007,17.848893002000068],[99.93248152800004,17.85343653600006],[99.93644003200006,17.851823791000072],[99.93614492100005,17.854186190000064],[99.93076741300007,17.86146713900007],[99.92416001600009,17.860507099000074],[99.91913779600009,17.867446659000052],[99.92337151900006,17.870432306000055],[99.92267093200007,17.87282342700007],[99.91242264600004,17.872674321000034],[99.90807187700005,17.874553681000066],[99.90525741000005,17.878692602000058],[99.90648905500007,17.88292830900002],[99.90109445500008,17.883273990000077],[99.89597556200005,17.87831968000006],[99.88999171300009,17.88131757000002],[99.88898998400003,17.888374054000053],[99.88111024000006,17.89583209400007],[99.87677208500008,17.895599540000035],[99.87438770400007,17.89772977900003],[99.87694737600003,17.899451700000043],[99.87564484700005,17.90738407400005],[99.87796521300004,17.91229025900003],[99.87671831600005,17.91815014900004],[99.87799390000004,17.92336448800006],[99.87680672400006,17.925381531000028],[99.87135272200004,17.931626676000064],[99.86801629100006,17.938867445000028],[99.86418074700003,17.938670358000024],[99.86323915000008,17.934830803000068],[99.86002838700006,17.93754136000007],[99.85604337100006,17.938653267000063],[99.85379515400007,17.933892296000067],[99.84968159600004,17.93292745100007],[99.84650313700007,17.927020205000076],[99.83746191000006,17.924065936000034],[99.83443107500005,17.924078965000035],[99.83176527700004,17.92658168500003],[99.82731117700007,17.924550236000073],[99.82133575800003,17.927294844000073],[99.80981364500008,17.929821809000032],[99.80836120800006,17.92760293200007],[99.79117627300008,17.924732798000036],[99.78600141400005,17.92765543300004],[99.78467197100008,17.930482168000026],[99.77774772400005,17.929586053000037],[99.77172905100008,17.927012993000062],[99.76572047900004,17.928401561000044],[99.75592124000008,17.925916722000068],[99.73911939600004,17.924025846000063],[99.73389791700004,17.919842161000076],[99.72140403300006,17.91387594200006],[99.71618870700007,17.91468450800005],[99.71287721600004,17.91259119500006],[99.70759848300008,17.912658365000027],[99.70018426200005,17.909894809000036],[99.69839646800006,17.90657426200005],[99.69542261100008,17.907032575000073],[99.68843375000006,17.905297279000024],[99.68558313700004,17.90581232200003],[99.67583955400005,17.90373386300007],[99.66727725100009,17.905519585000036],[99.66556594000008,17.904210720000037],[99.65675802100009,17.904271945000062],[99.65433638100006,17.901513515000033],[99.65007369800009,17.903796125000042],[99.64241045000006,17.910497732000067],[99.63515387300004,17.91042224000006],[99.63259153200005,17.912920517000032],[99.63539669600004,17.91563430800005],[99.63218040900006,17.924767933000055],[99.63314163500007,17.929246927000065],[99.63133947800009,17.93322856700007],[99.64104396800008,17.93562573500003],[99.64270494700008,17.93698812200006],[99.64183976500004,17.941503672000067],[99.63542620200008,17.94446503100005],[99.63399210100005,17.946809161000033],[99.63680245000006,17.94835959200003],[99.64603130400008,17.944583462000026],[99.65215830700004,17.943655343000046],[99.66154573100005,17.946509005000053],[99.66577521400006,17.94891192800003],[99.66831401500008,17.95265194700005],[99.66458216600006,17.954501178000044],[99.66861330100005,17.955870135000055],[99.67090473100006,17.958449074000043],[99.67471220100003,17.958417333000057],[99.67445367600004,17.966219180000053],[99.67668282600005,17.969894330000045],[99.67510577600007,17.97262550000005],[99.67754877000004,17.974374632000035],[99.67832100000004,17.979893477000076],[99.68046074200004,17.983468559000073],[99.67833193700005,17.985082306000038],[99.68667018200006,17.993831897000064],[99.68577963100006,18.001360126000066],[99.68935897900008,18.008001877000027],[99.68771585000007,18.01132762800006],[99.68765853600007,18.017103776000056],[99.68135118000004,18.025675412000055],[99.67072083400006,18.032411566000064],[99.66960057600005,18.03398711500006],[99.66882569900008,18.041677436000043]]]},"properties":{"Shape_Leng":2.26411504249,"Shape_Area":0.0844298663551,"ADM2_EN":"Wang Chin","ADM2_TH":"วังชิ้น","ADM2_PCODE":"TH5407","ADM1_EN":"Phrae","ADM1_TH":"แพร่","ADM1_PCODE":"TH54","ADM0_EN":"Thailand","ADM0_TH":"ประเทศไทย","ADM0_PCODE":"TH"}},
{"type":"Feature","geometry":{"type":"Polygon","coordinates":[[[100.27503052700007,18.259370747000048],[100.27801945900006,18.259642194000037],[100.27930415800006,18.266550421000034],[100.27813684300008,18.27343267400005],[100.27464524000004,18.278892083000073],[100.26517455300007,18.285077030000025],[100.26460443500008,18.288189464000027],[100.25854468200004,18.288389703000064],[100.25484644600004,18.28355153600006],[100.24113974200009,18.290716157000077],[100.23700179900004,18.293923170000028],[100.23085112100006,18.295399175000057],[100.23002636300004,18.304550753000058],[100.22382551200008,18.307550374000073],[100.21939396000005,18.312187333000054],[100.20545957100006,18.317537273000028],[100.20305658700005,18.31505978900003],[100.19624662500007,18.311782153000024],[100.18955006000004,18.30250340300006],[100.18337962300006,18.30180083500005],[100.18197363800004,18.29037892100007],[100.17485608100009,18.289363498000057],[100.16633428900008,18.294597767000027],[100.16614115200008,18.297736905000022],[100.16077811500008,18.297401575000038],[100.16200134100006,18.30368227100007],[100.16777663400006,18.30679820200004],[100.16839304300004,18.309585819000063],[100.16017621200007,18.31886781700007],[100.16156039600008,18.326303953000036],[100.16094610200008,18.332348524000054],[100.15883299500007,18.340612968000073],[100.15635260300007,18.345177722000074],[100.15387619800003,18.344645378000052],[100.15081159500005,18.34793939900004],[100.14688333100008,18.347513653000078],[100.14386997400004,18.344649995000054],[100.13987531900005,18.34631113100005],[100.13902260100008,18.344689569000025],[100.12662500500005,18.348625970000057],[100.11940175600006,18.346429063000073],[100.11650113400003,18.343601329000023],[100.11764831300007,18.337394594000045],[100.11079898500009,18.338700966000033],[100.10801431400006,18.341624679000063],[100.10768103400005,18.344730565000077],[100.10211462000007,18.347501614000066],[100.09823409100005,18.35696956700002],[100.09280543900007,18.357485851000035],[100.09151086700007,18.35420562300004],[100.08628984800004,18.352430608000077],[100.08457887900005,18.35404511300004],[100.07801400100004,18.353705218000073],[100.07517575400004,18.348789302000057],[100.07334538000003,18.345212502000038],[100.07247518300005,18.336272766000036],[100.07666972100009,18.32840404500007],[100.08243819000006,18.321996505000072],[100.08207369500008,18.31746448100006],[100.07851752600004,18.315544961000057],[100.07524890200006,18.30990504500005],[100.07959430800008,18.303581846000043],[100.08024533400004,18.300559144000033],[100.08485080900005,18.298807417000035],[100.09108517600004,18.28591132400004],[100.09004246900008,18.276669191000053],[100.09229890400007,18.275624351000033],[100.09881280000008,18.278601450000053],[100.10881890400003,18.277774961000034],[100.10649787400007,18.273492357000066],[100.10942953600005,18.269991236000067],[100.11839524700008,18.268031158000042],[100.12170402500004,18.26367827400003],[100.12652179000008,18.262041838000073],[100.13389217700006,18.25649849900003],[100.14303332500003,18.258417176000023],[100.14892804800007,18.25835731600006],[100.15640358800005,18.25189626200006],[100.16180572500008,18.24967229400005],[100.16486971200004,18.238500225000053],[100.16662386200005,18.237474276000057],[100.16790826100004,18.24190982300007],[100.16667015500008,18.246133108000038],[100.17486857500006,18.24690331000005],[100.17827240400004,18.245496338000066],[100.17495569000005,18.24307242900005],[100.18045980500005,18.23615830800003],[100.17923753000008,18.232648398000038],[100.18268589500008,18.231009560000075],[100.18637119500005,18.23332630300007],[100.18970218600003,18.233146774000033],[100.18851264200003,18.236029372000075],[100.18552885500009,18.23522239700003],[100.18972779500007,18.240190036000058],[100.18867576100007,18.241756977000023],[100.19226854000004,18.24588453700005],[100.19859767200006,18.245809227000052],[100.19644743800006,18.251112788000057],[100.20052743500008,18.252476084000023],[100.19941735800006,18.255098934000046],[100.20298492600006,18.255575109000063],[100.20358130400007,18.258633297000074],[100.21064203500003,18.258425269000043],[100.21671575300007,18.259757312000033],[100.22259875700007,18.266203822000023],[100.22908470000004,18.268683459000044],[100.22960774000006,18.265548758000023],[100.23297668400005,18.267848666000077],[100.24005414600003,18.266437203000066],[100.24283147400007,18.27008479600005],[100.24551217700008,18.26985770700003],[100.24498378900006,18.267082833000075],[100.24898094500008,18.26430460100005],[100.24949877200004,18.25988115900003],[100.26095103100005,18.254814415000055],[100.26228890000004,18.256551925000053],[100.27007644500009,18.258987730000058],[100.27095841200008,18.260796722000066],[100.27503052700007,18.259370747000048]]]},"properties":{"Shape_Leng":0.805121876329,"Shape_Area":0.011595070885,"ADM2_EN":"Nong Muang Khai","ADM2_TH":"หนองม่วงไข่","ADM2_PCODE":"TH5408","ADM1_EN":"Phrae","ADM1_TH":"แพร่","ADM1_PCODE":"TH54","ADM0_EN":"Thailand","ADM0_TH":"ประเทศไทย","ADM0_PCODE":"TH"}}
]}