{"type":"FeatureCollection", "features": [
{"type":"Feature","geometry":{"type":"Polygon","coordinates":[[[100.05315896400003,13.485801796000032],[100.07328743300008,13.456400354000039],[100.07850060400006,13.43708231000005],[100.07773917600008,13.428832898000053],[100.07878223200004,13.425330343000041],[100.08321935900005,13.42715647600005],[100.08834498700008,13.428440593000062],[100.09129027900008,13.430402926000056],[100.09302096200008,13.429598093000038],[100.10437195200006,13.433413160000043],[100.10655676200008,13.435604799000032],[100.11031292700005,13.435389894000025],[100.11509456500005,13.436963417000072],[100.12118971800004,13.440217207000046],[100.12173825900004,13.439161842000033],[100.12758100500008,13.440917321000029],[100.14432356700007,13.446434449000037],[100.14651253100004,13.446943321000049],[100.14701811800006,13.448348706000047],[100.14908547900006,13.447873861000062],[100.15429523100005,13.450035954000043],[100.15439326900008,13.449348821000058],[100.15992515300007,13.450642210000069],[100.16050402800005,13.451404565000075],[100.16816559800009,13.452993333000052],[100.17018102000009,13.454666319000069],[100.17044792900003,13.453444322000053],[100.17374163400007,13.455080805000023],[100.17747160800008,13.45506337300003],[100.18726763500007,13.457668657000056],[100.18776838500008,13.459627151000063],[100.19144223500007,13.459277868000072],[100.19254072600006,13.46071848400004],[100.19425799900006,13.459600210000076],[100.19538920800005,13.46134584500004],[100.19964274400007,13.462344634000033],[100.20082180900005,13.461366218000023],[100.20300226200004,13.461885107000057],[100.20283827300005,13.46318769100003],[100.20673057800008,13.464046453000037],[100.20738808300007,13.462050051000062],[100.20895298300007,13.464178833000062],[100.21408315100007,13.465589930000021],[100.21617047400008,13.465165471000034],[100.21799005900004,13.466669908000028],[100.22318387400009,13.466880505000063],[100.22227053900008,13.469321647000072],[100.22457409000003,13.470428818000073],[100.22669639800006,13.46871832100004],[100.22944932900003,13.47253752100005],[100.23457870700008,13.47248111600004],[100.23646967700006,13.473427358000038],[100.24032624800009,13.473380491000057],[100.24604303300003,13.474484933000042],[100.25527375000007,13.478011106000054],[100.26017218500004,13.480507147000026],[100.26604353800008,13.48529869600003],[100.27016024400007,13.490679104000037],[100.27111408800005,13.49323484200005],[100.27227121500005,13.499430351000058],[100.27331092100007,13.502745808000043],[100.27506055600008,13.505108498000027],[100.28185269600004,13.50664342500005],[100.28482668000004,13.50442761000005],[100.30310522000008,13.49490454100004],[100.30545518200006,13.494372965000025],[100.31261982700005,13.491132911000022],[100.31717912800008,13.490260764000027],[100.32399540700004,13.488060907000033],[100.32679167500004,13.488288511000064],[100.33014279400004,13.48648767800006],[100.33072161100006,13.488787048000063],[100.33373005800007,13.487071531000026],[100.33676445100008,13.486652759000037],[100.34496619200007,13.486374055000056],[100.35532520000004,13.486927095000055],[100.35942138400009,13.488242289000027],[100.36418006600007,13.487821775000043],[100.36696481800004,13.48971268200006],[100.37136662300009,13.490535795000028],[100.37609864500007,13.490615768000055],[100.37691715600005,13.489253947000066],[100.38008563100004,13.489429075000032],[100.38222672200004,13.492266738000069],[100.38450211300005,13.491089377000037],[100.38812170600005,13.492729584000074],[100.39077256200005,13.493001693000053],[100.39223048700006,13.491007274000026],[100.39594235300007,13.491074118000029],[100.39659582500008,13.491802102000065],[100.40250726300007,13.493395981000049],[100.40408798700008,13.492876937000062],[100.40883825200007,13.493389571000023],[100.40682494400005,13.502220000000023],[100.40632586800007,13.535797271000035],[100.41406697700006,13.535871970000073],[100.41466287700007,13.538437900000076],[100.41780405400004,13.540153160000045],[100.42008972900004,13.545241469000075],[100.41936110600005,13.54708774900007],[100.41648681000004,13.550390050000033],[100.41478208800004,13.551262695000048],[100.41521388500007,13.557151797000074],[100.41250486700005,13.557213142000023],[100.41183675200006,13.555444736000027],[100.40654530000006,13.554416354000068],[100.40436917000005,13.555059349000032],[100.40338993200004,13.553529386000037],[100.39927976400008,13.552721888000065],[100.39585979700007,13.553459621000059],[100.39421284200006,13.55606565000005],[100.39408112400008,13.558264508000036],[100.39130664200007,13.563261139000076],[100.39061290600006,13.56757901800006],[100.39149979300004,13.568819484000073],[100.38961000800003,13.56964113600003],[100.38889125600008,13.572561450000023],[100.38689857600008,13.574200791000067],[100.38662316200003,13.577895038000065],[100.38499298000005,13.579213651000032],[100.38570091300005,13.581605487000047],[100.38566846400005,13.585803013000032],[100.38420821600005,13.587657947000025],[100.38436168200008,13.589517468000054],[100.38249155100004,13.590243152000028],[100.37852046700004,13.594381655000063],[100.37909137600008,13.596029134000048],[100.37842123300004,13.602097386000025],[100.37714927800005,13.60642172200005],[100.37648208400009,13.619703151000067],[100.37179593500008,13.622730904000036],[100.37157172900004,13.624907569000072],[100.36941508700005,13.62756065900004],[100.36861098900005,13.630119450000052],[100.36720966700005,13.630171153000049],[100.36600587100008,13.633624022000049],[100.36492421500009,13.633891186000028],[100.35905888300005,13.632780154000045],[100.35869708800004,13.637319000000048],[100.35559750800007,13.636533643000064],[100.35434040900009,13.640888890000042],[100.35024229000004,13.640497348000054],[100.34014380200006,13.639091367000049],[100.33611114000007,13.638837352000053],[100.33168072500007,13.635743224000066],[100.32960810100008,13.633005034000064],[100.32566624300006,13.630184641000028],[100.32361783300007,13.630579913000076],[100.32400281400004,13.627701739000031],[100.32160970600006,13.62555003500006],[100.31769339200008,13.62519644200006],[100.31685575200004,13.623698937000029],[100.31367249000004,13.623720648000074],[100.31250855800005,13.619587187000036],[100.30901170200008,13.61969218300004],[100.30626672200003,13.621385885000052],[100.29633432300005,13.620998758000042],[100.29180869400005,13.621666412000025],[100.28725243000008,13.621561308000025],[100.28586083300007,13.62240140700004],[100.28537307400006,13.620046870000067],[100.28179411800005,13.62031840000003],[100.27988174600006,13.612593460000028],[100.27711072100004,13.612666200000035],[100.27685197000005,13.611510438000039],[100.27362767600005,13.61133194200005],[100.27402080000007,13.609035249000044],[100.27095787700006,13.609200416000022],[100.27062490400004,13.604939452000053],[100.26567181300004,13.60436263300005],[100.26541102600004,13.608711270000072],[100.25831802900007,13.60788006200005],[100.25551356800008,13.606742011000051],[100.25262978900008,13.60780272200003],[100.25168053300007,13.603997549000042],[100.24949484200005,13.604036781000048],[100.24444233000008,13.602796925000064],[100.24080598300009,13.603305254000077],[100.23187360100007,13.605329113000039],[100.22796511500007,13.605516283000043],[100.22790413200005,13.604494406000072],[100.22751588900007,13.602316793000057],[100.22333834200003,13.596616389000076],[100.22367814300009,13.595052163000048],[100.22210008400003,13.594043642000031],[100.21655342600008,13.587567278000051],[100.21169452800007,13.587601246000077],[100.21030488900004,13.583254063000027],[100.20392522900005,13.592967988000055],[100.20006385400006,13.59214688000003],[100.20035423500008,13.590438607000067],[100.20240273800005,13.590880519000052],[100.20182637000005,13.588457094000034],[100.19999608700005,13.587905806000038],[100.20005426900008,13.586328413000047],[100.19795619900003,13.58426213000007],[100.19519378200005,13.585296175000053],[100.19172278000008,13.585584243000028],[100.19137032600008,13.584309162000068],[100.18898510500009,13.583546441000067],[100.18769314700006,13.585569410000062],[100.18610383100008,13.58402669700007],[100.18358916300008,13.584180047000075],[100.18436445500004,13.586045575000071],[100.18296888600008,13.587306085000023],[100.18127868500005,13.584925533000046],[100.17828298100005,13.583769420000067],[100.17463326300003,13.583800023000038],[100.17419707300007,13.582973565000032],[100.17702870400007,13.581206834000056],[100.18183369200005,13.581080947000032],[100.18390394100004,13.576635923000026],[100.18594918900004,13.575649171000066],[100.16158763400006,13.576489167000034],[100.16321511100006,13.565486901000043],[100.16103981600008,13.564646983000046],[100.15524623500005,13.565523964000022],[100.15218482400007,13.564789174000055],[100.15496325800007,13.56021693300005],[100.15605409700004,13.55623588800006],[100.15688870100007,13.556837794000046],[100.15983051900008,13.555530174000069],[100.15894717200007,13.553942779000067],[100.16043418000004,13.551829429000065],[100.16220957900003,13.552269230000036],[100.16250351700006,13.548672682000074],[100.16383851300009,13.547157492000053],[100.16224896400007,13.543368039000029],[100.16331511300007,13.54254429100007],[100.16014935000004,13.539160697000057],[100.15642559900004,13.53647256000005],[100.15324370500008,13.537581712000076],[100.15166528100008,13.534408203000055],[100.14887002200004,13.53379676000003],[100.14320716800006,13.529439977000038],[100.13531519700007,13.524509200000068],[100.13527380900007,13.523732220000056],[100.12795585100008,13.516498762000026],[100.12326557700004,13.519573098000023],[100.12188045500005,13.514542431000052],[100.11982212300006,13.51340540600006],[100.11655994500006,13.50772266100006],[100.11747429500008,13.504749747000062],[100.11403924600006,13.503704406000054],[100.11327532900003,13.50037622700006],[100.10591615900006,13.50315329700004],[100.08470605700006,13.497099037000055],[100.08242885800007,13.49616831800006],[100.07194274600005,13.493606209000063],[100.06732209500007,13.491216775000055],[100.05315896400003,13.485801796000032]]]},"properties":{"Shape_Leng":1.26713616706,"Shape_Area":0.0374804603379,"ADM2_EN":"Mueang Samut Sakhon","ADM2_TH":"เมืองสมุทรสาคร","ADM2_PCODE":"TH7401","ADM1_EN":"Samut Sakhon","ADM1_TH":"สมุทรสาคร","ADM1_PCODE":"TH74","ADM0_EN":"Thailand","ADM0_TH":"ประเทศไทย","ADM0_PCODE":"TH"}},
{"type":"Feature","geometry":{"type":"Polygon","coordinates":[[[100.35024229000004,13.640497348000054],[100.34851968100008,13.641008958000043],[100.34860616200007,13.643725023000059],[100.34717057500006,13.645060569000066],[100.34544933700005,13.644725233000031],[100.34467639000007,13.649228008000023],[100.34632381100005,13.649173861000065],[100.34683704300005,13.655339513000058],[100.34504517300007,13.654708008000057],[100.33938354700007,13.654990333000057],[100.33978936000005,13.657761059000052],[100.34130124700005,13.660874092000029],[100.34012855200007,13.666629310000076],[100.33882195800004,13.669583799000065],[100.33754623800007,13.677362113000072],[100.33611506200003,13.676981264000062],[100.33365196700004,13.681218079000075],[100.33384388300004,13.683517710000046],[100.33242907100004,13.688363558000049],[100.33070863100005,13.699664875000053],[100.33235310400005,13.69991770200005],[100.33231241600004,13.704174802000068],[100.33348268500004,13.70838681400005],[100.33232533500006,13.712464130000058],[100.33414435800006,13.713061560000028],[100.33510971800007,13.711204143000032],[100.33877210000009,13.712768633000053],[100.33670852300008,13.716464760000065],[100.33311072600009,13.720837635000066],[100.32421428800006,13.717326548000074],[100.32405176200007,13.718830301000025],[100.32039962500005,13.720915329000036],[100.31603542900007,13.720088544000077],[100.31559854700004,13.723010601000055],[100.31283048900008,13.721833116000028],[100.30914568000009,13.721686101000046],[100.30888829100007,13.724771909000026],[100.30658415500005,13.724070745000063],[100.30721967200009,13.719840915000077],[100.30077730400006,13.71985027200003],[100.30401419300006,13.71518326200004],[100.29806282300007,13.714189279000038],[100.29696667700006,13.71774378200007],[100.29460302600006,13.71674484600004],[100.29314462800005,13.718552857000077],[100.28999895800007,13.71775193600007],[100.28893807600008,13.715075935000073],[100.28505475600008,13.714826092000067],[100.28364568300003,13.714064954000037],[100.28354208500008,13.71180497000006],[100.28549843600007,13.711708119000036],[100.28651170600006,13.708201201000065],[100.28466338000004,13.707704730000046],[100.28418963900003,13.704144748000033],[100.28562015500006,13.703965192000055],[100.28521782600006,13.701402121000058],[100.28378707600007,13.701613716000054],[100.28371884900008,13.697318494000058],[100.28604922400007,13.697123806000036],[100.28685119100004,13.694286052000052],[100.28229442100007,13.692828736000024],[100.27815838700008,13.69281810900003],[100.27696822600006,13.688242664000029],[100.27479224300004,13.685905413000057],[100.27074667700003,13.683395778000033],[100.26816136800005,13.68315314800003],[100.26209618600006,13.685401812000066],[100.26016024000006,13.684682085000077],[100.26046982800005,13.682474655000021],[100.25848934500004,13.67960726800004],[100.25621097400006,13.680685638000057],[100.25442255100006,13.678834264000045],[100.25209056400007,13.678932631000066],[100.24362049700005,13.674649117000058],[100.24083927600009,13.679836180000052],[100.22715569400003,13.672737847000064],[100.22674275300005,13.676875706000033],[100.22409139100006,13.681405102000042],[100.21237109600008,13.681727610000053],[100.21192139800007,13.683884758000033],[100.20976699900007,13.684807721000027],[100.20330189100008,13.678371945000038],[100.19624880500004,13.676401357000032],[100.19421983400008,13.674142681000035],[100.19017214700006,13.67486537800005],[100.18908701200007,13.674010988000077],[100.18314392400003,13.685670048000077],[100.18173813000004,13.688987742000052],[100.17701641700006,13.688036331000035],[100.17629351500005,13.684696441000028],[100.17494429000004,13.682115743000054],[100.17327188300004,13.682724292000046],[100.17135058100007,13.680630305000022],[100.17340939800005,13.678556932000049],[100.16966076200003,13.674544193000031],[100.17442295300003,13.671278707000056],[100.17574258400003,13.668738401000041],[100.18035860100008,13.664483692000033],[100.18350235600008,13.66220966800006],[100.18904172100008,13.660371217000034],[100.18889524300005,13.659047142000077],[100.19081998000007,13.657687495000062],[100.20035791800007,13.654076401000054],[100.20003260200008,13.651087737000069],[100.20701625100008,13.651269269000068],[100.20593006000007,13.64341851100005],[100.20714739200008,13.642533204000074],[100.21195511100007,13.644073500000047],[100.21455782600003,13.640549692000036],[100.21877237600006,13.638385320000054],[100.22112343400005,13.63898628100003],[100.22795636900008,13.643774531000076],[100.23038625100008,13.64452757500004],[100.23272331900006,13.642525942000077],[100.23317513200004,13.639080424000042],[100.23290445000004,13.632117239000024],[100.23147876200005,13.628909324000062],[100.22967011000009,13.627157626000042],[100.22700464700006,13.62617635600003],[100.22262514100004,13.626656732000072],[100.21856834400006,13.629126614000029],[100.21504799600007,13.629296403000069],[100.21371245400007,13.628308454000035],[100.21314407000006,13.624254306000068],[100.21469268100009,13.621032849000073],[100.21656878600004,13.620640613000035],[100.22526300200008,13.622281717000021],[100.22744175800005,13.61997468800007],[100.22804705000004,13.61591594400005],[100.22790413200005,13.604494406000072],[100.22796511500007,13.605516283000043],[100.23187360100007,13.605329113000039],[100.24080598300009,13.603305254000077],[100.24444233000008,13.602796925000064],[100.24949484200005,13.604036781000048],[100.25168053300007,13.603997549000042],[100.25262978900008,13.60780272200003],[100.25551356800008,13.606742011000051],[100.25831802900007,13.60788006200005],[100.26541102600004,13.608711270000072],[100.26567181300004,13.60436263300005],[100.27062490400004,13.604939452000053],[100.27095787700006,13.609200416000022],[100.27402080000007,13.609035249000044],[100.27362767600005,13.61133194200005],[100.27685197000005,13.611510438000039],[100.27711072100004,13.612666200000035],[100.27988174600006,13.612593460000028],[100.28179411800005,13.62031840000003],[100.28537307400006,13.620046870000067],[100.28586083300007,13.62240140700004],[100.28725243000008,13.621561308000025],[100.29180869400005,13.621666412000025],[100.29633432300005,13.620998758000042],[100.30626672200003,13.621385885000052],[100.30901170200008,13.61969218300004],[100.31250855800005,13.619587187000036],[100.31367249000004,13.623720648000074],[100.31685575200004,13.623698937000029],[100.31769339200008,13.62519644200006],[100.32160970600006,13.62555003500006],[100.32400281400004,13.627701739000031],[100.32361783300007,13.630579913000076],[100.32566624300006,13.630184641000028],[100.32960810100008,13.633005034000064],[100.33168072500007,13.635743224000066],[100.33611114000007,13.638837352000053],[100.34014380200006,13.639091367000049],[100.35024229000004,13.640497348000054]]]},"properties":{"Shape_Leng":0.725743183645,"Shape_Area":0.0107569215908,"ADM2_EN":"Krathum Baen","ADM2_TH":"กระทุ่มแบน","ADM2_PCODE":"TH7402","ADM1_EN":"Samut Sakhon","ADM1_TH":"สมุทรสาคร","ADM1_PCODE":"TH74","ADM0_EN":"Thailand","ADM0_TH":"ประเทศไทย","ADM0_PCODE":"TH"}},
{"type":"Feature","geometry":{"type":"Polygon","coordinates":[[[100.22790413200005,13.604494406000072],[100.22804705000004,13.61591594400005],[100.22744175800005,13.61997468800007],[100.22526300200008,13.622281717000021],[100.21656878600004,13.620640613000035],[100.21469268100009,13.621032849000073],[100.21314407000006,13.624254306000068],[100.21371245400007,13.628308454000035],[100.21504799600007,13.629296403000069],[100.21856834400006,13.629126614000029],[100.22262514100004,13.626656732000072],[100.22700464700006,13.62617635600003],[100.22967011000009,13.627157626000042],[100.23147876200005,13.628909324000062],[100.23290445000004,13.632117239000024],[100.23317513200004,13.639080424000042],[100.23272331900006,13.642525942000077],[100.23038625100008,13.64452757500004],[100.22795636900008,13.643774531000076],[100.22112343400005,13.63898628100003],[100.21877237600006,13.638385320000054],[100.21455782600003,13.640549692000036],[100.21195511100007,13.644073500000047],[100.20714739200008,13.642533204000074],[100.20593006000007,13.64341851100005],[100.20701625100008,13.651269269000068],[100.20003260200008,13.651087737000069],[100.20035791800007,13.654076401000054],[100.19081998000007,13.657687495000062],[100.18889524300005,13.659047142000077],[100.18904172100008,13.660371217000034],[100.18350235600008,13.66220966800006],[100.18035860100008,13.664483692000033],[100.17574258400003,13.668738401000041],[100.17442295300003,13.671278707000056],[100.16966076200003,13.674544193000031],[100.17340939800005,13.678556932000049],[100.17135058100007,13.680630305000022],[100.16587701100008,13.678744207000022],[100.16359034100009,13.67678133100003],[100.15644981300005,13.680643044000021],[100.15614246100006,13.684226333000026],[100.14181623800005,13.683094078000067],[100.13229499700009,13.681372423000028],[100.13206506000006,13.68172191800005],[100.12095923200008,13.679138797000064],[100.12334656600007,13.67312898800003],[100.12133335300007,13.672551441000053],[100.12344499700004,13.66707801900003],[100.11747847900006,13.66637981100007],[100.12176689600005,13.653834692000032],[100.11162666300004,13.651648159000047],[100.10548211500009,13.649253140000042],[100.10235771300006,13.64984183000007],[100.09965348800006,13.652112841000076],[100.09472641600007,13.650346155000022],[100.09323104200007,13.653072289000022],[100.08653287600004,13.650760553000055],[100.08410701200006,13.657208882000077],[100.08009884200004,13.65775510900005],[100.07692604300007,13.657515423000063],[100.07580208100006,13.65919074900006],[100.07052395300008,13.659037349000073],[100.07032461100005,13.660245805000045],[100.06727124500009,13.660715567000068],[100.06474937600007,13.660063525000055],[100.06026616400004,13.660274689000062],[100.06088246200005,13.656743628000072],[100.05680847400004,13.647304916000053],[100.05727380000008,13.64113837900004],[100.05844599700004,13.639397485000075],[100.05858231500008,13.63508857000005],[100.05758742900008,13.63259272700003],[100.05423229900003,13.628937940000071],[100.05253639000006,13.628060062000031],[100.05389091700005,13.625904037000055],[100.05332937100007,13.622008382000047],[100.05391627200004,13.619042526000044],[100.04882878000006,13.61880042100006],[100.04648614200005,13.615802827000039],[100.04304207300004,13.615048819000037],[100.03783253300008,13.612436991000038],[100.03691691100005,13.613705288000062],[100.03492680800008,13.612630326000044],[100.03407965700006,13.614087969000025],[100.03110954200008,13.612613751000026],[100.03313237500004,13.608700502000033],[100.03834327400006,13.604310370000064],[100.04125660600005,13.599714353000024],[100.04134489700004,13.59768456200004],[100.04311803600007,13.594837166000048],[100.04268523200005,13.593752915000039],[100.03878330600008,13.593247465000047],[100.03898495100003,13.588269919000027],[100.04029494000008,13.58312137200005],[100.03722203700005,13.582497471000067],[100.03951293800009,13.577425810000022],[100.04120616400007,13.571278737000057],[100.04599703500008,13.55931398100006],[100.04259132700008,13.557591978000062],[100.04383301400009,13.554327274000059],[100.04414041600006,13.544495573000063],[100.04345544900008,13.53967271700003],[100.04194848600008,13.536526994000042],[100.03526209500006,13.533631443000047],[100.03386131200006,13.53198971200004],[100.03128232700004,13.531383763000065],[100.02897323700006,13.528822260000027],[100.03023225300007,13.52568102600003],[100.03196990200007,13.524694294000028],[100.03133703100008,13.520878585000048],[100.02793561400006,13.520404574000054],[100.02667992900007,13.518219567000074],[100.02869767700008,13.513209824000057],[100.02881595400004,13.508576559000062],[100.03446738800005,13.505053746000044],[100.03738863900008,13.50525691100006],[100.03931786900006,13.503873254000041],[100.04259295900005,13.503524345000073],[100.04204684000007,13.50219669300003],[100.04295699600004,13.498742277000076],[100.04516403100007,13.496873546000074],[100.04650422500004,13.497012403000042],[100.04874790700006,13.492284490000031],[100.05315896400003,13.485801796000032],[100.06732209500007,13.491216775000055],[100.07194274600005,13.493606209000063],[100.08242885800007,13.49616831800006],[100.08470605700006,13.497099037000055],[100.10591615900006,13.50315329700004],[100.11327532900003,13.50037622700006],[100.11403924600006,13.503704406000054],[100.11747429500008,13.504749747000062],[100.11655994500006,13.50772266100006],[100.11982212300006,13.51340540600006],[100.12188045500005,13.514542431000052],[100.12326557700004,13.519573098000023],[100.12795585100008,13.516498762000026],[100.13527380900007,13.523732220000056],[100.13531519700007,13.524509200000068],[100.14320716800006,13.529439977000038],[100.14887002200004,13.53379676000003],[100.15166528100008,13.534408203000055],[100.15324370500008,13.537581712000076],[100.15642559900004,13.53647256000005],[100.16014935000004,13.539160697000057],[100.16331511300007,13.54254429100007],[100.16224896400007,13.543368039000029],[100.16383851300009,13.547157492000053],[100.16250351700006,13.548672682000074],[100.16220957900003,13.552269230000036],[100.16043418000004,13.551829429000065],[100.15894717200007,13.553942779000067],[100.15983051900008,13.555530174000069],[100.15688870100007,13.556837794000046],[100.15605409700004,13.55623588800006],[100.15496325800007,13.56021693300005],[100.15218482400007,13.564789174000055],[100.15524623500005,13.565523964000022],[100.16103981600008,13.564646983000046],[100.16321511100006,13.565486901000043],[100.16158763400006,13.576489167000034],[100.18594918900004,13.575649171000066],[100.18390394100004,13.576635923000026],[100.18183369200005,13.581080947000032],[100.17702870400007,13.581206834000056],[100.17419707300007,13.582973565000032],[100.17463326300003,13.583800023000038],[100.17828298100005,13.583769420000067],[100.18127868500005,13.584925533000046],[100.18296888600008,13.587306085000023],[100.18436445500004,13.586045575000071],[100.18358916300008,13.584180047000075],[100.18610383100008,13.58402669700007],[100.18769314700006,13.585569410000062],[100.18898510500009,13.583546441000067],[100.19137032600008,13.584309162000068],[100.19172278000008,13.585584243000028],[100.19519378200005,13.585296175000053],[100.19795619900003,13.58426213000007],[100.20005426900008,13.586328413000047],[100.19999608700005,13.587905806000038],[100.20182637000005,13.588457094000034],[100.20240273800005,13.590880519000052],[100.20035423500008,13.590438607000067],[100.20006385400006,13.59214688000003],[100.20392522900005,13.592967988000055],[100.21030488900004,13.583254063000027],[100.21169452800007,13.587601246000077],[100.21655342600008,13.587567278000051],[100.22210008400003,13.594043642000031],[100.22367814300009,13.595052163000048],[100.22333834200003,13.596616389000076],[100.22751588900007,13.602316793000057],[100.22790413200005,13.604494406000072]]]},"properties":{"Shape_Leng":0.937976503114,"Shape_Area":0.0233224504449,"ADM2_EN":"Ban Phaeo","ADM2_TH":"บ้านแพ้ว","ADM2_PCODE":"TH7403","ADM1_EN":"Samut Sakhon","ADM1_TH":"สมุทรสาคร","ADM1_PCODE":"TH74","ADM0_EN":"Thailand","ADM0_TH":"ประเทศไทย","ADM0_PCODE":"TH"}}
]}