{"type":"FeatureCollection", "features": [
{"type":"Feature","geometry":{"type":"Polygon","coordinates":[[[100.64480773300005,13.653638436000051],[100.64075819300007,13.654635846000076],[100.63627797500004,13.648502807000057],[100.63049485100004,13.64948243400005],[100.63088845800007,13.650814368000056],[100.61982804800004,13.65469624700006],[100.61784338900009,13.656061254000065],[100.61637379300004,13.652675052000063],[100.60821220000008,13.655920670000057],[100.60871647000005,13.657214762000024],[100.60556177400008,13.65847713200003],[100.60351372800005,13.65840122000003],[100.60280961900008,13.656506618000037],[100.60043632600008,13.657379267000067],[100.60043964000005,13.659463852000044],[100.59665522000006,13.660692667000035],[100.59652883800004,13.662150586000052],[100.59210252600008,13.663807903000077],[100.59341275000008,13.649801038000021],[100.59181860500007,13.643426742000031],[100.58702487100004,13.62884232600004],[100.58160235500009,13.630418419000023],[100.57700845500005,13.634135632000039],[100.57350931100007,13.635101256000041],[100.57275507100007,13.633772863000047],[100.56877370000007,13.637330507000058],[100.56435524700004,13.633781299000077],[100.56071850200004,13.628679380000051],[100.55775606300006,13.623062753000056],[100.55468221100006,13.620980558000042],[100.55284161900005,13.621125817000063],[100.55135740800006,13.618557683000063],[100.55715969500005,13.614580870000054],[100.56233374100003,13.612362552000036],[100.57061078600003,13.61093803700004],[100.58389784900004,13.61031170800004],[100.58758238800004,13.609263845000044],[100.59022066700004,13.60742962200004],[100.59219911500008,13.602915508000024],[100.59267809700003,13.599056650000023],[100.59172903000007,13.59387096200004],[100.58987530800005,13.59027523900005],[100.58150126100008,13.578225196000062],[100.57816077100006,13.572808279000071],[100.57642347500007,13.568540905000077],[100.57613494800006,13.563210337000044],[100.57672365700006,13.559804445000054],[100.57964965700006,13.554346038000062],[100.58461264000005,13.549453157000073],[100.59068217800007,13.545970672000067],[100.59566620000004,13.542097223000042],[100.59733268100007,13.538992501000052],[100.61188939000004,13.538899895000043],[100.61769161500007,13.532824452000057],[100.62206616400005,13.529479410000022],[100.62274574400004,13.526772831000073],[100.63117408500005,13.520638606000034],[100.63687141900004,13.518723975000057],[100.64157445600006,13.517836660000057],[100.64349536300006,13.518042276000074],[100.64831279600008,13.516890879000073],[100.65415974600006,13.51637746700004],[100.66709616600008,13.511190290000059],[100.67153957600004,13.510322875000043],[100.67622982100005,13.508629658000075],[100.68119578900007,13.506234046000031],[100.68586736400005,13.50603927900005],[100.68625874000008,13.506740794000052],[100.69456314800004,13.505502071000024],[100.69479763900006,13.50610133300006],[100.70141984500003,13.505070706000026],[100.70370617900005,13.50548703100003],[100.70825458000007,13.504346732000045],[100.70777040800004,13.50162722500005],[100.72196667400004,13.500034106000044],[100.72940226400004,13.500489110000046],[100.74192103600006,13.49799144900004],[100.75534859500004,13.49510054500007],[100.76344594400007,13.493019060000051],[100.77657644400006,13.490542093000045],[100.78037276600008,13.491971804000059],[100.78106813700003,13.499901984000076],[100.78398004600007,13.508022741000048],[100.78510823500005,13.508841352000047],[100.78311888600007,13.510723552000059],[100.78671875100008,13.513016715000049],[100.78473044800006,13.51365390500007],[100.78367097000006,13.516325562000077],[100.78002806600006,13.515556307000054],[100.77771618800006,13.518455966000033],[100.77698507400004,13.520525471000042],[100.76585653500007,13.521771201000035],[100.76415947800007,13.514268451000078],[100.76435987300005,13.511431316000028],[100.75592967800009,13.512707827000042],[100.75309388200009,13.51168578200003],[100.75054213300007,13.513429228000064],[100.71374094100008,13.52074396200004],[100.69562173500003,13.523410001000059],[100.69774494900008,13.524498126000026],[100.69774298900006,13.527240638000023],[100.70055383800008,13.527677208000057],[100.70356047000007,13.538192375000051],[100.70760303300005,13.54498767900003],[100.70667001300006,13.549342383000067],[100.70334698900007,13.555592945000058],[100.70262670400007,13.559240325000076],[100.70324973200007,13.562133449000044],[100.69988095100007,13.573245954000072],[100.69919267800009,13.576650748000077],[100.69956620900007,13.578649124000037],[100.69821449900007,13.582546322000042],[100.69906598200004,13.584480275000033],[100.69778248100005,13.586494578000043],[100.69167124300009,13.584219274000077],[100.68841094200008,13.584504300000049],[100.68518898000008,13.586101902000053],[100.68212175600007,13.584639590000052],[100.67795920600008,13.58611395400004],[100.67585561900006,13.587937260000047],[100.67553926000005,13.59198047500007],[100.67350001500006,13.592529351000053],[100.67223817700005,13.599738068000022],[100.66766186300003,13.604586132000065],[100.66932929100005,13.610958527000037],[100.67061336300009,13.613903254000036],[100.66324470700005,13.614433468000072],[100.66193742800004,13.61629888300007],[100.65769958500005,13.617730729000073],[100.65464956800008,13.618109502000038],[100.64717079100006,13.620219259000066],[100.64100771700004,13.622740983000028],[100.62905742500004,13.628815343000042],[100.63430667400007,13.638302488000022],[100.64196128800006,13.64816251700006],[100.64250188600005,13.648177433000058],[100.64480773300005,13.653638436000051]]]},"properties":{"Shape_Leng":0.822417003314,"Shape_Area":0.0143648070232,"ADM2_EN":"Mueang Samut Prakan","ADM2_TH":"เมืองสมุทรปราการ","ADM2_PCODE":"TH1101","ADM1_EN":"Samut Prakan","ADM1_TH":"สมุทรปราการ","ADM1_PCODE":"TH11","ADM0_EN":"Thailand","ADM0_TH":"ประเทศไทย","ADM0_PCODE":"TH"}},
{"type":"Feature","geometry":{"type":"Polygon","coordinates":[[[100.78037276600008,13.491971804000059],[100.78365898200008,13.492996030000029],[100.79077791200007,13.493011915000068],[100.79858448300007,13.48852048200007],[100.80467514500003,13.487570983000069],[100.80935381200004,13.488909256000056],[100.81283967200005,13.489097211000058],[100.81459024000009,13.487114974000065],[100.81815950200007,13.487540728000056],[100.82294898900005,13.485580900000059],[100.83322089300003,13.482412166000074],[100.83671664000008,13.482000608000021],[100.83829943100005,13.48286517200006],[100.84003150500007,13.481815913000048],[100.84821596000006,13.480299658000035],[100.84884536000004,13.47897751100004],[100.85017644100009,13.483356097000069],[100.85644083000005,13.483798458000024],[100.86017352200008,13.484524127000043],[100.86311218700007,13.489621452000051],[100.86670152200008,13.488376126000048],[100.86704895200006,13.48929958900004],[100.86961429300004,13.488217316000032],[100.87160783400009,13.490621374000057],[100.87248136900007,13.494847137000022],[100.87276537000008,13.501626101000056],[100.87254553800005,13.507803294000041],[100.87158558100003,13.512686279000036],[100.87228486700008,13.516031354000063],[100.87404513600006,13.520117580000033],[100.87220364300003,13.523019437000073],[100.87248566000005,13.525123265000047],[100.87460851100008,13.529199922000032],[100.87549801300008,13.53428893000006],[100.87825193000003,13.541892218000044],[100.87952944300008,13.54817661800007],[100.88423203400004,13.551932906000047],[100.88613963600005,13.556742068000062],[100.88943578300007,13.557827331000055],[100.88938936100004,13.563481886000034],[100.89005663200004,13.564609813000061],[100.89722661400003,13.558993710000038],[100.90403702100008,13.554101383000045],[100.90899753400004,13.563118904000078],[100.91108577400007,13.56519187400005],[100.91174086200004,13.567247605000034],[100.91497403400007,13.570945924000057],[100.91411201100004,13.576248472000032],[100.91237127100004,13.578330227000038],[100.90698985600005,13.580561669000076],[100.90668873600004,13.587062122000077],[100.90713986500003,13.592049031000045],[100.91026300200008,13.592764643000066],[100.91398218800003,13.59238564800006],[100.91788322900004,13.594475999000053],[100.92041606000004,13.594729165000047],[100.92361433900004,13.593797031000065],[100.92647777400003,13.597486034000042],[100.92960645800008,13.600065714000038],[100.93600157300006,13.608478368000021],[100.94477730600005,13.618702884000072],[100.95876362900003,13.631768630000067],[100.96055734200007,13.634940723000057],[100.96388387000007,13.644534625000063],[100.95873819100007,13.645443026000066],[100.95448430400006,13.64682059100005],[100.95342527400004,13.648779416000025],[100.95255861200008,13.655076145000066],[100.95298315200006,13.658603882000023],[100.95582065100007,13.66237977000003],[100.91763006300005,13.675624543000026],[100.89351901500004,13.68441292600005],[100.87702784500004,13.689912312000047],[100.86076681300005,13.696903409000072],[100.85934736500008,13.689560424000035],[100.85854868900009,13.682873547000042],[100.85735373300008,13.679802843000061],[100.85942575400009,13.673405153000033],[100.85899432200006,13.670120283000074],[100.85618638900007,13.669021901000065],[100.85433070500005,13.666959005000024],[100.85296793800006,13.663029779000055],[100.84972436100009,13.65960657100004],[100.84875854200004,13.655601959000023],[100.84687226400007,13.652571481000052],[100.84829912300006,13.648970071000065],[100.84822160300007,13.64718150400006],[100.85257063000006,13.645132942000032],[100.85136734200006,13.640407822000043],[100.84690297100008,13.641271108000069],[100.84663029100005,13.639411713000072],[100.84331790300007,13.632136649000074],[100.83968148700006,13.630799917000047],[100.83933765200004,13.627727777000075],[100.83809791200008,13.625476264000042],[100.83855882900008,13.623974279000038],[100.83667670700004,13.620497727000043],[100.83816791100008,13.617439108000042],[100.84027305600006,13.617287415000021],[100.84262683300005,13.614833022000028],[100.84004349400004,13.609763733000023],[100.84204807300006,13.604702349000036],[100.84141033800006,13.601221193000072],[100.83923713300004,13.597720048000042],[100.83682772100008,13.595883246000028],[100.83532936600005,13.593393418000062],[100.83483545000007,13.590852296000037],[100.83227749400004,13.584020232000057],[100.83247412000009,13.578644009000072],[100.82502396500007,13.574472929000024],[100.82174931500003,13.57436892100003],[100.82200057100005,13.571645452000041],[100.82480669800003,13.57088595700003],[100.82841850200003,13.572052264000035],[100.82968999400003,13.569277708000072],[100.82927779100004,13.566474862000064],[100.82766616100008,13.565204208000068],[100.82223306700007,13.565180330000032],[100.82005474400006,13.565700981000077],[100.81472677200009,13.568501746000038],[100.80956588700008,13.570443308000051],[100.80521744400005,13.565402619000054],[100.80365178000005,13.561923860000036],[100.79885388500009,13.56334441000007],[100.79621940800007,13.566895509000062],[100.79024219500008,13.548577949000048],[100.78719106000005,13.55159347800003],[100.78575552000007,13.549471926000024],[100.78102359400003,13.549163236000027],[100.78041915400007,13.551484862000052],[100.77216344500005,13.553657159000068],[100.77102472300004,13.546009259000073],[100.76933134600006,13.541209236000043],[100.76784025700005,13.539420462000066],[100.76744701100006,13.53532638300004],[100.76484698800004,13.531793581000045],[100.76406318000005,13.527633147000074],[100.76680613500008,13.523510241000054],[100.76585653500007,13.521771201000035],[100.77698507400004,13.520525471000042],[100.77771618800006,13.518455966000033],[100.78002806600006,13.515556307000054],[100.78367097000006,13.516325562000077],[100.78473044800006,13.51365390500007],[100.78671875100008,13.513016715000049],[100.78311888600007,13.510723552000059],[100.78510823500005,13.508841352000047],[100.78398004600007,13.508022741000048],[100.78106813700003,13.499901984000076],[100.78037276600008,13.491971804000059]]]},"properties":{"Shape_Leng":0.814470526889,"Shape_Area":0.0189856693983,"ADM2_EN":"Bang Bo","ADM2_TH":"บางบ่อ","ADM2_PCODE":"TH1102","ADM1_EN":"Samut Prakan","ADM1_TH":"สมุทรปราการ","ADM1_PCODE":"TH11","ADM0_EN":"Thailand","ADM0_TH":"ประเทศไทย","ADM0_PCODE":"TH"}},
{"type":"Feature","geometry":{"type":"Polygon","coordinates":[[[100.76585653500007,13.521771201000035],[100.76680613500008,13.523510241000054],[100.76406318000005,13.527633147000074],[100.76484698800004,13.531793581000045],[100.76744701100006,13.53532638300004],[100.76784025700005,13.539420462000066],[100.76933134600006,13.541209236000043],[100.77102472300004,13.546009259000073],[100.77216344500005,13.553657159000068],[100.76341250400009,13.555897818000062],[100.76296920600004,13.559346712000035],[100.76798855000004,13.580579502000035],[100.76966275900008,13.582576937000056],[100.77058995600004,13.585735767000074],[100.77012424300005,13.587894317000064],[100.77183247700003,13.590355062000071],[100.77303809400007,13.593886091000059],[100.77477254800004,13.596326856000076],[100.77935212100004,13.594981586000074],[100.77986515300006,13.600099210000053],[100.78230750600005,13.602119602000073],[100.78313069300003,13.607728106000025],[100.78418422400006,13.609081358000026],[100.78466804200008,13.612246811000034],[100.78627083800006,13.614947964000066],[100.78420573500006,13.620374985000069],[100.78370299200009,13.625079909000021],[100.78470962800009,13.627711916000067],[100.78472871400004,13.631179762000045],[100.78271721700008,13.631399997000074],[100.78335924800007,13.637232452000035],[100.78059240200008,13.637671383000054],[100.78136823800008,13.641144394000037],[100.78367030500004,13.64725945500004],[100.78198004600006,13.647352887000068],[100.78547386700006,13.650914691000025],[100.78735819200006,13.656629180000039],[100.79352981200009,13.665012449000074],[100.79046637100004,13.66786475300006],[100.79215165100004,13.670999465000023],[100.79067484300003,13.677215965000073],[100.78790283800004,13.67595848600007],[100.78044509800009,13.675575194000032],[100.77119587700008,13.673462812000025],[100.76747909400007,13.674444727000036],[100.76320999600006,13.674757919000058],[100.76524569600008,13.679322692000028],[100.76990748800006,13.685968933000026],[100.77317440300004,13.692721449000032],[100.77813694000008,13.700601253000059],[100.78336225400005,13.70411481800005],[100.78554941300007,13.706538465000051],[100.78386547300005,13.707031047000044],[100.78109816900007,13.710208952000073],[100.78335778600007,13.716618769000036],[100.77912100700007,13.715991081000027],[100.77241522000008,13.716312826000035],[100.77083090000008,13.715542288000051],[100.76674616400004,13.715277461000028],[100.76430475500007,13.71650537000005],[100.75037634700004,13.71646541900003],[100.74497513100005,13.716914061000068],[100.73065790800007,13.716811001000053],[100.73044851700007,13.717786121000074],[100.71624612100004,13.718189041000073],[100.71615930000007,13.716898804000039],[100.70999435100003,13.716782075000026],[100.71238469300005,13.701290479000022],[100.71109348700008,13.701201226000023],[100.70998966200005,13.695167681000044],[100.70987389400005,13.691297152000061],[100.70731683700006,13.684838744000047],[100.70641271700003,13.678615355000034],[100.70546227000006,13.678801858000043],[100.70384488300004,13.671232015000044],[100.69996171600008,13.664314421000029],[100.69878036400007,13.660267943000065],[100.69827132300009,13.65632908300006],[100.68838956000008,13.658224406000045],[100.67862303700008,13.661364491000029],[100.67568684200006,13.663437352000074],[100.66646652600008,13.667212900000038],[100.66690756900005,13.66816975300003],[100.66102342900007,13.671677243000033],[100.65982574100008,13.670173248000026],[100.65537497500009,13.672241973000041],[100.65375584900005,13.668874384000048],[100.65087513000003,13.660608731000025],[100.64970998100006,13.652504770000064],[100.64480773300005,13.653638436000051],[100.64250188600005,13.648177433000058],[100.64196128800006,13.64816251700006],[100.63430667400007,13.638302488000022],[100.62905742500004,13.628815343000042],[100.64100771700004,13.622740983000028],[100.64717079100006,13.620219259000066],[100.65464956800008,13.618109502000038],[100.65769958500005,13.617730729000073],[100.66193742800004,13.61629888300007],[100.66324470700005,13.614433468000072],[100.67061336300009,13.613903254000036],[100.66932929100005,13.610958527000037],[100.66766186300003,13.604586132000065],[100.67223817700005,13.599738068000022],[100.67350001500006,13.592529351000053],[100.67553926000005,13.59198047500007],[100.67585561900006,13.587937260000047],[100.67795920600008,13.58611395400004],[100.68212175600007,13.584639590000052],[100.68518898000008,13.586101902000053],[100.68841094200008,13.584504300000049],[100.69167124300009,13.584219274000077],[100.69778248100005,13.586494578000043],[100.69906598200004,13.584480275000033],[100.69821449900007,13.582546322000042],[100.69956620900007,13.578649124000037],[100.69919267800009,13.576650748000077],[100.69988095100007,13.573245954000072],[100.70324973200007,13.562133449000044],[100.70262670400007,13.559240325000076],[100.70334698900007,13.555592945000058],[100.70667001300006,13.549342383000067],[100.70760303300005,13.54498767900003],[100.70356047000007,13.538192375000051],[100.70055383800008,13.527677208000057],[100.69774298900006,13.527240638000023],[100.69774494900008,13.524498126000026],[100.69562173500003,13.523410001000059],[100.71374094100008,13.52074396200004],[100.75054213300007,13.513429228000064],[100.75309388200009,13.51168578200003],[100.75592967800009,13.512707827000042],[100.76435987300005,13.511431316000028],[100.76415947800007,13.514268451000078],[100.76585653500007,13.521771201000035]]]},"properties":{"Shape_Leng":0.779235211484,"Shape_Area":0.0183161330538,"ADM2_EN":"Bang Phli","ADM2_TH":"บางพลี","ADM2_PCODE":"TH1103","ADM1_EN":"Samut Prakan","ADM1_TH":"สมุทรปราการ","ADM1_PCODE":"TH11","ADM0_EN":"Thailand","ADM0_TH":"ประเทศไทย","ADM0_PCODE":"TH"}},
{"type":"Feature","geometry":{"type":"Polygon","coordinates":[[[100.59210252600008,13.663807903000077],[100.58210260300007,13.667705587000057],[100.57945837800008,13.669222685000022],[100.58650716300008,13.678299300000049],[100.58931491300007,13.685343654000064],[100.58887897400007,13.689255690000039],[100.58719541800008,13.692646165000042],[100.58391953000006,13.69609611900006],[100.58037417100007,13.698763754000026],[100.57137094500007,13.703075786000056],[100.56116682700008,13.706053853000071],[100.55806556900006,13.70622897800007],[100.55486719200007,13.705483354000023],[100.55233985000007,13.70300422300005],[100.55135668500009,13.699635925000052],[100.55258370500007,13.68796425000005],[100.55152006000009,13.679356332000054],[100.54870406600008,13.674039919000052],[100.54409150200007,13.67031845400004],[100.53971472800004,13.668956786000024],[100.53654959900007,13.669280956000023],[100.53217931400008,13.670918201000063],[100.52909708800007,13.672981996000033],[100.52340115700008,13.677882705000059],[100.52119942200005,13.676447858000074],[100.52147717700007,13.671953322000036],[100.52043946300006,13.670903299000031],[100.52049254600007,13.668421237000075],[100.51758695400008,13.667278643000031],[100.51738989400008,13.660786296000026],[100.51673776700005,13.652818111000045],[100.51622435800004,13.65134735600003],[100.51695475400004,13.645709839000062],[100.51529291900005,13.644735910000065],[100.51607395700006,13.643365637000045],[100.51510073800006,13.639400189000071],[100.51694478500008,13.637779635000072],[100.51806959200007,13.634875000000022],[100.51423745700004,13.62843116700003],[100.51643287200005,13.618503796000027],[100.51638708500008,13.612715625000021],[100.52037922900007,13.608912076000024],[100.52103794300007,13.605141864000075],[100.52404575300005,13.605557831000056],[100.52633720000006,13.598809972000026],[100.53438788800008,13.603969928000026],[100.55056158200006,13.616508855000063],[100.55135740800006,13.618557683000063],[100.55284161900005,13.621125817000063],[100.55468221100006,13.620980558000042],[100.55775606300006,13.623062753000056],[100.56071850200004,13.628679380000051],[100.56435524700004,13.633781299000077],[100.56877370000007,13.637330507000058],[100.57275507100007,13.633772863000047],[100.57350931100007,13.635101256000041],[100.57700845500005,13.634135632000039],[100.58160235500009,13.630418419000023],[100.58702487100004,13.62884232600004],[100.59181860500007,13.643426742000031],[100.59341275000008,13.649801038000021],[100.59210252600008,13.663807903000077]]]},"properties":{"Shape_Leng":0.35942403483,"Shape_Area":0.0049271825033,"ADM2_EN":"Phra Pradaeng","ADM2_TH":"พระประแดง","ADM2_PCODE":"TH1104","ADM1_EN":"Samut Prakan","ADM1_TH":"สมุทรปราการ","ADM1_PCODE":"TH11","ADM0_EN":"Thailand","ADM0_TH":"ประเทศไทย","ADM0_PCODE":"TH"}},
{"type":"Feature","geometry":{"type":"Polygon","coordinates":[[[100.55135740800006,13.618557683000063],[100.55056158200006,13.616508855000063],[100.53438788800008,13.603969928000026],[100.52633720000006,13.598809972000026],[100.52404575300005,13.605557831000056],[100.52103794300007,13.605141864000075],[100.51374427000007,13.602594209000074],[100.51155465000005,13.597158279000041],[100.50409260800006,13.597461347000035],[100.49930657500005,13.594914415000062],[100.49859147500007,13.591193831000055],[100.49613935200006,13.588301896000075],[100.49121826700008,13.586161283000024],[100.48830696900006,13.589561077000042],[100.48221428900007,13.592470713000068],[100.48078024600005,13.597699144000046],[100.47694743600005,13.599287119000053],[100.47773154800007,13.601612769000042],[100.47693016600005,13.602955251000026],[100.47315771000007,13.599177421000036],[100.47363105100004,13.593860060000054],[100.46958648800006,13.592763908000052],[100.46685767900004,13.596993033000047],[100.46713213700008,13.598562152000056],[100.46575654400004,13.60165261800006],[100.46580914800006,13.603977128000054],[100.46290212900004,13.606053985000074],[100.45758932300004,13.604401060000043],[100.45457348200006,13.60510359500006],[100.45238456700008,13.601541441000052],[100.45213008400003,13.598235300000056],[100.44925533900005,13.590910045000044],[100.44674534200004,13.587267746000066],[100.44676627600006,13.58292947700005],[100.44461094200005,13.556774404000066],[100.44446201100004,13.553194148000046],[100.44763702000006,13.534518763000051],[100.45148331300004,13.513216283000077],[100.45369343500005,13.501979764000055],[100.45840827700005,13.502487492000057],[100.45852304100003,13.500270845000045],[100.46036094200008,13.499271896000039],[100.46401060200009,13.500460278000048],[100.46549643100008,13.502713945000039],[100.46798304500004,13.501960673000042],[100.47073790500008,13.503219070000057],[100.47254310200003,13.504985847000057],[100.47305882300009,13.50190107700007],[100.47874941300006,13.502020127000037],[100.47878561200008,13.500634672000047],[100.48065386900004,13.50074548200007],[100.48697905300008,13.50406296500006],[100.48747718200008,13.50173496800005],[100.48908826900004,13.501328344000058],[100.49079617000007,13.504356175000055],[100.49941037700006,13.50567142400007],[100.50256166500009,13.507102280000026],[100.50444437400006,13.506370740000023],[100.50764987500008,13.507413378000024],[100.51352785900008,13.506901065000022],[100.51791461000005,13.508570293000048],[100.51826194900008,13.510163817000034],[100.52005865500007,13.508880483000041],[100.52082896100006,13.51088835400003],[100.52146739600005,13.507819271000074],[100.52326534400004,13.507125046000056],[100.52525812100004,13.508876592000036],[100.52845083100004,13.508616282000048],[100.52930909000008,13.510037042000022],[100.53015877500007,13.506408984000075],[100.53177801300006,13.506240412000068],[100.53358378300004,13.509345576000044],[100.53737089400005,13.510636918000046],[100.54638175500008,13.511531330000025],[100.54682938900004,13.512402101000077],[100.54942317900009,13.511419251000063],[100.55924999400008,13.513834702000054],[100.56149131800004,13.513303407000024],[100.56756574100007,13.514444310000044],[100.56942029000004,13.516083183000035],[100.57243990400008,13.514939570000024],[100.57598315000007,13.51723886700006],[100.58211043300008,13.52273950600005],[100.58475835900003,13.526137738000045],[100.58674476700008,13.529857532000051],[100.58811695300005,13.53407885300004],[100.58447553900004,13.539268388000039],[100.59733268100007,13.538992501000052],[100.59566620000004,13.542097223000042],[100.59068217800007,13.545970672000067],[100.58461264000005,13.549453157000073],[100.57964965700006,13.554346038000062],[100.57672365700006,13.559804445000054],[100.57613494800006,13.563210337000044],[100.57642347500007,13.568540905000077],[100.57816077100006,13.572808279000071],[100.58150126100008,13.578225196000062],[100.58987530800005,13.59027523900005],[100.59172903000007,13.59387096200004],[100.59267809700003,13.599056650000023],[100.59219911500008,13.602915508000024],[100.59022066700004,13.60742962200004],[100.58758238800004,13.609263845000044],[100.58389784900004,13.61031170800004],[100.57061078600003,13.61093803700004],[100.56233374100003,13.612362552000036],[100.55715969500005,13.614580870000054],[100.55135740800006,13.618557683000063]]]},"properties":{"Shape_Leng":0.591151178396,"Shape_Area":0.013061732484,"ADM2_EN":"Phra Samut Chedi","ADM2_TH":"พระสมุทรเจดีย์","ADM2_PCODE":"TH1105","ADM1_EN":"Samut Prakan","ADM1_TH":"สมุทรปราการ","ADM1_PCODE":"TH11","ADM0_EN":"Thailand","ADM0_TH":"ประเทศไทย","ADM0_PCODE":"TH"}},
{"type":"Feature","geometry":{"type":"Polygon","coordinates":[[[100.85934736500008,13.689560424000035],[100.84098153800005,13.696893622000061],[100.84034660100008,13.696860744000048],[100.82884563200008,13.701802998000062],[100.80910572000005,13.708920701000068],[100.79454859300006,13.714463680000051],[100.78795231600009,13.716605352000045],[100.78335778600007,13.716618769000036],[100.78109816900007,13.710208952000073],[100.78386547300005,13.707031047000044],[100.78554941300007,13.706538465000051],[100.78336225400005,13.70411481800005],[100.77813694000008,13.700601253000059],[100.77317440300004,13.692721449000032],[100.76990748800006,13.685968933000026],[100.76524569600008,13.679322692000028],[100.76320999600006,13.674757919000058],[100.76747909400007,13.674444727000036],[100.77119587700008,13.673462812000025],[100.78044509800009,13.675575194000032],[100.78790283800004,13.67595848600007],[100.79067484300003,13.677215965000073],[100.79215165100004,13.670999465000023],[100.79046637100004,13.66786475300006],[100.79352981200009,13.665012449000074],[100.78735819200006,13.656629180000039],[100.78547386700006,13.650914691000025],[100.78198004600006,13.647352887000068],[100.78367030500004,13.64725945500004],[100.78136823800008,13.641144394000037],[100.78059240200008,13.637671383000054],[100.78335924800007,13.637232452000035],[100.78271721700008,13.631399997000074],[100.78472871400004,13.631179762000045],[100.78470962800009,13.627711916000067],[100.78370299200009,13.625079909000021],[100.78420573500006,13.620374985000069],[100.78627083800006,13.614947964000066],[100.78466804200008,13.612246811000034],[100.78418422400006,13.609081358000026],[100.78313069300003,13.607728106000025],[100.78230750600005,13.602119602000073],[100.77986515300006,13.600099210000053],[100.77935212100004,13.594981586000074],[100.77477254800004,13.596326856000076],[100.77303809400007,13.593886091000059],[100.77183247700003,13.590355062000071],[100.77012424300005,13.587894317000064],[100.77058995600004,13.585735767000074],[100.76966275900008,13.582576937000056],[100.76798855000004,13.580579502000035],[100.76296920600004,13.559346712000035],[100.76341250400009,13.555897818000062],[100.77216344500005,13.553657159000068],[100.78041915400007,13.551484862000052],[100.78102359400003,13.549163236000027],[100.78575552000007,13.549471926000024],[100.78719106000005,13.55159347800003],[100.79024219500008,13.548577949000048],[100.79621940800007,13.566895509000062],[100.79885388500009,13.56334441000007],[100.80365178000005,13.561923860000036],[100.80521744400005,13.565402619000054],[100.80956588700008,13.570443308000051],[100.81472677200009,13.568501746000038],[100.82005474400006,13.565700981000077],[100.82223306700007,13.565180330000032],[100.82766616100008,13.565204208000068],[100.82927779100004,13.566474862000064],[100.82968999400003,13.569277708000072],[100.82841850200003,13.572052264000035],[100.82480669800003,13.57088595700003],[100.82200057100005,13.571645452000041],[100.82174931500003,13.57436892100003],[100.82502396500007,13.574472929000024],[100.83247412000009,13.578644009000072],[100.83227749400004,13.584020232000057],[100.83483545000007,13.590852296000037],[100.83532936600005,13.593393418000062],[100.83682772100008,13.595883246000028],[100.83923713300004,13.597720048000042],[100.84141033800006,13.601221193000072],[100.84204807300006,13.604702349000036],[100.84004349400004,13.609763733000023],[100.84262683300005,13.614833022000028],[100.84027305600006,13.617287415000021],[100.83816791100008,13.617439108000042],[100.83667670700004,13.620497727000043],[100.83855882900008,13.623974279000038],[100.83809791200008,13.625476264000042],[100.83933765200004,13.627727777000075],[100.83968148700006,13.630799917000047],[100.84331790300007,13.632136649000074],[100.84663029100005,13.639411713000072],[100.84690297100008,13.641271108000069],[100.85136734200006,13.640407822000043],[100.85257063000006,13.645132942000032],[100.84822160300007,13.64718150400006],[100.84829912300006,13.648970071000065],[100.84687226400007,13.652571481000052],[100.84875854200004,13.655601959000023],[100.84972436100009,13.65960657100004],[100.85296793800006,13.663029779000055],[100.85433070500005,13.666959005000024],[100.85618638900007,13.669021901000065],[100.85899432200006,13.670120283000074],[100.85942575400009,13.673405153000033],[100.85735373300008,13.679802843000061],[100.85854868900009,13.682873547000042],[100.85934736500008,13.689560424000035]]]},"properties":{"Shape_Leng":0.574413537222,"Shape_Area":0.00960646441401,"ADM2_EN":"Bang Sao Thong","ADM2_TH":"บางเสาธง","ADM2_PCODE":"TH1106","ADM1_EN":"Samut Prakan","ADM1_TH":"สมุทรปราการ","ADM1_PCODE":"TH11","ADM0_EN":"Thailand","ADM0_TH":"ประเทศไทย","ADM0_PCODE":"TH"}}
]}