{"type":"FeatureCollection", "features": [
{"type":"Feature","geometry":{"type":"Polygon","coordinates":[[[100.96203611400006,14.566053897000074],[100.96455715500008,14.56087842100004],[100.96087531200004,14.559481995000056],[100.95880877400003,14.554307983000058],[100.95409178200003,14.55277045300005],[100.95109281300006,14.554424245000064],[100.95352718300006,14.559062926000024],[100.95706908100004,14.563140660000045],[100.95738571000004,14.565689126000052],[100.95417535300004,14.565374920000068],[100.95035198500005,14.55746698300004],[100.94645393500008,14.555384874000026],[100.94421817800009,14.555728120000026],[100.94099836800007,14.557776697000065],[100.93854178600009,14.560781561000056],[100.93500590600007,14.561183528000072],[100.93331135000005,14.566831365000041],[100.93067175400006,14.571342413000025],[100.92795895200004,14.572318735000067],[100.92500696400003,14.568700510000042],[100.92477049200005,14.560973645000047],[100.91259856400006,14.556935439000029],[100.91523564000005,14.55973883400003],[100.91552128500007,14.567107429000032],[100.91396750900009,14.567478308000034],[100.91267865500004,14.574066639000023],[100.91275561300006,14.578747373000056],[100.90845491100004,14.578067063000049],[100.90628296600005,14.57679422900003],[100.89955809700007,14.577172744000052],[100.89836395700007,14.573332006000044],[100.89328288700005,14.570006232000026],[100.89118180200006,14.566626066000026],[100.88839484100004,14.565531920000069],[100.88585208600006,14.563708417000043],[100.88422257900004,14.560273602000052],[100.88483359400004,14.554671229000064],[100.88142222900007,14.551519684000027],[100.87810715900008,14.549976968000067],[100.87990887200004,14.54097381300005],[100.87941726700006,14.532001201000071],[100.88157090400006,14.524054971000055],[100.85014877500004,14.521002504000023],[100.84916743700006,14.513472767000053],[100.85102124400004,14.512715897000078],[100.85153811800006,14.502160564000064],[100.85075636600004,14.494647479000037],[100.85346047100006,14.490791368000032],[100.85396875900005,14.487632358000042],[100.85252883700008,14.48463399800005],[100.84907963300009,14.481950710000035],[100.84521619100008,14.474086157000045],[100.84458292100004,14.469569174000071],[100.84760045100006,14.465221094000071],[100.84518218900007,14.459408770000039],[100.85178929200003,14.45684009100006],[100.85802971400005,14.456389992000027],[100.86303601300006,14.454188914000042],[100.86775844100003,14.454802315000052],[100.86937818800004,14.454193453000073],[100.86894334800007,14.445771542000045],[100.87805763000006,14.445379941000056],[100.87939017600007,14.448555292000037],[100.88203276100006,14.450922067000022],[100.88606110800004,14.45173270500004],[100.89593103300007,14.457398462000072],[100.90728734500004,14.461354967000034],[100.91151090900007,14.462027342000056],[100.92408943900006,14.46276886100003],[100.92636817700009,14.462191679000057],[100.92907961200007,14.459685085000046],[100.93053489900007,14.451572613000053],[100.93448517000007,14.447600075000025],[100.93473675800004,14.444985505000034],[100.93378028500007,14.440794682000046],[100.93516366500006,14.43546075200004],[100.93926327900004,14.433992139000054],[100.94386201200007,14.436295672000028],[100.94737148300004,14.436217758000055],[100.95089953600007,14.433237891000033],[100.95932572900006,14.42932925100007],[100.96471799300008,14.426230933000056],[100.96804629100006,14.421946668000032],[100.97077787800004,14.42113471500005],[100.97569980500003,14.428358367000044],[100.97807171800008,14.429963202000067],[100.98449151000005,14.428783572000043],[100.98920845100008,14.42352224900003],[100.99146773800004,14.418643470000063],[100.99272789400004,14.421993044000033],[100.99507049400006,14.422695228000066],[100.99754386500007,14.419598162000057],[101.00021307100008,14.417760420000036],[100.99901779700008,14.422663126000032],[101.00129338000005,14.438299376000032],[101.00151365800008,14.445173092000061],[100.99734498700008,14.456889119000039],[100.99099033100003,14.465531721000048],[100.98877093800007,14.467581530000075],[100.98440384200006,14.469068290000052],[100.98086601300008,14.472344218000046],[100.97635863300007,14.472803063000072],[100.97422346700006,14.475607829000069],[100.97521706100008,14.479264944000022],[100.97141984900009,14.481660658000067],[100.97033292300006,14.48383867900003],[100.96859135400007,14.48229593800005],[100.96622211100004,14.482819737000057],[100.96499214000005,14.486190399000066],[100.96245477500008,14.487620338000056],[100.96226729200004,14.490803622000044],[100.96731605600007,14.488770330000023],[100.97232979300009,14.488326852000057],[100.97194770000004,14.48679431000005],[100.97865669200007,14.484412201000055],[100.97837625900007,14.48276437800007],[100.98252449200004,14.480844276000028],[100.98387103500005,14.481958371000076],[100.98676114200003,14.481136768000056],[100.98998765300007,14.487982677000048],[100.98851752800005,14.489047846000062],[100.98848207700007,14.496560200000033],[100.99068712300004,14.500128522000068],[100.98637546300006,14.501143597000066],[100.98603682000004,14.504350916000021],[100.98442644100004,14.508114747000036],[100.98036399300008,14.509990678000065],[100.97843331900003,14.513803263000057],[100.97889153700004,14.518168460000027],[100.97573874400007,14.521079669000073],[100.97475497200008,14.525361661000034],[100.97567407700006,14.530319925000072],[100.97745357900004,14.531915426000069],[100.98099432400005,14.53301996700003],[100.98473632200006,14.533161810000024],[100.98885430300004,14.531748741000058],[100.99568909500005,14.541626421000046],[100.99095663300005,14.544539933000067],[100.98830345700009,14.547117308000054],[100.98806749100004,14.548794978000046],[100.98457850300008,14.550191792000078],[100.98236952800005,14.553546056000073],[100.97904500400006,14.55450176100004],[100.97249722400005,14.559097812000061],[100.96848096000008,14.563230199000031],[100.96791869700007,14.566825437000034],[100.96203611400006,14.566053897000074]]]},"properties":{"Shape_Leng":0.814196813183,"Shape_Area":0.0150728404257,"ADM2_EN":"Mueang Saraburi","ADM2_TH":"เมืองสระบุรี","ADM2_PCODE":"TH1901","ADM1_EN":"Saraburi","ADM1_TH":"สระบุรี","ADM1_PCODE":"TH19","ADM0_EN":"Thailand","ADM0_TH":"ประเทศไทย","ADM0_PCODE":"TH"}},
{"type":"Feature","geometry":{"type":"Polygon","coordinates":[[[101.00021307100008,14.417760420000036],[101.00225588100005,14.41652995100003],[101.00799356700009,14.41684059000005],[101.01145345200007,14.414593438000054],[101.01179748900006,14.412572333000071],[101.01700021000005,14.409780774000069],[101.02275212200004,14.410284071000035],[101.02550889500009,14.40867200200006],[101.02687776100004,14.409427617000063],[101.02676639600008,14.411914822000028],[101.02814381800005,14.413614207000023],[101.03306398400008,14.413879504000022],[101.04224479400006,14.413058887000034],[101.05139288800007,14.413869699000031],[101.05328758500008,14.412313636000022],[101.05707182500004,14.414346968000075],[101.05837563700004,14.413046842000028],[101.06193896400003,14.414610621000065],[101.06430288200005,14.41162257700006],[101.06413709700007,14.409986133000075],[101.06752266700005,14.406246193000072],[101.07178468600006,14.40519422400007],[101.07168304000004,14.401201010000023],[101.07306183200006,14.396653726000068],[101.07663718800006,14.388352700000041],[101.08158488800007,14.385889078000048],[101.08463223000007,14.385202456000059],[101.08544059400003,14.383227967000039],[101.09014611000003,14.382069174000037],[101.09542102400007,14.381606846000068],[101.09831745000008,14.380021278000072],[101.09802969500004,14.383340324000073],[101.10104137600007,14.383186181000042],[101.10112443900005,14.384521188000065],[101.10639553000004,14.385031770000069],[101.11233246500007,14.383083947000046],[101.11454351600008,14.385452626000074],[101.11626402100006,14.382559890000039],[101.12165545300007,14.38437725700004],[101.12569546500004,14.383727962000023],[101.12840645500006,14.382230254000035],[101.12982361300004,14.37845638300007],[101.13243766100004,14.376625026000056],[101.14380205200007,14.373414695000065],[101.14665313600005,14.37377818300007],[101.15107019500005,14.370294043000058],[101.15273178200005,14.365641236000045],[101.15764321600005,14.357384932000059],[101.15638398000004,14.354790646000026],[101.15754658300006,14.347433390000049],[101.16387808600007,14.345129315000065],[101.16572385300003,14.34237577700003],[101.16634907200006,14.348019650000026],[101.16817755800008,14.348987461000036],[101.17816203800004,14.347169569000073],[101.17869592600005,14.34919231200007],[101.18550349600008,14.354304480000053],[101.18513259200006,14.358057250000059],[101.18623062400007,14.360229620000041],[101.18642948200005,14.366197922000026],[101.19267346600009,14.370566556000028],[101.19680130800003,14.369444540000075],[101.19999732100007,14.369525717000045],[101.20308694100004,14.37120105400004],[101.20669550200006,14.370793588000026],[101.21006418900004,14.371997684000064],[101.21184516600005,14.38154053900007],[101.20989876400006,14.382498399000042],[101.20902662800006,14.385289840000041],[101.20420710600007,14.391007584000022],[101.20503336800004,14.397686595000039],[101.20247293400007,14.402987296000049],[101.20522500700008,14.407273841000062],[101.21127557700004,14.413617411000075],[101.21059542700004,14.418413488000056],[101.21100259100007,14.42097030800005],[101.20919893300004,14.428206621000072],[101.21177853200004,14.43391284200004],[101.21501004200007,14.43763883500003],[101.21967203000008,14.43619622600005],[101.22367885900007,14.434060333000048],[101.22674762400004,14.430714988000034],[101.23006553500005,14.433832948000031],[101.22861197900005,14.437599529000067],[101.22449937900006,14.443880485000022],[101.22248391200009,14.44537832800006],[101.22343511600008,14.447732876000032],[101.22748195700007,14.451582063000046],[101.23137373800006,14.451902380000035],[101.23407570600006,14.456553050000025],[101.23421780100006,14.458825081000043],[101.23111197300005,14.463010199000053],[101.22716354900007,14.462631338000051],[101.22590356300009,14.46380061700006],[101.22693303000005,14.466576099000065],[101.22499578300005,14.471260234000056],[101.22583848100004,14.47301494900006],[101.22903631900004,14.474022438000077],[101.23910401300009,14.471124644000042],[101.24283172200006,14.471104316000037],[101.23640022800004,14.476579530000038],[101.22796492900005,14.479524121000054],[101.21550845600007,14.481373723000047],[101.21172164700005,14.480390983000063],[101.20946022900006,14.480764326000042],[101.20540732400008,14.483213721000027],[101.20175712900004,14.482624842000064],[101.19476299600007,14.486319578000064],[101.19180163900006,14.486789534000025],[101.18799694800003,14.48615809200004],[101.18490065000003,14.488721977000068],[101.17622845600005,14.489308824000034],[101.17258706100006,14.490058181000052],[101.17147665300007,14.494781636000027],[101.17162804900005,14.498888280000074],[101.16680861300006,14.507508385000051],[101.16556305600005,14.513799686000027],[101.16170698500008,14.516910632000076],[101.15377346100007,14.519097466000062],[101.14661422600005,14.525399803000028],[101.14239520300004,14.537226516000032],[101.14263993800006,14.540285452000035],[101.14586568200008,14.541671042000075],[101.14874865300004,14.546214079000038],[101.15487098000006,14.547596918000067],[101.15971820600004,14.546679965000067],[101.16167192300009,14.550012265000078],[101.16099916600007,14.551298184000075],[101.16198305200004,14.555326196000067],[101.16657938000009,14.558688958000062],[101.16741205600005,14.560521952000045],[101.16677706400009,14.563605879000022],[101.16412413400008,14.566530149000073],[101.16396164900004,14.568859101000044],[101.16156792700008,14.57131978800004],[101.15869046200004,14.572714628000028],[101.15424046100009,14.57710663100005],[101.14866719100007,14.580995028000075],[101.14419131500006,14.581858423000028],[101.14181980300003,14.583307729000069],[101.14125751400007,14.585580824000033],[101.13674420600006,14.588317848000031],[101.13512072200007,14.59339415200003],[101.13626354500008,14.595878538000022],[101.13532566000003,14.600970494000023],[101.13237969100004,14.605632954000043],[101.12860368500009,14.613356182000075],[101.12957705800005,14.619130072000075],[101.12838201700004,14.620366776000026],[101.12499959900003,14.619877677000034],[101.12340333400005,14.622159711000052],[101.12335298100004,14.625157742000056],[101.12949897600004,14.630515794000075],[101.13132463400007,14.634050212000034],[101.12847329100003,14.637043277000032],[101.13084154200004,14.641120913000066],[101.13313643900005,14.648378939000054],[101.13257390200005,14.650865539000051],[101.12503487700008,14.654700652000031],[101.12430003300005,14.651169745000061],[101.12270573500007,14.64921855800003],[101.12168726900006,14.652451579000058],[101.11744576300003,14.653553338000052],[101.11634929200005,14.657600992000027],[101.11246701200008,14.657464987000026],[101.10870305100008,14.659113768000054],[101.10767705500007,14.661578147000057],[101.10236950300003,14.66431536500005],[101.09785038900009,14.667503750000037],[101.09610001400006,14.670492470000056],[101.09072181200008,14.67344902700006],[101.08728489400005,14.674275401000045],[101.08516224000005,14.678932085000042],[101.07981111200007,14.682765303000053],[101.08088568700003,14.685018440000022],[101.08025219700005,14.68732884800005],[101.07691141800007,14.688353636000045],[101.07292749600003,14.692936408000037],[101.07231714900007,14.696640384000034],[101.07292992900005,14.700393813000062],[101.07233496200007,14.705576247000067],[101.07325676500005,14.708508532000053],[101.07697097900007,14.71113065000003],[101.07855593300008,14.713507467000056],[101.07764237100008,14.715324525000028],[101.07430666400006,14.716595978000043],[101.07526177900007,14.720136843000034],[101.07543917700008,14.730676333000076],[101.07069683400005,14.73216573700006],[101.06633835000008,14.730964653000058],[101.06667725100004,14.727161894000062],[101.06181624100009,14.72531284200005],[101.06349151700005,14.720876497000063],[101.06243231200006,14.719637590000048],[101.05365099300008,14.720486524000023],[101.05459891200007,14.723364550000042],[101.05851554300006,14.725362106000034],[101.05814041100007,14.73167182900005],[101.06048005100007,14.734839000000022],[101.05940046000006,14.741224616000068],[101.05680885300006,14.743341512000029],[101.05697195800008,14.746015793000026],[101.05481290300008,14.74872031800004],[101.06146064400008,14.753708937000056],[101.06371057500007,14.756221124000035],[101.06098292100006,14.759725925000055],[101.06053931100007,14.763974975000053],[101.06243343000006,14.765817698000035],[101.05997683000004,14.769370307000031],[101.05807692100007,14.768477727000061],[101.05793103700006,14.771491753000078],[101.05622395100005,14.773983099000077],[101.05431568300008,14.774603009000032],[101.05616488800007,14.776799484000037],[101.05897502400006,14.777718422000078],[101.05416123900005,14.786415146000024],[101.04978718500007,14.79260940000006],[101.04514810700005,14.794747499000039],[101.04176190900006,14.79719516700004],[101.04212209500008,14.798419334000073],[101.03831098200004,14.800881847000028],[101.03267117100006,14.801185672000031],[101.02854291600005,14.808291492000023],[101.02784955000004,14.807301983000059],[101.02566075200008,14.81026730700006],[101.02388084700004,14.809935740000071],[101.02264117500005,14.806464174000041],[101.02015084000004,14.802642150000054],[101.01673381500007,14.800766852000038],[101.01527035200007,14.798546247000047],[101.01507083200005,14.79503531100005],[101.01331321300006,14.793929410000032],[101.01049971500004,14.789064765000035],[101.00604697700004,14.784458998000048],[101.00267668900005,14.782272049000028],[101.00005045900008,14.778599507000024],[100.99806001800005,14.77773600100005],[100.99512914100006,14.770313255000076],[100.99247536900003,14.768445427000074],[100.99235161100006,14.765660629000024],[100.99092631800005,14.763097666000021],[100.99107254800003,14.758380421000027],[100.99228022900007,14.75501741000005],[100.99043722200008,14.750563154000076],[100.99104273500006,14.74407373200006],[100.99211897400005,14.74196438000007],[100.99056043500008,14.740791122000076],[100.98381094100006,14.745147202000055],[100.98027452600007,14.745270281000046],[100.97707807200004,14.749028843000076],[100.97417145600008,14.74970303200007],[100.97024605500008,14.74898409800005],[100.96627103200007,14.75151646300003],[100.96432047400003,14.749398094000071],[100.96299856900004,14.74559350900006],[100.95947452200005,14.743768713000065],[100.95898839800009,14.739571054000066],[100.95774046500009,14.737946204000025],[100.95448060200005,14.736608777000072],[100.95334529300004,14.73397092600004],[100.95429415500007,14.73191190700004],[100.95366464100005,14.729423541000074],[100.95573235000006,14.726570351000078],[100.95531298000009,14.723541579000027],[100.95650217300005,14.717251670000053],[100.95446694000003,14.714676735000069],[100.94731018600004,14.71030318000004],[100.94682905000008,14.708490651000034],[100.94735617600008,14.703089379000062],[100.94125641900007,14.697106348000034],[100.93850852700007,14.695790941000041],[100.93505900400004,14.695492386000069],[100.93852644800006,14.69173741800006],[100.94260036700007,14.679712013000028],[100.94645015800006,14.677106343000048],[100.95149898800008,14.675330277000057],[100.95098295200006,14.670041921000063],[100.94969893400008,14.665587725000023],[100.95083807800006,14.664208208000048],[100.95030446500004,14.659864308000067],[100.94897766000008,14.65684876000006],[100.94925354800006,14.654609148000077],[100.94651308300007,14.648948111000038],[100.94534365300007,14.642740961000072],[100.94333530100005,14.638509829000043],[100.94000313800007,14.634710190000021],[100.94158848200004,14.633743275000029],[100.93968841200007,14.627626922000047],[100.94218978800006,14.625242207000042],[100.94813045100005,14.60660742500005],[100.95083516000005,14.59744052700006],[100.95095900700005,14.595202353000047],[100.95325849100004,14.58945866700003],[100.95418694300008,14.583839172000069],[100.95968301500005,14.570082538000065],[100.96199858000006,14.56981707500006],[100.96203611400006,14.566053897000074],[100.96791869700007,14.566825437000034],[100.96848096000008,14.563230199000031],[100.97249722400005,14.559097812000061],[100.97904500400006,14.55450176100004],[100.98236952800005,14.553546056000073],[100.98457850300008,14.550191792000078],[100.98806749100004,14.548794978000046],[100.98830345700009,14.547117308000054],[100.99095663300005,14.544539933000067],[100.99568909500005,14.541626421000046],[100.98885430300004,14.531748741000058],[100.98473632200006,14.533161810000024],[100.98099432400005,14.53301996700003],[100.97745357900004,14.531915426000069],[100.97567407700006,14.530319925000072],[100.97475497200008,14.525361661000034],[100.97573874400007,14.521079669000073],[100.97889153700004,14.518168460000027],[100.97843331900003,14.513803263000057],[100.98036399300008,14.509990678000065],[100.98442644100004,14.508114747000036],[100.98603682000004,14.504350916000021],[100.98637546300006,14.501143597000066],[100.99068712300004,14.500128522000068],[100.98848207700007,14.496560200000033],[100.98851752800005,14.489047846000062],[100.98998765300007,14.487982677000048],[100.98676114200003,14.481136768000056],[100.98387103500005,14.481958371000076],[100.98252449200004,14.480844276000028],[100.97837625900007,14.48276437800007],[100.97865669200007,14.484412201000055],[100.97194770000004,14.48679431000005],[100.97232979300009,14.488326852000057],[100.96731605600007,14.488770330000023],[100.96226729200004,14.490803622000044],[100.96245477500008,14.487620338000056],[100.96499214000005,14.486190399000066],[100.96622211100004,14.482819737000057],[100.96859135400007,14.48229593800005],[100.97033292300006,14.48383867900003],[100.97141984900009,14.481660658000067],[100.97521706100008,14.479264944000022],[100.97422346700006,14.475607829000069],[100.97635863300007,14.472803063000072],[100.98086601300008,14.472344218000046],[100.98440384200006,14.469068290000052],[100.98877093800007,14.467581530000075],[100.99099033100003,14.465531721000048],[100.99734498700008,14.456889119000039],[101.00151365800008,14.445173092000061],[101.00129338000005,14.438299376000032],[100.99901779700008,14.422663126000032],[101.00021307100008,14.417760420000036]]]},"properties":{"Shape_Leng":1.75988032236,"Shape_Area":0.0680129889155,"ADM2_EN":"Kaeng Khoi","ADM2_TH":"แก่งคอย","ADM2_PCODE":"TH1902","ADM1_EN":"Saraburi","ADM1_TH":"สระบุรี","ADM1_PCODE":"TH19","ADM0_EN":"Thailand","ADM0_TH":"ประเทศไทย","ADM0_PCODE":"TH"}},
{"type":"Feature","geometry":{"type":"Polygon","coordinates":[[[100.84518218900007,14.459408770000039],[100.84307342300008,14.456324446000053],[100.83775509600008,14.452586458000042],[100.83602316800005,14.446745694000072],[100.83405205000008,14.445056573000045],[100.83366766100005,14.438791446000039],[100.83507778900008,14.437120120000031],[100.83257673000008,14.436347133000027],[100.82945150400008,14.433677811000052],[100.82490957500005,14.435012339000025],[100.82334293500008,14.439200867000068],[100.81857561900006,14.440432864000059],[100.81068369900004,14.440833937000036],[100.79316052800004,14.443227566000076],[100.78567710300007,14.441326969000045],[100.78129013800009,14.43591166300007],[100.77493584200005,14.43074976500003],[100.77236061700006,14.434628474000021],[100.76265819800005,14.427499715000067],[100.76845330300006,14.422673245000055],[100.76572032700005,14.418225824000046],[100.76187901700007,14.415989272000047],[100.75948059900009,14.413459984000042],[100.75946289200004,14.411728021000044],[100.76251654400005,14.40931160200006],[100.76905233800005,14.406916429000034],[100.77181455000004,14.406916280000075],[100.77457386100008,14.411764220000066],[100.77768467600004,14.413636825000026],[100.77777044100009,14.41209103400007],[100.78042284600008,14.411234377000028],[100.78197728700007,14.407860137000057],[100.78314486300008,14.402672322000058],[100.78056228700007,14.397687632000043],[100.78409457500004,14.396778189000031],[100.78614864200006,14.395185539000067],[100.79360180300006,14.394568091000053],[100.79706258500005,14.390015585000071],[100.79204449000008,14.38937194500005],[100.79083101400005,14.383187839000072],[100.78788282800008,14.379695881000032],[100.78503042400007,14.379762664000054],[100.78526761300009,14.375373707000051],[100.78801202100004,14.37523083900004],[100.78674207500006,14.371705425000073],[100.78735353900004,14.365129215000024],[100.79290133100005,14.364049865000027],[100.79096168900008,14.362652422000053],[100.78809126700008,14.356813180000074],[100.78344521500009,14.355117286000052],[100.78372058500008,14.349445948000039],[100.78164348100006,14.347703091000028],[100.78058113700007,14.343623896000054],[100.78106961700007,14.34089825500007],[100.77670839100006,14.337697072000026],[100.77399025000005,14.336925916000041],[100.77430601400005,14.334110500000065],[100.77756203300004,14.327765003000025],[100.77219969700008,14.325244041000076],[100.77550453200007,14.318618553000022],[100.78506716400005,14.323155350000036],[100.80299886800003,14.324912767000058],[100.81124211600007,14.325083311000071],[100.81542556900007,14.326521008000043],[100.81931666300005,14.328769801000021],[100.82317983000007,14.329661398000042],[100.82321761300005,14.304317408000031],[100.82305783900006,14.245288671000026],[100.82149886400003,14.242746399000055],[100.82672683500004,14.245114324000042],[100.87852975900006,14.269829186000038],[100.89154523600007,14.27595109400005],[100.90662535000007,14.283154558000035],[100.90671989600008,14.299511805000066],[100.93780674400006,14.31439787000005],[100.93150514800004,14.32771989400004],[100.93082191000008,14.328331424000055],[100.92431420000008,14.341236906000063],[100.92234287400004,14.341744035000033],[100.92187864700009,14.344533484000067],[100.92020018300008,14.34615863700003],[100.93081986200008,14.345799150000062],[100.93224440700004,14.353403961000026],[100.93143963900008,14.356978731000027],[100.93329557800007,14.361185264000028],[100.93543092800007,14.362859945000025],[100.93971575800003,14.362874116000057],[100.94548576500006,14.370504744000073],[100.94773809800006,14.375716668000052],[100.95400318200006,14.382765333000066],[100.95572738400006,14.389484537000044],[100.95863425800007,14.391307049000034],[100.96163112800008,14.394807350000065],[100.96198905000006,14.397927646000028],[100.95839194700005,14.398242770000024],[100.95897494300004,14.400345040000047],[100.95759436900005,14.402548972000034],[100.95242817900004,14.405378787000075],[100.94922877100004,14.408352270000023],[100.94835296800005,14.41076763500007],[100.94506005700003,14.411819071000025],[100.94744754300007,14.417030521000072],[100.94815333600008,14.422178321000047],[100.94766531800008,14.423912900000062],[100.94192161500007,14.427046399000062],[100.94054389800004,14.43198981200004],[100.93926327900004,14.433992139000054],[100.93516366500006,14.43546075200004],[100.93378028500007,14.440794682000046],[100.93473675800004,14.444985505000034],[100.93448517000007,14.447600075000025],[100.93053489900007,14.451572613000053],[100.92907961200007,14.459685085000046],[100.92636817700009,14.462191679000057],[100.92408943900006,14.46276886100003],[100.91151090900007,14.462027342000056],[100.90728734500004,14.461354967000034],[100.89593103300007,14.457398462000072],[100.88606110800004,14.45173270500004],[100.88203276100006,14.450922067000022],[100.87939017600007,14.448555292000037],[100.87805763000006,14.445379941000056],[100.86894334800007,14.445771542000045],[100.86937818800004,14.454193453000073],[100.86775844100003,14.454802315000052],[100.86303601300006,14.454188914000042],[100.85802971400005,14.456389992000027],[100.85178929200003,14.45684009100006],[100.84518218900007,14.459408770000039]]]},"properties":{"Shape_Leng":0.895519164874,"Shape_Area":0.0259331872861,"ADM2_EN":"Nong Khae","ADM2_TH":"หนองแค","ADM2_PCODE":"TH1903","ADM1_EN":"Saraburi","ADM1_TH":"สระบุรี","ADM1_PCODE":"TH19","ADM0_EN":"Thailand","ADM0_TH":"ประเทศไทย","ADM0_PCODE":"TH"}},
{"type":"Feature","geometry":{"type":"Polygon","coordinates":[[[100.93926327900004,14.433992139000054],[100.94054389800004,14.43198981200004],[100.94192161500007,14.427046399000062],[100.94766531800008,14.423912900000062],[100.94815333600008,14.422178321000047],[100.94744754300007,14.417030521000072],[100.94506005700003,14.411819071000025],[100.94835296800005,14.41076763500007],[100.94922877100004,14.408352270000023],[100.95242817900004,14.405378787000075],[100.95759436900005,14.402548972000034],[100.95897494300004,14.400345040000047],[100.95839194700005,14.398242770000024],[100.96198905000006,14.397927646000028],[100.96163112800008,14.394807350000065],[100.95863425800007,14.391307049000034],[100.95572738400006,14.389484537000044],[100.95400318200006,14.382765333000066],[100.94773809800006,14.375716668000052],[100.94548576500006,14.370504744000073],[100.93971575800003,14.362874116000057],[100.93543092800007,14.362859945000025],[100.93329557800007,14.361185264000028],[100.93143963900008,14.356978731000027],[100.93224440700004,14.353403961000026],[100.93081986200008,14.345799150000062],[100.92020018300008,14.34615863700003],[100.92187864700009,14.344533484000067],[100.92234287400004,14.341744035000033],[100.92431420000008,14.341236906000063],[100.93082191000008,14.328331424000055],[100.93150514800004,14.32771989400004],[100.93780674400006,14.31439787000005],[100.90671989600008,14.299511805000066],[100.90662535000007,14.283154558000035],[100.89154523600007,14.27595109400005],[100.89158842100005,14.243650193000065],[100.89230362300003,14.243705200000022],[100.95913132100009,14.275519422000059],[100.96557097800007,14.279502849000039],[100.96425733200005,14.281757712000058],[100.98061399400007,14.291513574000021],[100.98456034400004,14.291257199000029],[100.98717493300006,14.287065598000027],[100.98854675600006,14.287533275000044],[100.98998085800008,14.290551492000077],[100.98992043400006,14.293746227000042],[100.98868492300005,14.297498637000047],[100.99670673800006,14.29998779400006],[100.99811491600008,14.298955871000032],[101.00375363700005,14.299793844000021],[101.01134928200008,14.300062270000069],[101.01543911600004,14.30217378900005],[101.01475750300006,14.30623709400004],[101.01937346900007,14.315639993000048],[101.02204017700006,14.315389720000042],[101.02542992500008,14.319759506000025],[101.02538589500006,14.321110516000033],[101.02923717900006,14.324746227000048],[101.03328499500009,14.32559348500007],[101.03369990500005,14.328831334000029],[101.04060148500008,14.333699718000048],[101.04270220800004,14.337910952000072],[101.04445333200005,14.33738898300004],[101.04821518800009,14.339875636000045],[101.04915813900004,14.350225324000064],[101.04871472000008,14.352257757000075],[101.05031764800003,14.353841399000032],[101.05118262400003,14.358969022000053],[101.05511473400009,14.35896875700007],[101.05647222200008,14.363848398000073],[101.06282878300004,14.372215316000052],[101.06317815200003,14.379386054000065],[101.05712602600005,14.385672339000052],[101.05569984200008,14.390582565000045],[101.05449056400005,14.391782516000035],[101.05622646300009,14.396198383000069],[101.05810049600007,14.39799425900003],[101.05710478900005,14.402900751000061],[101.05722768200008,14.40853171200007],[101.05648825000009,14.410594823000054],[101.05328758500008,14.412313636000022],[101.05139288800007,14.413869699000031],[101.04224479400006,14.413058887000034],[101.03306398400008,14.413879504000022],[101.02814381800005,14.413614207000023],[101.02676639600008,14.411914822000028],[101.02687776100004,14.409427617000063],[101.02550889500009,14.40867200200006],[101.02275212200004,14.410284071000035],[101.01700021000005,14.409780774000069],[101.01179748900006,14.412572333000071],[101.01145345200007,14.414593438000054],[101.00799356700009,14.41684059000005],[101.00225588100005,14.41652995100003],[101.00021307100008,14.417760420000036],[100.99754386500007,14.419598162000057],[100.99507049400006,14.422695228000066],[100.99272789400004,14.421993044000033],[100.99146773800004,14.418643470000063],[100.98920845100008,14.42352224900003],[100.98449151000005,14.428783572000043],[100.97807171800008,14.429963202000067],[100.97569980500003,14.428358367000044],[100.97077787800004,14.42113471500005],[100.96804629100006,14.421946668000032],[100.96471799300008,14.426230933000056],[100.95932572900006,14.42932925100007],[100.95089953600007,14.433237891000033],[100.94737148300004,14.436217758000055],[100.94386201200007,14.436295672000028],[100.93926327900004,14.433992139000054]]]},"properties":{"Shape_Leng":0.730908105222,"Shape_Area":0.0157103319297,"ADM2_EN":"Wihan Daeng","ADM2_TH":"วิหารแดง","ADM2_PCODE":"TH1904","ADM1_EN":"Saraburi","ADM1_TH":"สระบุรี","ADM1_PCODE":"TH19","ADM0_EN":"Thailand","ADM0_TH":"ประเทศไทย","ADM0_PCODE":"TH"}},
{"type":"Feature","geometry":{"type":"Polygon","coordinates":[[[100.85014877500004,14.521002504000023],[100.83255787500008,14.519307019000053],[100.82726668500004,14.517651799000078],[100.81895173900006,14.512527600000055],[100.81203790800004,14.519947064000064],[100.80560728200004,14.527357772000073],[100.80240334900009,14.528698052000038],[100.80008791700004,14.531191513000067],[100.79579996800004,14.530314633000046],[100.79289899400004,14.532705646000068],[100.78916451300006,14.534214815000041],[100.78660869700008,14.530946616000051],[100.78147366600007,14.530356391000055],[100.77865228600007,14.530733977000068],[100.77525167900006,14.526965907000033],[100.77161056600005,14.526323456000057],[100.76733443700004,14.524185946000046],[100.76542225900005,14.52461781200003],[100.76197813300007,14.522922464000033],[100.75941558900007,14.518973932000051],[100.75442553700003,14.519263632000047],[100.75312291600005,14.518024629000024],[100.74975786500005,14.518453686000043],[100.74744441000007,14.51324395100005],[100.75150484000005,14.505998098000077],[100.75671834200006,14.505260518000057],[100.75730073400007,14.502079550000076],[100.75891696800005,14.502046767000024],[100.76032114700007,14.499692233000076],[100.76047777200006,14.494337529000063],[100.76430784600007,14.494022060000077],[100.76357494700005,14.49800902800007],[100.76728378400009,14.498357886000065],[100.76829786500008,14.495527002000074],[100.77167219000006,14.49414181800006],[100.77188358900008,14.49207956500004],[100.76984233000007,14.489497698000037],[100.76739887300005,14.489819767000029],[100.76562352400003,14.484341254000071],[100.77301225700006,14.483671318000063],[100.77377555900006,14.48098621500003],[100.76939889600004,14.478324370000053],[100.76630266100005,14.478439026000046],[100.76692377000006,14.47572333100004],[100.76922678800008,14.475321704000066],[100.76809903700007,14.472365516000025],[100.76815725400007,14.468880529000046],[100.77023552300005,14.466705262000062],[100.76879885700004,14.462472805000061],[100.76658479900004,14.460854710000035],[100.76620803200007,14.453997877000063],[100.76176675900007,14.454299476000074],[100.76111685600006,14.451552528000036],[100.77236061700006,14.434628474000021],[100.77493584200005,14.43074976500003],[100.78129013800009,14.43591166300007],[100.78567710300007,14.441326969000045],[100.79316052800004,14.443227566000076],[100.81068369900004,14.440833937000036],[100.81857561900006,14.440432864000059],[100.82334293500008,14.439200867000068],[100.82490957500005,14.435012339000025],[100.82945150400008,14.433677811000052],[100.83257673000008,14.436347133000027],[100.83507778900008,14.437120120000031],[100.83366766100005,14.438791446000039],[100.83405205000008,14.445056573000045],[100.83602316800005,14.446745694000072],[100.83775509600008,14.452586458000042],[100.84307342300008,14.456324446000053],[100.84518218900007,14.459408770000039],[100.84760045100006,14.465221094000071],[100.84458292100004,14.469569174000071],[100.84521619100008,14.474086157000045],[100.84907963300009,14.481950710000035],[100.85252883700008,14.48463399800005],[100.85396875900005,14.487632358000042],[100.85346047100006,14.490791368000032],[100.85075636600004,14.494647479000037],[100.85153811800006,14.502160564000064],[100.85102124400004,14.512715897000078],[100.84916743700006,14.513472767000053],[100.85014877500004,14.521002504000023]]]},"properties":{"Shape_Leng":0.446812291509,"Shape_Area":0.00707888390002,"ADM2_EN":"Nong Saeng","ADM2_TH":"หนองแซง","ADM2_PCODE":"TH1905","ADM1_EN":"Saraburi","ADM1_TH":"สระบุรี","ADM1_PCODE":"TH19","ADM0_EN":"Thailand","ADM0_TH":"ประเทศไทย","ADM0_PCODE":"TH"}},
{"type":"Feature","geometry":{"type":"Polygon","coordinates":[[[100.74823524900006,14.657101436000062],[100.74552937900006,14.657583379000073],[100.73793870300005,14.657057129000066],[100.73382919300008,14.656148893000022],[100.72645283800006,14.656431239000028],[100.72574488400005,14.653972320000037],[100.71733674200004,14.656282359000045],[100.71482660300006,14.662098840000056],[100.71092607500003,14.661620963000075],[100.71049422800007,14.665461612000058],[100.70462432900007,14.66869235400003],[100.70063491200006,14.671710304000044],[100.69107356600006,14.672568279000075],[100.68226864200005,14.675792750000028],[100.67930600300008,14.67327031800005],[100.67973760700005,14.666527771000062],[100.67847793700008,14.659907410000073],[100.67399663600008,14.657104236000066],[100.67969863000008,14.641975537000064],[100.66940859300007,14.639396564000037],[100.66438911000006,14.635648193000065],[100.66320426500005,14.636864338000066],[100.66169923300004,14.634364141000049],[100.65363107300004,14.637379687000077],[100.64949714700003,14.639957493000054],[100.64830705000008,14.638285556000028],[100.64654930800003,14.639265718000047],[100.64515517900008,14.636911883000039],[100.64254004500003,14.638468686000067],[100.64088281500005,14.635877160000064],[100.64277042100008,14.63516929900004],[100.65268279000009,14.629504014000076],[100.65799166400006,14.624919155000043],[100.66006783900008,14.621949375000042],[100.65637504000006,14.615255495000042],[100.65032722100005,14.614725379000049],[100.64278925100007,14.604082815000027],[100.64425544200009,14.601303422000058],[100.64328290700007,14.600102930000048],[100.64303066500008,14.594495519000077],[100.64101812200005,14.592890719000025],[100.63932035700009,14.589145691000056],[100.63692234900009,14.589694387000065],[100.63444175200004,14.583780254000033],[100.63417156800006,14.578441414000054],[100.63470030200006,14.568042042000059],[100.62220608600006,14.562426945000027],[100.62615757900005,14.559103556000025],[100.62763307700004,14.556432864000044],[100.63090849500009,14.555780585000036],[100.63283296800006,14.552358100000049],[100.63898276400005,14.55112759800005],[100.64232108600004,14.549394131000042],[100.64784063300004,14.548472616000026],[100.65777095700008,14.549627577000024],[100.66083568600004,14.552469139000038],[100.66669729900008,14.556572664000043],[100.67635357600005,14.558148928000037],[100.67685921900005,14.564037871000039],[100.67393037100004,14.56492247500006],[100.67475393100005,14.574370874000067],[100.67156754800004,14.575532716000055],[100.66897447200006,14.582483855000078],[100.66171556100005,14.588793753000061],[100.66242068800005,14.590035865000061],[100.65968167200003,14.592351172000065],[100.65902589300003,14.596579433000045],[100.65683284000005,14.599791761000063],[100.65663207500006,14.603453242000057],[100.65478812500004,14.606372118000024],[100.65926221500007,14.605506656000045],[100.65933624800005,14.602555685000027],[100.66565649200004,14.599846970000044],[100.67272123100008,14.598341539000046],[100.67677951400003,14.595537079000053],[100.67668203600005,14.594240012000057],[100.67926870500008,14.591780450000044],[100.68023713000008,14.585631533000026],[100.68512878000007,14.582137816000056],[100.69519984800007,14.58059651900004],[100.70117844700007,14.57908786300004],[100.70323731700006,14.576630924000028],[100.70551556700008,14.576774079000074],[100.71244889800005,14.574940291000075],[100.71737553400004,14.576438021000058],[100.72429177800007,14.575967002000027],[100.72410389000004,14.571580095000058],[100.73043355800007,14.570849989000067],[100.73079030400004,14.569377023000072],[100.73802725700006,14.56934678500005],[100.74615519200006,14.57007352100004],[100.76324802300007,14.568458823000071],[100.76339511500004,14.567256083000075],[100.76891976000007,14.566102547000071],[100.77381637500008,14.566929070000072],[100.78270467300007,14.567032528000027],[100.78187090800009,14.570585976000075],[100.78123658800007,14.578684778000024],[100.77974743600004,14.581432844000062],[100.78347762300007,14.58146239000007],[100.78412241600006,14.582600444000036],[100.78875194900007,14.58339154600003],[100.79631022000007,14.586237107000045],[100.79749352900006,14.589040048000072],[100.79787667900007,14.592948499000045],[100.79938782600004,14.595258514000022],[100.80013368600004,14.599221345000046],[100.80367198800008,14.599761973000057],[100.80493135700004,14.605533039000022],[100.79326133200004,14.613891469000066],[100.79208139900004,14.616025929000045],[100.79858721500005,14.621920945000056],[100.80043440300005,14.628497676000052],[100.80220990700008,14.62859099600007],[100.80374463800007,14.63371587000006],[100.80422323000005,14.638042255000073],[100.79664112100005,14.643178660000046],[100.78948102400005,14.646593788000075],[100.78225563600006,14.647132290000059],[100.78097355600005,14.652064004000067],[100.77630850600008,14.654324817000031],[100.77273497500005,14.653438225000059],[100.76881436100007,14.654073279000045],[100.76736389200005,14.655817548000073],[100.76159931500007,14.657206256000052],[100.75992963100003,14.653722822000077],[100.75236801300008,14.654876839000053],[100.74823524900006,14.657101436000062]]]},"properties":{"Shape_Leng":0.732821560267,"Shape_Area":0.0129344552233,"ADM2_EN":"Ban Mo","ADM2_TH":"บ้านหมอ","ADM2_PCODE":"TH1906","ADM1_EN":"Saraburi","ADM1_TH":"สระบุรี","ADM1_PCODE":"TH19","ADM0_EN":"Thailand","ADM0_TH":"ประเทศไทย","ADM0_PCODE":"TH"}},
{"type":"Feature","geometry":{"type":"Polygon","coordinates":[[[100.64088281500005,14.635877160000064],[100.63776153000003,14.63934233200007],[100.63053203300007,14.649993705000043],[100.62693311300006,14.654858689000037],[100.62199015400006,14.652411556000061],[100.62181680000003,14.650658828000076],[100.61914770600004,14.64869537900006],[100.61601709600006,14.649105508000048],[100.61435057100005,14.647072172000037],[100.61178576600008,14.646844100000067],[100.60884065200008,14.648085478000041],[100.60597100800004,14.653401107000036],[100.60228489700006,14.655050733000053],[100.59701408800004,14.650337892000039],[100.59375219300006,14.646113126000046],[100.58373611000007,14.630155161000062],[100.58198596700004,14.62440686900004],[100.58265698400004,14.623146395000049],[100.58006434100008,14.619467091000047],[100.58324374400007,14.61597946300003],[100.58270926000006,14.613576998000042],[100.57770680700008,14.610028691000025],[100.57683739800007,14.60238006700007],[100.57904312100004,14.599604605000025],[100.57809058500004,14.59829897800006],[100.57498189300009,14.598834902000021],[100.57530143500009,14.595919925000032],[100.57989794100007,14.591102517000024],[100.58344641200006,14.592373113000065],[100.58475311400008,14.589191775000074],[100.58759644600008,14.590260055000044],[100.58879735400006,14.58720680600004],[100.59118764800007,14.58666058800003],[100.59453649000005,14.583263617000057],[100.60338904900004,14.578691161000052],[100.60266128500007,14.573620410000046],[100.60327969100007,14.572876472000075],[100.60283897100004,14.567383797000048],[100.60119806700004,14.558984482000028],[100.60184496400007,14.554215713000076],[100.60847354800006,14.55793723100004],[100.61598916600008,14.56323704500005],[100.61953452600005,14.564218422000067],[100.62220608600006,14.562426945000027],[100.63470030200006,14.568042042000059],[100.63417156800006,14.578441414000054],[100.63444175200004,14.583780254000033],[100.63692234900009,14.589694387000065],[100.63932035700009,14.589145691000056],[100.64101812200005,14.592890719000025],[100.64303066500008,14.594495519000077],[100.64328290700007,14.600102930000048],[100.64425544200009,14.601303422000058],[100.64278925100007,14.604082815000027],[100.65032722100005,14.614725379000049],[100.65637504000006,14.615255495000042],[100.66006783900008,14.621949375000042],[100.65799166400006,14.624919155000043],[100.65268279000009,14.629504014000076],[100.64277042100008,14.63516929900004],[100.64088281500005,14.635877160000064]]]},"properties":{"Shape_Leng":0.333597276716,"Shape_Area":0.00478663885731,"ADM2_EN":"Don Phut","ADM2_TH":"ดอนพุด","ADM2_PCODE":"TH1907","ADM1_EN":"Saraburi","ADM1_TH":"สระบุรี","ADM1_PCODE":"TH19","ADM0_EN":"Thailand","ADM0_TH":"ประเทศไทย","ADM0_PCODE":"TH"}},
{"type":"Feature","geometry":{"type":"Polygon","coordinates":[[[100.74823524900006,14.657101436000062],[100.75006402500009,14.66001402300003],[100.75138684500007,14.670762556000057],[100.75403272000005,14.67188075100006],[100.75770366700004,14.672052388000054],[100.76063109000006,14.674223445000052],[100.75877802800005,14.680221477000032],[100.75039888800006,14.680150015000038],[100.74931069300004,14.678815775000032],[100.73750322800004,14.679334029000074],[100.72601974100007,14.687425112000028],[100.72424676600008,14.689852324000071],[100.71406982100007,14.70952347900004],[100.71526576200006,14.710337081000034],[100.72239676600009,14.71098515500006],[100.72273784500004,14.714257117000045],[100.72424499900006,14.717407838000042],[100.72382515700008,14.720173815000066],[100.72503871700007,14.728819586000043],[100.72443734100005,14.731298535000064],[100.72128491000007,14.731755096000029],[100.71941835300004,14.734996800000033],[100.71979152100005,14.738804319000053],[100.71828277700007,14.741501667000023],[100.71478588700006,14.742440358000067],[100.71063149500009,14.74475687000006],[100.70808190000008,14.744962620000024],[100.70942411800007,14.748014592000061],[100.72376787200005,14.758456227000067],[100.72453262900007,14.760059856000055],[100.71905847400006,14.759945260000052],[100.71219121200005,14.761875834000023],[100.70244860700006,14.760706683000024],[100.69501076000006,14.760521579000056],[100.68916969800006,14.75917974500004],[100.68853380600007,14.756094149000035],[100.68651039100007,14.75604317400007],[100.68578815400008,14.749264414000038],[100.68355316100008,14.749052291000055],[100.68037503100004,14.744500752000022],[100.67468677900007,14.744501409000065],[100.67200878700004,14.743165378000072],[100.67053704800009,14.74050621300006],[100.66805485800006,14.732064163000075],[100.66521372500006,14.735270480000054],[100.65129403100008,14.710321499000031],[100.65054784600005,14.706536776000064],[100.65701483400005,14.704447517000062],[100.65531442000008,14.702489459000049],[100.65503041000005,14.69866522600006],[100.65092310500006,14.698211105000041],[100.64999787900007,14.69247860300004],[100.64621436700008,14.686929530000043],[100.64176298000007,14.676347366000073],[100.63595979400009,14.670297231000063],[100.64042235900007,14.668473450000022],[100.63590740900008,14.662895013000025],[100.63370093600008,14.658273016000066],[100.63053203300007,14.649993705000043],[100.63776153000003,14.63934233200007],[100.64088281500005,14.635877160000064],[100.64254004500003,14.638468686000067],[100.64515517900008,14.636911883000039],[100.64654930800003,14.639265718000047],[100.64830705000008,14.638285556000028],[100.64949714700003,14.639957493000054],[100.65363107300004,14.637379687000077],[100.66169923300004,14.634364141000049],[100.66320426500005,14.636864338000066],[100.66438911000006,14.635648193000065],[100.66940859300007,14.639396564000037],[100.67969863000008,14.641975537000064],[100.67399663600008,14.657104236000066],[100.67847793700008,14.659907410000073],[100.67973760700005,14.666527771000062],[100.67930600300008,14.67327031800005],[100.68226864200005,14.675792750000028],[100.69107356600006,14.672568279000075],[100.70063491200006,14.671710304000044],[100.70462432900007,14.66869235400003],[100.71049422800007,14.665461612000058],[100.71092607500003,14.661620963000075],[100.71482660300006,14.662098840000056],[100.71733674200004,14.656282359000045],[100.72574488400005,14.653972320000037],[100.72645283800006,14.656431239000028],[100.73382919300008,14.656148893000022],[100.73793870300005,14.657057129000066],[100.74552937900006,14.657583379000073],[100.74823524900006,14.657101436000062]]]},"properties":{"Shape_Leng":0.548731886488,"Shape_Area":0.00772973150124,"ADM2_EN":"Nong Don","ADM2_TH":"หนองโดน","ADM2_PCODE":"TH1908","ADM1_EN":"Saraburi","ADM1_TH":"สระบุรี","ADM1_PCODE":"TH19","ADM0_EN":"Thailand","ADM0_TH":"ประเทศไทย","ADM0_PCODE":"TH"}},
{"type":"Feature","geometry":{"type":"Polygon","coordinates":[[[100.80367198800008,14.599761973000057],[100.81577151400006,14.600692583000068],[100.82139624700005,14.605880100000036],[100.82301937300008,14.608469009000032],[100.82262697700008,14.618228026000054],[100.82315915800007,14.620728278000058],[100.82854990400006,14.620478111000068],[100.83799695500005,14.62182950600004],[100.83833044400006,14.627819852000073],[100.84094219400004,14.629254123000067],[100.84355035500005,14.632253297000034],[100.84558267200003,14.637690196000051],[100.84624303600003,14.647840547000044],[100.84693193200007,14.651290914000072],[100.84892990200007,14.65165909700005],[100.85102170400006,14.654994053000053],[100.85649042000006,14.657269599000074],[100.85887061600005,14.665544643000032],[100.85982759100006,14.666755676000037],[100.85794348700006,14.671876977000068],[100.85917944300007,14.676189658000055],[100.85551561100004,14.677347057000077],[100.85442455000003,14.680516313000055],[100.85437447000004,14.685892631000058],[100.84911984900003,14.696469870000044],[100.84700977200004,14.699771354000063],[100.84589146200005,14.705132283000069],[100.84456443400006,14.705630690000078],[100.84720410900007,14.712858064000045],[100.84827732500008,14.713803727000027],[100.84947095800004,14.721955122000054],[100.85196019500006,14.724506571000063],[100.85265968000004,14.728689931000076],[100.85517861000005,14.728010608000034],[100.85781999800008,14.725811750000048],[100.86463705600005,14.725987915000076],[100.87012702700008,14.728848632000052],[100.87318781600004,14.731450594000023],[100.87753022100009,14.733135331000028],[100.88042632200006,14.737981297000033],[100.88653829200007,14.739122760000043],[100.88958364500007,14.737118120000048],[100.89292116600006,14.736911947000067],[100.89632200300008,14.738130157000057],[100.90112470500009,14.73767760100003],[100.90587146900003,14.735103271000071],[100.90857506600008,14.73592437800005],[100.90905252100004,14.739053378000051],[100.91544817200008,14.740492047000032],[100.91765470600006,14.744688832000065],[100.91907758500008,14.74501348900003],[100.92291564100003,14.74297838800004],[100.93248661100006,14.745514746000026],[100.93566774000004,14.743092174000026],[100.94363481200008,14.741983173000051],[100.94348543400008,14.744448529000067],[100.94106931600004,14.750368115000072],[100.93298035900006,14.75252813800006],[100.92828406300004,14.750611903000049],[100.92443292400009,14.751878150000039],[100.91631493200003,14.756413057000032],[100.91307410000007,14.756701366000073],[100.90669351700006,14.760715308000044],[100.90455457400009,14.767308246000027],[100.90186731900008,14.769701869000073],[100.89953762600004,14.770156283000063],[100.89407152700005,14.769362576000049],[100.89082322800004,14.770685750000041],[100.88873579700004,14.772899410000036],[100.88571754900005,14.771735634000038],[100.87679048900009,14.770379900000023],[100.87051677600004,14.771093378000046],[100.86740605400007,14.768071152000061],[100.86508115100008,14.777500001000021],[100.86487281500007,14.78227455700005],[100.86162810100006,14.782524072000058],[100.85818108100005,14.785055529000033],[100.85404953400007,14.786032257000045],[100.85165207800009,14.787962985000036],[100.84580460400008,14.789375600000028],[100.84528164000005,14.790983949000065],[100.84816958400006,14.793505236000044],[100.84859468300004,14.796193029000051],[100.84755614300008,14.800933946000043],[100.84600336200003,14.802657277000037],[100.84176259300006,14.804188908000071],[100.83715741500004,14.804670240000064],[100.82770041600008,14.803316706000032],[100.81947215900004,14.803247175000024],[100.81796189100004,14.79946209700006],[100.81437842600008,14.795340898000063],[100.80827787000004,14.793747334000045],[100.80413250600009,14.794317472000046],[100.80037399300005,14.792026415000066],[100.79398913300008,14.791430503000072],[100.79085541900008,14.79211446100004],[100.78911929600008,14.793931798000074],[100.78444291000005,14.793962340000064],[100.77907854600005,14.795307422000064],[100.77450836800006,14.794547066000064],[100.76665615400003,14.796589375000053],[100.76527074700005,14.791276371000038],[100.76185895100008,14.787316099000066],[100.75759716800007,14.785601955000061],[100.75317211700008,14.780525992000037],[100.75032971300004,14.77890340600004],[100.73751882400006,14.776772571000038],[100.72752909700006,14.76293931500004],[100.72453262900007,14.760059856000055],[100.72376787200005,14.758456227000067],[100.70942411800007,14.748014592000061],[100.70808190000008,14.744962620000024],[100.71063149500009,14.74475687000006],[100.71478588700006,14.742440358000067],[100.71828277700007,14.741501667000023],[100.71979152100005,14.738804319000053],[100.71941835300004,14.734996800000033],[100.72128491000007,14.731755096000029],[100.72443734100005,14.731298535000064],[100.72503871700007,14.728819586000043],[100.72382515700008,14.720173815000066],[100.72424499900006,14.717407838000042],[100.72273784500004,14.714257117000045],[100.72239676600009,14.71098515500006],[100.71526576200006,14.710337081000034],[100.71406982100007,14.70952347900004],[100.72424676600008,14.689852324000071],[100.72601974100007,14.687425112000028],[100.73750322800004,14.679334029000074],[100.74931069300004,14.678815775000032],[100.75039888800006,14.680150015000038],[100.75877802800005,14.680221477000032],[100.76063109000006,14.674223445000052],[100.75770366700004,14.672052388000054],[100.75403272000005,14.67188075100006],[100.75138684500007,14.670762556000057],[100.75006402500009,14.66001402300003],[100.74823524900006,14.657101436000062],[100.75236801300008,14.654876839000053],[100.75992963100003,14.653722822000077],[100.76159931500007,14.657206256000052],[100.76736389200005,14.655817548000073],[100.76881436100007,14.654073279000045],[100.77273497500005,14.653438225000059],[100.77630850600008,14.654324817000031],[100.78097355600005,14.652064004000067],[100.78225563600006,14.647132290000059],[100.78948102400005,14.646593788000075],[100.79664112100005,14.643178660000046],[100.80422323000005,14.638042255000073],[100.80374463800007,14.63371587000006],[100.80220990700008,14.62859099600007],[100.80043440300005,14.628497676000052],[100.79858721500005,14.621920945000056],[100.79208139900004,14.616025929000045],[100.79326133200004,14.613891469000066],[100.80493135700004,14.605533039000022],[100.80367198800008,14.599761973000057]]]},"properties":{"Shape_Leng":0.880449147138,"Shape_Area":0.0216752396733,"ADM2_EN":"Phra Phutthabat","ADM2_TH":"พระพุทธบาท","ADM2_PCODE":"TH1909","ADM1_EN":"Saraburi","ADM1_TH":"สระบุรี","ADM1_PCODE":"TH19","ADM0_EN":"Thailand","ADM0_TH":"ประเทศไทย","ADM0_PCODE":"TH"}},
{"type":"Feature","geometry":{"type":"Polygon","coordinates":[[[100.88839484100004,14.565531920000069],[100.88779046900004,14.56603222900003],[100.88810037700006,14.572772720000046],[100.88947837400008,14.576364560000059],[100.88934558500006,14.58008275800006],[100.89263985000008,14.584226210000054],[100.89424591900007,14.585177558000055],[100.89260064200005,14.587511347000031],[100.88781856100007,14.591190293000068],[100.88756109500008,14.587431578000064],[100.88518114700008,14.586409166000067],[100.88355032700008,14.58938594500006],[100.88659986200008,14.590056554000057],[100.88382117200007,14.59089216700005],[100.88449854000004,14.593670710000026],[100.88282500200006,14.59626557300004],[100.88845375300008,14.597717677000048],[100.88972599600004,14.600680031000024],[100.88708937700005,14.601297216000034],[100.88532459600003,14.603125962000036],[100.88517090400006,14.606745771000021],[100.88322448600007,14.610980694000034],[100.88342480200004,14.613478000000043],[100.87866101200007,14.615124275000028],[100.86606480100005,14.617211191000024],[100.86762164900006,14.624173455000061],[100.87113319500008,14.629454803000044],[100.87174730100008,14.632864361000031],[100.87373149400008,14.634888715000045],[100.87274884800007,14.636927626000045],[100.86957330100006,14.638380884000071],[100.87112872800009,14.646817141000042],[100.87069969500004,14.649969060000046],[100.86739742600008,14.650935485000048],[100.86949552100003,14.660124089000021],[100.86799648500005,14.666483267000046],[100.85887061600005,14.665544643000032],[100.85649042000006,14.657269599000074],[100.85102170400006,14.654994053000053],[100.84892990200007,14.65165909700005],[100.84693193200007,14.651290914000072],[100.84624303600003,14.647840547000044],[100.84558267200003,14.637690196000051],[100.84355035500005,14.632253297000034],[100.84094219400004,14.629254123000067],[100.83833044400006,14.627819852000073],[100.83799695500005,14.62182950600004],[100.82854990400006,14.620478111000068],[100.82315915800007,14.620728278000058],[100.82262697700008,14.618228026000054],[100.82301937300008,14.608469009000032],[100.82139624700005,14.605880100000036],[100.81577151400006,14.600692583000068],[100.80367198800008,14.599761973000057],[100.80013368600004,14.599221345000046],[100.79938782600004,14.595258514000022],[100.79787667900007,14.592948499000045],[100.79749352900006,14.589040048000072],[100.79631022000007,14.586237107000045],[100.78875194900007,14.58339154600003],[100.78412241600006,14.582600444000036],[100.78347762300007,14.58146239000007],[100.77974743600004,14.581432844000062],[100.78123658800007,14.578684778000024],[100.78187090800009,14.570585976000075],[100.78270467300007,14.567032528000027],[100.78125776200005,14.56395529200006],[100.78072557900003,14.560025107000058],[100.77710815900008,14.556455680000056],[100.77643623000006,14.553747471000065],[100.77679999700007,14.547144156000059],[100.77454058800004,14.546142505000034],[100.77608255100006,14.543329141000072],[100.77741235100007,14.535405026000035],[100.77701684700008,14.533803258000034],[100.77865228600007,14.530733977000068],[100.78147366600007,14.530356391000055],[100.78660869700008,14.530946616000051],[100.78916451300006,14.534214815000041],[100.79289899400004,14.532705646000068],[100.79579996800004,14.530314633000046],[100.80008791700004,14.531191513000067],[100.80240334900009,14.528698052000038],[100.80560728200004,14.527357772000073],[100.81203790800004,14.519947064000064],[100.81895173900006,14.512527600000055],[100.82726668500004,14.517651799000078],[100.83255787500008,14.519307019000053],[100.85014877500004,14.521002504000023],[100.88157090400006,14.524054971000055],[100.87941726700006,14.532001201000071],[100.87990887200004,14.54097381300005],[100.87810715900008,14.549976968000067],[100.88142222900007,14.551519684000027],[100.88483359400004,14.554671229000064],[100.88422257900004,14.560273602000052],[100.88585208600006,14.563708417000043],[100.88839484100004,14.565531920000069]]]},"properties":{"Shape_Leng":0.546000635062,"Shape_Area":0.0100389713956,"ADM2_EN":"Sao Hai","ADM2_TH":"เสาไห้","ADM2_PCODE":"TH1910","ADM1_EN":"Saraburi","ADM1_TH":"สระบุรี","ADM1_PCODE":"TH19","ADM0_EN":"Thailand","ADM0_TH":"ประเทศไทย","ADM0_PCODE":"TH"}},
{"type":"Feature","geometry":{"type":"Polygon","coordinates":[[[101.24283172200006,14.471104316000037],[101.23856930200009,14.478779520000046],[101.23439258000008,14.484485019000033],[101.22600700100008,14.49449837700007],[101.22309836100004,14.50411073600003],[101.21885550600007,14.505533040000046],[101.21661350400007,14.50713556200003],[101.21417735700004,14.511242078000066],[101.21077226200003,14.515221929000063],[101.21030133500005,14.520247790000042],[101.20355646600007,14.521773512000038],[101.19715910700006,14.525174972000059],[101.19577927100005,14.53056620500007],[101.19461013200004,14.531157743000051],[101.19031081000008,14.52814446900004],[101.18346569100004,14.53468108800007],[101.18463813200003,14.535930654000026],[101.18371917400003,14.539725511000029],[101.18113875000006,14.543563020000022],[101.18144376700008,14.547400271000072],[101.18542848900006,14.551870593000046],[101.18866652200006,14.551665386000025],[101.19038163900007,14.554385401000047],[101.19464516100004,14.553445244000045],[101.19359886800004,14.557161284000074],[101.19412876500007,14.561707370000022],[101.19670952700005,14.56204438800006],[101.19792509100006,14.564561247000029],[101.20070260300008,14.564791871000068],[101.19971456800005,14.568198727000038],[101.20061314700007,14.571195964000026],[101.20461617500007,14.576622953000026],[101.20681721200003,14.577280333000033],[101.20519500400007,14.580171799000027],[101.20833953300007,14.580685663000054],[101.20890213900009,14.583954671000072],[101.21345667200006,14.58626384200005],[101.21496449000006,14.585919508000075],[101.21581990800007,14.590527120000047],[101.21206630700004,14.592793313000072],[101.21109823000006,14.595658284000024],[101.20857210800006,14.59494750400006],[101.21043723300005,14.599399676000075],[101.20422224800006,14.608353432000058],[101.20802672400004,14.612688759000036],[101.20448187200009,14.615771623000057],[101.20509409700009,14.619160683000075],[101.20412077900005,14.623813808000023],[101.20555382700007,14.62468804200006],[101.20604946100008,14.62962297200005],[101.20795939100009,14.630034812000076],[101.20834096300007,14.633210101000032],[101.20651575700003,14.634495228000048],[101.20698592500008,14.638639067000042],[101.20534453700009,14.639328661000036],[101.20492614000005,14.644263038000076],[101.20623400800008,14.647814178000033],[101.20422211000005,14.649813316000063],[101.20357316300004,14.65262242600005],[101.20537121900009,14.653041322000036],[101.20409685000004,14.657877265000025],[101.20256011000004,14.659932366000078],[101.20265379700004,14.662408285000026],[101.20130766500006,14.663967306000075],[101.19914814100008,14.663546842000073],[101.20049000100005,14.665577262000056],[101.20020997700004,14.67255738700004],[101.20205196900008,14.675244711000062],[101.20116628700004,14.679789868000057],[101.20380086200004,14.683389989000034],[101.20080213700004,14.684485519000077],[101.20117899700006,14.689238794000062],[101.19886598600004,14.694847792000076],[101.19584267700009,14.696068401000048],[101.19670219400007,14.699997435000057],[101.19501288900005,14.701476714000023],[101.19588899700005,14.703025671000034],[101.19366852100006,14.70365501200007],[101.19508354800007,14.705426942000031],[101.19203456500009,14.70635810300007],[101.19048947300007,14.709508553000035],[101.18643967400004,14.711380057000042],[101.18917066800009,14.714502493000055],[101.18761369000003,14.717241387000058],[101.18752209200005,14.720343890000038],[101.18508478800004,14.721791573000075],[101.18722850200004,14.72538035100007],[101.19131985600006,14.724120919000029],[101.19075400500009,14.725850294000054],[101.19396687800008,14.731744555000034],[101.19064849400007,14.733688968000024],[101.19239740300009,14.735237746000053],[101.19407760300004,14.73988218900007],[101.19110566900008,14.743920015000072],[101.18844316900004,14.745412174000023],[101.18865545900007,14.749175321000052],[101.19206363900008,14.749013145000049],[101.19313605900004,14.751090529000066],[101.19719420400008,14.749173100000064],[101.19825250500008,14.750400791000061],[101.19685257700007,14.754197646000023],[101.19894691400003,14.755928070000039],[101.20209379800008,14.753638740000042],[101.20839601300008,14.751002180000057],[101.20887545400007,14.75411470000006],[101.21106022200007,14.756920274000038],[101.21085779400005,14.754468229000054],[101.21335018500008,14.754776238000034],[101.21559220000006,14.753538408000054],[101.21586395900005,14.750554369000042],[101.21728001100007,14.748654435000049],[101.21612320200006,14.746706783000036],[101.21873214900006,14.745836976000078],[101.22421033100005,14.742566832000023],[101.22452714700006,14.740150372000073],[101.22675752200007,14.739169395000033],[101.22647645900008,14.737603639000042],[101.22921634300008,14.735347621000074],[101.23009472000007,14.735894270000074],[101.23169438500008,14.732009186000028],[101.23385389900005,14.734787323000035],[101.23747320900009,14.732488081000042],[101.24020971000004,14.733612024000024],[101.24310734600004,14.732067005000033],[101.24764649500008,14.732082871000046],[101.24809957700006,14.734765078000066],[101.25035952200005,14.733764204000067],[101.25050201300007,14.732111735000046],[101.25404782800007,14.731623471000034],[101.25522046000003,14.73272707500007],[101.25688487800005,14.730178573000046],[101.25900442900007,14.730115627000032],[101.26047243900007,14.732503244000043],[101.26298898300007,14.733456767000064],[101.26483652000007,14.730617296000048],[101.26679981500007,14.73069993300004],[101.26704332600008,14.728659439000069],[101.27022409800009,14.728418757000043],[101.27108876200003,14.726515047000078],[101.27662565500003,14.72735220900006],[101.27802124600004,14.726009995000027],[101.28091246900004,14.726229594000074],[101.28282911300005,14.729928568000048],[101.28202608700008,14.733192169000063],[101.28312080900008,14.74107095000005],[101.28237282600008,14.74485917800007],[101.28379344800004,14.745962887000076],[101.28711007500004,14.745983135000074],[101.28886005400005,14.739892213000076],[101.29187552100007,14.736192299000038],[101.29859261000007,14.73715760600004],[101.30258901100007,14.74119717800005],[101.30347362000003,14.74488425800007],[101.30212590100007,14.74636754200003],[101.30154156500004,14.750534419000076],[101.30504883200007,14.756875766000064],[101.30901882800003,14.758931657000062],[101.31283954300005,14.758516975000077],[101.31355072000008,14.760175666000066],[101.31691647300005,14.759628613000075],[101.32049149700003,14.761912258000052],[101.32482777500007,14.758366071000069],[101.32779099100009,14.758655700000077],[101.32777174100005,14.759830604000058],[101.33443612800005,14.766603145000033],[101.33591086800004,14.770480274000022],[101.33771545900004,14.770855416000074],[101.33879540000004,14.774403337000024],[101.33597877500006,14.77735318300006],[101.33670921800007,14.780909706000045],[101.33508649700008,14.783559428000046],[101.33760505400005,14.78719207100005],[101.34242762700006,14.787074841000049],[101.34758453800004,14.787809296000034],[101.34820254800007,14.789844079000034],[101.34745282200004,14.79352508900007],[101.35036957000005,14.795051944000022],[101.35365399000005,14.794573097000068],[101.35370722300007,14.795861729000023],[101.35684485600007,14.797558853000055],[101.35799212700005,14.799922093000077],[101.36548528000009,14.802777823000042],[101.36809988300007,14.80556914500005],[101.37633357800007,14.805620551000061],[101.38124539400008,14.809497505000024],[101.38786525300009,14.812655102000065],[101.39647794900009,14.82002103900004],[101.39789412900006,14.822581800000023],[101.40150126800006,14.823462540000037],[101.40469153700008,14.829745163000041],[101.40620932900003,14.830645441000058],[101.40893991800004,14.836985653000056],[101.41148352600004,14.838278150000065],[101.41175692600007,14.84119454200004],[101.41515313300005,14.844399924000072],[101.41991897400004,14.843883836000032],[101.42099042600006,14.845601496000029],[101.42516353800005,14.848909975000026],[101.42876819900005,14.84897542400006],[101.43019253400007,14.850251143000037],[101.43377894300005,14.850439953000034],[101.44123434400007,14.855433380000022],[101.44523942100005,14.855554472000051],[101.45015668300005,14.857215820000022],[101.45167140300003,14.860657735000075],[101.45387600600009,14.863089475000038],[101.45245719500008,14.866925224000056],[101.45332449500006,14.869546398000068],[101.45109966600006,14.874212356000044],[101.45461946600005,14.875574334000078],[101.45418918600006,14.880078333000029],[101.45117240000008,14.886299655000073],[101.45153350300006,14.888930085000027],[101.44998109500006,14.89321190100003],[101.45014555100005,14.896115546000033],[101.44820704600005,14.902372335000052],[101.44868236900004,14.906392133000054],[101.44718055600003,14.908925460000034],[101.44938428600005,14.91078959600003],[101.44837584800007,14.913891378000073],[101.44425084300008,14.918891892000033],[101.44540175500003,14.922050304000038],[101.44481693400007,14.92378732000003],[101.44175804600007,14.925158468000063],[101.43925916700005,14.927456069000073],[101.43809021300007,14.930557013000055],[101.44027366900008,14.932273470000041],[101.43812402400005,14.934022188000029],[101.43898407700004,14.93648233500005],[101.43739226600007,14.936088234000067],[101.43585861800005,14.943011325000043],[101.43350908700006,14.944261806000043],[101.43386656200005,14.948394048000068],[101.43096498500006,14.949749341000029],[101.43265371600006,14.951750434000076],[101.43052196400004,14.955439106000028],[101.42988864200004,14.960024720000035],[101.43243619800006,14.960906300000033],[101.43317288600008,14.965978458000052],[101.43084658700008,14.971276395000075],[101.43153888000006,14.973885133000067],[101.43035237400005,14.977099172000067],[101.42870314400005,14.977166484000065],[101.42806164400008,14.980184106000024],[101.42977238300006,14.982647998000061],[101.42704300400004,14.984705784000028],[101.42767649600006,14.98620638500006],[101.42499038000005,14.988362993000067],[101.42389105300003,14.995033352000064],[101.42075599000003,14.996242404000043],[101.42056854600008,14.998423243000047],[101.42191698500005,15.004092746000026],[101.42302594600005,15.004706974000044],[101.42246487100005,15.011324032000061],[101.42478127800007,15.012149729000043],[101.42323030000006,15.013216188000058],[101.41992644100009,15.01860737900006],[101.41841340600007,15.024321997000072],[101.41651759400008,15.027080719000026],[101.41677744200007,15.031032560000028],[101.41470544400005,15.033645205000028],[101.41379826500008,15.036747395000077],[101.41603848300008,15.040655075000075],[101.41300340500004,15.04644823700005],[101.41163937900006,15.051842692000037],[101.40623971400004,15.058853764000048],[101.40030702000007,15.069761809000056],[101.40022633700005,15.073792757000035],[101.39587288400008,15.074396493000052],[101.39288852000004,15.071398825000074],[101.38654905000004,15.070008273000042],[101.38158416900006,15.06811788500005],[101.37771773600008,15.064744351000058],[101.37637603300004,15.056327637000038],[101.37293840600006,15.053370040000061],[101.37122034100008,15.049734019000027],[101.37135842100008,15.04609199400005],[101.36670211200004,15.04507886500005],[101.36307893800006,15.046971339000038],[101.36250399400006,15.040993739000044],[101.36297897800006,15.03653993200004],[101.36139226500006,15.032412462000025],[101.35751576500007,15.03009484000006],[101.34920938400006,15.01231798300006],[101.34857895100004,15.009437094000077],[101.34868648800006,15.003921294000065],[101.34942985000004,14.999854295000034],[101.34752427700005,14.992820567000024],[101.34095098400007,14.99031659700006],[101.33659780800008,14.990349335000076],[101.33469860600007,14.984670276000031],[101.33162803400006,14.982848669000077],[101.33384704500008,14.978121994000048],[101.33272350000004,14.974934156000074],[101.33000773900005,14.972415160000025],[101.32916908600004,14.965489427000023],[101.32675980000005,14.964207761000068],[101.32028989500009,14.964867781000066],[101.31168484700004,14.96034054200004],[101.31081388300004,14.960422621000077],[101.30585076000006,14.956429692000029],[101.30413473600004,14.953844791000051],[101.29935829900006,14.952063456000076],[101.29307569400004,14.94787229800005],[101.29274068000007,14.946804323000038],[101.28609281000007,14.944826417000058],[101.28189916500008,14.941036970000027],[101.27987164400008,14.937594123000054],[101.27647164000007,14.934883256000035],[101.27328519400004,14.933555241000022],[101.27185113400009,14.926571797000065],[101.26843307100006,14.924736238000037],[101.26679462500005,14.921741542000063],[101.26660807800005,14.918903275000048],[101.25776458200005,14.912489447000041],[101.25331234300006,14.913314146000062],[101.25314498700004,14.915579324000078],[101.25105822200004,14.914582857000028],[101.24876110600007,14.916247983000062],[101.24764786800006,14.914981001000058],[101.24355149800004,14.91674676100007],[101.24261767100006,14.918016446000024],[101.23814282800004,14.917784562000065],[101.23259706700009,14.920362990000058],[101.23132828100006,14.91861721500004],[101.22624697900005,14.91992709300007],[101.22360356100006,14.918693720000022],[101.21931341200008,14.919249235000052],[101.21891470300005,14.917635605000044],[101.21961098800006,14.906460607000042],[101.21847565600007,14.898761543000035],[101.21540532200004,14.890070196000067],[101.21480976800007,14.873822416000053],[101.21446909900004,14.870826446000024],[101.21095138700008,14.859038605000023],[101.21569790200004,14.859840458000065],[101.21661060600007,14.851483804000054],[101.21985714500005,14.846767210000053],[101.22607395300008,14.844814424000049],[101.22530952700004,14.843597559000045],[101.22823124300004,14.834768051000026],[101.22748850200009,14.831292574000031],[101.22456231500007,14.825905012000021],[101.21902677000008,14.819466325000064],[101.21589152200005,14.818674112000053],[101.21198377600007,14.815994987000067],[101.21034095800007,14.813966550000032],[101.20794574600006,14.813338642000076],[101.20189208600004,14.813980211000057],[101.19988071500006,14.808438369000044],[101.19644099400006,14.807360962000075],[101.19291290800004,14.800237319000075],[101.18334784400008,14.795484560000034],[101.18073491400008,14.793570848000059],[101.18000043400008,14.790135745000043],[101.17804136600006,14.787654572000065],[101.17856089500003,14.78082629000005],[101.17680035400008,14.776580455000044],[101.17488276400007,14.774654422000026],[101.16960527400005,14.77189435300005],[101.16385119700004,14.773484666000058],[101.15689574900006,14.769029329000034],[101.15606281900006,14.767756849000023],[101.15555666000006,14.761947693000025],[101.15680960900005,14.759902852000039],[101.15613987600005,14.755444275000059],[101.15749800900005,14.748927492000064],[101.15666217000006,14.74719781300007],[101.15108491900008,14.744309243000032],[101.14653712000006,14.74340404700007],[101.14448958200006,14.742205909000063],[101.14152379200004,14.73702856500006],[101.13744508900004,14.732444299000065],[101.13669545500005,14.729891663000046],[101.13383231600005,14.729077824000058],[101.13107626300007,14.726683980000075],[101.12338327300006,14.715753386000074],[101.12287150000009,14.71174891100003],[101.11927063600007,14.709668707000048],[101.11955771100008,14.706169286000033],[101.11812365100008,14.701952874000028],[101.11390839600006,14.699853913000027],[101.10516050000007,14.703622496000037],[101.09923536200006,14.70283900100003],[101.09668776000007,14.704031514000064],[101.09351532400007,14.708428583000057],[101.08823328000005,14.710469647000025],[101.08988972600008,14.713999173000047],[101.08809373600008,14.718557958000076],[101.08642216100009,14.718486941000037],[101.08324193300007,14.716023031000077],[101.08148236300008,14.719296654000061],[101.08187957000007,14.726090364000072],[101.07898007700004,14.727564036000047],[101.07543917700008,14.730676333000076],[101.07526177900007,14.720136843000034],[101.07430666400006,14.716595978000043],[101.07764237100008,14.715324525000028],[101.07855593300008,14.713507467000056],[101.07697097900007,14.71113065000003],[101.07325676500005,14.708508532000053],[101.07233496200007,14.705576247000067],[101.07292992900005,14.700393813000062],[101.07231714900007,14.696640384000034],[101.07292749600003,14.692936408000037],[101.07691141800007,14.688353636000045],[101.08025219700005,14.68732884800005],[101.08088568700003,14.685018440000022],[101.07981111200007,14.682765303000053],[101.08516224000005,14.678932085000042],[101.08728489400005,14.674275401000045],[101.09072181200008,14.67344902700006],[101.09610001400006,14.670492470000056],[101.09785038900009,14.667503750000037],[101.10236950300003,14.66431536500005],[101.10767705500007,14.661578147000057],[101.10870305100008,14.659113768000054],[101.11246701200008,14.657464987000026],[101.11634929200005,14.657600992000027],[101.11744576300003,14.653553338000052],[101.12168726900006,14.652451579000058],[101.12270573500007,14.64921855800003],[101.12430003300005,14.651169745000061],[101.12503487700008,14.654700652000031],[101.13257390200005,14.650865539000051],[101.13313643900005,14.648378939000054],[101.13084154200004,14.641120913000066],[101.12847329100003,14.637043277000032],[101.13132463400007,14.634050212000034],[101.12949897600004,14.630515794000075],[101.12335298100004,14.625157742000056],[101.12340333400005,14.622159711000052],[101.12499959900003,14.619877677000034],[101.12838201700004,14.620366776000026],[101.12957705800005,14.619130072000075],[101.12860368500009,14.613356182000075],[101.13237969100004,14.605632954000043],[101.13532566000003,14.600970494000023],[101.13626354500008,14.595878538000022],[101.13512072200007,14.59339415200003],[101.13674420600006,14.588317848000031],[101.14125751400007,14.585580824000033],[101.14181980300003,14.583307729000069],[101.14419131500006,14.581858423000028],[101.14866719100007,14.580995028000075],[101.15424046100009,14.57710663100005],[101.15869046200004,14.572714628000028],[101.16156792700008,14.57131978800004],[101.16396164900004,14.568859101000044],[101.16412413400008,14.566530149000073],[101.16677706400009,14.563605879000022],[101.16741205600005,14.560521952000045],[101.16657938000009,14.558688958000062],[101.16198305200004,14.555326196000067],[101.16099916600007,14.551298184000075],[101.16167192300009,14.550012265000078],[101.15971820600004,14.546679965000067],[101.15487098000006,14.547596918000067],[101.14874865300004,14.546214079000038],[101.14586568200008,14.541671042000075],[101.14263993800006,14.540285452000035],[101.14239520300004,14.537226516000032],[101.14661422600005,14.525399803000028],[101.15377346100007,14.519097466000062],[101.16170698500008,14.516910632000076],[101.16556305600005,14.513799686000027],[101.16680861300006,14.507508385000051],[101.17162804900005,14.498888280000074],[101.17147665300007,14.494781636000027],[101.17258706100006,14.490058181000052],[101.17622845600005,14.489308824000034],[101.18490065000003,14.488721977000068],[101.18799694800003,14.48615809200004],[101.19180163900006,14.486789534000025],[101.19476299600007,14.486319578000064],[101.20175712900004,14.482624842000064],[101.20540732400008,14.483213721000027],[101.20946022900006,14.480764326000042],[101.21172164700005,14.480390983000063],[101.21550845600007,14.481373723000047],[101.22796492900005,14.479524121000054],[101.23640022800004,14.476579530000038],[101.24283172200006,14.471104316000037]]]},"properties":{"Shape_Leng":2.42412848652,"Shape_Area":0.0665809172563,"ADM2_EN":"Muak Lek","ADM2_TH":"มวกเหล็ก","ADM2_PCODE":"TH1911","ADM1_EN":"Saraburi","ADM1_TH":"สระบุรี","ADM1_PCODE":"TH19","ADM0_EN":"Thailand","ADM0_TH":"ประเทศไทย","ADM0_PCODE":"TH"}},
{"type":"Feature","geometry":{"type":"Polygon","coordinates":[[[101.07543917700008,14.730676333000076],[101.07898007700004,14.727564036000047],[101.08187957000007,14.726090364000072],[101.08148236300008,14.719296654000061],[101.08324193300007,14.716023031000077],[101.08642216100009,14.718486941000037],[101.08809373600008,14.718557958000076],[101.08988972600008,14.713999173000047],[101.08823328000005,14.710469647000025],[101.09351532400007,14.708428583000057],[101.09668776000007,14.704031514000064],[101.09923536200006,14.70283900100003],[101.10516050000007,14.703622496000037],[101.11390839600006,14.699853913000027],[101.11812365100008,14.701952874000028],[101.11955771100008,14.706169286000033],[101.11927063600007,14.709668707000048],[101.12287150000009,14.71174891100003],[101.12338327300006,14.715753386000074],[101.13107626300007,14.726683980000075],[101.13383231600005,14.729077824000058],[101.13669545500005,14.729891663000046],[101.13744508900004,14.732444299000065],[101.14152379200004,14.73702856500006],[101.14448958200006,14.742205909000063],[101.14653712000006,14.74340404700007],[101.15108491900008,14.744309243000032],[101.15666217000006,14.74719781300007],[101.15749800900005,14.748927492000064],[101.15613987600005,14.755444275000059],[101.15680960900005,14.759902852000039],[101.15555666000006,14.761947693000025],[101.15606281900006,14.767756849000023],[101.15689574900006,14.769029329000034],[101.16385119700004,14.773484666000058],[101.16960527400005,14.77189435300005],[101.17488276400007,14.774654422000026],[101.17680035400008,14.776580455000044],[101.17856089500003,14.78082629000005],[101.17804136600006,14.787654572000065],[101.18000043400008,14.790135745000043],[101.18073491400008,14.793570848000059],[101.18334784400008,14.795484560000034],[101.19291290800004,14.800237319000075],[101.19644099400006,14.807360962000075],[101.19988071500006,14.808438369000044],[101.20189208600004,14.813980211000057],[101.20794574600006,14.813338642000076],[101.21034095800007,14.813966550000032],[101.21198377600007,14.815994987000067],[101.21589152200005,14.818674112000053],[101.21902677000008,14.819466325000064],[101.22456231500007,14.825905012000021],[101.22748850200009,14.831292574000031],[101.22823124300004,14.834768051000026],[101.22530952700004,14.843597559000045],[101.22607395300008,14.844814424000049],[101.21985714500005,14.846767210000053],[101.21661060600007,14.851483804000054],[101.21569790200004,14.859840458000065],[101.21095138700008,14.859038605000023],[101.21446909900004,14.870826446000024],[101.21480976800007,14.873822416000053],[101.21540532200004,14.890070196000067],[101.21847565600007,14.898761543000035],[101.21961098800006,14.906460607000042],[101.21891470300005,14.917635605000044],[101.21931341200008,14.919249235000052],[101.21778606700008,14.920170338000048],[101.21352907600004,14.920242335000069],[101.21302433700004,14.919062775000043],[101.20977744200007,14.918902975000037],[101.20852061300008,14.917324127000029],[101.20605846500007,14.918989418000024],[101.20062229400008,14.920295070000066],[101.19721762100005,14.920029610000029],[101.19635764200007,14.921159833000047],[101.19247283400006,14.921194961000026],[101.18783676900006,14.918494166000073],[101.18459896500008,14.915552770000033],[101.18047947500008,14.916075629000034],[101.17736310400005,14.912738268000055],[101.17076860700007,14.908557514000051],[101.16501708800007,14.902539943000022],[101.16308624800007,14.90264952900003],[101.15876393100007,14.90034660300006],[101.15658069200003,14.900404541000057],[101.15563870300008,14.898416368000028],[101.15248781000008,14.897227548000046],[101.14016433600005,14.897417028000064],[101.13706980900008,14.901239576000023],[101.13144847600006,14.901778142000069],[101.12835675900004,14.903508695000028],[101.12264507700007,14.901953604000028],[101.12253163900004,14.90402167700006],[101.12053897200008,14.90313952400004],[101.12038721600004,14.904936188000022],[101.11744368700005,14.905875281000021],[101.11640732700005,14.904089042000066],[101.11351622600006,14.904969839000046],[101.10767442800005,14.908315574000028],[101.10478250000006,14.90632389600006],[101.10245014400004,14.906299439000065],[101.10218258900005,14.908311575000027],[101.09706470300006,14.908787693000022],[101.09391455400004,14.906690970000056],[101.09122373000008,14.902632900000071],[101.09035249400006,14.896309147000068],[101.09042541500008,14.891652813000064],[101.08778103400005,14.89191668500007],[101.08488061100007,14.890767714000049],[101.08162846500005,14.882917814000052],[101.08199279100006,14.877763239000046],[101.09006587000005,14.865294635000055],[101.09379153800006,14.856889915000068],[101.09316950700008,14.849549942000067],[101.09136788400008,14.850721348000036],[101.08876770600006,14.846204119000049],[101.08602869300006,14.845840249000048],[101.08278076700009,14.843324477000067],[101.08166884800005,14.845718072000068],[101.08350580400008,14.849589581000032],[101.08082449900007,14.851146647000064],[101.07636145600009,14.848557418000041],[101.07526204900006,14.846971301000053],[101.07780015500003,14.844044540000027],[101.07187186400006,14.844688672000075],[101.06842297800006,14.843826792000073],[101.06538843400006,14.840166206000049],[101.06671421200008,14.833633015000032],[101.06796927100004,14.831076476000021],[101.07139051000007,14.831333964000066],[101.07586793100006,14.83471772400003],[101.07827553700008,14.835546734000047],[101.08524526600007,14.834383497000033],[101.08890649600005,14.832060355000067],[101.08735544400008,14.827936972000032],[101.08414697800004,14.82574532500007],[101.07824208000005,14.81804416700004],[101.07956538100007,14.812758332000044],[101.08159251100005,14.810944247000066],[101.07755060600005,14.81041132200005],[101.07498790700004,14.811738929000057],[101.07477371300007,14.814204905000054],[101.07120669600005,14.815869371000076],[101.06922648500006,14.814606265000066],[101.06805154300008,14.810414189000028],[101.06916875300004,14.802544933000036],[101.07289978800009,14.791922456000066],[101.07200577900005,14.79061555800007],[101.06967983800007,14.792454857000052],[101.06282910100003,14.791973532000043],[101.06205372800008,14.789336768000055],[101.06400613700004,14.780523754000058],[101.06532109000005,14.777283598000054],[101.06934566700005,14.771146068000064],[101.07284838800007,14.766996645000063],[101.07364208400008,14.764592015000062],[101.07024030200006,14.760266731000058],[101.06628758600004,14.759384523000051],[101.06289485000008,14.759652638000034],[101.06253457100007,14.761994623000078],[101.06098292100006,14.759725925000055],[101.06371057500007,14.756221124000035],[101.06146064400008,14.753708937000056],[101.05481290300008,14.74872031800004],[101.05697195800008,14.746015793000026],[101.05680885300006,14.743341512000029],[101.05940046000006,14.741224616000068],[101.06048005100007,14.734839000000022],[101.05814041100007,14.73167182900005],[101.05851554300006,14.725362106000034],[101.05459891200007,14.723364550000042],[101.05365099300008,14.720486524000023],[101.06243231200006,14.719637590000048],[101.06349151700005,14.720876497000063],[101.06181624100009,14.72531284200005],[101.06667725100004,14.727161894000062],[101.06633835000008,14.730964653000058],[101.07069683400005,14.73216573700006],[101.07543917700008,14.730676333000076]]]},"properties":{"Shape_Leng":0.935732112057,"Shape_Area":0.0224461278282,"ADM2_EN":"Wang Muang","ADM2_TH":"วังม่วง","ADM2_PCODE":"TH1912","ADM1_EN":"Saraburi","ADM1_TH":"สระบุรี","ADM1_PCODE":"TH19","ADM0_EN":"Thailand","ADM0_TH":"ประเทศไทย","ADM0_PCODE":"TH"}},
{"type":"Feature","geometry":{"type":"Polygon","coordinates":[[[100.96203611400006,14.566053897000074],[100.96199858000006,14.56981707500006],[100.95968301500005,14.570082538000065],[100.95418694300008,14.583839172000069],[100.95325849100004,14.58945866700003],[100.95095900700005,14.595202353000047],[100.95083516000005,14.59744052700006],[100.94813045100005,14.60660742500005],[100.94218978800006,14.625242207000042],[100.93968841200007,14.627626922000047],[100.94158848200004,14.633743275000029],[100.94000313800007,14.634710190000021],[100.94333530100005,14.638509829000043],[100.94534365300007,14.642740961000072],[100.94651308300007,14.648948111000038],[100.94925354800006,14.654609148000077],[100.94897766000008,14.65684876000006],[100.95030446500004,14.659864308000067],[100.95083807800006,14.664208208000048],[100.94969893400008,14.665587725000023],[100.95098295200006,14.670041921000063],[100.95149898800008,14.675330277000057],[100.94645015800006,14.677106343000048],[100.94260036700007,14.679712013000028],[100.93852644800006,14.69173741800006],[100.93505900400004,14.695492386000069],[100.93850852700007,14.695790941000041],[100.94125641900007,14.697106348000034],[100.94735617600008,14.703089379000062],[100.94682905000008,14.708490651000034],[100.94731018600004,14.71030318000004],[100.95446694000003,14.714676735000069],[100.95650217300005,14.717251670000053],[100.95531298000009,14.723541579000027],[100.95573235000006,14.726570351000078],[100.95366464100005,14.729423541000074],[100.95429415500007,14.73191190700004],[100.95334529300004,14.73397092600004],[100.95448060200005,14.736608777000072],[100.95774046500009,14.737946204000025],[100.95898839800009,14.739571054000066],[100.95947452200005,14.743768713000065],[100.95533799400005,14.746548747000077],[100.95115284900004,14.745664384000065],[100.94843276700004,14.742716061000067],[100.94686095100008,14.74290637300004],[100.94355664800008,14.740741956000022],[100.94363481200008,14.741983173000051],[100.93566774000004,14.743092174000026],[100.93248661100006,14.745514746000026],[100.92291564100003,14.74297838800004],[100.91907758500008,14.74501348900003],[100.91765470600006,14.744688832000065],[100.91544817200008,14.740492047000032],[100.90905252100004,14.739053378000051],[100.90857506600008,14.73592437800005],[100.90587146900003,14.735103271000071],[100.90112470500009,14.73767760100003],[100.89632200300008,14.738130157000057],[100.89292116600006,14.736911947000067],[100.88958364500007,14.737118120000048],[100.88653829200007,14.739122760000043],[100.88042632200006,14.737981297000033],[100.87753022100009,14.733135331000028],[100.87318781600004,14.731450594000023],[100.87012702700008,14.728848632000052],[100.86463705600005,14.725987915000076],[100.85781999800008,14.725811750000048],[100.85517861000005,14.728010608000034],[100.85265968000004,14.728689931000076],[100.85196019500006,14.724506571000063],[100.84947095800004,14.721955122000054],[100.84827732500008,14.713803727000027],[100.84720410900007,14.712858064000045],[100.84456443400006,14.705630690000078],[100.84589146200005,14.705132283000069],[100.84700977200004,14.699771354000063],[100.84911984900003,14.696469870000044],[100.85437447000004,14.685892631000058],[100.85442455000003,14.680516313000055],[100.85551561100004,14.677347057000077],[100.85917944300007,14.676189658000055],[100.85794348700006,14.671876977000068],[100.85982759100006,14.666755676000037],[100.85887061600005,14.665544643000032],[100.86799648500005,14.666483267000046],[100.86949552100003,14.660124089000021],[100.86739742600008,14.650935485000048],[100.87069969500004,14.649969060000046],[100.87112872800009,14.646817141000042],[100.86957330100006,14.638380884000071],[100.87274884800007,14.636927626000045],[100.87373149400008,14.634888715000045],[100.87174730100008,14.632864361000031],[100.87113319500008,14.629454803000044],[100.86762164900006,14.624173455000061],[100.86606480100005,14.617211191000024],[100.87866101200007,14.615124275000028],[100.88342480200004,14.613478000000043],[100.88322448600007,14.610980694000034],[100.88517090400006,14.606745771000021],[100.88532459600003,14.603125962000036],[100.88708937700005,14.601297216000034],[100.88972599600004,14.600680031000024],[100.88845375300008,14.597717677000048],[100.88282500200006,14.59626557300004],[100.88449854000004,14.593670710000026],[100.88382117200007,14.59089216700005],[100.88659986200008,14.590056554000057],[100.88355032700008,14.58938594500006],[100.88518114700008,14.586409166000067],[100.88756109500008,14.587431578000064],[100.88781856100007,14.591190293000068],[100.89260064200005,14.587511347000031],[100.89424591900007,14.585177558000055],[100.89263985000008,14.584226210000054],[100.88934558500006,14.58008275800006],[100.88947837400008,14.576364560000059],[100.88810037700006,14.572772720000046],[100.88779046900004,14.56603222900003],[100.88839484100004,14.565531920000069],[100.89118180200006,14.566626066000026],[100.89328288700005,14.570006232000026],[100.89836395700007,14.573332006000044],[100.89955809700007,14.577172744000052],[100.90628296600005,14.57679422900003],[100.90845491100004,14.578067063000049],[100.91275561300006,14.578747373000056],[100.91267865500004,14.574066639000023],[100.91396750900009,14.567478308000034],[100.91552128500007,14.567107429000032],[100.91523564000005,14.55973883400003],[100.91259856400006,14.556935439000029],[100.92477049200005,14.560973645000047],[100.92500696400003,14.568700510000042],[100.92795895200004,14.572318735000067],[100.93067175400006,14.571342413000025],[100.93331135000005,14.566831365000041],[100.93500590600007,14.561183528000072],[100.93854178600009,14.560781561000056],[100.94099836800007,14.557776697000065],[100.94421817800009,14.555728120000026],[100.94645393500008,14.555384874000026],[100.95035198500005,14.55746698300004],[100.95417535300004,14.565374920000068],[100.95738571000004,14.565689126000052],[100.95706908100004,14.563140660000045],[100.95352718300006,14.559062926000024],[100.95109281300006,14.554424245000064],[100.95409178200003,14.55277045300005],[100.95880877400003,14.554307983000058],[100.96087531200004,14.559481995000056],[100.96455715500008,14.56087842100004],[100.96203611400006,14.566053897000074]]]},"properties":{"Shape_Leng":0.76782490867,"Shape_Area":0.0140867977096,"ADM2_EN":"Chaloem Phra Kiat","ADM2_TH":"เฉลิมพระเกียรติ","ADM2_PCODE":"TH1913","ADM1_EN":"Saraburi","ADM1_TH":"สระบุรี","ADM1_PCODE":"TH19","ADM0_EN":"Thailand","ADM0_TH":"ประเทศไทย","ADM0_PCODE":"TH"}}
]}