{"type":"FeatureCollection", "features": [
{"type":"Feature","geometry":{"type":"MultiPolygon","coordinates":[[[[100.09034460600009,6.425736182000037],[100.09102892300007,6.428912229000048],[100.08901202200008,6.434732223000026],[100.08775505500006,6.43174284600002],[100.08805662300006,6.426598614000056],[100.09034460600009,6.425736182000037]]],[[[100.06180462800006,6.445407960000068],[100.06310598000005,6.449409833000061],[100.06549805100008,6.4514941500000305],[100.06298714200005,6.452046610000025],[100.06004126900007,6.446431430000075],[100.06180462800006,6.445407960000068]]],[[[100.10262142800008,6.456734511000036],[100.10076776700004,6.458020953000073],[100.10028498400004,6.454049630000043],[100.10213446400007,6.4526259450000225],[100.10262142800008,6.456734511000036]]],[[[100.06545220900006,6.4593179380000265],[100.07367895800007,6.4651943940000365],[100.07218125800006,6.470801289000065],[100.07017757000006,6.470166741000071],[100.06793436000004,6.466338747000066],[100.06545220900006,6.4593179380000265]]],[[[99.33468294300008,6.48688461100005],[99.33568102300006,6.488357314000041],[99.33259425200004,6.488550468000028],[99.33468294300008,6.48688461100005]]],[[[99.31444587900006,6.485836882000058],[99.31347891900003,6.490745577000041],[99.31414223500008,6.493875124000056],[99.31321813600005,6.496829250000076],[99.31117714600003,6.498108828000056],[99.30480160000008,6.499376320000067],[99.29915748800005,6.495868119000022],[99.29308657200005,6.490228588000036],[99.28872247700008,6.488805740000032],[99.28323939900008,6.482769422000047],[99.28683765200009,6.4814743720000365],[99.28876293600007,6.482442912000067],[99.29791663700007,6.48420104500002],[99.30135543200004,6.485668457000031],[99.30355871700004,6.484550486000046],[99.30693113300003,6.479990919000045],[99.31038189200007,6.479780209000069],[99.31370937900004,6.483133705000057],[99.31444587900006,6.485836882000058]]],[[[99.18004004000005,6.50656544900005],[99.17722528900003,6.505670307000059],[99.17709599700004,6.502838820000022],[99.18004004000005,6.50656544900005]]],[[[99.70484508300007,6.523800679000033],[99.70142645600004,6.522294847000069],[99.69891703300004,6.522963169000036],[99.69806831200003,6.519502705000036],[99.70228911900006,6.519088110000041],[99.70484508300007,6.523800679000033]]],[[[99.69296286300005,6.526945777000037],[99.69044697100009,6.526650150000023],[99.68923798100008,6.524270559000058],[99.69192285100007,6.518769450000036],[99.69350018200004,6.517727610000065],[99.69296286300005,6.526945777000037]]],[[[99.16123347600006,6.538679688000059],[99.15830110300004,6.541752240000051],[99.15597239200008,6.536706139000046],[99.15406639600008,6.534528683000076],[99.15415880800003,6.529370942000071],[99.15537171500006,6.52562825900003],[99.15976775000007,6.522135563000063],[99.16126297500006,6.52343925200006],[99.16569874800007,6.523445027000037],[99.16795128800004,6.520095095000045],[99.17275093300003,6.518807103000029],[99.17590444600006,6.51641976600007],[99.18391911100008,6.520211369000037],[99.18456916800005,6.523390453000047],[99.18092633000003,6.524856832000069],[99.17911185800006,6.5235742660000255],[99.17499192200006,6.52651772400003],[99.17371548200003,6.530491436000034],[99.16731595600004,6.532830614000034],[99.16411467900008,6.5380752440000265],[99.16123347600006,6.538679688000059]]],[[[99.26019800500006,6.54484072300005],[99.25490608400008,6.543260762000045],[99.26152444200005,6.540385847000039],[99.26322728200006,6.542068535000055],[99.26214403200004,6.544672401000071],[99.26019800500006,6.54484072300005]]],[[[99.70699389400005,6.5489335280000205],[99.70485060900006,6.548764662000053],[99.70600459100007,6.546492065000052],[99.70699389400005,6.5489335280000205]]],[[[99.98152961300008,6.561061129000052],[99.97983060200005,6.559656779000022],[99.98038609800005,6.556746540000063],[99.98217212500003,6.557680852000033],[99.98377906700006,6.56135809400007],[99.98152961300008,6.561061129000052]]],[[[99.34979683800003,6.556939512000042],[99.35128979600006,6.561629953000022],[99.34606487000008,6.568987450000066],[99.34219976500003,6.571779683000045],[99.34086675500004,6.56946651100003],[99.34552087800006,6.561443441000051],[99.34618311100007,6.556814775000021],[99.34979683800003,6.556939512000042]]],[[[99.29285782700003,6.56696011300005],[99.29040387400005,6.5701465870000675],[99.28575235400007,6.572197652000057],[99.27784110500005,6.577087243000051],[99.27555197100008,6.576336407000042],[99.27403198500008,6.5699634570000285],[99.27375728900006,6.5639567680000255],[99.27443487400006,6.562583288000042],[99.27425174200005,6.554690353000069],[99.27608305000007,6.548482221000029],[99.28040493500004,6.5425121590000686],[99.28225455600005,6.536304026000039],[99.28644825000003,6.518869979000044],[99.28489163900008,6.5153904950000765],[99.28406755100008,6.508376588000033],[99.28705258200006,6.507405995000056],[99.28805980100003,6.509072485000047],[99.29617249200004,6.5089809190000665],[99.29877295000006,6.507717317000072],[99.30146497200008,6.50894429300007],[99.30556710000008,6.507827196000051],[99.31027356000004,6.5101163300000735],[99.31342340900005,6.509402120000061],[99.31827637400005,6.515097486000059],[99.32305608600007,6.523228491000054],[99.32331246900009,6.532531532000064],[99.32166429200004,6.539398935000065],[99.32153610100005,6.5468706700000325],[99.32312933900005,6.5506248500000765],[99.32560160300005,6.551393999000027],[99.31778192000007,6.556265277000023],[99.31697614500007,6.554910110000037],[99.31353328700004,6.557071052000026],[99.31648169200008,6.562876297000059],[99.31485182900008,6.564597726000045],[99.30868032200004,6.561759199000051],[99.30650106700006,6.562455096000065],[99.30137340600004,6.5661360250000484],[99.29694164200004,6.564689291000036],[99.29285782700003,6.56696011300005]]],[[[99.45382823000006,6.577418732000069],[99.45038521000004,6.575518815000066],[99.45010581700006,6.570376452000062],[99.44579391400003,6.565938201000051],[99.44418493200004,6.559546391000026],[99.44255212400009,6.557506852000074],[99.44355978300007,6.55585280300005],[99.44711597000008,6.561818828000071],[99.45324901000004,6.565832550000039],[99.45388308900004,6.569351409000035],[99.45571240900006,6.5716536460000725],[99.45677572700004,6.57588161700005],[99.45382823000006,6.577418732000069]]],[[[99.24969917200008,6.581762883000067],[99.24783012200004,6.582765669000025],[99.24264348200006,6.581201885000041],[99.24026402100009,6.581481472000064],[99.23617729700004,6.577650539000047],[99.23178719100008,6.578977089000034],[99.23119878800009,6.580898919000049],[99.22715307500005,6.579546742000048],[99.22481537100003,6.577228185000024],[99.21559496000003,6.574967698000023],[99.21048506700004,6.57507477300004],[99.20945595000006,6.577275775000032],[99.20514912600004,6.5746464700000615],[99.20288863800005,6.576080095000066],[99.19834981600007,6.575598254000056],[99.19696972900005,6.57802530400005],[99.19611312300003,6.575782663000041],[99.19375745700006,6.577359055000045],[99.19219890900007,6.5760384550000595],[99.19155050600006,6.57136876200002],[99.19320423200008,6.570892871000069],[99.19297818300004,6.567424806000076],[99.19036077600003,6.565919797000049],[99.18993247300006,6.561202515000048],[99.18260248000007,6.556778812000061],[99.18061673800008,6.554424160000053],[99.18006109600003,6.551472874000069],[99.18308980600005,6.5494142620000275],[99.18259337100005,6.54756515400004],[99.17938703700008,6.546084957000062],[99.17720437800006,6.548287819000052],[99.17291138300004,6.547101246000068],[99.17204478500008,6.550660966000066],[99.16716516800005,6.552820796000049],[99.16484535200004,6.552514153000061],[99.16677853300007,6.544554780000055],[99.17179147100006,6.541181712000025],[99.17654444700008,6.541538840000044],[99.18314679100007,6.540186489000064],[99.18636382200003,6.541685549000022],[99.18652562600005,6.544412412000042],[99.19180327000004,6.546615792000068],[99.19269794700006,6.544964446000051],[99.19600539800007,6.545592624000051],[99.20074052600006,6.542342280000071],[99.20182080100005,6.539101454000047],[99.20309143300005,6.542775342000027],[99.20668917700004,6.540067516000022],[99.20863557700005,6.540743282000051],[99.21544083500004,6.54074328300004],[99.21781077800006,6.5380306970000674],[99.22126948600004,6.539083929000071],[99.22766174700007,6.543593877000035],[99.22753325600007,6.546206525000059],[99.23364847000005,6.547648478000042],[99.23492386100008,6.549985109000033],[99.24328052900006,6.552612034000049],[99.24419900000004,6.553749416000073],[99.24944809100003,6.555110468000066],[99.25310770200008,6.554601263000052],[99.25715754500004,6.555786234000038],[99.25896593500005,6.560154925000063],[99.25820450700007,6.569991617000028],[99.25609630500009,6.575664252000024],[99.25169886600008,6.578906601000028],[99.24969917200008,6.581762883000067]]],[[[99.45760919800006,6.578522851000059],[99.45783052400009,6.583765892000031],[99.45591955100008,6.5874227460000725],[99.45430830700008,6.5881105660000685],[99.45064608900003,6.5858450390000485],[99.45287226500005,6.5830947630000765],[99.45386887900008,6.579833939000025],[99.45760919800006,6.578522851000059]]],[[[99.69982804300008,6.612273051000045],[99.69898089500003,6.610912337000059],[99.70137464700008,6.606467031000022],[99.69982804300008,6.612273051000045]]],[[[99.68962147900004,6.616007285000023],[99.69030334400009,6.618482571000072],[99.68889225500004,6.622222043000022],[99.68759266900008,6.6182924020000655],[99.68962147900004,6.616007285000023]]],[[[99.69316240500007,6.638682895000045],[99.69359835300008,6.643950197000038],[99.69123859600006,6.641289009000047],[99.69316240500007,6.638682895000045]]],[[[99.83419790100004,6.653957004000063],[99.83166567800004,6.653584074000037],[99.83321181200006,6.650208962000022],[99.83419790100004,6.653957004000063]]],[[[99.94935370600007,6.650205779000032],[99.95125285500006,6.65246950300002],[99.95254070800007,6.65736699200005],[99.94890906900008,6.65089716500006],[99.94935370600007,6.650205779000032]]],[[[99.68935622100008,6.669186358000047],[99.68994384200005,6.662386102000028],[99.69139683000009,6.665098313000044],[99.68935622100008,6.669186358000047]]],[[[99.86422440900009,6.670114296000065],[99.86318761700005,6.670894161000035],[99.85943249200005,6.669205291000026],[99.85426099100005,6.668133530000034],[99.85265964600006,6.66688498000002],[99.84807043500007,6.667300424000075],[99.84662837100007,6.6655798320000486],[99.84438606600008,6.659060557000032],[99.84429485000004,6.651404397000022],[99.84687075500005,6.652699976000065],[99.85013917800006,6.658539556000051],[99.85351707700005,6.661911539000073],[99.85722319900003,6.6625288640000235],[99.85905005700005,6.664188678000073],[99.86253162500009,6.664741943000024],[99.86573139500007,6.66699696400002],[99.86422440900009,6.670114296000065]]],[[[99.84413675300004,6.669452730000046],[99.84468947500005,6.672196712000073],[99.84285561400009,6.672147164000023],[99.84413675300004,6.669452730000046]]],[[[99.90756350800007,6.688236328000073],[99.90481935900004,6.686445433000074],[99.90676686500007,6.684722923000038],[99.90872188700007,6.687058013000069],[99.90756350800007,6.688236328000073]]],[[[99.86660530800003,6.6866670980000436],[99.86404868700004,6.690944769000055],[99.86245816600007,6.686024348000046],[99.86226522000004,6.682006354000066],[99.85983832000005,6.678577321000034],[99.86262132500008,6.675791285000059],[99.86609808700007,6.680550977000053],[99.86660530800003,6.6866670980000436]]],[[[99.86108134600005,6.694215064000048],[99.85855460600004,6.696469848000049],[99.85692321100004,6.694989488000033],[99.85903143900003,6.6909814490000485],[99.86108134600005,6.694215064000048]]],[[[99.84522403000005,6.701459420000049],[99.84114365700003,6.699664417000065],[99.83863525900006,6.699785810000037],[99.83790231800003,6.696417764000046],[99.84261669900008,6.696829947000026],[99.84522403000005,6.701459420000049]]],[[[99.88710269500007,6.709032299000057],[99.87814545600008,6.707024571000034],[99.87384732500004,6.704869030000054],[99.87388830000003,6.701783371000033],[99.87758842500006,6.699885624000046],[99.88217948300007,6.7025515550000705],[99.88796211300007,6.707139631000075],[99.88710269500007,6.709032299000057]]],[[[99.67174616300008,6.711790858000029],[99.66989358000006,6.711331482000048],[99.67094273700008,6.706501432000039],[99.67250043000007,6.707594407000045],[99.67174616300008,6.711790858000029]]],[[[99.90888552800004,6.702780167000071],[99.90713753200004,6.703928160000032],[99.90678529700006,6.707030411000062],[99.91179222600005,6.710415535000038],[99.91266041300008,6.7125690380000265],[99.90911265300008,6.710468183000046],[99.90452204100006,6.705778785000064],[99.90559551900009,6.700256541000044],[99.90803396000007,6.696090454000057],[99.90682310600005,6.693680427000061],[99.90714379200006,6.69041317500006],[99.90993876600004,6.68866577600005],[99.91517282200005,6.695947747000048],[99.91299214800006,6.7023556630000485],[99.90888552800004,6.702780167000071]]],[[[99.88912854200004,6.7146442440000556],[99.89283440000008,6.71614725400002],[99.88591407000007,6.7173450650000746],[99.88300068800004,6.716497813000046],[99.88538563900005,6.714736925000068],[99.88912854200004,6.7146442440000556]]],[[[99.87966416400008,6.711358712000049],[99.88687348700006,6.712751740000044],[99.87290149700004,6.717532621000032],[99.87231695800006,6.715092065000022],[99.87396193500007,6.711288645000025],[99.87966416400008,6.711358712000049]]],[[[99.81851101600006,6.719801781000058],[99.81749183900007,6.720449776000066],[99.81299167800006,6.717676394000023],[99.80618349400004,6.716039691000049],[99.80911002700009,6.71168823000005],[99.81503806200004,6.714874226000063],[99.82518454100006,6.718517248000069],[99.82491284100007,6.720110134000038],[99.81851101600006,6.719801781000058]]],[[[99.85300290400005,6.7322844800000325],[99.84783692900004,6.731528042000036],[99.84555714200008,6.725339043000076],[99.84556333800003,6.720857846000058],[99.84286807200004,6.715880266000056],[99.84333757100006,6.71366669300005],[99.84220137800008,6.707543694000037],[99.84710113200003,6.703950937000059],[99.85602174500008,6.707284747000074],[99.86404971900004,6.705044007000026],[99.86679768000005,6.708281773000067],[99.86271889200003,6.71609621500005],[99.86210931600004,6.725644145000047],[99.85971012500005,6.73081146800007],[99.85300290400005,6.7322844800000325]]],[[[99.66240972400004,6.726685190000069],[99.65763928600006,6.733536274000073],[99.65762846800004,6.73180184000006],[99.66090572400009,6.726855130000047],[99.66240972400004,6.726685190000069]]],[[[99.70571073500008,6.735151743000074],[99.70385068200005,6.735085436000077],[99.70493364300006,6.730766376000076],[99.70815542100007,6.733570314000076],[99.70571073500008,6.735151743000074]]],[[[99.64889111300005,6.737223870000037],[99.64671358400005,6.740417010000044],[99.64185999100005,6.738925823000045],[99.64009856500007,6.736486933000037],[99.63937697800009,6.732614113000068],[99.64018442900004,6.727340033000075],[99.63943291000004,6.725192698000058],[99.63981666000006,6.720277047000025],[99.64322723100008,6.71382705000002],[99.64279906200005,6.709889371000031],[99.64051664500005,6.707646231000069],[99.64041575200008,6.705302416000052],[99.64438677900006,6.704158026000073],[99.64447978500004,6.700479761000054],[99.64284126200005,6.692441482000049],[99.64137271200008,6.689839401000029],[99.64172748100003,6.687397768000039],[99.63992478800009,6.678253310000059],[99.63663314500008,6.675522959000034],[99.63747679400007,6.673340763000056],[99.63538887000004,6.670055932000025],[99.63268718100005,6.67048285900006],[99.63014416400006,6.667653680000058],[99.62851795900008,6.669023337000056],[99.62795992200006,6.664623362000043],[99.62409675500004,6.66229389800003],[99.61830889500004,6.664511165000022],[99.61779042500007,6.661837689000038],[99.61467938200008,6.660945457000025],[99.61416342400008,6.6515889300000595],[99.61679157200007,6.647103529000049],[99.61849949900005,6.646485205000033],[99.61593261100006,6.63248118100006],[99.61356933300004,6.6243322390000685],[99.61260921700006,6.618310135000058],[99.60879902700003,6.614094995000073],[99.60409873000003,6.614814773000035],[99.59961669000006,6.611814782000067],[99.59588749000005,6.603845470000067],[99.59564262900005,6.598117567000031],[99.59780748500003,6.592015307000054],[99.59945721600008,6.590644614000041],[99.60339006700008,6.582859426000027],[99.61044744500003,6.575085151000053],[99.61161736100007,6.570650181000076],[99.61376892400006,6.566422638000063],[99.61879525700004,6.56458642900003],[99.62375106600007,6.566990946000033],[99.62729807500006,6.563480775000073],[99.63215784200008,6.554254858000036],[99.63527390300004,6.552520933000039],[99.63966700200007,6.545447882000076],[99.64016614100007,6.539212519000046],[99.63926698900008,6.535843017000047],[99.64238706000003,6.529813521000051],[99.64310681400008,6.525498380000045],[99.64580908200008,6.516847289000054],[99.64849368800009,6.514762211000061],[99.65066697200007,6.507585087000052],[99.65332964100008,6.503883118000033],[99.65904745900008,6.50365350200002],[99.66130283400008,6.505376578000039],[99.66501578700007,6.512968362000038],[99.66675674600003,6.5142177610000545],[99.67346968100009,6.513262429000065],[99.66935518500009,6.517144522000024],[99.66920806900004,6.521295529000042],[99.67189458300004,6.521963575000029],[99.66902863200005,6.5241038810000305],[99.66683989100005,6.5309441110000535],[99.66781826900007,6.532132885000067],[99.67074588600008,6.53041994900002],[99.67457063900008,6.537648496000031],[99.67759468400004,6.539567740000052],[99.68021336600003,6.535138083000049],[99.68448791200007,6.5366892720000465],[99.68567425100008,6.533635349000065],[99.68750443800008,6.53308332000006],[99.68917765500004,6.529357065000056],[99.69329803400007,6.529381944000022],[99.69363739200008,6.53200640700004],[99.69162426600008,6.532711322000068],[99.69196381900008,6.535854752000034],[99.69410298900004,6.537591410000061],[99.69380306500005,6.541468389000045],[99.69789449500007,6.542988628000046],[99.69848034700004,6.5472002010000665],[99.69818827600005,6.556693333000055],[99.69339973500007,6.558866953000063],[99.69337583100008,6.563658887000031],[99.69087859500007,6.567599965000056],[99.69094390600009,6.570682705000024],[99.69381502000005,6.57220462500004],[99.69452027000006,6.574431687000072],[99.69541794400004,6.583739986000069],[99.69408963700005,6.594088834000047],[99.69253633500006,6.596746402000065],[99.69348497300007,6.59833259100003],[99.69145313100006,6.607766515000037],[99.68766250500005,6.60377363300006],[99.68653796000007,6.607437484000059],[99.68281857900007,6.610464414000035],[99.68086085400006,6.614687383000046],[99.67736540600004,6.617394550000029],[99.67927283600005,6.618529398000021],[99.67772901100005,6.630705162000027],[99.68079038400003,6.6330019200000265],[99.67998033000003,6.637255549000031],[99.68077036600005,6.639846599000066],[99.68441194000007,6.640103350000061],[99.68164747800006,6.642029341000068],[99.68430151300004,6.644472503000031],[99.68221074900003,6.649076727000022],[99.68363925200003,6.650094094000053],[99.68499145400006,6.658859043000064],[99.68354982600005,6.669637109000064],[99.68224667100009,6.6750848620000625],[99.68239765900006,6.679191326000023],[99.68362342300009,6.680704184000035],[99.68287083500007,6.683996123000043],[99.68415355400003,6.685013642000058],[99.67999595400005,6.690873564000071],[99.67865525100007,6.690060194000068],[99.67831480100006,6.696992365000028],[99.67674691200006,6.70040188400003],[99.67391988300005,6.699415854000051],[99.67261063000007,6.700931647000061],[99.67144142100005,6.697788204000062],[99.66919722700004,6.69706310600003],[99.66745504900007,6.7012592340000765],[99.66471977300006,6.703709728000035],[99.66513094000004,6.705864293000047],[99.66379975600006,6.709991418000072],[99.66322257200005,6.716827848000037],[99.65886536900007,6.72096754100005],[99.65633614700005,6.728750680000076],[99.65350870700007,6.732661010000072],[99.65018969800008,6.734358093000026],[99.64889111300005,6.737223870000037]]],[[[100.17914878200008,6.683107481000036],[100.17484585400007,6.681563188000041],[100.17054664900007,6.681734892000065],[100.16894333900007,6.685531095000044],[100.16344225900008,6.684351682000056],[100.15679906000008,6.687983995000025],[100.14793519500006,6.687526503000072],[100.13735335300004,6.689569400000039],[100.13465769400005,6.691928720000021],[100.12595324700004,6.691382890000057],[100.12426985000008,6.688591731000031],[100.12283048400008,6.692532810000046],[100.12441895000006,6.694301996000036],[100.12213656600005,6.697533110000052],[100.12167457300006,6.706330642000069],[100.11962936000003,6.713293216000068],[100.12042819100009,6.715786829000024],[100.11886018000007,6.7221816140000215],[100.11137589500004,6.72740433000007],[100.10855849700005,6.728711682000039],[100.10158431700006,6.730086455000048],[100.10003497200006,6.72888236600005],[100.09991944000006,6.722647098000039],[100.09795669600004,6.721455051000021],[100.08385611700004,6.723908216000041],[100.07845689000004,6.72361230000007],[100.07868182000004,6.729994693000037],[100.08412470800005,6.739849436000043],[100.07752965500003,6.74170022800007],[100.07543961800008,6.745279093000022],[100.06910948000007,6.743626764000055],[100.06977926400003,6.745250001000045],[100.06869320700008,6.750232410000024],[100.06090604800005,6.753353049000054],[100.05383548200007,6.753848752000067],[100.05745806700008,6.75607648600004],[100.05424629000004,6.765608975000021],[100.05235494800007,6.769456977000061],[100.05014412400004,6.771595400000024],[100.04831850000005,6.775448290000043],[100.04440113800007,6.7891409300000305],[100.03813337300005,6.796829929000069],[100.03535542500003,6.796585925000045],[100.03114207600004,6.79273717500007],[100.02767337300008,6.792673164000064],[100.02762856700008,6.794451386000048],[100.02357648000009,6.7971299120000594],[100.02443458800008,6.799611038000023],[100.02139563500003,6.799437887000067],[100.01511320800006,6.802672910000069],[100.01212006800006,6.802430998000034],[100.00692025700005,6.805332878000058],[100.00416427600004,6.80137916700005],[100.01245491300006,6.798538726000061],[100.00919929000008,6.794826528000044],[100.00879638000004,6.784626021000065],[100.00432428500005,6.781607712000039],[100.00066759500004,6.7824052420000385],[99.99732995900007,6.777303521000022],[99.99196640000008,6.775934490000054],[99.98978371400005,6.773466522000035],[99.98643076100007,6.771942058000036],[99.98431046800005,6.768065953000075],[99.98518296200007,6.765046946000041],[99.98299016100003,6.758148495000057],[99.98621360200008,6.757997009000064],[99.98559764400005,6.75506106000006],[99.98157497800008,6.755638344000033],[99.97967462300005,6.753857064000044],[99.97345223200006,6.753934998000034],[99.96907743700007,6.752578386000039],[99.96399946600008,6.752863095000066],[99.95328402800004,6.749478570000065],[99.94525139000007,6.743517583000028],[99.93535980500008,6.7437662980000255],[99.92505115700004,6.741322658000058],[99.92243150400009,6.739625313000033],[99.91948084600006,6.734056122000027],[99.91283466100003,6.724147022000068],[99.91521069000004,6.723744023000052],[99.91666237100009,6.719448845000045],[99.91314776600007,6.710206962000029],[99.90794632000006,6.707212625000068],[99.90886156400006,6.70355624900003],[99.91318905500003,6.704131263000022],[99.91466924600007,6.707821496000065],[99.91502652200006,6.703586920000021],[99.91682786500007,6.699547457000051],[99.91914118300008,6.69826288400003],[99.92375469000007,6.688481693000028],[99.92353300200006,6.6837969690000705],[99.91997511300008,6.676223332000063],[99.92379391000009,6.671048209000048],[99.92786980700004,6.668963313000063],[99.92802635800007,6.667589351000061],[99.93226616300007,6.65972782700004],[99.93465981500003,6.657440845000053],[99.93761974800003,6.657251853000048],[99.94060224800006,6.660130809000066],[99.94598873300004,6.6623087630000555],[99.94708715900003,6.664465177000068],[99.95622548300008,6.662464276000037],[99.95620958100005,6.6585520750000455],[99.96042652400007,6.652079621000041],[99.96388598600004,6.643361955000046],[99.96391377500004,6.638525356000059],[99.96958536600005,6.6323308930000735],[99.97344389200003,6.630544867000026],[99.97394993300009,6.628031090000036],[99.96896296600005,6.620780540000055],[99.95979946400007,6.616603680000026],[99.95299494200003,6.62028357500003],[99.94977343500005,6.616833915000029],[99.95099464100008,6.60923679800004],[99.94891295800005,6.602861576000066],[99.94948994300006,6.594612688000041],[99.94856827800004,6.590666360000057],[99.94939396800004,6.586395244000073],[99.95108729500004,6.584061319000057],[99.95439488100004,6.585371060000057],[99.95753901800003,6.590488508000021],[99.96119938200007,6.592370102000075],[99.96467452500008,6.591971597000054],[99.96719108200006,6.594568650000042],[99.97335382500006,6.596877246000076],[99.97687338300005,6.603771919000053],[99.98499662400008,6.606790720000049],[99.98701708100003,6.6082276680000405],[99.99210365400006,6.60892549700003],[99.99343368600006,6.60630036200007],[99.99759606900005,6.60516896200005],[99.99573760200008,6.5977648520000685],[99.99291033200006,6.5981699540000704],[99.98963298000007,6.594644151000068],[99.99254693100005,6.589998130000026],[100.00000715500005,6.576104432000022],[100.00521823400004,6.564182057000039],[100.00893205700004,6.558944360000055],[100.01369725300003,6.554629595000051],[100.01942773100006,6.547289170000056],[100.02732891100004,6.54015105700006],[100.04274551500004,6.527859785000032],[100.04599544300004,6.5240839780000215],[100.05260120300005,6.519195554000021],[100.05870159600005,6.516988363000053],[100.06442821100006,6.5162643550000325],[100.06761355200007,6.521668331000058],[100.06902186900004,6.526280362000023],[100.06820280500006,6.530997628000023],[100.07011948200005,6.533321005000062],[100.07156152200008,6.53798837100004],[100.07570405600006,6.5461294300000645],[100.07714766200007,6.551481763000027],[100.07765792200007,6.5571240940000735],[100.07913930600006,6.558296295000048],[100.08837084700008,6.551247385000067],[100.09540451900006,6.542460105000032],[100.09761273600009,6.536866814000064],[100.09939986000006,6.529574295000032],[100.09950128700007,6.52405086300007],[100.09862958800005,6.517470304000028],[100.09651190800008,6.517701892000048],[100.09295705300008,6.512410515000056],[100.09259224400006,6.5074128210000595],[100.09102971000004,6.502230267000073],[100.08805331000008,6.49800878800005],[100.08595174400006,6.498742249000031],[100.08474600400007,6.494818932000044],[100.08862668900008,6.493508913000028],[100.08958736300008,6.494818950000024],[100.09887924700007,6.496902743000021],[100.10181703000006,6.495312531000025],[100.10273308400008,6.4881161160000715],[100.10688975000005,6.481421175000037],[100.11072347400005,6.470746819000055],[100.11213613400008,6.462312196000028],[100.11413658300006,6.459322746000055],[100.11637577900007,6.458710549000045],[100.11464994400006,6.454660713000067],[100.11489882200004,6.448759842000072],[100.11693652200006,6.44687007400006],[100.11687950900006,6.444740495000076],[100.11916074100009,6.442501057000072],[100.11771717100004,6.43676100700003],[100.11775968100005,6.432257115000027],[100.11941141000005,6.429460451000068],[100.12077593200007,6.422715688000039],[100.12368190900008,6.4230660580000745],[100.12503622400004,6.425537342000041],[100.12958188400006,6.428114615000027],[100.13337937200004,6.429146331000027],[100.13479494000006,6.433727086000033],[100.13431650500007,6.439942292000069],[100.13606232600006,6.441035057000022],[100.13529671900005,6.444410901000026],[100.13999984300006,6.4483093460000305],[100.14252924900006,6.448022178000031],[100.14485635900007,6.45153186400006],[100.14738751600004,6.452032673000076],[100.14590684900008,6.456281821000061],[100.14458747200007,6.463399391000053],[100.14562640800006,6.469020988000068],[100.15036712900007,6.470668836000073],[100.15143957200007,6.472578726000052],[100.15119585200006,6.4765159060000315],[100.15387070700007,6.478506390000064],[100.15799077100007,6.47905944300004],[100.15855696000006,6.480745488000025],[100.15651042100006,6.483421096000029],[100.15451480600007,6.483397963000073],[100.15460743800008,6.48710935500003],[100.15907706500008,6.487014912000063],[100.16013717700008,6.489430743000071],[100.15991497300007,6.503464791000056],[100.15789969700006,6.5074811830000385],[100.15834437700005,6.5098961580000605],[100.15671274200008,6.516582568000047],[100.15424916900008,6.522800033000067],[100.15628753100003,6.522669855000061],[100.15673705400008,6.533838125000045],[100.15537942200007,6.537041268000053],[100.15561046300007,6.541903828000045],[100.15360399500008,6.549312392000047],[100.15311726500005,6.5559334650000665],[100.15408155900008,6.559131833000038],[100.15775584300007,6.560691997000049],[100.15914151900006,6.5630103890000555],[100.15829294100007,6.569318548000069],[100.15914496500005,6.571355503000063],[100.15626787600007,6.575284048000071],[100.15643526800005,6.579958477000048],[100.16185568200007,6.576839741000072],[100.16286429300004,6.572068751000074],[100.16521365100004,6.570431910000025],[100.16822925200006,6.572119016000045],[100.16936462100006,6.57468889300003],[100.17296839700003,6.572892526000032],[100.17511971000005,6.567334273000029],[100.17641776800008,6.5722563970000465],[100.17940169500008,6.57391242500006],[100.18296178200006,6.573496453000075],[100.18240449800004,6.57663500700005],[100.18368313100007,6.579989115000046],[100.18164853400003,6.58203287300006],[100.18087801700005,6.5877450400000725],[100.17820187300003,6.59126846700002],[100.17812407100007,6.596145800000045],[100.18045454400004,6.597751329000062],[100.18028403300008,6.601420866000069],[100.17885894100004,6.6042884800000365],[100.17579482400004,6.604653548000044],[100.16967379000005,6.608694928000034],[100.16811668400004,6.6223018510000315],[100.16691640400006,6.625616027000035],[100.16795193000007,6.628208752000035],[100.16581184700004,6.631659694000064],[100.16843529200008,6.633980172000065],[100.16795450700005,6.638903661000029],[100.16867626600003,6.6412286480000375],[100.16757352900004,6.64803310800005],[100.17248147600009,6.651242990000071],[100.17440492800006,6.650835968000024],[100.18103113700005,6.655290119000028],[100.18065913800007,6.660575237000046],[100.17910523200004,6.662702797000065],[100.17977124100008,6.6690408830000365],[100.18025225400004,6.681112683000038],[100.17914878200008,6.683107481000036]]]]},"properties":{"Shape_Leng":4.13718872693,"Shape_Area":0.0685644352353,"ADM2_EN":"Mueang Satun","ADM2_TH":"เมืองสตูล","ADM2_PCODE":"TH9101","ADM1_EN":"Satun","ADM1_TH":"สตูล","ADM1_PCODE":"TH91","ADM0_EN":"Thailand","ADM0_TH":"ประเทศไทย","ADM0_PCODE":"TH"}},
{"type":"Feature","geometry":{"type":"Polygon","coordinates":[[[100.17914878200008,6.683107481000036],[100.17496928800006,6.68339234900003],[100.17136021300007,6.693712131000041],[100.17697913600006,6.694812446000071],[100.17890512400004,6.696839302000058],[100.17926224300004,6.700297361000025],[100.18556474700006,6.713544329000058],[100.18530461700004,6.717034912000031],[100.18781544900008,6.718819050000036],[100.19847322900006,6.722397761000025],[100.20212544900005,6.725936949000072],[100.20590833000006,6.72784389800006],[100.20694326100005,6.734604672000046],[100.20617021900006,6.739355149000062],[100.20706311500004,6.741314310000064],[100.20734969100005,6.748622269000066],[100.20828320500004,6.750292276000039],[100.21190085700005,6.751666572000033],[100.21564981800003,6.755992870000057],[100.21533193900007,6.760249944000066],[100.21300291700004,6.765897168000038],[100.21275848800008,6.768751587000054],[100.20239351600009,6.774231217000022],[100.19909499400006,6.776698535000037],[100.19894751800007,6.783389740000075],[100.19379484000007,6.787167654000029],[100.19301762000003,6.791101487000049],[100.19557367500005,6.795998609000037],[100.19141061000005,6.7997905350000565],[100.19097792600007,6.803021556000033],[100.19162110800005,6.8089398780000465],[100.18619713900006,6.808465374000036],[100.18299015700006,6.8091437070000325],[100.18080222500004,6.81174031200004],[100.17819026000006,6.812807950000035],[100.17300829900006,6.811119093000059],[100.16532412300006,6.816539864000049],[100.16133700000006,6.816527292000046],[100.15779798400007,6.818831790000047],[100.15676664900008,6.817606762000025],[100.15187164000008,6.817241821000039],[100.15057136800004,6.819045679000055],[100.14489066600004,6.818583911000076],[100.14108810000005,6.816625858000066],[100.13499601200004,6.817305137000062],[100.13409650500006,6.815154327000073],[100.13103144300004,6.814558047000048],[100.12805647300007,6.8174992470000575],[100.12957576000008,6.818482066000058],[100.12080310500005,6.821214765000036],[100.11133279500007,6.8193633430000204],[100.10768109400004,6.820757018000052],[100.09958291500004,6.819135594000045],[100.09136965800008,6.818293704000041],[100.08903316800007,6.821423472000049],[100.08640594100007,6.82162997000006],[100.08527416600003,6.827589483000054],[100.08216865200006,6.829018486000052],[100.08303736100004,6.831297315000029],[100.08018256200006,6.839157984000053],[100.07509088700004,6.839895530000035],[100.07216013400006,6.837255728000059],[100.06666807300007,6.840833731000032],[100.05810664900008,6.842567019000057],[100.05751710300007,6.840655206000065],[100.05548473100004,6.84173944500003],[100.05345520800006,6.8395414620000565],[100.04987554100006,6.840060610000023],[100.04774391700005,6.843062866000025],[100.04404323700004,6.843419939000057],[100.04028098900005,6.836819100000071],[100.03360864200005,6.841008485000032],[100.02846834100006,6.839070626000023],[100.02573364600005,6.839365429000054],[100.02118873900008,6.833313031000046],[100.02322238100004,6.831707742000049],[100.01612041600004,6.825321258000031],[100.01282542700005,6.8242474520000656],[100.01186351400008,6.82581613900004],[100.00821816900009,6.823721449000061],[100.00758333000005,6.824994792000041],[100.00378040900006,6.822275435000051],[99.99926873200008,6.823377007000033],[99.99777560300004,6.820610975000022],[99.99914798900005,6.8202105390000725],[100.00094331200006,6.815902953000034],[100.00401203200005,6.813952365000034],[100.00795854400008,6.806454921000068],[100.00692025700005,6.805332878000058],[100.01212006800006,6.802430998000034],[100.01511320800006,6.802672910000069],[100.02139563500003,6.799437887000067],[100.02443458800008,6.799611038000023],[100.02357648000009,6.7971299120000594],[100.02762856700008,6.794451386000048],[100.02767337300008,6.792673164000064],[100.03114207600004,6.79273717500007],[100.03535542500003,6.796585925000045],[100.03813337300005,6.796829929000069],[100.04440113800007,6.7891409300000305],[100.04831850000005,6.775448290000043],[100.05014412400004,6.771595400000024],[100.05235494800007,6.769456977000061],[100.05424629000004,6.765608975000021],[100.05745806700008,6.75607648600004],[100.05383548200007,6.753848752000067],[100.06090604800005,6.753353049000054],[100.06869320700008,6.750232410000024],[100.06977926400003,6.745250001000045],[100.06910948000007,6.743626764000055],[100.07543961800008,6.745279093000022],[100.07752965500003,6.74170022800007],[100.08412470800005,6.739849436000043],[100.07868182000004,6.729994693000037],[100.07845689000004,6.72361230000007],[100.08385611700004,6.723908216000041],[100.09795669600004,6.721455051000021],[100.09991944000006,6.722647098000039],[100.10003497200006,6.72888236600005],[100.10158431700006,6.730086455000048],[100.10855849700005,6.728711682000039],[100.11137589500004,6.72740433000007],[100.11886018000007,6.7221816140000215],[100.12042819100009,6.715786829000024],[100.11962936000003,6.713293216000068],[100.12167457300006,6.706330642000069],[100.12213656600005,6.697533110000052],[100.12441895000006,6.694301996000036],[100.12283048400008,6.692532810000046],[100.12426985000008,6.688591731000031],[100.12595324700004,6.691382890000057],[100.13465769400005,6.691928720000021],[100.13735335300004,6.689569400000039],[100.14793519500006,6.687526503000072],[100.15679906000008,6.687983995000025],[100.16344225900008,6.684351682000056],[100.16894333900007,6.685531095000044],[100.17054664900007,6.681734892000065],[100.17484585400007,6.681563188000041],[100.17914878200008,6.683107481000036]]]},"properties":{"Shape_Leng":0.816704569294,"Shape_Area":0.0180242235232,"ADM2_EN":"Khuan Don","ADM2_TH":"ควนโดน","ADM2_PCODE":"TH9102","ADM1_EN":"Satun","ADM1_TH":"สตูล","ADM1_PCODE":"TH91","ADM0_EN":"Thailand","ADM0_TH":"ประเทศไทย","ADM0_PCODE":"TH"}},
{"type":"Feature","geometry":{"type":"Polygon","coordinates":[[[100.19162110800005,6.8089398780000465],[100.19139558800003,6.810218965000047],[100.19532730900005,6.813125753000065],[100.19633688700009,6.815602137000042],[100.19521809700007,6.826860165000028],[100.19735018400007,6.829725447000044],[100.19856345500006,6.8350398040000755],[100.20207490300004,6.8399550830000635],[100.20991812800008,6.843053974000043],[100.21093499300008,6.84472366600005],[100.21042739500007,6.849813076000032],[100.21172147500005,6.853379296000071],[100.21097422300005,6.857187054000065],[100.21465132000009,6.861535202000027],[100.21735662700007,6.866037066000047],[100.21767062200007,6.868598726000073],[100.22035536400006,6.870288576000064],[100.21873066900008,6.871778413000072],[100.21870256400007,6.879544444000032],[100.21392597100004,6.882250627000076],[100.21175679100008,6.884979332000057],[100.21164416900007,6.8875160720000395],[100.20888826600009,6.8883504120000225],[100.20716119800005,6.8957554890000665],[100.20083364400006,6.89939561500006],[100.19918281000008,6.906602100000043],[100.19146246700006,6.910533749000024],[100.18866350900004,6.910573014000022],[100.18584218700005,6.9124412490000395],[100.17961634800008,6.913295867000045],[100.17714184500005,6.911774290000039],[100.17393750500008,6.913331415000073],[100.16800160200006,6.911716100000035],[100.16609685100008,6.9142328720000705],[100.16333381500004,6.913942876000021],[100.15674485200009,6.919725501000073],[100.15345305900007,6.920795002000034],[100.14631921600005,6.925127559000032],[100.14084867900004,6.924639769000066],[100.13798882400005,6.9221505410000645],[100.13168412800007,6.923088240000027],[100.12543228600003,6.923080119000076],[100.12174551000004,6.923864598000023],[100.12041281500007,6.929222973000037],[100.12109338200008,6.930250183000055],[100.11994027000009,6.936041343000056],[100.11633754400003,6.939988210000024],[100.11232388400003,6.943138057000056],[100.10818817900008,6.9450110210000275],[100.10588516600006,6.948685033000061],[100.10141799900003,6.949335839000071],[100.09984871400007,6.956039831000055],[100.09576349200006,6.962186762000044],[100.09469020600005,6.965202441000031],[100.07903057400006,6.963249835000056],[100.07904498600004,6.969105042000024],[100.08101763500008,6.980082081000035],[100.07962661200008,6.985247146000063],[100.07995495400007,6.989243885000064],[100.08329316700008,6.994813413000031],[100.08282843200004,6.998621514000035],[100.07784300800006,7.005344567000066],[100.06692091800005,7.012182304000021],[100.06347967200008,7.017114919000051],[100.06357536900003,7.020669199000054],[100.06700506900006,7.027571370000032],[100.06560566700006,7.03111668300005],[100.06732944200007,7.033126996000021],[100.07104481800008,7.031882741000061],[100.07491169200006,7.033181037000077],[100.07801103300005,7.036925039000039],[100.07870332400006,7.042871688000048],[100.07642361500007,7.044193359000076],[100.07249647900005,7.043368027000042],[100.07079468100005,7.0458193770000435],[100.07362238400003,7.047398168000029],[100.07405406600009,7.049492332000057],[100.06842643700008,7.054415579000022],[100.06384093500009,7.0568122130000575],[100.06424295200009,7.059254297000052],[100.06342269100008,7.068471360000046],[100.06052074900003,7.0712040980000666],[100.06121183000005,7.075385436000033],[100.06296368900007,7.075933230000032],[100.05947720500006,7.08556502700003],[100.06009180700005,7.08891774500006],[100.05767252200008,7.090197038000042],[100.05463952100007,7.094935071000066],[100.05530272800007,7.099258877000068],[100.05687101500007,7.101960856000062],[100.05721977100006,7.10757965800002],[100.05404754000006,7.109590064000031],[100.05078156500008,7.109625048000055],[100.04959959500007,7.107707011000059],[100.04582100600004,7.108882691000076],[100.03845308900009,7.108792016000052],[100.03754576400007,7.10746186800003],[100.03684174100005,7.101287081000066],[100.03424291000005,7.100735110000073],[100.03100738400008,7.093139785000062],[100.02822832700008,7.090332414000045],[100.02735717700006,7.083317928000042],[100.02562005400006,7.0790736210000205],[100.02025737700006,7.073942673000033],[100.01666942700007,7.0720260270000495],[100.01290995200009,7.0677026690000275],[100.00678263900005,7.066643863000024],[100.00288504100007,7.063201818000039],[100.00000150300008,7.063452963000032],[99.99769705200004,7.066945662000023],[99.99216811600007,7.066927777000046],[99.99412300700004,7.062563551000039],[99.99235489700004,7.060373327000036],[99.99234850200008,7.057448343000033],[99.98880916900004,7.054734217000032],[99.98343603700005,7.0541057180000735],[99.97231284900005,7.041976335000072],[99.97359561000007,7.038910852000072],[99.97972966300006,7.034520427000075],[99.98120610300003,7.0290627060000475],[99.98504871000006,7.024652111000023],[99.98429168400008,7.021531545000073],[99.98638853800009,7.017143058000045],[99.98647350000005,7.0135505800000715],[99.98456331300008,7.010276574000045],[99.98583132100003,7.008474375000048],[99.98420580000004,7.003216149000025],[99.98703020400006,6.998690125000053],[99.98659985900008,6.996947533000025],[99.98354707800007,6.9953118000000245],[99.98223747500003,6.993147302000068],[99.98181033100008,6.98629367500007],[99.98755053200006,6.97436603400007],[99.99278741200004,6.972053191000043],[99.99508639900006,6.97018700600006],[100.00409820500005,6.969161246000056],[100.00546127400008,6.966991300000075],[100.00532425300008,6.959972182000058],[100.00231706100004,6.955184184000075],[100.00126422400007,6.948569937000059],[99.99737319500008,6.947048729000073],[99.98683976800004,6.947344585000053],[99.98014736600004,6.945817921000071],[99.97895272900007,6.943752008000047],[99.97283426700005,6.941295577000062],[99.97214733900006,6.939747250000039],[99.96720519100006,6.940069759000039],[99.96676145600009,6.938454325000066],[99.96020475100005,6.938729310000042],[99.95612330900008,6.937993687000073],[99.95613703500004,6.93657911400004],[99.94917910100008,6.935218285000076],[99.94138429700007,6.930095711000035],[99.93367551500006,6.9279014950000715],[99.93054208100006,6.929203289000043],[99.92675063600007,6.9259343690000605],[99.92556277900007,6.9273135640000305],[99.92153737500007,6.9279998290000435],[99.92068039300005,6.923273608000045],[99.91695626300003,6.921899357000029],[99.91713783400007,6.920139296000059],[99.91241205800009,6.923202126000035],[99.90931528900006,6.920684969000035],[99.90566292400007,6.923266871000067],[99.90244334400006,6.921785895000028],[99.90254965200006,6.919337784000049],[99.90067082200005,6.920749105000027],[99.90047899400008,6.917404695000073],[99.89733770500004,6.917284966000068],[99.89819993700007,6.913900082000055],[99.89012382200008,6.913441206000073],[99.88643226700003,6.910911871000053],[99.88336037800008,6.911139499000058],[99.88356687000004,6.908478368000033],[99.87626100200004,6.909136553000053],[99.87507922400005,6.91211054300004],[99.87081792200007,6.910000499000034],[99.86837229900004,6.911347165000052],[99.86765903300005,6.90891251100004],[99.86516198900006,6.911719468000058],[99.86607357900004,6.910226076000072],[99.86434516100007,6.905532913000059],[99.86722139500006,6.9045031790000735],[99.86729258000008,6.9010844140000245],[99.86539870200005,6.898531087000038],[99.86682413200003,6.8960300240000265],[99.86386561600006,6.894141897000054],[99.86267875900006,6.891326682000056],[99.86366077700006,6.889870133000045],[99.86393939800007,6.883277126000053],[99.86882501800005,6.882551285000034],[99.87163338500005,6.880062277000036],[99.86978432900008,6.8739553390000765],[99.87160506300006,6.872353657000076],[99.88172702200006,6.870297236000056],[99.88314800800003,6.869423793000067],[99.88579658300006,6.870758490000071],[99.88923956000008,6.877306322000038],[99.90850343000005,6.8757685690000585],[99.91073054000003,6.874405730000035],[99.91557273400008,6.875359095000022],[99.92554729200003,6.874814943000047],[99.93019425800009,6.87535189700003],[99.93200239700008,6.8784915660000365],[99.93366762000005,6.878415664000045],[99.94223196400009,6.881673991000071],[99.95393715100005,6.88074651200003],[99.95437709300006,6.8783690580000325],[99.95368053900006,6.866140977000043],[99.96473196000005,6.865231190000031],[99.96435674100007,6.8630317020000575],[99.96826869200004,6.862670490000028],[99.97093521300008,6.8599008870000375],[99.96813916700006,6.854718287000026],[99.96091542400006,6.847574239000039],[99.96183530400003,6.839867085000037],[99.96574365000004,6.835155825000072],[99.97856163200004,6.833942670000056],[99.97850565900006,6.833021629000029],[99.98336813300006,6.832131271000037],[99.98304983200006,6.828732157000047],[99.98947703400006,6.827460560000077],[99.98814779000008,6.825947060000033],[99.99048581200003,6.819737337000049],[99.99499047800003,6.819629264000071],[99.99777560300004,6.820610975000022],[99.99926873200008,6.823377007000033],[100.00378040900006,6.822275435000051],[100.00758333000005,6.824994792000041],[100.00821816900009,6.823721449000061],[100.01186351400008,6.82581613900004],[100.01282542700005,6.8242474520000656],[100.01612041600004,6.825321258000031],[100.02322238100004,6.831707742000049],[100.02118873900008,6.833313031000046],[100.02573364600005,6.839365429000054],[100.02846834100006,6.839070626000023],[100.03360864200005,6.841008485000032],[100.04028098900005,6.836819100000071],[100.04404323700004,6.843419939000057],[100.04774391700005,6.843062866000025],[100.04987554100006,6.840060610000023],[100.05345520800006,6.8395414620000565],[100.05548473100004,6.84173944500003],[100.05751710300007,6.840655206000065],[100.05810664900008,6.842567019000057],[100.06666807300007,6.840833731000032],[100.07216013400006,6.837255728000059],[100.07509088700004,6.839895530000035],[100.08018256200006,6.839157984000053],[100.08303736100004,6.831297315000029],[100.08216865200006,6.829018486000052],[100.08527416600003,6.827589483000054],[100.08640594100007,6.82162997000006],[100.08903316800007,6.821423472000049],[100.09136965800008,6.818293704000041],[100.09958291500004,6.819135594000045],[100.10768109400004,6.820757018000052],[100.11133279500007,6.8193633430000204],[100.12080310500005,6.821214765000036],[100.12957576000008,6.818482066000058],[100.12805647300007,6.8174992470000575],[100.13103144300004,6.814558047000048],[100.13409650500006,6.815154327000073],[100.13499601200004,6.817305137000062],[100.14108810000005,6.816625858000066],[100.14489066600004,6.818583911000076],[100.15057136800004,6.819045679000055],[100.15187164000008,6.817241821000039],[100.15676664900008,6.817606762000025],[100.15779798400007,6.818831790000047],[100.16133700000006,6.816527292000046],[100.16532412300006,6.816539864000049],[100.17300829900006,6.811119093000059],[100.17819026000006,6.812807950000035],[100.18080222500004,6.81174031200004],[100.18299015700006,6.8091437070000325],[100.18619713900006,6.808465374000036],[100.19162110800005,6.8089398780000465]]]},"properties":{"Shape_Leng":1.53974178605,"Shape_Area":0.0435363741025,"ADM2_EN":"Khuan Kalong","ADM2_TH":"ควนกาหลง","ADM2_PCODE":"TH9103","ADM1_EN":"Satun","ADM1_TH":"สตูล","ADM1_PCODE":"TH91","ADM0_EN":"Thailand","ADM0_TH":"ประเทศไทย","ADM0_PCODE":"TH"}},
{"type":"Feature","geometry":{"type":"Polygon","coordinates":[[[100.00692025700005,6.805332878000058],[100.00795854400008,6.806454921000068],[100.00401203200005,6.813952365000034],[100.00094331200006,6.815902953000034],[99.99914798900005,6.8202105390000725],[99.99777560300004,6.820610975000022],[99.99499047800003,6.819629264000071],[99.99048581200003,6.819737337000049],[99.98814779000008,6.825947060000033],[99.98947703400006,6.827460560000077],[99.98304983200006,6.828732157000047],[99.98336813300006,6.832131271000037],[99.97850565900006,6.833021629000029],[99.97856163200004,6.833942670000056],[99.96574365000004,6.835155825000072],[99.96183530400003,6.839867085000037],[99.96091542400006,6.847574239000039],[99.96813916700006,6.854718287000026],[99.97093521300008,6.8599008870000375],[99.96826869200004,6.862670490000028],[99.96435674100007,6.8630317020000575],[99.96473196000005,6.865231190000031],[99.95368053900006,6.866140977000043],[99.95437709300006,6.8783690580000325],[99.95393715100005,6.88074651200003],[99.94223196400009,6.881673991000071],[99.93366762000005,6.878415664000045],[99.93200239700008,6.8784915660000365],[99.93019425800009,6.87535189700003],[99.92554729200003,6.874814943000047],[99.91557273400008,6.875359095000022],[99.91073054000003,6.874405730000035],[99.90850343000005,6.8757685690000585],[99.88923956000008,6.877306322000038],[99.88579658300006,6.870758490000071],[99.88314800800003,6.869423793000067],[99.88553641900006,6.868070385000067],[99.88488028800003,6.864335527000037],[99.88621488700005,6.861642412000037],[99.88612470800007,6.857717071000025],[99.88818963100005,6.8548333100000605],[99.88469246800008,6.852086001000032],[99.88647189500006,6.85002907300003],[99.88231057300004,6.8504123460000415],[99.87940359100008,6.848390147000032],[99.87489984300004,6.847195345000046],[99.87341889900006,6.845162447000064],[99.86694054300006,6.845925144000034],[99.86760803900006,6.844782646000056],[99.86532463200007,6.839260314000057],[99.86675483800008,6.8374822070000505],[99.86430978700008,6.832866058000036],[99.86191254500005,6.833468565000032],[99.85917664500005,6.828262357000028],[99.85395221300007,6.827998125000022],[99.85193736100007,6.829921591000073],[99.85081308200006,6.826516103000074],[99.84446232400006,6.824258255000075],[99.84122609100007,6.82596042800003],[99.83778719000009,6.822897141000055],[99.83705781500004,6.820709767000039],[99.83813591700005,6.814802457000042],[99.84135403400006,6.810173528000064],[99.85053845100003,6.809212071000047],[99.85247813400008,6.807071826000026],[99.85188921100007,6.803731638000045],[99.84519724100005,6.800631542000076],[99.83752584800004,6.789908747000027],[99.83693833300003,6.7867002110000385],[99.83871590300004,6.784350996000057],[99.84008843400005,6.779013131000056],[99.84193506100007,6.779108496000049],[99.84454310500007,6.7718381850000355],[99.84767384000008,6.768730205000054],[99.85372397100008,6.764476001000048],[99.85537984300004,6.760149781000052],[99.85689116000003,6.7590965540000525],[99.86255020100003,6.751232301000073],[99.86600377000008,6.748084122000023],[99.86656283200006,6.746042866000039],[99.87057819500006,6.7433497870000565],[99.86838119300006,6.738494596000066],[99.87101144100006,6.7334659150000675],[99.87206904900006,6.728385053000068],[99.87633937500004,6.721378940000022],[99.87758672700005,6.720800705000045],[99.88636553200007,6.722840679000058],[99.89162231400007,6.723127953000073],[99.90319872300006,6.721332076000067],[99.90519567400008,6.724493144000064],[99.91283466100003,6.724147022000068],[99.91948084600006,6.734056122000027],[99.92243150400009,6.739625313000033],[99.92505115700004,6.741322658000058],[99.93535980500008,6.7437662980000255],[99.94525139000007,6.743517583000028],[99.95328402800004,6.749478570000065],[99.96399946600008,6.752863095000066],[99.96907743700007,6.752578386000039],[99.97345223200006,6.753934998000034],[99.97967462300005,6.753857064000044],[99.98157497800008,6.755638344000033],[99.98559764400005,6.75506106000006],[99.98621360200008,6.757997009000064],[99.98299016100003,6.758148495000057],[99.98518296200007,6.765046946000041],[99.98431046800005,6.768065953000075],[99.98643076100007,6.771942058000036],[99.98978371400005,6.773466522000035],[99.99196640000008,6.775934490000054],[99.99732995900007,6.777303521000022],[100.00066759500004,6.7824052420000385],[100.00432428500005,6.781607712000039],[100.00879638000004,6.784626021000065],[100.00919929000008,6.794826528000044],[100.01245491300006,6.798538726000061],[100.00416427600004,6.80137916700005],[100.00692025700005,6.805332878000058]]]},"properties":{"Shape_Leng":0.70624797159,"Shape_Area":0.0175549908326,"ADM2_EN":"Tha Phae","ADM2_TH":"ท่าแพ","ADM2_PCODE":"TH9104","ADM1_EN":"Satun","ADM1_TH":"สตูล","ADM1_PCODE":"TH91","ADM0_EN":"Thailand","ADM0_TH":"ประเทศไทย","ADM0_PCODE":"TH"}},
{"type":"Feature","geometry":{"type":"MultiPolygon","coordinates":[[[[99.86516198900006,6.911719468000058],[99.86233937000009,6.915039486000069],[99.86036893100004,6.9143708880000645],[99.86020691400006,6.917357321000054],[99.85702192900004,6.9200597890000495],[99.85879202100006,6.923304358000053],[99.86045952200004,6.923659978000046],[99.86271076400004,6.926818163000064],[99.86198854200006,6.9318859840000755],[99.86306993700003,6.937024270000052],[99.86446535000005,6.935726381000052],[99.86818973700008,6.936597748000054],[99.87280768000005,6.940468398000064],[99.87268161000009,6.94571905600003],[99.87070927100007,6.946189441000058],[99.87309119500009,6.949848588000066],[99.87320617200004,6.956700953000052],[99.87645974000009,6.95438406300002],[99.88043155300005,6.957340230000057],[99.88004201100006,6.9628572940000595],[99.88254628400006,6.964905500000043],[99.88351261700006,6.968208849000064],[99.88626735900004,6.968589978000068],[99.88798311400006,6.9705525280000415],[99.88851444300008,6.9737632280000525],[99.88437473700009,6.975190368000028],[99.88324557900006,6.976797575000035],[99.88515806200007,6.981827170000031],[99.88708600300004,6.977519890000053],[99.89216955100005,6.9761575210000615],[99.89143739500008,6.97831644200005],[99.88742437300004,6.981356220000066],[99.89064490000004,6.984256789000028],[99.89681250200005,6.982571413000073],[99.89496173000003,6.985106023000071],[99.88760517000009,6.9856062660000475],[99.89011192100008,6.9903429490000235],[99.88945863300006,6.9917512770000485],[99.88581532200004,6.992170506000036],[99.88550736800005,6.993679890000067],[99.88985373700007,7.000369719000048],[99.88904560100008,7.003811233000022],[99.89084275300007,7.006044434000046],[99.88581865600008,7.009465442000021],[99.88895496900005,7.013444882000044],[99.88637167200005,7.019500868000023],[99.88895699000005,7.02369655800004],[99.88281346400004,7.029991058000064],[99.88391995800004,7.034298662000026],[99.88590192000004,7.03531510800002],[99.88543212100006,7.038426616000038],[99.88818930300005,7.041900371000054],[99.88883650800005,7.045432660000074],[99.88867510600005,7.053597830000058],[99.88515399500005,7.064748402000021],[99.88214613500008,7.068115085000045],[99.88409467700006,7.070727748000024],[99.88244530800006,7.073230187000036],[99.87688135600007,7.076767270000062],[99.87449214400004,7.0751151950000235],[99.87445179000008,7.079448073000037],[99.86873643100006,7.0749354790000325],[99.87087595100007,7.074014173000023],[99.87030306500009,7.07200232200006],[99.87192559700009,7.06778457300004],[99.87181749800004,7.064279825000028],[99.87530423800007,7.06443533700002],[99.87531570400006,7.060149891000037],[99.87351571500005,7.058778077000056],[99.87267909100007,7.054474506000076],[99.87567658800003,7.049026465000054],[99.87508037600008,7.046970632000068],[99.87637727500004,7.0430336290000355],[99.87614818700007,7.039438880000034],[99.87433347500007,7.034789635000038],[99.87110192400007,7.034673767000072],[99.86431550700007,7.030483084000025],[99.86233351200008,7.023798574000068],[99.86224805100005,7.019753967000042],[99.85906164100004,7.018788107000034],[99.85421033400007,7.018771334000064],[99.85400498200005,7.017085153000039],[99.84820110300006,7.013402572000075],[99.84708873600005,7.006718533000026],[99.84388788900009,7.006884745000036],[99.83549028200008,7.013180820000059],[99.83337393000005,7.011231416000044],[99.83407857800006,7.008725773000037],[99.82961506600009,7.010007027000029],[99.82746504900007,7.008879700000023],[99.82737549200004,7.006571802000053],[99.82481454200007,7.004962521000039],[99.81546602000009,7.0093268050000574],[99.81065209700006,7.010131060000049],[99.80595960300008,7.003798138000036],[99.80385404000003,7.004635350000058],[99.80342155100004,7.009307922000062],[99.79089444900006,7.014096285000051],[99.78869098400008,7.0119054440000355],[99.78363189900006,7.012168605000056],[99.78587573800007,7.009084102000031],[99.78812080200004,7.003554372000053],[99.78713913300004,6.9972291070000665],[99.78805017800005,6.993736782000042],[99.79189404300007,6.990267105000044],[99.79190913700006,6.983748959000025],[99.77578278800007,6.979021939000063],[99.76818532200008,6.974605817000054],[99.76301689500008,6.973248933000036],[99.76148120100004,6.963329811000051],[99.75943637800003,6.962595600000043],[99.76080750200003,6.958514098000023],[99.75645598900007,6.95635889700003],[99.74563428000005,6.957243953000045],[99.74524083500006,6.959388541000067],[99.74048911900007,6.963688620000028],[99.73772941300007,6.969360342000073],[99.72951859400007,6.975767380000036],[99.73004535600006,6.980176801000027],[99.72568294800004,6.9823102090000475],[99.72266173700007,6.985874993000039],[99.71948174400006,6.986037722000049],[99.71882427800006,6.98936399300004],[99.71579582400005,6.992001319000053],[99.71939504900007,6.992112109000061],[99.72039191900006,6.995199913000022],[99.71927276200006,6.996573143000035],[99.71528067400004,6.994535520000056],[99.71288437100009,6.997823805000053],[99.70559107900004,6.99483658500003],[99.70383964700005,6.991440780000062],[99.70309800200005,6.98548726000007],[99.70018361300004,6.980195877000028],[99.69434050000007,6.97632423500005],[99.69096459300005,6.97265634200005],[99.68803674500003,6.971805391000032],[99.68288440000003,6.971556136000061],[99.68360862600008,6.966900586000065],[99.68225620500004,6.964321134000045],[99.68412741500003,6.9589020870000695],[99.68656546300008,6.959741751000024],[99.68864630100006,6.964587419000054],[99.69188737900004,6.967702974000076],[99.69534260900008,6.96920674200004],[99.69571818800006,6.967932494000024],[99.69914561400009,6.970007674000044],[99.70147163100006,6.9695544000000496],[99.70613303700009,6.963707467000063],[99.70689300600009,6.956623935000039],[99.70770209600005,6.955016390000026],[99.70426114200006,6.948846052000022],[99.70093891300007,6.953030543000068],[99.69499840500004,6.955796153000051],[99.69026670600005,6.954140747000054],[99.68525768100005,6.949772094000025],[99.68112417200007,6.944219786000076],[99.68096657300003,6.938217240000029],[99.68254496200007,6.923891145000027],[99.68385456200008,6.916762992000031],[99.68560202900005,6.911141267000062],[99.68468695300004,6.906904396000073],[99.68056488500008,6.906462774000033],[99.68020580100006,6.902867555000057],[99.67807187500006,6.90159075400004],[99.67810736400008,6.899350047000041],[99.68081179500007,6.899228730000061],[99.68339682000004,6.896069650000072],[99.68454454400006,6.896526778000066],[99.69282220200006,6.8751091050000355],[99.69683371000008,6.870092088000035],[99.69754907800007,6.865263645000027],[99.69491615700008,6.863665462000029],[99.69814804800006,6.86111807900005],[99.69716274400008,6.855852844000026],[99.69972368200007,6.855387997000037],[99.70315006200008,6.85909889900006],[99.70545006000003,6.859766171000047],[99.70816479400008,6.858223044000056],[99.71224856200007,6.860096940000062],[99.71597640200008,6.859343796000076],[99.72147009200006,6.862468781000075],[99.72062595000006,6.857039132000068],[99.72225061400007,6.854837962000033],[99.73587556100006,6.84940119700002],[99.74280585400004,6.845538913000041],[99.75068392000009,6.840018832000055],[99.75091557300004,6.836726074000069],[99.75483987000007,6.83257975500004],[99.75705892400003,6.838045277000049],[99.75972437000007,6.837832482000067],[99.76350747100008,6.834892822000029],[99.76819505400005,6.836016788000052],[99.77002645200008,6.8416145610000285],[99.77192832300005,6.842843576000064],[99.77457753900006,6.841816909000045],[99.77948839800007,6.838192063000065],[99.78347449400007,6.834106955000038],[99.79176027000005,6.822780992000048],[99.79739480800004,6.812925448000044],[99.80039934200005,6.805847607000032],[99.80371218600004,6.789951447000021],[99.80475958100004,6.780753512000047],[99.80680986000004,6.774054389000071],[99.81283412200008,6.770361643000058],[99.82223069100007,6.773061238000025],[99.82567156200008,6.776435583000023],[99.83271480400003,6.775000238000075],[99.83809068500005,6.7789099530000385],[99.84008843400005,6.779013131000056],[99.83871590300004,6.784350996000057],[99.83693833300003,6.7867002110000385],[99.83752584800004,6.789908747000027],[99.84519724100005,6.800631542000076],[99.85188921100007,6.803731638000045],[99.85247813400008,6.807071826000026],[99.85053845100003,6.809212071000047],[99.84135403400006,6.810173528000064],[99.83813591700005,6.814802457000042],[99.83705781500004,6.820709767000039],[99.83778719000009,6.822897141000055],[99.84122609100007,6.82596042800003],[99.84446232400006,6.824258255000075],[99.85081308200006,6.826516103000074],[99.85193736100007,6.829921591000073],[99.85395221300007,6.827998125000022],[99.85917664500005,6.828262357000028],[99.86191254500005,6.833468565000032],[99.86430978700008,6.832866058000036],[99.86675483800008,6.8374822070000505],[99.86532463200007,6.839260314000057],[99.86760803900006,6.844782646000056],[99.86694054300006,6.845925144000034],[99.87341889900006,6.845162447000064],[99.87489984300004,6.847195345000046],[99.87940359100008,6.848390147000032],[99.88231057300004,6.8504123460000415],[99.88647189500006,6.85002907300003],[99.88469246800008,6.852086001000032],[99.88818963100005,6.8548333100000605],[99.88612470800007,6.857717071000025],[99.88621488700005,6.861642412000037],[99.88488028800003,6.864335527000037],[99.88553641900006,6.868070385000067],[99.88314800800003,6.869423793000067],[99.88172702200006,6.870297236000056],[99.87160506300006,6.872353657000076],[99.86978432900008,6.8739553390000765],[99.87163338500005,6.880062277000036],[99.86882501800005,6.882551285000034],[99.86393939800007,6.883277126000053],[99.86366077700006,6.889870133000045],[99.86267875900006,6.891326682000056],[99.86386561600006,6.894141897000054],[99.86682413200003,6.8960300240000265],[99.86539870200005,6.898531087000038],[99.86729258000008,6.9010844140000245],[99.86722139500006,6.9045031790000735],[99.86434516100007,6.905532913000059],[99.86607357900004,6.910226076000072],[99.86516198900006,6.911719468000058]]],[[[99.76372207800006,6.783021333000022],[99.76053942600004,6.785022802000071],[99.75932760700005,6.782976646000066],[99.76114134600004,6.778997254000046],[99.76399189100005,6.778382240000042],[99.76735893200004,6.782161672000029],[99.76372207800006,6.783021333000022]]],[[[99.77669098700005,6.781323851000025],[99.77767417400008,6.786448562000032],[99.77131407300004,6.791569902000049],[99.77028367100007,6.793342128000063],[99.76718037800003,6.790838680000036],[99.76835416700004,6.788609203000021],[99.76756709100005,6.784302387000025],[99.77025167700003,6.779618330000062],[99.77271015400004,6.78031657300005],[99.77532207000007,6.779025686000068],[99.77669098700005,6.781323851000025]]],[[[99.52840016100004,6.797202697000046],[99.52546753300004,6.797227372000066],[99.52528884600008,6.794643901000029],[99.52766153900006,6.794122310000034],[99.52961840300009,6.795594075000054],[99.52840016100004,6.797202697000046]]],[[[99.68172313200006,6.832374583000046],[99.67891823200006,6.830538440000055],[99.67933429200008,6.828872746000059],[99.67712267800005,6.822774172000038],[99.67800987500004,6.820272912000064],[99.67686014800006,6.814704967000068],[99.68025601500005,6.812486228000068],[99.67869782600008,6.817950820000021],[99.68106353700006,6.819431038000062],[99.68295942300006,6.824008276000029],[99.68170729100007,6.826786502000061],[99.68324208000007,6.828587779000031],[99.68172313200006,6.832374583000046]]],[[[99.59128643400004,6.832383733000029],[99.58521603200006,6.832880734000071],[99.58690053800007,6.8282473200000595],[99.58993918500005,6.829243136000059],[99.59128643400004,6.832383733000029]]],[[[99.53727414100007,6.833008367000048],[99.53500553300006,6.835207290000028],[99.53438861600006,6.832839139000043],[99.53199531500007,6.831238980000023],[99.52799654900008,6.834113708000075],[99.52450113200007,6.828673130000027],[99.52612659600004,6.826424047000046],[99.53038825100003,6.825513103000048],[99.53353033800005,6.823470416000021],[99.53506165400006,6.826659611000025],[99.53752595500004,6.824462701000073],[99.53845433200007,6.8266603580000265],[99.54365516800004,6.831516016000023],[99.54036496700007,6.835152701000027],[99.53727414100007,6.833008367000048]]],[[[99.69654933000004,6.852727611000034],[99.69250396900009,6.851674588000037],[99.69273522300006,6.849739126000031],[99.68958415200007,6.85059029100006],[99.68661201700007,6.842994015000045],[99.68448737200004,6.8419896230000745],[99.68393507400003,6.838492221000024],[99.68575231400007,6.836888123000051],[99.68355220700005,6.834229742000048],[99.68333570000004,6.831708343000059],[99.68501766400004,6.829137572000036],[99.68592467200006,6.824931326000069],[99.68524014500008,6.822946888000047],[99.68675212100004,6.818632222000076],[99.69085526800006,6.816877115000068],[99.69110864500004,6.8142312100000595],[99.69337413700003,6.8151576080000495],[99.69472024500004,6.819866408000053],[99.69470431700006,6.824104754000075],[99.69657578800008,6.824585512000056],[99.69849796400007,6.831909237000048],[99.69708772100006,6.836506780000036],[99.69665751100007,6.8428848650000305],[99.69503753300006,6.847487714000067],[99.69727424300004,6.850191912000071],[99.69654933000004,6.852727611000034]]],[[[99.59375905700006,6.85136123500007],[99.59698409600009,6.8537797740000315],[99.59574058300007,6.857751198000074],[99.59025777500005,6.8597445990000665],[99.58987501300004,6.858514911000043],[99.59375905700006,6.85136123500007]]],[[[99.57128331200005,6.893239290000054],[99.56978995800006,6.896659768000063],[99.56845523800007,6.895079511000063],[99.57128331200005,6.893239290000054]]]]},"properties":{"Shape_Leng":1.8771832863,"Shape_Area":0.0327334471125,"ADM2_EN":"La-Ngu","ADM2_TH":"ละงู","ADM2_PCODE":"TH9105","ADM1_EN":"Satun","ADM1_TH":"สตูล","ADM1_PCODE":"TH91","ADM0_EN":"Thailand","ADM0_TH":"ประเทศไทย","ADM0_PCODE":"TH"}},
{"type":"Feature","geometry":{"type":"MultiPolygon","coordinates":[[[[100.02822832700008,7.090332414000045],[100.02548965600005,7.092269797000029],[100.02664263100007,7.095060828000044],[100.02688281500008,7.100455292000049],[100.02596670700007,7.102831481000067],[100.02199634700008,7.10416469300003],[100.01305798300007,7.109281123000073],[100.00511947700005,7.111386049000032],[100.00260065300006,7.113530124000022],[100.00031215300004,7.112109063000048],[99.99918502700007,7.114483818000053],[99.99651821500004,7.115629587000058],[99.99104008900008,7.1246047890000455],[99.98996441400004,7.124934624000048],[99.98707415800004,7.131704762000027],[99.98643476100006,7.136475479000069],[99.98484217600009,7.138950732000069],[99.98020038500005,7.142099901000051],[99.97874677400006,7.1474906040000405],[99.97450231300007,7.148487291000038],[99.97187617100008,7.150188324000055],[99.97082028100004,7.154034672000023],[99.97182813200004,7.156534484000076],[99.97020642400008,7.159422136000046],[99.96914320800005,7.1661129490000235],[99.96449398200008,7.16706384400004],[99.96188890700006,7.169072808000067],[99.96117181000005,7.173515517000055],[99.95852593600006,7.178112501000044],[99.96060514400006,7.1820163380000395],[99.95734509500005,7.186697607000042],[99.95659771900006,7.189928420000058],[99.95889612600007,7.193198693000056],[99.95987461300007,7.196526709000068],[99.95876993300004,7.198959932000037],[99.95313401900006,7.200591316000043],[99.94856212600007,7.203698755000062],[99.94605783200006,7.203498866000075],[99.94565805100007,7.201360340000065],[99.94167570800005,7.195913375000032],[99.93493626900005,7.190404730000068],[99.93009966400007,7.192018015000031],[99.92472312400008,7.190062567000041],[99.91890740300005,7.192345010000054],[99.91639220400003,7.192278961000056],[99.90756746000005,7.1891567310000255],[99.89989643000007,7.188720561000025],[99.89712497200009,7.186917878000031],[99.89052994900004,7.186776726000062],[99.88496708300005,7.1843100140000615],[99.87982970700006,7.179337331000056],[99.87677770100004,7.178198201000043],[99.87420525800007,7.175666894000074],[99.87203599000009,7.171241715000065],[99.86791012600008,7.170829824000066],[99.86365528200008,7.173311867000052],[99.85924028100004,7.172130741000046],[99.85740422200007,7.167929718000039],[99.85395423600005,7.1641670410000415],[99.84602466800004,7.1624696660000495],[99.84426350100006,7.161302418000048],[99.84362653200009,7.156523475000029],[99.84168371900006,7.155051892000074],[99.84103024100006,7.151070761000028],[99.83833248200006,7.150235573000032],[99.83328258600005,7.145837544000074],[99.83097837200006,7.142051836000064],[99.83126926700004,7.138032037000073],[99.82627009300006,7.137654199000053],[99.82227192600004,7.135206201000074],[99.80782710000005,7.130742091000059],[99.80535542400008,7.131056410000042],[99.80372941800005,7.1290266860000315],[99.79883069700008,7.12871659700005],[99.79131985600009,7.135141449000059],[99.78937297700008,7.139567690000035],[99.78766702000007,7.13825698200003],[99.78733441400004,7.13056302800004],[99.78508834300004,7.129765448000057],[99.78490718400008,7.127520666000066],[99.78031479700007,7.127904995000051],[99.77656367700007,7.126214082000047],[99.77062642500005,7.125014265000061],[99.76662582300008,7.125664701000062],[99.76333374800004,7.123866523000061],[99.75418168600004,7.124988318000021],[99.74581674300003,7.12970640900005],[99.73933561800004,7.131864303000043],[99.73585792300008,7.125804044000063],[99.73816561900009,7.119851663000077],[99.73492842200005,7.109873433000075],[99.73344563100005,7.108595060000027],[99.72999852600003,7.111233611000046],[99.72330377100008,7.109210694000069],[99.71861550800008,7.1051606940000624],[99.71357890900003,7.102447564000045],[99.71217814700003,7.098814399000048],[99.71612727600007,7.091113045000043],[99.71559252300005,7.088537350000024],[99.71180874700008,7.085609694000027],[99.71128356200006,7.081383583000047],[99.70356244500005,7.069195311000044],[99.70251866600006,7.066331029000025],[99.70046960700006,7.066798102000064],[99.69863825300007,7.073458703000028],[99.69881586600007,7.076357122000047],[99.69697439900006,7.07678370900004],[99.69456441800008,7.0737508180000646],[99.69284955200004,7.068895961000067],[99.68866646200007,7.064205761000039],[99.68255463700007,7.056234850000067],[99.67961299300003,7.057154749000063],[99.67742724900006,7.0553154380000365],[99.67259082300006,7.046309722000046],[99.67233297700005,7.047524933000034],[99.66990214700007,7.040738822000037],[99.67706771600007,7.021216487000061],[99.68394142700004,7.0127709370000275],[99.67929281700003,7.008510424000065],[99.67383777100008,7.008473325000068],[99.67154288700004,7.005481127000053],[99.67025748100008,7.001703024000051],[99.67072038100008,6.997667110000066],[99.67612051300006,6.981721419000053],[99.67965580300006,6.977946168000074],[99.68519636800005,6.976806220000071],[99.68803674500003,6.971805391000032],[99.69096459300005,6.97265634200005],[99.69434050000007,6.97632423500005],[99.70018361300004,6.980195877000028],[99.70309800200005,6.98548726000007],[99.70383964700005,6.991440780000062],[99.70559107900004,6.99483658500003],[99.71288437100009,6.997823805000053],[99.71528067400004,6.994535520000056],[99.71927276200006,6.996573143000035],[99.72039191900006,6.995199913000022],[99.71939504900007,6.992112109000061],[99.71579582400005,6.992001319000053],[99.71882427800006,6.98936399300004],[99.71948174400006,6.986037722000049],[99.72266173700007,6.985874993000039],[99.72568294800004,6.9823102090000475],[99.73004535600006,6.980176801000027],[99.72951859400007,6.975767380000036],[99.73772941300007,6.969360342000073],[99.74048911900007,6.963688620000028],[99.74524083500006,6.959388541000067],[99.74563428000005,6.957243953000045],[99.75645598900007,6.95635889700003],[99.76080750200003,6.958514098000023],[99.75943637800003,6.962595600000043],[99.76148120100004,6.963329811000051],[99.76301689500008,6.973248933000036],[99.76818532200008,6.974605817000054],[99.77578278800007,6.979021939000063],[99.79190913700006,6.983748959000025],[99.79189404300007,6.990267105000044],[99.78805017800005,6.993736782000042],[99.78713913300004,6.9972291070000665],[99.78812080200004,7.003554372000053],[99.78587573800007,7.009084102000031],[99.78363189900006,7.012168605000056],[99.78869098400008,7.0119054440000355],[99.79089444900006,7.014096285000051],[99.80342155100004,7.009307922000062],[99.80385404000003,7.004635350000058],[99.80595960300008,7.003798138000036],[99.81065209700006,7.010131060000049],[99.81546602000009,7.0093268050000574],[99.82481454200007,7.004962521000039],[99.82737549200004,7.006571802000053],[99.82746504900007,7.008879700000023],[99.82961506600009,7.010007027000029],[99.83407857800006,7.008725773000037],[99.83337393000005,7.011231416000044],[99.83549028200008,7.013180820000059],[99.84388788900009,7.006884745000036],[99.84708873600005,7.006718533000026],[99.84820110300006,7.013402572000075],[99.85400498200005,7.017085153000039],[99.85421033400007,7.018771334000064],[99.85906164100004,7.018788107000034],[99.86224805100005,7.019753967000042],[99.86233351200008,7.023798574000068],[99.86431550700007,7.030483084000025],[99.87110192400007,7.034673767000072],[99.87433347500007,7.034789635000038],[99.87614818700007,7.039438880000034],[99.87637727500004,7.0430336290000355],[99.87508037600008,7.046970632000068],[99.87567658800003,7.049026465000054],[99.87267909100007,7.054474506000076],[99.87351571500005,7.058778077000056],[99.87531570400006,7.060149891000037],[99.87530423800007,7.06443533700002],[99.87181749800004,7.064279825000028],[99.87192559700009,7.06778457300004],[99.87030306500009,7.07200232200006],[99.87087595100007,7.074014173000023],[99.86873643100006,7.0749354790000325],[99.87445179000008,7.079448073000037],[99.87712845200008,7.081555162000029],[99.88213473800005,7.083493958000076],[99.88426630400005,7.080767648000062],[99.88794258400009,7.0799716680000415],[99.89114357000005,7.084392850000029],[99.89325720700003,7.08498766200006],[99.89469687500008,7.088080593000029],[99.89728985000005,7.089575715000024],[99.89863182900007,7.092227466000054],[99.90110308100009,7.093613455000025],[99.90346277200007,7.097223003000067],[99.90779904500005,7.097751598000059],[99.90962105400007,7.095596998000076],[99.91495174200008,7.095690285000046],[99.91439873600007,7.0982616350000285],[99.91675739900006,7.0981467840000505],[99.91999376600006,7.100540871000021],[99.92237475800005,7.098062041000048],[99.92544077100007,7.100666168000032],[99.93197042300005,7.1017345910000245],[99.93327356700007,7.100246502000061],[99.93738561400005,7.101507862000062],[99.93863467800008,7.106930907000049],[99.94104061500008,7.106619906000049],[99.94679398200009,7.098812990000056],[99.94812364200004,7.101188786000023],[99.95261154100007,7.092770252000037],[99.95426777500006,7.092761224000071],[99.95527663600006,7.087399703000074],[99.95322409700003,7.082090766000022],[99.95690355600004,7.081176219000042],[99.96025417100009,7.0829246810000654],[99.96404416800004,7.079644333000033],[99.96956186200003,7.079004326000074],[99.97272446900007,7.076869952000038],[99.97630515000009,7.076500396000029],[99.97939709200006,7.074091249000048],[99.98302421200003,7.074708348000058],[99.98570318300006,7.071814314000051],[99.98599280600007,7.066892308000035],[99.99052042600005,7.066115444000047],[99.99216811600007,7.066927777000046],[99.99769705200004,7.066945662000023],[100.00000150300008,7.063452963000032],[100.00288504100007,7.063201818000039],[100.00678263900005,7.066643863000024],[100.01290995200009,7.0677026690000275],[100.01666942700007,7.0720260270000495],[100.02025737700006,7.073942673000033],[100.02562005400006,7.0790736210000205],[100.02735717700006,7.083317928000042],[100.02822832700008,7.090332414000045]]],[[[99.57849693100007,6.979154587000039],[99.57549476500009,6.9782581320000645],[99.57756233200007,6.976709365000033],[99.58313179100008,6.976129530000037],[99.58374214100007,6.978044512000054],[99.57849693100007,6.979154587000039]]],[[[99.69807166300006,7.092834013000072],[99.69594324400003,7.09219581800005],[99.69582116400005,7.087476543000037],[99.69769715000007,7.0859516340000255],[99.70153174700005,7.086874437000063],[99.70220953000006,7.0914779940000585],[99.69807166300006,7.092834013000072]]]]},"properties":{"Shape_Leng":1.42400502037,"Shape_Area":0.0380999672969,"ADM2_EN":"Thung Wa","ADM2_TH":"ทุ่งหว้า","ADM2_PCODE":"TH9106","ADM1_EN":"Satun","ADM1_TH":"สตูล","ADM1_PCODE":"TH91","ADM0_EN":"Thailand","ADM0_TH":"ประเทศไทย","ADM0_PCODE":"TH"}},
{"type":"Feature","geometry":{"type":"Polygon","coordinates":[[[99.99216811600007,7.066927777000046],[99.99052042600005,7.066115444000047],[99.98599280600007,7.066892308000035],[99.98570318300006,7.071814314000051],[99.98302421200003,7.074708348000058],[99.97939709200006,7.074091249000048],[99.97630515000009,7.076500396000029],[99.97272446900007,7.076869952000038],[99.96956186200003,7.079004326000074],[99.96404416800004,7.079644333000033],[99.96025417100009,7.0829246810000654],[99.95690355600004,7.081176219000042],[99.95322409700003,7.082090766000022],[99.95527663600006,7.087399703000074],[99.95426777500006,7.092761224000071],[99.95261154100007,7.092770252000037],[99.94812364200004,7.101188786000023],[99.94679398200009,7.098812990000056],[99.94104061500008,7.106619906000049],[99.93863467800008,7.106930907000049],[99.93738561400005,7.101507862000062],[99.93327356700007,7.100246502000061],[99.93197042300005,7.1017345910000245],[99.92544077100007,7.100666168000032],[99.92237475800005,7.098062041000048],[99.91999376600006,7.100540871000021],[99.91675739900006,7.0981467840000505],[99.91439873600007,7.0982616350000285],[99.91495174200008,7.095690285000046],[99.90962105400007,7.095596998000076],[99.90779904500005,7.097751598000059],[99.90346277200007,7.097223003000067],[99.90110308100009,7.093613455000025],[99.89863182900007,7.092227466000054],[99.89728985000005,7.089575715000024],[99.89469687500008,7.088080593000029],[99.89325720700003,7.08498766200006],[99.89114357000005,7.084392850000029],[99.88794258400009,7.0799716680000415],[99.88426630400005,7.080767648000062],[99.88213473800005,7.083493958000076],[99.87712845200008,7.081555162000029],[99.87445179000008,7.079448073000037],[99.87449214400004,7.0751151950000235],[99.87688135600007,7.076767270000062],[99.88244530800006,7.073230187000036],[99.88409467700006,7.070727748000024],[99.88214613500008,7.068115085000045],[99.88515399500005,7.064748402000021],[99.88867510600005,7.053597830000058],[99.88883650800005,7.045432660000074],[99.88818930300005,7.041900371000054],[99.88543212100006,7.038426616000038],[99.88590192000004,7.03531510800002],[99.88391995800004,7.034298662000026],[99.88281346400004,7.029991058000064],[99.88895699000005,7.02369655800004],[99.88637167200005,7.019500868000023],[99.88895496900005,7.013444882000044],[99.88581865600008,7.009465442000021],[99.89084275300007,7.006044434000046],[99.88904560100008,7.003811233000022],[99.88985373700007,7.000369719000048],[99.88550736800005,6.993679890000067],[99.88581532200004,6.992170506000036],[99.88945863300006,6.9917512770000485],[99.89011192100008,6.9903429490000235],[99.88760517000009,6.9856062660000475],[99.89496173000003,6.985106023000071],[99.89681250200005,6.982571413000073],[99.89064490000004,6.984256789000028],[99.88742437300004,6.981356220000066],[99.89143739500008,6.97831644200005],[99.89216955100005,6.9761575210000615],[99.88708600300004,6.977519890000053],[99.88515806200007,6.981827170000031],[99.88324557900006,6.976797575000035],[99.88437473700009,6.975190368000028],[99.88851444300008,6.9737632280000525],[99.88798311400006,6.9705525280000415],[99.88626735900004,6.968589978000068],[99.88351261700006,6.968208849000064],[99.88254628400006,6.964905500000043],[99.88004201100006,6.9628572940000595],[99.88043155300005,6.957340230000057],[99.87645974000009,6.95438406300002],[99.87320617200004,6.956700953000052],[99.87309119500009,6.949848588000066],[99.87070927100007,6.946189441000058],[99.87268161000009,6.94571905600003],[99.87280768000005,6.940468398000064],[99.86818973700008,6.936597748000054],[99.86446535000005,6.935726381000052],[99.86306993700003,6.937024270000052],[99.86198854200006,6.9318859840000755],[99.86271076400004,6.926818163000064],[99.86045952200004,6.923659978000046],[99.85879202100006,6.923304358000053],[99.85702192900004,6.9200597890000495],[99.86020691400006,6.917357321000054],[99.86036893100004,6.9143708880000645],[99.86233937000009,6.915039486000069],[99.86516198900006,6.911719468000058],[99.86765903300005,6.90891251100004],[99.86837229900004,6.911347165000052],[99.87081792200007,6.910000499000034],[99.87507922400005,6.91211054300004],[99.87626100200004,6.909136553000053],[99.88356687000004,6.908478368000033],[99.88336037800008,6.911139499000058],[99.88643226700003,6.910911871000053],[99.89012382200008,6.913441206000073],[99.89819993700007,6.913900082000055],[99.89733770500004,6.917284966000068],[99.90047899400008,6.917404695000073],[99.90067082200005,6.920749105000027],[99.90254965200006,6.919337784000049],[99.90244334400006,6.921785895000028],[99.90566292400007,6.923266871000067],[99.90931528900006,6.920684969000035],[99.91241205800009,6.923202126000035],[99.91713783400007,6.920139296000059],[99.91695626300003,6.921899357000029],[99.92068039300005,6.923273608000045],[99.92153737500007,6.9279998290000435],[99.92556277900007,6.9273135640000305],[99.92675063600007,6.9259343690000605],[99.93054208100006,6.929203289000043],[99.93367551500006,6.9279014950000715],[99.94138429700007,6.930095711000035],[99.94917910100008,6.935218285000076],[99.95613703500004,6.93657911400004],[99.95612330900008,6.937993687000073],[99.96020475100005,6.938729310000042],[99.96676145600009,6.938454325000066],[99.96720519100006,6.940069759000039],[99.97214733900006,6.939747250000039],[99.97283426700005,6.941295577000062],[99.97895272900007,6.943752008000047],[99.98014736600004,6.945817921000071],[99.98683976800004,6.947344585000053],[99.99737319500008,6.947048729000073],[100.00126422400007,6.948569937000059],[100.00231706100004,6.955184184000075],[100.00532425300008,6.959972182000058],[100.00546127400008,6.966991300000075],[100.00409820500005,6.969161246000056],[99.99508639900006,6.97018700600006],[99.99278741200004,6.972053191000043],[99.98755053200006,6.97436603400007],[99.98181033100008,6.98629367500007],[99.98223747500003,6.993147302000068],[99.98354707800007,6.9953118000000245],[99.98659985900008,6.996947533000025],[99.98703020400006,6.998690125000053],[99.98420580000004,7.003216149000025],[99.98583132100003,7.008474375000048],[99.98456331300008,7.010276574000045],[99.98647350000005,7.0135505800000715],[99.98638853800009,7.017143058000045],[99.98429168400008,7.021531545000073],[99.98504871000006,7.024652111000023],[99.98120610300003,7.0290627060000475],[99.97972966300006,7.034520427000075],[99.97359561000007,7.038910852000072],[99.97231284900005,7.041976335000072],[99.98343603700005,7.0541057180000735],[99.98880916900004,7.054734217000032],[99.99234850200008,7.057448343000033],[99.99235489700004,7.060373327000036],[99.99412300700004,7.062563551000039],[99.99216811600007,7.066927777000046]]]},"properties":{"Shape_Leng":0.879302249152,"Shape_Area":0.0172252670497,"ADM2_EN":"Manang","ADM2_TH":"มะนัง","ADM2_PCODE":"TH9107","ADM1_EN":"Satun","ADM1_TH":"สตูล","ADM1_PCODE":"TH91","ADM0_EN":"Thailand","ADM0_TH":"ประเทศไทย","ADM0_PCODE":"TH"}}
]}