{"type":"FeatureCollection", "features": [
{"type":"Feature","geometry":{"type":"Polygon","coordinates":[[[100.45431854700007,14.857026374000043],[100.44642724900007,14.858030189000033],[100.44545444500005,14.862706012000046],[100.44716535700007,14.86512732400007],[100.44600418600004,14.868753695000066],[100.44940291100005,14.874142240000026],[100.44557946700007,14.87591677200004],[100.44404236100007,14.874752693000062],[100.43843772400004,14.875819565000029],[100.43968238200006,14.879761912000049],[100.43702703300005,14.879672312000025],[100.43532621600008,14.882673917000034],[100.43028595400006,14.880474540000023],[100.42695310200008,14.885551188000022],[100.42866828100006,14.889273698000068],[100.42453674600006,14.898431856000059],[100.42420599400003,14.903428903000076],[100.42212673400007,14.903635073000032],[100.42283466600009,14.908328342000061],[100.42272122600008,14.920338084000036],[100.41996838300008,14.927068397000028],[100.42128379900004,14.92997256700005],[100.43454491000006,14.935778559000028],[100.44558245500008,14.939840889000038],[100.44917075400008,14.942712291000078],[100.45127500000007,14.957617675000051],[100.45047274800004,14.973505469000031],[100.45172511100009,14.973747564000064],[100.45042776700006,14.982915157000036],[100.44425064900008,14.995979839000029],[100.44729843900006,14.996797488000027],[100.44688555300007,15.003178427000023],[100.43825656200005,15.000005826000063],[100.43032284000009,14.995266291000064],[100.42546097200005,14.99474619800003],[100.42173834600004,14.996577843000068],[100.41320704900005,14.987226356000065],[100.40700155200005,14.981875643000024],[100.40565184200005,14.978979518000074],[100.40909266300008,14.969861542000046],[100.41157231700004,14.966297093000037],[100.40345969700007,14.964146867000068],[100.39828688300008,14.961377776000063],[100.39429710400003,14.957919143000026],[100.38822588300008,14.956700154000032],[100.37598662000005,14.956160208000028],[100.36573684100006,14.951527095000074],[100.36743171600006,14.943493129000046],[100.35590044500003,14.940925078000078],[100.34903251500003,14.937151595000046],[100.34766079100007,14.938752192000038],[100.34157055100007,14.937216233000072],[100.34367074600004,14.931581902000062],[100.34644700400008,14.927489603000026],[100.34730471800003,14.923446581000064],[100.34159584800005,14.92202317300007],[100.34018838100008,14.920206765000046],[100.34127689600007,14.916465654000035],[100.33591904300005,14.913977699000043],[100.33614171600004,14.911218500000075],[100.34167760400004,14.90908439900005],[100.34128275800003,14.905752920000054],[100.34316901000005,14.901815947000046],[100.34061536600007,14.899052093000023],[100.34806846500004,14.895197049000046],[100.35087049800006,14.886665378000032],[100.35052518900005,14.881430893000072],[100.35917580800003,14.879863613000055],[100.36040003600004,14.876288579000061],[100.36503249200007,14.87722894600006],[100.36743094300004,14.87112860600007],[100.37610181800005,14.872113737000063],[100.38061870100006,14.870000592000054],[100.38219972900004,14.870911240000055],[100.38641737600005,14.86746431000006],[100.38688749800008,14.864929496000059],[100.37880660900004,14.856130328000063],[100.37771235600007,14.850101536000068],[100.38943736400006,14.845910926000045],[100.38952257600005,14.83615072300006],[100.39305713400006,14.816935558000068],[100.39732349100007,14.812784564000026],[100.39902889800004,14.815220625000052],[100.40423966700007,14.809074274000068],[100.40839723500005,14.810212152000076],[100.40761876800008,14.819407789000024],[100.41204817300007,14.822467209000024],[100.41320655300007,14.829860377000045],[100.41852076500004,14.828080374000024],[100.42249971200005,14.834000304000028],[100.41878114700006,14.835993203000044],[100.42303174000006,14.84271741200007],[100.42983141700006,14.848222723000049],[100.43076922800009,14.850547207000034],[100.44119792700008,14.850578602000041],[100.44407465900008,14.848671909000075],[100.45414757800006,14.855929942000046],[100.45431854700007,14.857026374000043]]]},"properties":{"Shape_Leng":0.680078746216,"Shape_Area":0.0110515880624,"ADM2_EN":"Mueang Sing Buri","ADM2_TH":"เมืองสิงห์บุรี","ADM2_PCODE":"TH1701","ADM1_EN":"Sing Buri","ADM1_TH":"สิงห์บุรี","ADM1_PCODE":"TH17","ADM0_EN":"Thailand","ADM0_TH":"ประเทศไทย","ADM0_PCODE":"TH"}},
{"type":"Feature","geometry":{"type":"Polygon","coordinates":[[[100.34157055100007,14.937216233000072],[100.34060076600008,14.940850502000046],[100.33622642400007,14.939466161000041],[100.33216098700007,14.946084562000067],[100.32751482100008,14.94519142200005],[100.32730611000005,14.950144825000052],[100.31951472300005,14.956008441000051],[100.30639130100008,14.95556939200003],[100.30532592300005,14.953024984000024],[100.30128227500006,14.951544721000062],[100.30104032900005,14.953332125000031],[100.29430713800008,14.954065194000066],[100.28845836900007,14.956346628000063],[100.28299092700007,14.95467712900006],[100.27485973100005,14.950477668000076],[100.26320009600005,14.949859738000043],[100.26327940700008,14.947447045000047],[100.25903484800006,14.943857930000036],[100.25636942200003,14.945089989000053],[100.25064742600006,14.944997109000042],[100.24437868700005,14.946131623000042],[100.23846540300008,14.949573796000038],[100.23684210300007,14.951957339000046],[100.21529036600003,14.953583285000036],[100.20269512300007,14.953456120000055],[100.20140011500007,14.947328600000048],[100.19823863300007,14.93997534500005],[100.19358963700006,14.93745313200003],[100.18929230600008,14.937762604000056],[100.18238138500004,14.93490296300007],[100.18310720300008,14.923349396000049],[100.18633523100004,14.919313634000048],[100.18690015500005,14.907694073000073],[100.19455255200006,14.903947063000032],[100.21250351300006,14.908633036000026],[100.21576716300007,14.910324966000076],[100.22223697900006,14.907628056000021],[100.22420346300004,14.903491920000022],[100.21756812900009,14.90089516200004],[100.21578481500006,14.898318578000044],[100.20758978600009,14.89712354900007],[100.20626229000004,14.895300322000026],[100.20759445000004,14.887567863000072],[100.20935309800007,14.884730713000067],[100.21315120800006,14.883594364000032],[100.21868179900008,14.886031667000054],[100.22442314200003,14.883922364000057],[100.22344076600007,14.879655224000032],[100.21706447800005,14.87424207600003],[100.21616678000004,14.871663847000036],[100.22054614300004,14.867519999000024],[100.22142227000006,14.863916472000028],[100.21772171300006,14.858631552000077],[100.21837545100004,14.852882327000032],[100.21667577300008,14.848507207000068],[100.21879576800006,14.84441342100007],[100.21542735900005,14.839860029000022],[100.21818127900008,14.839230933000067],[100.22195057700009,14.84324904600004],[100.22341260300004,14.841755987000056],[100.23934205400008,14.84409637500005],[100.24003341100007,14.838628313000072],[100.24920034600007,14.840083497000023],[100.25321416800006,14.841708949000065],[100.25434018600004,14.846524005000049],[100.24825132400008,14.854250265000076],[100.24851605700007,14.85750226600004],[100.25165951700006,14.859673773000054],[100.25307010700004,14.86743894600005],[100.26254484000003,14.869130403000042],[100.26779680200008,14.85627501700003],[100.27474900400006,14.847148698000069],[100.27231654800005,14.839480641000023],[100.27184270900005,14.829757760000064],[100.27056833200004,14.826850836000062],[100.28758104800005,14.825623476000032],[100.29401793900007,14.826412882000056],[100.30089932500005,14.831478416000039],[100.30500514700003,14.82853714600003],[100.30948060400004,14.829816452000046],[100.31598639500004,14.835641790000068],[100.32180868500006,14.844631631000027],[100.32102314700006,14.84918716900006],[100.35300085600005,14.848918464000064],[100.35816167300004,14.852790972000037],[100.36099755700008,14.861237519000042],[100.36611933200004,14.862779438000075],[100.36952473800005,14.867259428000068],[100.36743094300004,14.87112860600007],[100.36503249200007,14.87722894600006],[100.36040003600004,14.876288579000061],[100.35917580800003,14.879863613000055],[100.35052518900005,14.881430893000072],[100.35087049800006,14.886665378000032],[100.34806846500004,14.895197049000046],[100.34061536600007,14.899052093000023],[100.34316901000005,14.901815947000046],[100.34128275800003,14.905752920000054],[100.34167760400004,14.90908439900005],[100.33614171600004,14.911218500000075],[100.33591904300005,14.913977699000043],[100.34127689600007,14.916465654000035],[100.34018838100008,14.920206765000046],[100.34159584800005,14.92202317300007],[100.34730471800003,14.923446581000064],[100.34644700400008,14.927489603000026],[100.34367074600004,14.931581902000062],[100.34157055100007,14.937216233000072]]]},"properties":{"Shape_Leng":0.761139751687,"Shape_Area":0.0156415101206,"ADM2_EN":"Bang Rachan","ADM2_TH":"บางระจัน","ADM2_PCODE":"TH1702","ADM1_EN":"Sing Buri","ADM1_TH":"สิงห์บุรี","ADM1_PCODE":"TH17","ADM0_EN":"Thailand","ADM0_TH":"ประเทศไทย","ADM0_PCODE":"TH"}},
{"type":"Feature","geometry":{"type":"Polygon","coordinates":[[[100.36743094300004,14.87112860600007],[100.36952473800005,14.867259428000068],[100.36611933200004,14.862779438000075],[100.36099755700008,14.861237519000042],[100.35816167300004,14.852790972000037],[100.35300085600005,14.848918464000064],[100.32102314700006,14.84918716900006],[100.32180868500006,14.844631631000027],[100.31598639500004,14.835641790000068],[100.30948060400004,14.829816452000046],[100.30500514700003,14.82853714600003],[100.30089932500005,14.831478416000039],[100.29401793900007,14.826412882000056],[100.28758104800005,14.825623476000032],[100.27056833200004,14.826850836000062],[100.27184270900005,14.829757760000064],[100.27231654800005,14.839480641000023],[100.27474900400006,14.847148698000069],[100.26779680200008,14.85627501700003],[100.26254484000003,14.869130403000042],[100.25307010700004,14.86743894600005],[100.25165951700006,14.859673773000054],[100.24851605700007,14.85750226600004],[100.24825132400008,14.854250265000076],[100.25434018600004,14.846524005000049],[100.25321416800006,14.841708949000065],[100.24920034600007,14.840083497000023],[100.24003341100007,14.838628313000072],[100.23934205400008,14.84409637500005],[100.22341260300004,14.841755987000056],[100.22195057700009,14.84324904600004],[100.21818127900008,14.839230933000067],[100.21542735900005,14.839860029000022],[100.20993010700005,14.834517154000025],[100.20879143800005,14.828617597000061],[100.20924042000007,14.822084097000072],[100.20428657300005,14.809608318000073],[100.20562730800003,14.80820783400003],[100.21426869600003,14.806986659000074],[100.21650429100004,14.798441572000058],[100.21909726100006,14.796903563000058],[100.22499965500003,14.797720682000033],[100.22643316800009,14.795045493000032],[100.24239322700004,14.798220787000048],[100.24644992000003,14.800515809000046],[100.25489875700003,14.795564156000069],[100.25876908200007,14.796426128000064],[100.26631707200005,14.795721137000044],[100.27247882900008,14.799474363000058],[100.27797744200006,14.790201509000042],[100.29036407900008,14.78505984700007],[100.29539402800003,14.780793662000065],[100.29745089900007,14.788527475000024],[100.29977672200005,14.790021409000076],[100.30398665300004,14.788170066000077],[100.31431288100003,14.789824270000054],[100.31332855900007,14.793744954000033],[100.30945811600009,14.795987019000052],[100.31172520400008,14.798095997000075],[100.31600526700004,14.798250411000026],[100.32526795100006,14.80062003200004],[100.32868386800004,14.802413781000041],[100.33153141900004,14.800785090000034],[100.33379707100005,14.796288164000032],[100.33658036100007,14.794424484000047],[100.33564187400003,14.790364409000063],[100.33974436300008,14.788924442000052],[100.34343143000007,14.784689208000032],[100.34317266700003,14.782019976000072],[100.34886868900008,14.77950241800005],[100.36084227100008,14.786244779000072],[100.36714071200004,14.790858882000066],[100.37664105400006,14.801204575000042],[100.37201523100003,14.805715058000033],[100.37708499700005,14.806938767000076],[100.38416510300004,14.812094154000022],[100.39305713400006,14.816935558000068],[100.38952257600005,14.83615072300006],[100.38943736400006,14.845910926000045],[100.37771235600007,14.850101536000068],[100.37880660900004,14.856130328000063],[100.38688749800008,14.864929496000059],[100.38641737600005,14.86746431000006],[100.38219972900004,14.870911240000055],[100.38061870100006,14.870000592000054],[100.37610181800005,14.872113737000063],[100.36743094300004,14.87112860600007]]]},"properties":{"Shape_Leng":0.662297575105,"Shape_Area":0.00926473703089,"ADM2_EN":"Khai Bang Rachan","ADM2_TH":"ค่ายบางระจัน","ADM2_PCODE":"TH1703","ADM1_EN":"Sing Buri","ADM1_TH":"สิงห์บุรี","ADM1_PCODE":"TH17","ADM0_EN":"Thailand","ADM0_TH":"ประเทศไทย","ADM0_PCODE":"TH"}},
{"type":"Feature","geometry":{"type":"Polygon","coordinates":[[[100.40839723500005,14.810212152000076],[100.40901316300005,14.802949599000044],[100.41585027400004,14.803581631000043],[100.41565209900006,14.79871395300006],[100.41167908700004,14.798284778000038],[100.41022629200006,14.792671237000036],[100.42090453900005,14.789752571000065],[100.42196971000004,14.782850834000044],[100.42447395500005,14.779636783000058],[100.42204794800006,14.778406206000056],[100.42250234600004,14.773096099000043],[100.42111076000003,14.772989192000068],[100.42069913800003,14.767358338000065],[100.42337728400008,14.764868122000053],[100.42184604900007,14.761725505000072],[100.42197345800008,14.750281434000044],[100.41475125800008,14.747663002000024],[100.41663898700006,14.74233804000005],[100.41325277700008,14.737746628000025],[100.41607305300005,14.734566663000066],[100.41490276800005,14.727578633000064],[100.41653386200005,14.725491624000028],[100.42274085100007,14.728584154000032],[100.43759179700004,14.727790931000072],[100.43782679000009,14.725730261000024],[100.44216866700003,14.725730878000036],[100.44497137700006,14.724069866000036],[100.44860039600007,14.724588636000021],[100.45073976300006,14.72110204300003],[100.45794010500003,14.721096421000027],[100.46375687100004,14.725893316000054],[100.46860520300004,14.723724188000062],[100.46929308500006,14.72165321400007],[100.47403546800007,14.722229933000051],[100.47534247900006,14.723947488000022],[100.47348345100005,14.730884635000052],[100.47755270300007,14.733168628000044],[100.47673920300008,14.736237279000022],[100.47839252900008,14.738787826000078],[100.48468555100004,14.739415832000077],[100.48308320600006,14.744110499000044],[100.48809338800004,14.74813398300006],[100.48672941600006,14.753051200000073],[100.48428107200004,14.756560945000047],[100.47246055500005,14.761680988000023],[100.47431132100007,14.764776076000032],[100.47793878100003,14.765118552000047],[100.47220738800007,14.770810365000045],[100.47563433000005,14.771900840000058],[100.47334330600006,14.775644613000054],[100.47387609300006,14.781110181000031],[100.46947960900008,14.787873180000076],[100.47214495600008,14.790228962000072],[100.47192717700005,14.793606185000044],[100.46821928600008,14.798215829000071],[100.47301401100003,14.800688796000031],[100.48262596100005,14.81130984400005],[100.47795034600006,14.813040512000043],[100.46925615800006,14.818522359000042],[100.46421327800005,14.820561605000023],[100.46560422400006,14.828586722000068],[100.46100906000004,14.83041359300006],[100.46070347600005,14.832156731000055],[100.45637472400006,14.832792177000044],[100.45474832500008,14.835838274000025],[100.45734655400008,14.841627499000026],[100.45972745300008,14.843511067000065],[100.45825971700003,14.845930341000042],[100.45941768400007,14.851420487000041],[100.45898043400007,14.855367085000069],[100.45431854700007,14.857026374000043],[100.45414757800006,14.855929942000046],[100.44407465900008,14.848671909000075],[100.44119792700008,14.850578602000041],[100.43076922800009,14.850547207000034],[100.42983141700006,14.848222723000049],[100.42303174000006,14.84271741200007],[100.41878114700006,14.835993203000044],[100.42249971200005,14.834000304000028],[100.41852076500004,14.828080374000024],[100.41320655300007,14.829860377000045],[100.41204817300007,14.822467209000024],[100.40761876800008,14.819407789000024],[100.40839723500005,14.810212152000076]]]},"properties":{"Shape_Leng":0.500311069905,"Shape_Area":0.0069615399299,"ADM2_EN":"Phrom Buri","ADM2_TH":"พรหมบุรี","ADM2_PCODE":"TH1704","ADM1_EN":"Sing Buri","ADM1_TH":"สิงห์บุรี","ADM1_PCODE":"TH17","ADM0_EN":"Thailand","ADM0_TH":"ประเทศไทย","ADM0_PCODE":"TH"}},
{"type":"Feature","geometry":{"type":"Polygon","coordinates":[[[100.39305713400006,14.816935558000068],[100.38416510300004,14.812094154000022],[100.37708499700005,14.806938767000076],[100.37201523100003,14.805715058000033],[100.37664105400006,14.801204575000042],[100.36714071200004,14.790858882000066],[100.36084227100008,14.786244779000072],[100.34886868900008,14.77950241800005],[100.34977951000008,14.775739608000038],[100.34830819500007,14.77226201700006],[100.35223970900006,14.768915617000062],[100.35595084400006,14.761521326000036],[100.36363934700006,14.762730826000052],[100.37144526500003,14.763057858000025],[100.37994018400008,14.746373841000036],[100.38078707600005,14.742903970000043],[100.38279134100009,14.744139953000058],[100.39268656100006,14.743820860000028],[100.39937900700005,14.75048782500005],[100.39965358900008,14.753911101000028],[100.40288109300008,14.759318689000054],[100.40810740300009,14.754777122000064],[100.41219871300007,14.752808775000062],[100.41475125800008,14.747663002000024],[100.42197345800008,14.750281434000044],[100.42184604900007,14.761725505000072],[100.42337728400008,14.764868122000053],[100.42069913800003,14.767358338000065],[100.42111076000003,14.772989192000068],[100.42250234600004,14.773096099000043],[100.42204794800006,14.778406206000056],[100.42447395500005,14.779636783000058],[100.42196971000004,14.782850834000044],[100.42090453900005,14.789752571000065],[100.41022629200006,14.792671237000036],[100.41167908700004,14.798284778000038],[100.41565209900006,14.79871395300006],[100.41585027400004,14.803581631000043],[100.40901316300005,14.802949599000044],[100.40839723500005,14.810212152000076],[100.40423966700007,14.809074274000068],[100.39902889800004,14.815220625000052],[100.39732349100007,14.812784564000026],[100.39305713400006,14.816935558000068]]]},"properties":{"Shape_Leng":0.303229417702,"Shape_Area":0.00337318219531,"ADM2_EN":"Tha Chang","ADM2_TH":"ท่าช้าง","ADM2_PCODE":"TH1705","ADM1_EN":"Sing Buri","ADM1_TH":"สิงห์บุรี","ADM1_PCODE":"TH17","ADM0_EN":"Thailand","ADM0_TH":"ประเทศไทย","ADM0_PCODE":"TH"}},
{"type":"Feature","geometry":{"type":"Polygon","coordinates":[[[100.44688555300007,15.003178427000023],[100.45135881600004,15.003904113000033],[100.46124363400008,15.002565685000036],[100.46912141200005,15.023582404000024],[100.46932911400006,15.028281726000046],[100.46744957400006,15.032090783000058],[100.44671152400008,15.055237117000047],[100.42748741400004,15.061086905000025],[100.42575994600008,15.052902222000057],[100.42443028700006,15.051634568000054],[100.41344394800007,15.059068080000031],[100.37490801000007,15.086660777000077],[100.36548812900008,15.090948688000026],[100.35464397900006,15.096715006000068],[100.35314538600005,15.101620830000059],[100.35598325200004,15.117641872000036],[100.35464828700003,15.12050380200003],[100.34831440100004,15.116222593000032],[100.33577961300006,15.105321052000022],[100.31457774200004,15.089313747000062],[100.30551856500006,15.08603081800004],[100.29934384900008,15.086001888000055],[100.29309157600005,15.081269199000076],[100.29117182100003,15.076797831000022],[100.29462759500007,15.069934149000062],[100.29357123700004,15.064535337000052],[100.28846569100006,15.065885584000057],[100.27983224800005,15.063859939000054],[100.27763830600009,15.066152395000074],[100.26187756200005,15.059040025000058],[100.25958723600007,15.058910965000052],[100.26074354800005,15.054052100000035],[100.25952104100008,15.04993291900007],[100.25654278700006,15.04928106400007],[100.25543961800008,15.04628748600004],[100.24786161100008,15.040164958000048],[100.24078880900004,15.038723615000038],[100.21874294500009,15.044283996000047],[100.21971632000003,15.038767633000077],[100.22225527700004,15.038703965000025],[100.22327914900006,15.03321373500006],[100.22126568800007,15.03270369300003],[100.22559728600004,15.027102812000066],[100.22394397200009,15.024909168000022],[100.23018627600004,15.024942604000046],[100.23517334600007,15.023737212000071],[100.23735358000005,15.020961581000051],[100.24032675400008,15.02217420200003],[100.24046356300005,15.024652350000054],[100.24519520300004,15.02354223900005],[100.24594626400005,15.021033723000073],[100.24268862400004,15.019048874000077],[100.24350154500007,15.017398924000076],[100.25120831300006,15.017935027000021],[100.24990945900004,15.012819679000074],[100.25617640800004,15.007493382000064],[100.26154972500007,15.011067291000074],[100.26519130600008,15.011683152000046],[100.26851120600008,15.009650028000067],[100.27152030700006,14.999671288000059],[100.27541935300007,14.995840638000061],[100.27502095300008,14.992701383000053],[100.28078382700005,14.991473404000033],[100.28315681200007,14.993471343000067],[100.28618807900006,14.992899654000041],[100.28567143200007,14.988080007000065],[100.28868167500008,14.983052587000032],[100.28851906300008,14.979504299000041],[100.29118008800003,14.976667666000026],[100.28720328800006,14.975040858000057],[100.28713379900006,14.969253366000032],[100.28845836900007,14.956346628000063],[100.29430713800008,14.954065194000066],[100.30104032900005,14.953332125000031],[100.30128227500006,14.951544721000062],[100.30532592300005,14.953024984000024],[100.30639130100008,14.95556939200003],[100.31951472300005,14.956008441000051],[100.32730611000005,14.950144825000052],[100.32751482100008,14.94519142200005],[100.33216098700007,14.946084562000067],[100.33622642400007,14.939466161000041],[100.34060076600008,14.940850502000046],[100.34157055100007,14.937216233000072],[100.34766079100007,14.938752192000038],[100.34903251500003,14.937151595000046],[100.35590044500003,14.940925078000078],[100.36743171600006,14.943493129000046],[100.36573684100006,14.951527095000074],[100.37598662000005,14.956160208000028],[100.38822588300008,14.956700154000032],[100.39429710400003,14.957919143000026],[100.39828688300008,14.961377776000063],[100.40345969700007,14.964146867000068],[100.41157231700004,14.966297093000037],[100.40909266300008,14.969861542000046],[100.40565184200005,14.978979518000074],[100.40700155200005,14.981875643000024],[100.41320704900005,14.987226356000065],[100.42173834600004,14.996577843000068],[100.42546097200005,14.99474619800003],[100.43032284000009,14.995266291000064],[100.43825656200005,15.000005826000063],[100.44688555300007,15.003178427000023]]]},"properties":{"Shape_Leng":0.825571613404,"Shape_Area":0.0224339925032,"ADM2_EN":"In Buri","ADM2_TH":"อินทร์บุรี","ADM2_PCODE":"TH1706","ADM1_EN":"Sing Buri","ADM1_TH":"สิงห์บุรี","ADM1_PCODE":"TH17","ADM0_EN":"Thailand","ADM0_TH":"ประเทศไทย","ADM0_PCODE":"TH"}}
]}