{"type":"FeatureCollection", "features": [
{"type":"Feature","geometry":{"type":"Polygon","coordinates":[[[99.81111686800006,7.648636847000034],[99.81010559600008,7.657411726000021],[99.80188442600007,7.665118461000077],[99.80027276800007,7.671491718000027],[99.79577661000008,7.669300101000033],[99.79121892800003,7.671396833000074],[99.78637191700005,7.6723138330000324],[99.78385281600004,7.671495021000055],[99.78253585800007,7.673363518000031],[99.77752517000005,7.671094610000068],[99.77268770900008,7.672289861000024],[99.77305701100005,7.674138042000038],[99.76302655700005,7.682452366000064],[99.75839272900004,7.684807904000024],[99.75449351500004,7.684714138000061],[99.75447167300007,7.686958541000024],[99.75186557900008,7.685716747000072],[99.74595572700008,7.6923772220000615],[99.74739044800003,7.696994476000043],[99.74104489000007,7.699395124000034],[99.74132144000004,7.700612892000038],[99.73770457800003,7.704444827000032],[99.73827161300005,7.7064160290000245],[99.73561190900006,7.709600323000075],[99.73656597300004,7.711389810000071],[99.73555812400008,7.714870169000051],[99.73250761200006,7.717507363000038],[99.72835093700007,7.718491939000046],[99.72086243700005,7.712517513000023],[99.71947762300005,7.7090939960000355],[99.71965551000005,7.704831198000022],[99.71605016400008,7.70534119000007],[99.71060403700005,7.7001148640000565],[99.70692707900008,7.699885454000025],[99.70304281900007,7.698002376000034],[99.70248591600006,7.696096412000031],[99.69830228700005,7.699971018000042],[99.69541308400005,7.698764295000046],[99.69693876300005,7.695740066000042],[99.69630941400004,7.69157393100005],[99.69266420200006,7.687317719000021],[99.68633127500004,7.684863310000026],[99.68420225200003,7.687724898000056],[99.67737113600003,7.685100641000076],[99.67446778000004,7.6880148090000375],[99.66818039300006,7.681622290000064],[99.66387346900007,7.682690403000038],[99.66248902200005,7.685521420000043],[99.65802987300003,7.685518760000036],[99.64939616900006,7.687656390000029],[99.64869687700008,7.691631680000057],[99.65006827800005,7.692590911000025],[99.64452720300005,7.696140023000055],[99.64426253900007,7.693108755000026],[99.63681407400009,7.692202920000057],[99.63399983400006,7.69281931200004],[99.63339068400006,7.695630187000063],[99.62833449600004,7.694569943000033],[99.62307902400005,7.695609870000055],[99.62176140300005,7.697913525000047],[99.61793826500008,7.6977350980000665],[99.61402902400005,7.699028794000071],[99.60952595300006,7.697480208000059],[99.60883639000008,7.694191904000036],[99.61006789100009,7.690951011000038],[99.60672159400008,7.689385169000047],[99.60374543500006,7.685479577000024],[99.59664944400004,7.686000725000042],[99.59405302600004,7.683512842000027],[99.59233937900007,7.677902364000033],[99.58580488800004,7.676054064000027],[99.58393708000006,7.674550669000041],[99.57577295600004,7.675839138000072],[99.57134790700007,7.671271367000031],[99.56629506800004,7.668704468000044],[99.56144623900008,7.677238985000031],[99.55751775500005,7.679845325000031],[99.55563856100008,7.676888273000031],[99.55486834700008,7.679406656000026],[99.54898494200006,7.679373439000074],[99.54724670200005,7.6785164390000205],[99.54651756400006,7.674003286000072],[99.54841600800006,7.671545447000028],[99.54534959900008,7.668539027000065],[99.54441678400008,7.671236024000052],[99.54148977200003,7.670654386000024],[99.54233548200006,7.667400680000071],[99.53851917500003,7.667021583000064],[99.53973849800008,7.662939678000043],[99.53867894700005,7.659745830000077],[99.54189028000008,7.662269454000068],[99.54125277700007,7.658796465000023],[99.54258666600003,7.656466612000031],[99.54141507100007,7.652808700000037],[99.53898763300003,7.650655017000076],[99.53983905700005,7.647950906000062],[99.53374000100007,7.647504028000071],[99.53180145500005,7.653044005000027],[99.53028575600007,7.651014695000072],[99.52806070100007,7.652806373000033],[99.53071090200007,7.655705435000073],[99.52810632800004,7.656036942000071],[99.52777172200007,7.6581834690000505],[99.52486472200007,7.6594968690000655],[99.52278014900008,7.6584424430000695],[99.52335620100007,7.655836529000055],[99.51668759600005,7.655889200000047],[99.51544392200003,7.653363974000058],[99.50888754700009,7.650055896000026],[99.50591163000007,7.645355614000039],[99.50450976900004,7.630487339000069],[99.50275022700004,7.629151509000053],[99.50131811300008,7.621984606000069],[99.49530394900006,7.619877638000048],[99.48662361400005,7.620949888000041],[99.47744580400007,7.61843921600007],[99.46714017800008,7.621625434000066],[99.46607673100004,7.6204108170000495],[99.46278812200006,7.608825802000069],[99.46478247700009,7.605804254000077],[99.47118341500004,7.601024052000071],[99.47891990600004,7.598286031000043],[99.48185635700008,7.5934683330000325],[99.48463375300008,7.593014249000021],[99.48420429700008,7.59045764800004],[99.48955089100008,7.586787908000076],[99.49375721600006,7.5864601680000305],[99.49421126900006,7.580148731000065],[99.49879527600007,7.573550228000045],[99.49692301600004,7.566330661000052],[99.49226319900004,7.562935217000074],[99.49275996600005,7.5546766310000635],[99.49475923800009,7.55390032300005],[99.49995894600005,7.554402238000023],[99.50291127900005,7.551504128000033],[99.50663035000008,7.550297856000043],[99.51187044100004,7.544732454000041],[99.51536384600007,7.543713439000044],[99.51652921600004,7.5451552430000675],[99.51944552400005,7.540661324000041],[99.52729305900004,7.535202299000048],[99.52716901900004,7.529546001000028],[99.52515480400007,7.524751267000056],[99.52689014900005,7.52433390300007],[99.53270113900004,7.527272878000076],[99.53662567200007,7.525390900000048],[99.53802201900004,7.527726955000048],[99.54152868900007,7.52788815100007],[99.54355536900005,7.526219171000037],[99.54558950500007,7.528960341000072],[99.54897669700006,7.530281395000031],[99.55107085300006,7.526391368000077],[99.55275862300005,7.526363589000027],[99.55206868300007,7.53366743600003],[99.55479196400006,7.535036011000045],[99.55684063100006,7.538293497000041],[99.56177374700007,7.538013762000048],[99.56133490800005,7.541455263000046],[99.56477735400006,7.543084123000028],[99.56883446100005,7.5401215120000415],[99.57273553800007,7.534145717000058],[99.57586855000005,7.52461925700004],[99.57903403000006,7.523045516000025],[99.58282788000008,7.519534417000045],[99.58293267100004,7.516272908000076],[99.58691128600003,7.508872145000055],[99.59437376800008,7.503037271000039],[99.59751993500004,7.503575565000062],[99.60266964900006,7.500683472000048],[99.60517796200008,7.49823901000002],[99.60516736600005,7.492113052000036],[99.60812378500003,7.486446071000046],[99.61090064000007,7.473630152000055],[99.60990217100004,7.471982771000057],[99.61272715200005,7.4656501930000445],[99.61531974000007,7.471538155000076],[99.62020971400005,7.4758999960000665],[99.61961276700004,7.478784759000064],[99.62171681200005,7.480793400000039],[99.62085070600006,7.4831386520000365],[99.62572251600005,7.486492489000057],[99.62835640600008,7.486901846000023],[99.62909180600008,7.490076879000071],[99.63232836300006,7.496403183000041],[99.63478940500005,7.497785359000034],[99.63918441400006,7.503060214000072],[99.64306322000004,7.504960843000049],[99.64456597800006,7.51021242500002],[99.65032900500006,7.514209620000031],[99.65183300900009,7.516784573000052],[99.65773569700008,7.519688640000027],[99.66207603600009,7.51898525200005],[99.66652101200003,7.5165103090000684],[99.66757484800007,7.5178951000000325],[99.66725009000004,7.519549760000075],[99.66973234300008,7.523540780000076],[99.67021342200007,7.526722089000032],[99.67295848500004,7.529448663000039],[99.68031646800006,7.532389192000039],[99.68030756700006,7.537212865000072],[99.68159254400007,7.537356678000037],[99.68011996100006,7.544362750000062],[99.67866863700004,7.544978137000044],[99.67956471800005,7.550932953000029],[99.69165299700006,7.550848755000061],[99.69158357300006,7.55357880400004],[99.68733728100005,7.558522433000064],[99.68631951400005,7.561375334000047],[99.68736168000004,7.563643305000028],[99.68485854700003,7.568721482000058],[99.68497681600007,7.571747540000047],[99.68199354900008,7.573412211000061],[99.67871347400006,7.577661755000065],[99.67920745700008,7.580142914000021],[99.67559729300007,7.580877610000073],[99.67079516000007,7.579463199000031],[99.66688494800007,7.580904963000023],[99.66520111600005,7.584746713000072],[99.66714689200006,7.588153632000058],[99.67035975700009,7.590472126000066],[99.67243223600008,7.59758355200006],[99.67530070800007,7.602386591000027],[99.67552567800004,7.610158702000035],[99.67358169700003,7.610872794000045],[99.67272433100004,7.614533981000022],[99.67452531400005,7.616769678000026],[99.67398259600009,7.622162273000072],[99.67457906000004,7.6261567290000585],[99.67934010700009,7.629676302000064],[99.68481863200009,7.630422982000027],[99.68897373300007,7.634132800000032],[99.69542720200008,7.635894824000047],[99.70260755900006,7.638635812000075],[99.71024535200007,7.639882804000024],[99.72136235300007,7.633241934000068],[99.72535918700004,7.632531374000052],[99.72579543600006,7.629432653000038],[99.72782958100004,7.628904236000039],[99.72897695800003,7.624360355000022],[99.73310709100008,7.622722693000071],[99.73602556600008,7.622783842000047],[99.73993175700008,7.620929453000031],[99.74104759600004,7.625127733000056],[99.73953734900005,7.630034740000042],[99.74344494900004,7.631540107000035],[99.74709736800008,7.635893775000056],[99.74795247600008,7.6389732940000385],[99.75362057700005,7.64101067200005],[99.75912886000003,7.637296033000041],[99.77283260700005,7.636637035000035],[99.77422139900006,7.640537079000069],[99.77946229200006,7.640674301000047],[99.78770864400008,7.644569083000022],[99.79475365900004,7.645744997000065],[99.80345319200006,7.645613790000027],[99.80892406200007,7.644788234000032],[99.80889351200005,7.647659266000062],[99.81111686800006,7.648636847000034]]]},"properties":{"Shape_Leng":1.48138027812,"Shape_Area":0.0360475049265,"ADM2_EN":"Mueang Trang","ADM2_TH":"เมืองตรัง","ADM2_PCODE":"TH9201","ADM1_EN":"Trang","ADM1_TH":"ตรัง","ADM1_PCODE":"TH92","ADM0_EN":"Thailand","ADM0_TH":"ประเทศไทย","ADM0_PCODE":"TH"}},
{"type":"Feature","geometry":{"type":"MultiPolygon","coordinates":[[[[99.51944552400005,7.540661324000041],[99.51323940900005,7.53920236700003],[99.50935370800005,7.541538286000048],[99.50944014700008,7.540190950000067],[99.50300860400006,7.536899815000027],[99.49955803300008,7.532012602000066],[99.49655586200004,7.532772130000069],[99.49450167700007,7.529618059000029],[99.49372693700008,7.525788584000054],[99.48949029400006,7.523380176000046],[99.48604483300005,7.525016998000069],[99.48307531300009,7.523168913000063],[99.47952851600007,7.52273827700003],[99.47723151600007,7.524440378000065],[99.47241849800008,7.524415551000061],[99.47028247000009,7.526380571000061],[99.46386657000005,7.528262858000062],[99.46275925900005,7.531020197000032],[99.45688669000003,7.531503822000047],[99.45323235300003,7.536443825000049],[99.44925064300008,7.533796994000056],[99.44870416600008,7.53033845300007],[99.44579966500004,7.522954886000036],[99.45034335600008,7.514488032000031],[99.44847799200005,7.512870440000029],[99.45107894800003,7.509813672000064],[99.45122578300004,7.503578572000038],[99.44766852100008,7.502238424000041],[99.44425691200007,7.504248104000055],[99.43657582000009,7.5009387570000285],[99.43220153100003,7.500840914000037],[99.43200971900006,7.498264142000039],[99.42928383600008,7.496259176000024],[99.43036295400003,7.491712074000077],[99.43015206200005,7.487260043000049],[99.42740603400006,7.47977701700006],[99.41845714400006,7.4830826930000285],[99.41474730900006,7.482213213000023],[99.41022312400008,7.48357134500003],[99.40825810800004,7.473312537000027],[99.40369554200004,7.469717937000041],[99.40116157700004,7.46986191700006],[99.39606102900007,7.473321697000074],[99.38949338600008,7.474298936000025],[99.38928494600003,7.469023182000058],[99.38518414700007,7.460491193000053],[99.38550433600005,7.454693691000045],[99.38279373000006,7.450986774000057],[99.38167317100005,7.444120645000055],[99.37786726600007,7.445193169000049],[99.37542718500004,7.442328263000036],[99.37464318300005,7.438352932000043],[99.37121225400006,7.434335928000053],[99.37165561400008,7.430044487000032],[99.37356378300007,7.42756741900007],[99.36424192400005,7.42060863100005],[99.36411425900008,7.416458618000036],[99.36091237100004,7.4156990930000575],[99.35980860800004,7.41347666300004],[99.35730209500008,7.415147312000045],[99.35622245700006,7.411546112000053],[99.35206117900003,7.41056814600006],[99.35219850600004,7.4087626860000455],[99.35555544800008,7.404646723000042],[99.35187634700009,7.400171940000064],[99.34873902500004,7.4014902040000266],[99.34682705300008,7.399651156000061],[99.33806337900006,7.383696083000075],[99.33892531500004,7.377856224000027],[99.34952567300007,7.369100923000076],[99.35769225200005,7.3610940420000475],[99.36332253700004,7.358762970000043],[99.36063137300005,7.3541602980000675],[99.36055132400008,7.351852420000057],[99.37055322100008,7.3391924480000625],[99.37341105100006,7.340889795000066],[99.37522018800007,7.339990792000037],[99.38785123400004,7.323537871000042],[99.39182433800005,7.316510023000035],[99.39503108800005,7.308976078000057],[99.39840228400004,7.3045460390000585],[99.40254550100008,7.306523919000028],[99.40196977100004,7.3105539390000445],[99.40357756900005,7.31723751100003],[99.41143189700006,7.3156138770000325],[99.41204005000009,7.312593206000031],[99.41670084900005,7.3076509830000305],[99.41949681700004,7.29899064500006],[99.42588962200006,7.300108532000024],[99.43018607300007,7.299829312000043],[99.43900716200005,7.2955439820000265],[99.44788740100006,7.293005373000028],[99.45033666700004,7.290249721000066],[99.45296371000006,7.290653747000022],[99.45818746200007,7.28754635100006],[99.46398019400004,7.287727665000034],[99.46964304600004,7.284112536000066],[99.47208825900003,7.284504868000056],[99.47829009500003,7.2900388580000595],[99.48430923000006,7.292724921000058],[99.48584347800005,7.29535822400004],[99.48545766100005,7.301890048000075],[99.48682514000006,7.304067291000024],[99.48655643500007,7.3083814160000315],[99.50824123700005,7.308048911000071],[99.50925059000008,7.3063836200000765],[99.51951154800008,7.2984734940000635],[99.52466345800008,7.296488275000058],[99.52712224500004,7.296802018000051],[99.53611305800007,7.295718648000047],[99.53708246200006,7.294002591000037],[99.53533181600005,7.287531280000053],[99.54685272900008,7.2895613380000555],[99.55243522500007,7.292608099000063],[99.55373282100004,7.295461455000066],[99.55444220700008,7.3026915110000346],[99.56634343100006,7.317794045000028],[99.56801660600007,7.321111064000036],[99.57379476700004,7.345438173000048],[99.57541946600008,7.350840488000074],[99.58071182200007,7.3615131300000485],[99.58340852100008,7.370848643000045],[99.59133027300004,7.384239962000038],[99.59486563500008,7.391675555000063],[99.60359021800008,7.401773189000039],[99.60888233600008,7.414519791000032],[99.61385536400007,7.4305171990000645],[99.61585395100008,7.435232262000056],[99.61202785600005,7.437992439000027],[99.61260035000004,7.442663377000031],[99.61589721100006,7.450177760000031],[99.61511159700007,7.453855631000067],[99.61332993000008,7.455739123000058],[99.61391366400005,7.462167875000034],[99.61272715200005,7.4656501930000445],[99.60990217100004,7.471982771000057],[99.61090064000007,7.473630152000055],[99.60812378500003,7.486446071000046],[99.60516736600005,7.492113052000036],[99.60517796200008,7.49823901000002],[99.60266964900006,7.500683472000048],[99.59751993500004,7.503575565000062],[99.59437376800008,7.503037271000039],[99.58691128600003,7.508872145000055],[99.58293267100004,7.516272908000076],[99.58282788000008,7.519534417000045],[99.57903403000006,7.523045516000025],[99.57586855000005,7.52461925700004],[99.57273553800007,7.534145717000058],[99.56883446100005,7.5401215120000415],[99.56477735400006,7.543084123000028],[99.56133490800005,7.541455263000046],[99.56177374700007,7.538013762000048],[99.55684063100006,7.538293497000041],[99.55479196400006,7.535036011000045],[99.55206868300007,7.53366743600003],[99.55275862300005,7.526363589000027],[99.55107085300006,7.526391368000077],[99.54897669700006,7.530281395000031],[99.54558950500007,7.528960341000072],[99.54355536900005,7.526219171000037],[99.54152868900007,7.52788815100007],[99.53802201900004,7.527726955000048],[99.53662567200007,7.525390900000048],[99.53270113900004,7.527272878000076],[99.52689014900005,7.52433390300007],[99.52515480400007,7.524751267000056],[99.52716901900004,7.529546001000028],[99.52729305900004,7.535202299000048],[99.51944552400005,7.540661324000041]]],[[[99.06503430800007,7.205181701000072],[99.06629233300004,7.211359777000041],[99.06524225500004,7.213466149000055],[99.05816291200006,7.216622311000037],[99.05506648200009,7.210563599000068],[99.05425136300005,7.205435622000039],[99.05249154600006,7.204923958000052],[99.05457549600004,7.197972062000076],[99.05691660100007,7.198739570000043],[99.05919410100006,7.19610508300002],[99.06290766300003,7.197178347000033],[99.06383168100007,7.203167267000026],[99.06503430800007,7.205181701000072]]],[[[99.08019357200004,7.22845803000007],[99.07762803500003,7.229422469000042],[99.07209653600006,7.228563608000059],[99.06889300800003,7.225978953000038],[99.06498060200005,7.221043395000038],[99.06060993100004,7.220011210000052],[99.06130649900007,7.217664812000066],[99.06530566300006,7.216131442000062],[99.06888758900004,7.217475436000029],[99.08110657300006,7.220010253000055],[99.08392685900009,7.223332979000077],[99.08321611500008,7.226225086000056],[99.08019357200004,7.22845803000007]]],[[[99.39786942600006,7.267319919000045],[99.39355743200008,7.2709942440000646],[99.38746772800005,7.277601574000073],[99.38743663500009,7.280286459000024],[99.38291703800007,7.280662378000045],[99.38262890500005,7.276117118000059],[99.37861597100004,7.272369895000054],[99.37595155400004,7.267627049000055],[99.37279577200007,7.267070517000036],[99.37171442800008,7.268525545000045],[99.36869785000005,7.267120864000049],[99.36737540700005,7.259729815000071],[99.37089928600005,7.2460885880000205],[99.37122761600006,7.24309951500004],[99.36503221800007,7.224799888000064],[99.36525411900004,7.222821289000024],[99.37129852300006,7.217787561000023],[99.37199404300009,7.213999642000033],[99.37465917700007,7.210398372000043],[99.38007738700009,7.207646270000055],[99.38417619500007,7.206523443000037],[99.38759252900007,7.207062743000051],[99.39139762400004,7.210716211000033],[99.39409565300008,7.210652832000051],[99.39370073700007,7.218635177000067],[99.39254005800007,7.219826768000075],[99.39270037200004,7.224458542000036],[99.39387821300005,7.226288579000027],[99.40119664600007,7.230907948000038],[99.40760093100005,7.237397627000064],[99.40958143900008,7.240571021000051],[99.41569436600008,7.242863559000057],[99.41686015600004,7.241094052000051],[99.42524689000004,7.246359895000069],[99.43519500500008,7.246626396000067],[99.43878885200007,7.248370456000032],[99.44720355100009,7.250017608000064],[99.45068795100008,7.255893484000069],[99.44735401200006,7.257266620000053],[99.43783551900003,7.258801794000021],[99.42961629200005,7.266979585000058],[99.42297560900005,7.266409750000037],[99.41840882600007,7.2645358500000725],[99.41083742800004,7.262677097000051],[99.40272391200006,7.262448068000026],[99.39762288500003,7.2643970370000375],[99.39786942600006,7.267319919000045]]],[[[99.40923367000005,7.311856864000049],[99.41018954700007,7.314779606000059],[99.40648977500007,7.313155645000052],[99.40923367000005,7.311856864000049]]],[[[99.24805501600008,7.333002504000035],[99.24650021600007,7.330718565000041],[99.24832219300004,7.325787896000065],[99.24828888000008,7.320110502000034],[99.25092253700006,7.314697671000033],[99.25229673700005,7.309300999000072],[99.25081204900005,7.306058852000035],[99.25179953900005,7.301546089000055],[99.25454794000007,7.298711369000046],[99.25562865600006,7.303341527000043],[99.25873269100003,7.3063696010000285],[99.25946813000007,7.309055853000075],[99.25307763800004,7.317893205000075],[99.25326638900003,7.319881997000039],[99.25082643600007,7.322819149000054],[99.24968011700008,7.330401421000033],[99.24805501600008,7.333002504000035]]],[[[99.24935300900006,7.377529776000074],[99.24823926900007,7.382002972000066],[99.24529062700003,7.3804182010000545],[99.24660294500006,7.377604812000072],[99.24935300900006,7.377529776000074]]],[[[99.29182953800006,7.390263255000036],[99.29064457700008,7.390927281000074],[99.28069840500007,7.387274139000056],[99.28478181600008,7.385217926000053],[99.28578192100008,7.382806365000022],[99.28449658800008,7.379079749000027],[99.28787704100006,7.375013077000062],[99.28464364200005,7.3732803720000675],[99.28319714000008,7.3674578370000745],[99.28573254100007,7.364848930000051],[99.28897728000004,7.365602323000076],[99.29130658500009,7.361732490000065],[99.29391392700006,7.360934276000023],[99.29391504100005,7.357256970000037],[99.29703706600009,7.353899538000064],[99.30193317400006,7.3535687230000235],[99.30453032700007,7.355674819000058],[99.30566867900006,7.3599136540000245],[99.30421524200005,7.363628467000069],[99.30628922400007,7.366304075000073],[99.30608563000004,7.36919883500002],[99.30811544700003,7.3710682300000485],[99.31471416800008,7.374321801000065],[99.30539923900005,7.376484191000031],[99.30522549800008,7.378273104000073],[99.30192674100005,7.38047233900005],[99.29927564600007,7.38496944700006],[99.29818261100007,7.390067882000039],[99.29341985300005,7.388839411000049],[99.29182953800006,7.390263255000036]]],[[[99.21101477100007,7.416187212000068],[99.20820569700004,7.423981845000071],[99.19963391300007,7.435116374000074],[99.19917794900005,7.427806449000059],[99.19713787900008,7.420884519000026],[99.19699075000005,7.417221451000046],[99.19793809400005,7.403703781000047],[99.19683117500006,7.398113063000039],[99.19938107700006,7.3981710580000595],[99.20974424000008,7.401913394000076],[99.21642286700006,7.400728962000073],[99.21600428000005,7.405793735000032],[99.21310175900004,7.410269073000052],[99.21101477100007,7.416187212000068]]]]},"properties":{"Shape_Leng":1.89642536608,"Shape_Area":0.0524024046708,"ADM2_EN":"Kantang","ADM2_TH":"กันตัง","ADM2_PCODE":"TH9202","ADM1_EN":"Trang","ADM1_TH":"ตรัง","ADM1_PCODE":"TH92","ADM0_EN":"Thailand","ADM0_TH":"ประเทศไทย","ADM0_PCODE":"TH"}},
{"type":"Feature","geometry":{"type":"Polygon","coordinates":[[[99.61272715200005,7.4656501930000445],[99.61391366400005,7.462167875000034],[99.61332993000008,7.455739123000058],[99.61511159700007,7.453855631000067],[99.61589721100006,7.450177760000031],[99.61260035000004,7.442663377000031],[99.61202785600005,7.437992439000027],[99.61585395100008,7.435232262000056],[99.61385536400007,7.4305171990000645],[99.60888233600008,7.414519791000032],[99.60359021800008,7.401773189000039],[99.59486563500008,7.391675555000063],[99.59133027300004,7.384239962000038],[99.58340852100008,7.370848643000045],[99.58071182200007,7.3615131300000485],[99.58954242700008,7.357104194000044],[99.59244417000008,7.354750914000022],[99.59560281300008,7.350349246000064],[99.59857736400005,7.348632771000041],[99.60598501400005,7.350904409000066],[99.61137223500003,7.3565381650000745],[99.61580774400005,7.357737770000028],[99.62194961200004,7.3567701680000255],[99.62437712800005,7.358392000000038],[99.63306075300005,7.35421509400004],[99.63341132100004,7.348904485000048],[99.63574963100007,7.343746948000046],[99.64096120400006,7.33680423800007],[99.64470493000005,7.334780834000071],[99.64795811600004,7.334870121000051],[99.64707498300004,7.337352216000056],[99.65455045000004,7.3374828920000255],[99.65247210200005,7.341926848000071],[99.65237078100006,7.34470858100002],[99.65558814600007,7.3483478900000705],[99.65319477800006,7.35167363000005],[99.65566236400008,7.353102819000071],[99.65237810500008,7.357783573000063],[99.65614771900005,7.3592283070000235],[99.65819554000007,7.362808882000024],[99.65972232200005,7.3683418900000675],[99.66257589700007,7.3665857720000645],[99.66822324700007,7.369157897000036],[99.67231710700008,7.366324339000073],[99.67279848100009,7.371202568000058],[99.67872333600008,7.372442116000059],[99.68347444600005,7.370086333000074],[99.68640877400009,7.369890567000027],[99.69051080500009,7.372219394000069],[99.69085912100007,7.370797158000073],[99.69730850600007,7.372210073000076],[99.69848929800008,7.3693740690000595],[99.70085182700006,7.369406686000048],[99.69893125200008,7.366765830000077],[99.70140552500004,7.367548371000055],[99.70050795900005,7.365190709000046],[99.70198486900006,7.3606248490000326],[99.70650713600008,7.360467650000032],[99.70661861800005,7.364047391000042],[99.70980038900007,7.364392641000052],[99.71440657900007,7.361740096000062],[99.71536381300007,7.3633164250000505],[99.71803138400008,7.360690310000052],[99.72067742800004,7.361135994000051],[99.71918407600003,7.358571815000062],[99.72093705500004,7.354909742000075],[99.72347558700005,7.355686920000039],[99.72251764300006,7.357653749000065],[99.72810427800005,7.356521128000054],[99.73002893800003,7.357999839000058],[99.73355175500006,7.355635752000069],[99.73397877200006,7.35751926100005],[99.73926254300005,7.357479364000028],[99.73927770900008,7.355643073000067],[99.74741147900005,7.351518309000028],[99.75269280800006,7.353704446000052],[99.75514565000003,7.352021151000031],[99.75492580900004,7.347747123000033],[99.75335592300007,7.346347953000077],[99.75552446500006,7.344443240000032],[99.75641932000008,7.3467702210000425],[99.76207340800005,7.3415871660000676],[99.76332875600008,7.342720166000049],[99.76697697300006,7.3401249650000295],[99.77344402000006,7.337032646000068],[99.77515072100005,7.338627082000073],[99.77841494100005,7.3385655000000725],[99.77979082400009,7.3430652440000586],[99.77956480300008,7.34929125900004],[99.78096006400006,7.35083432600004],[99.78026200600004,7.354006699000024],[99.78672295400008,7.36236150700006],[99.78702097300004,7.363793292000025],[99.79153717200006,7.366302468000072],[99.79521016500007,7.366741546000071],[99.80068487700004,7.365560393000067],[99.80225065100007,7.368356501000051],[99.80648391300008,7.370423338000023],[99.80632382000005,7.373758374000033],[99.81165745900006,7.376539140000034],[99.81902737700005,7.376936029000035],[99.81944069600007,7.371590064000031],[99.82444771700006,7.370296654000072],[99.82661819200007,7.3724478350000595],[99.82894887900005,7.372219914000027],[99.83186201700005,7.374197482000056],[99.83545866700007,7.374050634000071],[99.83883352700008,7.37171587000006],[99.84101348200005,7.373196983000071],[99.84594981300006,7.371585328000037],[99.84819239200004,7.369678146000069],[99.85279743700005,7.368878321000068],[99.85401897000008,7.367263573000059],[99.86453966700009,7.365912434000052],[99.86604133800006,7.364499154000043],[99.86994914500008,7.364831256000059],[99.87817071000006,7.361984275000054],[99.88359471400008,7.357963262000055],[99.88922944100005,7.358108216000062],[99.90036782200008,7.351183870000057],[99.90384392200008,7.3471812780000505],[99.90532747200007,7.351326999000037],[99.90378144300007,7.3557195100000285],[99.89915373200006,7.358372483000039],[99.89614272500006,7.36381616500006],[99.89618925500008,7.367223096000032],[99.90007484800009,7.372107941000024],[99.90169117500005,7.378342934000045],[99.90124492300004,7.380945021000059],[99.89748853000003,7.384060868000063],[99.89298014100007,7.393193246000067],[99.89418508700004,7.397857381000051],[99.89127971400006,7.403332308000074],[99.88719739900006,7.405283286000042],[99.88549052800005,7.407955626000046],[99.88531608400007,7.412938890000021],[99.87736735000004,7.417032820000031],[99.87580790700008,7.422079360000055],[99.87210677900003,7.425225534000049],[99.87204763500006,7.430478028000039],[99.86793778500004,7.43716313300007],[99.86492283300004,7.4399370870000325],[99.86090681500008,7.440693262000025],[99.86186094100003,7.444605691000049],[99.85972997500005,7.446452664000049],[99.86284668000008,7.450006930000029],[99.85935827300005,7.453158641000073],[99.85914201600008,7.456840321000072],[99.85748913200007,7.46069329200003],[99.84876996200006,7.465293963000022],[99.84761817900005,7.47080719500002],[99.84978418700007,7.472954307000066],[99.85001431700005,7.476718842000025],[99.85330435000009,7.478573002000076],[99.85250104100004,7.484091344000035],[99.85077484900006,7.486656569000047],[99.84599500400009,7.4904855800000405],[99.84286896900005,7.495030634000045],[99.84180536000008,7.499339033000069],[99.83708789100007,7.499599385000067],[99.83441895100003,7.501057495000055],[99.83328440900004,7.503725521000035],[99.82701588100008,7.50592802500006],[99.82245511600007,7.508768669000062],[99.82041722800005,7.512598021000031],[99.82163669700009,7.514561569000023],[99.82064834300007,7.518871703000059],[99.80856715400006,7.508229208000046],[99.80425352100008,7.505852444000027],[99.80110074300006,7.505502068000055],[99.79757422300008,7.50242621700005],[99.79790898100003,7.5009723450000365],[99.79498992000003,7.497092115000044],[99.79120519400004,7.495939043000021],[99.78826040800004,7.493629388000045],[99.78221324400005,7.491470642000024],[99.77375284300007,7.4923957760000235],[99.76933009800007,7.487309285000038],[99.75973681500005,7.488142769000035],[99.75833835400005,7.484760548000054],[99.75141637900003,7.486700079000059],[99.74837132000005,7.485504706000029],[99.74809183200006,7.4829210190000595],[99.74100493400005,7.483068040000035],[99.73806992900006,7.482377658000075],[99.73552920100008,7.478426741000021],[99.72843077700009,7.477236618000063],[99.72653039400006,7.474886017000074],[99.72260335100003,7.475721991000057],[99.71867097200004,7.47325346100007],[99.71004670700006,7.472776932000045],[99.70760675900004,7.479165265000063],[99.70308035500005,7.4799640510000245],[99.70078369400005,7.48484737800004],[99.69691706500004,7.486988231000055],[99.69506209700006,7.491369444000043],[99.68454149700005,7.490493655000023],[99.67970038700008,7.489381845000025],[99.67879035800007,7.491430424000043],[99.67498481300004,7.493218984000066],[99.67419615800009,7.498894306000068],[99.67696007200004,7.502743487000032],[99.67694300900007,7.507386681000071],[99.67480822800007,7.509430665000025],[99.67750146300006,7.512560165000025],[99.67678032100008,7.517384520000064],[99.67467776600006,7.515749558000039],[99.66757484800007,7.5178951000000325],[99.66652101200003,7.5165103090000684],[99.66207603600009,7.51898525200005],[99.65773569700008,7.519688640000027],[99.65183300900009,7.516784573000052],[99.65032900500006,7.514209620000031],[99.64456597800006,7.51021242500002],[99.64306322000004,7.504960843000049],[99.63918441400006,7.503060214000072],[99.63478940500005,7.497785359000034],[99.63232836300006,7.496403183000041],[99.62909180600008,7.490076879000071],[99.62835640600008,7.486901846000023],[99.62572251600005,7.486492489000057],[99.62085070600006,7.4831386520000365],[99.62171681200005,7.480793400000039],[99.61961276700004,7.478784759000064],[99.62020971400005,7.4758999960000665],[99.61531974000007,7.471538155000076],[99.61272715200005,7.4656501930000445]]]},"properties":{"Shape_Leng":1.2775194961,"Shape_Area":0.036269128244,"ADM2_EN":"Yan Ta Khao","ADM2_TH":"ย่านตาขาว","ADM2_PCODE":"TH9203","ADM1_EN":"Trang","ADM1_TH":"ตรัง","ADM1_PCODE":"TH92","ADM0_EN":"Thailand","ADM0_TH":"ประเทศไทย","ADM0_PCODE":"TH"}},
{"type":"Feature","geometry":{"type":"MultiPolygon","coordinates":[[[[99.56801660600007,7.321111064000036],[99.57348935700008,7.317938239000057],[99.57979875500007,7.312900940000077],[99.58393046200007,7.313326023000059],[99.58753238100007,7.315720480000039],[99.59151595700007,7.311493747000043],[99.59870826800005,7.307570464000037],[99.60319117300008,7.306498518000069],[99.60879017800005,7.303426214000069],[99.61372645800009,7.303321102000041],[99.62012202200003,7.298487604000059],[99.62864103000004,7.297706152000046],[99.63201641600006,7.29203349200003],[99.63102924600008,7.286483842000052],[99.63475012800006,7.278670297000076],[99.63752933700005,7.2782362530000455],[99.63933410900006,7.280190593000043],[99.64168866500006,7.2795328350000545],[99.64200943700007,7.264944651000064],[99.64072026700006,7.261082294000062],[99.64063899700005,7.250807683000062],[99.63979348400005,7.246755608000058],[99.63139982800004,7.231813869000064],[99.62702627700008,7.22686660200003],[99.61628787500007,7.216331941000021],[99.61280830600003,7.2107925520000435],[99.61326999800008,7.204727761000072],[99.61667509600005,7.199870648000058],[99.63338121700008,7.185291728000038],[99.63966555400003,7.175813707000032],[99.64159856800006,7.16576010600005],[99.64521657100005,7.166706895000061],[99.65974990800004,7.164544943000067],[99.65990593300006,7.161037974000067],[99.66410739300005,7.151170762000049],[99.66569728000007,7.146041990000072],[99.66793565500006,7.142007397000043],[99.66911496200004,7.131329878000031],[99.67105115500004,7.125347376000036],[99.66890200500006,7.121801704000063],[99.66788966500008,7.117197962000034],[99.66606038400005,7.11548741200005],[99.66887910700007,7.113962397000023],[99.67164807500006,7.117580664000059],[99.67385141200003,7.117554817000041],[99.67771421900005,7.119953545000044],[99.67983671000007,7.12268216700005],[99.68278400300005,7.124011980000034],[99.68989997600005,7.124369433000027],[99.69862306800007,7.130889885000045],[99.71671365900005,7.130620246000035],[99.72056203300008,7.128234766000048],[99.72987177200008,7.131186890000038],[99.73459370800003,7.136095855000065],[99.74102696800009,7.134730933000071],[99.73933561800004,7.131864303000043],[99.74581674300003,7.12970640900005],[99.75418168600004,7.124988318000021],[99.76333374800004,7.123866523000061],[99.76662582300008,7.125664701000062],[99.77062642500005,7.125014265000061],[99.77656367700007,7.126214082000047],[99.78031479700007,7.127904995000051],[99.78490718400008,7.127520666000066],[99.78733441400004,7.13056302800004],[99.78766702000007,7.13825698200003],[99.78937297700008,7.139567690000035],[99.79131985600009,7.135141449000059],[99.79883069700008,7.12871659700005],[99.80372941800005,7.1290266860000315],[99.80535542400008,7.131056410000042],[99.80782710000005,7.130742091000059],[99.82227192600004,7.135206201000074],[99.82627009300006,7.137654199000053],[99.83126926700004,7.138032037000073],[99.83097837200006,7.142051836000064],[99.83328258600005,7.145837544000074],[99.83833248200006,7.150235573000032],[99.84103024100006,7.151070761000028],[99.84168371900006,7.155051892000074],[99.84362653200009,7.156523475000029],[99.84426350100006,7.161302418000048],[99.84602466800004,7.1624696660000495],[99.85395423600005,7.1641670410000415],[99.85740422200007,7.167929718000039],[99.85924028100004,7.172130741000046],[99.86365528200008,7.173311867000052],[99.86791012600008,7.170829824000066],[99.87203599000009,7.171241715000065],[99.87420525800007,7.175666894000074],[99.87982970700006,7.179337331000056],[99.88496708300005,7.1843100140000615],[99.89052994900004,7.186776726000062],[99.89712497200009,7.186917878000031],[99.89989643000007,7.188720561000025],[99.90756746000005,7.1891567310000255],[99.91639220400003,7.192278961000056],[99.91890740300005,7.192345010000054],[99.92472312400008,7.190062567000041],[99.93009966400007,7.192018015000031],[99.93493626900005,7.190404730000068],[99.94167570800005,7.195913375000032],[99.94565805100007,7.201360340000065],[99.94605783200006,7.203498866000075],[99.94856212600007,7.203698755000062],[99.94608209900008,7.207840148000059],[99.94405297200007,7.213786484000025],[99.94878079300008,7.213922824000065],[99.94910680400005,7.217116990000022],[99.94668211600003,7.219466245000035],[99.94701853900006,7.22312325300004],[99.94305649200004,7.22631485900007],[99.94135781800009,7.231480261000058],[99.93848467300006,7.232471378000071],[99.93956476100004,7.236048965000066],[99.93337291900008,7.240037613000027],[99.93224874900005,7.246662205000064],[99.93509750800007,7.249693461000049],[99.93589234300003,7.253331395000032],[99.94240320500006,7.257505924000043],[99.94484982000006,7.264232331000073],[99.94710255500007,7.265683074000037],[99.94698064600004,7.269367948000024],[99.94477084800008,7.270554741000069],[99.94131368700005,7.278621508000072],[99.94075378500008,7.282261275000053],[99.94198424700005,7.286615348000055],[99.93950344500007,7.303381542000068],[99.93735010300009,7.307007661000057],[99.93976069200005,7.310062983000023],[99.93947306200005,7.316510024000024],[99.93716678700008,7.317861392000054],[99.93170086900005,7.317564366000056],[99.92231548600006,7.31872074000006],[99.91790013300005,7.3182314700000575],[99.91239769800006,7.319686561000026],[99.91116970900003,7.3240612170000645],[99.90919392000006,7.326191238000035],[99.90872695700006,7.3314199890000395],[99.90568849800007,7.333388745000036],[99.90365915500007,7.336785621000047],[99.90474313100003,7.338658426000052],[99.90282464400008,7.342998089000048],[99.90384392200008,7.3471812780000505],[99.90036782200008,7.351183870000057],[99.88922944100005,7.358108216000062],[99.88359471400008,7.357963262000055],[99.87817071000006,7.361984275000054],[99.86994914500008,7.364831256000059],[99.86604133800006,7.364499154000043],[99.86453966700009,7.365912434000052],[99.85401897000008,7.367263573000059],[99.85279743700005,7.368878321000068],[99.84819239200004,7.369678146000069],[99.84594981300006,7.371585328000037],[99.84101348200005,7.373196983000071],[99.83883352700008,7.37171587000006],[99.83545866700007,7.374050634000071],[99.83186201700005,7.374197482000056],[99.82894887900005,7.372219914000027],[99.82661819200007,7.3724478350000595],[99.82444771700006,7.370296654000072],[99.81944069600007,7.371590064000031],[99.81902737700005,7.376936029000035],[99.81165745900006,7.376539140000034],[99.80632382000005,7.373758374000033],[99.80648391300008,7.370423338000023],[99.80225065100007,7.368356501000051],[99.80068487700004,7.365560393000067],[99.79521016500007,7.366741546000071],[99.79153717200006,7.366302468000072],[99.78702097300004,7.363793292000025],[99.78672295400008,7.36236150700006],[99.78026200600004,7.354006699000024],[99.78096006400006,7.35083432600004],[99.77956480300008,7.34929125900004],[99.77979082400009,7.3430652440000586],[99.77841494100005,7.3385655000000725],[99.77515072100005,7.338627082000073],[99.77344402000006,7.337032646000068],[99.76697697300006,7.3401249650000295],[99.76332875600008,7.342720166000049],[99.76207340800005,7.3415871660000676],[99.75641932000008,7.3467702210000425],[99.75552446500006,7.344443240000032],[99.75335592300007,7.346347953000077],[99.75492580900004,7.347747123000033],[99.75514565000003,7.352021151000031],[99.75269280800006,7.353704446000052],[99.74741147900005,7.351518309000028],[99.73927770900008,7.355643073000067],[99.73926254300005,7.357479364000028],[99.73397877200006,7.35751926100005],[99.73355175500006,7.355635752000069],[99.73002893800003,7.357999839000058],[99.72810427800005,7.356521128000054],[99.72251764300006,7.357653749000065],[99.72347558700005,7.355686920000039],[99.72093705500004,7.354909742000075],[99.71918407600003,7.358571815000062],[99.72067742800004,7.361135994000051],[99.71803138400008,7.360690310000052],[99.71536381300007,7.3633164250000505],[99.71440657900007,7.361740096000062],[99.70980038900007,7.364392641000052],[99.70661861800005,7.364047391000042],[99.70650713600008,7.360467650000032],[99.70198486900006,7.3606248490000326],[99.70050795900005,7.365190709000046],[99.70140552500004,7.367548371000055],[99.69893125200008,7.366765830000077],[99.70085182700006,7.369406686000048],[99.69848929800008,7.3693740690000595],[99.69730850600007,7.372210073000076],[99.69085912100007,7.370797158000073],[99.69051080500009,7.372219394000069],[99.68640877400009,7.369890567000027],[99.68347444600005,7.370086333000074],[99.67872333600008,7.372442116000059],[99.67279848100009,7.371202568000058],[99.67231710700008,7.366324339000073],[99.66822324700007,7.369157897000036],[99.66257589700007,7.3665857720000645],[99.65972232200005,7.3683418900000675],[99.65819554000007,7.362808882000024],[99.65614771900005,7.3592283070000235],[99.65237810500008,7.357783573000063],[99.65566236400008,7.353102819000071],[99.65319477800006,7.35167363000005],[99.65558814600007,7.3483478900000705],[99.65237078100006,7.34470858100002],[99.65247210200005,7.341926848000071],[99.65455045000004,7.3374828920000255],[99.64707498300004,7.337352216000056],[99.64795811600004,7.334870121000051],[99.64470493000005,7.334780834000071],[99.64096120400006,7.33680423800007],[99.63574963100007,7.343746948000046],[99.63341132100004,7.348904485000048],[99.63306075300005,7.35421509400004],[99.62437712800005,7.358392000000038],[99.62194961200004,7.3567701680000255],[99.61580774400005,7.357737770000028],[99.61137223500003,7.3565381650000745],[99.60598501400005,7.350904409000066],[99.59857736400005,7.348632771000041],[99.59560281300008,7.350349246000064],[99.59244417000008,7.354750914000022],[99.58954242700008,7.357104194000044],[99.58071182200007,7.3615131300000485],[99.57541946600008,7.350840488000074],[99.57379476700004,7.345438173000048],[99.56801660600007,7.321111064000036]]],[[[99.47579383700008,6.97262001200005],[99.47742653100005,6.9731235510000715],[99.47620582300004,6.97825431900003],[99.47400093200008,6.977228166000032],[99.47579383700008,6.97262001200005]]],[[[99.47570315100006,7.021780136000075],[99.47613970900005,7.028695689000074],[99.47543336800004,7.038066110000045],[99.47317126800004,7.042885223000042],[99.47327389100008,7.047532940000053],[99.47119480000003,7.0503742380000745],[99.46969250800004,7.048870807000071],[99.47275370200003,7.0367984490000595],[99.47209113300005,7.031262026000036],[99.47300038700007,7.027206327000044],[99.47570315100006,7.021780136000075]]],[[[99.39510565600006,7.074254463000045],[99.39456367300005,7.0764937710000595],[99.39255692300009,7.074596973000041],[99.39510565600006,7.074254463000045]]],[[[99.42888504800004,7.103242198000032],[99.43087466700007,7.109290186000067],[99.42969340500008,7.111895448000041],[99.42698691100009,7.113290314000039],[99.42619605500005,7.109107274000053],[99.42708652400006,7.1050260940000385],[99.42888504800004,7.103242198000032]]],[[[99.42629460300009,7.115326672000037],[99.42631611500008,7.119909413000073],[99.42178852800004,7.1237229130000514],[99.42379152500007,7.116305304000036],[99.42629460300009,7.115326672000037]]],[[[99.55503993300005,7.126789892000033],[99.55444489500007,7.122387734000029],[99.55670079300006,7.117692420000026],[99.55790242700004,7.109759673000042],[99.56129179900006,7.108181669000032],[99.56385873900007,7.104194586000062],[99.56521705300008,7.0940529360000255],[99.57438511600009,7.091875774000073],[99.57808351000006,7.0900287120000485],[99.58339956000003,7.088986125000076],[99.58703207200006,7.090953531000025],[99.59180695400005,7.090032027000063],[99.59824134900003,7.0872387640000625],[99.60835410500005,7.080028176000042],[99.61259100900008,7.079418823000026],[99.61597201100005,7.082250717000022],[99.61193113400009,7.086111629000072],[99.60783161700004,7.092695520000063],[99.59678722200005,7.103849923000041],[99.59265621700007,7.104320682000036],[99.58987276000005,7.1079315660000475],[99.58326568400008,7.113377029000048],[99.57759794300006,7.110871680000059],[99.57068838300006,7.1128507240000545],[99.56931708200005,7.11556760600007],[99.56698697900003,7.115454090000071],[99.56456664500007,7.119287876000044],[99.56129307800006,7.120930260000023],[99.55771887200007,7.1258945790000325],[99.55503993300005,7.126789892000033]]],[[[99.69979225100008,7.123712393000062],[99.70235576300007,7.130533183000068],[99.69858760900007,7.127609587000052],[99.69725569900004,7.124954303000038],[99.69979225100008,7.123712393000062]]],[[[99.65140512200009,7.147687735000034],[99.65260698100008,7.150629781000021],[99.65141546900009,7.1549440890000255],[99.64994602400009,7.1536860210000555],[99.65000923700006,7.148803421000025],[99.65140512200009,7.147687735000034]]]]},"properties":{"Shape_Leng":1.87592482989,"Shape_Area":0.0675876660615,"ADM2_EN":"Palian","ADM2_TH":"ปะเหลียน","ADM2_PCODE":"TH9204","ADM1_EN":"Trang","ADM1_TH":"ตรัง","ADM1_PCODE":"TH92","ADM0_EN":"Thailand","ADM0_TH":"ประเทศไทย","ADM0_PCODE":"TH"}},
{"type":"Feature","geometry":{"type":"MultiPolygon","coordinates":[[[[99.49226319900004,7.562935217000074],[99.49111173700004,7.56361133200005],[99.48365654000008,7.56356196400003],[99.48342422900004,7.568118335000065],[99.47563080300006,7.56784560400007],[99.47277032900007,7.569044373000054],[99.47095349400007,7.572523022000041],[99.47075163700003,7.579476622000072],[99.46946204200003,7.583089174000065],[99.46026949000009,7.591369121000071],[99.45707953300007,7.5926190540000675],[99.44745237300003,7.591120355000044],[99.44867418200005,7.588725272000033],[99.44809819300008,7.584985713000037],[99.44554183000008,7.5808553190000225],[99.43675760600007,7.5832913500000245],[99.43601581700005,7.587359203000062],[99.43651378200008,7.591469801000073],[99.43437656900005,7.591114744000038],[99.43152349100006,7.595079768000062],[99.42695982900005,7.596966976000033],[99.42563572500006,7.599952101000042],[99.41904227800006,7.599583746000064],[99.41648350500009,7.601609748000044],[99.41214750200004,7.5997492920000695],[99.41233860500006,7.595372275000045],[99.41404961200004,7.595068859000037],[99.41240185300006,7.586764562000042],[99.41098378900006,7.586962928000048],[99.40980950200009,7.595209791000059],[99.40793420900008,7.599609416000021],[99.40520023500005,7.609788507000076],[99.40277231700009,7.609592870000029],[99.39850988700005,7.613470213000028],[99.39209493300007,7.613684381000041],[99.38904131300006,7.616963844000054],[99.38172831500003,7.616325644000028],[99.37805983300007,7.610912032000044],[99.37715109000004,7.6050499770000215],[99.37448903100005,7.60333821100005],[99.36438906800004,7.6028865220000625],[99.36243940300005,7.6141283030000295],[99.36218613000005,7.621085889000028],[99.36332912800003,7.625687740000046],[99.36210391900005,7.634725347000028],[99.36374839200005,7.639102430000037],[99.36404129100004,7.645698663000076],[99.36214798900005,7.649978267000051],[99.36386206400005,7.655892325000025],[99.36356885400005,7.6630903630000375],[99.36609348200005,7.664435124000022],[99.36769653400006,7.668170846000066],[99.36782972000003,7.674215899000046],[99.36522010100003,7.679862675000038],[99.36422973900005,7.685371816000043],[99.36417879600003,7.693483667000066],[99.35603887100007,7.694842751000067],[99.35319870100005,7.700287197000023],[99.34979432400007,7.704805639000028],[99.35207129600008,7.711155155000029],[99.34938576700006,7.714200578000032],[99.34564918800004,7.7204032720000555],[99.34357220900006,7.727763569000047],[99.34458430900008,7.732618330000037],[99.34819338000005,7.738215840000066],[99.34820096200008,7.742315683000072],[99.34943151300007,7.744486119000044],[99.35557182400004,7.747349151000037],[99.36012673200008,7.752279745000067],[99.36160775500008,7.761073811000074],[99.35972991200003,7.765333909000049],[99.36115171600005,7.767229171000054],[99.35962361700007,7.769609136000042],[99.36058831600008,7.779515440000068],[99.35980948000008,7.7867006890000425],[99.35704154000007,7.792468353000061],[99.35501259600005,7.793648020000035],[99.35345676700007,7.79799508800005],[99.34925234700006,7.803518182000062],[99.34410316800006,7.80852161100006],[99.34421219400008,7.813464857000042],[99.33710973200004,7.816756981000026],[99.33593390300007,7.823057759000051],[99.33105935400005,7.821383188000027],[99.32533304200007,7.821312590000048],[99.32240164500007,7.818520655000043],[99.31424891400007,7.817257940000047],[99.31077727200005,7.821437427000035],[99.30475730500007,7.821489624000037],[99.29615610600007,7.8249654940000255],[99.29420194100004,7.825097650000032],[99.29361367500007,7.8197246770000675],[99.28813985000005,7.819105642000068],[99.28714726300007,7.817685499000049],[99.28714729400008,7.810054884000067],[99.29263944600007,7.810748868000076],[99.29923941800007,7.809714712000073],[99.30322105500005,7.80818877300004],[99.30265837900004,7.801209723000056],[99.29978520400005,7.794489849000058],[99.30169669200006,7.790708208000069],[99.29819498200004,7.787038901000074],[99.29653118500005,7.783511349000037],[99.29348059000006,7.781462942000076],[99.28823974000005,7.7750092660000405],[99.28802542400007,7.7715602160000685],[99.28971883500009,7.768254518000049],[99.28900982100004,7.7624413480000385],[99.29185901000005,7.760375924000073],[99.30553006900004,7.755999513000063],[99.30676805800005,7.7528250550000735],[99.30738007200006,7.7440337380000415],[99.30859159900007,7.741798298000049],[99.30786608900007,7.738389519000066],[99.31121366700006,7.7375756780000415],[99.31271605900008,7.7336372330000245],[99.31272274800006,7.729177635000042],[99.31100886400009,7.724573075000023],[99.30936696400005,7.723970125000051],[99.30728803200009,7.719121699000027],[99.30782815200007,7.715415524000036],[99.31017638000009,7.712332325000034],[99.30897100000004,7.709325712000066],[99.30971736300006,7.705331243000046],[99.30748670200006,7.70167858800005],[99.30412521200009,7.699693772000046],[99.30432599300008,7.6975395600000525],[99.30130908800004,7.694926665000025],[99.29912206500006,7.69018096800005],[99.30057124800004,7.689243298000065],[99.29738501300005,7.687629117000029],[99.29503753700004,7.690464228000053],[99.29352902000005,7.68831044500007],[99.29206758800007,7.690153796000061],[99.28992210900009,7.686635392000028],[99.28742057900007,7.688497513000073],[99.28533523000004,7.6847845350000625],[99.28680461300007,7.681390086000022],[99.28555679800007,7.679385316000037],[99.27951847200006,7.680977722000023],[99.27573777400005,7.679359637000061],[99.27079906000006,7.674139749000062],[99.26736451900007,7.668452506000051],[99.25947516700006,7.657362437000074],[99.26124617800008,7.654795188000037],[99.25496645100009,7.649646012000062],[99.25183535300005,7.6389025070000685],[99.25379186900005,7.630364106000059],[99.24437273500007,7.630444768000075],[99.23838281000008,7.633603549000043],[99.23520166100008,7.631895482000061],[99.23263846900005,7.632484307000027],[99.23451795700004,7.627690932000064],[99.24226657500009,7.627357619000065],[99.24646367000008,7.625955680000061],[99.25111808800006,7.62184929700004],[99.25929690500004,7.618487001000062],[99.26147980000007,7.616589487000056],[99.26542765700003,7.621675459000073],[99.26957793300005,7.621454036000046],[99.27243094900007,7.624614152000049],[99.27335116800003,7.627971459000037],[99.27810843200007,7.628126254000051],[99.28156621800008,7.621351351000044],[99.28214417100008,7.6176764610000305],[99.27956997700005,7.605974093000043],[99.27913375700007,7.600914905000025],[99.28202694700008,7.595975069000076],[99.28177554500007,7.59383136200006],[99.28461462300004,7.589125090000039],[99.28933043300003,7.58319087700005],[99.28896007000009,7.580667514000027],[99.29048209400008,7.576111368000056],[99.29560365600008,7.5675719960000265],[99.29819574500004,7.566249791000075],[99.29543314500006,7.564177280000024],[99.29465373700003,7.5609485270000505],[99.30437417000007,7.551659875000041],[99.31378691700007,7.53733836300006],[99.30979449100005,7.5352603660000455],[99.30777353000008,7.532487819000039],[99.30764052100005,7.525575746000072],[99.30506794400009,7.519329527000025],[99.30149632100006,7.516689515000053],[99.29580515500004,7.522359859000062],[99.29446061400006,7.519661341000074],[99.29706999000007,7.518706771000041],[99.29873016700009,7.515173975000039],[99.29426002800005,7.512627510000073],[99.29240294100003,7.517085824000048],[99.28924646900003,7.520240073000025],[99.28499832000006,7.515647892000061],[99.29472172500004,7.500332456000024],[99.29591720300004,7.497329080000043],[99.29730960700005,7.502187376000052],[99.30085670100004,7.503840511000021],[99.30140550600004,7.506345569000075],[99.30493262200008,7.510070881000047],[99.30669829800007,7.510071468000035],[99.30789676100005,7.513023610000062],[99.31160586700008,7.512521751000065],[99.31100356700006,7.50938820600004],[99.31428137800003,7.505355966000025],[99.32189907200006,7.501090891000047],[99.32677844500006,7.495144248000031],[99.33126687300006,7.484436127000038],[99.33407779200007,7.472692739000024],[99.33782719200008,7.465455588000054],[99.34075986600004,7.463452480000058],[99.33881443700005,7.460333270000035],[99.34113773300004,7.454121049000037],[99.34326404900008,7.445304293000049],[99.34671205700005,7.442342306000057],[99.34472984500007,7.440232860000037],[99.34643039900004,7.422556804000067],[99.34517725400008,7.414408454000068],[99.34282604000003,7.412423821000061],[99.34145340900005,7.413630561000048],[99.33696243800006,7.410699762000036],[99.33848446200005,7.4094377060000625],[99.34335355000007,7.411990807000052],[99.34772146200004,7.409096663000071],[99.34873902500004,7.4014902040000266],[99.35187634700009,7.400171940000064],[99.35555544800008,7.404646723000042],[99.35219850600004,7.4087626860000455],[99.35206117900003,7.41056814600006],[99.35622245700006,7.411546112000053],[99.35730209500008,7.415147312000045],[99.35980860800004,7.41347666300004],[99.36091237100004,7.4156990930000575],[99.36411425900008,7.416458618000036],[99.36424192400005,7.42060863100005],[99.37356378300007,7.42756741900007],[99.37165561400008,7.430044487000032],[99.37121225400006,7.434335928000053],[99.37464318300005,7.438352932000043],[99.37542718500004,7.442328263000036],[99.37786726600007,7.445193169000049],[99.38167317100005,7.444120645000055],[99.38279373000006,7.450986774000057],[99.38550433600005,7.454693691000045],[99.38518414700007,7.460491193000053],[99.38928494600003,7.469023182000058],[99.38949338600008,7.474298936000025],[99.39606102900007,7.473321697000074],[99.40116157700004,7.46986191700006],[99.40369554200004,7.469717937000041],[99.40825810800004,7.473312537000027],[99.41022312400008,7.48357134500003],[99.41474730900006,7.482213213000023],[99.41845714400006,7.4830826930000285],[99.42740603400006,7.47977701700006],[99.43015206200005,7.487260043000049],[99.43036295400003,7.491712074000077],[99.42928383600008,7.496259176000024],[99.43200971900006,7.498264142000039],[99.43220153100003,7.500840914000037],[99.43657582000009,7.5009387570000285],[99.44425691200007,7.504248104000055],[99.44766852100008,7.502238424000041],[99.45122578300004,7.503578572000038],[99.45107894800003,7.509813672000064],[99.44847799200005,7.512870440000029],[99.45034335600008,7.514488032000031],[99.44579966500004,7.522954886000036],[99.44870416600008,7.53033845300007],[99.44925064300008,7.533796994000056],[99.45323235300003,7.536443825000049],[99.45688669000003,7.531503822000047],[99.46275925900005,7.531020197000032],[99.46386657000005,7.528262858000062],[99.47028247000009,7.526380571000061],[99.47241849800008,7.524415551000061],[99.47723151600007,7.524440378000065],[99.47952851600007,7.52273827700003],[99.48307531300009,7.523168913000063],[99.48604483300005,7.525016998000069],[99.48949029400006,7.523380176000046],[99.49372693700008,7.525788584000054],[99.49450167700007,7.529618059000029],[99.49655586200004,7.532772130000069],[99.49955803300008,7.532012602000066],[99.50300860400006,7.536899815000027],[99.50944014700008,7.540190950000067],[99.50935370800005,7.541538286000048],[99.51323940900005,7.53920236700003],[99.51944552400005,7.540661324000041],[99.51652921600004,7.5451552430000675],[99.51536384600007,7.543713439000044],[99.51187044100004,7.544732454000041],[99.50663035000008,7.550297856000043],[99.50291127900005,7.551504128000033],[99.49995894600005,7.554402238000023],[99.49475923800009,7.55390032300005],[99.49275996600005,7.5546766310000635],[99.49226319900004,7.562935217000074]]],[[[99.30465423100009,7.496046238000076],[99.30290483000005,7.497794585000065],[99.30152239200004,7.495792707000021],[99.29819123100003,7.49576343800004],[99.29777039500004,7.4940644990000465],[99.30110573200005,7.490934906000064],[99.30478407900006,7.493102329000067],[99.30465423100009,7.496046238000076]]],[[[99.28190044200005,7.544779524000035],[99.28161561300004,7.5484136180000405],[99.27828462200006,7.549115051000058],[99.27808236400006,7.547333325000068],[99.28190044200005,7.544779524000035]]],[[[99.28974311100006,7.5602050160000545],[99.28689871200004,7.557747133000021],[99.28812400500004,7.555762575000074],[99.29001211500008,7.557361219000029],[99.28974311100006,7.5602050160000545]]]]},"properties":{"Shape_Leng":1.79024759126,"Shape_Area":0.0379324162876,"ADM2_EN":"Sikao","ADM2_TH":"สิเกา","ADM2_PCODE":"TH9205","ADM1_EN":"Trang","ADM1_TH":"ตรัง","ADM1_PCODE":"TH92","ADM0_EN":"Thailand","ADM0_TH":"ประเทศไทย","ADM0_PCODE":"TH"}},
{"type":"Feature","geometry":{"type":"Polygon","coordinates":[[[99.81111686800006,7.648636847000034],[99.81485868500005,7.6502936860000545],[99.81498047200006,7.653542444000038],[99.81739123200003,7.659013788000038],[99.81678101600005,7.6655030570000235],[99.81947908900008,7.6687236160000225],[99.81657815800008,7.673838096000054],[99.81832736700005,7.677813247000074],[99.81627615800005,7.6831217820000575],[99.81164349400007,7.684868000000051],[99.80178639400003,7.686934514000029],[99.80219874000005,7.691449411000065],[99.79882260800008,7.694804688000033],[99.79860860500008,7.697348299000055],[99.79184477900009,7.700126666000074],[99.78894237100008,7.71181972100004],[99.78902236600004,7.718660237000051],[99.78503553200005,7.725967249000064],[99.78566298300007,7.729742151000039],[99.78383150300004,7.73505842000003],[99.78816275600008,7.742195805000051],[99.78784765600005,7.7435383280000565],[99.78300016800006,7.747813360000066],[99.78320619000004,7.750184700000034],[99.78087029200003,7.753222613000048],[99.78372030800006,7.757513951000021],[99.78332292800008,7.759603914000024],[99.77674325000004,7.7603832160000366],[99.77336434900008,7.765619592000064],[99.76755736900009,7.768338611000047],[99.76873793200008,7.773507203000065],[99.76554983600005,7.776838245000022],[99.76635440300004,7.780357354000046],[99.77059815500007,7.783149646000027],[99.77066795600007,7.789316684000028],[99.76662097500008,7.795669588000067],[99.76396206600003,7.796777225000028],[99.76355514300008,7.800058322000041],[99.75984389900003,7.801988111000071],[99.75783550200003,7.805156080000074],[99.75868524600008,7.811616074000028],[99.75626481600005,7.819002881000074],[99.75621041300008,7.822407736000059],[99.75247249900008,7.824153018000061],[99.75144620000003,7.832473581000045],[99.74655649300007,7.836348078000071],[99.74036740200006,7.839701641000033],[99.73735123500006,7.8449545810000245],[99.73277308900003,7.849018002000037],[99.73289039400004,7.853683206000028],[99.73824742400006,7.858896272000038],[99.73468136400004,7.868071774000043],[99.73737242900006,7.8705708980000395],[99.73898193200006,7.875314843000069],[99.73534947200005,7.878671053000062],[99.73405981900004,7.883644378000042],[99.73154635100008,7.888284210000052],[99.73324832400004,7.895573610000042],[99.73153880300003,7.900586991000068],[99.73291162700008,7.906695754000054],[99.73437328300008,7.908151731000032],[99.73398262700005,7.911739623000074],[99.73717626900009,7.9131373000000735],[99.73896078600006,7.917247049000025],[99.73894749600004,7.920706820000021],[99.74044621000007,7.926631396000062],[99.73541038900004,7.922889285000053],[99.73333869500004,7.925975137000023],[99.71697862900004,7.930039769000075],[99.70812469300006,7.922422390000065],[99.71032661700008,7.917478772000038],[99.71013505100007,7.910932699000057],[99.71213197600008,7.907894696000028],[99.71136803400003,7.901027214000067],[99.71415343500007,7.897981432000051],[99.71302833600004,7.894851915000061],[99.70779763700006,7.891856035000046],[99.70788106400005,7.890247112000054],[99.70459276700007,7.885557490000053],[99.70712736400009,7.883844558000021],[99.70671366700009,7.881413695000049],[99.71072602000004,7.877103440000042],[99.71140317200008,7.872867585000051],[99.71340193200007,7.870709095000052],[99.71495707400004,7.8654873930000235],[99.71057522100006,7.860111845000063],[99.70657656600008,7.857819282000037],[99.69993146700006,7.8512775560000705],[99.69307621000007,7.845816968000065],[99.68798923600008,7.846614805000058],[99.67963155500007,7.851083598000059],[99.66862863000006,7.851326376000031],[99.66150946100004,7.857465091000051],[99.66050041300008,7.860479736000059],[99.65798202800005,7.860909071000037],[99.65637039300003,7.864586759000076],[99.65352953800004,7.867329853000058],[99.65274173400007,7.871233716000063],[99.64445692700008,7.872396417000061],[99.63995801700008,7.870214013000066],[99.63782662700004,7.871003777000055],[99.63785285000006,7.873375253000063],[99.63008934400006,7.8776060410000355],[99.63027753700004,7.884549754000034],[99.62928366700004,7.890676681000059],[99.62914995300008,7.909409645000039],[99.62850312900008,7.912493667000035],[99.62570893200007,7.913769968000054],[99.62151911600006,7.913480002000028],[99.61554700400006,7.910827484000038],[99.60990325900008,7.911171237000076],[99.60721503300005,7.9135864560000755],[99.60142641400006,7.916080501000067],[99.59435197300007,7.915093671000022],[99.58825388600007,7.916592140000034],[99.58318418700009,7.916057416000058],[99.58171308200008,7.919099043000074],[99.57719658800005,7.917679115000055],[99.57366626600003,7.923479869000062],[99.56930871000009,7.923779865000029],[99.56489182700005,7.9215737210000725],[99.56258753800006,7.9250660440000615],[99.55893130000004,7.9195096490000765],[99.55609992700005,7.917559807000032],[99.55406351100004,7.920133778000036],[99.55065403400005,7.917474477000042],[99.54759752800004,7.9183623230000535],[99.54439137700007,7.9107385310000495],[99.54157976400006,7.911662104000072],[99.54252805900006,7.907445633000066],[99.54063133900007,7.904358564000063],[99.54148983500005,7.902037542000073],[99.53551045100005,7.898543643000039],[99.53634101300008,7.895836754000072],[99.53364122200009,7.891251372000056],[99.53734530900005,7.887475274000053],[99.53449799800006,7.885301987000048],[99.53544384600008,7.882814727000039],[99.53931167700006,7.882316263000064],[99.53350385400006,7.878929066000069],[99.53135573500003,7.879581192000046],[99.52510589300005,7.877425077000055],[99.52437814700005,7.875134399000046],[99.52168276400005,7.87656650100007],[99.51721983900006,7.87608295900003],[99.51440723500008,7.878020117000062],[99.51290090500004,7.881115106000038],[99.50895321700006,7.8848643450000395],[99.50307669000006,7.8865410000000224],[99.49808121400008,7.885327505000021],[99.49639634600004,7.882630857000038],[99.49263774500008,7.883510384000033],[99.48952233500006,7.88726841600004],[99.48471072800004,7.882257103000029],[99.48243775000009,7.881349357000033],[99.47894839000008,7.882500851000032],[99.47549831200007,7.8883269160000395],[99.47397182700007,7.898853040000063],[99.47193471600008,7.9044174250000765],[99.46995186700008,7.9040226930000586],[99.46299359800008,7.899223203000076],[99.45944754500005,7.892032132000054],[99.45575845400003,7.889027914000053],[99.45134966300009,7.88975285500004],[99.44967164400003,7.88715975100007],[99.44646224500008,7.888148812000054],[99.44314618000004,7.88618761400005],[99.44334229300006,7.880496534000031],[99.43789703700008,7.8783701100000485],[99.43596893300008,7.87465885000006],[99.43836983600005,7.870977151000034],[99.44438577500006,7.872878852000042],[99.44771088100003,7.872148454000069],[99.44734271500005,7.86870758200007],[99.44255945100008,7.863816237000037],[99.44461076100004,7.8568634070000485],[99.45151915200006,7.85478617900003],[99.44967156600006,7.85247978600006],[99.44709354500009,7.846068504000073],[99.44582912900006,7.845116540000049],[99.44467622400003,7.848299305000069],[99.44143086300005,7.849767292000024],[99.43664873300008,7.849593082000069],[99.43521708800006,7.8470159930000705],[99.42996609000005,7.843788226000072],[99.42728929500004,7.843122829000038],[99.42466507800003,7.845267905000071],[99.41817166600003,7.841090216000055],[99.42005595300009,7.8401391940000735],[99.42098098900004,7.8359516770000255],[99.42100266600005,7.824251858000025],[99.42405629800004,7.812081459000069],[99.42480734800006,7.794400212000028],[99.43038436800003,7.7948889230000304],[99.43177375100004,7.79042929700006],[99.43496597700005,7.787116725000033],[99.43573540700004,7.782301063000034],[99.43545908500005,7.771374051000066],[99.43274375300007,7.7701819130000445],[99.43065183800007,7.75817973900007],[99.43378404000003,7.757217808000064],[99.43551189300007,7.75134216400005],[99.43577679100008,7.7456162570000515],[99.43772993500005,7.7430094410000265],[99.44120473800007,7.74327416400007],[99.44341524600009,7.7403037270000254],[99.44788948000007,7.742395200000033],[99.45311809400005,7.737174469000024],[99.45943454700006,7.737894044000029],[99.45958829400007,7.730218516000036],[99.46430276400008,7.730687291000038],[99.46673933300008,7.724045953000029],[99.47166582000006,7.720508081000048],[99.46997605900003,7.715589845000068],[99.47553261000007,7.709682152000028],[99.48491244600007,7.711152255000059],[99.48502392700004,7.70262006400003],[99.49128762100008,7.702949019000073],[99.49257212900005,7.704642010000043],[99.49549745900003,7.704505589000064],[99.49765432600003,7.707252002000075],[99.49840827100007,7.711572237000041],[99.50054108400008,7.7170802800000615],[99.51357502500008,7.708980474000043],[99.51698551100009,7.708295416000055],[99.51651903700008,7.7106919120000725],[99.51910836700006,7.717303883000056],[99.52494741300006,7.716969189000054],[99.52482768400006,7.719586884000023],[99.52937309800006,7.726224986000034],[99.53640713800007,7.729500461000043],[99.53984347400007,7.729771741000036],[99.54066194700005,7.725160358000039],[99.54417228900007,7.726125302000071],[99.54731595200008,7.729633598000021],[99.54782658200008,7.732624496000028],[99.55093304100006,7.731704499000045],[99.55136408100009,7.7295201320000615],[99.55563171100005,7.722867013000041],[99.55979460700007,7.721438854000041],[99.56117520300006,7.723172122000051],[99.56169070800007,7.719460892000029],[99.56400088100008,7.720077093000043],[99.56505572000003,7.716722397000069],[99.56274880500007,7.714332232000061],[99.56245706800007,7.711825917000056],[99.56025045400008,7.713785061000067],[99.56090632800004,7.709992897000063],[99.55804985500004,7.708251558000029],[99.55726220400004,7.7052132120000465],[99.55943301200006,7.703772516000072],[99.55585421300003,7.702351127000043],[99.55555956900008,7.698609083000065],[99.55730822700008,7.697538844000064],[99.55480816400006,7.692259037000042],[99.55521563400004,7.688004517000024],[99.55291722400005,7.684662959000036],[99.55351788500008,7.682293850000065],[99.54898494200006,7.679373439000074],[99.55486834700008,7.679406656000026],[99.55563856100008,7.676888273000031],[99.55751775500005,7.679845325000031],[99.56144623900008,7.677238985000031],[99.56629506800004,7.668704468000044],[99.57134790700007,7.671271367000031],[99.57577295600004,7.675839138000072],[99.58393708000006,7.674550669000041],[99.58580488800004,7.676054064000027],[99.59233937900007,7.677902364000033],[99.59405302600004,7.683512842000027],[99.59664944400004,7.686000725000042],[99.60374543500006,7.685479577000024],[99.60672159400008,7.689385169000047],[99.61006789100009,7.690951011000038],[99.60883639000008,7.694191904000036],[99.60952595300006,7.697480208000059],[99.61402902400005,7.699028794000071],[99.61793826500008,7.6977350980000665],[99.62176140300005,7.697913525000047],[99.62307902400005,7.695609870000055],[99.62833449600004,7.694569943000033],[99.63339068400006,7.695630187000063],[99.63399983400006,7.69281931200004],[99.63681407400009,7.692202920000057],[99.64426253900007,7.693108755000026],[99.64452720300005,7.696140023000055],[99.65006827800005,7.692590911000025],[99.64869687700008,7.691631680000057],[99.64939616900006,7.687656390000029],[99.65802987300003,7.685518760000036],[99.66248902200005,7.685521420000043],[99.66387346900007,7.682690403000038],[99.66818039300006,7.681622290000064],[99.67446778000004,7.6880148090000375],[99.67737113600003,7.685100641000076],[99.68420225200003,7.687724898000056],[99.68633127500004,7.684863310000026],[99.69266420200006,7.687317719000021],[99.69630941400004,7.69157393100005],[99.69693876300005,7.695740066000042],[99.69541308400005,7.698764295000046],[99.69830228700005,7.699971018000042],[99.70248591600006,7.696096412000031],[99.70304281900007,7.698002376000034],[99.70692707900008,7.699885454000025],[99.71060403700005,7.7001148640000565],[99.71605016400008,7.70534119000007],[99.71965551000005,7.704831198000022],[99.71947762300005,7.7090939960000355],[99.72086243700005,7.712517513000023],[99.72835093700007,7.718491939000046],[99.73250761200006,7.717507363000038],[99.73555812400008,7.714870169000051],[99.73656597300004,7.711389810000071],[99.73561190900006,7.709600323000075],[99.73827161300005,7.7064160290000245],[99.73770457800003,7.704444827000032],[99.74132144000004,7.700612892000038],[99.74104489000007,7.699395124000034],[99.74739044800003,7.696994476000043],[99.74595572700008,7.6923772220000615],[99.75186557900008,7.685716747000072],[99.75447167300007,7.686958541000024],[99.75449351500004,7.684714138000061],[99.75839272900004,7.684807904000024],[99.76302655700005,7.682452366000064],[99.77305701100005,7.674138042000038],[99.77268770900008,7.672289861000024],[99.77752517000005,7.671094610000068],[99.78253585800007,7.673363518000031],[99.78385281600004,7.671495021000055],[99.78637191700005,7.6723138330000324],[99.79121892800003,7.671396833000074],[99.79577661000008,7.669300101000033],[99.80027276800007,7.671491718000027],[99.80188442600007,7.665118461000077],[99.81010559600008,7.657411726000021],[99.81111686800006,7.648636847000034]]]},"properties":{"Shape_Leng":1.95509696759,"Shape_Area":0.0636342170413,"ADM2_EN":"Huai Yot","ADM2_TH":"ห้วยยอด","ADM2_PCODE":"TH9206","ADM1_EN":"Trang","ADM1_TH":"ตรัง","ADM1_PCODE":"TH92","ADM0_EN":"Thailand","ADM0_TH":"ประเทศไทย","ADM0_PCODE":"TH"}},
{"type":"Feature","geometry":{"type":"Polygon","coordinates":[[[99.54898494200006,7.679373439000074],[99.55351788500008,7.682293850000065],[99.55291722400005,7.684662959000036],[99.55521563400004,7.688004517000024],[99.55480816400006,7.692259037000042],[99.55730822700008,7.697538844000064],[99.55555956900008,7.698609083000065],[99.55585421300003,7.702351127000043],[99.55943301200006,7.703772516000072],[99.55726220400004,7.7052132120000465],[99.55804985500004,7.708251558000029],[99.56090632800004,7.709992897000063],[99.56025045400008,7.713785061000067],[99.56245706800007,7.711825917000056],[99.56274880500007,7.714332232000061],[99.56505572000003,7.716722397000069],[99.56400088100008,7.720077093000043],[99.56169070800007,7.719460892000029],[99.56117520300006,7.723172122000051],[99.55979460700007,7.721438854000041],[99.55563171100005,7.722867013000041],[99.55136408100009,7.7295201320000615],[99.55093304100006,7.731704499000045],[99.54782658200008,7.732624496000028],[99.54731595200008,7.729633598000021],[99.54417228900007,7.726125302000071],[99.54066194700005,7.725160358000039],[99.53984347400007,7.729771741000036],[99.53640713800007,7.729500461000043],[99.52937309800006,7.726224986000034],[99.52482768400006,7.719586884000023],[99.52494741300006,7.716969189000054],[99.51910836700006,7.717303883000056],[99.51651903700008,7.7106919120000725],[99.51698551100009,7.708295416000055],[99.51357502500008,7.708980474000043],[99.50054108400008,7.7170802800000615],[99.49840827100007,7.711572237000041],[99.49765432600003,7.707252002000075],[99.49549745900003,7.704505589000064],[99.49257212900005,7.704642010000043],[99.49128762100008,7.702949019000073],[99.48502392700004,7.70262006400003],[99.48491244600007,7.711152255000059],[99.47553261000007,7.709682152000028],[99.46997605900003,7.715589845000068],[99.47166582000006,7.720508081000048],[99.46673933300008,7.724045953000029],[99.46430276400008,7.730687291000038],[99.45958829400007,7.730218516000036],[99.45943454700006,7.737894044000029],[99.45311809400005,7.737174469000024],[99.44788948000007,7.742395200000033],[99.44341524600009,7.7403037270000254],[99.44120473800007,7.74327416400007],[99.43772993500005,7.7430094410000265],[99.43577679100008,7.7456162570000515],[99.43551189300007,7.75134216400005],[99.43378404000003,7.757217808000064],[99.43065183800007,7.75817973900007],[99.43274375300007,7.7701819130000445],[99.43545908500005,7.771374051000066],[99.43573540700004,7.782301063000034],[99.43496597700005,7.787116725000033],[99.43177375100004,7.79042929700006],[99.43038436800003,7.7948889230000304],[99.42480734800006,7.794400212000028],[99.42405629800004,7.812081459000069],[99.42100266600005,7.824251858000025],[99.42098098900004,7.8359516770000255],[99.42005595300009,7.8401391940000735],[99.41817166600003,7.841090216000055],[99.42466507800003,7.845267905000071],[99.42728929500004,7.843122829000038],[99.42996609000005,7.843788226000072],[99.43521708800006,7.8470159930000705],[99.43664873300008,7.849593082000069],[99.44143086300005,7.849767292000024],[99.44467622400003,7.848299305000069],[99.44582912900006,7.845116540000049],[99.44709354500009,7.846068504000073],[99.44967156600006,7.85247978600006],[99.45151915200006,7.85478617900003],[99.44461076100004,7.8568634070000485],[99.44255945100008,7.863816237000037],[99.44734271500005,7.86870758200007],[99.44771088100003,7.872148454000069],[99.44438577500006,7.872878852000042],[99.43836983600005,7.870977151000034],[99.43596893300008,7.87465885000006],[99.43454468300007,7.876790484000026],[99.42712766100004,7.8754195170000685],[99.42499241700006,7.876842048000071],[99.42340668900005,7.883068181000056],[99.41976259700004,7.8839909070000544],[99.41914402800006,7.893808727000021],[99.41544435700007,7.8961524030000305],[99.41427147600007,7.899511988000029],[99.41652102200004,7.90350787400007],[99.41684931800006,7.910970704000022],[99.41893759100009,7.914007182000034],[99.41985965100008,7.920485626000072],[99.42492840400007,7.9269529510000325],[99.42327104900005,7.9282563730000675],[99.42079145000008,7.925651129000073],[99.41660758800003,7.924091678000025],[99.39796204600003,7.9245731980000755],[99.39209872900005,7.928285196000047],[99.38925595900008,7.932052218000024],[99.38379704300007,7.933563022000044],[99.37903689500007,7.936984262000067],[99.37642646700004,7.9409247240000695],[99.36457711000008,7.944529810000063],[99.36499031200003,7.93771974200007],[99.35982300200004,7.935740011000064],[99.35565164100007,7.93241822300007],[99.34802984500004,7.931518276000077],[99.33377463700003,7.9287921000000665],[99.33516947700008,7.919756965000033],[99.33827258100007,7.913114853000025],[99.33841741400005,7.909760335000044],[99.33643564100004,7.904259534000062],[99.33009158900006,7.891152625000075],[99.33204413800007,7.883030832000031],[99.32952020800008,7.879363901000033],[99.32624411200004,7.876934471000027],[99.32245870700007,7.8708996170000205],[99.31482463500004,7.865774075000047],[99.30879481300008,7.86479776300007],[99.29734724800005,7.863947339000049],[99.28751684400004,7.859115741000039],[99.28510520400005,7.853819605000069],[99.27993296400007,7.850523870000075],[99.27816714600004,7.84636507700003],[99.28424733200006,7.835709266000038],[99.28803553800009,7.833437480000043],[99.29048943900005,7.827970408000056],[99.29420194100004,7.825097650000032],[99.29615610600007,7.8249654940000255],[99.30475730500007,7.821489624000037],[99.31077727200005,7.821437427000035],[99.31424891400007,7.817257940000047],[99.32240164500007,7.818520655000043],[99.32533304200007,7.821312590000048],[99.33105935400005,7.821383188000027],[99.33593390300007,7.823057759000051],[99.33710973200004,7.816756981000026],[99.34421219400008,7.813464857000042],[99.34410316800006,7.80852161100006],[99.34925234700006,7.803518182000062],[99.35345676700007,7.79799508800005],[99.35501259600005,7.793648020000035],[99.35704154000007,7.792468353000061],[99.35980948000008,7.7867006890000425],[99.36058831600008,7.779515440000068],[99.35962361700007,7.769609136000042],[99.36115171600005,7.767229171000054],[99.35972991200003,7.765333909000049],[99.36160775500008,7.761073811000074],[99.36012673200008,7.752279745000067],[99.35557182400004,7.747349151000037],[99.34943151300007,7.744486119000044],[99.34820096200008,7.742315683000072],[99.34819338000005,7.738215840000066],[99.34458430900008,7.732618330000037],[99.34357220900006,7.727763569000047],[99.34564918800004,7.7204032720000555],[99.34938576700006,7.714200578000032],[99.35207129600008,7.711155155000029],[99.34979432400007,7.704805639000028],[99.35319870100005,7.700287197000023],[99.35603887100007,7.694842751000067],[99.36417879600003,7.693483667000066],[99.36422973900005,7.685371816000043],[99.36522010100003,7.679862675000038],[99.36782972000003,7.674215899000046],[99.36769653400006,7.668170846000066],[99.36609348200005,7.664435124000022],[99.36356885400005,7.6630903630000375],[99.36386206400005,7.655892325000025],[99.36214798900005,7.649978267000051],[99.36404129100004,7.645698663000076],[99.36374839200005,7.639102430000037],[99.36210391900005,7.634725347000028],[99.36332912800003,7.625687740000046],[99.36218613000005,7.621085889000028],[99.36243940300005,7.6141283030000295],[99.36438906800004,7.6028865220000625],[99.37448903100005,7.60333821100005],[99.37715109000004,7.6050499770000215],[99.37805983300007,7.610912032000044],[99.38172831500003,7.616325644000028],[99.38904131300006,7.616963844000054],[99.39209493300007,7.613684381000041],[99.39850988700005,7.613470213000028],[99.40277231700009,7.609592870000029],[99.40520023500005,7.609788507000076],[99.40793420900008,7.599609416000021],[99.40980950200009,7.595209791000059],[99.41098378900006,7.586962928000048],[99.41240185300006,7.586764562000042],[99.41404961200004,7.595068859000037],[99.41233860500006,7.595372275000045],[99.41214750200004,7.5997492920000695],[99.41648350500009,7.601609748000044],[99.41904227800006,7.599583746000064],[99.42563572500006,7.599952101000042],[99.42695982900005,7.596966976000033],[99.43152349100006,7.595079768000062],[99.43437656900005,7.591114744000038],[99.43651378200008,7.591469801000073],[99.43601581700005,7.587359203000062],[99.43675760600007,7.5832913500000245],[99.44554183000008,7.5808553190000225],[99.44809819300008,7.584985713000037],[99.44867418200005,7.588725272000033],[99.44745237300003,7.591120355000044],[99.45707953300007,7.5926190540000675],[99.46026949000009,7.591369121000071],[99.46946204200003,7.583089174000065],[99.47075163700003,7.579476622000072],[99.47095349400007,7.572523022000041],[99.47277032900007,7.569044373000054],[99.47563080300006,7.56784560400007],[99.48342422900004,7.568118335000065],[99.48365654000008,7.56356196400003],[99.49111173700004,7.56361133200005],[99.49226319900004,7.562935217000074],[99.49692301600004,7.566330661000052],[99.49879527600007,7.573550228000045],[99.49421126900006,7.580148731000065],[99.49375721600006,7.5864601680000305],[99.48955089100008,7.586787908000076],[99.48420429700008,7.59045764800004],[99.48463375300008,7.593014249000021],[99.48185635700008,7.5934683330000325],[99.47891990600004,7.598286031000043],[99.47118341500004,7.601024052000071],[99.46478247700009,7.605804254000077],[99.46278812200006,7.608825802000069],[99.46607673100004,7.6204108170000495],[99.46714017800008,7.621625434000066],[99.47744580400007,7.61843921600007],[99.48662361400005,7.620949888000041],[99.49530394900006,7.619877638000048],[99.50131811300008,7.621984606000069],[99.50275022700004,7.629151509000053],[99.50450976900004,7.630487339000069],[99.50591163000007,7.645355614000039],[99.50888754700009,7.650055896000026],[99.51544392200003,7.653363974000058],[99.51668759600005,7.655889200000047],[99.52335620100007,7.655836529000055],[99.52278014900008,7.6584424430000695],[99.52486472200007,7.6594968690000655],[99.52777172200007,7.6581834690000505],[99.52810632800004,7.656036942000071],[99.53071090200007,7.655705435000073],[99.52806070100007,7.652806373000033],[99.53028575600007,7.651014695000072],[99.53180145500005,7.653044005000027],[99.53374000100007,7.647504028000071],[99.53983905700005,7.647950906000062],[99.53898763300003,7.650655017000076],[99.54141507100007,7.652808700000037],[99.54258666600003,7.656466612000031],[99.54125277700007,7.658796465000023],[99.54189028000008,7.662269454000068],[99.53867894700005,7.659745830000077],[99.53973849800008,7.662939678000043],[99.53851917500003,7.667021583000064],[99.54233548200006,7.667400680000071],[99.54148977200003,7.670654386000024],[99.54441678400008,7.671236024000052],[99.54534959900008,7.668539027000065],[99.54841600800006,7.671545447000028],[99.54651756400006,7.674003286000072],[99.54724670200005,7.6785164390000205],[99.54898494200006,7.679373439000074]]]},"properties":{"Shape_Leng":1.65662839311,"Shape_Area":0.041114590601,"ADM2_EN":"Wang Wiset","ADM2_TH":"วังวิเศษ","ADM2_PCODE":"TH9207","ADM1_EN":"Trang","ADM1_TH":"ตรัง","ADM1_PCODE":"TH92","ADM0_EN":"Thailand","ADM0_TH":"ประเทศไทย","ADM0_PCODE":"TH"}},
{"type":"Feature","geometry":{"type":"Polygon","coordinates":[[[99.66757484800007,7.5178951000000325],[99.67467776600006,7.515749558000039],[99.67678032100008,7.517384520000064],[99.67750146300006,7.512560165000025],[99.67480822800007,7.509430665000025],[99.67694300900007,7.507386681000071],[99.67696007200004,7.502743487000032],[99.67419615800009,7.498894306000068],[99.67498481300004,7.493218984000066],[99.67879035800007,7.491430424000043],[99.67970038700008,7.489381845000025],[99.68454149700005,7.490493655000023],[99.69506209700006,7.491369444000043],[99.69691706500004,7.486988231000055],[99.70078369400005,7.48484737800004],[99.70308035500005,7.4799640510000245],[99.70760675900004,7.479165265000063],[99.71004670700006,7.472776932000045],[99.71867097200004,7.47325346100007],[99.72260335100003,7.475721991000057],[99.72653039400006,7.474886017000074],[99.72843077700009,7.477236618000063],[99.73552920100008,7.478426741000021],[99.73806992900006,7.482377658000075],[99.74100493400005,7.483068040000035],[99.74809183200006,7.4829210190000595],[99.74837132000005,7.485504706000029],[99.75141637900003,7.486700079000059],[99.75833835400005,7.484760548000054],[99.75973681500005,7.488142769000035],[99.76933009800007,7.487309285000038],[99.77375284300007,7.4923957760000235],[99.78221324400005,7.491470642000024],[99.78826040800004,7.493629388000045],[99.79120519400004,7.495939043000021],[99.79498992000003,7.497092115000044],[99.79790898100003,7.5009723450000365],[99.79757422300008,7.50242621700005],[99.80110074300006,7.505502068000055],[99.80425352100008,7.505852444000027],[99.80856715400006,7.508229208000046],[99.82064834300007,7.518871703000059],[99.81869581600006,7.521446819000062],[99.82077487500004,7.522995663000074],[99.82501383600004,7.523469423000051],[99.82945444700005,7.527062844000056],[99.82920705500004,7.532372632000033],[99.83726114800004,7.541306658000053],[99.83581191300004,7.544798998000033],[99.83634091600004,7.549493985000026],[99.82735535900008,7.552435338000066],[99.82149195200009,7.559015810000062],[99.82067736700009,7.562998230000062],[99.81759111800005,7.565407168000036],[99.81254516600006,7.573281655000073],[99.80778890400006,7.576254081000059],[99.80359846600004,7.5828584960000285],[99.79916510200007,7.583992250000051],[99.79886780100009,7.587626422000028],[99.79690365200008,7.590823080000064],[99.79835267200008,7.5952581630000395],[99.80067786300003,7.597412011000074],[99.80049143200006,7.604363160000048],[99.80254659500008,7.608927858000072],[99.80644338900004,7.6121684190000565],[99.80671883200006,7.619296484000074],[99.80942128800007,7.622351750000064],[99.80182214600006,7.6262785720000466],[99.79801271200006,7.630171803000053],[99.79797743700004,7.63365778900004],[99.79605268500006,7.638235292000047],[99.78981689200003,7.641406260000053],[99.78770864400008,7.644569083000022],[99.77946229200006,7.640674301000047],[99.77422139900006,7.640537079000069],[99.77283260700005,7.636637035000035],[99.75912886000003,7.637296033000041],[99.75362057700005,7.64101067200005],[99.74795247600008,7.6389732940000385],[99.74709736800008,7.635893775000056],[99.74344494900004,7.631540107000035],[99.73953734900005,7.630034740000042],[99.74104759600004,7.625127733000056],[99.73993175700008,7.620929453000031],[99.73602556600008,7.622783842000047],[99.73310709100008,7.622722693000071],[99.72897695800003,7.624360355000022],[99.72782958100004,7.628904236000039],[99.72579543600006,7.629432653000038],[99.72535918700004,7.632531374000052],[99.72136235300007,7.633241934000068],[99.71024535200007,7.639882804000024],[99.70260755900006,7.638635812000075],[99.69542720200008,7.635894824000047],[99.68897373300007,7.634132800000032],[99.68481863200009,7.630422982000027],[99.67934010700009,7.629676302000064],[99.67457906000004,7.6261567290000585],[99.67398259600009,7.622162273000072],[99.67452531400005,7.616769678000026],[99.67272433100004,7.614533981000022],[99.67358169700003,7.610872794000045],[99.67552567800004,7.610158702000035],[99.67530070800007,7.602386591000027],[99.67243223600008,7.59758355200006],[99.67035975700009,7.590472126000066],[99.66714689200006,7.588153632000058],[99.66520111600005,7.584746713000072],[99.66688494800007,7.580904963000023],[99.67079516000007,7.579463199000031],[99.67559729300007,7.580877610000073],[99.67920745700008,7.580142914000021],[99.67871347400006,7.577661755000065],[99.68199354900008,7.573412211000061],[99.68497681600007,7.571747540000047],[99.68485854700003,7.568721482000058],[99.68736168000004,7.563643305000028],[99.68631951400005,7.561375334000047],[99.68733728100005,7.558522433000064],[99.69158357300006,7.55357880400004],[99.69165299700006,7.550848755000061],[99.67956471800005,7.550932953000029],[99.67866863700004,7.544978137000044],[99.68011996100006,7.544362750000062],[99.68159254400007,7.537356678000037],[99.68030756700006,7.537212865000072],[99.68031646800006,7.532389192000039],[99.67295848500004,7.529448663000039],[99.67021342200007,7.526722089000032],[99.66973234300008,7.523540780000076],[99.66725009000004,7.519549760000075],[99.66757484800007,7.5178951000000325]]]},"properties":{"Shape_Leng":0.748984318864,"Shape_Area":0.0202162763107,"ADM2_EN":"Na Yong","ADM2_TH":"นาโยง","ADM2_PCODE":"TH9208","ADM1_EN":"Trang","ADM1_TH":"ตรัง","ADM1_PCODE":"TH92","ADM0_EN":"Thailand","ADM0_TH":"ประเทศไทย","ADM0_PCODE":"TH"}},
{"type":"Feature","geometry":{"type":"Polygon","coordinates":[[[99.74044621000007,7.926631396000062],[99.73257289800006,7.9322042570000235],[99.72654027600004,7.939885263000065],[99.73048329100004,7.952916886000025],[99.73746885400004,7.949082793000059],[99.74126031800006,7.952495739000028],[99.74311167400003,7.95956288800005],[99.74644473600006,7.9636625520000734],[99.74846963700008,7.9690869970000335],[99.75267745700006,7.969586736000053],[99.75380834200007,7.974363563000054],[99.75279347500003,7.978209100000072],[99.75698869000007,7.983132225000077],[99.75638911500005,7.986570585000038],[99.75278615400003,7.9862477080000644],[99.74800128300006,7.982508578000022],[99.74502708800009,7.983978170000057],[99.74440713300004,7.987708182000063],[99.74648818800006,7.9904962230000365],[99.75313316300009,7.993588324000029],[99.75497664400007,7.996601876000057],[99.75500653200004,8.000873692000027],[99.75308218200007,8.007832903000065],[99.74684036300005,8.006035068000074],[99.74023814100008,8.008991317000039],[99.73662049600006,8.002927527000054],[99.73080508600003,8.002149850000023],[99.72761644800005,7.998033434000035],[99.72291476200007,7.995528640000032],[99.72183949300006,7.997427414000072],[99.71822716600008,7.993202480000036],[99.71418528700008,7.992715273000044],[99.71323485500005,7.990171082000074],[99.70944218900007,7.990475859000071],[99.70741700700006,7.99244331400007],[99.70439807200006,7.991026929000043],[99.69843295400005,7.991120547000037],[99.69472963800007,7.995935649000046],[99.69265092700005,7.997205615000041],[99.68917517100004,7.995203631000038],[99.68535670100005,7.998641552000038],[99.67698153000003,8.001346764000061],[99.67662546800005,8.006218879000073],[99.67214717500008,8.005912972000033],[99.67075987700008,8.007227207000028],[99.66767663900004,8.006412454000042],[99.66480657800008,8.00783875600007],[99.66144952700006,8.011554282000077],[99.65914092400004,8.010631789000058],[99.65766830600006,8.012738260000049],[99.65118124800006,8.010309239000037],[99.64634756500004,8.010645332000024],[99.64516001200008,8.011788264000074],[99.64105581300004,8.010678623000047],[99.63696313700007,8.008234217000052],[99.63417971900009,8.010556863000033],[99.63099738800008,8.009470837000038],[99.62697042500008,8.003661344000022],[99.62374238900009,8.002226909000058],[99.62120226300004,7.995372257000042],[99.61933674100004,7.992745670000033],[99.61611900000008,7.991821285000071],[99.61571817900005,7.987660443000038],[99.61422381300008,7.98922686700007],[99.61146865300003,7.988359425000056],[99.60991544900008,7.985631541000032],[99.60274211900008,7.98558734900007],[99.60280045500008,7.98350375900003],[99.60620951900006,7.980445958000075],[99.60635766200005,7.978291899000055],[99.60193903500004,7.978202606000025],[99.59818456200009,7.970588909000071],[99.59987058300004,7.967869379000035],[99.59645839200005,7.968409455000028],[99.59788978000006,7.964357291000056],[99.59462674800005,7.963696047000042],[99.59687724800006,7.959766079000076],[99.59468993900003,7.956867622000061],[99.58585024700005,7.956850520000046],[99.58377480700005,7.9511980960000415],[99.58536006100007,7.950263866000057],[99.58102197600005,7.948403823000035],[99.58030180200006,7.944734108000034],[99.57028766300004,7.945596096000031],[99.56749815600006,7.939059465000071],[99.56848366400004,7.936083742000051],[99.56528110600004,7.934511091000047],[99.56202539500003,7.936577495000051],[99.56083585900006,7.932670319000067],[99.56365896800008,7.9327075010000385],[99.56452099000006,7.930709881000041],[99.56183259100004,7.929241370000057],[99.56258753800006,7.9250660440000615],[99.56489182700005,7.9215737210000725],[99.56930871000009,7.923779865000029],[99.57366626600003,7.923479869000062],[99.57719658800005,7.917679115000055],[99.58171308200008,7.919099043000074],[99.58318418700009,7.916057416000058],[99.58825388600007,7.916592140000034],[99.59435197300007,7.915093671000022],[99.60142641400006,7.916080501000067],[99.60721503300005,7.9135864560000755],[99.60990325900008,7.911171237000076],[99.61554700400006,7.910827484000038],[99.62151911600006,7.913480002000028],[99.62570893200007,7.913769968000054],[99.62850312900008,7.912493667000035],[99.62914995300008,7.909409645000039],[99.62928366700004,7.890676681000059],[99.63027753700004,7.884549754000034],[99.63008934400006,7.8776060410000355],[99.63785285000006,7.873375253000063],[99.63782662700004,7.871003777000055],[99.63995801700008,7.870214013000066],[99.64445692700008,7.872396417000061],[99.65274173400007,7.871233716000063],[99.65352953800004,7.867329853000058],[99.65637039300003,7.864586759000076],[99.65798202800005,7.860909071000037],[99.66050041300008,7.860479736000059],[99.66150946100004,7.857465091000051],[99.66862863000006,7.851326376000031],[99.67963155500007,7.851083598000059],[99.68798923600008,7.846614805000058],[99.69307621000007,7.845816968000065],[99.69993146700006,7.8512775560000705],[99.70657656600008,7.857819282000037],[99.71057522100006,7.860111845000063],[99.71495707400004,7.8654873930000235],[99.71340193200007,7.870709095000052],[99.71140317200008,7.872867585000051],[99.71072602000004,7.877103440000042],[99.70671366700009,7.881413695000049],[99.70712736400009,7.883844558000021],[99.70459276700007,7.885557490000053],[99.70788106400005,7.890247112000054],[99.70779763700006,7.891856035000046],[99.71302833600004,7.894851915000061],[99.71415343500007,7.897981432000051],[99.71136803400003,7.901027214000067],[99.71213197600008,7.907894696000028],[99.71013505100007,7.910932699000057],[99.71032661700008,7.917478772000038],[99.70812469300006,7.922422390000065],[99.71697862900004,7.930039769000075],[99.73333869500004,7.925975137000023],[99.73541038900004,7.922889285000053],[99.74044621000007,7.926631396000062]]]},"properties":{"Shape_Leng":0.923109437201,"Shape_Area":0.0176050445682,"ADM2_EN":"Ratsada","ADM2_TH":"รัษฎา","ADM2_PCODE":"TH9209","ADM1_EN":"Trang","ADM1_TH":"ตรัง","ADM1_PCODE":"TH92","ADM0_EN":"Thailand","ADM0_TH":"ประเทศไทย","ADM0_PCODE":"TH"}},
{"type":"Feature","geometry":{"type":"MultiPolygon","coordinates":[[[[99.53533181600005,7.287531280000053],[99.53422548200007,7.283441574000051],[99.53248083900007,7.2822914680000395],[99.53105222900007,7.278345858000023],[99.52966680900005,7.269179313000052],[99.52703244300005,7.262882123000054],[99.52344728300005,7.2596182470000485],[99.52219795100007,7.25354765000003],[99.52235044700006,7.249726210000063],[99.52680491900009,7.243571658000064],[99.54034726700007,7.2319288710000365],[99.54530099500005,7.224014923000027],[99.55816330200008,7.208770734000041],[99.56339980300004,7.19804816900006],[99.56894931300008,7.182307798000068],[99.57456940800006,7.169853594000074],[99.57741525500006,7.157631102000039],[99.57922119100004,7.156872427000053],[99.58512979600005,7.147189421000064],[99.58903066200008,7.150766524000062],[99.59188697500008,7.151865254000029],[99.59527980800004,7.1580941040000425],[99.59906437300003,7.15641465300007],[99.60111624700005,7.153894012000023],[99.60000861500004,7.149924887000054],[99.60223622600006,7.144106418000035],[99.59982130700007,7.139645452000025],[99.60410721800008,7.136687259000041],[99.60733272700008,7.136606707000055],[99.61303333700005,7.138631576000023],[99.62096743300003,7.14609254100003],[99.62347897700005,7.149959468000077],[99.62932920500003,7.156110858000034],[99.63339990300005,7.158864154000071],[99.63771552600008,7.16474392300006],[99.64159856800006,7.16576010600005],[99.63966555400003,7.175813707000032],[99.63338121700008,7.185291728000038],[99.61667509600005,7.199870648000058],[99.61326999800008,7.204727761000072],[99.61280830600003,7.2107925520000435],[99.61628787500007,7.216331941000021],[99.62702627700008,7.22686660200003],[99.63139982800004,7.231813869000064],[99.63979348400005,7.246755608000058],[99.64063899700005,7.250807683000062],[99.64072026700006,7.261082294000062],[99.64200943700007,7.264944651000064],[99.64168866500006,7.2795328350000545],[99.63933410900006,7.280190593000043],[99.63752933700005,7.2782362530000455],[99.63475012800006,7.278670297000076],[99.63102924600008,7.286483842000052],[99.63201641600006,7.29203349200003],[99.62864103000004,7.297706152000046],[99.62012202200003,7.298487604000059],[99.61372645800009,7.303321102000041],[99.60879017800005,7.303426214000069],[99.60319117300008,7.306498518000069],[99.59870826800005,7.307570464000037],[99.59151595700007,7.311493747000043],[99.58753238100007,7.315720480000039],[99.58393046200007,7.313326023000059],[99.57979875500007,7.312900940000077],[99.57348935700008,7.317938239000057],[99.56801660600007,7.321111064000036],[99.56634343100006,7.317794045000028],[99.55444220700008,7.3026915110000346],[99.55373282100004,7.295461455000066],[99.55243522500007,7.292608099000063],[99.54685272900008,7.2895613380000555],[99.53533181600005,7.287531280000053]]],[[[99.58419193700007,7.134331294000049],[99.57933296200008,7.133184727000071],[99.58343835000005,7.132372903000032],[99.58419193700007,7.134331294000049]]]]},"properties":{"Shape_Leng":0.575782533389,"Shape_Area":0.0130695613313,"ADM2_EN":"Hat Samran","ADM2_TH":"หาดสำราญ","ADM2_PCODE":"TH9210","ADM1_EN":"Trang","ADM1_TH":"ตรัง","ADM1_PCODE":"TH92","ADM0_EN":"Thailand","ADM0_TH":"ประเทศไทย","ADM0_PCODE":"TH"}}
]}