{"type":"FeatureCollection", "features": [
{"type":"Feature","geometry":{"type":"Polygon","coordinates":[[[102.77834746100007,12.436211358000037],[102.77923758700007,12.431561542000054],[102.77799219000008,12.426081478000071],[102.77314874900009,12.423716228000046],[102.77058534400004,12.425588181000023],[102.76527779300005,12.426603365000062],[102.75726887500008,12.426970207000068],[102.75452711100007,12.428990149000072],[102.75283922000006,12.426760452000053],[102.75507515600003,12.424620970000035],[102.75308434000004,12.422313767000048],[102.75157163800009,12.423633318000043],[102.74757282500008,12.419226345000027],[102.74582078900005,12.419914300000073],[102.74146386300004,12.414306371000066],[102.73781474800006,12.412050325000052],[102.73416144000004,12.412578801000052],[102.73314585300005,12.409759956000073],[102.72953042600005,12.409496975000025],[102.72517925300008,12.41116401100004],[102.72502780200006,12.409248696000077],[102.72195446800004,12.407991478000042],[102.72179965900006,12.405109860000039],[102.71805325500009,12.406005570000048],[102.71575649700009,12.404045912000072],[102.71396309400006,12.404739308000046],[102.70945005000004,12.397886349000032],[102.70983236600006,12.39588167100004],[102.70712955200008,12.397530277000044],[102.70575596000003,12.39507278700006],[102.70184383200007,12.396048073000031],[102.70060872000005,12.399040287000048],[102.69699442400008,12.400187484000071],[102.69718800600003,12.402445770000043],[102.69348372600007,12.405214171000068],[102.68830065100008,12.405749680000042],[102.67654332700005,12.405643243000043],[102.66978134700008,12.398981899000034],[102.66855608900005,12.395193857000038],[102.66594030800007,12.396220157000073],[102.66180702300005,12.39469648100004],[102.65975450500008,12.396165883000037],[102.65549011300004,12.394751900000074],[102.65568862500004,12.397254510000039],[102.65167697100009,12.395877942000027],[102.64965415600005,12.39715317100007],[102.64277838700008,12.396252392000065],[102.64157852900007,12.399383692000072],[102.63929171200004,12.397721366000042],[102.64083947300009,12.395543175000057],[102.63727171400006,12.395922245000065],[102.63399296500006,12.393055841000034],[102.62833811300004,12.392995443000075],[102.62530840200009,12.39593110900006],[102.62261033800007,12.39659185000005],[102.62065180300004,12.401161152000043],[102.61673101900004,12.400816188000022],[102.61086366000006,12.404852222000045],[102.61114125900008,12.409549490000074],[102.60699923200008,12.414652258000046],[102.60914220600006,12.418648568000037],[102.61106507400007,12.428006094000068],[102.60927442200006,12.429124315000024],[102.60669990800005,12.436387805000038],[102.60306691600005,12.440464975000054],[102.60194466600007,12.443151434000072],[102.59844827000006,12.442618968000033],[102.59651441000005,12.444841962000055],[102.59180788500004,12.444679950000022],[102.58868224100007,12.441750692000028],[102.58122567200007,12.446109532000037],[102.58045130400006,12.451144965000026],[102.57903360700004,12.450424289000068],[102.57601173700004,12.452432575000046],[102.57666163200008,12.458928098000058],[102.57450032800006,12.463391026000068],[102.57442455400007,12.46774675000006],[102.57121322300009,12.469523902000049],[102.56968261200007,12.467781615000035],[102.56528657400008,12.466277838000053],[102.56237497700005,12.468056015000059],[102.56052267500007,12.466787754000052],[102.56078267800007,12.46387634000007],[102.55888066300008,12.465209396000034],[102.55417338700005,12.465324793000036],[102.55172808200007,12.466569153000023],[102.55062063200006,12.465044023000075],[102.55162488000008,12.461923312000067],[102.54928438900004,12.462675183000044],[102.55045130800005,12.45854455600005],[102.54739827300006,12.45750460100004],[102.54003159000007,12.45022126200007],[102.53682020700006,12.449707042000057],[102.53834352000007,12.445225867000033],[102.53574250400004,12.442825940000034],[102.53413828700008,12.443725237000024],[102.52969603100007,12.441272856000069],[102.52778520000004,12.44218429600005],[102.52833491000007,12.439241394000021],[102.52344402400007,12.435868234000054],[102.52326507600009,12.433352112000023],[102.52130620000008,12.431559050000033],[102.52277571300004,12.42940145600005],[102.52118478600005,12.428060943000048],[102.52373530900007,12.42310070600007],[102.52161994800008,12.41894355100004],[102.52355786400005,12.419160998000052],[102.52098373400008,12.416294699000048],[102.52315635700006,12.413277668000035],[102.52251711200006,12.41007563200003],[102.52464066100003,12.407766156000037],[102.51961794800008,12.404348347000052],[102.51989003800009,12.400856889000067],[102.51737468700009,12.398844051000026],[102.52098587200004,12.39621138800004],[102.51834975900005,12.39428915600007],[102.52084310800007,12.391241019000063],[102.51924972200004,12.391223488000037],[102.51938316300004,12.385835156000041],[102.51696253800009,12.385221229000024],[102.51153160300004,12.386358204000032],[102.50604753700009,12.381296836000047],[102.50501635800003,12.383491658000025],[102.49926175000007,12.380142876000036],[102.50035879200004,12.375013602000024],[102.50016028800007,12.370863006000036],[102.49531885600004,12.371089268000048],[102.49239005300007,12.364961892000053],[102.49184693900008,12.361287852000032],[102.49611627800004,12.361790297000027],[102.49881599800005,12.358158634000063],[102.49887868100006,12.354271119000032],[102.49757058600005,12.351639229000057],[102.49377463400003,12.349592524000059],[102.49503136600003,12.342507969000053],[102.49375266200008,12.338913298000023],[102.49527287500007,12.333290410000075],[102.50042840000003,12.325225471000067],[102.49713583200008,12.323965668000028],[102.49657300000007,12.325528078000048],[102.49195991300007,12.325273398000036],[102.48849055300008,12.326905100000033],[102.48161928600007,12.322223184000052],[102.47939462800008,12.317663634000041],[102.47756181200003,12.31076627300007],[102.47553710100004,12.309114350000073],[102.47696399800009,12.304130987000065],[102.47932165700007,12.300919578000048],[102.47754820000006,12.298578296000073],[102.47567568400007,12.299346693000075],[102.47116624500006,12.297915012000033],[102.46413375700007,12.298300854000047],[102.46230341700004,12.297291495000024],[102.46212063400009,12.299823945000071],[102.45890980500008,12.302614085000073],[102.45271152100008,12.301315758000044],[102.44759979000008,12.302695572000061],[102.44476787700006,12.30583636700004],[102.43666173700007,12.301928602000032],[102.43080488800007,12.30502634000004],[102.42693090000006,12.303279364000048],[102.42236833200008,12.303319909000038],[102.42019209700004,12.301529947000063],[102.41489522300009,12.29953742400005],[102.41214944700005,12.300077017000035],[102.40932002700004,12.302637531000073],[102.40757844700005,12.301441014000034],[102.40647987900007,12.296042862000036],[102.40419161500006,12.296107567000035],[102.40370602000007,12.293222840000055],[102.40880623400005,12.29077297200007],[102.41199529200009,12.28709806300003],[102.40770731600009,12.281527001000029],[102.40337752600004,12.283538924000027],[102.39932380700009,12.276693746000035],[102.39687306300004,12.27492275800006],[102.39844149400005,12.271967768000025],[102.40711856000007,12.270208592000074],[102.40416146500007,12.267009088000066],[102.40550198100004,12.261903950000033],[102.40304518500005,12.25290661400004],[102.40627274000008,12.248773870000036],[102.40765476900003,12.244035906000022],[102.40714543500007,12.238567361000037],[102.41023539900004,12.235172658000067],[102.41259937600006,12.234119479000071],[102.41274881200007,12.231971417000068],[102.41546987200007,12.230175409000026],[102.42488697700009,12.229678484000033],[102.43219067800004,12.226026353000066],[102.43286886300007,12.22248931300004],[102.43725624300004,12.221294263000061],[102.44285942200008,12.215399968000042],[102.44693888300009,12.209724692000066],[102.44965433700008,12.208645291000039],[102.45885022700008,12.21004173600005],[102.45872833300007,12.20611103400006],[102.46095056400009,12.203658616000041],[102.46111953500008,12.197767745000021],[102.46333850200006,12.195212493000042],[102.46439882500005,12.189754870000058],[102.46542399300006,12.190439217000062],[102.46742552300009,12.186858098000073],[102.47620626100007,12.189863049000053],[102.47787179000005,12.187222159000044],[102.47399088200007,12.183125679000057],[102.46804704700008,12.18053744100007],[102.47041002900005,12.17790309000003],[102.47166276700005,12.173915493000038],[102.47376686100006,12.174425597000038],[102.47456245300003,12.172181950000038],[102.47302956400006,12.169902186000058],[102.47358865800004,12.167203452000024],[102.47221483800007,12.164422066000043],[102.47388010600008,12.160510509000062],[102.46842405700005,12.158895112000039],[102.46734412700005,12.15500079800006],[102.46801266000006,12.15038699400003],[102.47233377600008,12.143625314000076],[102.47599241800003,12.140454955000052],[102.48317861400005,12.136743335000062],[102.49573762000006,12.132185990000039],[102.51355668500008,12.124998854000069],[102.52527356700006,12.118929713000057],[102.53189979900009,12.113520406000077],[102.53801882700009,12.106324545000064],[102.54134731000005,12.099575059000074],[102.54244275900004,12.095032463000052],[102.54541668800005,12.09306453000005],[102.54989356700008,12.08654881900003],[102.55137023800006,12.082738734000031],[102.55090846400009,12.080010112000025],[102.54840386500007,12.075486660000024],[102.55088661800005,12.071156514000052],[102.54916406900008,12.066449496000075],[102.54973022000007,12.064290732000075],[102.54764378400006,12.058718912000074],[102.55232690700007,12.057230598000046],[102.55591662600006,12.054809527000032],[102.55759094900009,12.056242628000064],[102.55871955600009,12.053776993000042],[102.56316354300009,12.05360333300007],[102.56712909100008,12.049557850000042],[102.56918506500006,12.052037858000062],[102.57362134400006,12.051613694000025],[102.57358684200005,12.050553558000047],[102.57881397700004,12.049548113000071],[102.57953750200005,12.047152251000057],[102.58210608800005,12.04628570400007],[102.58393716600006,12.043207813000038],[102.58631665700005,12.046163627000055],[102.58613366100008,12.048951633000058],[102.58920149100004,12.053712700000062],[102.58857879200008,12.059089067000059],[102.58597847800007,12.061611601000038],[102.58370055300009,12.066678052000043],[102.58396815000003,12.069284598000024],[102.58023314100006,12.074124242000039],[102.57337744500006,12.078287351000029],[102.57427156800009,12.082786055000042],[102.57327971900008,12.086903609000046],[102.56780501100008,12.089239192000036],[102.56236707400006,12.090529608000054],[102.55882369800008,12.096370540000066],[102.55960863800004,12.10155065400005],[102.56267217300007,12.103165829000034],[102.56048907200005,12.105600104000075],[102.56027565700003,12.10859227700007],[102.56398684700008,12.111644891000026],[102.56353217800006,12.114128868000023],[102.56679772600006,12.117059227000027],[102.56175197200008,12.122053270000038],[102.56143158100008,12.126527127000031],[102.55632952800005,12.131155026000044],[102.56079376000008,12.142360750000023],[102.55969961100004,12.145677559000035],[102.56082471400003,12.146952347000024],[102.55754673200005,12.153387672000065],[102.55537267200003,12.16169194400004],[102.55777224400003,12.164979568000035],[102.56779308100005,12.166804743000057],[102.57346807500005,12.165106956000045],[102.57237644800006,12.170405247000076],[102.56635718500007,12.173667977000036],[102.56648319400006,12.179312339000035],[102.55790959700005,12.182429291000062],[102.55690380700008,12.185173232000068],[102.56197220900003,12.185107765000055],[102.56296423000003,12.188460010000028],[102.56652042800005,12.19062632300006],[102.56506616700005,12.194113363000042],[102.56085039600003,12.196568452000065],[102.56220383500005,12.198592795000025],[102.57109101000003,12.19793506800005],[102.57104345500005,12.20052393800006],[102.57313445700004,12.20197852800004],[102.57508051700006,12.200843794000036],[102.57738343700004,12.20381177300004],[102.58031019500004,12.203616386000022],[102.58614997800004,12.207838650000042],[102.59115729200005,12.210403494000047],[102.59464453700008,12.208660764000058],[102.59771376800006,12.205290210000044],[102.60118512000008,12.203138017000072],[102.61202845400004,12.200645788000031],[102.61275072100005,12.198047337000048],[102.61689564400007,12.194333997000058],[102.63384392000006,12.185341851000032],[102.63719923200006,12.182931198000063],[102.64441997900008,12.176281200000062],[102.64652351100005,12.169401479000044],[102.64863551800005,12.165935406000074],[102.64674310600009,12.16620692500004],[102.64758529900007,12.163048270000047],[102.64495337500006,12.159649433000027],[102.64562733000008,12.157806364000066],[102.64835358300007,12.157116356000074],[102.64587781800009,12.154690558000027],[102.64265648800006,12.154979626000056],[102.63651989900006,12.157335183000043],[102.63043097700006,12.15687719300007],[102.62632836800009,12.15426717400004],[102.62477031100008,12.151434996000035],[102.62626081600007,12.148116449000042],[102.63229702300004,12.143356807000032],[102.63754647200005,12.140497527000036],[102.63709143100004,12.138449597000033],[102.64223131200004,12.133575852000035],[102.64753471200004,12.13036084600003],[102.65617468600004,12.126017932000025],[102.66722651800006,12.11777091700003],[102.67237057300008,12.111302371000022],[102.67858725800005,12.105908559000056],[102.69380811100007,12.094586966000065],[102.69679720800008,12.091178316000025],[102.71311130600009,12.077450199000054],[102.72751657900005,12.067045913000072],[102.72753363300006,12.065857012000038],[102.73214127500006,12.061090148000062],[102.74290973500007,12.052386760000047],[102.74274880400009,12.052032215000054],[102.75379018600006,12.042019550000077],[102.75531537400008,12.038646248000077],[102.76009254600007,12.033261387000039],[102.76639060400004,12.022134336000022],[102.76693772100003,12.018512057000066],[102.76583716900006,12.017232152000076],[102.76575170400008,12.006907658000046],[102.77117779700006,11.991671041000075],[102.77072003700005,11.985320253000054],[102.76839988600005,11.98373057200007],[102.77120800500006,11.982766640000023],[102.77298271800004,11.97695976700004],[102.77862594900006,11.970385049000072],[102.78067520600007,11.97137605200004],[102.78054371600007,11.97521092900007],[102.77898465300007,11.981425470000033],[102.78238548700006,11.984979630000055],[102.78049738200008,11.989520850000076],[102.78045685800004,11.996213819000047],[102.77793102900006,12.000798619000022],[102.77689429500003,12.005002020000063],[102.77642650000007,12.01378058000006],[102.78078799100007,12.023451464000061],[102.77431764700003,12.033920721000072],[102.77479639900008,12.041269146000047],[102.77402457100004,12.046795786000075],[102.77433405200009,12.055041982000034],[102.77110078200008,12.060649768000076],[102.76963781700005,12.067069348000075],[102.77140471200005,12.069361712000045],[102.77080398000004,12.074109968000073],[102.76838551400004,12.075539735000064],[102.76576032100007,12.074769382000056],[102.76079678200006,12.079863315000068],[102.75799399300007,12.080713166000066],[102.75625511700008,12.088246944000048],[102.75232431100005,12.094341764000035],[102.74900054500006,12.095258318000049],[102.74549088800006,12.100248931000067],[102.73664215600007,12.107777036000073],[102.73401754300005,12.113378196000042],[102.73487576800005,12.116867685000045],[102.73351292300003,12.123001700000032],[102.72969353000008,12.130031488000043],[102.72547915000007,12.131361998000045],[102.72053147800005,12.135253600000055],[102.71703847600008,12.142415017000076],[102.71169004300003,12.150411777000045],[102.71023717900005,12.155314627000052],[102.71049157900006,12.16140088000003],[102.70874695800006,12.168612534000033],[102.70528843600005,12.172145658000034],[102.70609133400006,12.181018658000028],[102.70805727200008,12.187105777000056],[102.71184983100005,12.192738382000073],[102.71255102300006,12.197327600000051],[102.71067386100003,12.199811071000056],[102.70951782700007,12.206573047000063],[102.71310259600006,12.219898009000076],[102.71430305200005,12.221541510000066],[102.71818752100006,12.22153673300005],[102.71932881700008,12.230225829000062],[102.71829486400009,12.233471442000052],[102.71881938200005,12.241262663000043],[102.71818518400005,12.249978787000032],[102.71472183400004,12.25601044800004],[102.71407737900006,12.264723401000026],[102.71687847300007,12.268020123000042],[102.72031229700008,12.276959016000035],[102.72339918300008,12.289239423000026],[102.72598202800003,12.295746498000028],[102.72741340100004,12.302990430000023],[102.72664619700004,12.305983887000025],[102.72734574700007,12.312539427000047],[102.72640800100004,12.319176006000077],[102.72755353100007,12.322939873000053],[102.72677477600007,12.329374575000031],[102.72440400700003,12.33342570800005],[102.72584585300007,12.339511861000062],[102.72464177900008,12.345934355000054],[102.72487210400004,12.35360871000006],[102.72617545400004,12.364192703000072],[102.72709941500005,12.36618013900005],[102.73249973600008,12.370236830000067],[102.73239101600007,12.372841276000031],[102.73432719900006,12.37575193400005],[102.73721562200006,12.376440543000058],[102.74043257800008,12.380725817000041],[102.74252085500007,12.386684377000051],[102.75200385000005,12.392025102000048],[102.75521710500004,12.392083300000024],[102.75904587700006,12.393643550000036],[102.77221441800003,12.393906322000078],[102.77920480600005,12.400108641000031],[102.78477718200008,12.400747257000035],[102.78760074000007,12.410923031000038],[102.78645057200004,12.419831454000075],[102.78206027600004,12.431366314000059],[102.78159951200007,12.434616997000035],[102.77834746100007,12.436211358000037]]]},"properties":{"Shape_Leng":2.56111597753,"Shape_Area":0.0788346174123,"ADM2_EN":"Mueang Trat","ADM2_TH":"เมืองตราด","ADM2_PCODE":"TH2301","ADM1_EN":"Trat","ADM1_TH":"ตราด","ADM1_PCODE":"TH23","ADM0_EN":"Thailand","ADM0_TH":"ประเทศไทย","ADM0_PCODE":"TH"}},
{"type":"Feature","geometry":{"type":"Polygon","coordinates":[[[102.76839988600005,11.98373057200007],[102.76586887600007,11.984447162000038],[102.76689279400006,11.980099142000029],[102.77883221300004,11.96144233900003],[102.78426848100008,11.947757754000065],[102.78468204800004,11.94174648400002],[102.78256800800006,11.930969524000034],[102.78158116500003,11.92914287800005],[102.77574456500008,11.928183900000022],[102.77340843300004,11.924317694000024],[102.77338588300006,11.915879012000062],[102.77654078100005,11.908088985000063],[102.78344901700007,11.898752631000036],[102.79585729000007,11.884325070000045],[102.80286569300006,11.875701078000077],[102.81679294500003,11.85768052700007],[102.83010983900004,11.839123646000075],[102.83985782500008,11.826861501000053],[102.85748672900007,11.805571487000066],[102.87130328100005,11.788291878000052],[102.87627242900004,11.78057672500006],[102.88048212700005,11.773077297000043],[102.88119603500007,11.770707585000025],[102.88853940100006,11.759384440000076],[102.89483386800003,11.746855982000056],[102.89868608500007,11.73547215700006],[102.89324128200008,11.733151307000071],[102.90006460700005,11.733252191000076],[102.89856094800007,11.731962795000072],[102.90686093800008,11.712272125000027],[102.90550778800008,11.707747532000042],[102.90555066400003,11.700350637000042],[102.90380050400006,11.698196341000028],[102.90386485000005,11.692611675000023],[102.90239101000009,11.691633230000036],[102.90216573900005,11.688285454000038],[102.90071286100004,11.68705938200003],[102.90113468400006,11.683195835000049],[102.90459256900004,11.676170112000023],[102.90374506900008,11.673756533000073],[102.90496649400006,11.667136821000042],[102.90609773900007,11.655124059000059],[102.90935229500008,11.650028158000055],[102.91456044800003,11.651316971000028],[102.91543483100008,11.654008837000049],[102.91332291900005,11.658126218000064],[102.91293147500005,11.665704911000034],[102.91363762900005,11.667821357000037],[102.91268327500006,11.672460167000054],[102.91343404100007,11.678250526000056],[102.91138119200008,11.680103355000028],[102.91163722900006,11.694048991000045],[102.91235635800007,11.703017600000067],[102.91152083900005,11.706542574000025],[102.91067230300007,11.718078838000054],[102.91138823700004,11.729607581000039],[102.91077862700007,11.741103871000064],[102.91203197800007,11.74540269800002],[102.90937829600006,11.749514976000057],[102.90462956100004,11.768293222000068],[102.90230873000007,11.772576594000043],[102.89802936200005,11.777255662000073],[102.89429453300005,11.782855655000049],[102.89333788300007,11.786006937000025],[102.89086722900004,11.788166024000077],[102.88204540900006,11.790042984000024],[102.88186076400007,11.792372774000057],[102.88391651000006,11.794281615000045],[102.88627771600005,11.799912677000066],[102.88134651400009,11.800340407000022],[102.87653969400009,11.803147220000028],[102.87409907000006,11.803027131000022],[102.86674074700005,11.806145010000023],[102.86313009200006,11.812165095000069],[102.86366017100005,11.815540251000073],[102.86217203400008,11.819518724000034],[102.86258953400005,11.823951839000074],[102.86001069300005,11.826563498000041],[102.85360154300008,11.825860598000077],[102.84892882000008,11.83276754800005],[102.84629195700006,11.843110767000042],[102.84473086000008,11.84558779400004],[102.83837070200008,11.849877681000066],[102.83535955100007,11.85350993700007],[102.83316610100007,11.857696662000023],[102.82859551700005,11.86996491800005],[102.82625510500009,11.872503874000074],[102.82004266900009,11.892049029000077],[102.82154002500005,11.895097123000028],[102.82098976100008,11.90169505700004],[102.82242066700007,11.905185780000068],[102.82118233600005,11.909393265000062],[102.81848717500009,11.912692219000064],[102.82011465600004,11.916229366000039],[102.81369280600006,11.922064420000027],[102.81348074300007,11.926523215000032],[102.81505210200004,11.927910734000022],[102.81636571600006,11.932024369000032],[102.80991266100006,11.944422128000042],[102.80532435700007,11.947419832000037],[102.80118661700004,11.948222465000072],[102.79606064800004,11.957580115000042],[102.79711895300005,11.961982481000064],[102.79493748800007,11.965558110000075],[102.79397402800004,11.970612465000045],[102.79137042400004,11.976460841000062],[102.78422595500007,11.97751323500006],[102.78452023000006,11.979045928000062],[102.78238548700006,11.984979630000055],[102.77898465300007,11.981425470000033],[102.78054371600007,11.97521092900007],[102.78067520600007,11.97137605200004],[102.77862594900006,11.970385049000072],[102.77298271800004,11.97695976700004],[102.77120800500006,11.982766640000023],[102.76839988600005,11.98373057200007]]]},"properties":{"Shape_Leng":0.911390251073,"Shape_Area":0.00620320710037,"ADM2_EN":"Khlong Yai","ADM2_TH":"คลองใหญ่","ADM2_PCODE":"TH2302","ADM1_EN":"Trat","ADM1_TH":"ตราด","ADM1_PCODE":"TH23","ADM0_EN":"Thailand","ADM0_TH":"ประเทศไทย","ADM0_PCODE":"TH"}},
{"type":"Feature","geometry":{"type":"Polygon","coordinates":[[[102.55172808200007,12.466569153000023],[102.55514719800004,12.470656881000025],[102.56164921700008,12.475764752000032],[102.56241917000006,12.478240688000028],[102.55993538300004,12.483330064000029],[102.55716935900006,12.483704456000055],[102.55478411800004,12.489317954000057],[102.55549398500006,12.494651220000037],[102.55307107700008,12.49655324400004],[102.55124521700009,12.505720291000046],[102.54814358100003,12.506107396000061],[102.54742003100006,12.508584993000056],[102.54211793600007,12.51208381300006],[102.53808783700003,12.512548233000075],[102.53513843300004,12.511264348000054],[102.53129450000006,12.514518055000053],[102.52938953100005,12.512655030000076],[102.52860765500009,12.516042003000052],[102.52555843800008,12.512344486000075],[102.52327101500003,12.514185379000025],[102.51882559100005,12.510602669000036],[102.51352486900004,12.51272705100007],[102.51336852400004,12.510853052000073],[102.51071740000003,12.510291686000073],[102.50928385200007,12.51239367200003],[102.50635931600004,12.511689354000055],[102.50677387900004,12.514836873000036],[102.50238391800008,12.511436134000064],[102.49787920400007,12.512647934000029],[102.49479906500005,12.510011874000043],[102.49516789600005,12.505700403000048],[102.49042408300005,12.501815917000044],[102.49018436200004,12.499125203000062],[102.48553108900006,12.498012293000045],[102.48449595700004,12.493544049000036],[102.48310562100005,12.49332492700006],[102.48410355200008,12.49783192600006],[102.48059582200005,12.49891117900006],[102.48248359300004,12.501133573000061],[102.48489477100009,12.510062487000027],[102.48469407500005,12.519454640000049],[102.48224134300006,12.529577846000052],[102.48014167100007,12.535292408000032],[102.47777444300004,12.536121150000042],[102.47824827700003,12.538767327000073],[102.47096342200007,12.545958840000026],[102.46963942600007,12.549713090000068],[102.46910289100003,12.557773562000023],[102.46745654700004,12.562010431000033],[102.46190530500007,12.566813947000071],[102.45835798400009,12.572531482000045],[102.45066323600008,12.580512350000049],[102.44351652300008,12.584533104000059],[102.44148399700003,12.587422240000024],[102.44136387700007,12.591118207000022],[102.44373138700007,12.601621282000053],[102.44283417700007,12.603205151000054],[102.43461611000004,12.603456360000052],[102.43106772400006,12.606047156000045],[102.42815744800004,12.611823604000051],[102.42253886800006,12.612983211000028],[102.42042099900004,12.615706429000056],[102.41472900000008,12.61923919000003],[102.41300430000007,12.624017147000075],[102.40894422600007,12.630353608000064],[102.40491969700008,12.640374275000056],[102.39993828500008,12.643354824000028],[102.39481502600006,12.643565308000063],[102.38940523300005,12.645337882000035],[102.39395692800008,12.63989473600003],[102.39025022600003,12.633129132000022],[102.39327973300004,12.628094178000026],[102.39639330000006,12.628919224000072],[102.39745628800006,12.626865586000065],[102.39776827900005,12.621774835000053],[102.39940575000008,12.622545670000022],[102.40156560000008,12.618395379000049],[102.40016865800004,12.617490940000039],[102.40162017800009,12.615063642000052],[102.39836256200005,12.615800000000036],[102.39639724400007,12.614551138000024],[102.39742228000006,12.608376184000065],[102.39211351800009,12.610075436000045],[102.38824564900005,12.609861628000033],[102.38924534900008,12.607294165000042],[102.38781985600008,12.604445984000051],[102.39011985800005,12.605844004000062],[102.39269725400004,12.601475157000039],[102.39451217300007,12.601112172000057],[102.39527302900007,12.598361788000034],[102.39702432600006,12.599303625000061],[102.40037167200006,12.595807096000044],[102.40008133600008,12.593664663000027],[102.40355570200006,12.58975930500003],[102.40739044100008,12.589044035000029],[102.40783969100005,12.585932050000054],[102.41012061500004,12.58674783400005],[102.41444480100006,12.583662202000028],[102.41669257100006,12.578696999000044],[102.41883498100003,12.579498693000062],[102.41916891200003,12.576307659000065],[102.42360148700004,12.573173189000045],[102.42409405600006,12.571159772000044],[102.42018676800006,12.56868819600004],[102.42001264400005,12.570959438000045],[102.41711920400007,12.571588037000026],[102.41632101900007,12.567780244000062],[102.41428613600004,12.570088510000062],[102.40892848500005,12.568947528000024],[102.40763129200008,12.569874840000068],[102.40522839700009,12.56750702000005],[102.40212531800006,12.56708455300003],[102.39750909400004,12.569143246000067],[102.39661453300005,12.571417577000034],[102.39775715100006,12.573852198000054],[102.39222805600008,12.574279260000026],[102.39233830700005,12.57657720900005],[102.38854380000004,12.576568248000058],[102.38728484600006,12.581887664000021],[102.38429343100006,12.58382460000007],[102.38132434000005,12.582575514000041],[102.37840402500007,12.58670470800007],[102.37890389700004,12.591165907000061],[102.37595342000009,12.592531932000043],[102.37649318900009,12.59591245200005],[102.37038655500004,12.597329419000062],[102.36434944500007,12.595584465000059],[102.36053605500007,12.596665580000035],[102.35369667400005,12.594364307000035],[102.35183002800005,12.591282501000023],[102.35003359300003,12.591839280000045],[102.34567481500005,12.589707948000068],[102.34505390400005,12.58786561900007],[102.34457730900004,12.578886628000078],[102.34252000700008,12.571821390000025],[102.33692452100007,12.565598198000032],[102.33668517200005,12.563886382000021],[102.33262251200006,12.564189431000045],[102.32714063000009,12.562920933000044],[102.32378261300005,12.559165319000044],[102.32014155900004,12.560121493000054],[102.31221003600007,12.556977086000074],[102.30507654600007,12.556464629000061],[102.30657594500008,12.551239524000039],[102.30592440300006,12.548571199000037],[102.30860571100004,12.54589052700004],[102.31214788400007,12.545087881000029],[102.31472182300007,12.542404773000044],[102.31685711200004,12.53671877000005],[102.31499649100004,12.530777578000027],[102.31213395600008,12.528865213000074],[102.31485453200008,12.52703430400004],[102.31455794300007,12.52451207100006],[102.31934260300005,12.52344187500006],[102.32360615000005,12.520864862000053],[102.32513969600006,12.518511726000042],[102.32549977500008,12.520937826000022],[102.33128957700006,12.520013348000077],[102.33766269400007,12.514013367000075],[102.33721456400008,12.511463672000048],[102.33457487300007,12.510588049000035],[102.33671667700008,12.509530718000065],[102.33791843800009,12.504106992000061],[102.33609082300006,12.50391219900007],[102.33451925100007,12.499175884000067],[102.33287674700006,12.498906283000053],[102.33361184900008,12.495529024000064],[102.33592720300004,12.49333024200007],[102.33452456400005,12.491187032000028],[102.33952387500005,12.485703323000052],[102.34007366800006,12.482892500000048],[102.34199799300006,12.48138197700007],[102.34157085700008,12.476044100000024],[102.33741338300007,12.470860515000027],[102.33828142100003,12.467229007000071],[102.33656194200006,12.463551448000032],[102.33425819000007,12.46391843500004],[102.33359839600007,12.461513787000058],[102.33108960700008,12.461558060000073],[102.32987887900003,12.458417280000049],[102.32632876600007,12.458658916000047],[102.32697703700006,12.455713005000064],[102.32380148900006,12.455446356000039],[102.32000933100005,12.452717660000076],[102.31986984100007,12.448447834000035],[102.32468297200006,12.448190389000047],[102.32615018200005,12.446032029000037],[102.32899187500004,12.446476964000055],[102.32938883700007,12.440351608000071],[102.32687541700005,12.437061688000028],[102.32669893400004,12.433050058000049],[102.32520485000003,12.427866872000038],[102.32618038900006,12.42611663100007],[102.33123368500009,12.422945948000063],[102.33426566700007,12.418147700000077],[102.34189070700006,12.416698621000023],[102.34989835200008,12.413224484000068],[102.35449872000004,12.409590654000056],[102.35735337000006,12.405994522000071],[102.36178729600005,12.403972493000026],[102.36709599500006,12.403288383000074],[102.36802264900007,12.401984238000068],[102.36958438600004,12.394490038000072],[102.37177469300008,12.389910273000055],[102.37112968700006,12.387284223000051],[102.36587734300008,12.38671389600006],[102.36231274600004,12.383302029000049],[102.35978795300008,12.376847977000068],[102.35784783700007,12.375141621000068],[102.35153133700004,12.372361991000048],[102.34471918100007,12.363260600000046],[102.34781414000008,12.350615839000056],[102.34728986100004,12.341649033000067],[102.34578865100008,12.337529692000032],[102.33838435100006,12.326863334000052],[102.32600491500006,12.317789238000046],[102.31906653300007,12.310534438000047],[102.31167587900006,12.304315553000038],[102.30463963500006,12.301585619000036],[102.28594096000006,12.299069017000022],[102.28265031900008,12.28003255300007],[102.28343577400005,12.277654337000058],[102.29090705800007,12.27301270700002],[102.29291153200006,12.273266264000029],[102.29935420300006,12.271155218000047],[102.30202779000007,12.26913034100005],[102.31152254200003,12.25875297500005],[102.31602489700003,12.256734055000038],[102.31927567200006,12.259053126000026],[102.32229714400006,12.257618040000068],[102.32655631300008,12.258647793000023],[102.32859472200005,12.254105053000046],[102.33186140300006,12.252393546000064],[102.33563853900006,12.256550964000041],[102.33794202600006,12.256865222000044],[102.34418564400005,12.252463387000034],[102.34819078900006,12.253244725000059],[102.35288666200006,12.262627510000073],[102.35879310500007,12.263476051000055],[102.36191675900005,12.265409718000058],[102.36388055500004,12.264982408000037],[102.37120156400005,12.271802280000031],[102.37460142900005,12.27190095800006],[102.37762688000004,12.274447666000071],[102.37610431100006,12.283492587000069],[102.37705556700007,12.288246008000044],[102.38277948200005,12.287056737000057],[102.38488523800004,12.284801625000057],[102.38820938000003,12.28433545400003],[102.39416377600008,12.279824158000054],[102.39194776100004,12.272701976000064],[102.39844149400005,12.271967768000025],[102.39687306300004,12.27492275800006],[102.39932380700009,12.276693746000035],[102.40337752600004,12.283538924000027],[102.40770731600009,12.281527001000029],[102.41199529200009,12.28709806300003],[102.40880623400005,12.29077297200007],[102.40370602000007,12.293222840000055],[102.40419161500006,12.296107567000035],[102.40647987900007,12.296042862000036],[102.40757844700005,12.301441014000034],[102.40932002700004,12.302637531000073],[102.41214944700005,12.300077017000035],[102.41489522300009,12.29953742400005],[102.42019209700004,12.301529947000063],[102.42236833200008,12.303319909000038],[102.42693090000006,12.303279364000048],[102.43080488800007,12.30502634000004],[102.43666173700007,12.301928602000032],[102.44476787700006,12.30583636700004],[102.44759979000008,12.302695572000061],[102.45271152100008,12.301315758000044],[102.45890980500008,12.302614085000073],[102.46212063400009,12.299823945000071],[102.46230341700004,12.297291495000024],[102.46413375700007,12.298300854000047],[102.47116624500006,12.297915012000033],[102.47567568400007,12.299346693000075],[102.47754820000006,12.298578296000073],[102.47932165700007,12.300919578000048],[102.47696399800009,12.304130987000065],[102.47553710100004,12.309114350000073],[102.47756181200003,12.31076627300007],[102.47939462800008,12.317663634000041],[102.48161928600007,12.322223184000052],[102.48849055300008,12.326905100000033],[102.49195991300007,12.325273398000036],[102.49657300000007,12.325528078000048],[102.49713583200008,12.323965668000028],[102.50042840000003,12.325225471000067],[102.49527287500007,12.333290410000075],[102.49375266200008,12.338913298000023],[102.49503136600003,12.342507969000053],[102.49377463400003,12.349592524000059],[102.49757058600005,12.351639229000057],[102.49887868100006,12.354271119000032],[102.49881599800005,12.358158634000063],[102.49611627800004,12.361790297000027],[102.49184693900008,12.361287852000032],[102.49239005300007,12.364961892000053],[102.49531885600004,12.371089268000048],[102.50016028800007,12.370863006000036],[102.50035879200004,12.375013602000024],[102.49926175000007,12.380142876000036],[102.50501635800003,12.383491658000025],[102.50604753700009,12.381296836000047],[102.51153160300004,12.386358204000032],[102.51696253800009,12.385221229000024],[102.51938316300004,12.385835156000041],[102.51924972200004,12.391223488000037],[102.52084310800007,12.391241019000063],[102.51834975900005,12.39428915600007],[102.52098587200004,12.39621138800004],[102.51737468700009,12.398844051000026],[102.51989003800009,12.400856889000067],[102.51961794800008,12.404348347000052],[102.52464066100003,12.407766156000037],[102.52251711200006,12.41007563200003],[102.52315635700006,12.413277668000035],[102.52098373400008,12.416294699000048],[102.52355786400005,12.419160998000052],[102.52161994800008,12.41894355100004],[102.52373530900007,12.42310070600007],[102.52118478600005,12.428060943000048],[102.52277571300004,12.42940145600005],[102.52130620000008,12.431559050000033],[102.52326507600009,12.433352112000023],[102.52344402400007,12.435868234000054],[102.52833491000007,12.439241394000021],[102.52778520000004,12.44218429600005],[102.52969603100007,12.441272856000069],[102.53413828700008,12.443725237000024],[102.53574250400004,12.442825940000034],[102.53834352000007,12.445225867000033],[102.53682020700006,12.449707042000057],[102.54003159000007,12.45022126200007],[102.54739827300006,12.45750460100004],[102.55045130800005,12.45854455600005],[102.54928438900004,12.462675183000044],[102.55162488000008,12.461923312000067],[102.55062063200006,12.465044023000075],[102.55172808200007,12.466569153000023]]]},"properties":{"Shape_Leng":1.82733081879,"Shape_Area":0.0538644633303,"ADM2_EN":"Khao Saming","ADM2_TH":"เขาสมิง","ADM2_PCODE":"TH2303","ADM1_EN":"Trat","ADM1_TH":"ตราด","ADM1_PCODE":"TH23","ADM0_EN":"Thailand","ADM0_TH":"ประเทศไทย","ADM0_PCODE":"TH"}},
{"type":"Feature","geometry":{"type":"Polygon","coordinates":[[[102.77834746100007,12.436211358000037],[102.77664548200005,12.434760502000074],[102.77312721600003,12.435683702000063],[102.76932730200008,12.442590078000023],[102.76969152800007,12.44845930200006],[102.76807743500007,12.450260839000066],[102.76765925300003,12.45411124800006],[102.76492493200004,12.456585097000072],[102.75411349600006,12.456699874000037],[102.75188745000008,12.46157841300004],[102.75028318000005,12.46238875000006],[102.74648695400003,12.457751298000062],[102.74404844800006,12.460219063000068],[102.74409042300005,12.463140468000063],[102.74105241800004,12.466157658000043],[102.73747868500004,12.46572886100006],[102.73771162700007,12.474438679000059],[102.74045069200008,12.482465054000045],[102.73502417300006,12.486643540000046],[102.73421917200005,12.489122073000033],[102.72893344900007,12.489992964000066],[102.72531156600007,12.486270361000038],[102.72071692000009,12.486333871000056],[102.72045487900004,12.491532347000032],[102.72494795700004,12.494829461000052],[102.72586771800007,12.496755027000063],[102.72347733600009,12.501775917000032],[102.72916295700009,12.509060945000044],[102.72871584900008,12.511949696000045],[102.72444969200006,12.512990105000029],[102.71560964800005,12.507358340000053],[102.71127490300006,12.508358849000047],[102.70990944300007,12.511201293000056],[102.70661884200007,12.511667399000032],[102.70485125700009,12.513899816000048],[102.70591077700004,12.516807308000068],[102.70389362400005,12.52013941100006],[102.69699894600006,12.519554490000075],[102.69516385500003,12.522831203000067],[102.69737488900006,12.525601044000041],[102.69430491000008,12.529041666000069],[102.69335599900006,12.531769200000042],[102.68400918100008,12.53791738700005],[102.67990927000005,12.537537645000043],[102.67817817800005,12.538630316000024],[102.67861014100004,12.54317558200006],[102.68460586600008,12.546737266000036],[102.68548122400006,12.548797361000027],[102.68353598600004,12.54993521800003],[102.68089201700008,12.554289440000048],[102.67718866800004,12.55865820200006],[102.66879688500006,12.563455408000038],[102.66884493300006,12.568664358000035],[102.66788857600005,12.573454008000056],[102.66352719100007,12.579282410000076],[102.66133954200006,12.583466230000056],[102.65925765100008,12.582055386000036],[102.65106522700006,12.582282010000029],[102.64453335400003,12.585754248000057],[102.64560090000003,12.588937325000074],[102.64545514700006,12.594561287000033],[102.64752969800008,12.595968479000021],[102.64805872500006,12.600754473000052],[102.64592353800003,12.610956015000056],[102.64302069400009,12.61216369400006],[102.64037650500006,12.610953298000027],[102.63187617900007,12.609848789000068],[102.62984042300008,12.61024259100003],[102.62791478000008,12.61467076100007],[102.62368031800008,12.615870219000044],[102.62072255200007,12.615082280000024],[102.61641176100005,12.615907844000048],[102.61372676900004,12.620006319000026],[102.60835133600006,12.624036613000044],[102.60553120900005,12.62836638400006],[102.59838725700007,12.630757025000037],[102.59740752300007,12.632936445000041],[102.59352695200005,12.635680080000043],[102.59279862300008,12.63858226900004],[102.58811529000008,12.640508104000048],[102.58556893400004,12.64397789000003],[102.58182015700004,12.645741764000036],[102.58050269300008,12.652828229000022],[102.57594505200007,12.654140879000067],[102.57071939200006,12.654074568000055],[102.56757938000004,12.658200675000046],[102.55320580300008,12.652498863000062],[102.54975950900007,12.655863870000076],[102.54437015000008,12.655960871000048],[102.53901952300004,12.652048045000072],[102.53391343200008,12.652892353000027],[102.53138625500009,12.654248420000044],[102.52381506900008,12.660347063000074],[102.52123046600008,12.661328398000023],[102.51657976700005,12.665500518000044],[102.51534753800007,12.668031109000026],[102.51022080100006,12.670657506000055],[102.50870387600008,12.67761303900005],[102.50513753400008,12.68347989800003],[102.50907286700004,12.686466959000029],[102.51000552200009,12.691804256000069],[102.50706590500005,12.696511687000054],[102.50220391600004,12.701142401000027],[102.49736401200005,12.704069025000024],[102.50026105100005,12.707024028000035],[102.50371842300007,12.712776045000055],[102.50276805600004,12.720581820000064],[102.50390974100009,12.723708257000055],[102.50425321500006,12.732710372000042],[102.50045674000006,12.74029768400004],[102.50277700400005,12.74222198700005],[102.50555944800004,12.746512696000025],[102.50762102800007,12.752436102000047],[102.50323996700007,12.75362172900003],[102.49832688800007,12.756671638000057],[102.49116729900004,12.757238753000024],[102.48963229900005,12.752843416000076],[102.48071106100008,12.745720863000031],[102.47963699000007,12.742031791000045],[102.47582904200004,12.736457096000038],[102.46427424300003,12.733349628000042],[102.46044334600003,12.735934228000076],[102.45864384100008,12.732931166000071],[102.45585932000006,12.734391388000063],[102.44892466800007,12.735231845000044],[102.44537112700004,12.737327505000053],[102.44112632600007,12.73671330600007],[102.44002923700003,12.730993500000068],[102.43500160400004,12.72948586900003],[102.42991916500006,12.722849858000075],[102.42550119200007,12.723883839000052],[102.42568607800007,12.71653840700003],[102.42427596700009,12.715143301000069],[102.42419982900009,12.711265496000067],[102.42145262800005,12.711516154000037],[102.42079829100004,12.70874923100007],[102.41553142400005,12.70701890500004],[102.40998888200005,12.700688910000054],[102.40826079600004,12.701368063000075],[102.40711755500007,12.698742375000052],[102.40404824600006,12.700646808000045],[102.40051733000007,12.698689710000053],[102.40340634000006,12.693630841000072],[102.40227388900007,12.691808771000069],[102.39939628700006,12.691556669000022],[102.39719828300008,12.689067589000047],[102.39379161300008,12.688094179000075],[102.39247253900004,12.685655387000054],[102.39513338700004,12.681575459000044],[102.39369354100006,12.678394408000031],[102.39053401900009,12.679676021000034],[102.38528671300008,12.67949346000006],[102.38349821300005,12.673286247000021],[102.38571283400006,12.669996960000049],[102.38655988300007,12.665575424000053],[102.38477119300006,12.663240446000032],[102.38508607100005,12.660900776000062],[102.38754426900005,12.65840432400006],[102.38733988500007,12.653279227000041],[102.38870583800008,12.65161945400007],[102.38768248200006,12.648578559000043],[102.38940523300005,12.645337882000035],[102.39481502600006,12.643565308000063],[102.39993828500008,12.643354824000028],[102.40491969700008,12.640374275000056],[102.40894422600007,12.630353608000064],[102.41300430000007,12.624017147000075],[102.41472900000008,12.61923919000003],[102.42042099900004,12.615706429000056],[102.42253886800006,12.612983211000028],[102.42815744800004,12.611823604000051],[102.43106772400006,12.606047156000045],[102.43461611000004,12.603456360000052],[102.44283417700007,12.603205151000054],[102.44373138700007,12.601621282000053],[102.44136387700007,12.591118207000022],[102.44148399700003,12.587422240000024],[102.44351652300008,12.584533104000059],[102.45066323600008,12.580512350000049],[102.45835798400009,12.572531482000045],[102.46190530500007,12.566813947000071],[102.46745654700004,12.562010431000033],[102.46910289100003,12.557773562000023],[102.46963942600007,12.549713090000068],[102.47096342200007,12.545958840000026],[102.47824827700003,12.538767327000073],[102.47777444300004,12.536121150000042],[102.48014167100007,12.535292408000032],[102.48224134300006,12.529577846000052],[102.48469407500005,12.519454640000049],[102.48489477100009,12.510062487000027],[102.48248359300004,12.501133573000061],[102.48059582200005,12.49891117900006],[102.48410355200008,12.49783192600006],[102.48310562100005,12.49332492700006],[102.48449595700004,12.493544049000036],[102.48553108900006,12.498012293000045],[102.49018436200004,12.499125203000062],[102.49042408300005,12.501815917000044],[102.49516789600005,12.505700403000048],[102.49479906500005,12.510011874000043],[102.49787920400007,12.512647934000029],[102.50238391800008,12.511436134000064],[102.50677387900004,12.514836873000036],[102.50635931600004,12.511689354000055],[102.50928385200007,12.51239367200003],[102.51071740000003,12.510291686000073],[102.51336852400004,12.510853052000073],[102.51352486900004,12.51272705100007],[102.51882559100005,12.510602669000036],[102.52327101500003,12.514185379000025],[102.52555843800008,12.512344486000075],[102.52860765500009,12.516042003000052],[102.52938953100005,12.512655030000076],[102.53129450000006,12.514518055000053],[102.53513843300004,12.511264348000054],[102.53808783700003,12.512548233000075],[102.54211793600007,12.51208381300006],[102.54742003100006,12.508584993000056],[102.54814358100003,12.506107396000061],[102.55124521700009,12.505720291000046],[102.55307107700008,12.49655324400004],[102.55549398500006,12.494651220000037],[102.55478411800004,12.489317954000057],[102.55716935900006,12.483704456000055],[102.55993538300004,12.483330064000029],[102.56241917000006,12.478240688000028],[102.56164921700008,12.475764752000032],[102.55514719800004,12.470656881000025],[102.55172808200007,12.466569153000023],[102.55417338700005,12.465324793000036],[102.55888066300008,12.465209396000034],[102.56078267800007,12.46387634000007],[102.56052267500007,12.466787754000052],[102.56237497700005,12.468056015000059],[102.56528657400008,12.466277838000053],[102.56968261200007,12.467781615000035],[102.57121322300009,12.469523902000049],[102.57442455400007,12.46774675000006],[102.57450032800006,12.463391026000068],[102.57666163200008,12.458928098000058],[102.57601173700004,12.452432575000046],[102.57903360700004,12.450424289000068],[102.58045130400006,12.451144965000026],[102.58122567200007,12.446109532000037],[102.58868224100007,12.441750692000028],[102.59180788500004,12.444679950000022],[102.59651441000005,12.444841962000055],[102.59844827000006,12.442618968000033],[102.60194466600007,12.443151434000072],[102.60306691600005,12.440464975000054],[102.60669990800005,12.436387805000038],[102.60927442200006,12.429124315000024],[102.61106507400007,12.428006094000068],[102.60914220600006,12.418648568000037],[102.60699923200008,12.414652258000046],[102.61114125900008,12.409549490000074],[102.61086366000006,12.404852222000045],[102.61673101900004,12.400816188000022],[102.62065180300004,12.401161152000043],[102.62261033800007,12.39659185000005],[102.62530840200009,12.39593110900006],[102.62833811300004,12.392995443000075],[102.63399296500006,12.393055841000034],[102.63727171400006,12.395922245000065],[102.64083947300009,12.395543175000057],[102.63929171200004,12.397721366000042],[102.64157852900007,12.399383692000072],[102.64277838700008,12.396252392000065],[102.64965415600005,12.39715317100007],[102.65167697100009,12.395877942000027],[102.65568862500004,12.397254510000039],[102.65549011300004,12.394751900000074],[102.65975450500008,12.396165883000037],[102.66180702300005,12.39469648100004],[102.66594030800007,12.396220157000073],[102.66855608900005,12.395193857000038],[102.66978134700008,12.398981899000034],[102.67654332700005,12.405643243000043],[102.68830065100008,12.405749680000042],[102.69348372600007,12.405214171000068],[102.69718800600003,12.402445770000043],[102.69699442400008,12.400187484000071],[102.70060872000005,12.399040287000048],[102.70184383200007,12.396048073000031],[102.70575596000003,12.39507278700006],[102.70712955200008,12.397530277000044],[102.70983236600006,12.39588167100004],[102.70945005000004,12.397886349000032],[102.71396309400006,12.404739308000046],[102.71575649700009,12.404045912000072],[102.71805325500009,12.406005570000048],[102.72179965900006,12.405109860000039],[102.72195446800004,12.407991478000042],[102.72502780200006,12.409248696000077],[102.72517925300008,12.41116401100004],[102.72953042600005,12.409496975000025],[102.73314585300005,12.409759956000073],[102.73416144000004,12.412578801000052],[102.73781474800006,12.412050325000052],[102.74146386300004,12.414306371000066],[102.74582078900005,12.419914300000073],[102.74757282500008,12.419226345000027],[102.75157163800009,12.423633318000043],[102.75308434000004,12.422313767000048],[102.75507515600003,12.424620970000035],[102.75283922000006,12.426760452000053],[102.75452711100007,12.428990149000072],[102.75726887500008,12.426970207000068],[102.76527779300005,12.426603365000062],[102.77058534400004,12.425588181000023],[102.77314874900009,12.423716228000046],[102.77799219000008,12.426081478000071],[102.77923758700007,12.431561542000054],[102.77834746100007,12.436211358000037]]]},"properties":{"Shape_Leng":1.65125728523,"Shape_Area":0.0564132310129,"ADM2_EN":"Bo Rai","ADM2_TH":"บ่อไร่","ADM2_PCODE":"TH2304","ADM1_EN":"Trat","ADM1_TH":"ตราด","ADM1_PCODE":"TH23","ADM0_EN":"Thailand","ADM0_TH":"ประเทศไทย","ADM0_PCODE":"TH"}},
{"type":"Feature","geometry":{"type":"MultiPolygon","coordinates":[[[[102.39844149400005,12.271967768000025],[102.39194776100004,12.272701976000064],[102.39416377600008,12.279824158000054],[102.38820938000003,12.28433545400003],[102.38488523800004,12.284801625000057],[102.38277948200005,12.287056737000057],[102.37705556700007,12.288246008000044],[102.37610431100006,12.283492587000069],[102.37762688000004,12.274447666000071],[102.37460142900005,12.27190095800006],[102.37120156400005,12.271802280000031],[102.36388055500004,12.264982408000037],[102.36191675900005,12.265409718000058],[102.35879310500007,12.263476051000055],[102.35288666200006,12.262627510000073],[102.34819078900006,12.253244725000059],[102.34418564400005,12.252463387000034],[102.33794202600006,12.256865222000044],[102.33563853900006,12.256550964000041],[102.33186140300006,12.252393546000064],[102.32859472200005,12.254105053000046],[102.32655631300008,12.258647793000023],[102.32229714400006,12.257618040000068],[102.31927567200006,12.259053126000026],[102.31602489700003,12.256734055000038],[102.31152254200003,12.25875297500005],[102.30202779000007,12.26913034100005],[102.29935420300006,12.271155218000047],[102.29291153200006,12.273266264000029],[102.29090705800007,12.27301270700002],[102.28343577400005,12.277654337000058],[102.28265031900008,12.28003255300007],[102.28594096000006,12.299069017000022],[102.27817086800007,12.299054244000047],[102.27187716500003,12.300015475000066],[102.26518275400008,12.299612892000027],[102.26182613000009,12.297796063000021],[102.25776175800007,12.29291971300006],[102.25881964200005,12.288531639000041],[102.26220947200005,12.28657697400007],[102.26470733700006,12.280515809000065],[102.26587536900007,12.274499357000025],[102.26529942300004,12.272103215000072],[102.26261168600007,12.272583999000062],[102.26094587900008,12.27103319500003],[102.26266824600003,12.268862467000076],[102.26482600200006,12.268903660000035],[102.27388083700004,12.259325132000072],[102.27984197000006,12.251064018000022],[102.28309589600008,12.244689183000048],[102.28621786500008,12.23998057800003],[102.28707696800006,12.236633289000054],[102.28607161700006,12.233994560000042],[102.28831778600005,12.233264166000026],[102.28883652400003,12.22998414400007],[102.28716540800008,12.223965126000053],[102.28521771000004,12.221531772000048],[102.27732588200007,12.22287787700003],[102.27779645900006,12.220855847000053],[102.28020817100008,12.220253681000031],[102.28248968800006,12.213823684000033],[102.27923227300005,12.21044134500005],[102.28105455300005,12.210104239000032],[102.27755592200003,12.206848966000052],[102.28179188700005,12.199774525000066],[102.28135563500007,12.198269829000026],[102.28537718700005,12.197457349000047],[102.28640927000004,12.194637241000066],[102.28971589100007,12.19243625200005],[102.28880403000005,12.190965926000047],[102.29594071400004,12.186771409000073],[102.29971604700006,12.188064132000022],[102.30015018700004,12.18625277600006],[102.30313812200006,12.186713907000069],[102.30645847400007,12.188919800000065],[102.31338765400005,12.182911767000064],[102.31728950800004,12.182664163000027],[102.32070574000005,12.184763605000057],[102.32245391900005,12.180843652000021],[102.32496188200008,12.180311415000062],[102.32731746800005,12.18307994600002],[102.32490428400007,12.184942317000036],[102.32608712700005,12.190112721000048],[102.33332637800004,12.196597473000054],[102.33792414800007,12.19742750000006],[102.34172584300006,12.199254331000077],[102.34700937100007,12.199180573000035],[102.35466074500005,12.194290457000022],[102.35450142200006,12.192438588000073],[102.35857394200008,12.194175900000062],[102.36099787200004,12.19304743400005],[102.36292827700004,12.194380758000023],[102.36844983900005,12.193447124000045],[102.37825872100007,12.183825377000062],[102.38150805600009,12.181931732000066],[102.38780469500006,12.17983823700007],[102.39109866200005,12.171974843000044],[102.39832170700004,12.168592751000062],[102.40502153600005,12.168857288000027],[102.41483617800009,12.170016434000047],[102.42988070500007,12.169808346000025],[102.43614995400009,12.168901432000041],[102.44588577100006,12.165473982000037],[102.46019899400005,12.16381393100005],[102.46855721300005,12.165037136000024],[102.47221483800007,12.164422066000043],[102.47358865800004,12.167203452000024],[102.47302956400006,12.169902186000058],[102.47456245300003,12.172181950000038],[102.47376686100006,12.174425597000038],[102.47166276700005,12.173915493000038],[102.47041002900005,12.17790309000003],[102.46804704700008,12.18053744100007],[102.47399088200007,12.183125679000057],[102.47787179000005,12.187222159000044],[102.47620626100007,12.189863049000053],[102.46742552300009,12.186858098000073],[102.46542399300006,12.190439217000062],[102.46439882500005,12.189754870000058],[102.46333850200006,12.195212493000042],[102.46111953500008,12.197767745000021],[102.46095056400009,12.203658616000041],[102.45872833300007,12.20611103400006],[102.45885022700008,12.21004173600005],[102.44965433700008,12.208645291000039],[102.44693888300009,12.209724692000066],[102.44285942200008,12.215399968000042],[102.43725624300004,12.221294263000061],[102.43286886300007,12.22248931300004],[102.43219067800004,12.226026353000066],[102.42488697700009,12.229678484000033],[102.41546987200007,12.230175409000026],[102.41274881200007,12.231971417000068],[102.41259937600006,12.234119479000071],[102.41023539900004,12.235172658000067],[102.40714543500007,12.238567361000037],[102.40765476900003,12.244035906000022],[102.40627274000008,12.248773870000036],[102.40304518500005,12.25290661400004],[102.40550198100004,12.261903950000033],[102.40416146500007,12.267009088000066],[102.40711856000007,12.270208592000074],[102.39844149400005,12.271967768000025]]],[[[102.33877759900008,12.185359005000066],[102.34037415100005,12.186513384000023],[102.33836076800009,12.18897512600006],[102.33877759900008,12.185359005000066]]]]},"properties":{"Shape_Leng":0.882461169922,"Shape_Area":0.0138916828674,"ADM2_EN":"Laem Ngop","ADM2_TH":"แหลมงอบ","ADM2_PCODE":"TH2305","ADM1_EN":"Trat","ADM1_TH":"ตราด","ADM1_PCODE":"TH23","ADM0_EN":"Thailand","ADM0_TH":"ประเทศไทย","ADM0_PCODE":"TH"}},
{"type":"Feature","geometry":{"type":"MultiPolygon","coordinates":[[[[102.52161579300008,11.679577441000049],[102.52393525700006,11.683673862000035],[102.52351414400005,11.686462395000035],[102.52209269100007,11.684788001000072],[102.52161579300008,11.679577441000049]]],[[[102.51699247800008,11.725003857000047],[102.51260999500005,11.725442831000066],[102.51493783100005,11.721521676000066],[102.51501620900007,11.717409991000068],[102.51981931900008,11.708984066000028],[102.52115130100003,11.70820113800005],[102.52573111300006,11.715712480000036],[102.52213302400008,11.723408565000057],[102.51944124400006,11.725943364000045],[102.51699247800008,11.725003857000047]]],[[[102.55521934500007,11.760885851000069],[102.55373295100009,11.76221520200005],[102.54818942400004,11.760394972000029],[102.54412565100006,11.752532732000077],[102.54592565200005,11.751750869000034],[102.54635587200005,11.748604632000024],[102.54545213100005,11.742186781000044],[102.54715240400009,11.74176557100003],[102.54744530100004,11.738238268000032],[102.54377363500004,11.736324792000062],[102.53999628100007,11.732942025000057],[102.54173143100007,11.729037814000037],[102.53944292600005,11.725959743000033],[102.53663383800006,11.726703212000075],[102.53452264500004,11.724367671000039],[102.53442309900004,11.721866207000062],[102.53633043400004,11.715428580000037],[102.53921353700008,11.71242780600005],[102.53904881400007,11.707866936000073],[102.54101940400005,11.705782415000044],[102.53994305900005,11.701205519000041],[102.53817195100004,11.70118711400005],[102.53638608400007,11.697127281000064],[102.53346644100009,11.696543600000041],[102.53257840600008,11.698601204000056],[102.52868670300006,11.698396690000038],[102.52733711200005,11.695312252000065],[102.52768535200005,11.68609802800006],[102.53021984800006,11.684579495000037],[102.52992809300008,11.680996856000036],[102.53138517800005,11.681818374000045],[102.53381110500004,11.677265025000054],[102.53209471600007,11.673683529000073],[102.53247504200004,11.67047341600005],[102.53450853600003,11.66622889200005],[102.53031216800008,11.663832307000064],[102.52968424700003,11.66148052400007],[102.52426887900003,11.657160532000034],[102.52760318000009,11.656776163000075],[102.53344687900005,11.653139020000026],[102.53711101300007,11.646123928000065],[102.53818158300004,11.642658661000041],[102.53759875700007,11.640014610000037],[102.53976953200004,11.637589066000032],[102.54356852400008,11.63767684100003],[102.54543976900004,11.630848258000071],[102.54462577400005,11.629549778000069],[102.54544544700008,11.622542628000076],[102.54260761500007,11.621449269000038],[102.54247526500006,11.619144591000065],[102.53276715000004,11.618709066000065],[102.53001548100008,11.614898983000046],[102.53493125400007,11.615971486000035],[102.53622602000007,11.611744775000034],[102.53438880000004,11.609514724000064],[102.53266312900007,11.61118305900004],[102.52879660500008,11.610040264000077],[102.52616016500008,11.607473667000022],[102.52683747100008,11.60414044600003],[102.53071034400006,11.603166588000022],[102.53847501500007,11.60370074900004],[102.54202526200004,11.601543788000072],[102.54473032400006,11.595271663000062],[102.54656927100007,11.596212692000051],[102.54721877900005,11.591639465000071],[102.54796430800008,11.593892162000031],[102.55117539400004,11.596730473000036],[102.55421952500006,11.596695233000048],[102.55791805000007,11.593881682000074],[102.55711026100005,11.591891823000026],[102.56084113100007,11.591145272000063],[102.56486663600003,11.59434125200005],[102.56679498700004,11.593851004000044],[102.57145859800005,11.589301841000065],[102.57067478900007,11.581793840000046],[102.56832802000008,11.578905903000077],[102.56844944200009,11.57656146200003],[102.57071980400008,11.574029404000044],[102.57629380800006,11.573163215000022],[102.58295555500007,11.567407866000053],[102.58500491300003,11.56490255400007],[102.59074106100007,11.562053701000025],[102.59401353300007,11.563002815000061],[102.59477368900008,11.569105322000041],[102.59350741600008,11.570711052000036],[102.59594147100006,11.578145262000021],[102.59353577200005,11.581795986000031],[102.59418314700008,11.587753879000047],[102.59317267600005,11.593343275000052],[102.59666316800008,11.59699646000007],[102.59658633300006,11.60443213800005],[102.60117835300008,11.606175307000058],[102.60037144300009,11.609408056000063],[102.59663876600007,11.609442449000028],[102.58984627800004,11.604942576000042],[102.58829697200008,11.607031552000024],[102.58848017700006,11.612862826000026],[102.59197831000006,11.61389772900003],[102.59172743300007,11.616516000000047],[102.59597066200007,11.617881385000032],[102.59224126600009,11.620694610000044],[102.60097416200006,11.62337460200007],[102.60310465600008,11.62713980600006],[102.59755909800003,11.626994638000042],[102.59540519300003,11.628637825000055],[102.60431213800007,11.633777103000057],[102.60634215300007,11.639085261000048],[102.60582434600008,11.641011584000069],[102.60788167500004,11.64434606900005],[102.60786089300007,11.648377551000067],[102.60903593200004,11.651287034000063],[102.60853621300004,11.656398060000072],[102.60684349200005,11.658693178000021],[102.60613936300007,11.662473402000046],[102.60385368000004,11.66731788900006],[102.60361368400004,11.670834413000023],[102.60085708500009,11.677144568000074],[102.60243991300007,11.68228039500002],[102.60247967300006,11.686818789000029],[102.60844206600007,11.689084360000038],[102.60507983000008,11.695916399000055],[102.60029967200006,11.699949767000021],[102.59840796900005,11.694318880000026],[102.59058915800006,11.694399726000029],[102.58904263600004,11.696146887000054],[102.58907925100004,11.703566919000025],[102.58640722900009,11.704090861000054],[102.58366834200007,11.709260586000028],[102.57914793300006,11.711998137000023],[102.57850393300004,11.707965276000039],[102.57231546700007,11.707213853000042],[102.57102549800004,11.708342249000054],[102.57077804200009,11.701310311000043],[102.56698253300004,11.699023992000036],[102.56374047500009,11.698339530000055],[102.56460429600008,11.706770666000068],[102.56221640000007,11.712206483000045],[102.56272454000003,11.715156413000045],[102.56569163800003,11.717725555000072],[102.56405070800008,11.721099805000051],[102.56510851300004,11.725491775000023],[102.56744927600005,11.725162382000065],[102.56620627900008,11.728094441000053],[102.56700426100008,11.730201270000066],[102.57090458100004,11.732049708000034],[102.56623172100007,11.735946085000023],[102.56637024600008,11.740719864000027],[102.56223103700006,11.747978709000051],[102.55983174000005,11.748530307000067],[102.55831652900008,11.756993205000072],[102.55521934500007,11.760885851000069]]],[[[102.39471213800005,11.771646934000046],[102.39591806900006,11.775123955000026],[102.39443340800005,11.777175788000022],[102.38935463600006,11.776371058000052],[102.38800991900007,11.774762795000072],[102.39048788700006,11.771416441000042],[102.39471213800005,11.771646934000046]]],[[[102.45102831800006,11.801043426000035],[102.44923865500004,11.797950042000025],[102.45004016800004,11.795297119000054],[102.45274580900008,11.798978903000034],[102.45102831800006,11.801043426000035]]],[[[102.45647935000005,11.80764608100003],[102.45639188600006,11.810006851000026],[102.45317441800006,11.807471343000032],[102.45208933000004,11.80422324600005],[102.45647935000005,11.80764608100003]]],[[[102.38538591000008,11.810831655000072],[102.38224464600006,11.810943295000072],[102.38034023000006,11.807876528000065],[102.38080701800004,11.799038824000036],[102.38458937200005,11.795468282000058],[102.38346228800003,11.789221618000056],[102.38473055900005,11.785394943000028],[102.38383900200006,11.782121442000062],[102.38640588500004,11.776238421000073],[102.38853081700006,11.778474783000036],[102.38815084900006,11.782521244000066],[102.38924777500006,11.784728331000053],[102.39165020500008,11.78520181600004],[102.39066884600004,11.793774591000044],[102.39345873700006,11.796633706000023],[102.39100329900003,11.798708876000035],[102.39175660700005,11.800708396000061],[102.38778006300004,11.807544965000034],[102.38724050600007,11.810597374000054],[102.38538591000008,11.810831655000072]]],[[[102.38631765300005,11.820710879000046],[102.38636951200004,11.823168113000065],[102.38445655200007,11.821906265000052],[102.38631765300005,11.820710879000046]]],[[[102.46043080400005,11.832164308000074],[102.46178480400005,11.833685820000028],[102.46015768600006,11.837577949000035],[102.45916600100009,11.836599884000066],[102.46043080400005,11.832164308000074]]],[[[102.47203962100008,11.839622017000067],[102.46855627100007,11.84002238100004],[102.46831482700009,11.834858456000063],[102.46963190800005,11.833627904000025],[102.47036826400006,11.826157189000071],[102.46751969700006,11.822150560000068],[102.46318994000006,11.819628243000068],[102.46135856300003,11.821045071000071],[102.45446785700005,11.817616672000042],[102.45155053300005,11.818224049000037],[102.45097815800005,11.822681745000068],[102.44974705200008,11.819369493000067],[102.44620246500006,11.818795046000048],[102.44579375700005,11.820046060000038],[102.44409582700007,11.81149035900006],[102.44574830800008,11.807566802000053],[102.44823190100004,11.80762337300007],[102.44852173200007,11.811784501000034],[102.45150458900008,11.81350305500007],[102.45589506900006,11.812849006000022],[102.46105008500007,11.813857189000032],[102.46727142500004,11.812267262000034],[102.47286426200009,11.809156801000029],[102.47781556500007,11.804152331000068],[102.47982204800007,11.798545323000042],[102.48401650700004,11.799073371000077],[102.48699801600009,11.789841884000055],[102.48991710000007,11.79712315100005],[102.48631437700004,11.802487558000053],[102.48587701400004,11.80713477200004],[102.48765700700005,11.809240687000056],[102.48750650400007,11.812169811000047],[102.49142564800007,11.815599925000072],[102.49788780000006,11.814277864000076],[102.50220073800006,11.815590224000061],[102.50380311800006,11.814952590000075],[102.50368522100007,11.811884260000056],[102.50833084500005,11.815998481000065],[102.50800987200006,11.818875879000075],[102.51170509800005,11.826557225000045],[102.50781793600004,11.828327138000077],[102.50635188800004,11.830304653000042],[102.50296072500004,11.83012763000005],[102.49841196300008,11.828135445000044],[102.49491854100006,11.829277070000046],[102.48969064400006,11.827778711000065],[102.48089310100005,11.828902349000032],[102.47070114900004,11.83369930300006],[102.47203962100008,11.839622017000067]]],[[[102.53010752100005,11.834805517000063],[102.53023529200004,11.837553141000058],[102.53293830000007,11.842506526000022],[102.52992784500003,11.84783027900005],[102.52821114800008,11.85260409600005],[102.52555006300008,11.855236262000062],[102.52531089500008,11.851916634000077],[102.51905009600006,11.833810860000028],[102.52314118200007,11.832987604000039],[102.53010752100005,11.834805517000063]]]]},"properties":{"Shape_Leng":1.37378117883,"Shape_Area":0.0107792732453,"ADM2_EN":"Ko Kut","ADM2_TH":"เกาะกูด","ADM2_PCODE":"TH2306","ADM1_EN":"Trat","ADM1_TH":"ตราด","ADM1_PCODE":"TH23","ADM0_EN":"Thailand","ADM0_TH":"ประเทศไทย","ADM0_PCODE":"TH"}},
{"type":"Feature","geometry":{"type":"MultiPolygon","coordinates":[[[[102.45264360700008,11.891984554000032],[102.45330201500008,11.899791322000056],[102.44904586800004,11.901926240000023],[102.44616135000007,11.900088764000031],[102.45025612900008,11.89502420100007],[102.44960269400008,11.893238195000038],[102.45264360700008,11.891984554000032]]],[[[102.39778403200006,11.909204180000074],[102.39578697100006,11.909168909000073],[102.39286094900007,11.905316167000024],[102.39828633000008,11.90355162800006],[102.40066469600004,11.899115560000041],[102.39665176000005,11.898125174000029],[102.39921066900007,11.89609097400006],[102.40627235600004,11.897219532000065],[102.40785053900004,11.893479773000024],[102.41113636400007,11.897446915000046],[102.41392411000004,11.898544971000035],[102.41711848000006,11.901524408000057],[102.41258641400003,11.90461050500005],[102.40802770500005,11.902814675000059],[102.40428684600005,11.903220039000075],[102.39986085300006,11.90656733700007],[102.39778403200006,11.909204180000074]]],[[[102.47228834500004,11.912375416000032],[102.47443000400006,11.917048009000041],[102.47075714800008,11.91866781300007],[102.47228834500004,11.912375416000032]]],[[[102.36446345200005,11.923973115000024],[102.36569601100007,11.928652395000029],[102.36268238000008,11.927787790000025],[102.36054811300005,11.924148570000057],[102.35419309700006,11.922359879000055],[102.34884482600006,11.917473306000034],[102.34446019600006,11.911289594000039],[102.34290630200007,11.906999919000043],[102.34514271300009,11.903052393000053],[102.34374310100009,11.900689777000025],[102.34668079900007,11.90071922800007],[102.34906174800005,11.903197711000075],[102.35245842700004,11.908686622000062],[102.35760344900007,11.912997724000036],[102.36310929200005,11.920068401000037],[102.36446345200005,11.923973115000024]]],[[[102.41095800600004,11.930017159000045],[102.40980778700003,11.933288551000032],[102.40925052900008,11.930142404000037],[102.41095800600004,11.930017159000045]]],[[[102.40897426300006,11.93686404500005],[102.40887237800007,11.939755976000072],[102.40686519900004,11.93851378200003],[102.40897426300006,11.93686404500005]]],[[[102.40741578900008,11.939943695000068],[102.40907570000007,11.941697131000069],[102.40598356700008,11.945379365000065],[102.40267795100004,11.947010714000044],[102.40200297400008,11.943975006000073],[102.40416709900006,11.941105421000032],[102.40741578900008,11.939943695000068]]],[[[102.44527058700004,11.950590772000055],[102.44293034100008,11.953533750000076],[102.43899316300008,11.953754035000031],[102.43937815700008,11.951198100000056],[102.43684372800004,11.950302313000066],[102.43931767000004,11.944873372000075],[102.44318343900005,11.942837269000051],[102.44008320700004,11.946325907000073],[102.43978557500009,11.95041915400003],[102.44369406900006,11.947934705000023],[102.44527058700004,11.950590772000055]]],[[[102.49795103500009,11.959263599000053],[102.49327919100006,11.95802363000007],[102.48740594500003,11.953059421000034],[102.48975727500004,11.949169949000066],[102.49294969000005,11.951997813000048],[102.48991630500007,11.952794697000058],[102.49034105600003,11.954752860000042],[102.49345741700006,11.95475779700007],[102.49533774600008,11.952814660000058],[102.50172009400006,11.955317923000052],[102.50104979000008,11.957259376000025],[102.49795103500009,11.959263599000053]]],[[[102.47352144800004,11.930280249000077],[102.47587050900006,11.932974211000044],[102.47630829600007,11.936126774000059],[102.47977036300006,11.937414966000063],[102.48080787600009,11.941434182000023],[102.48026663200005,11.944446816000038],[102.48182562300008,11.94614131700007],[102.48220273100009,11.951791385000035],[102.47967767900008,11.953071946000023],[102.48289527300005,11.955506223000043],[102.48112173200008,11.959834541000077],[102.47687845000007,11.960356958000034],[102.46989803200006,11.954110023000055],[102.46723461000005,11.946521978000021],[102.46662840600004,11.934297621000042],[102.46807115500008,11.931034820000036],[102.47168451900006,11.929641764000053],[102.47352144800004,11.930280249000077]]],[[[102.48972395100009,11.965146341000036],[102.49246979100008,11.966626206000058],[102.48918694600007,11.966602581000075],[102.48972395100009,11.965146341000036]]],[[[102.39293745300006,11.975606739000057],[102.39026303600008,11.975581659000056],[102.38930099000004,11.972985170000072],[102.39108511500007,11.96960217800006],[102.39353472900007,11.97076319100006],[102.39293745300006,11.975606739000057]]],[[[102.38816184300003,11.988507956000035],[102.38399487200007,11.985230435000062],[102.38583294400007,11.978764453000053],[102.38809806800003,11.977560924000045],[102.38918129100006,11.981023764000042],[102.38683641700004,11.982653837000043],[102.38816184300003,11.988507956000035]]],[[[102.28256075000007,12.018288622000057],[102.28095481600008,12.017475708000063],[102.28343477000004,12.014663662000032],[102.28501749900005,12.01614432200006],[102.28256075000007,12.018288622000057]]],[[[102.26308935000009,12.021813440000074],[102.26262919600003,12.025002612000037],[102.26103854600007,12.022732849000022],[102.26308935000009,12.021813440000074]]],[[[102.25175454300006,12.156834786000047],[102.25019945500009,12.154358781000042],[102.25249547200008,12.151864944000067],[102.25610261700007,12.151766327000075],[102.26037595700006,12.146947187000023],[102.26808540000007,12.145145511000067],[102.26902260000008,12.142353472000025],[102.26817578800006,12.135139938000066],[102.27007075400007,12.134233571000038],[102.26700458200008,12.132680977000064],[102.26062178000006,12.132935463000024],[102.25329567700004,12.135494495000046],[102.24975359600006,12.137746101000062],[102.25209155300007,12.13431405600005],[102.25245155900006,12.130413017000024],[102.25489592000008,12.127235676000055],[102.25964594900006,12.12401789300003],[102.26048926400006,12.121487418000072],[102.26329851400004,12.118897938000032],[102.26932026300005,12.109963223000022],[102.27383956700004,12.10139863300003],[102.27338842200004,12.10008953700003],[102.27609555700008,12.092161801000032],[102.27557977200007,12.089689275000069],[102.27669780100007,12.084814206000033],[102.27533862800004,12.082665968000072],[102.27646228400005,12.07543965800005],[102.27431576400005,12.072597992000055],[102.27715404200006,12.068547212000055],[102.27723351500003,12.066300528000056],[102.28028121500006,12.066991955000049],[102.28388566700005,12.065581793000035],[102.28970770100005,12.057313614000066],[102.29420168100006,12.042878138000049],[102.29342290700004,12.039523484000028],[102.29109279700003,12.038097243000038],[102.29205461500004,12.03559285700004],[102.29049260700003,12.027708123000025],[102.29117760300005,12.024164195000026],[102.28957911400005,12.019653266000034],[102.28978129700005,12.017118445000051],[102.28790036500004,12.015716700000041],[102.28812781800008,12.012866194000026],[102.29366959700008,12.006539461000045],[102.29486046400007,11.999723291000066],[102.29805808400005,11.997004522000054],[102.29720137000004,11.987071722000053],[102.29208816300007,11.985660212000028],[102.29412448900007,11.982220608000034],[102.29652685200006,11.982683726000062],[102.29788902700005,11.980555758000037],[102.30141003900007,11.980961465000064],[102.30529062900007,11.975403637000056],[102.30741005000004,11.968513837000046],[102.31036149300007,11.966188859000056],[102.30995033400006,11.963886442000046],[102.31292929500006,11.96185822600006],[102.31479407900008,11.957388022000032],[102.31668604100008,11.955949630000077],[102.31959563300006,11.958800128000064],[102.31884945600007,11.963391734000027],[102.31394360700006,11.963853038000025],[102.31124745000005,11.96561458900004],[102.31101823900008,11.970701205000069],[102.31670273800006,11.97440868600006],[102.31970800700009,11.973734357000069],[102.32355801700004,11.974633270000027],[102.32650929700009,11.97389107600003],[102.33349715700007,11.975432543000068],[102.33867463000007,11.971825616000046],[102.34237623400008,11.97133238400005],[102.34853733300008,11.967226217000075],[102.34920631700004,11.964650264000056],[102.35579697100007,11.96407197600007],[102.35734210200008,11.965802200000041],[102.35994314300007,11.965016131000027],[102.36185941300005,11.962242165000077],[102.36591618000006,11.963788248000071],[102.36719926800004,11.962110062000022],[102.37389909600006,11.963230762000023],[102.37763796800004,11.964585206000038],[102.37873792800008,11.966997606000064],[102.37827432200004,11.97536598000005],[102.37667343100009,11.97828245200003],[102.37659727600004,11.982223070000032],[102.37333077600005,11.984081435000064],[102.37258710500004,11.987915341000075],[102.37036333500004,11.98975272000007],[102.36916390900006,11.993219124000063],[102.37375997700008,11.998215779000077],[102.38203602400006,12.000543385000071],[102.38655738900007,11.99350441200005],[102.38965060100008,11.994510080000055],[102.39381268000005,11.992032497000025],[102.39660625400006,11.98603597500005],[102.40036702800006,11.98407923800005],[102.39975557600008,11.980207164000035],[102.40384135000005,11.97752022800006],[102.41395750000004,11.96772711500006],[102.42191333500006,11.964768036000066],[102.42332366200009,11.960857314000066],[102.42996797800004,11.959820602000036],[102.43134263000007,11.957243002000041],[102.43011372200004,11.955987180000022],[102.43491548500003,11.951991746000033],[102.43451846700003,11.954366279000055],[102.43717473900006,11.954916599000057],[102.43656141200006,11.958602835000022],[102.43384680600008,11.961120437000034],[102.43795225800005,11.968181032000075],[102.43725432600007,11.970423579000055],[102.44321130500003,11.971016688000077],[102.44231385500007,11.97374399000006],[102.44660629100008,11.976261495000074],[102.44390065100004,11.980250578000039],[102.44089620200003,11.982876960000056],[102.43572071300008,11.984975733000056],[102.43510929300004,11.987276473000065],[102.42915365500005,11.989862536000032],[102.42757941800005,11.996275112000035],[102.42248740600007,12.004592323000054],[102.42330830200007,12.006569763000073],[102.41928649600004,12.008606474000032],[102.41832362200006,12.013835437000068],[102.41545451000007,12.017234022000025],[102.41263229500004,12.023381311000037],[102.40643597900004,12.030613371000072],[102.39964428500008,12.033839337000074],[102.39851383200005,12.035596078000026],[102.39687328800005,12.031736567000053],[102.39342170900005,12.028214369000068],[102.39127183400007,12.028660554000055],[102.39159226100008,12.032749354000032],[102.39486170500004,12.03620434800007],[102.39689867000004,12.036074446000043],[102.39869982700009,12.038804453000068],[102.39931563000005,12.04344299500002],[102.39700416200009,12.04950486100006],[102.39356247800004,12.051776504000031],[102.39070136800007,12.05122844500005],[102.38630666600005,12.04761258700006],[102.38466489900009,12.049849446000053],[102.38379814900009,12.055048642000031],[102.38161956400006,12.056288696000024],[102.38185383700005,12.058712960000037],[102.38433935800003,12.060268952000058],[102.38142254000007,12.06457574600006],[102.38271715500008,12.067933156000038],[102.38034229200008,12.069787155000029],[102.37655467100006,12.069699370000023],[102.37564510000004,12.073045336000064],[102.37047622900008,12.077406174000032],[102.36942928900004,12.08219863200003],[102.36637257400008,12.083375572000023],[102.36308513900008,12.095099312000059],[102.35956557300005,12.097846201000038],[102.35754915300004,12.098109528000066],[102.35538028900004,12.10171917200006],[102.35571187200009,12.108395469000072],[102.35295737100006,12.110215695000022],[102.35309544600005,12.112717648000057],[102.35123534200005,12.113848645000076],[102.34707251800006,12.112541995000072],[102.33951891800007,12.11734419000004],[102.33887650800006,12.119568920000063],[102.33249115300003,12.123850426000047],[102.32647793500007,12.13074578100003],[102.32603795000006,12.133636982000041],[102.32120491000006,12.136265625000021],[102.32011210600007,12.13507467100004],[102.31571024800007,12.135672162000049],[102.31277463700008,12.13860285000004],[102.30792953000008,12.13949221300004],[102.30289453900008,12.142314128000066],[102.29961951900003,12.14171723000004],[102.29759468100008,12.143164799000033],[102.29416048800005,12.142608959000029],[102.29235359900008,12.144039393000071],[102.28556791000005,12.14268634800004],[102.28412001800007,12.140702918000045],[102.27553549600003,12.142400659000032],[102.27505072400004,12.144059666000032],[102.27853007200008,12.146617788000071],[102.27269498700008,12.145215213000029],[102.26778509600007,12.145607811000048],[102.26568105900009,12.14929488100006],[102.25897659500004,12.15286967000003],[102.25618042000008,12.156161463000046],[102.25175454300006,12.156834786000047]]],[[[102.24725539000008,12.163080473000036],[102.24405214900008,12.162468280000041],[102.24801187200006,12.158188083000027],[102.24979290400006,12.160068912000042],[102.24725539000008,12.163080473000036]]]]},"properties":{"Shape_Leng":1.59559809554,"Shape_Area":0.0184760530686,"ADM2_EN":"Ko Chang","ADM2_TH":"เกาะช้าง","ADM2_PCODE":"TH2307","ADM1_EN":"Trat","ADM1_TH":"ตราด","ADM1_PCODE":"TH23","ADM0_EN":"Thailand","ADM0_TH":"ประเทศไทย","ADM0_PCODE":"TH"}}
]}