{"type":"FeatureCollection", "features": [
{"type":"Feature","geometry":{"type":"Polygon","coordinates":[[[100.41266829900007,17.621200642000076],[100.40890479200004,17.62506748900006],[100.40471758500007,17.627224515000023],[100.40091709800004,17.62753289500006],[100.39947326500004,17.631048969000062],[100.39749469200007,17.629811708000034],[100.38667794000008,17.63503759500003],[100.38000148400005,17.634724962000064],[100.37588844600003,17.63845058800007],[100.37672510400006,17.641570135000052],[100.38032248100006,17.642144415000075],[100.38396331200005,17.64759643700006],[100.38211958100004,17.652102180000043],[100.38562754700007,17.657595066000056],[100.38573975500003,17.661761290000072],[100.39035546400004,17.666397766000046],[100.39456673600006,17.67440463300005],[100.39126988400005,17.676471179000032],[100.39084678800003,17.67935172500006],[100.38489222500004,17.68136498100006],[100.38249968400004,17.684144940000067],[100.37488232500004,17.68326042500007],[100.37344577900006,17.68156877100006],[100.36917641700006,17.682564504000027],[100.36808620100004,17.685210978000043],[100.36410002900004,17.684929772000032],[100.35900294500004,17.690456738000023],[100.35561860900003,17.68984743900006],[100.35155729700006,17.69406765800005],[100.35096730900005,17.696333281000022],[100.34803985300005,17.69485959800005],[100.34448831500004,17.69988770200007],[100.33819480900007,17.706709583000077],[100.32587604000008,17.705122505000077],[100.32513710000006,17.71081578600007],[100.31137472700004,17.70859585100004],[100.31208033200005,17.70300176300003],[100.31364994800003,17.70028645600007],[100.31235342500008,17.697116636000032],[100.30784410400008,17.69554035500005],[100.29772563200004,17.694635634000065],[100.28686424900008,17.69209647400004],[100.28841047600008,17.696189997000033],[100.28674463400006,17.701060664000067],[100.28790336600008,17.70646492000003],[100.29076737500009,17.709717561000048],[100.28942235700003,17.71725049500003],[100.29128892300008,17.72081085900004],[100.29163242500005,17.72667608300003],[100.30066602600004,17.72632696200003],[100.30107093700008,17.73267744000003],[100.29760557900005,17.738177861000054],[100.29853676900007,17.74177996000003],[100.29613960700004,17.742704540000034],[100.29415833900003,17.746227668000074],[100.29249735300004,17.754620173000035],[100.28953476400005,17.761124761000076],[100.28115879900008,17.76451306900003],[100.28046263500005,17.76689566700003],[100.28290695500004,17.773377437000022],[100.28274247600007,17.779169125000067],[100.27583500300005,17.78036866700006],[100.27408162000006,17.783467634000033],[100.26993444700008,17.785884509000027],[100.25875897600008,17.78624612300007],[100.25371209300005,17.78947382800004],[100.25393008700007,17.796660209000038],[100.25171183000003,17.804458375000024],[100.24865610700004,17.807505750000075],[100.24266622500005,17.808984145000068],[100.23989334900006,17.805431294000073],[100.22973534100004,17.803820728000062],[100.22663198500004,17.80954676400006],[100.22263756400008,17.813721702000066],[100.21543077900009,17.81603754300005],[100.21174752400003,17.81819566100006],[100.20853164400006,17.822003772000073],[100.20997378100009,17.825258014000042],[100.20780296700008,17.827328000000023],[100.20258447400005,17.82160304000007],[100.19683746000004,17.82049617800004],[100.19517484700003,17.81671924400007],[100.19181114300005,17.815362650000054],[100.18819629200004,17.820352170000035],[100.18260636600007,17.823151274000054],[100.18275240700007,17.825396433000037],[100.17294920500007,17.828983083000026],[100.16909594000003,17.828162407000036],[100.16770549300008,17.82352342300004],[100.16412913300007,17.82244742000006],[100.16069848100005,17.825276211000073],[100.15361959400008,17.826432969000052],[100.14824287200008,17.826118534000045],[100.14838632700008,17.831341009000027],[100.14665813300007,17.836906833000057],[100.13682889300009,17.846202211000048],[100.13608857300005,17.848660236000057],[100.13828405500004,17.850546525000027],[100.13788195700005,17.856675504000066],[100.13412990400008,17.86011837500007],[100.12968986100003,17.856362438000076],[100.12521519500007,17.858759951000025],[100.11984138400004,17.858599060000074],[100.11306709800004,17.85491435800003],[100.11021090000008,17.850327067000023],[100.10021375300005,17.847427461000052],[100.09528875200004,17.851020213000027],[100.08937190000006,17.84700309300007],[100.08804899500007,17.842576122000025],[100.08542810000006,17.84362877600006],[100.08077881300005,17.842413401000044],[100.07559366500004,17.83827847400005],[100.06890184900004,17.840244679000023],[100.06281131400004,17.840323065000064],[100.05929342800005,17.836835835000045],[100.05756748200008,17.833314124000026],[100.05517732400006,17.836903041000028],[100.05076384600005,17.838802668000028],[100.04571678500008,17.846288207000043],[100.04375717400006,17.847831820000067],[100.04196443800004,17.84583866400004],[100.03365252300006,17.843755818000034],[100.03207880700006,17.84095340300007],[100.02994779700003,17.841544759000044],[100.02758464700008,17.838124934000064],[100.02549552000005,17.839731203000042],[100.01584979100005,17.836328609000077],[100.01136717400004,17.83292648400004],[100.00520247000009,17.836839502000032],[100.00188435100006,17.83402854900004],[99.99883934500008,17.83402129500007],[99.99527384200007,17.830758536000076],[99.99851035700004,17.827509187000032],[99.99917442500004,17.821683670000027],[100.00980137000005,17.823659005000025],[100.01418261300006,17.822624822000023],[100.01444370200005,17.827666129000022],[100.01628216200004,17.82773257100007],[100.02098923700004,17.82376904700004],[100.02467222700005,17.822664288000055],[100.02699795700005,17.81758149600006],[100.03013923700007,17.814171473000044],[100.03602998700006,17.811517180000067],[100.03783606500008,17.807792392000067],[100.04570288400004,17.807214334000037],[100.05126925900004,17.802808267000046],[100.06306783100007,17.799576469000044],[100.06531797400004,17.796955952000076],[100.06532310000006,17.793798208000055],[100.07201700500008,17.787320297000065],[100.07344631300003,17.780484647000037],[100.07914120900006,17.777471584000068],[100.08087084000005,17.775087936000034],[100.08885129300006,17.775753654000027],[100.09404648000003,17.77300101000003],[100.09482805900006,17.769068855000057],[100.09709752900005,17.76731729200003],[100.09724862800005,17.763601893000043],[100.10150735100007,17.761212300000068],[100.10359519500008,17.756350862000033],[100.09891499800005,17.748793957000032],[100.09510487200004,17.745679989000053],[100.09466050700007,17.740650799000036],[100.09190686900007,17.73603479700006],[100.09165600400007,17.71934748700005],[100.08733546000008,17.716972988000066],[100.08667325500005,17.707917690000045],[100.08551442400005,17.702401378000047],[100.08600214700004,17.69883803600004],[100.08997080000006,17.694026373000042],[100.09121104700006,17.68765785100004],[100.08793801200005,17.67797534600004],[100.08197338000008,17.679456617000028],[100.08008845900008,17.67790360500004],[100.07117400300007,17.678523040000073],[100.06666510700006,17.67727835000005],[100.07283801300008,17.662136227000076],[100.07308104800006,17.65799015300007],[100.06825477000007,17.653118533000054],[100.06619724200004,17.64920188900004],[100.06549215000007,17.640668774000062],[100.06569111600004,17.627797908000048],[100.07399413300004,17.626000662000024],[100.07556585700007,17.622760695000068],[100.07556393800007,17.61846969800007],[100.06710674900006,17.61024918800007],[100.06115645200003,17.609146241000076],[100.06330791900007,17.606399659000033],[100.06394773500006,17.602541760000065],[100.06687102200004,17.601032172000032],[100.07156563500007,17.59141743500004],[100.07550362700005,17.590456268000025],[100.07681322900004,17.588201628000036],[100.07673879300006,17.582795563000047],[100.07339309500009,17.577131209000072],[100.07177103800007,17.57749485000005],[100.06980778100007,17.573563585000045],[100.07011350100004,17.566185578000045],[100.06717801500008,17.554495966000047],[100.06768601500005,17.54521221400006],[100.06897303600005,17.541068774000053],[100.06606079700003,17.533578460000058],[100.06872953000004,17.525573053000073],[100.07308282500009,17.52181039000004],[100.08024985800006,17.511647835000076],[100.08199569800007,17.510293585000056],[100.08618606200008,17.512009896000052],[100.09498883200007,17.51176147700005],[100.09735328900007,17.51293324200003],[100.10242209600005,17.52109120800003],[100.11108642500005,17.521750672000053],[100.11601914500005,17.523247996000066],[100.12252524400009,17.523687519000077],[100.13225105000004,17.52595896400004],[100.14426554100004,17.53328751300006],[100.15421665900004,17.538740118000078],[100.16261285200005,17.542190273000074],[100.16895777200006,17.54921005600005],[100.17520396500004,17.548337567000033],[100.17830977600005,17.54403991500004],[100.18459544800004,17.54313195700007],[100.18501099500008,17.54141431900007],[100.19021493400004,17.54043186100006],[100.19403204500009,17.538323184000035],[100.19852875000004,17.539948717000073],[100.20293200000003,17.542093586000078],[100.20939203800003,17.548728744000073],[100.21530555800007,17.558367631000067],[100.21866932600005,17.56705906600007],[100.22448938400004,17.572145142000068],[100.23053923400005,17.575967242000047],[100.22782873400007,17.57763426100007],[100.22679725300009,17.58085896600005],[100.23633750700009,17.587630852000075],[100.24199275500007,17.586871549000023],[100.25538707200008,17.591557757000032],[100.25751262900008,17.593830943000057],[100.26025543300005,17.601002578000077],[100.26327299900004,17.603205245000026],[100.26546716300004,17.599178739000024],[100.26812025200007,17.604273531000047],[100.27406843000006,17.602431814000056],[100.27545004600006,17.60375542500003],[100.28661140000008,17.60538900100005],[100.28888537800003,17.608877491000044],[100.28837228400005,17.61302683400004],[100.29188063900006,17.616423332000068],[100.29419537100006,17.62063973000005],[100.30782154500008,17.623562036000067],[100.31310621100005,17.623492621000025],[100.31476982900006,17.625325703000044],[100.31605702700006,17.621622373000037],[100.31943469300006,17.619129558000054],[100.32518125700005,17.61205565700004],[100.33068619800008,17.60896440700003],[100.33185127800004,17.601964855000062],[100.33457642600007,17.597940435000055],[100.34754141500008,17.589273087000038],[100.35294310300009,17.587219185000038],[100.36072829500006,17.58702871500003],[100.36298843900005,17.588083115000074],[100.36743314600005,17.593272084000034],[100.37459862100008,17.59520150000003],[100.38251025400007,17.599257503000047],[100.38900948100007,17.59877864300006],[100.39502362900004,17.601992349000056],[100.40413247200007,17.608053253000037],[100.40418768500007,17.611043881000057],[100.40772836500008,17.617110713000045],[100.41266829900007,17.621200642000076]]]},"properties":{"Shape_Leng":1.75553712563,"Shape_Area":0.0688814976042,"ADM2_EN":"Mueang Uttaradit","ADM2_TH":"เมืองอุตรดิตถ์","ADM2_PCODE":"TH5301","ADM1_EN":"Uttaradit","ADM1_TH":"อุตรดิตถ์","ADM1_PCODE":"TH53","ADM0_EN":"Thailand","ADM0_TH":"ประเทศไทย","ADM0_PCODE":"TH"}},
{"type":"Feature","geometry":{"type":"Polygon","coordinates":[[[100.08024985800006,17.511647835000076],[100.03233329600005,17.486674352000023],[100.01450590800005,17.480360243000064],[100.00741807400004,17.484681478000027],[100.00292388200006,17.488889948000065],[99.99634560700008,17.49280937900005],[99.99163262000008,17.497942590000036],[99.98601317500004,17.50815381600006],[99.98353333800009,17.510938038000063],[99.97617229200006,17.513850610000077],[99.97419360500004,17.51077669500006],[99.96877758300008,17.512089584000023],[99.96187987500008,17.517732292000062],[99.95947743700003,17.521691881000038],[99.95326060400004,17.52158883900006],[99.94800479100007,17.531057881000038],[99.94300955100005,17.53354665200004],[99.94231236600007,17.53633609800005],[99.93952347700008,17.535920685000065],[99.93351392900007,17.52530740800006],[99.92965521600007,17.521795525000073],[99.93164253000003,17.520059709000066],[99.93109702300006,17.516076489000056],[99.93449318100005,17.513284430000056],[99.94408666600003,17.509009916000025],[99.94881080100004,17.505963225000073],[99.96017805800005,17.50015939700006],[99.96014675800006,17.497276287000034],[99.96358396900007,17.496492688000046],[99.96816141900007,17.49222814700005],[99.97145649900006,17.495935022000026],[99.97529051800007,17.49236062700004],[99.97485626300005,17.489345202000038],[99.98071558300006,17.487365432000047],[99.98192860100005,17.47952196500006],[99.98050905200006,17.475479088000043],[99.98162842100004,17.47272723100002],[99.98572797500003,17.471519257000068],[99.99121290300008,17.46655845500004],[99.99473203400004,17.46788110500006],[99.99866243500009,17.466862469000034],[100.00199313300004,17.46247185800007],[100.00275295800009,17.457990754000036],[100.00613810400006,17.456936402000053],[100.01307124500005,17.457088227000042],[100.02000562500007,17.458565985000064],[100.02232317100004,17.455299085000036],[100.02617742500007,17.45300688100002],[100.02895886600004,17.44943320300007],[100.03080898800005,17.443821987000035],[100.02910752900004,17.437831240000037],[100.03052238700008,17.43603960100006],[100.02719579100005,17.431278899000063],[100.02737084000006,17.429574493000075],[100.02331598000006,17.427277911000033],[100.02101240200005,17.42421277400007],[100.02359291500005,17.42161763000007],[100.02817623500005,17.419793266000056],[100.02804619400007,17.424847132000025],[100.03484541300008,17.42707686600005],[100.04492191900005,17.423047852000025],[100.04714353000008,17.43144813600003],[100.06295231000007,17.420348716000035],[100.06213956700009,17.42548105000003],[100.06350021900005,17.429002738000065],[100.05980450300007,17.430045582000048],[100.05780186600003,17.433261155000025],[100.06039923100008,17.439457891000075],[100.06070331400008,17.44299555300006],[100.06480179800008,17.44332863900007],[100.06507644300007,17.440542614000037],[100.07019724600008,17.436122848000025],[100.08223608100008,17.42986379900003],[100.09028512400005,17.428684197000052],[100.09075845700005,17.42536865200003],[100.09351946700008,17.42383148600004],[100.10204291300005,17.42373037300007],[100.10905396000004,17.420310569000037],[100.11313350900008,17.413605355000072],[100.12031140000005,17.406458359000055],[100.12892700400005,17.403822448000028],[100.13397166100003,17.403355661000035],[100.14061394300006,17.405393897000067],[100.14317212300006,17.404011180000055],[100.14914907000008,17.403519033000066],[100.16611176200007,17.39724375000003],[100.17287472300006,17.395766438000067],[100.17896068400006,17.396645465000063],[100.18843631900006,17.395423879000077],[100.19305184800004,17.39345766400004],[100.21030894200004,17.391211218000024],[100.21184101700004,17.38874753400006],[100.22084767300004,17.39057573200006],[100.22498181300006,17.389995080000062],[100.22511321900004,17.39211187500007],[100.23111679000004,17.392509219000033],[100.23554634400006,17.39044221200004],[100.23717797000006,17.39117015200003],[100.24304279300009,17.389841919000048],[100.24455881000006,17.392443658000047],[100.24945314800004,17.39434152900003],[100.25260373900005,17.40174186200005],[100.25391289800007,17.40266027900003],[100.24784657300006,17.406831964000048],[100.24350940900007,17.40852254600003],[100.23951529900006,17.41210742100003],[100.23323085000004,17.42123129600003],[100.23863491200007,17.423964883000053],[100.24146325600003,17.42742638200002],[100.24263391500006,17.433519637000074],[100.24750894700009,17.43771261300003],[100.24861990900007,17.441184736000025],[100.24835451900003,17.446777202000078],[100.24587793300009,17.450741073000074],[100.25250497300004,17.453418016000057],[100.25441171900007,17.457354347000035],[100.24978232300003,17.460854466000058],[100.25046192900004,17.463392498000076],[100.24833675500008,17.46762644000006],[100.24831949900005,17.47396511000005],[100.24619104500005,17.47650786300005],[100.24794778700004,17.481786569000064],[100.24394876300005,17.489213906000032],[100.24581578800007,17.494373822000057],[100.24299975700006,17.498184081000034],[100.24025336300008,17.49726959000003],[100.23645792200006,17.499425934000044],[100.23568716700004,17.503850628000066],[100.22972472600009,17.503429208000057],[100.21224850200008,17.529091077000032],[100.20731001200005,17.53444666000007],[100.19852875000004,17.539948717000073],[100.19403204500009,17.538323184000035],[100.19021493400004,17.54043186100006],[100.18501099500008,17.54141431900007],[100.18459544800004,17.54313195700007],[100.17830977600005,17.54403991500004],[100.17520396500004,17.548337567000033],[100.16895777200006,17.54921005600005],[100.16261285200005,17.542190273000074],[100.15421665900004,17.538740118000078],[100.14426554100004,17.53328751300006],[100.13225105000004,17.52595896400004],[100.12252524400009,17.523687519000077],[100.11601914500005,17.523247996000066],[100.11108642500005,17.521750672000053],[100.10242209600005,17.52109120800003],[100.09735328900007,17.51293324200003],[100.09498883200007,17.51176147700005],[100.08618606200008,17.512009896000052],[100.08199569800007,17.510293585000056],[100.08024985800006,17.511647835000076]]]},"properties":{"Shape_Leng":1.07720485005,"Shape_Area":0.0264513586355,"ADM2_EN":"Tron","ADM2_TH":"ตรอน","ADM2_PCODE":"TH5302","ADM1_EN":"Uttaradit","ADM1_TH":"อุตรดิตถ์","ADM1_PCODE":"TH53","ADM0_EN":"Thailand","ADM0_TH":"ประเทศไทย","ADM0_PCODE":"TH"}},
{"type":"Feature","geometry":{"type":"Polygon","coordinates":[[[100.41266829900007,17.621200642000076],[100.41920894400005,17.62302774400007],[100.42536151900003,17.617270572000052],[100.42618691000007,17.613145228000064],[100.42489771600003,17.60919923800003],[100.42680242800009,17.606197490000056],[100.43015286200006,17.605550122000068],[100.43756680100006,17.607696675000057],[100.44066709000003,17.611121603000072],[100.44622062200006,17.611573502000056],[100.45390861600004,17.61375712000006],[100.45449265900004,17.61841568400007],[100.46183976900005,17.62656706300004],[100.46436227400005,17.62810528700004],[100.46717414100004,17.63263681500007],[100.47035300900006,17.633166010000025],[100.47173519400008,17.636066193000033],[100.48133863800007,17.640124882000066],[100.48306644000007,17.643924750000053],[100.48586910600005,17.646235838000052],[100.48934043700007,17.65388616300004],[100.49979371600006,17.654408233000026],[100.50644801800007,17.66009193800005],[100.50950053600008,17.65999663200006],[100.51168683900005,17.664503040000056],[100.51731402200005,17.66570188700007],[100.52304521100007,17.671982464000052],[100.53304527200004,17.669722232000026],[100.53680650400008,17.667184950000035],[100.54128289000005,17.669514887000048],[100.54480107300009,17.669498155000042],[100.55113992800005,17.675939810000045],[100.55536709500007,17.67662493800003],[100.55948980600004,17.67954285600007],[100.56233709100007,17.68873407500007],[100.56027705200006,17.689855178000073],[100.55755425600006,17.69599629000004],[100.55840186200004,17.69911681800005],[100.55535509200007,17.70234676000007],[100.55573882300007,17.70555965400007],[100.55208168200005,17.711164403000055],[100.55511918500008,17.716202149000026],[100.55384962100004,17.719888682000033],[100.54944748200006,17.72285236400006],[100.54899811500007,17.727888762000077],[100.55381911600006,17.730647629000032],[100.55369981600006,17.739525101000027],[100.55811689600006,17.73715291700006],[100.55854373900007,17.733511011000076],[100.56262344300006,17.73481250800006],[100.56318625700004,17.738376044000063],[100.56782998000006,17.73879989900007],[100.56808315500007,17.734730999000078],[100.57026821200009,17.732235442000047],[100.56598912000004,17.72686881100003],[100.56666440100008,17.723837660000072],[100.57106046200005,17.725757774000044],[100.57577442600007,17.726176243000054],[100.57729760000007,17.73290406900003],[100.58008596500008,17.73771027300006],[100.58536318600005,17.742830911000055],[100.59028907000004,17.751428618000034],[100.59392003200009,17.75607220200004],[100.59484002200008,17.761187500000062],[100.59804481200007,17.763532041000076],[100.60374569000004,17.77082125100003],[100.60755310600007,17.77332308600006],[100.61130989600008,17.773730241000067],[100.61309390400004,17.776410892000058],[100.61972794400003,17.78124147500006],[100.61907753500009,17.78570038600003],[100.62245991900005,17.792484768000065],[100.62908993900004,17.79624651100005],[100.62907057400008,17.800671011000077],[100.63116535800003,17.80653746400003],[100.63651718500006,17.813697284000057],[100.64104470700005,17.81757460700004],[100.64437520600006,17.81830895300004],[100.64596930100004,17.821144461000074],[100.64928526700004,17.834615473000042],[100.65519977500009,17.831744375000028],[100.65644309500004,17.828482407000024],[100.65912124500005,17.828593784000077],[100.66223146500005,17.82335863700007],[100.66938999500007,17.820910122000043],[100.67373515700007,17.821428854000033],[100.67516338200005,17.824384888000054],[100.67404291400004,17.826562797000065],[100.67659017100004,17.833999495000057],[100.67659268900007,17.83671647500006],[100.67983755700004,17.841108091000024],[100.67929139700004,17.84294271300007],[100.68684551300004,17.84277883900006],[100.69231131600009,17.85217082500003],[100.69008444100007,17.85324620500006],[100.69818295800007,17.868840935000037],[100.70465166800005,17.87308150700005],[100.70622876800007,17.87685351300007],[100.70442572200005,17.883460280000065],[100.70571040700008,17.887536572000045],[100.70516152100004,17.893995630000063],[100.71026332100007,17.902253232000078],[100.71768412500006,17.908620873000075],[100.71714576900007,17.91346777700005],[100.71945718700005,17.91892376100003],[100.72052730900003,17.929645825000023],[100.71956445800004,17.932214024000075],[100.72181471800008,17.937216011000032],[100.72729339200004,17.942805935000024],[100.73071684300004,17.945025850000036],[100.73295385500006,17.950166704000026],[100.73278991400008,17.95625928900006],[100.74002516200005,17.96070789600003],[100.74731480700007,17.969317008000075],[100.74625205800004,17.97479534400003],[100.74672579100007,17.978634143000022],[100.75324530200004,17.98447621300005],[100.75565033500004,17.98854814300006],[100.76890874200006,18.000645749000057],[100.77142930000008,18.00800073000005],[100.77639862500007,18.012206005000053],[100.77715937200009,18.016001956000025],[100.78011364300005,18.01742054500005],[100.77697003700007,18.023982185000023],[100.77700148900004,18.02649811200007],[100.77439900700006,18.029251857000077],[100.76844639200004,18.025763475000076],[100.76566633600004,18.02565237500005],[100.76005235600007,18.028747934000023],[100.75675870800006,18.028207569000074],[100.75329614900005,18.029838926000025],[100.74955548200006,18.028443761000062],[100.74442926600005,18.029458576000025],[100.74068556500004,18.028253161000066],[100.73297694900003,18.03000576900007],[100.72508194800008,18.032735543000058],[100.71443038000007,18.02923250200007],[100.71244174500004,18.031737462000024],[100.70873853200004,18.03121543000003],[100.70539362300008,18.026523500000053],[100.69876817100004,18.027435996000065],[100.69879646500004,18.025534398000048],[100.69446133200006,18.026779744000066],[100.69391201700006,18.024013710000077],[100.69205782900008,18.026277649000065],[100.68869207000006,18.02675961500006],[100.68609930900004,18.030627518000074],[100.68157512000005,18.02980005200004],[100.68163469400008,18.033090854000022],[100.67741134400006,18.035814430000073],[100.67093750500004,18.04181316200004],[100.66883587400008,18.042288446000043],[100.66078886000008,18.039371575000075],[100.65565162600006,18.038865375000057],[100.63090432700005,18.044557111000074],[100.62203066900008,18.04433547700006],[100.61015750100006,18.050000848000025],[100.60785613900003,18.049956520000023],[100.60063620500006,18.044259840000052],[100.58962396700008,18.03994857600003],[100.58714897200008,18.04026520800005],[100.58036924200007,18.044109135000042],[100.57786524100004,18.043663972000047],[100.57463390800007,18.036947662000046],[100.56703288000006,18.037437186000034],[100.56129365500004,18.03301595000005],[100.55801396200008,18.032705086000078],[100.55084927700005,18.035311790000037],[100.54882021400005,18.03740523600004],[100.54012016200005,18.041326406000053],[100.53515802300006,18.03873244300007],[100.53149688100007,18.03930292900003],[100.52783888100004,18.041731484000024],[100.51550065900005,18.044559325000023],[100.50850492600006,18.047807686000056],[100.50325032500007,18.05336647200005],[100.49946019100008,18.05042376600005],[100.49340338600007,18.052988567000057],[100.48229230000004,18.055572554000037],[100.47983623000005,18.05474126100006],[100.47476138300004,18.049017411000023],[100.47218743600007,18.044604715000048],[100.46437601000008,18.045343011000057],[100.46166567300008,18.042654153000058],[100.45682777500008,18.042114724000044],[100.45328598800006,18.03935087700006],[100.45180770100006,18.034491321000075],[100.44689787300007,18.02968690800003],[100.44640860100009,18.025531571000045],[100.43276161800009,18.01976002600003],[100.42716788100006,18.015826467000068],[100.42515263800004,18.01299399900006],[100.42150115600003,18.013729632000036],[100.41816951200008,18.016163335000044],[100.41429748700006,18.021697394000057],[100.40806194600003,18.024005835000025],[100.40064534500004,18.020895951000057],[100.39400220500005,18.021012057000064],[100.39035748500004,18.018789600000048],[100.38820880500003,18.01465810600007],[100.38522963000008,18.012299339000037],[100.38154609100008,18.011585839000077],[100.37915085300006,18.003839581000022],[100.37605033600005,18.000225759000045],[100.36932052600008,17.996074417000045],[100.36494330200009,17.99116351200007],[100.35619150000008,17.98545228100005],[100.35037815700008,17.983298172000048],[100.35136595900008,17.97787934100006],[100.35367746400004,17.97255223800005],[100.35636455600007,17.962967887000048],[100.35588950800008,17.955338770000026],[100.35458285400006,17.952605541000025],[100.35582732400007,17.947175147000053],[100.35469295000007,17.943004406000057],[100.36003857600008,17.936302125000054],[100.35851861200007,17.93222592500007],[100.35971881700004,17.927371922000077],[100.35867197000005,17.92319610000004],[100.35362654600004,17.920951880000075],[100.34768703000003,17.915229241000077],[100.34892524700007,17.909283121000044],[100.34250930100006,17.900205373000063],[100.34347655800008,17.897295377000034],[100.34208804500008,17.89445498200007],[100.33698557100007,17.891933624000046],[100.33484299000008,17.88916400000005],[100.33024763600008,17.89302223800007],[100.32514943600006,17.89196877300003],[100.32504768700005,17.896618880000062],[100.32107901100005,17.90151780700006],[100.31726834800008,17.908829533000073],[100.31301701300004,17.909218598000052],[100.31194118400003,17.91678964500005],[100.30880140700003,17.92018151900004],[100.30909030500004,17.928103715000077],[100.30682403900005,17.933414518000063],[100.30117131400004,17.936626619000037],[100.29941381100008,17.939088472000037],[100.28720272100009,17.93716696900003],[100.28633455400006,17.94905953500006],[100.27978131300006,17.957462580000026],[100.27620351200005,17.957669262000024],[100.26893652800004,17.95430736700007],[100.26182349600003,17.953457514000036],[100.25282718000005,17.960914743000046],[100.24597502900008,17.961423112000034],[100.24145501400005,17.958790693000026],[100.23970177000007,17.956174403000034],[100.23499964800004,17.95515834100007],[100.23364592500008,17.95124941800003],[100.23131603600007,17.94935514200006],[100.22583318700003,17.949076929000057],[100.22632009400007,17.942749074000062],[100.22540923500009,17.939354647000073],[100.22016663400007,17.938357418000066],[100.21780131900005,17.93572440500003],[100.21839579500005,17.933093162000034],[100.21501434000004,17.92809876800004],[100.21494295700006,17.92065946200006],[100.21040460500006,17.919535534000033],[100.20855284900006,17.91731941000006],[100.20276082100008,17.917941600000063],[100.19729142800009,17.910385293000047],[100.19592753000006,17.906358607000072],[100.18904708800005,17.904296251000062],[100.16907181300007,17.890876469000034],[100.16441776300007,17.89138072700007],[100.15854505200008,17.88760473800005],[100.15851318800009,17.883950107000032],[100.15322617100009,17.877351241000042],[100.14655530200008,17.871096155000032],[100.14438416600007,17.867001120000054],[100.14084467600009,17.86571767500004],[100.13412990400008,17.86011837500007],[100.13788195700005,17.856675504000066],[100.13828405500004,17.850546525000027],[100.13608857300005,17.848660236000057],[100.13682889300009,17.846202211000048],[100.14665813300007,17.836906833000057],[100.14838632700008,17.831341009000027],[100.14824287200008,17.826118534000045],[100.15361959400008,17.826432969000052],[100.16069848100005,17.825276211000073],[100.16412913300007,17.82244742000006],[100.16770549300008,17.82352342300004],[100.16909594000003,17.828162407000036],[100.17294920500007,17.828983083000026],[100.18275240700007,17.825396433000037],[100.18260636600007,17.823151274000054],[100.18819629200004,17.820352170000035],[100.19181114300005,17.815362650000054],[100.19517484700003,17.81671924400007],[100.19683746000004,17.82049617800004],[100.20258447400005,17.82160304000007],[100.20780296700008,17.827328000000023],[100.20997378100009,17.825258014000042],[100.20853164400006,17.822003772000073],[100.21174752400003,17.81819566100006],[100.21543077900009,17.81603754300005],[100.22263756400008,17.813721702000066],[100.22663198500004,17.80954676400006],[100.22973534100004,17.803820728000062],[100.23989334900006,17.805431294000073],[100.24266622500005,17.808984145000068],[100.24865610700004,17.807505750000075],[100.25171183000003,17.804458375000024],[100.25393008700007,17.796660209000038],[100.25371209300005,17.78947382800004],[100.25875897600008,17.78624612300007],[100.26993444700008,17.785884509000027],[100.27408162000006,17.783467634000033],[100.27583500300005,17.78036866700006],[100.28274247600007,17.779169125000067],[100.28290695500004,17.773377437000022],[100.28046263500005,17.76689566700003],[100.28115879900008,17.76451306900003],[100.28953476400005,17.761124761000076],[100.29249735300004,17.754620173000035],[100.29415833900003,17.746227668000074],[100.29613960700004,17.742704540000034],[100.29853676900007,17.74177996000003],[100.29760557900005,17.738177861000054],[100.30107093700008,17.73267744000003],[100.30066602600004,17.72632696200003],[100.29163242500005,17.72667608300003],[100.29128892300008,17.72081085900004],[100.28942235700003,17.71725049500003],[100.29076737500009,17.709717561000048],[100.28790336600008,17.70646492000003],[100.28674463400006,17.701060664000067],[100.28841047600008,17.696189997000033],[100.28686424900008,17.69209647400004],[100.29772563200004,17.694635634000065],[100.30784410400008,17.69554035500005],[100.31235342500008,17.697116636000032],[100.31364994800003,17.70028645600007],[100.31208033200005,17.70300176300003],[100.31137472700004,17.70859585100004],[100.32513710000006,17.71081578600007],[100.32587604000008,17.705122505000077],[100.33819480900007,17.706709583000077],[100.34448831500004,17.69988770200007],[100.34803985300005,17.69485959800005],[100.35096730900005,17.696333281000022],[100.35155729700006,17.69406765800005],[100.35561860900003,17.68984743900006],[100.35900294500004,17.690456738000023],[100.36410002900004,17.684929772000032],[100.36808620100004,17.685210978000043],[100.36917641700006,17.682564504000027],[100.37344577900006,17.68156877100006],[100.37488232500004,17.68326042500007],[100.38249968400004,17.684144940000067],[100.38489222500004,17.68136498100006],[100.39084678800003,17.67935172500006],[100.39126988400005,17.676471179000032],[100.39456673600006,17.67440463300005],[100.39035546400004,17.666397766000046],[100.38573975500003,17.661761290000072],[100.38562754700007,17.657595066000056],[100.38211958100004,17.652102180000043],[100.38396331200005,17.64759643700006],[100.38032248100006,17.642144415000075],[100.37672510400006,17.641570135000052],[100.37588844600003,17.63845058800007],[100.38000148400005,17.634724962000064],[100.38667794000008,17.63503759500003],[100.39749469200007,17.629811708000034],[100.39947326500004,17.631048969000062],[100.40091709800004,17.62753289500006],[100.40471758500007,17.627224515000023],[100.40890479200004,17.62506748900006],[100.41266829900007,17.621200642000076]]]},"properties":{"Shape_Leng":2.40142039985,"Shape_Area":0.148846040856,"ADM2_EN":"Tha Pla","ADM2_TH":"ท่าปลา","ADM2_PCODE":"TH5303","ADM1_EN":"Uttaradit","ADM1_TH":"อุตรดิตถ์","ADM1_PCODE":"TH53","ADM0_EN":"Thailand","ADM0_TH":"ประเทศไทย","ADM0_PCODE":"TH"}},
{"type":"Feature","geometry":{"type":"Polygon","coordinates":[[[100.44066709000003,17.611121603000072],[100.44040159100007,17.59646969000005],[100.43971968900007,17.592656678000026],[100.44298678500007,17.58750371800005],[100.44511921300005,17.57961509100005],[100.44347545600004,17.57669499600007],[100.44586740200003,17.567519808000043],[100.45682119500003,17.555896790000077],[100.46577076100004,17.55031378700005],[100.47382299600008,17.548831996000047],[100.47705009000003,17.545615542000064],[100.47997601100008,17.54535088800003],[100.48328536600008,17.54274673200007],[100.49210518700005,17.53826395300007],[100.48923153300007,17.53491802800005],[100.48783688100008,17.530780764000042],[100.49198423600006,17.53159346800004],[100.49656572700007,17.528677016000074],[100.50062240500006,17.523511459000076],[100.49902580000008,17.515005176000045],[100.50025052600006,17.510406980000027],[100.50910433400009,17.507804735000036],[100.51379665200005,17.51095977800003],[100.52371304100006,17.510383037000054],[100.52472122100005,17.50476540300002],[100.53046161500004,17.50083661900004],[100.52958300100005,17.489513742000042],[100.53328767000005,17.486639264000075],[100.53613072000007,17.481128803000047],[100.53860503600004,17.480242305000047],[100.54056758200005,17.483539397000072],[100.54481102200003,17.487275388000057],[100.54467804400008,17.489308764000043],[100.54862123300006,17.493024250000076],[100.55067439400005,17.49657241600005],[100.55493151100006,17.49999712600004],[100.55760042900005,17.497875614000066],[100.56792644700005,17.500296828000046],[100.57017544200005,17.501750213000037],[100.57611332800008,17.51031775900003],[100.58193154000008,17.509566214000074],[100.58734087900007,17.51270039700006],[100.59373980100008,17.517813267000065],[100.59709697300008,17.518506670000022],[100.59951944200009,17.521756267000058],[100.60813011700009,17.52951245400004],[100.61874168900005,17.531343852000077],[100.61946056000005,17.52951803600007],[100.62825104000007,17.525562518000072],[100.63319848000003,17.527512385000023],[100.64071626000003,17.51973454000006],[100.63870682800007,17.51709707400005],[100.63949141600006,17.51384289400005],[100.64413503400004,17.510328101000027],[100.64571571400006,17.50320587300007],[100.64508423600006,17.494401995000032],[100.65177186400007,17.494239253000046],[100.65669639800007,17.49876725000007],[100.66610492600006,17.50127321900004],[100.66878612500005,17.500745469000037],[100.67070596500008,17.50374603000006],[100.67560895900004,17.50609973400003],[100.67940952300006,17.51087016500003],[100.68438513300003,17.51419613300004],[100.68840598600008,17.519887784000048],[100.68883155600008,17.52208588900004],[100.69529908200008,17.52494193600006],[100.69958827800008,17.527916015000073],[100.71057824900004,17.532506073000036],[100.72025508000007,17.533193315000062],[100.73170439500007,17.538174990000073],[100.73557063400006,17.53863904700006],[100.74041896000006,17.54284319800007],[100.74203609300008,17.550974239000027],[100.74673328400007,17.55906722800006],[100.75091499100006,17.560498771000027],[100.75152341500007,17.563109766000025],[100.75595252200009,17.56388147800004],[100.75888296900007,17.570134608000046],[100.76272077300007,17.569795860000056],[100.76509516400006,17.57283225300006],[100.76543532300008,17.580432854000037],[100.77216771800005,17.581740784000033],[100.77477303400008,17.585437760000048],[100.77248967500009,17.596044771000038],[100.77465803200005,17.597628754000027],[100.77604599600005,17.601965369000027],[100.77973502700007,17.60562778600007],[100.78445469900004,17.606353968000064],[100.78661837000004,17.610348506000037],[100.78960937600004,17.612869346000025],[100.79142690300006,17.618904196000074],[100.79682270400008,17.62599371400006],[100.79934639400005,17.631588217000058],[100.80196849400005,17.633742217000076],[100.80224756500007,17.638770978000025],[100.80539878700006,17.638906879000047],[100.80925997900005,17.64203576600005],[100.81447128400004,17.64414314100003],[100.81834096400007,17.64381233100005],[100.82900814200008,17.646685700000035],[100.83085767300008,17.64835017200005],[100.83660579400004,17.648289822000038],[100.84272165900006,17.653414931000043],[100.84646317200009,17.660204461000035],[100.84571402100005,17.66269236900007],[100.85005205800007,17.66768824600007],[100.85148178300005,17.67252359200006],[100.85385973200005,17.67583613900007],[100.85261150900004,17.680009545000075],[100.85540398400008,17.682085157000074],[100.85785357800006,17.689061415000026],[100.86645583200004,17.69891651000006],[100.86690479400005,17.701815493000026],[100.87461008400004,17.710783485000036],[100.87780430800007,17.711017063000043],[100.87999351100007,17.71321123900003],[100.88776787600005,17.71426631500003],[100.88889320300007,17.71546087400003],[100.89468890300009,17.715569121000044],[100.90218971600007,17.71377375900005],[100.90536906900007,17.714923070000054],[100.90694143900004,17.710433457000022],[100.90625653000006,17.70792840300004],[100.90984104800003,17.701773170000024],[100.91389276400008,17.69907586100004],[100.92125403800009,17.699723470000038],[100.92387590800007,17.696512063000057],[100.93629564900004,17.698837511000022],[100.93737826000006,17.700328787000046],[100.94388830500009,17.701406744000053],[100.94662719700005,17.69926240600006],[100.95593355300008,17.699940689000073],[100.95920049400007,17.702468897000074],[100.96569525200005,17.70182819100006],[100.97005050700005,17.70894909200007],[100.97202353500006,17.709307935000027],[100.97682418400007,17.715347424000072],[100.98076787200006,17.722088339000038],[100.98105002800008,17.72529500400003],[100.98501669500007,17.730231885000023],[100.98451177900006,17.73413424200004],[100.98757779300007,17.73854770300005],[100.98884959300005,17.743676454000024],[100.98678518100007,17.74831178900007],[100.97817038300008,17.752916087000074],[100.97806873700006,17.762987277000036],[100.98289933000007,17.76803944900007],[100.99048023600005,17.767962570000066],[100.99538534600003,17.770457876000023],[100.99862520500005,17.770386674000065],[101.00301951100005,17.77638349800003],[101.00400963200008,17.780930729000033],[101.00639182800006,17.783934443000078],[101.00595303300008,17.786703411000076],[101.00300261800004,17.789900122000063],[101.00258213400008,17.795158875000027],[100.99837374600008,17.801096572000063],[100.99269441200005,17.80425941900006],[100.99284607800007,17.805865952000033],[100.99967235700007,17.816209481000044],[100.99857122600008,17.819756565000034],[101.00200511900005,17.824212688000046],[101.00653999100007,17.82417508800006],[101.01502528300006,17.826786730000038],[101.01756120600004,17.828741859000047],[101.02719243200005,17.828400550000026],[101.03033841800004,17.830022691000067],[101.03254185200007,17.83415493800004],[101.02964700900009,17.837927768000043],[101.03081306100006,17.84295138300007],[101.03005080900004,17.846752551000066],[101.03289115300004,17.85160820400006],[101.03414210500006,17.86123684300003],[101.02902288900003,17.86559721200007],[101.02852591100009,17.869138101000033],[101.02567717900007,17.872510369000054],[101.01737323200007,17.877949423000075],[101.02071457000005,17.883093488000043],[101.01674469800008,17.88412939600005],[101.01931836400007,17.891246245000048],[101.01633176700005,17.890840714000035],[101.01263501500006,17.895036099000038],[101.00770196200006,17.892305304000047],[101.00426541100006,17.894005122000067],[101.00252299800007,17.892030669000064],[100.99534568000007,17.89178385100007],[100.99240197700004,17.89444658800005],[100.98865227800007,17.89450546000006],[100.98703759400007,17.896322745000077],[100.97844502200007,17.89542691400004],[100.97693090600006,17.896804522000025],[100.97022097300004,17.89412053600006],[100.96712104100004,17.894375731000025],[100.97200199800005,17.889164094000023],[100.96636621800008,17.888956139000072],[100.96519060800006,17.88644736300006],[100.96837952200008,17.884843916000023],[100.97206028800008,17.885591158000068],[100.97493041300004,17.87769588900005],[100.97213240000008,17.87721630300007],[100.97253227800007,17.87449108900006],[100.96572109000005,17.87447538400005],[100.96287613900006,17.876608958000077],[100.96152935700007,17.87534267600006],[100.95647669200008,17.878891321000026],[100.95384877500004,17.878130335000037],[100.95646247700006,17.876340846000062],[100.95864158200004,17.87085914000005],[100.95451588700007,17.872846664000065],[100.95680397800004,17.867892852000068],[100.95236067400003,17.869513752000046],[100.95370527700004,17.866572027000075],[100.95005094600003,17.866822573000036],[100.94713490300006,17.86909301700007],[100.94990169500005,17.871815312000024],[100.94737330400005,17.873381288000076],[100.94441285300007,17.870576976000052],[100.94216436100004,17.875862829000027],[100.94212231800009,17.872775782000076],[100.93994677500007,17.871691481000028],[100.93650034100006,17.875807309000038],[100.93457386800009,17.875613049000037],[100.93534401600004,17.871456401000046],[100.93252898300005,17.872304644000053],[100.92430242000006,17.87871241700003],[100.91496159800005,17.881971790000023],[100.91561695700005,17.877855796000063],[100.90774161800005,17.87770301200004],[100.90218814100007,17.873893888000055],[100.90250870000006,17.871870279000063],[100.89915361300007,17.868487177000077],[100.89542657800007,17.871141589000047],[100.89553492800007,17.87305974900005],[100.89117292900005,17.87544669300007],[100.88899543600007,17.87243107200004],[100.88372906300003,17.873066189000042],[100.88171868700005,17.87003485500003],[100.88163999100004,17.86650893700005],[100.87423469900006,17.86507952900007],[100.87254721600004,17.863157740000077],[100.87466749300006,17.860568965000027],[100.87046632600004,17.860174356000073],[100.87061534900005,17.863977359000046],[100.86802595600005,17.864874841000074],[100.86820148900006,17.86736724000002],[100.86481632400006,17.869976318000056],[100.85937183000004,17.86807132200005],[100.85611580600005,17.872669490000078],[100.84679333200006,17.87086957100007],[100.84842500800005,17.86904597700004],[100.84558575900007,17.865254641000035],[100.84055325400004,17.866494214000056],[100.83509373300006,17.86451129200003],[100.83508654200006,17.862130110000066],[100.83175965600009,17.865280143000064],[100.82449878600005,17.863454227000034],[100.82238486500006,17.866125596000074],[100.81841524900005,17.863634389000026],[100.81488756500005,17.866380529000025],[100.81330922500007,17.863371409000024],[100.81048101100004,17.86365756600003],[100.80690596000005,17.85884560900007],[100.80328845500009,17.86208576000007],[100.80224878500007,17.864978164000036],[100.79986014500008,17.86511769400005],[100.79750060800006,17.859744042000045],[100.79470893800004,17.86060047500007],[100.79419044200006,17.865217589000054],[100.79088700600005,17.864193083000032],[100.78572748600004,17.856350703000032],[100.78325153500003,17.85565968700007],[100.77871309000005,17.86076679200005],[100.77026461200006,17.860419566000076],[100.76758567500008,17.86472376000006],[100.76372066700009,17.86546250400005],[100.75887125200006,17.86941388100007],[100.75179924000008,17.87341107900005],[100.74975293600005,17.87563093800003],[100.74950035300009,17.879760969000074],[100.74191631400004,17.885491800000068],[100.74342974200005,17.88812219500005],[100.73740058400006,17.896890276000022],[100.73482314200004,17.898434878000046],[100.73392933300005,17.90214975300006],[100.72826421800005,17.904374652000058],[100.72697106600003,17.908772929000065],[100.71768412500006,17.908620873000075],[100.71026332100007,17.902253232000078],[100.70516152100004,17.893995630000063],[100.70571040700008,17.887536572000045],[100.70442572200005,17.883460280000065],[100.70622876800007,17.87685351300007],[100.70465166800005,17.87308150700005],[100.69818295800007,17.868840935000037],[100.69008444100007,17.85324620500006],[100.69231131600009,17.85217082500003],[100.68684551300004,17.84277883900006],[100.67929139700004,17.84294271300007],[100.67983755700004,17.841108091000024],[100.67659268900007,17.83671647500006],[100.67659017100004,17.833999495000057],[100.67404291400004,17.826562797000065],[100.67516338200005,17.824384888000054],[100.67373515700007,17.821428854000033],[100.66938999500007,17.820910122000043],[100.66223146500005,17.82335863700007],[100.65912124500005,17.828593784000077],[100.65644309500004,17.828482407000024],[100.65519977500009,17.831744375000028],[100.64928526700004,17.834615473000042],[100.64596930100004,17.821144461000074],[100.64437520600006,17.81830895300004],[100.64104470700005,17.81757460700004],[100.63651718500006,17.813697284000057],[100.63116535800003,17.80653746400003],[100.62907057400008,17.800671011000077],[100.62908993900004,17.79624651100005],[100.62245991900005,17.792484768000065],[100.61907753500009,17.78570038600003],[100.61972794400003,17.78124147500006],[100.61309390400004,17.776410892000058],[100.61130989600008,17.773730241000067],[100.60755310600007,17.77332308600006],[100.60374569000004,17.77082125100003],[100.59804481200007,17.763532041000076],[100.59484002200008,17.761187500000062],[100.59392003200009,17.75607220200004],[100.59028907000004,17.751428618000034],[100.58536318600005,17.742830911000055],[100.58008596500008,17.73771027300006],[100.57729760000007,17.73290406900003],[100.57577442600007,17.726176243000054],[100.57106046200005,17.725757774000044],[100.56666440100008,17.723837660000072],[100.56598912000004,17.72686881100003],[100.57026821200009,17.732235442000047],[100.56808315500007,17.734730999000078],[100.56782998000006,17.73879989900007],[100.56318625700004,17.738376044000063],[100.56262344300006,17.73481250800006],[100.55854373900007,17.733511011000076],[100.55811689600006,17.73715291700006],[100.55369981600006,17.739525101000027],[100.55381911600006,17.730647629000032],[100.54899811500007,17.727888762000077],[100.54944748200006,17.72285236400006],[100.55384962100004,17.719888682000033],[100.55511918500008,17.716202149000026],[100.55208168200005,17.711164403000055],[100.55573882300007,17.70555965400007],[100.55535509200007,17.70234676000007],[100.55840186200004,17.69911681800005],[100.55755425600006,17.69599629000004],[100.56027705200006,17.689855178000073],[100.56233709100007,17.68873407500007],[100.55948980600004,17.67954285600007],[100.55536709500007,17.67662493800003],[100.55113992800005,17.675939810000045],[100.54480107300009,17.669498155000042],[100.54128289000005,17.669514887000048],[100.53680650400008,17.667184950000035],[100.53304527200004,17.669722232000026],[100.52304521100007,17.671982464000052],[100.51731402200005,17.66570188700007],[100.51168683900005,17.664503040000056],[100.50950053600008,17.65999663200006],[100.50644801800007,17.66009193800005],[100.49979371600006,17.654408233000026],[100.48934043700007,17.65388616300004],[100.48586910600005,17.646235838000052],[100.48306644000007,17.643924750000053],[100.48133863800007,17.640124882000066],[100.47173519400008,17.636066193000033],[100.47035300900006,17.633166010000025],[100.46717414100004,17.63263681500007],[100.46436227400005,17.62810528700004],[100.46183976900005,17.62656706300004],[100.45449265900004,17.61841568400007],[100.45390861600004,17.61375712000006],[100.44622062200006,17.611573502000056],[100.44066709000003,17.611121603000072]]]},"properties":{"Shape_Leng":2.29659863566,"Shape_Area":0.123669253908,"ADM2_EN":"Nam Pat","ADM2_TH":"น้ำปาด","ADM2_PCODE":"TH5304","ADM1_EN":"Uttaradit","ADM1_TH":"อุตรดิตถ์","ADM1_PCODE":"TH53","ADM0_EN":"Thailand","ADM0_TH":"ประเทศไทย","ADM0_PCODE":"TH"}},
{"type":"Feature","geometry":{"type":"Polygon","coordinates":[[[100.71768412500006,17.908620873000075],[100.72697106600003,17.908772929000065],[100.72826421800005,17.904374652000058],[100.73392933300005,17.90214975300006],[100.73482314200004,17.898434878000046],[100.73740058400006,17.896890276000022],[100.74342974200005,17.88812219500005],[100.74191631400004,17.885491800000068],[100.74950035300009,17.879760969000074],[100.74975293600005,17.87563093800003],[100.75179924000008,17.87341107900005],[100.75887125200006,17.86941388100007],[100.76372066700009,17.86546250400005],[100.76758567500008,17.86472376000006],[100.77026461200006,17.860419566000076],[100.77871309000005,17.86076679200005],[100.78325153500003,17.85565968700007],[100.78572748600004,17.856350703000032],[100.79088700600005,17.864193083000032],[100.79419044200006,17.865217589000054],[100.79470893800004,17.86060047500007],[100.79750060800006,17.859744042000045],[100.79986014500008,17.86511769400005],[100.80224878500007,17.864978164000036],[100.80328845500009,17.86208576000007],[100.80690596000005,17.85884560900007],[100.81048101100004,17.86365756600003],[100.81330922500007,17.863371409000024],[100.81488756500005,17.866380529000025],[100.81841524900005,17.863634389000026],[100.82238486500006,17.866125596000074],[100.82449878600005,17.863454227000034],[100.83175965600009,17.865280143000064],[100.83508654200006,17.862130110000066],[100.83509373300006,17.86451129200003],[100.84055325400004,17.866494214000056],[100.84558575900007,17.865254641000035],[100.84842500800005,17.86904597700004],[100.84679333200006,17.87086957100007],[100.85611580600005,17.872669490000078],[100.85937183000004,17.86807132200005],[100.86481632400006,17.869976318000056],[100.86820148900006,17.86736724000002],[100.86802595600005,17.864874841000074],[100.87061534900005,17.863977359000046],[100.87046632600004,17.860174356000073],[100.87466749300006,17.860568965000027],[100.87254721600004,17.863157740000077],[100.87423469900006,17.86507952900007],[100.88163999100004,17.86650893700005],[100.88171868700005,17.87003485500003],[100.88372906300003,17.873066189000042],[100.88899543600007,17.87243107200004],[100.89117292900005,17.87544669300007],[100.89553492800007,17.87305974900005],[100.89542657800007,17.871141589000047],[100.89915361300007,17.868487177000077],[100.90250870000006,17.871870279000063],[100.90218814100007,17.873893888000055],[100.90774161800005,17.87770301200004],[100.91561695700005,17.877855796000063],[100.91496159800005,17.881971790000023],[100.90954707500003,17.885188398000025],[100.90716524600003,17.89111668000004],[100.90883627100004,17.89670058300004],[100.91336746200005,17.897539116000075],[100.91750795700005,17.901699824000048],[100.92518893200008,17.906447331000038],[100.92759792300006,17.912778630000048],[100.93194994700008,17.918699717000038],[100.93205144300003,17.922267141000077],[100.93542896800005,17.92990250200006],[100.93402219600006,17.931990152000026],[100.93659577000005,17.934585593000065],[100.93828103700008,17.939050278000025],[100.94240397900006,17.94113210000006],[100.94668889700006,17.945511533000058],[100.94702706600003,17.95133969500006],[100.95077890000005,17.957972360000042],[100.95277105900004,17.957987633000073],[100.96175394600004,17.963340044000063],[100.96185162900008,17.96692564600005],[100.96719937500006,17.970374599000024],[100.96673325700004,17.973486862000073],[100.96957225800008,17.980668799000057],[100.96558193900006,17.982619173000046],[100.96731760900008,17.995895553000025],[100.97521140300006,18.002171969000074],[100.97766716900009,18.007561289000023],[100.97525286800004,18.011082110000075],[100.97384884700006,18.01696847000005],[100.97443938000004,18.023428238000065],[100.97813379800004,18.025354736000054],[100.97910688500008,18.027930905000062],[100.98305843000009,18.029682337000054],[100.99378182800007,18.028298823000057],[101.00147391700006,18.029742257000066],[101.01015893100003,18.03853815900004],[101.01332184900008,18.040430443000048],[101.01525893200005,18.046557450000023],[101.02639354700005,18.055894158000058],[101.02821357700009,18.068792598000073],[101.03407978000007,18.072790663000035],[101.03620846400008,18.07891939600006],[101.03180853000003,18.08499394000006],[101.02442212100004,18.09091515500006],[101.02099702400005,18.09511578000007],[101.01526067500004,18.100046518000056],[101.01557068300008,18.106340918000058],[101.02067935000008,18.109297119000075],[101.01882504100007,18.113660399000025],[101.01386367200007,18.11694650100003],[101.00639874500007,18.12521638100003],[101.00316600100007,18.12701276400003],[101.00130824600006,18.132409852000023],[100.99620055700007,18.132809058000078],[100.98965744500003,18.137468497000043],[100.98380863700004,18.139064225000027],[100.98103106300005,18.13791516200007],[100.97624544800004,18.13832203800007],[100.97315131600004,18.142296849000047],[100.97259242200005,18.146158403000072],[100.96239507300004,18.150418306000063],[100.95781195600006,18.15366344100005],[100.95209533400003,18.15409667800003],[100.94907327200008,18.155938325000022],[100.94653434700007,18.15511500300005],[100.94358632000007,18.15699109800005],[100.94158029600004,18.164837242000033],[100.93551047000005,18.168999187000054],[100.93512740400007,18.170705832000067],[100.92899821900005,18.174183010000036],[100.91922875200004,18.171531435000077],[100.91779752900004,18.168170170000053],[100.91653044200007,18.160607515000038],[100.91352344000006,18.160105617000056],[100.91074243200006,18.157473941000035],[100.90468745200008,18.15551853200003],[100.90161991400004,18.152653496000028],[100.89015801000005,18.149698112000067],[100.88753414300004,18.147828704000062],[100.88416050800004,18.151228743000047],[100.88239600200006,18.150741580000044],[100.87980918300008,18.145526911000047],[100.87296437400005,18.139121948000025],[100.87156998400008,18.135382004000064],[100.87247265100007,18.130620919000023],[100.87159301800006,18.12658431600005],[100.87454173300006,18.122589645000062],[100.87378439000008,18.11794174100004],[100.86587253800008,18.113528710000026],[100.85585302400006,18.102366990000064],[100.85460775000007,18.09755142800003],[100.85084738900008,18.092936744000042],[100.84891225400008,18.087179380000066],[100.85095251900003,18.084368116000064],[100.84940243300008,18.081888391000064],[100.84325287600007,18.07948106200007],[100.83553422300008,18.081330344000037],[100.83304165700008,18.08006720900005],[100.83109846200006,18.081917562000058],[100.82458308000008,18.08026538100006],[100.81975867700004,18.08312134600004],[100.81564740500005,18.079782108000074],[100.80873127700005,18.076273126000046],[100.80713043900005,18.06452108600007],[100.80069017600005,18.054016728000022],[100.79750366600007,18.053197863000037],[100.79612751200006,18.05015930600007],[100.79185583900005,18.048912104000067],[100.79063686000006,18.04629912000007],[100.78553940800003,18.04354216300004],[100.77785205600009,18.034402670000077],[100.77439900700006,18.029251857000077],[100.77700148900004,18.02649811200007],[100.77697003700007,18.023982185000023],[100.78011364300005,18.01742054500005],[100.77715937200009,18.016001956000025],[100.77639862500007,18.012206005000053],[100.77142930000008,18.00800073000005],[100.76890874200006,18.000645749000057],[100.75565033500004,17.98854814300006],[100.75324530200004,17.98447621300005],[100.74672579100007,17.978634143000022],[100.74625205800004,17.97479534400003],[100.74731480700007,17.969317008000075],[100.74002516200005,17.96070789600003],[100.73278991400008,17.95625928900006],[100.73295385500006,17.950166704000026],[100.73071684300004,17.945025850000036],[100.72729339200004,17.942805935000024],[100.72181471800008,17.937216011000032],[100.71956445800004,17.932214024000075],[100.72052730900003,17.929645825000023],[100.71945718700005,17.91892376100003],[100.71714576900007,17.91346777700005],[100.71768412500006,17.908620873000075]]]},"properties":{"Shape_Leng":1.20219865193,"Shape_Area":0.0548585634938,"ADM2_EN":"Fak Tha","ADM2_TH":"ฟากท่า","ADM2_PCODE":"TH5305","ADM1_EN":"Uttaradit","ADM1_TH":"อุตรดิตถ์","ADM1_PCODE":"TH53","ADM0_EN":"Thailand","ADM0_TH":"ประเทศไทย","ADM0_PCODE":"TH"}},
{"type":"Feature","geometry":{"type":"Polygon","coordinates":[[[101.01931836400007,17.891246245000048],[101.02679865700009,17.896724836000033],[101.02819098300006,17.900662410000052],[101.03041044200006,17.900295019000055],[101.03278792700007,17.903261143000066],[101.04336382700006,17.90882648400003],[101.04702937000008,17.912581444000068],[101.06028349900004,17.91351503900006],[101.06516428600008,17.915801031000058],[101.06614679300009,17.91382309200003],[101.07041438600004,17.91335306700006],[101.07095160500006,17.918867670000054],[101.07790962200005,17.923407841000028],[101.08705604500005,17.924051647000056],[101.08940156800008,17.925472867000053],[101.09219702000007,17.930010048000042],[101.09567260300008,17.931313835000026],[101.09476819900004,17.935219004000032],[101.09981503400007,17.939824715000043],[101.10473856300007,17.947029972000053],[101.11657493800004,17.950245263000056],[101.11793585000004,17.951597195000033],[101.11644019600004,17.958726032000072],[101.11723213800008,17.963520999000025],[101.11497929400008,17.970881775000066],[101.11877750000008,17.971493759000055],[101.11790664800009,17.976602782000043],[101.11997548900007,17.993458428000054],[101.12246214900006,18.000411635000034],[101.12773338100004,18.003484574000026],[101.13092638000006,18.008110764000037],[101.13342609400007,18.014783863000048],[101.13861183700004,18.019421562000048],[101.14162476300004,18.027721412000062],[101.14811944500008,18.031444419000024],[101.15167963300007,18.037169609000046],[101.15661073600006,18.036456706000024],[101.15927539400008,18.02952883200004],[101.16100150900007,18.030040323000037],[101.16789760800003,18.03819003700005],[101.17261298300008,18.046045512000035],[101.17847519500003,18.05124734800006],[101.17589693300005,18.052523696000037],[101.18448572100004,18.066173492000075],[101.18136226200005,18.070494706000034],[101.17543808400006,18.072186302000034],[101.17304332900005,18.079383878000044],[101.17278066800009,18.086836704000063],[101.17530650100008,18.088089530000047],[101.16700417600003,18.09933453900004],[101.16531319100005,18.10526473500005],[101.16656390400004,18.113087738000047],[101.16299608300005,18.117300441000054],[101.16332644600004,18.12091454800003],[101.16117242400009,18.123490450000077],[101.16871380800006,18.13896777800005],[101.17166915100006,18.153862091000065],[101.17505009000007,18.163141189000044],[101.17318894700009,18.16396056800005],[101.17875544900005,18.173361920000048],[101.17676109800004,18.176245649000066],[101.17944085600004,18.183492435000062],[101.18385252700006,18.189749173000052],[101.18394433500004,18.195446273000073],[101.18889709800004,18.206211515000064],[101.19282738000004,18.212726798000062],[101.18841745800006,18.216955535000068],[101.18337667400004,18.223361625000052],[101.17790404900006,18.223967171000027],[101.17347448700008,18.21737016000003],[101.16835722600007,18.216690432000064],[101.16502528600006,18.21799421000003],[101.16417775900004,18.222703969000065],[101.16601170500007,18.224686032000022],[101.16669429100006,18.23040055900003],[101.16217930600004,18.23479301900005],[101.16247101100004,18.237327416000028],[101.15936129000005,18.241131265000035],[101.15882252700004,18.246994280000024],[101.15553083600008,18.249297596000076],[101.14906729500007,18.256816577000052],[101.14458939400004,18.260041973000057],[101.14937939300006,18.264189832000056],[101.14981226800006,18.267305388000068],[101.15480089400006,18.270920911000076],[101.16289034200008,18.278064372000074],[101.15954238500007,18.283692684000073],[101.15665070300008,18.28323391400005],[101.15543131100009,18.28665453900004],[101.14901392500008,18.293353857000056],[101.14854922000006,18.295550753000043],[101.15332850800007,18.301189070000078],[101.16109170600004,18.304673242000035],[101.15951126000004,18.30951552500005],[101.16530344900008,18.31399018700006],[101.16797599900008,18.320220928000026],[101.17489119500004,18.320924227000035],[101.17649213800007,18.326043472000038],[101.18008764000007,18.327545361000034],[101.18197122600009,18.331802109000023],[101.18014612700006,18.334380459000045],[101.18219257000004,18.340723125000068],[101.17624895600005,18.341730492000067],[101.16762307900007,18.34668182400003],[101.16274028700008,18.34511927400007],[101.15488362400004,18.34916530600003],[101.15024936200007,18.347326843000076],[101.14727678900005,18.348181383000053],[101.14695755000008,18.350809749000064],[101.14326745800008,18.352642613000057],[101.14176034000008,18.356470487000024],[101.13121951100004,18.36662323200005],[101.12360692400006,18.368164983000042],[101.11934063000007,18.37101996000007],[101.11482901300008,18.369886721000057],[101.11311836000004,18.37166275800007],[101.10988737600007,18.371124989000066],[101.10724704700004,18.374232324000047],[101.10242076300005,18.375121298000067],[101.09867496800007,18.377197439000042],[101.09413609500007,18.381527058000074],[101.08898521000003,18.380435283000054],[101.08541647400006,18.38101637500006],[101.08450267700005,18.376596043000063],[101.08205524900006,18.374853676000043],[101.08214914500007,18.370581453000057],[101.07696795200008,18.365108673000066],[101.07369529400006,18.358767442000044],[101.07409800600004,18.356740456000068],[101.06922853700007,18.35765838800006],[101.06590534500003,18.35610235400003],[101.06142686400005,18.356642321000038],[101.05583762600008,18.35586790600007],[101.05159059900006,18.349098438000055],[101.04600197900004,18.34574724500004],[101.04300947200005,18.339547668000023],[101.03849108800006,18.33822550000008],[101.03422802500006,18.33360885700006],[101.02852610300005,18.332869478000077],[101.02393794200003,18.32806071400006],[101.02353059800004,18.32593554400006],[101.01757419600006,18.321430918000033],[101.01450094700004,18.321501200000057],[101.01084113300004,18.31933469200004],[101.00564837800005,18.31808518500003],[101.00355706500005,18.316349354000067],[100.99925425500004,18.309293963000073],[100.99609321300005,18.308210829000075],[100.99108181200006,18.309259954000026],[100.98529967000007,18.30742954400006],[100.98335796600009,18.307949199000063],[100.97918807600007,18.305392294000058],[100.97801363800005,18.302559055000074],[100.97913328300007,18.299310175000073],[100.97727682600004,18.295168954000076],[100.97379356500005,18.293879652000044],[100.97072952100007,18.288548454000022],[100.96560101600005,18.284037738000052],[100.96337001400008,18.278342563000024],[100.95873512600008,18.276989624000066],[100.95852355900007,18.27369016800003],[100.95205941500006,18.268197841000074],[100.95131792000006,18.265793917000053],[100.94730771500008,18.265085251000073],[100.94059241000008,18.257299612000054],[100.93953754000006,18.254453354000077],[100.93010584200005,18.25071936200004],[100.92587964100005,18.25047720200007],[100.92089704100005,18.24388757400004],[100.91876148300008,18.24266321300007],[100.91854757200008,18.23833717100007],[100.91585042200006,18.231865472000038],[100.91227841600005,18.227457107000077],[100.91435516000007,18.22193661700004],[100.91653943900008,18.221305156000028],[100.91806182200008,18.21764425600003],[100.92250799100003,18.216290317000073],[100.92530378100008,18.212504078000052],[100.92477863400006,18.208365865000076],[100.91876664000006,18.201104549000036],[100.91396451200006,18.199732391000055],[100.90756451500005,18.193998278000038],[100.90871180100004,18.18820189300004],[100.90572153900007,18.177337101000035],[100.90694266600008,18.171725442000024],[100.90892859400009,18.170265190000066],[100.90906419600009,18.16549791600005],[100.91352344000006,18.160105617000056],[100.91653044200007,18.160607515000038],[100.91779752900004,18.168170170000053],[100.91922875200004,18.171531435000077],[100.92899821900005,18.174183010000036],[100.93512740400007,18.170705832000067],[100.93551047000005,18.168999187000054],[100.94158029600004,18.164837242000033],[100.94358632000007,18.15699109800005],[100.94653434700007,18.15511500300005],[100.94907327200008,18.155938325000022],[100.95209533400003,18.15409667800003],[100.95781195600006,18.15366344100005],[100.96239507300004,18.150418306000063],[100.97259242200005,18.146158403000072],[100.97315131600004,18.142296849000047],[100.97624544800004,18.13832203800007],[100.98103106300005,18.13791516200007],[100.98380863700004,18.139064225000027],[100.98965744500003,18.137468497000043],[100.99620055700007,18.132809058000078],[101.00130824600006,18.132409852000023],[101.00316600100007,18.12701276400003],[101.00639874500007,18.12521638100003],[101.01386367200007,18.11694650100003],[101.01882504100007,18.113660399000025],[101.02067935000008,18.109297119000075],[101.01557068300008,18.106340918000058],[101.01526067500004,18.100046518000056],[101.02099702400005,18.09511578000007],[101.02442212100004,18.09091515500006],[101.03180853000003,18.08499394000006],[101.03620846400008,18.07891939600006],[101.03407978000007,18.072790663000035],[101.02821357700009,18.068792598000073],[101.02639354700005,18.055894158000058],[101.01525893200005,18.046557450000023],[101.01332184900008,18.040430443000048],[101.01015893100003,18.03853815900004],[101.00147391700006,18.029742257000066],[100.99378182800007,18.028298823000057],[100.98305843000009,18.029682337000054],[100.97910688500008,18.027930905000062],[100.97813379800004,18.025354736000054],[100.97443938000004,18.023428238000065],[100.97384884700006,18.01696847000005],[100.97525286800004,18.011082110000075],[100.97766716900009,18.007561289000023],[100.97521140300006,18.002171969000074],[100.96731760900008,17.995895553000025],[100.96558193900006,17.982619173000046],[100.96957225800008,17.980668799000057],[100.96673325700004,17.973486862000073],[100.96719937500006,17.970374599000024],[100.96185162900008,17.96692564600005],[100.96175394600004,17.963340044000063],[100.95277105900004,17.957987633000073],[100.95077890000005,17.957972360000042],[100.94702706600003,17.95133969500006],[100.94668889700006,17.945511533000058],[100.94240397900006,17.94113210000006],[100.93828103700008,17.939050278000025],[100.93659577000005,17.934585593000065],[100.93402219600006,17.931990152000026],[100.93542896800005,17.92990250200006],[100.93205144300003,17.922267141000077],[100.93194994700008,17.918699717000038],[100.92759792300006,17.912778630000048],[100.92518893200008,17.906447331000038],[100.91750795700005,17.901699824000048],[100.91336746200005,17.897539116000075],[100.90883627100004,17.89670058300004],[100.90716524600003,17.89111668000004],[100.90954707500003,17.885188398000025],[100.91496159800005,17.881971790000023],[100.92430242000006,17.87871241700003],[100.93252898300005,17.872304644000053],[100.93534401600004,17.871456401000046],[100.93457386800009,17.875613049000037],[100.93650034100006,17.875807309000038],[100.93994677500007,17.871691481000028],[100.94212231800009,17.872775782000076],[100.94216436100004,17.875862829000027],[100.94441285300007,17.870576976000052],[100.94737330400005,17.873381288000076],[100.94990169500005,17.871815312000024],[100.94713490300006,17.86909301700007],[100.95005094600003,17.866822573000036],[100.95370527700004,17.866572027000075],[100.95236067400003,17.869513752000046],[100.95680397800004,17.867892852000068],[100.95451588700007,17.872846664000065],[100.95864158200004,17.87085914000005],[100.95646247700006,17.876340846000062],[100.95384877500004,17.878130335000037],[100.95647669200008,17.878891321000026],[100.96152935700007,17.87534267600006],[100.96287613900006,17.876608958000077],[100.96572109000005,17.87447538400005],[100.97253227800007,17.87449108900006],[100.97213240000008,17.87721630300007],[100.97493041300004,17.87769588900005],[100.97206028800008,17.885591158000068],[100.96837952200008,17.884843916000023],[100.96519060800006,17.88644736300006],[100.96636621800008,17.888956139000072],[100.97200199800005,17.889164094000023],[100.96712104100004,17.894375731000025],[100.97022097300004,17.89412053600006],[100.97693090600006,17.896804522000025],[100.97844502200007,17.89542691400004],[100.98703759400007,17.896322745000077],[100.98865227800007,17.89450546000006],[100.99240197700004,17.89444658800005],[100.99534568000007,17.89178385100007],[101.00252299800007,17.892030669000064],[101.00426541100006,17.894005122000067],[101.00770196200006,17.892305304000047],[101.01263501500006,17.895036099000038],[101.01633176700005,17.890840714000035],[101.01931836400007,17.891246245000048]]]},"properties":{"Shape_Leng":1.89216868093,"Shape_Area":0.0847371089042,"ADM2_EN":"Ban Khok","ADM2_TH":"บ้านโคก","ADM2_PCODE":"TH5306","ADM1_EN":"Uttaradit","ADM1_TH":"อุตรดิตถ์","ADM1_PCODE":"TH53","ADM0_EN":"Thailand","ADM0_TH":"ประเทศไทย","ADM0_PCODE":"TH"}},
{"type":"Feature","geometry":{"type":"Polygon","coordinates":[[[100.02101240200005,17.42421277400007],[100.01832941700007,17.422593333000066],[100.01713514200009,17.418423270000062],[100.01049051500007,17.418901387000062],[99.99694278300007,17.416724731000045],[99.99435739800003,17.409923887000048],[99.99098984900007,17.408370303000027],[99.99345834800005,17.404702001000032],[99.99119858800003,17.401860054000053],[99.99618408700007,17.394548868000072],[100.00145294300006,17.39292869800005],[100.00490426100004,17.390648681000073],[100.00953920700005,17.381344046000038],[100.00938898000004,17.377951334000045],[100.00668575000009,17.37403435300007],[99.99990668700008,17.36871330200006],[100.00526060600004,17.367139459000043],[100.00496682300007,17.363045489000058],[100.00800433000006,17.359477672000025],[100.00314348400008,17.35687925700006],[100.00087558900003,17.354197708000072],[100.00468655600008,17.348454442000047],[100.00406863600006,17.345542731000023],[100.00803794300003,17.343440052000062],[100.01123138400004,17.336633663000043],[100.01465899400006,17.335328498000024],[100.01641031400004,17.336734198000045],[100.01919000100008,17.33365991100004],[100.01578771800007,17.32988924800003],[100.00916518700006,17.33148446200005],[100.00251475700009,17.331175948000066],[100.00215787100007,17.328523759000063],[99.99543232400003,17.326724029000047],[99.99649996900007,17.321998325000038],[99.99331739000007,17.31389489000003],[99.99469301100004,17.30615135000005],[99.99733463400008,17.301310923000074],[100.00443794000006,17.29633385300002],[99.99931182700004,17.29528821400004],[99.99755037800008,17.289652299000068],[99.99607325900007,17.28871040000007],[99.97704473500005,17.287248117000047],[99.96884005800007,17.281384350000053],[99.96912690500005,17.279887170000052],[99.97480704800006,17.277969308000024],[99.97539305500004,17.27601872400004],[99.96997993500008,17.270889149000027],[99.96460255700003,17.27228020900003],[99.96557978700008,17.263393963000055],[99.96175010100006,17.256763269000032],[99.96295383200004,17.25005385000003],[99.95922216100007,17.248024557000065],[99.95532726400006,17.244179187000043],[99.95507601300005,17.24160811200005],[99.97295150200006,17.241802514000028],[99.97236886100006,17.238733093000064],[99.95805678100004,17.231356636000044],[99.95847642300004,17.22969133400005],[99.96975752100008,17.22467501600005],[99.97307779300007,17.22163648700007],[99.98043749600004,17.217763912000066],[99.98216006000007,17.215566151000075],[99.97847518400005,17.21235585200003],[99.97436525700004,17.213336559000027],[99.97101322200007,17.211227708000024],[99.97469913800006,17.208734595000067],[99.97504800700005,17.205746462000036],[99.97332651300007,17.199733475000073],[99.97597691500005,17.196472786000072],[99.98173160600004,17.19306445500007],[99.98337782300007,17.189813068000035],[99.98290396900006,17.18096226800003],[99.98104300400007,17.17470987300004],[99.97723464000006,17.17170403500006],[99.97287549400005,17.165173147000075],[99.97787789000006,17.158557796000025],[99.98320372100005,17.15563518500005],[99.98277749600004,17.15828666500005],[99.98518376000004,17.160182271000053],[99.98842498700009,17.15875680700003],[99.99201451900007,17.159299486000066],[99.99404180900007,17.156371904000025],[100.00203557800006,17.154472763000058],[100.00923176200007,17.151286886000037],[100.00786659300007,17.146459831000072],[100.00470316600007,17.147873290000064],[100.00065449200008,17.147222831000022],[99.99554543500005,17.141281699000047],[99.99596490200008,17.13892055200006],[100.00226473200007,17.139762622000035],[100.00933219400008,17.138672478000046],[100.01383479900005,17.13903737800007],[100.01615858500008,17.144568855000045],[100.01953747000005,17.149153244000047],[100.02305938300003,17.150956346000044],[100.02529772100007,17.155525528000055],[100.02268732000005,17.16225905700003],[100.02372902800005,17.165105809000067],[100.03044694600004,17.16401070200004],[100.03290990200009,17.166531255000052],[100.03184088200004,17.171665596000025],[100.03832294100005,17.181073508000054],[100.04373784600006,17.178628660000072],[100.04833072900004,17.178882006000038],[100.05271636300006,17.182909257000063],[100.05634661100004,17.181060638000076],[100.06556856700007,17.181559390000075],[100.06928820700006,17.182991770000058],[100.07779734900004,17.18198772200003],[100.08999621400005,17.185743609000042],[100.09072894000008,17.187288213000045],[100.10350022700004,17.18927287300005],[100.11060157800006,17.186963393000042],[100.11835895100006,17.183422515000075],[100.12236882500008,17.18421966300002],[100.12753851300005,17.18358334100003],[100.13452675200006,17.184880448000058],[100.13619960300008,17.181114837000052],[100.14626141100007,17.183535997000035],[100.14977105400004,17.18579718700005],[100.14931538700006,17.180007397000054],[100.15185913000005,17.17926277400005],[100.15521927500004,17.17519068200005],[100.15581056700006,17.170055625000032],[100.15968390900008,17.16579874000007],[100.16304086200006,17.170651417000045],[100.16467344700004,17.18448246500003],[100.16757914500005,17.201119232000053],[100.17322998600008,17.20242578500006],[100.17902882000004,17.205307678000054],[100.18295517100006,17.206065823000074],[100.18924209200009,17.205441416000042],[100.19738772000005,17.206604699000025],[100.20186283000004,17.20569532600007],[100.20625914700008,17.208418882000046],[100.21391206400006,17.20881528600006],[100.22020594700007,17.21063040000007],[100.22969602000006,17.21167593800004],[100.23926296500008,17.22169797500004],[100.24152396000005,17.221338914000057],[100.25049993900006,17.223066121000045],[100.25970575900004,17.220491598000024],[100.27009788500004,17.221347741000045],[100.28246066200006,17.220608859000038],[100.28050429000007,17.22243347600005],[100.27912952200006,17.233489012000064],[100.27793899000005,17.236050801000033],[100.27371669500008,17.238600156000075],[100.27458648700008,17.245876391000024],[100.27369013300006,17.254106850000028],[100.27729441400004,17.25930972900005],[100.27787583800006,17.268784692000054],[100.27572710000004,17.272216042000025],[100.27257952500008,17.27422550700004],[100.27218654200004,17.27771523800004],[100.27410927700004,17.284216297000057],[100.27375121900008,17.288346369000067],[100.27646365500004,17.291576031000034],[100.27496718500004,17.296282099000052],[100.27677047600008,17.299528442000053],[100.28103564400004,17.301230256000053],[100.28219592100004,17.30673996200005],[100.28065953300006,17.32085711700006],[100.28333648300008,17.336388123000063],[100.28978209700006,17.339486185000055],[100.29670863700005,17.347423424000056],[100.29480656900006,17.35587822800005],[100.29478314600004,17.366038397000068],[100.28891178000003,17.376113505000035],[100.28745386400004,17.378444006000052],[100.28054748400007,17.38361492200005],[100.27737603400004,17.38691392000004],[100.27804011500007,17.39077006200006],[100.27503410900005,17.392136830000027],[100.27551497500008,17.394252820000077],[100.26879289300007,17.395026573000052],[100.26044348500005,17.400326156000062],[100.25921008600005,17.402911955000036],[100.25391289800007,17.40266027900003],[100.25260373900005,17.40174186200005],[100.24945314800004,17.39434152900003],[100.24455881000006,17.392443658000047],[100.24304279300009,17.389841919000048],[100.23717797000006,17.39117015200003],[100.23554634400006,17.39044221200004],[100.23111679000004,17.392509219000033],[100.22511321900004,17.39211187500007],[100.22498181300006,17.389995080000062],[100.22084767300004,17.39057573200006],[100.21184101700004,17.38874753400006],[100.21030894200004,17.391211218000024],[100.19305184800004,17.39345766400004],[100.18843631900006,17.395423879000077],[100.17896068400006,17.396645465000063],[100.17287472300006,17.395766438000067],[100.16611176200007,17.39724375000003],[100.14914907000008,17.403519033000066],[100.14317212300006,17.404011180000055],[100.14061394300006,17.405393897000067],[100.13397166100003,17.403355661000035],[100.12892700400005,17.403822448000028],[100.12031140000005,17.406458359000055],[100.11313350900008,17.413605355000072],[100.10905396000004,17.420310569000037],[100.10204291300005,17.42373037300007],[100.09351946700008,17.42383148600004],[100.09075845700005,17.42536865200003],[100.09028512400005,17.428684197000052],[100.08223608100008,17.42986379900003],[100.07019724600008,17.436122848000025],[100.06507644300007,17.440542614000037],[100.06480179800008,17.44332863900007],[100.06070331400008,17.44299555300006],[100.06039923100008,17.439457891000075],[100.05780186600003,17.433261155000025],[100.05980450300007,17.430045582000048],[100.06350021900005,17.429002738000065],[100.06213956700009,17.42548105000003],[100.06295231000007,17.420348716000035],[100.04714353000008,17.43144813600003],[100.04492191900005,17.423047852000025],[100.03484541300008,17.42707686600005],[100.02804619400007,17.424847132000025],[100.02817623500005,17.419793266000056],[100.02359291500005,17.42161763000007],[100.02101240200005,17.42421277400007]]]},"properties":{"Shape_Leng":1.49943809611,"Shape_Area":0.0647961103046,"ADM2_EN":"Phichai","ADM2_TH":"พิชัย","ADM2_PCODE":"TH5307","ADM1_EN":"Uttaradit","ADM1_TH":"อุตรดิตถ์","ADM1_PCODE":"TH53","ADM0_EN":"Thailand","ADM0_TH":"ประเทศไทย","ADM0_PCODE":"TH"}},
{"type":"Feature","geometry":{"type":"Polygon","coordinates":[[[99.99527384200007,17.830758536000076],[99.98861023100005,17.835040109000033],[99.98998838600005,17.82946093700002],[99.98603080400005,17.829086311000026],[99.98818451300008,17.820036747000074],[99.99097360800005,17.814821923000068],[99.99071648800003,17.811367931000063],[99.98420323600004,17.802332842000055],[99.97802291800008,17.797154566000074],[99.97342482300007,17.79670392400004],[99.96867919600004,17.799446129000046],[99.96425538600005,17.79736321400003],[99.96148565800007,17.792769901000042],[99.96154931500007,17.783165266000026],[99.95962152600003,17.778376240000057],[99.95277804300008,17.778988973000025],[99.94990556800008,17.77716782400006],[99.94561195800009,17.777287260000037],[99.94289041800005,17.780664745000024],[99.93675568300006,17.781781485000067],[99.93235038200004,17.790150314000073],[99.92802724300009,17.78925965600007],[99.92513227600006,17.791868641000065],[99.91716757400008,17.79563050200005],[99.91628408100007,17.797632660000033],[99.91195113200007,17.79822514800003],[99.91093496100007,17.802965658000062],[99.90616000300008,17.805799714000045],[99.90057958500006,17.80414822700004],[99.89449126700003,17.807192434000058],[99.89917162500006,17.797169401000076],[99.90200197600007,17.797906373000046],[99.90592407400004,17.79362026000007],[99.91169965400007,17.795193518000076],[99.91216544300005,17.792014438000024],[99.91598278900005,17.79234997100002],[99.92216666800005,17.78636799700007],[99.92050384100008,17.78176521200004],[99.92479934000005,17.77556492700006],[99.92275878100008,17.76967449400007],[99.92036125800007,17.76673551300007],[99.91725242800004,17.767094649000057],[99.91146396300007,17.764034797000022],[99.91425419900008,17.757449739000037],[99.92016159800005,17.747974767000073],[99.92317268600004,17.74667359400007],[99.92637173700007,17.74303292600007],[99.93009912900004,17.74441514800003],[99.93576258000007,17.735285930000032],[99.93933022100003,17.734590878000063],[99.94353924800004,17.723797886000057],[99.95195237600007,17.71912352000004],[99.95578010800006,17.71831016300007],[99.95685347900007,17.71634218400004],[99.96326640500007,17.711380365000025],[99.96351863900009,17.707217564000075],[99.96644203900007,17.702508796000075],[99.96544665900007,17.69665241900003],[99.96873723300007,17.692543671000067],[99.96795726500005,17.686742225000046],[99.96948858600007,17.68152145600004],[99.97478556200008,17.671263399000054],[99.97329925100007,17.667488994000053],[99.97428128700005,17.660524141000053],[99.97722823800007,17.65699820100002],[99.97445199800006,17.647065782000027],[99.96979442900005,17.64276114200004],[99.96602649200008,17.63239351200002],[99.96665500900008,17.628630002000023],[99.97296626800005,17.623098851000066],[99.97690698700006,17.622210059000054],[99.96581280900006,17.613379604000045],[99.96061891600004,17.610387041000024],[99.95600508400008,17.603639257000054],[99.94020481200005,17.592150830000037],[99.93193738800005,17.58916599400004],[99.92705719100007,17.588598312000045],[99.92374291500005,17.58594420000003],[99.92347772500005,17.58015193400007],[99.92611227100008,17.57055073400005],[99.92479563500007,17.568652693000047],[99.92632940900006,17.564464713000064],[99.93414283000004,17.559160331000044],[99.93788283600009,17.552039499000045],[99.94063233300005,17.550488319000067],[99.94269477700004,17.54525734500004],[99.94014263400004,17.539855042000056],[99.94231236600007,17.53633609800005],[99.94300955100005,17.53354665200004],[99.94800479100007,17.531057881000038],[99.95326060400004,17.52158883900006],[99.95947743700003,17.521691881000038],[99.96187987500008,17.517732292000062],[99.96877758300008,17.512089584000023],[99.97419360500004,17.51077669500006],[99.97617229200006,17.513850610000077],[99.98353333800009,17.510938038000063],[99.98601317500004,17.50815381600006],[99.99163262000008,17.497942590000036],[99.99634560700008,17.49280937900005],[100.00292388200006,17.488889948000065],[100.00741807400004,17.484681478000027],[100.01450590800005,17.480360243000064],[100.03233329600005,17.486674352000023],[100.08024985800006,17.511647835000076],[100.07308282500009,17.52181039000004],[100.06872953000004,17.525573053000073],[100.06606079700003,17.533578460000058],[100.06897303600005,17.541068774000053],[100.06768601500005,17.54521221400006],[100.06717801500008,17.554495966000047],[100.07011350100004,17.566185578000045],[100.06980778100007,17.573563585000045],[100.07177103800007,17.57749485000005],[100.07339309500009,17.577131209000072],[100.07673879300006,17.582795563000047],[100.07681322900004,17.588201628000036],[100.07550362700005,17.590456268000025],[100.07156563500007,17.59141743500004],[100.06687102200004,17.601032172000032],[100.06394773500006,17.602541760000065],[100.06330791900007,17.606399659000033],[100.06115645200003,17.609146241000076],[100.06710674900006,17.61024918800007],[100.07556393800007,17.61846969800007],[100.07556585700007,17.622760695000068],[100.07399413300004,17.626000662000024],[100.06569111600004,17.627797908000048],[100.06549215000007,17.640668774000062],[100.06619724200004,17.64920188900004],[100.06825477000007,17.653118533000054],[100.07308104800006,17.65799015300007],[100.07283801300008,17.662136227000076],[100.06666510700006,17.67727835000005],[100.07117400300007,17.678523040000073],[100.08008845900008,17.67790360500004],[100.08197338000008,17.679456617000028],[100.08793801200005,17.67797534600004],[100.09121104700006,17.68765785100004],[100.08997080000006,17.694026373000042],[100.08600214700004,17.69883803600004],[100.08551442400005,17.702401378000047],[100.08667325500005,17.707917690000045],[100.08733546000008,17.716972988000066],[100.09165600400007,17.71934748700005],[100.09190686900007,17.73603479700006],[100.09466050700007,17.740650799000036],[100.09510487200004,17.745679989000053],[100.09891499800005,17.748793957000032],[100.10359519500008,17.756350862000033],[100.10150735100007,17.761212300000068],[100.09724862800005,17.763601893000043],[100.09709752900005,17.76731729200003],[100.09482805900006,17.769068855000057],[100.09404648000003,17.77300101000003],[100.08885129300006,17.775753654000027],[100.08087084000005,17.775087936000034],[100.07914120900006,17.777471584000068],[100.07344631300003,17.780484647000037],[100.07201700500008,17.787320297000065],[100.06532310000006,17.793798208000055],[100.06531797400004,17.796955952000076],[100.06306783100007,17.799576469000044],[100.05126925900004,17.802808267000046],[100.04570288400004,17.807214334000037],[100.03783606500008,17.807792392000067],[100.03602998700006,17.811517180000067],[100.03013923700007,17.814171473000044],[100.02699795700005,17.81758149600006],[100.02467222700005,17.822664288000055],[100.02098923700004,17.82376904700004],[100.01628216200004,17.82773257100007],[100.01444370200005,17.827666129000022],[100.01418261300006,17.822624822000023],[100.00980137000005,17.823659005000025],[99.99917442500004,17.821683670000027],[99.99851035700004,17.827509187000032],[99.99527384200007,17.830758536000076]]]},"properties":{"Shape_Leng":1.25286812845,"Shape_Area":0.0398536025369,"ADM2_EN":"Laplae","ADM2_TH":"ลับแล","ADM2_PCODE":"TH5308","ADM1_EN":"Uttaradit","ADM1_TH":"อุตรดิตถ์","ADM1_PCODE":"TH53","ADM0_EN":"Thailand","ADM0_TH":"ประเทศไทย","ADM0_PCODE":"TH"}},
{"type":"Feature","geometry":{"type":"Polygon","coordinates":[[[100.19852875000004,17.539948717000073],[100.20731001200005,17.53444666000007],[100.21224850200008,17.529091077000032],[100.22972472600009,17.503429208000057],[100.23568716700004,17.503850628000066],[100.23645792200006,17.499425934000044],[100.24025336300008,17.49726959000003],[100.24299975700006,17.498184081000034],[100.24581578800007,17.494373822000057],[100.24394876300005,17.489213906000032],[100.24794778700004,17.481786569000064],[100.24619104500005,17.47650786300005],[100.24831949900005,17.47396511000005],[100.24833675500008,17.46762644000006],[100.25046192900004,17.463392498000076],[100.24978232300003,17.460854466000058],[100.25441171900007,17.457354347000035],[100.25250497300004,17.453418016000057],[100.24587793300009,17.450741073000074],[100.24835451900003,17.446777202000078],[100.24861990900007,17.441184736000025],[100.24750894700009,17.43771261300003],[100.24263391500006,17.433519637000074],[100.24146325600003,17.42742638200002],[100.23863491200007,17.423964883000053],[100.23323085000004,17.42123129600003],[100.23951529900006,17.41210742100003],[100.24350940900007,17.40852254600003],[100.24784657300006,17.406831964000048],[100.25391289800007,17.40266027900003],[100.25921008600005,17.402911955000036],[100.26044348500005,17.400326156000062],[100.26879289300007,17.395026573000052],[100.27551497500008,17.394252820000077],[100.27503410900005,17.392136830000027],[100.27804011500007,17.39077006200006],[100.27737603400004,17.38691392000004],[100.28054748400007,17.38361492200005],[100.28745386400004,17.378444006000052],[100.28891178000003,17.376113505000035],[100.29525303900004,17.374346815000024],[100.29899743500005,17.37504490500004],[100.30651959700003,17.382952000000046],[100.30761722400007,17.383015632000024],[100.31534453600005,17.374111971000048],[100.32128097700007,17.370124404000023],[100.32158821300004,17.368485469000063],[100.32551324100007,17.369369664000033],[100.32646212700007,17.373319081000034],[100.32995353100006,17.37790609500007],[100.33051644500006,17.381294763000028],[100.32848911700006,17.385323827000036],[100.33517821500004,17.389178053000023],[100.34238471300006,17.386948392000022],[100.34567249500009,17.388699657000075],[100.34861023500008,17.39260056100005],[100.35581438000008,17.382850048000023],[100.36473462200007,17.388998962000073],[100.37077059300003,17.390498700000023],[100.38040074500003,17.39677228900007],[100.38909383000004,17.400779947000046],[100.39216341500008,17.40480387200006],[100.39728374900005,17.402983368000037],[100.40413990500008,17.405156180000063],[100.40714358600007,17.40745793700006],[100.41306613000006,17.408673845000067],[100.42187172500007,17.412577206000037],[100.42738272900004,17.421434865000037],[100.42920597500006,17.41923286900004],[100.43571933400005,17.41669319400006],[100.44653931100004,17.423730955000053],[100.45001703100007,17.42317878500006],[100.45168379600005,17.419755974000054],[100.45456768000008,17.418006951000052],[100.46900203900003,17.420835140000065],[100.47434875200008,17.420439443000078],[100.47741809200005,17.418297805000066],[100.48127704500007,17.417846375000067],[100.48829895400007,17.419550377000064],[100.49200464600005,17.42257495700005],[100.49539315900006,17.422871392000047],[100.50150787300004,17.428837475000023],[100.50692635700005,17.42525362300006],[100.50792981300003,17.422347486000035],[100.50854321000008,17.41271843000004],[100.50661331000003,17.409699628000055],[100.51270770800005,17.404654462000053],[100.51727746200004,17.40740525800004],[100.52246815700005,17.408061445000044],[100.52149397100004,17.410205035000047],[100.52761881600009,17.413257869000063],[100.52951977900005,17.41217148800007],[100.53027572600007,17.41711346200003],[100.53236307700007,17.413769036000076],[100.53736721700005,17.415412623000066],[100.53768771200004,17.41859184200007],[100.54173455000006,17.41569800600007],[100.54760215500005,17.416463573000044],[100.55095519800005,17.414536075000058],[100.56128149200003,17.417349348000073],[100.56523929900004,17.420312505000027],[100.56751943700004,17.419875355000045],[100.57086211700005,17.422234135000053],[100.57562290000004,17.42203225700007],[100.57814615800004,17.42053624500005],[100.58177675000007,17.421267080000064],[100.58490059200005,17.418943085000024],[100.59682141100006,17.423290273000077],[100.60322151700007,17.427856689000066],[100.60256693000008,17.43299435600005],[100.60007207700005,17.436753072000045],[100.60262292900006,17.440013429000032],[100.60192066300004,17.442730251000057],[100.60313866700005,17.448091910000073],[100.60696979300008,17.452282883000066],[100.60843479900007,17.457455726000035],[100.61306019500006,17.46551706400004],[100.61811546400008,17.468758421000075],[100.62099268100008,17.468419460000064],[100.62949384500007,17.47433858000005],[100.63361097900008,17.473549751000064],[100.64413885000005,17.473796754000034],[100.64536051200008,17.475657328000068],[100.64326048800007,17.482549822000067],[100.64488471900006,17.485179883000058],[100.64152931600006,17.489715665000062],[100.64224795900009,17.493273862000024],[100.64508423600006,17.494401995000032],[100.64571571400006,17.50320587300007],[100.64413503400004,17.510328101000027],[100.63949141600006,17.51384289400005],[100.63870682800007,17.51709707400005],[100.64071626000003,17.51973454000006],[100.63319848000003,17.527512385000023],[100.62825104000007,17.525562518000072],[100.61946056000005,17.52951803600007],[100.61874168900005,17.531343852000077],[100.60813011700009,17.52951245400004],[100.59951944200009,17.521756267000058],[100.59709697300008,17.518506670000022],[100.59373980100008,17.517813267000065],[100.58734087900007,17.51270039700006],[100.58193154000008,17.509566214000074],[100.57611332800008,17.51031775900003],[100.57017544200005,17.501750213000037],[100.56792644700005,17.500296828000046],[100.55760042900005,17.497875614000066],[100.55493151100006,17.49999712600004],[100.55067439400005,17.49657241600005],[100.54862123300006,17.493024250000076],[100.54467804400008,17.489308764000043],[100.54481102200003,17.487275388000057],[100.54056758200005,17.483539397000072],[100.53860503600004,17.480242305000047],[100.53613072000007,17.481128803000047],[100.53328767000005,17.486639264000075],[100.52958300100005,17.489513742000042],[100.53046161500004,17.50083661900004],[100.52472122100005,17.50476540300002],[100.52371304100006,17.510383037000054],[100.51379665200005,17.51095977800003],[100.50910433400009,17.507804735000036],[100.50025052600006,17.510406980000027],[100.49902580000008,17.515005176000045],[100.50062240500006,17.523511459000076],[100.49656572700007,17.528677016000074],[100.49198423600006,17.53159346800004],[100.48783688100008,17.530780764000042],[100.48923153300007,17.53491802800005],[100.49210518700005,17.53826395300007],[100.48328536600008,17.54274673200007],[100.47997601100008,17.54535088800003],[100.47705009000003,17.545615542000064],[100.47382299600008,17.548831996000047],[100.46577076100004,17.55031378700005],[100.45682119500003,17.555896790000077],[100.44586740200003,17.567519808000043],[100.44347545600004,17.57669499600007],[100.44511921300005,17.57961509100005],[100.44298678500007,17.58750371800005],[100.43971968900007,17.592656678000026],[100.44040159100007,17.59646969000005],[100.44066709000003,17.611121603000072],[100.43756680100006,17.607696675000057],[100.43015286200006,17.605550122000068],[100.42680242800009,17.606197490000056],[100.42489771600003,17.60919923800003],[100.42618691000007,17.613145228000064],[100.42536151900003,17.617270572000052],[100.41920894400005,17.62302774400007],[100.41266829900007,17.621200642000076],[100.40772836500008,17.617110713000045],[100.40418768500007,17.611043881000057],[100.40413247200007,17.608053253000037],[100.39502362900004,17.601992349000056],[100.38900948100007,17.59877864300006],[100.38251025400007,17.599257503000047],[100.37459862100008,17.59520150000003],[100.36743314600005,17.593272084000034],[100.36298843900005,17.588083115000074],[100.36072829500006,17.58702871500003],[100.35294310300009,17.587219185000038],[100.34754141500008,17.589273087000038],[100.33457642600007,17.597940435000055],[100.33185127800004,17.601964855000062],[100.33068619800008,17.60896440700003],[100.32518125700005,17.61205565700004],[100.31943469300006,17.619129558000054],[100.31605702700006,17.621622373000037],[100.31476982900006,17.625325703000044],[100.31310621100005,17.623492621000025],[100.30782154500008,17.623562036000067],[100.29419537100006,17.62063973000005],[100.29188063900006,17.616423332000068],[100.28837228400005,17.61302683400004],[100.28888537800003,17.608877491000044],[100.28661140000008,17.60538900100005],[100.27545004600006,17.60375542500003],[100.27406843000006,17.602431814000056],[100.26812025200007,17.604273531000047],[100.26546716300004,17.599178739000024],[100.26327299900004,17.603205245000026],[100.26025543300005,17.601002578000077],[100.25751262900008,17.593830943000057],[100.25538707200008,17.591557757000032],[100.24199275500007,17.586871549000023],[100.23633750700009,17.587630852000075],[100.22679725300009,17.58085896600005],[100.22782873400007,17.57763426100007],[100.23053923400005,17.575967242000047],[100.22448938400004,17.572145142000068],[100.21866932600005,17.56705906600007],[100.21530555800007,17.558367631000067],[100.20939203800003,17.548728744000073],[100.20293200000003,17.542093586000078],[100.19852875000004,17.539948717000073]]]},"properties":{"Shape_Leng":1.55595057658,"Shape_Area":0.0625817659985,"ADM2_EN":"Thong Saen Khan","ADM2_TH":"ทองแสนขัน","ADM2_PCODE":"TH5309","ADM1_EN":"Uttaradit","ADM1_TH":"อุตรดิตถ์","ADM1_PCODE":"TH53","ADM0_EN":"Thailand","ADM0_TH":"ประเทศไทย","ADM0_PCODE":"TH"}}
]}