{"type":"FeatureCollection", "features": [
{"type":"Feature","geometry":{"type":"Polygon","coordinates":[[[101.35487452600006,6.5571950630000515],[101.34553255700007,6.557686477000061],[101.32542035400007,6.572223257000076],[101.30663259900007,6.56469671900004],[101.30045264900008,6.570719499000063],[101.30010648400008,6.585978208000029],[101.29366036500005,6.601176553000073],[101.29256134300005,6.614141979000067],[101.30219221700008,6.618134575000056],[101.29793352400009,6.632798112000046],[101.29894172300004,6.647220296000057],[101.28921911100008,6.664789367000026],[101.29672037100005,6.677634592000061],[101.29080508800007,6.682768087000056],[101.27989522200005,6.679222037000045],[101.28323955600007,6.675201884000046],[101.27797398400008,6.655598423000072],[101.27183070900008,6.646452255000042],[101.25548622000008,6.641344137000033],[101.24864003300007,6.643983690000027],[101.23894176800007,6.633938503000024],[101.23189171100006,6.615259197000057],[101.21891955900008,6.59844041100007],[101.21274173800003,6.595697242000028],[101.17622404600007,6.599772159000054],[101.16116685300005,6.6034440230000655],[101.14744710600007,6.610611602000063],[101.13835765100004,6.608523489000049],[101.12709057300003,6.612904238000056],[101.11138102300004,6.628350147000049],[101.10361983100006,6.627967249000051],[101.09150577400004,6.615838562000022],[101.09021512400005,6.608214353000051],[101.10321026900004,6.601090181000075],[101.12577589000006,6.568098677000023],[101.12518048800007,6.5578593310000315],[101.13428674100004,6.552033885000071],[101.14813590300008,6.555817962000049],[101.17168541700005,6.534228854000048],[101.17219844900006,6.509719079000035],[101.18815381900004,6.508911764000061],[101.19902814900007,6.496476233000067],[101.22158243800004,6.483626881000021],[101.23206670400003,6.487883097000065],[101.24227132500005,6.4648671490000424],[101.24887791300006,6.4683317330000705],[101.24891967300005,6.454050236000057],[101.26060870200007,6.4616689560000395],[101.28339869100006,6.468855605000044],[101.28586486500006,6.4631049170000665],[101.30385230400003,6.446496532000026],[101.31533034200004,6.446444343000053],[101.32590023200004,6.45119479300007],[101.33208518500004,6.460603138000067],[101.32774711900004,6.479680407000046],[101.32121646900003,6.485630785000069],[101.32066263200005,6.4948760460000585],[101.32623360400004,6.502330541000049],[101.33233346800006,6.519947848000072],[101.32751864200009,6.5316498820000675],[101.34061986700004,6.5460438100000715],[101.35487452600006,6.5571950630000515]]]},"properties":{"Shape_Leng":1.00398570153,"Shape_Area":0.0261793669475,"ADM2_EN":"Mueang Yala","ADM2_TH":"เมืองยะลา","ADM2_PCODE":"TH9501","ADM1_EN":"Yala","ADM1_TH":"ยะลา","ADM1_PCODE":"TH95","ADM0_EN":"Thailand","ADM0_TH":"ประเทศไทย","ADM0_PCODE":"TH"}},
{"type":"Feature","geometry":{"type":"Polygon","coordinates":[[[101.47793917500007,6.043515905000049],[101.46193909900006,6.048978196000064],[101.43268546300004,6.048909687000048],[101.42309410700005,6.055258252000044],[101.40623324200004,6.05777593800002],[101.39984495100003,6.052137950000031],[101.36856804800004,6.049522609000064],[101.36779630800004,6.042855633000045],[101.35124677400006,6.03235139700007],[101.35004629100007,6.022383090000062],[101.33551185500005,6.017988459000037],[101.32807314100006,6.01164304200006],[101.32400006900008,5.978672599000049],[101.32828751200009,5.972541554000031],[101.32657253500008,5.9594862880000505],[101.33111722600006,5.954898723000042],[101.32524342700003,5.946323836000033],[101.32571504700007,5.9354766030000405],[101.31178085400006,5.919698809000067],[101.30824371300008,5.908894450000048],[101.29581012600005,5.903213587000039],[101.28637774900005,5.894402891000027],[101.27921771800004,5.906557794000037],[101.26635538600004,5.917212092000057],[101.26749155900006,5.922228401000041],[101.26024577900006,5.937491701000056],[101.25983847200007,5.946173775000034],[101.25079196500008,5.9788226600000485],[101.25177361500005,5.999002806000021],[101.23854017500008,5.998014667000064],[101.23593554100006,6.0055643820000455],[101.22642162200003,6.006995280000069],[101.22142119300008,5.999093468000069],[101.20695772900007,5.995832084000028],[101.17781480000008,6.000118970000074],[101.16462998400004,6.01329402500005],[101.15325288300005,6.012724245000072],[101.14326588100005,6.005681113000037],[101.12683066800008,5.999379220000037],[101.11902243500003,6.0018035040000655],[101.10634695500005,5.998807508000027],[101.10687095700007,5.99078951000007],[101.12228935900004,5.982318598000063],[101.12388227100007,5.977130114000033],[101.11474100100008,5.967424939000068],[101.11338627000003,5.960112564000042],[101.09554186000008,5.9502424140000585],[101.09936238900008,5.942362175000028],[101.09264926900005,5.933550541000045],[101.08473000500004,5.909395320000044],[101.07575711800007,5.9179971030000615],[101.06160041600003,5.919359092000036],[101.05073158400006,5.910569418000023],[101.03782941800006,5.917838206000056],[101.02555235200003,5.912158587000022],[101.02917615800004,5.9017065680000655],[101.00893597400005,5.8738299080000616],[101.00954993600004,5.857439249000038],[101.00631820700005,5.852324580000072],[101.01172395100008,5.838461266000024],[101.00129198400003,5.828217141000039],[100.99890044600005,5.818551188000072],[100.98333705500005,5.808331423000027],[100.98963766800006,5.783502776000034],[101.00285095900006,5.780102661000058],[101.00743831100004,5.769984299000043],[101.01740090100009,5.767384796000044],[101.02178420500007,5.754219243000023],[101.03403010700004,5.738109909000059],[101.06199687200007,5.7422490310000285],[101.06228240800004,5.726730187000044],[101.06774089400005,5.728291111000033],[101.08240312800007,5.721124175000057],[101.08094095300004,5.709776525000052],[101.09551526700005,5.702997384000071],[101.09449011200007,5.696819662000053],[101.10348308600004,5.68501112000007],[101.11038637300004,5.681707059000075],[101.12312924200006,5.66175684500007],[101.12859124000005,5.641197709000039],[101.12936831800005,5.6258353000000625],[101.13562825500009,5.613037873000053],[101.14425721900005,5.615546032000054],[101.14414617500006,5.623119934000044],[101.15138040300008,5.622354261000055],[101.16839462900003,5.636237404000042],[101.17203348300006,5.647907031000045],[101.19610267500008,5.649755669000058],[101.20462382900007,5.660298391000026],[101.21421603900006,5.6614160920000245],[101.22171635100005,5.675364058000071],[101.21814358000006,5.687952729000074],[101.23331029500008,5.6881710770000495],[101.25068578900004,5.6991861120000635],[101.25145968200007,5.708464496000033],[101.25979354600008,5.712162913000043],[101.25980567000005,5.732627838000042],[101.25458950800004,5.742576108000037],[101.25493557300007,5.753823382000064],[101.24993467100006,5.760035795000022],[101.25960415900005,5.778723525000032],[101.25800717000004,5.78753776700006],[101.26359431800006,5.800917696000056],[101.27863596400005,5.812330625000072],[101.29114085600008,5.816399127000068],[101.30456107000003,5.814160952000066],[101.30653409800004,5.805095022000046],[101.31457748100007,5.802709137000022],[101.32090742800006,5.8125556750000555],[101.33795250100007,5.807139348000021],[101.34552103900006,5.809079069000063],[101.34701008700006,5.8231962650000355],[101.35892935600003,5.833554258000049],[101.37352026800005,5.83241728400003],[101.37994145300007,5.850990267000043],[101.38948479500004,5.858471047000023],[101.39154133300008,5.875880929000061],[101.40624402900005,5.872244731000023],[101.41726448500003,5.876613636000059],[101.43121677700003,5.871491574000061],[101.45509371800006,5.8678183030000355],[101.46478897500003,5.876803118000055],[101.47467089800006,5.870258756000055],[101.48486317900006,5.870298863000073],[101.48711648300008,5.883204769000031],[101.49404852900005,5.881883698000024],[101.50222226700004,5.889682420000042],[101.49871170400007,5.899739339000064],[101.48990151400005,5.901188758000046],[101.49231262400008,5.92224668800003],[101.49003052600006,5.9366866620000565],[101.49648184200004,5.95098953400003],[101.48618997300008,5.956339086000071],[101.48420985600006,5.977802619000045],[101.47890713600003,5.976474822000057],[101.47565403200008,5.9882909540000355],[101.47765716400005,6.007317795000063],[101.48238518500006,6.012613541000064],[101.47794144500006,6.019887918000052],[101.47793917500007,6.043515905000049]]]},"properties":{"Shape_Leng":2.19929622094,"Shape_Area":0.107595302295,"ADM2_EN":"Betong","ADM2_TH":"เบตง","ADM2_PCODE":"TH9502","ADM1_EN":"Yala","ADM1_TH":"ยะลา","ADM1_PCODE":"TH95","ADM0_EN":"Thailand","ADM0_TH":"ประเทศไทย","ADM0_PCODE":"TH"}},
{"type":"Feature","geometry":{"type":"Polygon","coordinates":[[[101.32561287500005,6.3917346860000634],[101.30929208900005,6.390988359000062],[101.29922101300008,6.384556376000035],[101.27585524100004,6.375963822000074],[101.26740742600003,6.363421150000022],[101.29255756800006,6.353797540000073],[101.29209401200006,6.335408292000068],[101.28510978500003,6.329005431000041],[101.28294309000006,6.314688877000037],[101.29799537800005,6.303579974000058],[101.30069818500004,6.297606587000075],[101.26744022200006,6.307296367000049],[101.26099695800008,6.3244353380000575],[101.24680788200004,6.321637011000064],[101.22617905300007,6.340926934000038],[101.21302829800004,6.3296209650000606],[101.19548654400006,6.308255885000051],[101.18991634400004,6.297006697000029],[101.17877161400008,6.283848348000049],[101.16203265100006,6.291114182000058],[101.14918334600009,6.288556862000064],[101.13241216000006,6.275920761000066],[101.13158818400007,6.267408304000071],[101.11194330700005,6.271024754000052],[101.10152680100003,6.25544325900006],[101.11195486700007,6.251283004000072],[101.10493991100009,6.239707913000075],[101.11862494100006,6.2125888070000315],[101.11485268300004,6.204745064000065],[101.12643335300004,6.194152738000071],[101.11845888700009,6.1863936450000665],[101.12414624000007,6.181566041000053],[101.13460427100006,6.18766411200005],[101.15172864700008,6.189956179000035],[101.16008361000007,6.195679606000056],[101.19372984000006,6.2048225790000515],[101.21536778700005,6.203406484000027],[101.23702577100005,6.206851638000046],[101.24363989700004,6.204171676000044],[101.24588392700008,6.212560427000028],[101.26567031300004,6.215558603000034],[101.25977233600008,6.196438880000073],[101.26585047700007,6.180945881000071],[101.26913779400007,6.163701088000039],[101.27555059900004,6.162433133000036],[101.26241367200004,6.130413227000076],[101.27249060300005,6.133323158000053],[101.29524038100004,6.1306745200000705],[101.31758916300004,6.145506683000065],[101.31838736800006,6.152424305000068],[101.32824390600007,6.15827882800005],[101.34459559300007,6.1608590260000256],[101.35516151300004,6.153298375000077],[101.37281603100007,6.149112664000029],[101.37768555400004,6.154365092000035],[101.39390589000004,6.159855831000073],[101.38674915900003,6.16737246100007],[101.38608761500006,6.181620320000036],[101.37136802900005,6.20952770100007],[101.39451649700004,6.222866611000029],[101.40337066800004,6.239744789000042],[101.39515291900005,6.2454341410000325],[101.40265336800007,6.271177736000027],[101.39498886100006,6.286086872000055],[101.39388422700006,6.301548979000074],[101.39975665700007,6.3177856620000625],[101.38964269600007,6.326458957000057],[101.38779984700005,6.335564738000073],[101.37558685900007,6.343307638000056],[101.37402470600006,6.350008469000045],[101.35515352600004,6.3580640140000355],[101.35655921800009,6.374213871000052],[101.34458739700005,6.376947311000038],[101.33035492700009,6.384929381000063],[101.32561287500005,6.3917346860000634]]]},"properties":{"Shape_Leng":1.31098169498,"Shape_Area":0.0428301082778,"ADM2_EN":"Bannang Sata","ADM2_TH":"บันนังสตา","ADM2_PCODE":"TH9503","ADM1_EN":"Yala","ADM1_TH":"ยะลา","ADM1_PCODE":"TH95","ADM0_EN":"Thailand","ADM0_TH":"ประเทศไทย","ADM0_PCODE":"TH"}},
{"type":"Feature","geometry":{"type":"Polygon","coordinates":[[[101.47793917500007,6.043515905000049],[101.47564693100009,6.065347087000021],[101.46675796300008,6.080252304000055],[101.46082584200008,6.077392815000053],[101.44654267200008,6.082091424000055],[101.43727505800007,6.096946002000038],[101.44097459200003,6.109463106000021],[101.43611327200006,6.116967754000029],[101.43540828500005,6.128782934000071],[101.42965812900007,6.129726409000057],[101.42745466000008,6.140555867000046],[101.41525714800008,6.143380243000024],[101.41168435000009,6.157128628000066],[101.39390589000004,6.159855831000073],[101.37768555400004,6.154365092000035],[101.37281603100007,6.149112664000029],[101.35516151300004,6.153298375000077],[101.34459559300007,6.1608590260000256],[101.32824390600007,6.15827882800005],[101.31838736800006,6.152424305000068],[101.31758916300004,6.145506683000065],[101.29524038100004,6.1306745200000705],[101.27249060300005,6.133323158000053],[101.26241367200004,6.130413227000076],[101.27555059900004,6.162433133000036],[101.26913779400007,6.163701088000039],[101.26585047700007,6.180945881000071],[101.25977233600008,6.196438880000073],[101.26567031300004,6.215558603000034],[101.24588392700008,6.212560427000028],[101.24363989700004,6.204171676000044],[101.23702577100005,6.206851638000046],[101.21536778700005,6.203406484000027],[101.19372984000006,6.2048225790000515],[101.16008361000007,6.195679606000056],[101.15172864700008,6.189956179000035],[101.13460427100006,6.18766411200005],[101.12414624000007,6.181566041000053],[101.11845888700009,6.1863936450000665],[101.10761350500007,6.179538437000076],[101.08533623800008,6.178654422000022],[101.07476666900004,6.170321994000062],[101.07078363700003,6.1593910830000596],[101.05844172900004,6.1430629240000485],[101.07446163100008,6.135912678000068],[101.08967352600007,6.133939248000047],[101.10525145200006,6.123446816000069],[101.10586902500006,6.113498323000044],[101.11820891900004,6.114821680000034],[101.12702271000006,6.104358922000074],[101.12592627500004,6.095272198000032],[101.11471985900005,6.091514799000038],[101.11527572900007,6.080367082000066],[101.11091083000008,6.066608912000049],[101.10424746100006,6.063084252000067],[101.10035223700004,6.049784561000024],[101.11363268900004,6.039330976000031],[101.10756668100004,6.028165398000056],[101.11105160800008,6.010254244000066],[101.10634695500005,5.998807508000027],[101.11902243500003,6.0018035040000655],[101.12683066800008,5.999379220000037],[101.14326588100005,6.005681113000037],[101.15325288300005,6.012724245000072],[101.16462998400004,6.01329402500005],[101.17781480000008,6.000118970000074],[101.20695772900007,5.995832084000028],[101.22142119300008,5.999093468000069],[101.22642162200003,6.006995280000069],[101.23593554100006,6.0055643820000455],[101.23854017500008,5.998014667000064],[101.25177361500005,5.999002806000021],[101.25079196500008,5.9788226600000485],[101.25983847200007,5.946173775000034],[101.26024577900006,5.937491701000056],[101.26749155900006,5.922228401000041],[101.26635538600004,5.917212092000057],[101.27921771800004,5.906557794000037],[101.28637774900005,5.894402891000027],[101.29581012600005,5.903213587000039],[101.30824371300008,5.908894450000048],[101.31178085400006,5.919698809000067],[101.32571504700007,5.9354766030000405],[101.32524342700003,5.946323836000033],[101.33111722600006,5.954898723000042],[101.32657253500008,5.9594862880000505],[101.32828751200009,5.972541554000031],[101.32400006900008,5.978672599000049],[101.32807314100006,6.01164304200006],[101.33551185500005,6.017988459000037],[101.35004629100007,6.022383090000062],[101.35124677400006,6.03235139700007],[101.36779630800004,6.042855633000045],[101.36856804800004,6.049522609000064],[101.39984495100003,6.052137950000031],[101.40623324200004,6.05777593800002],[101.42309410700005,6.055258252000044],[101.43268546300004,6.048909687000048],[101.46193909900006,6.048978196000064],[101.47793917500007,6.043515905000049]]]},"properties":{"Shape_Leng":1.57671801359,"Shape_Area":0.0603190495514,"ADM2_EN":"Than To","ADM2_TH":"ธารโต","ADM2_PCODE":"TH9504","ADM1_EN":"Yala","ADM1_TH":"ยะลา","ADM1_PCODE":"TH95","ADM0_EN":"Thailand","ADM0_TH":"ประเทศไทย","ADM0_PCODE":"TH"}},
{"type":"Feature","geometry":{"type":"Polygon","coordinates":[[[101.09021512400005,6.608214353000051],[101.08487494700006,6.589411248000033],[101.08709189000007,6.5734498100000565],[101.08078610100006,6.554879662000076],[101.06924924600008,6.544015911000031],[101.04314188300003,6.54163360900003],[101.04430055200004,6.524857261000022],[101.03568654600008,6.514829715000076],[101.04252312400007,6.504875076000076],[101.04266897100007,6.485826403000033],[101.03467357500006,6.485744666000073],[101.04234008800006,6.462064745000021],[101.04586023000007,6.458071630000063],[101.05779860400008,6.459349645000032],[101.06941740200006,6.436314362000076],[101.07943650500005,6.400464616000022],[101.07494443200005,6.382357237000065],[101.08019728400006,6.369957487000022],[101.07834432700008,6.348744795000073],[101.05044379800006,6.332941150000067],[101.01971671100006,6.328419179000036],[101.01438436700005,6.320703232000028],[100.97985649900005,6.3044778260000385],[100.97276381700004,6.298315020000075],[100.96895754100007,6.2830245610000475],[100.98404576100006,6.277831165000066],[100.98967656600007,6.265932240000041],[101.01013720100008,6.255937561000053],[101.01264438300007,6.248711121000042],[101.02210798900006,6.249825269000041],[101.03207043500004,6.244870954000021],[101.05018730800003,6.254425046000051],[101.05986740200007,6.253591604000064],[101.06366406700005,6.259464933000061],[101.07562462700008,6.255728695000073],[101.08205293500004,6.259506470000076],[101.09645709500006,6.2597520200000645],[101.10152680100003,6.25544325900006],[101.11194330700005,6.271024754000052],[101.13158818400007,6.267408304000071],[101.13241216000006,6.275920761000066],[101.14918334600009,6.288556862000064],[101.16203265100006,6.291114182000058],[101.17877161400008,6.283848348000049],[101.18991634400004,6.297006697000029],[101.19548654400006,6.308255885000051],[101.21302829800004,6.3296209650000606],[101.22617905300007,6.340926934000038],[101.22068456200009,6.350806506000026],[101.21097575000005,6.353500649000068],[101.20712240800003,6.382249738000041],[101.20012618900006,6.399520108000047],[101.20201530000008,6.42780287100004],[101.19717124000005,6.431802327000071],[101.19941238900009,6.4408634470000266],[101.21392047400008,6.453585024000063],[101.21639673700008,6.470991909000077],[101.22158243800004,6.483626881000021],[101.19902814900007,6.496476233000067],[101.18815381900004,6.508911764000061],[101.17219844900006,6.509719079000035],[101.17168541700005,6.534228854000048],[101.14813590300008,6.555817962000049],[101.13428674100004,6.552033885000071],[101.12518048800007,6.5578593310000315],[101.12577589000006,6.568098677000023],[101.10321026900004,6.601090181000075],[101.09021512400005,6.608214353000051]]]},"properties":{"Shape_Leng":1.21606571897,"Shape_Area":0.0461505809649,"ADM2_EN":"Yaha","ADM2_TH":"ยะหา","ADM2_PCODE":"TH9505","ADM1_EN":"Yala","ADM1_TH":"ยะลา","ADM1_PCODE":"TH95","ADM0_EN":"Thailand","ADM0_TH":"ประเทศไทย","ADM0_PCODE":"TH"}},
{"type":"Feature","geometry":{"type":"Polygon","coordinates":[[[101.30385230400003,6.446496532000026],[101.30264527500003,6.43236369400006],[101.32561287500005,6.3917346860000634],[101.33035492700009,6.384929381000063],[101.34458739700005,6.376947311000038],[101.35655921800009,6.374213871000052],[101.35515352600004,6.3580640140000355],[101.37402470600006,6.350008469000045],[101.37558685900007,6.343307638000056],[101.38779984700005,6.335564738000073],[101.39758673800009,6.35102345100006],[101.39860018600007,6.359535848000064],[101.41700855500005,6.3726884990000485],[101.41953894500006,6.390176577000034],[101.41193173700003,6.395844905000047],[101.41863410600007,6.401290675000041],[101.42488644300005,6.422483691000025],[101.43492961000004,6.429239558000063],[101.45735747000003,6.431737522000049],[101.46255835100004,6.424580318000039],[101.46917008400004,6.426180402000057],[101.46283974000005,6.453824471000075],[101.46658001000009,6.464656440000056],[101.48670637100008,6.462899035000021],[101.50761612900004,6.451294603000065],[101.52351012400004,6.465675395000062],[101.53578268400008,6.468427079000037],[101.54706974900006,6.483358616000032],[101.56151694600004,6.4876827560000265],[101.56343341100006,6.494867979000048],[101.57371160100007,6.498658522000028],[101.58199477000005,6.511943059000032],[101.59076258800008,6.512082323000072],[101.59091529400007,6.522884946000033],[101.60887493000007,6.544232014000045],[101.59776934800004,6.552736395000068],[101.59243153100005,6.56560236200005],[101.58209005400005,6.556270095000059],[101.56337858400008,6.549858604000065],[101.55004569900007,6.555221304000042],[101.53677912900008,6.556012145000068],[101.52604702000008,6.571663484000055],[101.51723241400003,6.577746710000042],[101.52068746000003,6.58916939300002],[101.50934895900008,6.602380172000039],[101.49551149300004,6.599375955000028],[101.48915675700005,6.6041269270000384],[101.47683159000007,6.594022601000063],[101.45824311200005,6.5972435230000315],[101.45979627600008,6.588906464000047],[101.45285077200003,6.577331812000068],[101.43787060800008,6.590789448000066],[101.42192079700004,6.593453938000039],[101.38884880600006,6.568906517000073],[101.37164250900008,6.567888177000043],[101.36193058200007,6.563594076000072],[101.36029422300004,6.554146056000036],[101.35487452600006,6.5571950630000515],[101.34061986700004,6.5460438100000715],[101.32751864200009,6.5316498820000675],[101.33233346800006,6.519947848000072],[101.32623360400004,6.502330541000049],[101.32066263200005,6.4948760460000585],[101.32121646900003,6.485630785000069],[101.32774711900004,6.479680407000046],[101.33208518500004,6.460603138000067],[101.32590023200004,6.45119479300007],[101.31533034200004,6.446444343000053],[101.30385230400003,6.446496532000026]]]},"properties":{"Shape_Leng":1.15435762017,"Shape_Area":0.0399243656601,"ADM2_EN":"Raman","ADM2_TH":"รามัน","ADM2_PCODE":"TH9506","ADM1_EN":"Yala","ADM1_TH":"ยะลา","ADM1_PCODE":"TH95","ADM0_EN":"Thailand","ADM0_TH":"ประเทศไทย","ADM0_PCODE":"TH"}},
{"type":"Feature","geometry":{"type":"Polygon","coordinates":[[[101.03467357500006,6.485744666000073],[101.02471603700008,6.482130249000022],[101.02061377100006,6.487759279000045],[100.99926744600003,6.479056122000031],[100.98976027900005,6.48534593100004],[100.97692937700003,6.486331240000027],[100.97276607400005,6.46769155100003],[100.96491915400009,6.468898680000052],[100.96043093600008,6.450904487000059],[100.95209256300006,6.449494763000075],[100.94903134900005,6.442425565000065],[100.93286047800007,6.444507807000036],[100.92211766700007,6.426457932000062],[100.91815808800004,6.408524514000021],[100.91847388200006,6.393228497000052],[100.92247626300008,6.390380028000038],[100.92223708200004,6.374695821000046],[100.92755871600008,6.3665496300000655],[100.92631606000003,6.354326815000036],[100.92006316900006,6.354700518000072],[100.92014615000005,6.344717677000062],[100.92877400500004,6.33091866500007],[100.92709149200005,6.319003101000021],[100.92013005800004,6.320165942000074],[100.91240166100005,6.311192599000037],[100.91214657600005,6.303420234000043],[100.89767510800004,6.303670574000023],[100.88879460900006,6.295679875000076],[100.87059152000006,6.293694228000049],[100.86514243500005,6.2974479450000445],[100.85008663300005,6.290130886000043],[100.84104279900004,6.300423765000062],[100.83484429000004,6.2955963860000566],[100.83511891700005,6.285978401000023],[100.84583923400004,6.257050204000052],[100.84415334200008,6.24975326200007],[100.85496262800007,6.231592343000045],[100.86972982500004,6.241395526000076],[100.86582161300004,6.244152973000041],[100.87211502700006,6.2645487330000265],[100.88595705100005,6.250194979000071],[100.89132412700008,6.2498982490000685],[100.89259996800007,6.239250717000061],[100.90211390400003,6.233583076000059],[100.91747339900007,6.247881715000062],[100.92236956700003,6.244543413000031],[100.94379143800006,6.243250397000054],[100.94659694300003,6.26314022400004],[100.96734797400006,6.274713398000074],[100.96895754100007,6.2830245610000475],[100.97276381700004,6.298315020000075],[100.97985649900005,6.3044778260000385],[101.01438436700005,6.320703232000028],[101.01971671100006,6.328419179000036],[101.05044379800006,6.332941150000067],[101.07834432700008,6.348744795000073],[101.08019728400006,6.369957487000022],[101.07494443200005,6.382357237000065],[101.07943650500005,6.400464616000022],[101.06941740200006,6.436314362000076],[101.05779860400008,6.459349645000032],[101.04586023000007,6.458071630000063],[101.04234008800006,6.462064745000021],[101.03467357500006,6.485744666000073]]]},"properties":{"Shape_Leng":1.06769235792,"Shape_Area":0.0292936212075,"ADM2_EN":"Kabang","ADM2_TH":"กาบัง","ADM2_PCODE":"TH9507","ADM1_EN":"Yala","ADM1_TH":"ยะลา","ADM1_PCODE":"TH95","ADM0_EN":"Thailand","ADM0_TH":"ประเทศไทย","ADM0_PCODE":"TH"}},
{"type":"Feature","geometry":{"type":"Polygon","coordinates":[[[101.22158243800004,6.483626881000021],[101.21639673700008,6.470991909000077],[101.21392047400008,6.453585024000063],[101.19941238900009,6.4408634470000266],[101.19717124000005,6.431802327000071],[101.20201530000008,6.42780287100004],[101.20012618900006,6.399520108000047],[101.20712240800003,6.382249738000041],[101.21097575000005,6.353500649000068],[101.22068456200009,6.350806506000026],[101.22617905300007,6.340926934000038],[101.24680788200004,6.321637011000064],[101.26099695800008,6.3244353380000575],[101.26744022200006,6.307296367000049],[101.30069818500004,6.297606587000075],[101.29799537800005,6.303579974000058],[101.28294309000006,6.314688877000037],[101.28510978500003,6.329005431000041],[101.29209401200006,6.335408292000068],[101.29255756800006,6.353797540000073],[101.26740742600003,6.363421150000022],[101.27585524100004,6.375963822000074],[101.29922101300008,6.384556376000035],[101.30929208900005,6.390988359000062],[101.32561287500005,6.3917346860000634],[101.30264527500003,6.43236369400006],[101.30385230400003,6.446496532000026],[101.28586486500006,6.4631049170000665],[101.28339869100006,6.468855605000044],[101.26060870200007,6.4616689560000395],[101.24891967300005,6.454050236000057],[101.24887791300006,6.4683317330000705],[101.24227132500005,6.4648671490000424],[101.23206670400003,6.487883097000065],[101.22158243800004,6.483626881000021]]]},"properties":{"Shape_Leng":0.664548946665,"Shape_Area":0.0131553759114,"ADM2_EN":"Krong Pinang","ADM2_TH":"กรงปินัง","ADM2_PCODE":"TH9508","ADM1_EN":"Yala","ADM1_TH":"ยะลา","ADM1_PCODE":"TH95","ADM0_EN":"Thailand","ADM0_TH":"ประเทศไทย","ADM0_PCODE":"TH"}}
]}