{"type":"Topology","arcs":[[[5692,5731],[8,-38],[35,-12],[10,-16],[67,-12],[52,6],[53,18],[63,9],[25,-12],[20,-51],[-46,-64],[-23,-2],[-28,-28],[-4,-25],[9,-45],[37,-33],[-17,-13],[-13,-60],[-40,-20],[-26,-30],[-22,-5],[9,-22],[-35,-71],[-21,-24],[-8,-53],[26,-43],[21,-17],[26,-38],[38,-18],[52,-7],[13,-12],[-8,-18],[32,-8],[28,20],[31,-4],[16,-14],[1,-23],[-20,-49],[-29,-42],[-23,-13],[4,-24],[42,-40],[39,-15],[7,-35],[41,-6],[7,-14],[29,-7],[9,-25],[-8,-17],[22,-29],[39,-6],[9,-19],[-3,-25],[-86,-70],[-6,-32],[-37,-57],[-2,-54],[-42,-34],[7,-41],[27,-24],[23,-40],[23,-57],[26,-97],[7,-109],[-3,-68],[-8,-34],[-38,-62],[9,-28],[35,-35],[-1,-42],[20,-20],[59,-19],[34,-24],[2,-16],[37,-23],[-58,-80],[1,-12],[-34,-46],[-9,-50],[14,-11],[-13,-26],[7,-14],[45,-21]],[[6277,3334],[-63,-19],[-64,-51],[-96,-96],[-29,-15],[-93,-61],[-22,-21],[-67,-44],[-23,-117],[-20,-70],[-24,-27],[-83,-71],[-41,-42],[-38,-46],[-41,-24]],[[5573,2630],[-83,34],[-43,44],[6,8],[-31,30],[-19,6],[-9,19],[-3,50],[-17,34],[-102,12],[-28,14],[-58,12],[-46,40],[-34,18],[-25,28],[-72,41],[-64,8],[-46,53],[-43,31],[-1,16],[-37,42],[3,23],[-63,62],[-8,31],[4,30],[-26,11],[-20,30],[-20,-3],[-33,31],[-32,7],[-39,0],[-47,18],[-52,45],[-109,79],[-21,-33],[16,-8],[-19,-49],[-69,20],[-40,29],[6,-21],[-16,-9],[-7,-43],[14,-23],[13,6],[20,-16],[-6,-44],[-20,-6],[-119,-2],[-258,1],[-46,9],[-45,2],[-69,-27],[-69,1],[-33,-17],[-31,-26],[-27,6],[-25,-23],[0,-16],[-23,-21],[-35,-14],[-32,4],[-40,-15],[-37,0],[-36,23],[-43,14],[-31,-3],[-31,8],[-53,-2],[-69,-25],[-75,-44],[-38,-15],[-41,-49],[-18,-13],[-20,-29]],[[2903,3064],[-18,6],[18,21],[-24,29],[21,30],[5,38],[11,12],[-11,15],[-2,58],[-13,42],[-55,-6],[-173,-3],[-98,5],[-65,-10],[-39,-18],[-34,-33],[-32,-17],[-29,-27],[-6,-20],[10,-19],[-14,-35],[-66,-39],[-49,-20],[-65,-12],[-83,5],[-107,26],[-197,52],[-73,32],[-61,23],[-24,4],[-43,-12],[-31,-1],[-35,12],[-54,9],[-50,-2],[-17,11],[-53,10],[-13,-5],[0,23],[-33,8],[-26,30],[-26,-17],[-2,10],[-43,-7],[-2,-17],[-34,17],[-36,-9],[-19,17],[-57,20],[-1,-12],[-42,9],[-36,-10],[-17,11],[4,15],[-23,6],[-11,-10],[-53,24],[-17,-27],[-47,0],[2,13],[-26,3],[-42,23],[-44,-22],[-21,-18],[-19,10],[-41,4],[-53,-18],[-36,-3],[-58,15],[-30,-13],[-24,14],[-64,-16],[-5,-24],[-37,-25],[-29,7],[-33,-26],[-26,10]],[[227,3240],[-29,33],[28,70],[-23,16],[-9,65],[32,19],[25,4],[12,32],[-1,26],[19,24],[60,41],[1,32],[-76,31],[-3,32],[7,22],[20,4],[45,-8],[-4,50],[6,9],[57,32],[27,9],[11,14],[11,59],[2,48],[9,29],[28,51],[19,23],[61,42],[81,38],[8,20],[-60,99],[-7,35],[11,64],[-18,23],[-56,31],[-53,46],[-5,39],[29,30],[91,44],[8,32],[-55,36],[-10,31],[29,8],[-2,38],[63,78],[2,21],[19,54],[-8,8],[-18,-25],[-23,1],[-27,49],[-2,22],[100,22],[50,5],[49,-8],[9,8],[22,74],[15,23],[-51,14],[-23,0],[-9,19],[28,28],[38,50],[72,73],[44,25],[57,70],[26,50],[41,-19],[19,1],[11,16],[1,34],[51,70],[86,13],[44,39],[-26,23],[5,13],[39,5],[12,17],[74,6],[-15,61],[-2,50],[-28,21],[-6,20],[8,17],[35,15],[22,26],[-19,27],[-22,11],[19,22],[3,19],[-37,11],[-10,29],[18,25],[36,29],[6,31],[44,-9],[5,28],[65,-27],[18,2],[5,21],[54,18],[25,-6],[35,23],[10,29],[-12,15],[20,17],[32,5],[9,26],[-14,20],[7,14],[28,-5],[20,44],[-16,31],[21,11],[24,-5],[18,-36],[28,32],[-24,41]],[[1753,6245],[13,19],[51,-33],[11,-30],[22,19],[47,-22],[38,-8],[31,16],[-7,22],[41,23],[97,-33],[8,13],[66,-16],[10,16],[24,6],[-13,14],[53,17],[15,19],[-9,28],[10,14],[24,-2],[17,30],[31,-7],[41,12],[-19,22],[7,16],[42,7],[1,-26],[37,13],[24,-2],[22,16],[50,-14],[2,-24],[15,-29],[43,-15],[28,6],[14,-9],[-11,-22],[29,0],[33,-12],[10,-20],[36,-3],[34,-13],[22,-20],[30,0],[20,-16],[91,-5],[36,27],[31,-7],[23,26],[25,-28],[30,0],[15,20],[32,-4],[1,-15],[-18,-14],[8,-20],[59,-9],[35,8],[26,18],[2,20],[27,17],[26,3],[23,15],[24,-1],[33,-30],[33,11],[16,17],[43,4],[6,-22],[16,-5],[47,19],[5,-30],[54,9],[29,0],[21,29],[41,-7],[14,13],[18,-12],[38,21],[19,-9],[47,9],[4,16],[25,6],[15,19],[30,-3],[16,-15],[42,0],[44,16],[67,-4],[0,13],[28,-10],[13,19],[100,-30],[39,25],[60,1],[41,-15],[11,14],[19,-10],[-5,25],[25,6],[9,-14],[23,-1],[22,26],[13,32],[36,-8],[39,3],[26,-29],[22,-4],[9,-32],[23,3],[14,-17],[48,-11],[9,-11],[27,4],[16,-14],[39,-17],[28,-131],[21,-20],[33,-16],[5,-17],[49,4],[39,-17],[1,-12],[26,1],[20,16],[57,27],[48,57],[7,24],[43,5],[69,-15],[-2,28],[21,-29],[10,1],[31,-47],[47,-16],[44,-38],[-5,-12],[33,-58],[28,-18],[24,-32],[0,-39],[42,-29],[32,-10],[71,-49],[-22,-49],[7,-13],[50,-28],[67,-5]],[[9214,6189],[-66,-2],[-44,7],[-12,-18],[-52,0],[-21,10],[-33,-3],[-29,8],[20,53],[-11,20],[-42,-9],[-47,-30],[-124,12],[-15,17],[10,27],[-9,27],[-29,12],[-71,7],[-1,25],[-32,6],[-22,13],[-9,49],[-32,19],[-1,32],[-23,0],[-14,13],[-37,6],[1,-16],[-25,-4],[-13,-22],[-33,-20],[-59,-14],[-10,-23],[-38,-27],[-45,-10],[-22,-16],[-33,-37],[-24,-7],[-32,12],[-85,1],[-25,-9],[-21,-31],[-36,-24],[-48,2],[-54,28],[2,20],[-22,21],[-4,40],[-77,10],[-53,-20],[-32,-27],[-24,-4],[-30,7],[-95,-36],[-17,-11],[-40,-9],[-50,9],[-68,20],[-58,-9],[-67,3],[-59,-9],[-66,-1],[-8,-8],[-54,19],[-13,20],[-79,32],[-19,-20],[-22,-10],[-43,15],[-12,-10],[-29,7],[-71,-26],[-12,-10],[-23,3],[-1,-13],[-36,-30],[-16,-42],[-25,-23],[-40,-5],[-17,10],[-62,8],[-62,-13],[-17,-16],[-61,27],[-35,6],[-44,-12],[-28,20],[6,18],[-32,16],[3,9],[-22,35],[14,13],[-18,12]],[[6228,6309],[-130,27],[-41,23],[-12,23],[-4,44],[1,101],[22,141],[13,50],[-32,39],[-34,55],[122,48],[11,51],[24,-8],[6,16],[20,-2],[12,41],[-18,37],[6,26],[18,4],[1,35],[-21,47],[15,23],[-13,26],[25,6],[39,-5],[47,12],[20,29],[16,-1],[74,20],[93,-11],[50,1],[0,52],[-37,12],[-5,36],[-49,-5],[-14,27],[-50,28],[-16,-3],[-10,31],[-20,5],[-16,35],[-45,2],[-23,28],[8,15],[-45,-3],[-1,11],[-25,-2],[-9,-13],[-25,47],[-19,4]],[[6157,7514],[-1,47],[-17,20],[11,25],[-6,24],[11,43],[18,34],[14,48],[9,92],[-14,28],[18,53],[-20,11],[14,45],[25,9],[50,39],[11,29],[-13,16],[35,34],[7,29],[-19,18],[23,13],[-6,27],[14,4],[-22,29],[32,40],[-41,29],[-41,-10],[-62,10],[-17,11],[-30,-10],[-14,13],[-50,24],[-23,19],[-15,-1],[-20,33],[-32,0],[-19,-29],[-17,2],[-28,-30],[-34,3],[-27,-21],[-39,2],[-31,-18],[-17,3],[-12,26],[-35,43],[-16,73],[-18,40],[-18,57],[-29,34],[-63,57],[-64,74],[-31,20],[-47,1],[-34,17],[4,32],[24,27],[-23,21],[127,4],[84,24],[100,16],[45,-4],[105,-30],[20,-16],[41,-86],[60,-35],[70,-3],[61,-20],[33,3],[53,32],[47,47],[16,29],[19,63],[19,47],[31,40],[32,2],[54,-23],[3,-13],[51,-26],[36,1],[27,9],[46,29],[51,-9],[54,4],[62,-16],[16,9],[21,-9],[65,37],[22,-1],[10,24],[46,2],[18,29],[28,8],[65,-7],[48,12],[31,-3],[22,19],[57,22],[15,16],[2,26],[-9,26],[13,20],[-9,29],[50,46],[-2,14],[28,4],[-22,18],[5,10],[-27,25],[-2,25],[14,6],[0,26],[12,16],[66,14],[-1,19],[19,-6],[49,31],[31,-5],[9,15],[41,23],[10,23],[32,16],[6,-10],[39,10],[23,16],[3,-10],[34,28],[23,-2],[-5,32],[40,53],[-7,16],[17,11],[48,-3],[47,12],[27,-9],[19,-20],[59,0],[24,-14],[70,2],[-4,14],[26,8],[27,26],[125,37],[18,22],[27,-3],[27,12],[12,36],[29,3],[-10,32],[16,8],[29,-9],[55,27],[2,10],[55,24],[7,43],[-28,9],[-13,24],[-23,1],[17,63],[40,29],[16,-23],[23,-17],[111,-59],[47,-22],[5,-18],[18,23],[-11,18],[57,14],[29,14],[70,-42],[75,-35],[70,-63],[55,-57],[201,-191],[43,-20],[51,-45],[19,-27],[11,-80],[-7,-100],[-16,-81],[-22,-92],[-35,-123],[-7,-135],[19,-69],[21,-49],[3,-20],[18,-27],[38,-35],[38,-81],[41,-112],[44,-56],[13,-35],[4,-57],[-3,-55],[12,-22],[42,-40],[40,-53],[14,-62],[17,-39],[25,-35],[-4,-34],[24,-43],[13,-37],[31,-66],[-28,-2],[-3,-18],[21,-30],[13,-31],[4,-43],[19,-33],[50,-60],[35,-36],[51,-10],[36,-2],[53,-14],[62,-25],[-21,-20],[-1,-17],[-34,-27],[-63,17],[-16,-4],[-106,13],[-32,-7],[-26,-42],[9,-4],[-26,-22],[-33,-44],[0,-18],[-24,-3],[1,-44],[-18,-48],[-28,-18],[-14,3],[-37,-33],[1,-18],[-23,-6],[-13,-47],[1,-39],[-38,-25],[-7,-50],[11,-60],[-28,-51],[-41,-52],[-69,-66],[-22,-35],[-57,-49],[-45,-22],[-30,-30],[-12,-29],[-20,-73],[-27,-68],[13,-66],[3,-49],[9,-35],[20,-36],[36,-50],[22,-44]],[[5692,5731],[48,14],[32,-2],[23,9],[40,2],[45,16],[44,30],[62,10],[13,9],[30,-1],[2,11],[31,9],[3,15],[-22,27],[-4,24],[20,23],[66,136],[14,75],[10,2],[-4,40],[8,27],[31,13],[19,37],[-9,17],[16,7],[18,28]],[[9214,6189],[34,-4],[62,-24],[51,-29],[17,-16],[40,-63],[27,-27],[18,-46],[-9,-50],[-43,-73],[-71,-65],[-81,-47],[-228,-261],[40,-51],[34,-27],[19,-30],[-6,-56],[-27,-40],[-28,-69],[-17,-22],[-52,-89],[-96,-98],[-110,-130],[-7,-43],[-19,-21],[-22,-47],[-2,-42],[-24,-42],[2,-24],[-16,-25],[-23,-13],[4,-13],[-11,-51],[-17,-28],[-47,-43],[-100,-117],[-17,-29],[5,-113],[1,-112],[8,-80],[17,-42],[-14,-15],[13,-32],[-28,-42],[20,-23],[5,-42],[-14,3],[19,-56],[18,-12],[-2,-104],[-20,-58],[-21,-32],[-40,-91],[-21,-73],[-25,-39],[-57,-38],[-94,-50],[-44,-20],[-101,-54],[-83,-37],[-126,-45],[-59,-25],[-62,-13],[-169,-88],[-34,-62],[-26,-64],[7,-45]],[[7562,2830],[-25,18],[-8,63],[-107,107],[-28,8],[-23,40],[-36,1],[-38,-11],[-29,9],[-18,-8],[-42,6],[-46,-9],[-35,-26],[-71,-15],[-43,-46],[-28,-8],[-159,-26],[-124,-35],[-32,15],[-2,39],[-38,32],[4,20],[-16,12],[-38,6],[-6,27],[-54,20],[-5,15],[-42,33],[-15,31],[-38,8],[-41,56],[-26,14],[-18,-4],[-6,22],[-18,2],[4,17],[-19,33],[2,21],[-21,17]],[[7562,2830],[-17,-21],[16,-14],[16,-35],[5,-42],[18,-18],[-6,-195],[-28,-56],[-38,-33],[-30,-45],[-37,-76],[14,-56],[-24,-70],[-36,-59],[-48,-61],[-3,-18],[30,-95],[20,-2],[-8,-60],[9,-79],[14,-24],[-11,-28],[10,0],[-5,-53],[7,-36],[-15,-63],[7,-33],[91,-21],[149,-56],[51,-13],[95,-17],[72,-25],[23,-3],[43,21],[37,-33],[2,-19],[32,-10],[6,-30],[-7,-9],[-53,-19],[18,-46],[5,-38],[-27,-6],[-37,-43],[40,-50],[28,-7],[-11,-41],[-42,-12],[-30,0],[-34,-31],[-2,-11],[27,-5],[3,-34],[-24,-15],[8,-23],[-7,-16],[39,-16],[5,-34],[-46,-49],[-40,4],[-52,11],[-17,-18],[-37,-8],[-11,-28],[-42,-26],[-25,29],[-20,-3],[5,-34],[-17,-13],[-36,-7],[-34,-49],[-25,10],[-18,-16],[-2,-22],[-58,-16],[-21,-23],[-14,-49],[-27,-5],[-14,-25],[18,-8],[-23,-13],[-31,-6],[-3,-15],[-26,5],[-46,-54],[5,-18],[43,22],[4,-47],[47,-4],[38,-39],[23,-3],[14,-22],[-45,-11],[-29,-15],[8,-16],[-24,-46],[20,-12],[-31,-42],[-20,-10],[-11,-22],[26,-35],[-13,-17],[-14,19],[-17,2],[4,-34],[17,-13],[-37,8],[-32,23],[-22,-19],[-12,-44],[10,-44],[-45,-29],[-34,27],[-26,11],[-38,-21],[-33,-3],[-9,31],[15,32],[56,40],[-2,11],[-52,43],[-28,8],[-51,-24],[-16,45],[23,49],[-40,15],[5,12],[31,9],[-9,14],[1,34],[18,-8],[71,-8],[54,21],[31,-3],[-4,22],[-20,21],[-94,35],[-31,3],[13,32],[-12,43],[-21,21],[-33,17],[-29,25],[7,20],[-15,6],[-25,-33],[-67,6],[-67,-4],[-20,21],[-21,-7],[7,-26],[-10,-45],[-13,-3],[-21,34],[-33,22],[22,53],[-7,33],[-14,2],[-57,-23],[-41,-23],[-26,16],[32,27],[4,90],[-16,14],[-26,1],[-3,-16],[-75,10],[-14,-17],[0,-40],[27,-10],[10,-28],[-26,-5],[-42,21],[-74,1],[-14,14],[-10,36],[-39,13],[-2,14],[-35,33],[-17,-2],[-40,35],[21,12],[19,-22],[16,25],[-23,11],[4,20],[-40,6],[-27,18],[6,23],[22,11],[-24,28],[-15,-1],[-12,-30],[-30,-4]],[[6059,891],[-17,23],[-39,-5],[-4,29],[26,37],[-16,7],[-24,-15],[4,19],[17,5],[26,32],[8,41],[42,29],[-1,17],[-22,-8],[-10,17],[42,15],[37,27],[23,7],[-17,19],[-30,-16],[10,30],[-6,17],[-29,6],[-6,44],[-17,15],[1,47],[-17,21],[29,21],[7,38],[-20,27],[12,14],[28,0],[30,21],[-8,12],[9,39],[24,12],[4,22],[-17,31],[6,50],[-25,21],[3,18],[21,13],[-22,23],[-8,31],[-27,1],[-1,22],[15,1],[7,20],[-20,13],[7,40],[-24,13],[9,16],[-21,35],[-64,40],[-87,82],[-59,63],[-88,85],[-88,104],[-14,23],[-49,24],[-28,25],[15,71],[-4,39],[7,34],[-8,104],[-18,31]],[[1753,6245],[-23,12],[6,11],[-31,16],[0,14],[-38,-2],[-31,24],[-19,6],[11,23],[15,-2],[11,43],[-23,7],[11,13],[-20,2],[-53,41],[6,13],[-25,1],[-10,47],[-39,20],[12,19],[23,1],[22,15],[1,22],[27,10],[21,25],[19,-2],[7,31],[27,1],[16,35],[-1,22],[20,-10],[26,9],[8,-17],[18,15],[11,65],[65,6],[12,14],[-13,42],[4,17],[-38,29],[21,13],[-23,9],[4,16],[24,17],[-22,18],[36,23],[32,2],[1,15],[33,37],[1,13],[24,32],[-19,16],[23,27],[9,28],[20,-3],[8,21],[54,14],[-14,20],[38,17],[0,25],[31,13],[18,21],[-8,20],[16,28],[71,51],[19,34],[9,46],[36,57],[47,11],[31,14],[28,2],[52,-8],[112,2],[100,41],[96,50],[74,-1],[51,11],[20,11],[15,25],[16,5],[35,-21],[16,15],[-26,15],[9,13],[68,26],[43,-8],[71,65],[23,7],[61,55],[45,2],[-4,-10],[35,-30],[29,15],[39,-9],[12,9],[19,-11],[17,30],[33,-13],[42,6],[58,0],[43,8],[13,-11],[77,-23],[23,15],[34,-20],[60,37],[43,7],[38,-13],[-6,-15],[28,-8],[7,-14],[20,3],[27,-24],[26,9],[51,-8],[23,17],[46,13],[36,-28],[26,-10],[19,-22],[32,5],[23,-23],[50,5],[32,-11],[28,7],[44,-24],[32,9],[47,2],[26,-44],[37,-26],[98,-5],[122,-20],[8,-31],[38,-5],[61,1],[50,-38],[35,18],[20,-5],[44,7],[11,-8],[53,18],[4,-11],[61,10],[40,-6],[62,11],[27,-17],[13,11],[55,-6],[52,19],[11,-9],[33,0],[40,23],[18,-9],[26,8],[19,30],[55,20],[6,18],[23,-1],[15,13],[-18,18],[47,8],[17,-8],[15,20],[42,-13],[27,-41],[33,-20],[-4,-16],[24,-44],[42,-14],[49,-6],[30,-20],[19,-2],[39,-53],[45,-27],[23,13],[24,-15],[19,-1],[19,15],[36,-3],[27,17],[20,25]],[[2903,3064],[-14,-37],[-23,-22],[-31,-43],[-5,-34],[-35,-26],[-24,0],[-38,-42],[-53,-33],[-12,-34],[27,-30],[-11,-30],[-14,-9],[15,-27],[-2,-47],[67,-50],[80,-38],[26,-8],[15,-52],[12,-62],[-11,-30],[-61,-28],[-19,-18],[-35,-3],[-31,-27],[20,-45],[-5,-13],[16,-22],[-18,-12],[33,-10],[15,12],[20,-17],[-26,-34],[41,-18],[37,-31],[16,11],[44,0],[31,-30],[1,-11],[54,-18],[16,8],[6,-33],[36,7],[3,-15],[28,-24],[39,-13],[3,-20]],[[3136,2006],[-23,-15],[-110,-34],[-65,-45],[-72,-85],[-7,-31],[28,-39],[52,-41],[77,-32],[77,-5],[105,25],[25,-3],[55,-20],[64,-81],[23,-39],[-4,-25],[16,-9],[30,-57],[-36,-17],[-13,7],[-31,-26],[-56,3],[-16,16],[-12,-17],[-15,12],[-23,-19],[-5,-17],[-25,-10],[-23,16],[-20,-11],[-47,-8],[-43,-35],[-9,-31],[9,-6],[-33,-29],[2,-39],[-19,-17],[38,-10],[20,10],[22,-32],[9,-37],[-35,-32],[-4,-25],[-34,-24],[-33,-36],[-51,-24],[-25,-2],[-21,-20],[-60,-11],[-44,4],[-41,-4],[-67,-38],[-116,-30],[-39,-23],[-19,-32],[-11,-70],[16,-41],[22,-24],[54,-37],[27,-96],[-1,-50],[4,-81],[7,-43],[-6,-38],[-11,-11],[-67,-15],[-23,5],[-51,-1],[-24,-26],[-24,-5],[-72,-52],[-37,-33],[-15,4],[-132,3],[-58,-20],[-19,-57],[-28,-34],[-26,-69],[-24,-16],[-15,2],[-55,28],[-55,66],[-34,30],[-43,10],[-69,-21],[-26,-2],[-16,37],[-18,26],[18,27],[-6,11],[-60,-2],[-63,22],[-46,26],[-31,-1],[-10,-23],[-20,-4],[-24,24],[39,45],[-41,43],[17,42],[-23,24],[-45,69],[-13,50],[3,58],[-10,11],[-72,25],[-70,14],[-29,1],[-22,-28],[2,-24],[-28,14],[-17,84],[-29,15],[-30,-26],[-78,-19],[-1,-30],[42,0],[11,-7],[-6,-28],[-16,-10],[-40,-1],[-25,19],[-45,10],[-11,22],[-13,-20],[-30,-14],[-19,26],[-40,3],[-44,-19],[-52,16],[-8,32],[-48,31],[-20,44],[16,-10],[31,-2],[23,15],[27,3],[39,42],[10,21],[-11,52],[-38,-1],[-34,12],[-2,23],[-16,22],[9,25],[36,10],[30,24],[12,36],[-4,20],[7,49],[-14,44],[-23,39],[-52,-5],[-35,-42],[-65,-31],[-29,-4],[-31,-33],[-8,-25],[-20,2],[-19,30],[-31,18],[-34,-9],[-49,-38],[-10,1],[5,38],[24,9],[17,41],[-4,29],[10,12],[-3,25],[18,34],[46,25],[2,41],[-31,2],[18,13],[-7,14],[-49,0],[-2,24],[-43,-5],[-15,13],[5,22],[36,8],[8,13],[-39,36],[-22,10],[-5,15],[21,24],[19,-9],[-5,-16],[18,-22],[10,15],[41,19],[-18,30],[44,19],[-3,45],[-10,16],[2,40],[-48,8],[-14,16],[-7,38],[-21,-6],[-54,9],[5,28],[54,11],[39,14],[23,-7],[25,10],[-17,24],[10,25],[-32,25],[-9,-22],[-13,15],[-34,11],[8,31],[29,16],[0,19],[30,11],[0,16],[-33,21],[-37,8],[-38,-3],[-7,9],[17,20],[25,-2],[16,24],[-10,21],[-37,11],[1,14],[36,9],[-7,20],[36,33],[-2,26],[-28,16],[-43,-11],[-40,11],[-23,-21],[-29,-1],[-32,12],[-6,-26],[-32,-4],[-32,-25],[-17,-2],[-24,18],[-28,6],[-10,14],[40,-5],[22,8],[-1,30],[-57,27],[-1,44],[23,0],[14,32],[43,2],[-17,24],[3,20],[-23,26],[35,2],[17,16],[17,40],[-12,17],[19,19],[-21,-2],[-23,20],[-24,4],[-1,11],[32,10],[11,17],[40,1],[4,27],[-24,4],[30,20],[-14,15],[41,11],[-8,15],[-16,-15],[-10,21],[32,10],[-6,22],[29,40],[-11,9],[-21,-17],[1,27],[-19,-6],[-39,9],[-18,24],[-14,-21],[-34,35],[14,17],[-19,28],[-32,-7],[-4,45],[17,-7],[33,7],[24,38],[30,19],[16,-17],[52,-27],[63,28],[-2,51],[-19,34],[-27,12],[-8,16],[31,56],[-34,22],[-23,6],[10,21],[18,5],[-21,13],[7,24],[-50,-6],[-7,12],[39,16],[-2,33],[17,17],[-3,17],[20,13],[46,6]],[[6059,891],[-23,-40],[-45,2],[9,-24],[25,4],[-19,-16],[-49,-7],[5,-22],[18,11],[21,-16],[-17,-25],[-84,9],[-34,16],[4,29],[-39,19],[15,30],[-27,11],[-27,-22],[-18,6],[21,23],[-29,5],[-33,21],[6,19],[36,30],[-45,17],[6,20],[-26,12],[17,31],[18,14],[7,45],[-10,9],[12,20],[-31,20],[-24,-9],[22,-28],[-12,-13],[-16,18],[-38,-19],[-19,0],[9,28],[-38,15],[14,21],[-21,10],[-8,57],[-21,12],[-64,13],[-46,0],[-13,44],[-32,-5],[-8,31],[-31,10],[-46,-2],[-8,-16],[4,-28],[-20,23],[-41,5],[7,24],[-38,39],[-23,3],[2,16],[-55,4],[3,21],[-59,-21],[-17,24],[12,37],[-32,54],[-8,35],[-28,-9],[-11,9],[7,38],[-8,13],[25,22],[-37,9],[1,-21],[-51,-18],[-48,5],[-8,-9],[36,-42],[-34,-34],[-50,-4],[-22,-23],[-21,12],[16,16],[-7,23],[-93,-2],[-5,10],[17,21],[-31,48],[-52,11],[-39,19],[-8,15],[-38,-1],[-21,-28],[-47,5],[-13,-11],[-18,15],[-12,-19],[-33,-8],[-35,1],[-23,20],[-26,-17],[-20,18],[-4,-13],[-37,14],[-10,33],[-57,50],[-27,7],[8,10],[-35,23],[-17,30],[-114,26],[-31,26],[-32,2],[-10,17],[-26,-7],[-21,9],[-67,-7],[-18,-25],[-25,16],[-33,-7],[10,23],[-17,-11],[-33,15],[-10,29],[-27,-39],[-10,-2],[-25,23],[-30,6],[-45,23],[-11,-21],[-27,15],[-14,48],[-14,10],[0,22],[-38,20],[-6,16],[-26,-25],[-29,17],[-4,13],[-22,2],[-21,14],[0,-27],[-18,3],[-35,28],[-39,-20],[-57,23],[-38,-11],[-2,-14],[-22,8],[-19,-15]]],"transform":{"scale":[0.00006414147984798803,0.00007473166956695781],"translate":[104.41891012300005,15.537116648000051]},"objects":{"Amnat Charoen":{"type":"GeometryCollection","geometries":[{"arcs":[[0,1,2,3,4,5]],"type":"Polygon","properties":{"Shape_Leng":1.58608379856,"Shape_Area":0.0762277425002,"ADM2_EN":"Mueang Amnat Charoen","ADM2_TH":"เมืองอำนาจเจริญ","ADM2_PCODE":"TH3701","ADM1_EN":"Amnat Charoen","ADM1_TH":"อำนาจเจริญ","ADM1_PCODE":"TH37","ADM0_EN":"Thailand","ADM0_TH":"ประเทศไทย","ADM0_PCODE":"TH"}},{"arcs":[[6,7,8]],"type":"Polygon","properties":{"Shape_Leng":1.35413992975,"Shape_Area":0.0497324461947,"ADM2_EN":"Chanuman","ADM2_TH":"ชานุมาน","ADM2_PCODE":"TH3702","ADM1_EN":"Amnat Charoen","ADM1_TH":"อำนาจเจริญ","ADM1_PCODE":"TH37","ADM0_EN":"Thailand","ADM0_TH":"ประเทศไทย","ADM0_PCODE":"TH"}},{"arcs":[[-1,9,-7,10,11]],"type":"Polygon","properties":{"Shape_Leng":1.0707052554,"Shape_Area":0.0418258212564,"ADM2_EN":"Pathum Ratchawongsa","ADM2_TH":"ปทุมราชวงศา","ADM2_PCODE":"TH3703","ADM1_EN":"Amnat Charoen","ADM1_TH":"อำนาจเจริญ","ADM1_PCODE":"TH37","ADM0_EN":"Thailand","ADM0_TH":"ประเทศไทย","ADM0_PCODE":"TH"}},{"arcs":[[-2,-12,12,13]],"type":"Polygon","properties":{"Shape_Leng":0.963642158987,"Shape_Area":0.0206566587769,"ADM2_EN":"Phana","ADM2_TH":"พนา","ADM2_PCODE":"TH3704","ADM1_EN":"Amnat Charoen","ADM1_TH":"อำนาจเจริญ","ADM1_PCODE":"TH37","ADM0_EN":"Thailand","ADM0_TH":"ประเทศไทย","ADM0_PCODE":"TH"}},{"arcs":[[-6,14,-8,-10]],"type":"Polygon","properties":{"Shape_Leng":1.16100706217,"Shape_Area":0.0305592776598,"ADM2_EN":"Senangkhanikhom","ADM2_TH":"เสนางคนิคม","ADM2_PCODE":"TH3705","ADM1_EN":"Amnat Charoen","ADM1_TH":"อำนาจเจริญ","ADM1_PCODE":"TH37","ADM0_EN":"Thailand","ADM0_TH":"ประเทศไทย","ADM0_PCODE":"TH"}},{"arcs":[[-4,15,16]],"type":"Polygon","properties":{"Shape_Leng":1.27024691842,"Shape_Area":0.0338744751685,"ADM2_EN":"Hua Taphan","ADM2_TH":"หัวตะพาน","ADM2_PCODE":"TH3706","ADM1_EN":"Amnat Charoen","ADM1_TH":"อำนาจเจริญ","ADM1_PCODE":"TH37","ADM0_EN":"Thailand","ADM0_TH":"ประเทศไทย","ADM0_PCODE":"TH"}},{"arcs":[[-3,-14,17,-16]],"type":"Polygon","properties":{"Shape_Leng":0.974629382904,"Shape_Area":0.0224362479285,"ADM2_EN":"Lue Amnat","ADM2_TH":"ลืออำนาจ","ADM2_PCODE":"TH3707","ADM1_EN":"Amnat Charoen","ADM1_TH":"อำนาจเจริญ","ADM1_PCODE":"TH37","ADM0_EN":"Thailand","ADM0_TH":"ประเทศไทย","ADM0_PCODE":"TH"}}]}}}