{"type":"Topology","arcs":[[[2815,5310],[-35,13]],[[2780,5323],[-69,34],[-24,30]],[[2687,5387],[-61,130]],[[2626,5517],[-10,98],[5,89],[49,110]],[[2670,5814],[56,68],[37,66],[39,99]],[[2802,6047],[76,-59],[94,-136]],[[2972,5852],[-56,-158],[-34,-206]],[[2882,5488],[-7,-36],[-45,-89],[-15,-53]],[[2802,6047],[54,184],[54,113],[45,56],[90,137],[43,109]],[[3088,6646],[92,-8],[74,-27],[93,-11],[15,35],[69,-43]],[[3431,6592],[-156,-509]],[[3275,6083],[-143,-468]],[[3132,5615],[-29,8]],[[3103,5623],[-24,91],[-107,138]],[[9022,5294],[-66,27],[-49,129],[-43,68],[-35,78],[-13,75],[6,53],[-15,86],[-33,126],[-48,63],[-83,14],[-186,-2],[-50,-6],[-67,-68],[-41,9],[-39,-12],[-36,52],[-14,49],[-45,61],[-63,62],[2,43],[-52,45],[-49,17],[-31,35],[-30,-36],[-63,-21],[-158,5],[-90,43],[-5,19],[41,86],[4,50],[-21,64]],[[7650,6508],[37,87],[40,56],[38,30],[93,131],[-65,-1],[-33,32],[-8,227],[43,129],[32,5],[1,89],[34,145],[-25,155],[-48,-6],[-28,-28],[-47,147]],[[7714,7706],[8,5],[-94,279],[-103,381],[57,41],[30,81],[24,16],[28,90],[-52,45],[2,94],[-10,8],[5,737]],[[7609,9483],[1,4],[372,48],[398,60],[240,42],[147,14],[38,18],[314,62],[187,28],[291,51],[0,-23],[-90,-938],[-33,-452],[-5,-279],[2,-163],[-11,-31],[5,-90],[-28,-147],[139,-35],[-50,-96],[-34,-92],[507,-517],[-168,-281],[-292,-222],[-38,-73],[-161,-384],[-128,-298],[-109,-231],[-81,-164]],[[3015,4892],[11,107],[-7,111]],[[3019,5110],[53,66],[3,121]],[[3075,5297],[213,-112],[263,-145]],[[3551,5040],[-408,-160],[-52,-14],[-76,26]],[[5839,8246],[20,-113],[-27,-65],[-11,-75],[-49,-84],[-45,-14],[-36,-36]],[[5691,7859],[-56,19],[-81,-22],[-38,-33],[-25,29],[-34,-74],[-47,-5],[6,-100],[-28,3],[-134,-37],[-10,30],[-35,-5]],[[5209,7664],[-84,-15],[-62,-43]],[[5063,7606],[-68,-46],[-70,3],[-149,126],[-99,14],[-107,2],[-76,-52],[-139,-33],[-65,-30]],[[4290,7590],[-14,44],[-22,137],[-3,91],[-16,53]],[[4235,7915],[26,447],[18,39],[92,135]],[[4371,8536],[57,63],[121,106],[22,36],[67,58]],[[4638,8799],[-40,-88],[44,-73],[-41,-87],[33,-34],[87,-24],[113,-56],[37,7],[70,47],[67,-8],[56,10],[53,24],[44,-29],[0,-47],[24,-8],[133,2],[7,74],[37,-17],[11,-84],[25,-29],[71,-35],[40,19],[8,30],[33,-14],[46,15],[48,-29],[20,30],[33,-44],[90,13],[7,-40],[45,-78]],[[5514,6105],[60,-161],[18,-99],[4,-151],[46,-34],[105,-58],[-20,-58],[-43,-17],[-39,19],[-38,-37],[-35,-2],[-46,-38],[-14,-60],[-24,-22],[5,-43],[-70,-39]],[[5423,5305],[-163,69],[-27,23],[18,31],[-46,48],[-44,10],[-62,52],[-59,21],[-346,-121],[-66,-16],[-152,93]],[[4476,5515],[47,67]],[[4523,5582],[184,219],[92,20],[156,22],[-36,268],[16,-12],[23,196],[-27,99],[-51,-13],[-37,262],[-121,-19],[-20,10]],[[4702,6634],[89,248],[65,133]],[[4856,7015],[25,42],[88,-3],[-6,-79],[14,-6],[37,-125],[86,-127],[13,-109],[5,-138],[37,-114],[89,-47],[-8,-15],[48,-80],[35,-78],[15,-58],[42,-74],[138,101]],[[3132,5615],[104,-74],[28,8],[91,-11],[63,12],[112,-19],[108,-9]],[[3638,5522],[10,-121]],[[3648,5401],[37,-434]],[[3685,4967],[-134,73]],[[3075,5297],[5,119],[23,207]],[[3075,5297],[-15,9],[-178,182]],[[5014,4490],[48,-113],[27,-216],[25,-165]],[[5114,3996],[-255,10],[-30,100],[-1,30],[-200,-3],[-49,-47],[-118,-47],[-189,67]],[[4272,4106],[9,68],[-8,67],[-27,73],[-54,75]],[[4192,4389],[291,186]],[[4483,4575],[67,39]],[[4550,4614],[11,-25],[123,20],[32,13],[7,-59],[99,19],[14,-41],[120,4],[39,-6],[19,-49]],[[7650,6508],[-54,44],[-53,95],[-113,-44],[38,-355],[-96,10],[-22,17],[-194,-32],[-46,-61],[-26,-60],[-29,-15],[-55,51],[-144,2],[-2,-95],[-123,-6],[0,90],[-89,-56],[-149,33],[-59,42],[-72,-3]],[[6362,6165],[-16,77],[-32,83],[-121,277],[-19,-14]],[[6174,6588],[-72,150],[27,62],[-5,37],[-71,76],[-13,61]],[[6040,6974],[88,66],[44,23],[16,33],[101,20],[57,-2],[-14,65],[0,138],[92,4],[0,125],[35,4],[0,-216],[121,4],[-1,190],[95,43],[7,-36],[60,11],[75,-55],[21,-68],[21,-148],[34,-21],[7,-37],[815,589]],[[9022,5294],[-116,-244],[-274,-592],[94,-52],[-23,-159],[-301,159],[-11,0],[-188,107],[-323,154],[-239,120],[-108,46],[-117,-3],[-27,-10],[-110,7],[-26,-17],[-67,-6],[-40,27],[-228,-1],[-88,10],[-235,-3],[-3,22],[-233,8],[-1,-28],[-101,-2]],[[6257,4837],[-17,152],[-9,188]],[[6231,5177],[23,520],[-53,5],[44,96],[54,89],[57,139],[6,139]],[[3698,4832],[19,-240]],[[3717,4592],[-42,-53],[-16,-73],[20,-253],[-17,-186],[-46,-116],[-76,-80],[-72,-30],[-51,7],[-72,36],[-50,45],[-94,106]],[[3201,3995],[-40,48],[-65,55]],[[3096,4098],[33,61],[149,189],[60,88],[-30,93]],[[3308,4529],[-21,74],[76,-12],[71,39],[25,-61],[73,56],[-31,78],[41,35],[79,152],[56,-26],[21,-32]],[[3019,5110],[-40,117],[-54,47],[-110,36]],[[3431,6592],[396,-62]],[[3827,6530],[6,-98],[-11,-73],[-203,-482],[-90,-46]],[[3529,5831],[-254,252]],[[2780,5323],[-90,-349],[16,-97],[0,-124],[90,-168]],[[2796,4585],[-88,-71],[-43,-70],[-11,-73]],[[2654,4371],[-122,-9]],[[2532,4362],[-36,34],[-13,36],[-51,284],[-74,-18],[-55,44],[11,77]],[[2314,4819],[-1,37],[37,71],[4,32]],[[2354,4959],[75,-4],[70,18],[66,39],[22,71],[10,92],[35,122],[55,90]],[[2354,4959],[-73,62],[-70,151],[-22,152],[8,111]],[[2197,5435],[72,-31],[80,5],[67,31],[28,-12],[15,47],[75,-1],[92,43]],[[4476,5515],[-17,-23],[-34,-128]],[[4425,5364],[-76,15],[-164,43],[-175,51],[-155,37]],[[3855,5510],[27,157]],[[3882,5667],[31,139],[89,151],[19,60],[24,645]],[[4045,6662],[94,20],[12,13],[114,8]],[[4265,6703],[0,-3]],[[4265,6700],[9,-29],[9,-203],[13,-126],[31,-101],[21,-41],[-4,-154],[26,-141],[5,-86],[45,-102],[103,-135]],[[3015,4892],[-27,-82],[-36,-67]],[[2952,4743],[-30,-46],[-59,-62],[-67,-50]],[[2264,6399],[-4,-38]],[[2260,6361],[10,-109],[19,-53],[-40,-22],[-68,6],[-61,-41],[-42,-94],[-21,-110],[11,-103],[55,-75],[70,-161],[11,-67],[-7,-97]],[[2197,5435],[-122,-38],[-39,-33],[-78,-16],[-204,-7],[-45,9],[-17,36],[-65,5],[-99,43],[-72,62],[-56,15]],[[1400,5511],[-118,33]],[[1282,5544],[-1,124],[58,631],[23,369]],[[1362,6668],[364,-27],[406,-39],[99,-21],[90,-55],[-57,-127]],[[2260,6361],[52,-2],[231,-328],[127,-217]],[[2332,3587],[33,-215],[19,-206],[22,-93],[12,-118],[-24,-19],[5,-36],[-37,-51],[2,-24],[72,-85],[28,-3],[55,-96],[-2,-63],[-33,-131],[-23,-14],[-21,-61]],[[2440,2372],[-25,-19],[-37,-62],[8,-116],[-66,-23],[-45,91],[5,34],[-23,67],[1,50],[-47,45],[-87,-35],[-50,15],[-36,-77],[-4,-72],[-19,-34],[-3,-49],[-25,-76],[-41,-78],[0,-94],[-35,-567],[-2,-77],[19,-137],[33,-267],[63,-462],[36,-243],[-57,-1],[-37,-36],[-63,-13],[-14,15],[-26,-37],[-33,2],[-41,-42],[-38,27],[-2,-33],[-123,-7],[-12,26],[-46,-34],[-10,21],[-23,-45],[-118,-9],[-92,-20],[-33,191],[-3,151],[-2,441],[-3,135],[127,2],[10,55],[51,38],[28,58],[9,52],[-11,40],[-48,71],[-27,19],[7,128],[-45,1],[-11,-38],[-86,-23],[-36,14],[-16,-33],[-67,-17],[-56,16],[-27,56],[-2,48],[-46,108],[-11,93],[14,27],[-31,18],[-11,63],[-33,36],[-5,80],[-26,28],[11,52],[0,91],[-24,40],[2,40],[-30,16],[-65,90],[9,35],[-11,132],[-21,93],[-11,288]],[[795,2735],[389,461],[763,900]],[[1947,4096],[28,-19],[5,-138],[45,3],[30,-143],[-49,-174],[129,-64],[5,21],[42,1],[56,-69],[65,61],[29,12]],[[2314,4819],[-104,42],[8,-66],[-134,-49],[12,-90],[-52,37],[-45,-104],[-76,48],[-101,40],[-32,-100],[8,-3],[-48,-123],[48,-114]],[[1798,4337],[-162,-132]],[[1636,4205],[-19,162],[0,101],[-30,702],[-116,-20],[-18,95],[-19,4],[7,52],[-25,13],[-16,197]],[[932,3854],[-21,7],[-292,-172],[-104,-55],[-34,10],[-11,-39],[-90,-55],[-26,-48],[-44,5]],[[310,3507],[-29,-14],[-93,6],[6,60],[25,67],[-19,125],[-21,64],[-10,117],[-11,51],[-24,-8],[-40,92],[3,50],[-23,105],[-18,192],[-10,52],[27,6],[-1,92],[19,91],[-19,88],[30,13],[16,-40],[60,34],[-34,80],[-59,95],[-37,8],[80,38],[-16,117],[33,29],[-27,82],[39,9],[-1,46]],[[156,5254],[33,11],[326,31]],[[515,5296],[360,-1001],[15,-71],[24,-183],[24,-87],[-6,-100]],[[3201,3995],[-36,-31],[11,-33],[-6,-65],[-17,-23],[1,-53],[-48,-25],[-1,-123]],[[3105,3642],[-63,-18],[-52,36],[-37,7],[-39,-83],[-17,12],[-62,-141],[-74,66],[-42,27],[-11,-33],[-83,42],[-57,17],[-39,100],[-107,-26]],[[2422,3648],[-4,37],[107,26],[-31,96],[136,225],[-19,62],[27,47],[-111,105],[-14,41],[19,75]],[[2654,4371],[30,-80],[61,-67],[115,-49],[142,-27],[94,-50]],[[2264,6399],[118,37],[438,208],[40,32],[208,250]],[[3068,6926],[35,-88],[4,-87],[-19,-105]],[[3827,6530],[88,-1],[8,94],[75,9],[47,30]],[[3882,5667],[-176,22],[-28,-4],[-40,62],[-44,21],[-65,63]],[[5209,7664],[68,-49],[-40,-20],[12,-90],[2,-133],[89,32],[56,4],[8,-55],[57,11],[4,-83],[-7,-91],[-18,-22],[16,-152],[31,-104],[-2,-52],[19,-5],[43,-106],[33,12],[18,-65],[62,-137],[11,-102],[38,-105],[-45,-63],[22,-57]],[[5686,6232],[-172,-127]],[[4856,7015],[75,202],[37,153],[58,129],[37,107]],[[3685,4967],[13,-135]],[[3308,4529],[-49,-33],[-33,-3],[-70,71],[-16,-21],[-82,37],[38,102],[-115,34],[-29,27]],[[3068,6926],[-79,44],[-50,16],[-17,74],[20,70],[42,37],[13,37],[36,-28],[5,33],[86,94],[286,335],[122,75]],[[3532,7713],[-106,-606],[103,-21],[26,-47],[-27,-128],[-58,-205],[-39,-114]],[[4290,7590],[18,-116],[-15,-113],[-2,-95],[-12,-194],[6,-42],[-17,-121],[10,-43],[-13,-163]],[[3532,7713],[149,66],[85,32],[185,50],[111,21],[119,12],[54,21]],[[5014,4490],[123,38],[47,-2],[91,20],[16,-8],[-29,89],[8,77],[30,165],[-60,-17],[23,138],[8,107],[34,18],[0,30],[39,64],[27,15],[13,44],[38,25]],[[5422,5293],[140,-14],[133,-27],[310,-45],[226,-30]],[[6257,4837],[39,-336],[-21,-1],[-18,-131],[-2,-84],[-42,-140],[-15,-135],[-15,5],[-14,-86],[9,-11],[-22,-67],[-63,-150],[-20,-88],[-8,-85],[-162,41],[-160,68],[-48,45],[-151,82],[7,20],[-96,76],[-20,-32],[-73,44],[-26,-70]],[[5336,3802],[-99,2],[-41,11],[-74,141],[-8,40]],[[3648,5401],[51,-22],[414,-385],[322,-302],[48,-117]],[[4192,4389],[-58,58],[-147,93],[-167,65],[-51,3],[-52,-16]],[[5423,5305],[-1,-12]],[[4550,4614],[-34,65],[-23,82],[51,13],[22,51],[2,56],[-16,48],[-15,161],[-7,139],[8,61],[-109,14],[-4,60]],[[2422,3648],[1,-21],[-95,-16],[4,-24]],[[1947,4096],[-149,241]],[[4371,8536],[-74,36],[-124,32],[78,186],[-138,99],[-81,37],[-90,69],[-89,98],[-71,24]],[[3782,9117],[144,804],[85,57],[35,2],[275,-86],[228,-135],[-24,220],[110,6],[31,14],[159,-107]],[[4825,9892],[67,-501],[-2,-27],[-252,-565]],[[3855,5510],[-74,14],[-143,-2]],[[4702,6634],[-35,-108],[-118,8],[-100,21],[-60,68],[8,43],[-98,34],[-34,0]],[[1636,4205],[-141,-106],[-398,-266],[-47,-35],[-60,-17],[-13,49],[-45,24]],[[515,5296],[-109,303],[171,42],[259,-14],[336,-56],[110,-27]],[[3532,7713],[111,618],[139,786]],[[4825,9892],[46,-52],[3,-209],[233,-13],[-3,-110],[27,-26],[403,-21],[391,15],[-7,-108],[-36,-119],[-2,-93]],[[5880,9156],[-54,-64],[2,-42],[54,-50],[0,-28],[86,-217],[-16,-218],[12,-21],[-33,-43],[-11,-65],[6,-47],[-25,-17],[-62,-98]],[[5691,7859],[-76,-61],[7,-23],[92,-18],[115,-76],[28,-63],[20,-104],[17,-39],[3,-89],[43,-47],[79,-189],[1,-42],[25,-31],[-5,-103]],[[6174,6588],[-261,-192],[-227,-164]],[[5880,9156],[681,26],[394,22],[234,105],[207,90],[213,84]],[[5336,3802],[-47,-181],[-19,-176],[-147,46],[-73,-133],[-95,22],[6,29],[-181,84],[-32,29],[-24,-73],[-134,70],[8,28],[-51,27],[-34,-1],[-11,-41],[-39,19],[0,45],[-62,26],[-2,32],[-236,120],[-44,33],[116,197],[37,102]],[[156,5254],[-11,24],[-30,229],[9,3],[-2,117],[-14,42],[-28,3],[4,92],[-24,8],[-24,52],[-2,89],[16,240],[16,1],[-1,81],[32,-2],[-3,58],[-41,196],[-7,112],[-46,129],[235,-13],[585,-21],[320,-14],[222,-12]],[[3105,3642],[-13,-190],[-8,-32],[12,-122],[-28,-21],[13,-30],[-16,-86],[31,-35],[18,-63],[-63,-139],[36,-215],[7,-96],[-8,-29],[66,-83],[11,-81],[-120,-56],[-36,-117],[-62,10],[-60,-4],[-78,-55],[-12,-80],[-40,-63],[-81,-46],[-47,73],[-100,63],[-24,113],[-62,35],[12,50],[-13,29]],[[795,2735],[-76,65],[-4,48],[-35,57],[-14,55],[-22,2],[-20,74],[-18,6],[-96,-24],[-6,98],[-51,-17],[-20,95],[-67,-9],[-29,11],[2,59],[-24,29],[-28,-7],[-12,97],[26,-1],[9,134]]],"transform":{"scale":[0.00006106649364936265,0.00004618547934793605],"translate":[100.32791238700008,13.493389571000023]},"objects":{"Bangkok":{"type":"GeometryCollection","geometries":[{"arcs":[[0,1,2,3,4,5,6,7]],"type":"Polygon","properties":{"Shape_Leng":0.0854173345181,"Shape_Area":0.000450468542126,"ADM2_EN":"Phra Nakhon","ADM2_TH":"พระนคร","ADM2_PCODE":"TH1001","ADM1_EN":"Bangkok","ADM1_TH":"กรุงเทพมหานคร","ADM1_PCODE":"TH10","ADM0_EN":"Thailand","ADM0_TH":"ประเทศไทย","ADM0_PCODE":"TH"}},{"arcs":[[-6,8,9,10,11,12,13]],"type":"Polygon","properties":{"Shape_Leng":0.134131773837,"Shape_Area":0.000950191398466,"ADM2_EN":"Dusit","ADM2_TH":"ดุสิต","ADM2_PCODE":"TH1002","ADM1_EN":"Bangkok","ADM1_TH":"กรุงเทพมหานคร","ADM1_PCODE":"TH10","ADM0_EN":"Thailand","ADM0_TH":"ประเทศไทย","ADM0_PCODE":"TH"}},{"arcs":[[14,15,16,17]],"type":"Polygon","properties":{"Shape_Leng":0.676342171801,"Shape_Area":0.0198588626833,"ADM2_EN":"Nong Chok","ADM2_TH":"หนองจอก","ADM2_PCODE":"TH1003","ADM1_EN":"Bangkok","ADM1_TH":"กรุงเทพมหานคร","ADM1_PCODE":"TH10","ADM0_EN":"Thailand","ADM0_TH":"ประเทศไทย","ADM0_PCODE":"TH"}},{"arcs":[[18,19,20,21]],"type":"Polygon","properties":{"Shape_Leng":0.0858864661897,"Shape_Area":0.000336956112309,"ADM2_EN":"Bang Rak","ADM2_TH":"บางรัก","ADM2_PCODE":"TH1004","ADM1_EN":"Bangkok","ADM1_TH":"กรุงเทพมหานคร","ADM1_PCODE":"TH10","ADM0_EN":"Thailand","ADM0_TH":"ประเทศไทย","ADM0_PCODE":"TH"}},{"arcs":[[22,23,24,25,26,27,28,29]],"type":"Polygon","properties":{"Shape_Leng":0.301722024585,"Shape_Area":0.00341492981303,"ADM2_EN":"Bang Khen","ADM2_TH":"บางเขน","ADM2_PCODE":"TH1005","ADM1_EN":"Bangkok","ADM1_TH":"กรุงเทพมหานคร","ADM1_PCODE":"TH10","ADM0_EN":"Thailand","ADM0_TH":"ประเทศไทย","ADM0_PCODE":"TH"}},{"arcs":[[30,31,32,33,34,35]],"type":"Polygon","properties":{"Shape_Leng":0.308691242369,"Shape_Area":0.0023032680185,"ADM2_EN":"Bang Kapi","ADM2_TH":"บางกะปิ","ADM2_PCODE":"TH1006","ADM1_EN":"Bangkok","ADM1_TH":"กรุงเทพมหานคร","ADM1_PCODE":"TH10","ADM0_EN":"Thailand","ADM0_TH":"ประเทศไทย","ADM0_PCODE":"TH"}},{"arcs":[[-13,36,37,38,39,-21,40]],"type":"Polygon","properties":{"Shape_Leng":0.115324134038,"Shape_Area":0.000671641683979,"ADM2_EN":"Pathum Wan","ADM2_TH":"ปทุมวัน","ADM2_PCODE":"TH1007","ADM1_EN":"Bangkok","ADM1_TH":"กรุงเทพมหานคร","ADM1_PCODE":"TH10","ADM0_EN":"Thailand","ADM0_TH":"ประเทศไทย","ADM0_PCODE":"TH"}},{"arcs":[[-7,-14,-41,41]],"type":"Polygon","properties":{"Shape_Leng":0.0616692131195,"Shape_Area":0.000208975074436,"ADM2_EN":"Pom Prap Sattru Phai","ADM2_TH":"ป้อมปราบศัตรูพ่า","ADM2_PCODE":"TH1008","ADM1_EN":"Bangkok","ADM1_TH":"กรุงเทพมหานคร","ADM1_PCODE":"TH10","ADM0_EN":"Thailand","ADM0_TH":"ประเทศไทย","ADM0_PCODE":"TH"}},{"arcs":[[42,43,44,45,46,47]],"type":"Polygon","properties":{"Shape_Leng":0.156672422684,"Shape_Area":0.00110240834801,"ADM2_EN":"Phra Khanong","ADM2_TH":"พระโขนง","ADM2_PCODE":"TH1009","ADM1_EN":"Bangkok","ADM1_TH":"กรุงเทพมหานคร","ADM1_PCODE":"TH10","ADM0_EN":"Thailand","ADM0_TH":"ประเทศไทย","ADM0_PCODE":"TH"}},{"arcs":[[-16,48,49,50,51]],"type":"Polygon","properties":{"Shape_Leng":0.397346290153,"Shape_Area":0.00504957909253,"ADM2_EN":"Min Buri","ADM2_TH":"มีนบุรี","ADM2_PCODE":"TH1010","ADM1_EN":"Bangkok","ADM1_TH":"กรุงเทพมหานคร","ADM1_PCODE":"TH10","ADM0_EN":"Thailand","ADM0_TH":"ประเทศไทย","ADM0_PCODE":"TH"}},{"arcs":[[-15,52,53,54,-49]],"type":"Polygon","properties":{"Shape_Leng":0.529699068721,"Shape_Area":0.0107496122402,"ADM2_EN":"Lat Krabang","ADM2_TH":"ลาดกระบัง","ADM2_PCODE":"TH1011","ADM1_EN":"Bangkok","ADM1_TH":"กรุงเทพมหานคร","ADM1_PCODE":"TH10","ADM0_EN":"Thailand","ADM0_TH":"ประเทศไทย","ADM0_PCODE":"TH"}},{"arcs":[[55,56,57,58,59]],"type":"Polygon","properties":{"Shape_Leng":0.152534136477,"Shape_Area":0.00103561816361,"ADM2_EN":"Yan Nawa","ADM2_TH":"ยานนาวา","ADM2_PCODE":"TH1012","ADM1_EN":"Bangkok","ADM1_TH":"กรุงเทพมหานคร","ADM1_PCODE":"TH10","ADM0_EN":"Thailand","ADM0_TH":"ประเทศไทย","ADM0_PCODE":"TH"}},{"arcs":[[-8,-42,-20,60]],"type":"Polygon","properties":{"Shape_Leng":0.0512340980132,"Shape_Area":0.000117734118663,"ADM2_EN":"Samphanthawong","ADM2_TH":"สัมพันธวงศ์","ADM2_PCODE":"TH1013","ADM1_EN":"Bangkok","ADM1_TH":"กรุงเทพมหานคร","ADM1_PCODE":"TH10","ADM0_EN":"Thailand","ADM0_TH":"ประเทศไทย","ADM0_PCODE":"TH"}},{"arcs":[[-11,61,62,63]],"type":"Polygon","properties":{"Shape_Leng":0.109781018866,"Shape_Area":0.000773578647051,"ADM2_EN":"Phaya Thai","ADM2_TH":"พญาไท","ADM2_PCODE":"TH1014","ADM1_EN":"Bangkok","ADM1_TH":"กรุงเทพมหานคร","ADM1_PCODE":"TH10","ADM0_EN":"Thailand","ADM0_TH":"ประเทศไทย","ADM0_PCODE":"TH"}},{"arcs":[[-2,64,65,66,67,68,69]],"type":"Polygon","properties":{"Shape_Leng":0.136818591456,"Shape_Area":0.000673501893803,"ADM2_EN":"Thon Buri","ADM2_TH":"ธนบุรี","ADM2_PCODE":"TH1015","ADM1_EN":"Bangkok","ADM1_TH":"กรุงเทพมหานคร","ADM1_PCODE":"TH10","ADM0_EN":"Thailand","ADM0_TH":"ประเทศไทย","ADM0_PCODE":"TH"}},{"arcs":[[-3,-70,70,71]],"type":"Polygon","properties":{"Shape_Leng":0.0953427856219,"Shape_Area":0.000525874984685,"ADM2_EN":"Bangkok Yai","ADM2_TH":"บางกอกใหญ่","ADM2_PCODE":"TH1016","ADM1_EN":"Bangkok","ADM1_TH":"กรุงเทพมหานคร","ADM1_PCODE":"TH10","ADM0_EN":"Thailand","ADM0_TH":"ประเทศไทย","ADM0_PCODE":"TH"}},{"arcs":[[-33,72,73,74,75,76,77,78]],"type":"Polygon","properties":{"Shape_Leng":0.174409763858,"Shape_Area":0.00136263800592,"ADM2_EN":"Huai Khwang","ADM2_TH":"ห้วยขวาง","ADM2_PCODE":"TH1017","ADM1_EN":"Bangkok","ADM1_TH":"กรุงเทพมหานคร","ADM1_PCODE":"TH10","ADM0_EN":"Thailand","ADM0_TH":"ประเทศไทย","ADM0_PCODE":"TH"}},{"arcs":[[-1,-61,-19,79,80,-65]],"type":"Polygon","properties":{"Shape_Leng":0.0869282807032,"Shape_Area":0.000495930209384,"ADM2_EN":"Khlong San","ADM2_TH":"คลองสาน","ADM2_PCODE":"TH1018","ADM1_EN":"Bangkok","ADM1_TH":"กรุงเทพมหานคร","ADM1_PCODE":"TH10","ADM0_EN":"Thailand","ADM0_TH":"ประเทศไทย","ADM0_PCODE":"TH"}},{"arcs":[[81,82,83,84,85,86]],"type":"Polygon","properties":{"Shape_Leng":0.237768012426,"Shape_Area":0.00297993134772,"ADM2_EN":"Taling Chan","ADM2_TH":"ตลิ่งชัน","ADM2_PCODE":"TH1019","ADM1_EN":"Bangkok","ADM1_TH":"กรุงเทพมหานคร","ADM1_PCODE":"TH10","ADM0_EN":"Thailand","ADM0_TH":"ประเทศไทย","ADM0_PCODE":"TH"}},{"arcs":[[-4,-72,-83,87]],"type":"Polygon","properties":{"Shape_Leng":0.135742854435,"Shape_Area":0.00102870228171,"ADM2_EN":"Bangkok Noi","ADM2_TH":"บางกอกน้อย","ADM2_PCODE":"TH1020","ADM1_EN":"Bangkok","ADM1_TH":"กรุงเทพมหานคร","ADM1_PCODE":"TH10","ADM0_EN":"Thailand","ADM0_TH":"ประเทศไทย","ADM0_PCODE":"TH"}},{"arcs":[[88,89,90,91]],"type":"Polygon","properties":{"Shape_Leng":0.606184807456,"Shape_Area":0.010301942756,"ADM2_EN":"Bang Khun Thian","ADM2_TH":"บางขุนเทียน","ADM2_PCODE":"TH1021","ADM1_EN":"Bangkok","ADM1_TH":"กรุงเทพมหานคร","ADM1_PCODE":"TH10","ADM0_EN":"Thailand","ADM0_TH":"ประเทศไทย","ADM0_PCODE":"TH"}},{"arcs":[[-69,92,93,94,-84,-71]],"type":"Polygon","properties":{"Shape_Leng":0.233028490991,"Shape_Area":0.00159841769207,"ADM2_EN":"Phasi Charoen","ADM2_TH":"ภาษีเจริญ","ADM2_PCODE":"TH1022","ADM1_EN":"Bangkok","ADM1_TH":"กรุงเทพมหานคร","ADM1_PCODE":"TH10","ADM0_EN":"Thailand","ADM0_TH":"ประเทศไทย","ADM0_PCODE":"TH"}},{"arcs":[[95,96,97,98]],"type":"Polygon","properties":{"Shape_Leng":0.25805701426,"Shape_Area":0.00304171669192,"ADM2_EN":"Nong Khaem","ADM2_TH":"หนองแขม","ADM2_PCODE":"TH1023","ADM1_EN":"Bangkok","ADM1_TH":"กรุงเทพมหานคร","ADM1_PCODE":"TH10","ADM0_EN":"Thailand","ADM0_TH":"ประเทศไทย","ADM0_PCODE":"TH"}},{"arcs":[[-58,99,100,101,-67,102]],"type":"Polygon","properties":{"Shape_Leng":0.172534235031,"Shape_Area":0.00106548913888,"ADM2_EN":"Rat Burana","ADM2_TH":"ราษฎร์บูรณะ","ADM2_PCODE":"TH1024","ADM1_EN":"Bangkok","ADM1_TH":"กรุงเทพมหานคร","ADM1_PCODE":"TH10","ADM0_EN":"Thailand","ADM0_TH":"ประเทศไทย","ADM0_PCODE":"TH"}},{"arcs":[[-5,-88,-82,103,104,-9]],"type":"Polygon","properties":{"Shape_Leng":0.154847392614,"Shape_Area":0.000991368250715,"ADM2_EN":"Bang Phlat","ADM2_TH":"บางพลัด","ADM2_PCODE":"TH1025","ADM1_EN":"Bangkok","ADM1_TH":"กรุงเทพมหานคร","ADM1_PCODE":"TH10","ADM0_EN":"Thailand","ADM0_TH":"ประเทศไทย","ADM0_PCODE":"TH"}},{"arcs":[[-63,105,-76,106]],"type":"Polygon","properties":{"Shape_Leng":0.13081873355,"Shape_Area":0.000704524243177,"ADM2_EN":"Din Daeng","ADM2_TH":"ดินแดง","ADM2_PCODE":"TH1026","ADM1_EN":"Bangkok","ADM1_TH":"กรุงเทพมหานคร","ADM1_PCODE":"TH10","ADM0_EN":"Thailand","ADM0_TH":"ประเทศไทย","ADM0_PCODE":"TH"}},{"arcs":[[-25,107,108,-36,109]],"type":"Polygon","properties":{"Shape_Leng":0.223633657281,"Shape_Area":0.00195689334714,"ADM2_EN":"Bueng Kum","ADM2_TH":"บึงกุ่ม","ADM2_PCODE":"TH1027","ADM1_EN":"Bangkok","ADM1_TH":"กรุงเทพมหานคร","ADM1_PCODE":"TH10","ADM0_EN":"Thailand","ADM0_TH":"ประเทศไทย","ADM0_PCODE":"TH"}},{"arcs":[[-22,-40,110,-60,111,-80]],"type":"Polygon","properties":{"Shape_Leng":0.133628384955,"Shape_Area":0.000604550759158,"ADM2_EN":"Sathon","ADM2_TH":"สาทร","ADM2_PCODE":"TH1028","ADM1_EN":"Bangkok","ADM1_TH":"กรุงเทพมหานคร","ADM1_PCODE":"TH10","ADM0_EN":"Thailand","ADM0_TH":"ประเทศไทย","ADM0_PCODE":"TH"}},{"arcs":[[-10,-105,112,113]],"type":"Polygon","properties":{"Shape_Leng":0.163252560624,"Shape_Area":0.00108374924334,"ADM2_EN":"Bang Sue","ADM2_TH":"บางซื่อ","ADM2_PCODE":"TH1029","ADM1_EN":"Bangkok","ADM1_TH":"กรุงเทพมหานคร","ADM1_PCODE":"TH10","ADM0_EN":"Thailand","ADM0_TH":"ประเทศไทย","ADM0_PCODE":"TH"}},{"arcs":[[-27,114,-77,-106,-62,-114,115]],"type":"Polygon","properties":{"Shape_Leng":0.218140932584,"Shape_Area":0.00272520508684,"ADM2_EN":"Chatuchak","ADM2_TH":"จตุจักร","ADM2_PCODE":"TH1030","ADM1_EN":"Bangkok","ADM1_TH":"กรุงเทพมหานคร","ADM1_PCODE":"TH10","ADM0_EN":"Thailand","ADM0_TH":"ประเทศไทย","ADM0_PCODE":"TH"}},{"arcs":[[-59,-103,-66,-81,-112]],"type":"Polygon","properties":{"Shape_Leng":0.116813090493,"Shape_Area":0.000715354713044,"ADM2_EN":"Bang Kho Laem","ADM2_TH":"บางคอแหลม","ADM2_PCODE":"TH1031","ADM1_EN":"Bangkok","ADM1_TH":"กรุงเทพมหานคร","ADM1_PCODE":"TH10","ADM0_EN":"Thailand","ADM0_TH":"ประเทศไทย","ADM0_PCODE":"TH"}},{"arcs":[[-43,116,117,-54,118,119]],"type":"Polygon","properties":{"Shape_Leng":0.290711946682,"Shape_Area":0.00450301414805,"ADM2_EN":"Prawet","ADM2_TH":"ประเวศ","ADM2_PCODE":"TH1032","ADM1_EN":"Bangkok","ADM1_TH":"กรุงเทพมหานคร","ADM1_PCODE":"TH10","ADM0_EN":"Thailand","ADM0_TH":"ประเทศไทย","ADM0_PCODE":"TH"}},{"arcs":[[-39,120,-46,121,-56,-111]],"type":"Polygon","properties":{"Shape_Leng":0.153280015035,"Shape_Area":0.00112534804772,"ADM2_EN":"Khlong Toei","ADM2_TH":"คลองเตย","ADM2_PCODE":"TH1033","ADM1_EN":"Bangkok","ADM1_TH":"กรุงเทพมหานคร","ADM1_PCODE":"TH10","ADM0_EN":"Thailand","ADM0_TH":"ประเทศไทย","ADM0_PCODE":"TH"}},{"arcs":[[-32,122,-117,-48,123,-73]],"type":"Polygon","properties":{"Shape_Leng":0.221440309296,"Shape_Area":0.00203735784553,"ADM2_EN":"Suan Luang","ADM2_TH":"สวนหลวง","ADM2_PCODE":"TH1034","ADM1_EN":"Bangkok","ADM1_TH":"กรุงเทพมหานคร","ADM1_PCODE":"TH10","ADM0_EN":"Thailand","ADM0_TH":"ประเทศไทย","ADM0_PCODE":"TH"}},{"arcs":[[-68,-102,124,-92,125,-93]],"type":"Polygon","properties":{"Shape_Leng":0.214517341397,"Shape_Area":0.00194128064802,"ADM2_EN":"Chom Thong","ADM2_TH":"จอมทอง","ADM2_PCODE":"TH1035","ADM1_EN":"Bangkok","ADM1_TH":"กรุงเทพมหานคร","ADM1_PCODE":"TH10","ADM0_EN":"Thailand","ADM0_TH":"ประเทศไทย","ADM0_PCODE":"TH"}},{"arcs":[[-29,126,127,128]],"type":"Polygon","properties":{"Shape_Leng":0.240322416122,"Shape_Area":0.00309140306455,"ADM2_EN":"Don Mueang","ADM2_TH":"ดอนเมือง","ADM2_PCODE":"TH1036","ADM1_EN":"Bangkok","ADM1_TH":"กรุงเทพมหานคร","ADM1_PCODE":"TH10","ADM0_EN":"Thailand","ADM0_TH":"ประเทศไทย","ADM0_PCODE":"TH"}},{"arcs":[[-12,-64,-107,-75,129,-37]],"type":"Polygon","properties":{"Shape_Leng":0.120817046416,"Shape_Area":0.000599967408882,"ADM2_EN":"Ratchathewi","ADM2_TH":"ราชเทวี","ADM2_PCODE":"TH1037","ADM1_EN":"Bangkok","ADM1_TH":"กรุงเทพมหานคร","ADM1_PCODE":"TH10","ADM0_EN":"Thailand","ADM0_TH":"ประเทศไทย","ADM0_PCODE":"TH"}},{"arcs":[[-26,-110,-35,130,-78,-115]],"type":"Polygon","properties":{"Shape_Leng":0.17764848506,"Shape_Area":0.0017777901267,"ADM2_EN":"Lat Phrao","ADM2_TH":"ลาดพร้าว","ADM2_PCODE":"TH1038","ADM1_EN":"Bangkok","ADM1_TH":"กรุงเทพมหานคร","ADM1_PCODE":"TH10","ADM0_EN":"Thailand","ADM0_TH":"ประเทศไทย","ADM0_PCODE":"TH"}},{"arcs":[[-38,-130,-74,-124,-47,-121]],"type":"Polygon","properties":{"Shape_Leng":0.171549619637,"Shape_Area":0.00108348242446,"ADM2_EN":"Vadhana","ADM2_TH":"วัฒนา","ADM2_PCODE":"TH1039","ADM1_EN":"Bangkok","ADM1_TH":"กรุงเทพมหานคร","ADM1_PCODE":"TH10","ADM0_EN":"Thailand","ADM0_TH":"ประเทศไทย","ADM0_PCODE":"TH"}},{"arcs":[[-85,-95,131,-99,132]],"type":"Polygon","properties":{"Shape_Leng":0.269957233312,"Shape_Area":0.00399812864196,"ADM2_EN":"Bang Khae","ADM2_TH":"บางแค","ADM2_PCODE":"TH1040","ADM1_EN":"Bangkok","ADM1_TH":"กรุงเทพมหานคร","ADM1_PCODE":"TH10","ADM0_EN":"Thailand","ADM0_TH":"ประเทศไทย","ADM0_PCODE":"TH"}},{"arcs":[[-28,-116,133,-127]],"type":"Polygon","properties":{"Shape_Leng":0.19779073835,"Shape_Area":0.00190210940038,"ADM2_EN":"Lak Si","ADM2_TH":"หลักสี่","ADM2_PCODE":"TH1041","ADM1_EN":"Bangkok","ADM1_TH":"กรุงเทพมหานคร","ADM1_PCODE":"TH10","ADM0_EN":"Thailand","ADM0_TH":"ประเทศไทย","ADM0_PCODE":"TH"}},{"arcs":[[-30,-129,134,135]],"type":"Polygon","properties":{"Shape_Leng":0.316093301809,"Shape_Area":0.00363617680092,"ADM2_EN":"Sai Mai","ADM2_TH":"สายไหม","ADM2_PCODE":"TH1042","ADM1_EN":"Bangkok","ADM1_TH":"กรุงเทพมหานคร","ADM1_PCODE":"TH10","ADM0_EN":"Thailand","ADM0_TH":"ประเทศไทย","ADM0_PCODE":"TH"}},{"arcs":[[-24,136,-51,137,-108]],"type":"Polygon","properties":{"Shape_Leng":0.2481110616,"Shape_Area":0.00213459689113,"ADM2_EN":"Khan Na Yao","ADM2_TH":"คันนายาว","ADM2_PCODE":"TH1043","ADM1_EN":"Bangkok","ADM1_TH":"กรุงเทพมหานคร","ADM1_PCODE":"TH10","ADM0_EN":"Thailand","ADM0_TH":"ประเทศไทย","ADM0_PCODE":"TH"}},{"arcs":[[-31,-109,-138,-50,-55,-118,-123]],"type":"Polygon","properties":{"Shape_Leng":0.231038328144,"Shape_Area":0.00233829594149,"ADM2_EN":"Saphan Sung","ADM2_TH":"สะพานสูง","ADM2_PCODE":"TH1044","ADM1_EN":"Bangkok","ADM1_TH":"กรุงเทพมหานคร","ADM1_PCODE":"TH10","ADM0_EN":"Thailand","ADM0_TH":"ประเทศไทย","ADM0_PCODE":"TH"}},{"arcs":[[-34,-79,-131]],"type":"Polygon","properties":{"Shape_Leng":0.173597722016,"Shape_Area":0.00142794207949,"ADM2_EN":"Wang Thonglang","ADM2_TH":"วังทองหลาง","ADM2_PCODE":"TH1045","ADM1_EN":"Bangkok","ADM1_TH":"กรุงเทพมหานคร","ADM1_PCODE":"TH10","ADM0_EN":"Thailand","ADM0_TH":"ประเทศไทย","ADM0_PCODE":"TH"}},{"arcs":[[-17,-52,-137,-23,-136,138]],"type":"Polygon","properties":{"Shape_Leng":0.49036567762,"Shape_Area":0.00956102182569,"ADM2_EN":"Khlong Sam Wa","ADM2_TH":"คลองสามวา","ADM2_PCODE":"TH1046","ADM1_EN":"Bangkok","ADM1_TH":"กรุงเทพมหานคร","ADM1_PCODE":"TH10","ADM0_EN":"Thailand","ADM0_TH":"ประเทศไทย","ADM0_PCODE":"TH"}},{"arcs":[[-44,-120,139]],"type":"Polygon","properties":{"Shape_Leng":0.200075635854,"Shape_Area":0.00159167877647,"ADM2_EN":"Bang Na","ADM2_TH":"บางนา","ADM2_PCODE":"TH1047","ADM1_EN":"Bangkok","ADM1_TH":"กรุงเทพมหานคร","ADM1_PCODE":"TH10","ADM0_EN":"Thailand","ADM0_TH":"ประเทศไทย","ADM0_PCODE":"TH"}},{"arcs":[[-86,-133,-98,140]],"type":"Polygon","properties":{"Shape_Leng":0.307445280064,"Shape_Area":0.00419074358966,"ADM2_EN":"Thawi Watthana","ADM2_TH":"ทวีวัฒนา","ADM2_PCODE":"TH1048","ADM1_EN":"Bangkok","ADM1_TH":"กรุงเทพมหานคร","ADM1_PCODE":"TH10","ADM0_EN":"Thailand","ADM0_TH":"ประเทศไทย","ADM0_PCODE":"TH"}},{"arcs":[[-89,-125,-101,141]],"type":"Polygon","properties":{"Shape_Leng":0.261602283035,"Shape_Area":0.00267355321901,"ADM2_EN":"Thung Khru","ADM2_TH":"ทุ่งครุ","ADM2_PCODE":"TH1049","ADM1_EN":"Bangkok","ADM1_TH":"กรุงเทพมหานคร","ADM1_PCODE":"TH10","ADM0_EN":"Thailand","ADM0_TH":"ประเทศไทย","ADM0_PCODE":"TH"}},{"arcs":[[-91,142,-96,-132,-94,-126]],"type":"Polygon","properties":{"Shape_Leng":0.280742127208,"Shape_Area":0.00284522238684,"ADM2_EN":"Bang Bon","ADM2_TH":"บางบอน","ADM2_PCODE":"TH1050","ADM1_EN":"Bangkok","ADM1_TH":"กรุงเทพมหานคร","ADM1_PCODE":"TH10","ADM0_EN":"Thailand","ADM0_TH":"ประเทศไทย","ADM0_PCODE":"TH"}}]}}}