{"type":"Topology","arcs":[[[2330,7529],[28,-7],[27,-24],[28,-57],[-11,-24],[-1,-45],[21,-89],[-32,-27],[-19,-27],[5,-56],[28,-54],[9,-36],[32,-71],[14,-11],[40,19],[14,-96],[45,-223],[30,-52]],[[2588,6649],[-12,-30],[1,-129],[-33,-37],[-7,-26],[13,-38],[-1,-42],[-13,-19],[-13,-48],[3,-27],[24,-76],[19,-12],[-7,-123],[13,-105]],[[2575,5937],[-77,-2],[-30,10],[-5,-13],[-50,-36],[-40,-88],[-22,-8],[-51,-38],[-13,-45],[-14,4],[-13,41],[-56,-77],[-30,7],[-9,32],[-33,0],[-10,84],[-19,32],[-30,13],[-20,-9],[-41,-37],[-28,-5],[-23,-44],[2,-27],[-13,-39],[-59,-24],[-32,3],[-17,14],[-24,49],[-8,54],[-43,-2],[-62,20],[-5,-13],[-25,13],[-55,62],[-12,23],[-56,-46],[-30,21],[-28,-13],[-14,22],[-21,-20],[-38,56],[-19,-26],[-38,14],[-48,54],[-3,22],[-166,80],[30,71],[28,47],[-20,59],[-37,10],[-60,-27],[-18,-29],[-2,129],[-8,47],[-37,34],[20,87],[5,61],[-112,46],[-4,-39],[-15,-19],[-21,-172],[-25,-74],[-38,-68],[-27,10],[-27,-87]],[[779,6141],[-175,87],[-211,110],[-144,69],[-193,117],[196,458],[56,121],[58,134],[69,172],[86,222],[20,42],[157,129],[22,39]],[[720,7841],[51,-53],[29,-41],[70,-76],[243,-254],[65,120],[-19,147],[6,24],[28,29],[90,49],[37,-18],[44,-44],[29,-56],[20,-19],[15,-42],[32,-20],[35,9],[-6,34],[29,14],[41,-44],[23,-7],[42,-71],[31,130],[29,-1],[42,20],[8,-21],[43,-7],[43,40],[14,26],[52,41],[21,-58],[18,-12],[25,-75],[-7,-77],[-8,-24],[70,-193],[27,8],[-7,25],[12,51],[0,34],[16,14],[0,33],[32,8],[26,-4],[15,41],[20,-26],[23,10],[6,-21],[25,15],[-8,22],[20,6],[22,24],[25,-38],[20,14],[23,36],[28,-34]],[[2588,6649],[20,19],[40,-9],[16,-51],[0,-72],[13,-42],[24,-20],[36,1],[27,11],[18,30],[-5,84],[3,51],[24,43],[22,8],[62,3],[22,15],[11,35],[5,56],[13,33],[17,12],[30,-4],[44,-37],[32,-8],[22,12],[44,59],[31,57],[10,57],[-7,42],[-26,14],[-43,-40],[-33,-15],[-69,-10],[-56,-14],[-28,3],[-31,22],[-16,23],[-21,61],[-25,123],[9,52],[28,36],[36,9],[19,-27],[2,-68],[13,-32],[26,-27],[54,-15],[26,20],[10,51],[-16,58],[8,43],[77,36],[6,44],[-20,80],[5,50],[-5,24],[-62,17],[-20,15],[-11,43],[11,29],[37,33],[10,40],[-7,19],[-25,7],[-37,-18],[-26,-1],[-42,16],[-11,22],[0,39],[10,21],[40,24],[16,42],[-13,29],[-69,73],[-93,121],[-53,-14],[-27,1],[-16,19],[7,30],[35,42],[3,30],[-38,69],[2,32],[28,57],[10,56],[-6,23]],[[2745,8451],[35,66],[39,10],[14,-17],[26,9],[-1,42],[22,3],[34,-13],[28,23],[9,32],[28,24],[5,30],[47,18],[-1,36],[43,2],[13,49],[68,2],[12,-26],[33,7],[57,-6],[19,11],[-3,30],[11,43],[-23,41],[37,-1],[33,-23],[57,-23],[51,-38],[39,-41],[11,-37],[-9,-34],[8,-40],[26,-17]],[[3513,8613],[-8,-66],[10,-47],[38,-46],[2,-64],[24,-107],[-11,-13],[-25,9],[-18,-43],[-28,-40],[-4,-40],[3,-78],[-37,-19],[36,-55],[19,-46],[-5,-43],[11,-49],[57,-65],[36,-13],[-5,-141],[-151,-57],[-8,30],[-17,20],[-35,-15],[17,-76],[-14,-78],[14,-37],[9,37],[34,8],[7,-30],[25,1],[15,-46],[28,0],[27,-19],[-4,-26],[-33,-24],[-11,-37],[-18,-15],[7,-49],[-19,-22],[3,-24],[20,-35],[-8,-22],[-29,-27],[12,-47],[40,-25],[7,-55],[-6,-26],[-23,-16],[0,-38],[-39,-53],[9,-21],[-12,-44],[115,-122],[3,-49],[-7,-168],[2,-80],[37,-37],[16,-29],[35,-33],[31,-46]],[[3687,6215],[-36,-42],[-36,-22],[-32,-11],[-25,-32],[-11,-38],[0,-59],[-51,-45],[-36,10],[-26,32],[-2,85],[-31,16],[-20,-33],[-46,-8],[-52,-35],[-13,-28],[3,-43],[16,-54],[3,-62],[-10,-60],[-1,-109],[-15,-49],[-3,-48],[-25,-94],[-30,9],[-17,-10]],[[3191,5485],[-47,5],[-37,11],[-33,23],[-46,0],[-48,37],[-36,14],[-34,-17],[-60,12],[-46,63],[-23,52],[-42,32],[-75,47],[-17,5],[-35,128],[-23,40],[-14,0]],[[720,7841],[67,124],[-271,298],[18,54],[27,55],[-74,21],[15,85],[3,70],[-1,94],[2,161],[18,262],[48,543],[2,198],[596,116],[352,8],[185,68],[46,1],[299,-18],[175,-10],[306,-57],[-1,-37],[29,-42],[53,-14],[12,-13],[8,-80],[28,-56],[18,-82],[4,-60],[-5,-39],[-20,-56],[19,-21],[24,23],[15,31],[19,-23],[-7,-35],[8,-49],[-68,-132],[-9,-48],[7,-43],[-8,-53],[29,-61],[-13,-38],[-41,12],[-24,-11],[-8,-35],[10,-33],[22,-25],[47,32],[33,58],[21,4],[12,-45],[-10,-48],[-55,-94],[-18,-20],[-20,0],[-26,38],[-22,53],[-20,12],[-28,-40],[0,-43],[10,-40],[25,-64],[23,-32],[79,-60],[38,-12],[12,-16],[-7,-52],[-23,-22],[-65,-19],[-19,-17],[16,-34]],[[2637,8433],[-31,-41],[-21,22],[-58,-19],[-28,-46],[-14,21],[-28,-23],[12,-25],[-14,-8],[-4,-37],[-19,-5],[-23,-38],[4,-54],[-11,-8],[-37,20],[-18,37],[-36,24],[-24,-8],[-20,12],[-37,-34],[28,-100],[19,-90],[82,-322],[-2,-31],[-14,-36],[-13,-115]],[[1682,4668],[9,-15],[51,-12],[39,3],[2,-23],[35,5],[-10,-65],[12,-9],[8,-40],[28,12],[39,-27],[-7,-18],[19,-8],[32,10],[8,-9],[-13,-55],[14,-3],[-10,-30],[16,-34],[-39,-5],[27,-68],[4,-27],[-23,-29],[50,-110],[-11,-32],[-46,6],[-8,64],[-40,-21],[-31,18],[-15,-6],[-34,20],[-28,-16],[-11,-21],[18,-18],[5,-32],[-71,-93],[-27,-42],[11,-38],[-17,-30],[-29,-21],[31,-67],[-55,-69],[-47,-15],[-35,17],[-13,23],[-21,-24],[-32,-5],[-11,-43],[-31,23],[-19,-53],[13,-25],[25,27],[10,-13],[-11,-74],[-22,8],[-20,-27],[-27,-2],[-17,40],[-60,28],[-13,-1],[-42,-27],[-24,6],[-15,-12],[-33,39],[-12,-1],[-19,45],[-40,47],[-97,-157],[-66,77],[-67,-38],[-79,-16],[-38,3],[-122,18],[-40,11],[-21,29],[-15,-19],[-61,15],[-41,24],[-15,19],[-21,-31],[-32,2],[-41,16],[-139,23],[-17,52],[-49,2],[-17,-15],[-121,45],[14,65],[87,15],[26,64],[57,-18],[17,30],[8,53],[2,85],[-1,78],[-9,61],[22,93],[-16,36],[2,27],[19,51],[7,63],[25,96],[11,78],[41,47],[17,61],[28,13],[0,71],[6,14],[122,-131],[44,113],[52,98],[-7,66],[-16,26],[-47,28],[-2,82],[4,62],[27,9],[33,-5],[34,26],[50,-8],[25,46],[27,32],[56,106],[77,128],[123,164],[19,53]],[[984,5732],[68,-43],[-1,-38],[-14,-33],[119,-62],[14,44],[53,96],[50,-38],[13,3],[17,-48],[-4,-9],[42,-76],[19,-61],[19,-15],[21,-37],[-8,-47],[14,-68],[-21,-14],[-32,42],[-32,-17],[-23,-1],[0,-28],[16,-76],[-34,-55],[-29,-69],[23,-57],[68,-61],[129,-99],[25,-40],[26,-14],[-2,-54],[20,-84],[13,-2],[42,-41],[19,-7],[44,18],[24,27]],[[3191,5485],[82,-137],[52,-16],[45,16],[17,-43],[16,-14],[11,-50],[-13,-23],[7,-129],[6,-56],[32,-49],[12,-42],[24,-38]],[[3482,4904],[-78,6],[-50,47],[-30,2],[-30,23],[-74,9],[4,29],[-133,67],[-138,13],[-25,16],[-94,-21],[-109,-3],[-21,15],[-40,-23],[-14,18],[-34,10],[-33,35],[-29,-18],[-30,-54],[-13,-42],[-51,-26],[-7,-49],[11,-55],[-71,-61],[-29,-1],[-38,63],[-33,-7],[-41,-46],[4,-20],[-27,-22],[-4,-20],[15,-25],[-41,-22],[-20,15],[-3,-26],[-23,-30],[-24,1],[-1,21],[-30,9],[-7,-36],[-36,-12],[-1,32],[-54,7],[-25,-15],[-36,11],[-14,27],[-43,-19],[-74,-46],[-28,68],[-31,21],[-37,-3],[-19,-78],[-11,-21]],[[984,5732],[26,106],[-83,29],[-9,25],[-8,79],[4,44],[25,47],[-160,79]],[[6506,6993],[-24,1],[-28,-58],[-18,-64],[-20,1],[-52,-25],[-40,24],[-71,-18],[-27,-34],[-20,-8],[-15,-35],[-46,-33],[-111,27],[-15,-11],[-10,-44],[-38,-61],[-17,-6],[-14,-35],[-27,-41],[2,-12],[-39,-14],[-4,-47],[9,-60],[32,-38],[6,-25],[-8,-85],[15,-13],[9,-54],[-27,-23],[-3,-27],[-31,2],[-20,-17],[-8,33],[-34,-10],[-43,9],[1,30],[-20,31],[0,19],[-41,-16],[-41,31],[-36,-16],[-15,11],[-47,-13],[-101,33],[-24,44],[-28,-19],[-19,13],[-32,-5],[-8,21],[-18,-9],[-25,23],[-16,-3],[-14,29],[-64,24],[-37,-21],[-17,-35],[-19,-87],[-34,-62],[-34,-15],[-14,-32],[-11,-62],[6,-10],[-16,-57],[-12,-20],[3,-23],[-30,-36],[-14,-63],[-33,-25],[-15,-42],[-2,-31],[21,-1],[-3,-49],[-27,-29],[-3,-29],[-13,6],[-12,-33],[6,-19],[-27,-38],[0,-14],[-31,-6],[0,-29],[-24,-16],[-2,-26],[-24,-35],[3,-51],[-13,-33]],[[4793,5397],[-3,-23],[-22,-51],[-40,-7],[-15,-33],[-33,-16],[-19,48],[-36,67],[-37,44],[-25,17],[-63,18],[-4,40],[-31,11],[-29,25],[-101,160],[-42,30],[-12,51],[-34,39],[-49,-22],[-104,84],[-150,88],[-40,-6],[-45,33],[-64,94]],[[3795,6088],[34,48],[23,75],[19,109],[19,191],[-4,25],[21,449],[7,15],[167,73],[15,5],[1,52],[-15,0],[-6,42],[17,-6],[31,-84],[1,105],[5,17],[-17,18],[-10,63],[-22,28],[-13,42],[-29,7],[-8,63],[2,41],[-9,29],[7,68],[33,143],[39,135],[26,75],[83,154],[27,62],[12,58],[11,139],[-5,170],[14,53]],[[4271,8552],[21,-16],[36,-9],[11,19],[20,72],[30,43],[25,0],[29,-39],[4,-40],[17,-8],[22,-43],[37,-2],[32,-50],[55,-33],[105,-80],[84,-56],[72,-31],[122,-40],[28,8],[6,-17],[30,-19],[-1,-26],[42,-6],[25,-16],[5,-28],[42,-13],[22,14],[94,-6],[50,-14],[151,-62],[97,-81],[49,-84],[87,-124],[45,-11],[79,-61],[11,-19],[55,-37],[8,-15],[38,0],[10,-10],[51,-10],[82,6],[18,26],[23,76],[36,-13],[-10,-55],[6,-42],[16,-14],[9,-54],[26,-78],[6,-65],[27,-35],[26,-13],[4,-21],[53,-21],[33,-85],[29,-30],[19,-4],[6,-40],[17,-3],[26,-35],[15,-36],[-6,-38],[28,-35]],[[3513,8613],[17,27],[50,21],[42,4],[29,53],[37,25],[36,-8],[39,35],[32,-31],[41,-2],[1,-21],[59,-29],[11,9],[20,-16],[78,45],[60,-33],[31,-50],[14,-7],[124,-12],[14,4],[20,37],[9,-27],[-10,-40],[4,-45]],[[3795,6088],[-28,55],[-33,42],[-7,26],[-18,11],[-22,-7]],[[6506,6993],[32,-16],[7,46],[25,-21],[3,18],[33,-13],[8,28],[57,-21],[8,-41],[40,42],[40,22],[35,51],[19,-12],[22,35],[32,5],[0,23],[45,-5],[46,-15],[11,-24],[63,-49],[63,-37],[42,-57],[12,2],[28,59],[22,18],[5,29],[31,84],[40,77],[46,15],[21,18],[48,-2],[39,-24],[31,23],[96,-14],[59,-15],[68,3],[15,26],[26,74],[6,38],[63,27],[7,15],[170,39],[11,-36],[29,-19],[28,-3],[27,-134],[-19,-15],[-25,10],[-14,-35],[19,-40],[24,-2],[80,-88],[52,-24],[35,-46],[32,-20],[-7,-34],[26,-11],[2,-33],[-8,-59],[-11,-6],[-11,-56],[17,-10],[-2,-31],[20,0],[-10,-19],[6,-71],[-6,-16],[12,-49],[16,-13],[32,18],[71,-22],[23,-49],[17,-15],[10,45],[38,9],[7,34],[30,-14],[29,11],[32,-2],[17,-14],[28,-110],[-4,-17],[30,-12],[26,-131],[17,-27],[-27,-37],[4,-17],[-26,-23],[12,-51],[14,-19],[-11,-10],[-2,-37],[10,-19],[-7,-95],[-18,-10],[-7,-44],[-15,-50],[17,-49],[-13,-25],[-13,-69],[50,4],[59,-10],[21,7],[111,-4],[17,-36],[13,6],[22,-34],[-6,-69],[6,-53],[27,-92],[15,-33],[9,-92],[18,-25],[33,-7],[5,15],[28,-18],[7,-29],[32,-18],[15,-64],[-1,-41],[23,-62],[-1,-18],[22,11],[4,19],[36,-9],[7,-15],[28,30],[30,17],[82,3],[16,-16],[-14,-60],[-27,-42],[-13,-39],[-1,-35],[-14,-3],[-1,-31],[-24,-27],[9,-16],[-15,-71],[-19,-65],[-27,-64],[-36,-36],[-18,-41],[5,-36],[-40,-31],[-19,6],[-28,-27],[-6,-27],[-29,8],[-36,-75],[4,-23],[-16,-33],[22,-11],[81,25],[30,-40],[10,-24],[21,-5],[4,-22],[35,-41],[-3,-43],[20,-6],[-41,-54],[-41,-77]],[[9115,4034],[-15,19],[-10,-28],[-44,-7],[-40,-36],[-2,-28],[-37,-45],[-15,-53],[-73,-36],[-68,-8],[-74,42],[-41,18],[-36,32],[-48,23],[-20,27],[-55,49],[-137,111],[-18,21],[-4,83],[-36,60],[-7,60],[-22,36],[-62,70],[-77,31],[-61,55],[-13,2],[-51,-22],[-58,62],[-18,13],[-25,-6],[-38,31],[-16,72],[-21,40],[-36,23],[-28,-4],[-29,-19],[-43,-41],[-67,-42],[-46,12],[-22,40],[-9,37],[-27,16],[-18,-8],[-40,61],[-18,-13],[-45,34],[6,29],[-15,29],[-47,20],[-14,93],[-56,9],[-67,24],[-38,38],[-41,6],[-34,67],[-166,30],[-13,24],[-25,-4],[-56,62],[-15,-10],[-26,27],[-9,-11],[-20,30],[-15,-1],[3,-44],[12,-11],[20,-52],[9,-73],[18,-18],[-1,-27],[-60,-36],[-3,-60],[-37,-75],[21,-29],[38,8],[3,-52],[-34,-79],[-2,-56],[-17,-26],[-35,12],[-24,20],[-60,38],[-28,39],[-83,84],[-27,19],[-28,45],[-9,33],[-50,12],[8,-46],[-7,-38],[12,-32],[-24,-59],[-35,-60],[-52,-15],[-2,-12],[-32,-11],[-37,-28],[-22,-45],[-38,21],[-24,-21],[-29,-5],[-7,-37],[-12,-4],[41,-47],[-11,-32],[8,-26],[-18,-20],[8,-12],[-23,-11],[-5,-48],[-12,-8],[-6,-39],[-22,9],[-2,-43],[-11,-24],[16,-15],[6,-39],[12,-7],[-7,-28],[13,-23],[-8,-41],[5,-24],[-13,-30],[-31,-28],[-14,22],[-26,-59],[-16,-8],[9,-42],[-23,-64],[9,4],[-9,-70],[-27,-9],[-11,-28],[-27,13],[-19,-36],[-23,0],[-8,-27],[3,-37],[-11,-39],[-10,-1],[-17,-44],[-27,-17],[-22,3],[-24,-24],[5,-24],[-14,-26],[6,-27],[-22,-28],[-6,-37],[-29,3],[2,-14],[-27,-7],[-11,12],[-22,-19]],[[5648,3394],[-21,12],[-28,-5],[-24,52],[3,20],[-31,49],[3,17],[-47,7],[-15,-13],[-37,3],[-29,17],[-45,55],[-17,13],[-91,-40],[-13,42],[3,57],[34,49],[31,64],[46,60],[-26,9],[4,28],[-41,6],[-6,49],[-1,76],[-23,48],[-16,57],[11,33],[-11,78],[-74,47],[-13,2],[11,54],[-85,22],[-23,40],[-34,13],[-10,18],[0,93],[-28,77],[-10,12],[-32,-2],[-168,91],[-24,54],[-6,38],[7,124],[26,20],[20,29],[-5,26],[13,37],[4,51],[-13,32],[6,41],[-5,86],[-24,16],[16,88],[-5,50],[-12,1]],[[5648,3394],[-25,-35],[-5,-25]],[[5618,3334],[-32,-36],[-54,-27],[8,-33],[-19,3],[-31,-20],[-5,-46],[-26,-52],[-32,-36],[-12,40],[-73,73],[-12,-14],[-42,56],[-1,19],[-42,20],[-21,38],[-56,3],[-35,74],[-46,-40],[-101,86],[-9,2],[-38,-42],[-27,20],[-60,-17],[2,67],[49,86],[13,43],[-4,47],[-11,16],[-51,26],[-72,24],[-19,-6],[-70,-65],[-56,7],[-53,-17],[-17,-35],[-38,-32],[-35,27],[-31,55],[2,32],[-33,37],[-22,68],[-24,4],[-9,27],[-22,6],[-20,34],[-27,16],[-24,35],[-14,40],[-47,11],[-17,28],[-39,17],[-26,52],[-9,-2],[-30,42],[-15,1],[-7,54],[-23,36],[-13,52],[-53,13],[-20,20],[-1,34],[-18,35],[-37,8],[-9,43],[13,16],[-9,44],[-37,34],[-25,60],[-2,40],[-32,37],[-10,43],[-25,1],[-41,37],[0,25],[-27,61],[2,25],[-40,50],[-59,7],[-7,-16],[-39,5],[-2,-15],[-25,4],[1,37],[-37,4],[-19,14]],[[9115,4034],[-13,-14],[-15,-44],[-13,5],[-21,-62],[8,-45],[-6,-30],[42,-57],[18,-52],[23,-26],[17,-37],[47,-5],[4,17],[34,2],[20,14],[38,-7],[34,17],[41,-12],[23,6],[36,-14],[14,24],[56,3],[34,35],[-12,-85],[18,-7],[27,-44],[4,-33],[14,-12],[4,-36],[-15,-17],[-4,-30],[-18,-35],[-10,-41],[-5,-57],[28,-80],[65,-90],[44,-4],[74,-51],[15,-21],[14,-107],[11,-48],[16,-25],[44,-19],[33,-28],[5,-31],[-4,-85],[-34,-49],[-2,-62],[11,-38],[16,-12],[16,-43],[38,-32],[9,-110],[-20,-62],[-2,-42],[21,-107],[24,-28],[38,-3],[-2,-43],[-11,-38],[-35,-41],[-2,-20],[22,-81],[18,-16],[-61,-29],[-60,-52],[-62,-28],[-17,-27],[-27,-83],[-20,-87],[-41,-72],[-2,-42],[-50,-45],[-45,-16],[-27,-40],[-27,29],[-31,-24],[-26,-63],[-32,-6],[-11,25],[-6,51],[-11,9],[-17,-16],[-22,-66],[-18,-14],[-53,23],[-41,8],[-26,-6],[-9,-40],[12,-51],[0,-117],[-30,-102],[-34,-17],[-16,-117],[-1,-105],[36,-36],[-2,-36],[13,-42],[-56,-50],[-30,-50],[-18,6],[2,49],[-15,53],[-38,16],[-22,-8],[-14,-25],[-15,-74],[8,-37],[-15,-28],[-30,-8],[-24,28],[12,47],[2,149],[-20,45],[0,105],[-20,6],[-35,-57],[-17,-3],[-28,32],[-20,43],[-22,4],[-41,-73],[-28,-87],[-23,-27],[-29,-7],[-41,-60],[-25,60],[-50,-13],[-20,-58],[-9,-94],[-14,-44],[-36,-58],[-21,-24],[-83,-68],[-91,-85],[-35,10],[-15,-8],[-80,-128],[-35,-63],[-34,-42],[-50,0],[-57,46],[-22,8],[-20,-12],[-32,-75],[-89,53],[-23,1],[-27,-31],[-4,-21],[-23,-3],[-8,-35],[-20,-10],[-35,3],[-57,39],[-25,5],[-11,24],[-29,118],[5,22],[2,81],[-9,53],[-40,13],[-33,36],[-21,79],[-61,63],[-46,103],[-18,152],[-29,112],[-63,44],[-36,54],[-33,167],[-24,29],[-67,10],[-20,18],[-13,32],[-27,41],[-9,29],[-33,12],[-13,27],[-30,28],[-22,37],[-43,4],[-29,36],[-52,-3],[-34,25],[-22,50],[-32,6],[-16,-28],[-27,-6],[-54,27],[-16,14],[-24,1],[-10,62],[-15,47],[-20,-10],[-19,9],[-13,60],[-20,28],[-35,22],[-20,34],[3,89],[-32,42],[-39,-13],[-15,-31],[-35,0],[-39,19],[-4,25],[8,51],[-6,26],[-21,4],[-33,93],[2,69],[-20,105],[7,27],[-3,57],[-19,19],[-23,-15],[-25,28],[3,62],[-27,32],[13,28],[5,42],[-7,35],[15,26],[-20,54],[3,53],[-21,23],[-24,76],[0,21],[-46,93],[-31,11],[-9,45],[0,39],[13,13],[-2,39],[-15,18],[-13,-15],[-55,-29],[-43,-6],[-45,-79],[-11,-52],[-31,-34],[-64,7],[-13,78],[-35,73],[-19,15],[-27,52],[3,33],[29,31],[6,28],[-11,44],[-36,74]],[[2637,8433],[34,2],[36,21],[38,-5]]],"transform":{"scale":[0.00011415520412041261,0.00007982608840884203],"translate":[100.84862824700008,13.178470071000048]},"objects":{"Chachoengsao":{"type":"GeometryCollection","geometries":[{"arcs":[[0,1,2,3,4]],"type":"Polygon","properties":{"Shape_Leng":1.02932780422,"Shape_Area":0.0322306878056,"ADM2_EN":"Mueang Chachoengsao","ADM2_TH":"เมืองฉะเชิงเทรา","ADM2_PCODE":"TH2401","ADM1_EN":"Chachoengsao","ADM1_TH":"ฉะเชิงเทรา","ADM1_PCODE":"TH24","ADM0_EN":"Thailand","ADM0_TH":"ประเทศไทย","ADM0_PCODE":"TH"}},{"arcs":[[-2,5,6,7,8,9]],"type":"Polygon","properties":{"Shape_Leng":1.0883141141,"Shape_Area":0.0196203139415,"ADM2_EN":"Bang Khla","ADM2_TH":"บางคล้า","ADM2_PCODE":"TH2402","ADM1_EN":"Chachoengsao","ADM1_TH":"ฉะเชิงเทรา","ADM1_PCODE":"TH24","ADM0_EN":"Thailand","ADM0_TH":"ประเทศไทย","ADM0_PCODE":"TH"}},{"arcs":[[-5,10,11]],"type":"Polygon","properties":{"Shape_Leng":1.07013921869,"Shape_Area":0.0416153277578,"ADM2_EN":"Bang Nam Priao","ADM2_TH":"บางน้ำเปรี้ยว","ADM2_PCODE":"TH2403","ADM1_EN":"Chachoengsao","ADM1_TH":"ฉะเชิงเทรา","ADM1_PCODE":"TH24","ADM0_EN":"Thailand","ADM0_TH":"ประเทศไทย","ADM0_PCODE":"TH"}},{"arcs":[[12,13]],"type":"Polygon","properties":{"Shape_Leng":0.868571727512,"Shape_Area":0.0218408980412,"ADM2_EN":"Bang Pakong","ADM2_TH":"บางปะกง","ADM2_PCODE":"TH2404","ADM1_EN":"Chachoengsao","ADM1_TH":"ฉะเชิงเทรา","ADM1_PCODE":"TH24","ADM0_EN":"Thailand","ADM0_TH":"ประเทศไทย","ADM0_PCODE":"TH"}},{"arcs":[[-3,-10,14,15,-14,16]],"type":"Polygon","properties":{"Shape_Leng":1.02944327045,"Shape_Area":0.0177568649405,"ADM2_EN":"Ban Pho","ADM2_TH":"บ้านโพธิ์","ADM2_PCODE":"TH2405","ADM1_EN":"Chachoengsao","ADM1_TH":"ฉะเชิงเทรา","ADM1_PCODE":"TH24","ADM0_EN":"Thailand","ADM0_TH":"ประเทศไทย","ADM0_PCODE":"TH"}},{"arcs":[[17,18,19,20]],"type":"Polygon","properties":{"Shape_Leng":1.16079271295,"Shape_Area":0.0428898166989,"ADM2_EN":"Phanom Sarakham","ADM2_TH":"พนมสารคาม","ADM2_PCODE":"TH2406","ADM1_EN":"Chachoengsao","ADM1_TH":"ฉะเชิงเทรา","ADM1_PCODE":"TH24","ADM0_EN":"Thailand","ADM0_TH":"ประเทศไทย","ADM0_PCODE":"TH"}},{"arcs":[[-8,21,-20,22]],"type":"Polygon","properties":{"Shape_Leng":0.687514932046,"Shape_Area":0.0122165951766,"ADM2_EN":"Ratchasan","ADM2_TH":"ราชสาส์น","ADM2_PCODE":"TH2407","ADM1_EN":"Chachoengsao","ADM1_TH":"ฉะเชิงเทรา","ADM1_PCODE":"TH24","ADM0_EN":"Thailand","ADM0_TH":"ประเทศไทย","ADM0_PCODE":"TH"}},{"arcs":[[-18,23,24,25]],"type":"Polygon","properties":{"Shape_Leng":2.24387408144,"Shape_Area":0.0890349207178,"ADM2_EN":"Sanam Chai Khet","ADM2_TH":"สนามชัยเขต","ADM2_PCODE":"TH2408","ADM1_EN":"Chachoengsao","ADM1_TH":"ฉะเชิงเทรา","ADM1_PCODE":"TH24","ADM0_EN":"Thailand","ADM0_TH":"ประเทศไทย","ADM0_PCODE":"TH"}},{"arcs":[[-9,-23,-19,-26,26,27,-15]],"type":"Polygon","properties":{"Shape_Leng":1.0920155,"Shape_Area":0.0269300744093,"ADM2_EN":"Plaeng Yao","ADM2_TH":"แปลงยาว","ADM2_PCODE":"TH2409","ADM1_EN":"Chachoengsao","ADM1_TH":"ฉะเชิงเทรา","ADM1_PCODE":"TH24","ADM0_EN":"Thailand","ADM0_TH":"ประเทศไทย","ADM0_PCODE":"TH"}},{"arcs":[[-25,28,-27]],"type":"Polygon","properties":{"Shape_Leng":1.96397563489,"Shape_Area":0.118579282586,"ADM2_EN":"Tha Takiap","ADM2_TH":"ท่าตะเกียบ","ADM2_PCODE":"TH2410","ADM1_EN":"Chachoengsao","ADM1_TH":"ฉะเชิงเทรา","ADM1_PCODE":"TH24","ADM0_EN":"Thailand","ADM0_TH":"ประเทศไทย","ADM0_PCODE":"TH"}},{"arcs":[[-1,-12,29,-6]],"type":"Polygon","properties":{"Shape_Leng":0.610600176625,"Shape_Area":0.00876922768897,"ADM2_EN":"Khlong Khuean","ADM2_TH":"คลองเขื่อน","ADM2_PCODE":"TH2411","ADM1_EN":"Chachoengsao","ADM1_TH":"ฉะเชิงเทรา","ADM1_PCODE":"TH24","ADM0_EN":"Thailand","ADM0_TH":"ประเทศไทย","ADM0_PCODE":"TH"}}]}}}