{"type":"Topology","arcs":[[[6444,6583],[30,-37],[0,-12],[15,-23],[7,-20],[18,-16],[13,-2],[13,-12],[28,-8],[14,-24],[31,-31],[48,-36],[12,-15],[5,-20],[14,-6],[6,-17],[22,-20],[3,-71],[-11,-22],[0,-13],[18,-10],[10,-19]],[[6740,6149],[-22,-13],[-11,-14],[-3,-15],[-12,-1],[-19,-21],[-15,7],[-22,-10],[-13,20],[-20,4],[-31,25],[0,-25],[-14,-23],[19,-30],[0,-32],[-6,-6],[-29,-3],[-2,-5],[18,-26],[-2,-19],[12,-36],[-4,-26],[5,-11],[17,-8],[23,-23],[25,-10],[5,-20],[21,-3],[21,-11],[-4,-23],[21,-18],[26,-12],[-7,-6],[14,-21],[-12,1],[4,-46],[7,-8],[7,-28],[-8,-11],[-1,-48],[-50,-24],[-21,-2],[-34,-47],[-5,-23],[30,-67],[24,-28],[31,-18],[5,-19],[-9,-14],[-31,-27],[-31,-12],[-77,3],[-34,-5],[-17,6],[-30,0],[-15,8],[-33,-22],[-22,10],[-21,-33],[-14,-11],[-21,2],[-17,-8],[0,-13],[13,-24],[27,-24],[24,-3],[11,-6],[4,-14],[15,-18],[4,-19],[-20,-10],[-5,-13],[2,-16],[-13,-21],[-33,-22],[-9,-22],[-12,-12],[2,-12],[-39,-27],[6,-46],[17,-16],[54,-2],[27,4],[37,-3],[6,-8],[22,1],[23,9],[24,4],[13,-4],[39,15],[43,-11],[39,5],[23,8],[32,20],[66,29],[24,29],[35,57],[5,-28],[-16,-40],[-8,-59],[5,-29],[-5,-9],[-1,-34],[4,-7],[-14,-23],[-23,-8],[-27,-3],[-30,-11],[-48,-31],[-23,-22],[-22,-30],[-19,-13],[89,19],[14,-1],[45,20],[34,6],[40,-14],[32,-28],[29,-9],[37,-1],[21,6],[27,1],[51,-31],[45,-23],[8,-9],[27,15],[68,-25],[34,-4]],[[7216,4653],[54,-74],[19,-19],[50,-72],[58,-41],[6,-12],[20,-12],[3,-12],[34,-41],[4,-21],[-4,-14],[21,2],[18,-7],[3,-32],[37,-60],[8,-29],[11,-2],[-3,-18],[8,-2],[17,-37],[6,3],[3,-33],[8,-22],[-2,-12],[48,-1],[0,-12],[15,-4],[-22,-15],[29,-18],[9,-14],[26,-7],[17,-13],[7,-15],[18,-6],[3,-12],[28,-31],[30,-7],[-1,-17],[9,-26],[12,-2],[-9,-69],[-8,-17],[2,-20],[12,-11],[0,-18],[19,-26],[24,-9],[9,-12],[13,-43],[20,-34],[-15,-20],[19,-26],[2,-33],[14,-14],[14,1],[9,-10],[26,-12],[18,1],[10,-8],[-3,-20],[7,-12],[-1,-24],[25,-17],[-17,-39],[-6,-3],[-7,-29],[9,-21],[13,4],[2,16],[17,-6],[21,2],[14,-11],[2,-13],[27,-7],[16,11],[-8,-18],[16,-10],[-13,-20],[-2,-23],[-17,0],[6,-15],[-22,-30],[8,-12],[18,16],[13,-16],[21,-12],[16,-15],[24,-16],[-9,-13],[19,-13]],[[8191,3140],[-5,-6],[4,-37],[-16,-11],[16,-16],[-3,-7],[-33,0],[-13,-13],[6,-9],[46,-8],[3,-15],[-18,-16],[-26,-11],[-27,19],[-14,-2],[-16,-20],[-34,-3],[-13,-20],[-30,-16],[-15,1],[-4,15],[-26,-1],[0,16],[-11,4],[-26,-2],[-26,-10],[-8,8],[34,13],[-1,8],[-36,13],[-10,-1],[-17,-18],[-8,23],[-9,11],[-30,1],[-23,-6],[-27,23],[-21,-41],[-20,-10],[12,-11],[15,10],[16,-5],[0,-9],[-32,-48],[-2,-16],[-20,8],[-21,-9],[-18,15],[-15,4],[-9,-18],[-38,-1],[-2,15],[-21,-7],[-14,12],[4,20],[30,7],[-13,14],[-28,-20],[-12,0],[-3,18],[-16,1],[-3,-23],[-15,6],[-9,12],[-28,-19],[-37,-2],[-21,9],[-25,-12],[30,-16],[-21,-24],[-16,1],[7,16],[-31,3],[-18,11],[-17,-10],[13,-13],[-5,-19],[3,-16],[-18,1],[15,-16],[-11,-7],[17,-12],[25,12],[21,-16],[-5,-21],[-22,1],[-24,-12],[-18,15],[-8,-4],[16,-10],[6,-14],[-4,-22],[-23,0],[-2,21],[-17,0],[19,-40],[-12,-5],[1,-15],[-16,-9],[10,-18],[-27,7],[-6,-13],[16,2],[5,-16],[-18,-9],[-29,11],[-11,-5],[2,-18],[12,-23],[-15,-24],[1,-29],[13,-23],[-7,-17],[3,-10],[23,-13],[-15,-2],[-16,-16],[-1,-10],[14,-8],[-10,-8],[-21,8],[15,-18],[-23,-3],[0,-10],[-14,-9],[-9,-16],[-23,-7],[3,21],[-29,7],[4,-15],[-15,-12],[-27,-2],[38,-25],[-4,-7],[-20,11],[-8,-17],[-22,7],[-7,-5],[20,-12],[-7,-9],[-22,2],[-2,-11],[16,-20],[23,7],[1,-35],[-4,-25],[-11,-4],[-22,14],[-2,15],[-14,-10],[-24,-2],[-4,-11],[18,0],[-5,-19],[4,-21],[-13,14],[-16,-14],[-17,10],[-13,-3],[-11,-17],[16,-14],[-15,-22],[-16,0],[7,19],[-5,23],[-5,-10],[-23,0],[-15,-28],[-16,4],[-28,-20],[15,-7],[19,11],[7,-5],[-11,-16],[7,-15],[-12,-4],[-49,20],[0,-17],[17,-10],[-8,-12],[-35,-8],[-7,8],[24,11],[-20,15],[-21,-22],[-9,-24],[-12,4],[-7,14],[2,25],[-16,5],[-23,-27],[27,-12],[6,-12],[-19,-3],[-25,5],[-11,-11],[16,4],[15,-7],[-8,-18],[-19,-12],[-7,10],[16,9],[-45,13],[2,-9],[16,-9],[-11,-9],[-41,15],[-11,0],[2,-21],[-14,-6]],[[6621,2067],[-25,22],[-1,19],[17,-2],[1,15],[23,12],[-15,18],[-19,-2],[-29,4],[16,15],[-13,6],[-20,-7],[-20,17],[-11,3],[-28,-13],[-7,17],[-12,-13],[-23,13],[-23,-4],[-14,-10],[-21,0],[10,-21],[-17,-7],[-21,13],[-7,17],[-17,11],[12,15],[-25,11],[-17,0],[-5,25],[-25,26],[10,16],[-3,16],[-15,-18],[-8,15],[-26,18],[7,11],[12,-9],[7,6],[-6,19],[28,3],[0,18],[-34,24],[16,7],[20,-6],[4,7],[-16,18],[-28,4],[-4,15],[-23,4],[-8,9],[5,15],[-26,5],[-11,-20],[-22,7],[-15,26],[-16,15],[-15,22],[-28,2],[-16,-14],[-20,9],[6,15],[-33,-5],[-12,4],[0,16],[-33,26],[-2,16],[-13,5],[-23,-12],[-7,-16],[-26,-2]],[[5911,2558],[-28,-6],[7,-24],[-24,-5],[-12,5],[-2,16],[-18,-4],[-3,-14],[-23,2],[12,13],[4,17],[-27,10]],[[5797,2568],[1,10],[22,25],[25,-4],[29,4],[-1,11],[34,14],[5,13],[-17,7],[19,5],[-29,16],[-3,14],[-46,-9],[-16,-25],[-19,12],[5,7],[-10,81],[-13,17],[14,13],[-6,21],[-10,3],[-20,-14],[-14,3],[14,19],[0,13],[-16,-6],[-8,16],[-14,-2],[-4,24],[-26,7],[-9,-8],[-13,13],[14,6],[5,12],[-16,10],[-30,-6],[-12,15],[-4,-12],[-19,15],[-29,4],[-26,13],[-14,-9],[-45,8],[-25,8],[-11,19],[-1,25],[-20,11],[2,23],[-14,58],[12,17],[1,18],[-13,27],[26,13],[18,23],[-19,10],[1,21],[19,22],[-26,20],[4,24],[12,31],[12,14],[-4,19],[17,10],[0,20],[8,43],[-19,40],[-16,15],[-14,-2],[-21,6],[-19,12],[-7,26],[13,22],[1,16],[-17,3],[-5,28],[-18,12],[-4,25],[8,22],[-5,17],[-25,33],[-17,13],[2,15],[-15,16],[-19,9],[-4,9],[-30,-3],[-13,33],[9,11],[2,20],[-31,19],[-56,-2],[-31,21],[-29,0],[-9,-10],[-48,2],[-13,-7],[-35,-1],[2,11],[-13,3],[-2,15],[-21,29],[-18,21],[3,19],[-44,23],[-23,32],[-20,0],[-14,18],[4,9],[-19,10],[-52,70],[-4,33],[7,14],[-30,0],[-11,6],[-36,8],[-24,10],[-2,7],[-31,7],[1,12],[-42,29],[-28,-1],[9,8],[-3,19],[-9,5],[16,14],[-34,29],[7,16],[-8,30],[-40,4],[-11,-5],[-20,18],[-14,-4],[-27,15],[-29,1],[-25,7],[-29,2],[-26,18],[-24,-28],[-16,-12],[-7,10],[-15,-7],[-23,-2],[-2,-11],[-25,-8],[4,-10],[-54,13],[-7,-7],[-24,2],[-2,7],[-41,3],[-10,-6],[-21,12],[-1,23],[-9,11],[4,29],[-7,21],[-32,2],[2,15],[-15,10],[-12,19],[-24,3],[-48,38],[-55,35],[-72,60]],[[3813,4604],[47,3],[66,-4],[56,3],[95,3],[87,-6],[93,21],[86,28],[46,18],[33,7],[42,18],[195,36],[22,8],[80,12],[75,25],[89,27],[52,0],[35,-11],[27,-1],[53,7],[38,-1],[2,40],[19,30],[31,29],[12,18],[45,34],[21,9],[17,19]],[[5277,4976],[20,23],[25,14],[34,11],[57,28],[43,4],[28,-1],[17,7],[7,20],[0,35],[8,16],[0,30],[12,17],[1,21],[26,48],[0,9],[59,104],[3,14],[15,24],[31,25],[12,37],[17,14],[14,22],[41,30],[24,7],[17,-3],[52,22],[51,7],[7,10],[-46,51],[-12,17],[-34,19],[-12,11],[-12,25],[5,12],[44,57],[75,45],[28,12],[40,9],[34,39],[21,42],[-35,82],[-2,26],[-10,22],[-26,24],[-13,38],[-13,11],[-10,35],[-2,29],[15,57],[4,22],[34,-15],[79,-24],[65,0],[14,-3],[46,-26],[55,-23],[-1,16],[13,34],[15,10],[-1,46],[15,65],[-5,50],[-13,14],[-30,53],[-3,40],[-16,28],[0,26],[5,14],[-7,23],[56,-8],[40,1],[37,-25],[29,-13],[25,-2],[22,5],[20,33],[13,8]],[[5797,2568],[-11,-1],[-20,-16],[-12,-30],[-16,-10],[12,37],[-6,6],[-20,-9],[5,-10],[-6,-16],[-28,-4],[12,31],[-30,-1],[-12,-26],[2,-18],[-16,-11],[-14,3],[-11,-11],[0,-17],[-12,12],[-13,0],[-5,-13],[-12,-7],[-23,29],[-13,1],[2,-17],[-11,-3],[-18,16],[-10,-5],[-8,-19],[27,-4],[19,-14],[1,-9],[-27,5],[-10,-37],[-13,-7],[-17,24],[-23,-9],[0,-32],[-18,-8],[-17,14],[-21,-10],[-12,-21],[-11,-4],[-11,-18],[-21,-2],[-13,12],[-12,-7],[-29,7],[-5,12],[12,18],[-26,18],[-10,15],[-23,-4],[-8,-16],[-9,3],[-5,24],[-19,0],[-12,-17],[-21,14],[-19,3],[-6,12],[11,12],[10,46],[-17,-3],[-1,-10],[-29,17],[-20,4],[20,20],[-31,11],[-4,17],[10,14],[-4,10],[-42,-17],[-1,25],[14,12],[-22,11],[-10,12],[-42,-7],[-27,7],[-15,31],[-22,-4],[-20,14],[3,10],[14,6],[-6,15],[-43,19],[-20,1],[-20,-19],[-12,11],[9,11],[-4,17],[-23,2],[-18,-12],[-11,17],[-19,-7],[-14,3],[1,12],[-28,12],[-17,14],[0,10],[16,0],[25,-11],[11,2],[21,15],[-1,10],[-16,4],[-39,-9],[-17,5],[26,17],[8,22],[-17,-5],[-18,5],[-26,-2],[-11,5],[-32,-5],[-12,3],[-1,18],[19,9],[16,35],[-5,20],[-20,12],[-15,-6],[-2,-9],[10,-26],[1,-18],[-7,-4],[-23,14],[10,23],[-18,27],[-17,12],[-17,-10],[1,-22],[-31,-10],[-14,-15],[-40,6],[14,18],[-2,12],[-41,22],[-26,-17],[-37,15],[5,14]],[[4372,2941],[50,12],[-11,12],[-42,14],[-4,50],[-12,14],[-9,26],[20,12],[24,30],[4,10],[-12,16],[-43,4],[-40,40],[-14,-4],[-6,-18],[-18,-17],[-29,5],[-26,-13],[-17,6],[12,25],[-27,5],[-7,8],[3,15],[-15,14],[-17,-3],[-12,14],[3,13],[-6,16],[-16,11],[-3,10],[19,44],[-12,12],[-5,16],[-19,11],[-24,-1],[-24,-9],[-19,11],[-24,4],[-5,11],[-19,8],[-14,-2],[-28,-14],[-10,-20],[-2,-18],[-33,-10],[-9,27],[-15,14],[4,35],[-35,-3],[-22,36],[-19,-5],[-31,-1],[-21,23],[-5,16],[-16,18],[8,46],[-32,18],[4,9],[45,29],[8,14],[-6,8],[-69,4],[-19,-6],[-3,22],[8,7],[28,-5],[11,19],[24,13],[23,-9],[12,3],[-22,34],[-19,23],[-27,-6],[-4,-23],[-17,-21],[-20,5],[-26,30],[18,35],[-21,16],[16,4],[24,16],[4,10],[-49,7],[-17,5],[-29,-54],[-22,-12],[-28,23],[-21,23],[4,26],[14,10],[13,22],[-1,10],[-58,4],[-14,18],[1,22],[-14,17],[-23,14],[24,7],[4,19],[-16,26],[-30,5],[-4,13],[-23,7],[-35,23],[4,18],[19,-2],[13,6],[-1,18],[18,4],[0,-16],[22,-3],[8,10],[24,9],[47,-13],[24,18],[-13,13],[-35,-2],[-41,14],[-47,-2],[-30,7],[10,17],[56,24],[22,6],[-17,24],[-8,23],[1,28],[-22,-14],[-28,1],[-2,46],[-22,35],[5,33],[16,41],[18,12],[-3,16],[-45,18],[-34,29],[-20,28]],[[3277,4447],[14,8],[21,27],[-7,14],[1,16],[36,41],[85,24],[32,13],[33,5],[37,-2],[24,3],[128,-1],[77,4],[18,4],[37,1]],[[7216,4653],[45,-7],[129,-3],[21,2],[54,19],[40,11],[17,9],[48,17],[29,16],[19,15],[22,11],[29,20],[45,42],[16,18],[90,64],[85,99],[14,8],[12,19],[69,62],[16,9],[18,21],[11,4],[22,25],[52,43],[28,14],[22,24],[69,37],[95,55],[9,2],[89,-10]],[[8431,5299],[25,-14],[31,1],[-4,-19],[10,-11],[7,-19],[-3,-18],[8,-17],[23,-6],[23,-20],[1,-14],[10,0],[26,-29],[3,-14],[17,-29],[13,0],[8,-13],[0,-19],[37,14],[7,-5],[46,19],[6,-17],[26,-15],[47,-5],[-4,-9],[23,-11],[23,-29],[20,7],[30,26],[23,2],[14,26],[11,-9],[7,8],[12,-12],[33,-21],[8,-27],[35,-3],[-1,-12],[16,0],[-8,-9],[26,-14],[-25,-13],[21,-4],[7,-17],[2,-36],[-13,-21],[2,-20],[10,5],[25,-6],[-13,-11],[21,-6],[-12,-10],[21,-5],[16,4],[-9,-11],[8,-9],[35,-2],[38,9],[-1,21],[22,-15],[-3,-7],[17,-4],[-3,-11],[-16,-9],[13,-14],[14,6],[7,-21],[15,4],[-9,6],[0,18],[9,0],[4,-15],[28,-13],[-14,-3],[7,-9],[20,6],[14,-10],[2,17],[22,8],[7,-10],[-17,-5],[0,-20],[21,10],[8,-3],[-11,-14],[-22,-10],[8,-14],[14,-7],[-15,-10],[-3,-18],[22,-16],[-26,-14],[-6,10],[-15,-2],[-3,-15],[-75,-23],[9,-16],[-1,-30],[-30,-21],[-18,3],[10,-13],[-15,-8],[-3,-10],[11,-29],[1,-17],[23,25],[13,-5],[-14,-11],[-10,-20],[15,-4],[31,11],[-1,-26],[-25,-16],[24,-5],[6,-12],[-11,-6],[-27,4],[-10,19],[-29,-34],[14,1],[-18,-24],[5,-12],[-30,-20],[2,-10],[13,-2],[-5,-14],[-12,5],[-47,-6],[-15,-10],[5,-19],[15,16],[41,-14],[-10,-14],[-23,3],[0,-13],[20,-5],[-17,-9],[3,-8],[15,-1],[5,-13],[-22,-9],[5,-10],[-4,-19],[-27,-25],[-1,-20],[-25,-4],[-1,-56],[-24,2],[-9,-14],[0,-23],[-12,-14],[-17,-33],[-20,-9],[-24,-1],[15,-12],[6,-30],[-32,-4],[-13,-8],[-11,-28],[14,-13],[-26,-19],[-44,1],[-45,-12],[7,-23],[-36,1],[-14,-16],[7,-21],[-9,-20],[17,-12],[-29,-12],[2,-21],[-14,-5],[1,-11],[26,-8],[0,-14],[-10,0],[-5,14],[-22,-11],[-4,-8],[27,-11],[1,-22],[23,5],[3,-36],[18,-22],[5,-39],[-16,-3],[-28,-16],[14,-9],[14,14],[7,-16],[23,-27],[2,-22],[-15,0],[-2,-13],[33,-28],[6,-24],[-21,3],[-5,-14],[17,-19],[-2,-10],[-19,-14],[-12,0],[-4,12],[7,14],[-27,1],[-21,-5],[-11,22],[-24,-3],[-26,5],[-4,-14],[8,-38],[-12,-10],[-13,12],[-16,-9],[2,-24],[-9,-27],[-44,-18],[-52,-3],[-9,-5],[-14,-24],[-24,1],[-5,8],[-43,4],[-6,-13],[9,-12],[-23,-7],[-29,11],[-27,-25],[-54,30],[-10,0],[-12,-19],[-20,6],[-20,-14],[-18,12],[-15,-12],[-28,1],[-3,-16],[9,-12],[-8,-22],[19,-8],[-7,-14],[-43,-8]],[[5277,4976],[-43,1],[-47,33],[-2,14],[-27,22],[-46,12],[-23,18],[-27,8],[-21,-1],[-37,26],[-14,13],[-37,1],[-6,-8],[-24,2],[-27,10],[-32,26],[-31,6],[-46,-11],[-40,8],[-29,-17],[-3,13],[-32,1],[-19,-13],[-31,15],[-25,1],[-31,23],[0,15],[-13,5],[-8,13],[0,26],[-23,35],[-4,16],[-12,6],[-30,-2],[2,13],[16,5],[17,14],[-41,28],[-36,51],[-2,23],[20,6],[3,15],[21,29],[-22,11],[8,14],[13,1],[9,13],[-5,18],[11,25],[10,3],[-1,20],[-9,4],[15,13],[12,43],[29,13],[25,23],[8,21],[-12,8],[9,21],[2,20],[10,20],[8,35],[22,27],[-18,10],[-10,29],[-25,2],[-13,9],[-9,16],[-32,5],[-12,10],[-24,2],[-32,14],[-20,4],[-27,12],[-29,6],[26,19],[18,30],[43,23],[55,43],[60,43],[28,35],[24,24],[43,29],[35,79],[15,45],[12,19],[7,42],[-13,83],[-24,17],[15,12],[14,22],[4,23],[-33,53],[-34,35],[-6,14],[12,27],[-3,54],[-11,46],[-27,51],[-49,70],[-37,27],[-45,39],[-61,65],[-38,37],[-52,39],[-24,8],[-55,37],[-19,7],[-47,27],[-32,22],[-21,20],[-93,55],[-60,24],[-40,21],[-35,26],[-32,17],[-50,21],[-22,19],[-56,74],[-22,10],[-32,27],[-30,30],[-21,15],[-91,126],[-53,51],[-65,43],[-11,9],[-65,36],[-35,13],[-49,27],[-48,14],[-31,-15],[-44,-31],[-34,-17]],[[3139,7810],[-4,9],[6,18],[-11,28],[6,24],[-6,49],[9,0],[35,22],[-3,15],[12,6],[5,14],[-4,15],[25,-3],[22,13],[9,11],[32,4],[25,-20],[17,6],[20,25],[31,0],[17,28],[24,10],[-7,4],[-20,26],[8,19],[47,7],[40,9],[26,-11],[60,-9],[16,-22],[9,-22],[-1,-15],[-11,-24],[5,-11],[12,1],[27,26],[6,11],[2,30],[15,0],[-5,-13],[8,-11],[55,6],[16,-11],[55,-13],[11,6],[13,23],[-4,14],[-5,57],[-11,55],[5,33],[38,-40],[30,-21],[34,-15],[41,-24],[37,-27],[27,-7],[27,-13],[4,-10],[57,-35],[11,-1],[30,-17],[28,-6],[26,5],[27,-10],[6,-26],[-18,-9],[28,-21],[-6,-10],[21,-15],[38,9],[5,-13],[22,21],[7,-7],[21,10],[-15,29],[-1,20],[11,34],[-3,6],[10,20],[-18,26],[2,37],[16,34],[42,33],[48,-8],[27,3],[36,17],[14,-2],[31,9],[29,-10],[62,38],[14,16],[15,9],[36,10],[14,23],[12,0],[23,-25],[13,0],[12,21],[9,5],[34,-1],[29,9],[100,-1],[41,9],[16,-3],[28,8],[23,1],[17,-11],[30,6],[58,-5],[52,-18],[83,-34],[84,-47],[85,-11],[54,18],[111,6],[44,-82],[4,-16],[38,-16]],[[5689,8124],[36,-27],[30,-4],[1,-12],[24,-26],[-9,-9],[-33,0],[-5,-22],[-15,0],[-3,-9],[17,-9],[1,-9],[19,-47],[20,1],[30,-71],[15,-9],[1,-10],[17,-26],[7,-29],[19,-10],[13,-22],[-9,-34],[28,-46],[22,11],[12,-21],[45,-147],[-1,-24],[12,15],[-1,-17],[44,-17],[-6,-14],[24,-21],[-6,-14],[5,-11],[18,-4],[10,9],[24,-2],[-14,11],[24,20],[7,-13],[15,-10],[10,10],[12,-12],[21,7],[1,27],[11,-6],[18,4],[-4,-14],[13,3],[-2,18],[8,8],[20,-11],[-16,-3],[2,-10],[21,5],[-5,-22],[10,-2],[19,17],[2,-19],[23,12],[-4,15],[15,-9],[-1,-13],[-13,0],[-4,-10],[12,-1],[-2,-11],[-16,-1],[5,-20],[16,7],[15,-3],[-4,12],[12,6],[26,-1],[11,-11],[-9,-8],[-22,3],[-10,-12],[-9,-35],[-20,-20],[-11,-1],[21,-36],[-16,-20],[10,-6],[-1,-16],[-43,-21],[8,-23],[6,-33],[-14,-37],[38,-1],[13,13],[17,6],[14,16],[59,19],[4,4],[54,-12],[8,-12],[29,-16],[24,-32],[-8,-44],[10,-22],[14,-2],[1,-12],[23,-15],[-11,-17],[14,-18],[-15,-35],[13,-3],[-6,-26],[-6,0],[-13,-28],[0,-15],[-8,-20],[15,-9],[3,-22],[19,-22],[1,-8],[30,5],[18,-22],[35,-9],[8,-13],[17,-9],[-10,-13],[5,-19],[9,-8],[-3,-12],[11,-7],[21,2],[15,-10],[1,-16],[15,-20],[13,2],[21,-13],[19,-39],[-30,-17],[-33,-12],[-80,-9],[-95,0],[-30,3],[-22,7],[-26,1],[-20,-8]],[[3277,4447],[-16,18],[-63,37],[-22,15],[-17,32],[-38,34],[-32,13],[-80,17],[-64,20],[-52,7],[-36,-5],[-85,9],[-103,-8],[-9,-3],[-41,2],[-100,-10],[-63,2],[-73,-9],[-17,8],[-47,8],[-34,1],[-72,-7],[-57,2],[-43,-5],[-24,-6],[-53,-23],[-29,-30],[-2,-15],[24,-23],[32,-41],[1,-16],[-10,-23],[-14,-16]],[[2038,4432],[-23,11],[-34,1],[-21,11],[-43,43],[-17,29],[-2,14],[-22,14],[-3,16],[-17,9],[-4,19],[15,8],[-2,24],[-15,5],[15,14],[4,18],[-16,16],[6,13],[-8,6],[18,10],[-12,8],[24,17],[-12,16],[-24,2],[-23,13],[16,15],[-31,14],[-14,-6],[-11,10],[21,21],[6,17],[-17,5],[-4,-6],[-32,-7],[-15,4],[-20,-4],[-8,13],[-24,-21],[-25,4],[-4,12],[-16,-1],[8,11],[-8,17],[-22,12],[23,10],[3,23],[-19,3],[-3,17],[-19,-4],[-4,11],[10,12],[-15,13],[-13,50],[18,1],[16,9],[0,37],[7,-9],[8,10],[-12,7],[12,18],[-16,13],[14,22],[5,24],[18,20],[-21,6],[-17,16],[-1,14],[31,12],[-14,9],[15,26],[-22,-11],[-15,6],[3,11],[-12,11],[-31,3],[4,16],[-23,-5],[-7,22],[23,18],[-14,5],[-15,16],[-25,9],[-8,9],[-16,-7],[-8,19],[-11,1],[-7,28],[-20,11],[17,22],[-13,2],[7,20],[-22,23],[-12,4],[-2,18],[-22,8],[-16,-5],[-24,47],[-17,4],[1,31],[-12,28],[-22,-4],[-2,15],[14,4],[4,18],[-27,20],[-26,13],[-4,-11],[-43,12],[-47,-1],[-49,13],[-25,-8],[-7,18],[-29,-7],[-16,5],[-11,25],[-26,-14],[1,-14],[-16,-41],[6,-25],[-17,4],[-35,18],[-43,-15],[-34,26],[5,13],[-7,11],[-38,7],[16,15],[-13,13],[19,8],[3,10],[-17,7],[-2,12],[-32,12],[-5,19],[-12,-15],[-3,9],[-18,-11],[-50,26],[-14,-2],[4,19],[-19,-5],[4,9],[25,0],[-1,18],[-19,6],[28,25],[-1,20],[26,1],[-12,14],[-16,-3],[-16,18],[-11,-2],[-6,19],[-22,4],[-11,21],[-10,4],[0,14],[-11,-5],[-3,18],[-16,-6],[-2,14],[-30,9],[-9,13],[2,23],[14,11],[-10,11],[-15,-18],[-14,11],[-16,-3],[-12,6],[4,38],[-21,-1],[11,9]],[[522,6110],[25,21],[-1,11],[-23,24],[-8,22],[-10,4],[-13,27],[-9,46],[5,18],[11,12],[5,23],[-16,23],[-19,13],[-6,17],[-24,23],[-7,14],[17,27],[16,13],[1,20],[8,14],[16,13],[1,17],[-22,16],[-38,6],[-19,9],[-20,29],[-11,26],[-43,24],[-9,12],[-3,17],[15,17],[14,37],[24,2],[18,-5],[15,14],[13,0],[19,25],[28,3],[-13,20],[9,25],[-24,24],[-1,20],[9,4],[-13,37],[2,16],[13,25],[36,28],[2,27],[12,12],[-1,28],[8,15],[17,15],[13,22],[-6,21],[-18,11],[-1,11],[16,30],[-16,9],[4,13],[6,58],[11,21],[-1,19],[-12,9],[3,14],[40,43],[-6,27],[24,24],[35,16],[29,8],[14,12],[-5,33],[8,16],[23,8],[28,17],[52,6],[20,16],[13,21],[5,49],[-13,17],[-39,32],[-24,6],[-7,20],[6,9],[23,4],[18,9],[1,19],[11,12],[31,-5],[23,9],[29,0],[8,17],[22,13],[-27,27],[18,12],[5,18],[-3,23],[33,3],[9,11],[0,22],[7,8],[57,32],[55,10],[32,14],[27,3],[37,42],[1,16],[14,14],[-10,11],[5,17]],[[1156,8019],[23,18],[35,-6],[48,-40],[17,-5],[27,-21],[13,4],[31,-26],[24,-3],[11,-10],[17,1],[19,-21],[21,5],[29,-5],[20,2],[17,-10],[26,-6],[5,-32],[12,1],[-2,11],[14,8],[15,-3],[16,-19],[23,-9],[14,6],[9,-6],[14,4],[-5,7],[15,5],[2,-15],[-17,-11],[5,-13],[23,-9],[29,-39],[0,-22],[16,-28],[38,-22],[23,-47],[20,-13],[33,-7],[29,-10],[24,2],[27,-8],[13,-10],[14,15],[18,-1],[8,-9],[5,-20],[22,-30],[37,-11],[14,-10],[27,-2],[17,-12],[8,-18],[12,-11],[35,0],[51,-8],[12,5],[5,29],[18,2],[22,17],[17,8],[15,22],[11,1],[29,20],[103,33],[46,23],[32,11],[57,15],[51,17],[116,34],[47,21],[31,9],[39,17],[17,12],[77,33],[54,18],[32,6],[30,-4],[25,-9],[28,-34],[28,4]],[[5911,2558],[0,-23],[-10,-4],[-7,-19],[8,-6],[-6,-11],[2,-22],[-9,-14],[-3,-21],[14,-11],[-10,-25],[14,-53],[-5,-13],[3,-22],[18,-20],[0,-24],[-13,-12],[-19,-36],[-31,-8],[-1,-8],[-23,-7],[-13,-26],[-4,-23],[-9,-11],[-18,-37],[0,-12],[-12,4],[12,-24],[12,-9],[-5,-19],[16,-16],[-304,-102],[-6,-13],[-26,-8],[-51,-7],[-4,-12],[-24,-11],[2,-9],[-13,-19],[3,-14],[-8,-26],[3,-56],[-6,-15],[-34,-8],[-37,15],[-12,28],[-23,7],[-29,15],[-47,2],[-12,-3],[45,-26],[18,-18],[-4,-11],[22,-19],[22,-36],[-1,-17],[18,-9],[31,-37],[0,-22],[8,-18],[-8,-39],[0,-20],[-19,2],[-21,-41],[2,-26],[16,-3],[0,-16],[10,-7],[-23,-17],[-7,-19],[-18,-19],[13,-29],[-13,-19],[-30,-21],[-11,-13],[0,-27],[13,-27],[-8,-40],[-17,-45],[-6,-23],[-9,-14],[17,-23],[21,-45],[12,-33],[18,-3],[115,-108],[20,3],[13,-7],[5,11],[14,-1],[-12,-13]],[[5430,895],[-5,-8],[16,-6],[-16,-37],[-13,-1],[5,-13],[-23,8],[-7,-26],[-9,0],[7,-31],[-5,-2],[1,-29],[-93,-8],[-36,14],[-19,0],[-22,-11],[-12,-15],[-1,-25],[4,-17],[-1,-36],[-32,-25],[-6,-13],[-30,-27],[-14,-7],[-35,-34],[-13,-23],[-18,-21],[-30,-20],[-54,-10],[-42,-21],[-7,-7],[6,-20],[-9,-11],[-349,182],[-13,2],[-72,-7],[-50,10],[-15,6],[-35,25],[-38,2],[-47,9],[-52,-5]],[[4246,637],[-23,17],[-1,10],[58,51],[18,51],[-41,6],[-31,26],[2,39],[-49,55],[-76,45],[-18,8],[-33,6],[-13,7],[-8,26],[-14,9],[-3,14],[11,5],[-5,28],[-8,3],[-2,20],[-10,8],[13,7],[-1,15],[-31,12],[-32,-7],[-32,-1],[-2,13],[-20,3],[0,19],[-18,15],[7,7],[-21,0],[-2,16],[-12,13],[-24,7],[-15,22],[-9,1],[-23,32],[-17,-1],[-30,18],[-14,1],[2,14],[-25,2],[1,17],[-29,4],[1,16],[-20,38],[-4,32],[-17,28],[-22,6],[10,10],[15,37],[-11,7]],[[3618,1474],[25,-4],[-24,16],[0,12],[-18,21],[-30,5],[3,12],[-13,30],[-45,26],[-23,46],[-24,3],[-23,24],[-6,16],[-14,10],[11,26],[14,18],[0,13],[147,95],[-33,49],[91,64],[2,123],[-2,15],[-14,7],[-7,25],[5,23],[-4,12],[38,30],[-5,6],[21,8],[24,21],[14,-8],[29,22],[3,17],[-39,21],[-25,26],[-21,28],[5,10],[-17,67],[18,15],[2,14]],[[3683,2438],[16,2],[14,11],[-1,26],[5,53],[-4,21],[24,14],[4,17],[48,35],[34,52],[11,11],[32,21],[26,11],[58,10],[6,12],[17,6],[4,12],[17,19],[35,11],[-3,18],[11,7],[50,0],[19,8],[20,24],[16,8],[1,11],[21,24],[12,2],[3,11],[42,27],[54,4],[10,7],[28,2],[41,10],[18,-4]],[[4246,637],[28,-46],[1,-17],[-12,-3],[2,-19],[-18,-21],[-7,-19],[-55,-26],[-30,-28],[-41,-25],[-32,-37],[-43,-20],[-148,-18],[-147,7],[-216,17],[-31,13],[-21,26],[-57,10],[-47,20],[-23,1],[-91,-13],[-19,-4],[-51,8],[-45,16],[-37,19],[-47,17],[-65,9],[-22,-1],[-19,-10],[-64,-61],[-247,-153],[-60,23],[-44,48],[-26,1],[-23,-12],[-14,5],[-21,-2],[-27,-13],[-8,8],[-21,-2],[-26,-34],[-195,-11],[-129,98],[-40,69],[-31,51]],[[1977,508],[27,14],[18,0],[38,8],[16,-6],[17,14],[3,18],[17,-4],[12,-18],[17,3],[18,-6],[15,9],[31,7],[0,7],[17,0],[4,-11],[9,6],[21,-14],[15,12],[30,-9],[24,7],[-7,34],[19,17],[-16,-3],[13,17],[2,-8],[41,18],[0,20],[-17,14],[-6,-6],[-10,22],[-16,8],[-16,-5],[-1,-16],[-16,12],[7,32],[-10,-6],[-12,5],[6,17],[-7,11],[-15,7],[-17,-13],[-12,3],[6,18],[-16,0],[-14,10],[-13,-1],[8,19],[-12,11],[-14,-4],[-6,14],[-21,-2],[0,8],[-22,7],[-11,10],[0,15],[-29,8],[12,9],[-5,18],[-14,-4],[3,14],[-20,17],[-13,19],[-15,-5],[-3,8],[-21,-1],[-42,-17],[3,28],[9,17],[-29,-4],[-14,9],[-14,-3],[-3,13],[24,43],[-11,4],[-19,23],[-50,5],[12,17],[0,36],[21,29],[13,27],[-41,70],[-44,23],[-48,9],[-41,13],[-16,10],[-15,30],[-21,12],[-34,0],[-9,20],[-16,4],[22,15],[-5,8],[10,10],[8,24],[22,-4],[14,20],[13,1],[5,18],[27,-5],[2,18],[15,22],[32,18],[12,40],[-2,26],[-19,15],[-3,23],[-10,16],[-15,8],[-21,19],[13,30],[81,4],[14,3],[39,0],[35,6],[18,20]],[[1938,1686],[25,-1],[18,-13],[6,7],[20,-2],[3,-9],[15,19],[36,-17],[3,-18],[18,4],[46,15],[1,10],[27,-3],[21,12],[-1,11],[37,0],[-2,-8],[27,-3],[22,-7],[39,14],[28,-8],[-5,-15],[27,6],[10,-23],[20,16],[48,8],[17,-10],[-2,-14],[23,-21],[29,7],[14,12],[14,-10],[-1,-25],[15,0],[21,-25],[16,11],[6,12],[18,-2],[16,10],[33,-30],[5,-24],[26,-5],[7,9],[24,4],[31,-9],[15,11],[32,1],[4,16],[28,-19],[18,-4],[29,-23],[3,8],[15,-5],[2,12],[21,-16],[5,-9],[32,3],[-6,-12],[28,-27],[26,-9],[7,4],[37,-17],[0,-11],[34,11],[1,17],[22,-9],[21,2],[9,-13],[18,0],[3,12],[9,-7],[30,23],[26,6],[22,-4],[8,-9],[23,5],[7,-12],[7,9],[13,-9],[17,13],[24,-3],[18,-16],[15,3],[3,14],[16,9],[27,-1],[-2,-6],[34,-17],[5,9],[17,-12],[26,10],[-12,9],[24,8],[23,-10],[6,8],[6,-12],[9,7],[7,-10],[29,11],[-6,-9],[14,-16],[17,2],[13,-13]],[[3683,2438],[-8,-6],[-39,-5],[-28,4],[-12,-6],[-28,-1],[-17,-11],[-17,7],[-35,-4],[-16,10],[-17,38],[-17,17],[-38,28],[-23,40],[-32,0],[-22,-4],[-2,-11],[-31,3],[-34,34],[-18,6],[-19,-13],[-18,1],[-43,-22],[-17,-17],[-28,1],[-19,-9],[-28,5],[-10,-14],[-18,-1],[-2,-8],[-29,6],[-102,5],[-29,18],[-25,-3],[-26,3]],[[2836,2529],[5,24],[13,6],[42,-1],[16,25],[23,4],[9,9],[-29,19],[-2,24],[-14,17],[4,20],[47,13],[10,10],[35,10],[0,7],[-30,7],[-20,12],[-16,3],[-34,17],[-57,15],[-32,13],[-45,3],[-26,18],[-3,13],[22,52],[1,18],[-22,19],[-11,-8],[-43,0],[-3,-6],[-26,7],[-14,16],[-6,18],[-12,-3],[-18,8],[-6,10],[-12,-4],[-12,13],[-7,22],[-33,5],[-11,-11],[6,-13],[-21,4],[-11,28],[-32,14],[-21,15],[-2,18],[-21,2],[2,-24],[-32,7],[3,13],[-15,5],[-13,22],[-19,17],[-12,1],[5,16],[17,1],[-12,11],[-3,15],[-17,4],[-24,-9],[-3,12],[-12,0],[5,14],[-17,-4],[-23,6],[-12,-5],[-11,-23],[-27,4],[-14,-4],[-17,9],[-14,-25],[-18,12],[-1,16],[-13,-1],[-7,12],[-27,3],[-17,7],[-37,0],[4,-13],[-17,10],[-31,3],[-11,-14],[-22,6],[-3,14],[-29,39],[-25,10],[-34,2],[8,17],[25,11],[-23,9],[-26,-11],[-48,30],[-34,-3],[-24,25],[-29,-8],[8,17],[-17,5],[-26,24],[3,6],[-13,29],[8,53],[-17,18],[9,30],[-13,1],[-23,-7],[-19,10],[-8,20],[12,3],[-8,11],[11,26],[-26,14],[-6,30],[10,4],[40,-5],[-6,33],[-16,13],[-16,-3],[-5,10],[-26,-11],[-23,18],[-36,13],[-25,-8],[-24,6],[-8,11],[10,25],[-13,18],[8,8],[-17,6],[-4,16],[-13,10],[-47,23],[-3,20],[-40,38],[-21,29],[-15,29],[-13,17],[-48,32],[-13,24],[-19,22],[-7,15]],[[1198,3983],[-3,34],[2,21],[-6,45],[-1,30],[11,70],[26,45],[9,33],[21,30],[31,40],[33,45],[27,47],[24,37],[15,12],[21,26],[20,6],[45,24],[61,35],[17,5],[23,-2],[42,-15],[57,-37],[34,-32],[37,-11],[44,-18],[74,-33],[47,-13],[35,-3],[38,7],[56,21]],[[1977,508],[-10,2],[-23,-12],[-18,19],[-15,-9],[-43,3],[-5,-19],[-14,-10],[-3,18],[-30,-6],[-17,3],[2,-12],[-30,1],[-15,-7],[-20,8],[-2,-11],[11,-4],[-2,-16],[-11,9],[-18,-11],[-22,-22],[-31,-13],[-15,-41],[-22,-19],[-17,1],[-22,-36],[-24,-7],[-11,-30],[54,-108],[-130,-18],[-213,-24],[-155,1],[-73,-18],[-16,-21],[15,-4],[-29,-29],[-4,-19],[-29,15],[-32,-8],[-10,-10],[-23,4],[11,-9],[0,-12],[-23,1],[-1,-12],[-22,-11],[-269,2],[-36,-7],[7,18],[-3,36],[12,13],[6,31],[6,12],[-24,-5],[-5,-13],[-15,1],[-9,12],[-11,51],[-3,30],[4,11],[-15,36],[2,35],[-7,41],[2,32],[38,49],[16,14],[-39,13],[4,36],[-5,23],[-3,46],[7,34],[0,55],[-4,59],[2,60],[7,23],[13,68],[15,47],[2,28],[14,36],[10,44],[1,52],[7,82],[-14,25],[-23,84],[-24,70],[-25,44],[-19,71],[4,22],[-4,22],[-4,68],[-5,21],[6,20],[-2,51],[-3,23],[-12,34],[-13,13],[13,18],[-13,22],[3,41],[-2,33],[4,13],[-7,9],[9,31],[-6,25],[6,14],[-1,21],[8,18],[1,23],[21,72],[5,38],[10,37],[9,17],[22,77],[65,105],[20,35],[32,124],[18,32],[-4,26],[2,31],[7,34],[39,77],[7,28],[-3,53],[-17,26],[-12,31],[9,26],[10,16],[17,15],[9,31],[21,42]],[[761,2919],[102,106],[17,7],[-1,24],[5,48],[-9,33],[1,23],[13,40],[9,50],[1,33],[13,60],[2,59],[13,65],[6,22],[29,63],[2,28],[12,36],[-1,23],[6,19],[14,15],[20,37],[18,21],[53,42],[1,11],[48,47],[20,34],[19,21],[10,24],[11,44],[3,29]],[[2836,2529],[-26,6],[-29,-12],[-15,5],[-15,-13],[-19,6],[-25,-9],[-4,-9],[-15,7],[-20,-29],[-27,-10],[-39,-2],[-15,9],[4,12],[-8,14],[-18,-12],[-21,0],[-10,-6],[16,-12],[-7,-17],[-34,2],[-2,16],[-33,-18],[-20,9],[-20,-8],[24,-6],[0,-16],[-24,-2],[-11,5],[4,-26],[-15,1],[-26,-32],[11,-8],[0,-18],[-16,0],[9,-13],[13,-1],[-8,-17],[10,-9],[-20,3],[-9,8],[-21,-9],[-30,5],[-21,-24],[20,-2],[15,-21],[15,-11],[8,-30],[-15,-44],[-14,-12],[-18,-25],[-16,-7],[-31,-5],[-25,-18],[-24,-9],[-15,0],[-21,10],[-14,-1],[-47,-15],[-76,-4],[-17,-12],[-22,-2],[-29,-10],[-40,12],[-18,14],[-14,0],[-28,-24],[-39,-12],[-18,-2],[-57,16],[-10,9],[-120,62],[-30,10],[-30,-1],[-56,-12],[-22,0],[-49,8],[-52,-13],[-20,-62],[-25,-36],[7,-6],[51,2],[41,-24],[30,-37],[27,-15],[40,-7],[12,-9],[10,-23],[72,-28],[27,5],[55,-15],[81,23],[29,-2],[15,-23],[33,-24],[0,-32],[-15,-42],[28,-35],[48,-46],[-3,-26]],[[5689,8124],[27,4],[4,13],[30,-4],[31,8],[30,-12],[13,1],[19,-10],[59,-12],[35,-2],[20,5],[28,-3],[47,-22],[15,-1],[28,-16],[21,-2],[9,-9],[36,-2],[57,2],[23,-6],[25,3],[43,20],[22,1],[23,9],[30,-8],[146,184],[43,35],[16,23]],[[6569,8323],[4,-7],[42,13],[20,-19],[10,15],[27,12],[13,-5],[15,-24],[25,-2],[17,19],[34,-8],[10,15],[10,0],[4,17],[26,-8],[15,-16],[15,-5],[5,14],[25,-1],[19,14],[14,-12],[17,0],[21,-12],[26,17],[20,-7],[47,-12],[40,14],[39,-3],[7,9],[27,3],[2,12],[30,-3],[-4,8],[19,2],[7,12],[-7,7],[17,2],[18,-15],[1,-15],[14,-1],[-1,12],[15,-1],[16,-11],[3,15],[18,6],[10,-5],[4,11],[36,-3],[-3,-28],[16,6],[-1,8],[31,10],[16,0],[12,-8],[-21,-17],[17,-1],[4,-9],[9,13],[2,-13],[33,-12],[8,-19],[9,-4],[3,32],[18,-15],[13,3],[-4,10],[16,15],[8,19],[23,0],[-7,6],[-5,25],[18,8],[17,-5],[1,-13],[12,2],[33,-9],[12,4],[-4,-14],[13,-16],[18,-2],[-2,20],[20,-8],[1,11],[13,-3],[7,20],[20,-9],[3,7],[24,2],[8,-19],[19,-25],[19,-2],[4,10],[31,13],[14,-1],[-19,-15],[25,2],[25,-12],[-10,-7],[-1,-19],[11,0],[36,-29],[18,0],[2,-12],[37,-12],[-5,-17],[31,0],[25,17],[67,-47],[-15,-7],[16,-9],[-3,-24],[20,-11],[-7,-17],[19,-12],[45,-2],[26,-15],[9,5],[19,-6],[-14,-37]],[[8216,8083],[-52,-46],[-14,3],[-5,-18],[-14,1],[-5,-19],[-15,2],[-24,-4],[-5,-42],[-12,-17],[10,-16],[-1,-19],[-44,-53],[-40,-31],[-13,-14],[-30,-19],[-30,-50],[-13,-15],[-7,-50],[3,-48],[11,-14],[17,-73],[6,-9],[65,-50],[20,-12],[44,-5],[21,-6],[9,13],[43,2],[28,8],[41,4],[55,-1],[16,3],[28,-2],[37,-15],[54,-8],[34,-13],[20,9],[28,-25],[89,-17],[30,8],[39,-2],[13,21],[16,9],[16,-9],[-6,-47],[-8,-28],[4,-8],[55,-24],[8,-12],[-14,-21],[3,-53],[13,-41],[5,-49],[-4,-13],[18,-4],[7,-15],[1,-57],[44,-35],[0,-36],[20,-7],[76,-36],[24,-2],[-2,-20],[20,-11],[-7,-19],[-3,-36],[2,-13],[30,-4],[49,-24],[53,10]],[[9073,6839],[-12,-34],[-7,-1],[-10,-32],[-16,-5],[-7,-17],[-14,-4],[-9,-13],[-21,-15],[8,-8],[-5,-17],[-45,-22],[-33,-8],[-15,-9],[-33,-1],[-24,4],[-54,-3],[-35,-14],[-44,-10],[-17,-9],[-64,-1],[-53,8],[5,-19],[-7,-4],[-5,-24],[8,-6],[8,-43],[-4,-27],[-26,-7],[-23,-13],[-44,1],[-40,-10],[-140,7],[-126,1],[-106,-27],[-23,-16],[-5,-20],[-16,-33],[-22,-15],[-36,-14],[-32,6],[-14,9],[-17,-10],[-17,-28],[-10,-32],[-29,-35],[-16,-6],[-5,-22],[-17,-36],[-28,-42],[-31,8],[-11,-18],[8,-4],[-20,-31],[-15,-11],[9,-25],[-9,-11],[5,-8],[-6,-33],[-10,4],[1,-14],[-24,2],[-27,-9],[-31,8],[-35,-2],[-44,12],[-11,10],[-14,24],[-12,0],[-10,12],[-2,19],[-27,17],[-2,15],[7,16],[-28,22],[-10,22],[-31,5],[-5,21],[-35,9],[-11,14],[-20,-7],[-14,2],[-25,19],[-13,-2],[-16,12],[-10,-1],[-15,19],[-38,17],[-34,8],[-55,3],[-11,12],[-39,-1],[-107,-9],[-7,-18],[-14,-8],[-11,-23],[11,-11],[-20,-16],[-33,-10],[-23,-26],[-36,1],[-22,-7],[-48,-31],[-5,-11]],[[8216,8083],[15,1],[18,-9],[4,8],[36,8],[25,-12],[-7,-7],[19,-7],[12,-21],[17,9],[20,-5],[3,12],[10,-13],[14,2],[-9,8],[13,12],[2,13],[7,-29],[17,15],[28,-7],[11,-15],[-12,-6],[23,-3],[10,-9],[10,9],[13,-5],[12,-18],[5,-20],[15,0],[-1,-16],[19,-4],[5,10],[45,-15],[1,22],[30,0],[22,22],[44,-4],[-4,23],[24,-2],[19,14],[15,2],[3,-29],[10,2],[-12,-25],[15,-10],[-6,-11],[18,3],[3,14],[14,-6],[-8,-9],[24,-1],[-6,11],[21,0],[25,-13],[20,12],[0,-13],[11,-3],[13,11],[10,-13],[1,23],[28,-15],[14,1],[3,11],[17,-8],[-7,17],[29,7],[6,14],[21,-10],[11,13],[19,-11],[15,5],[15,-14],[10,8],[9,-18],[14,15],[30,1],[-3,18],[31,0],[-11,-25],[27,-5],[5,-11],[-20,-3],[-3,-18],[10,-15],[-12,-26],[47,5],[1,-8],[22,-16],[24,-6],[4,6],[-8,18],[18,3],[-2,12],[20,4],[-5,6],[23,9],[0,10],[14,6],[5,-23],[14,22],[7,-10],[20,4],[-1,-8],[20,0],[6,15],[14,2],[-5,11],[17,-8],[2,8],[23,-8],[16,7],[-6,14],[9,13],[-19,15],[-7,-15],[-15,18],[18,2],[-19,7],[2,12],[24,6],[-3,9],[-18,-2],[-8,11],[13,3],[23,-7],[-3,15],[13,6],[-34,4],[15,10],[-10,15],[9,5],[12,-7],[10,14],[9,0],[1,-20],[21,8],[2,-18],[15,-10],[-12,-8],[12,-4],[-7,-12],[8,-16],[25,-24],[-6,-13],[19,-27],[-6,-16],[-25,-10],[4,-30],[11,-13],[-2,-18],[21,-11],[19,-19],[3,-17],[25,-15],[0,-24],[23,-20],[34,-5],[6,-13],[21,-13],[2,-9],[21,-12],[24,0],[16,-15],[30,-11],[40,-4],[27,-8],[15,-22],[4,-15],[23,-33],[10,-6],[38,-5],[46,-13],[-44,-57],[-36,-27],[-24,-31],[-8,-39],[-1,-30],[5,-38],[1,-39],[-7,-37],[-15,-46],[-15,-30],[-43,-36],[-14,-16],[0,-22],[12,-30],[-43,-24],[-21,-16],[-20,-31],[-15,-35],[-30,-34],[-2,-15],[-27,-44],[0,-13],[-20,-49],[3,-18],[-4,-20],[-30,-43],[-11,-41],[-13,-24],[3,-27],[19,-48],[24,-22],[18,-23]],[[9641,6603],[-8,-5],[-30,-1],[-21,10],[-23,19],[-28,15],[-54,17],[-55,4],[-48,14],[2,7],[-45,32],[5,9],[-13,7],[8,28],[-29,9],[-31,16],[-31,21],[-15,-10],[-37,7],[7,20],[-62,19],[-60,-2]],[[9641,6603],[0,-6],[-44,-24],[-41,-16],[-45,-35],[-27,-32],[-10,-20],[-37,-53],[-8,-15],[-16,-13],[-39,-44],[-24,-34],[-16,-13],[-20,-27],[-139,-139],[-29,-36],[-21,-20],[-58,-73],[-16,-13],[-47,-57],[-32,-53],[-19,-45],[-45,-53],[-31,-28],[-46,-56],[-58,-49],[-34,-41],[-56,-37],[-41,-32],[-18,-20],[-44,-25],[-51,-37],[-71,-61],[-8,-44],[-12,-15],[-7,-38]],[[1156,8019],[10,28],[25,12],[21,20],[25,-1],[17,9],[25,40],[20,15],[1,17],[14,7],[1,17],[49,13],[13,30],[-18,8],[6,12],[0,34],[-7,10],[-25,13],[-9,15],[-25,25],[-13,3],[-6,21],[27,12],[0,13],[-18,30],[10,19],[-9,25],[20,46],[17,13],[20,5],[-2,11],[8,27],[30,7],[3,-17],[19,-25],[21,7],[-1,18],[16,-5],[7,-18],[9,12],[-6,13],[25,12],[12,13],[25,0],[-6,14],[36,-6],[3,18],[9,7],[-10,10],[17,16],[14,-12],[26,6],[-2,-11],[12,-3],[11,20],[21,-2],[-4,21],[-18,-12],[5,16],[-1,21],[12,-1],[-1,-13],[17,-4],[17,12],[15,-16],[24,7],[18,-5],[0,17],[16,19],[18,-1],[7,13],[-22,11],[0,11],[-19,-5],[1,27],[-22,-5],[-16,17],[-1,11],[-17,-25],[-30,14],[-11,15],[-16,2],[-18,13],[-26,-5],[4,14],[11,3],[0,21],[-21,4],[20,6],[9,29],[-32,-16],[-15,11],[10,9],[14,-1],[7,26],[9,4],[-1,54],[16,25],[10,91],[-11,24],[-4,40],[15,19],[42,33],[13,4],[19,-13],[17,19],[22,0],[35,11],[17,-17],[35,9],[14,15],[1,12],[-27,79],[-29,23],[-24,25],[-28,13],[-5,27],[-23,14],[9,14],[-25,47],[1,12],[25,37],[8,34],[-6,18],[15,11],[2,11],[-20,11],[-11,19],[5,13],[15,4],[6,13],[22,-2],[35,-11],[27,6],[26,-1],[19,-11],[10,-20],[32,-13],[29,-27],[-1,-9],[14,-20],[41,1],[14,14],[12,2],[20,-18],[9,-22],[20,-10],[9,-16],[20,-18],[18,-4],[13,-13],[25,-1],[8,-8],[8,-26],[21,-11],[18,1],[8,12],[14,-2],[6,-11],[14,2],[6,34],[8,21],[33,36],[14,66],[-27,12],[-11,27],[-23,34],[1,57],[-12,25],[-23,14],[-20,3],[-28,15],[-19,18],[-12,43],[-23,27],[-28,20],[-9,29],[5,38],[7,20],[-6,16],[5,13],[58,9],[27,-22],[20,-9],[42,-11],[35,-4],[18,12],[46,-15],[37,5],[14,-10],[7,-15],[30,-15],[-8,-62],[33,-10],[61,4],[30,-10],[30,-44],[30,-32],[21,-33],[44,-40],[41,-3],[15,-10],[18,-2],[26,7],[10,-13],[20,-10],[22,-3],[31,5],[9,9],[45,5],[34,26],[25,-1],[4,10],[29,5],[14,-9],[32,7],[20,0],[22,-14],[-11,-8],[24,1],[2,6],[20,-7],[3,14],[19,-5],[5,9],[11,-11],[9,8],[23,4],[-1,-26],[16,3],[11,22],[9,0],[33,-25],[14,15],[32,-19],[13,1],[15,-8],[-1,-12],[15,-8],[26,-2],[-15,-11],[21,-6],[15,11],[-4,-20],[15,-16],[-5,-20],[3,-17],[9,-2],[24,13],[13,-14],[-1,-16],[25,4],[5,-12],[19,-21],[30,-11],[1,-26],[37,-14],[21,-18],[13,-4],[26,5],[27,1],[9,9],[-10,26],[33,8],[24,23],[10,-12],[23,2],[15,34],[-3,11],[11,18],[17,2],[44,-14],[7,-15],[-11,-13],[16,-16],[-3,-16],[-16,-18],[13,-18],[20,-4],[0,-11],[13,9],[21,1],[23,-11],[37,24],[27,-16],[21,2],[6,-13],[19,5],[-7,-30],[23,-6],[21,4],[20,-15],[-26,-9],[10,-17],[-28,-16],[17,-9],[-16,-15],[2,-10],[-9,-26],[4,-20],[9,2],[11,26],[28,7],[5,9],[26,-1],[2,8],[16,0],[7,10],[-5,16],[22,6],[28,-5],[30,19],[4,19],[18,7],[24,-5],[-3,23],[12,7],[22,-16],[22,11],[-8,26],[37,-13],[42,20],[39,-2],[16,11],[13,-27],[5,10],[15,0],[13,19],[16,3],[-14,11],[8,7],[21,-4],[13,7],[25,1],[29,-5],[16,-13],[14,-1],[3,-9],[23,-1],[12,6],[26,-2],[24,16],[22,5],[10,-14],[-12,-7],[10,-7],[2,-25],[23,-8],[31,7],[13,-15],[19,7],[12,-15],[14,0],[20,18],[16,-34],[11,-12],[23,-2],[-4,14],[12,4],[0,-10],[23,2],[20,13],[26,-17],[6,9],[43,1],[19,-11],[11,-24],[11,-7],[15,8],[25,-13],[10,-13],[3,12],[17,2],[13,-13],[-16,-12],[25,-5],[2,13],[14,-14],[-12,-19],[-3,-17],[25,12],[11,-5],[4,-14],[9,1],[13,15],[-15,6],[0,15],[26,5],[13,-4],[7,-14],[32,-11],[0,-18],[18,2],[-8,22],[28,2],[23,19],[39,0],[5,-20],[20,6],[10,15],[21,-15],[21,14],[-5,15],[27,-7],[25,6],[12,-19],[26,10],[21,-11],[13,-16],[18,-1],[3,-11],[15,-11],[-51,-37],[14,-13],[2,16],[23,-4],[-8,-9],[10,-15],[-17,1],[15,-15],[17,-2],[19,22],[24,-30],[10,14],[3,-18],[17,4],[-9,25],[41,-8],[14,-17],[-5,-9],[-19,-3],[17,-20],[4,14],[17,13],[3,-10],[25,-8],[17,-20],[-7,-6],[13,-16],[-24,-15],[5,-11],[13,9],[22,-10],[-6,-21],[13,0],[-6,-16],[15,9],[12,-28],[-33,-19],[34,-10],[-11,-10],[-11,7],[-10,-17],[-21,-4],[42,-2],[-8,-11],[24,2],[-7,-18],[28,-5],[15,10],[35,-1],[-5,-21],[-28,8],[5,-22],[15,11],[16,-13],[-20,-10],[-13,8],[-14,-10],[20,-9],[-9,-13],[8,-23],[18,-9],[-25,-14],[1,-12],[14,8],[6,-22],[16,10],[21,-8],[-4,-20],[25,10],[3,19],[9,-8],[-4,-14],[15,7],[28,-10],[-19,-4],[42,-16],[6,-13],[8,9],[14,-2],[15,10],[4,-11],[22,4],[25,-3],[20,3],[18,-17],[17,14],[5,-11],[14,0],[-23,-24],[14,-12],[1,-25],[19,-12],[-2,-12],[14,6],[14,-25],[7,9],[23,-21],[0,-57],[13,-6],[-16,-13],[-15,-20],[-2,-20],[13,-4],[0,-22],[14,-6],[7,-14],[20,-12],[0,-12],[13,-3],[0,-13],[16,-14],[23,-5],[2,-9],[19,-4],[-5,13],[19,0],[2,-12],[13,4],[9,-16],[27,15],[8,0],[-5,-15],[16,-3],[16,-12],[4,13],[15,-6],[15,16],[8,-17],[-4,-14],[17,4],[-3,10],[28,3],[13,-12],[23,-2],[4,-16],[12,12],[14,1],[10,-14],[-22,4],[-18,-28],[19,-1],[-36,-23]],[[761,2919],[-8,-2],[-35,25],[-62,20],[-15,1],[-21,-12],[-17,-41],[-24,1],[-6,-10],[-13,-1],[-33,16],[-41,2],[-54,23],[-36,5],[-25,21],[-39,1],[-35,15],[-4,20],[-18,10],[-29,-2],[-43,28],[-41,-23],[-4,33],[7,41],[-1,19],[23,3],[-5,10],[-34,20],[1,11],[-17,13],[15,14],[-9,14],[-26,16],[-8,29],[-38,15],[-24,14],[-24,4],[-18,22],[26,36],[41,18],[30,7],[18,14],[5,23],[-38,4],[-32,29],[7,47],[13,18],[15,2],[9,45],[16,38],[-23,-7],[-21,9],[0,27],[-5,15],[15,16],[31,9],[9,16],[15,44],[-6,11],[-14,5],[-23,-4],[-17,10],[11,48],[15,-7],[9,42],[9,15],[15,57],[-4,27],[4,29],[39,31],[15,7],[55,1],[30,-6],[12,11],[23,6],[16,13],[12,28],[26,26],[28,16],[-1,13],[11,41],[62,14],[7,22],[19,33],[15,7],[-5,24],[-38,5],[-22,-8],[-53,12],[7,23],[15,16],[6,18],[17,30],[41,31],[1,51],[13,27],[-4,15],[2,20],[32,41],[-10,27],[3,58],[6,44],[12,38],[6,36],[-2,52],[-6,27],[1,60],[-9,39],[-20,66],[-13,38],[-19,73],[-17,21],[-8,24],[-6,41],[-14,172],[-40,-26],[-64,-29],[-31,2],[-31,11],[-13,28],[-95,146],[8,15],[15,9],[-16,33],[15,17],[24,2],[4,29],[-18,34],[-6,20],[2,16],[15,9],[10,15],[6,39],[-3,20],[11,75],[24,16],[1,13],[-16,10],[2,44],[20,7],[-7,21],[8,17],[20,12],[51,24],[7,10],[23,67],[27,19],[24,46],[18,-3],[63,3],[-1,15],[50,3]],[[6621,2067],[2,-51],[-6,-43],[-15,-40],[-14,-8],[-8,-24],[-23,-24],[-48,-38],[-1,-14],[15,-32],[-35,-21],[-35,-32],[-58,-83],[-54,-75],[-26,-21],[-6,-11],[28,-74],[15,-55],[-2,-18],[-16,-14],[-5,-17],[0,-24],[-18,-16],[-11,-33],[-7,-6],[-28,-86],[-1,-24],[4,-42],[24,-64],[-7,-28],[-17,-17],[-43,-25],[-42,-16],[-46,-31],[-37,-33],[-37,-21],[-19,9],[-53,8],[-16,15],[-91,15],[-47,-7],[-58,-21],[-37,-16],[-71,-16],[-101,-11],[-53,1],[-87,12]]],"transform":{"scale":[0.00011414065026502665,0.00013975713431342953],"translate":[101.31757532700004,15.33140254600005]},"objects":{"Chaiyaphum":{"type":"GeometryCollection","geometries":[{"arcs":[[0,1,2,3,4,5,6,7,8]],"type":"Polygon","properties":{"Shape_Leng":2.92959169161,"Shape_Area":0.119675464779,"ADM2_EN":"Mueang Chaiyaphum","ADM2_TH":"เมืองชัยภูมิ","ADM2_PCODE":"TH3601","ADM1_EN":"Chaiyaphum","ADM1_TH":"ชัยภูมิ","ADM1_PCODE":"TH36","ADM0_EN":"Thailand","ADM0_TH":"ประเทศไทย","ADM0_PCODE":"TH"}},{"arcs":[[-7,9,10,11]],"type":"Polygon","properties":{"Shape_Leng":1.58126588627,"Shape_Area":0.0420487935297,"ADM2_EN":"Ban Khwao","ADM2_TH":"บ้านเขว้า","ADM2_PCODE":"TH3602","ADM1_EN":"Chaiyaphum","ADM1_TH":"ชัยภูมิ","ADM1_PCODE":"TH36","ADM0_EN":"Thailand","ADM0_TH":"ประเทศไทย","ADM0_PCODE":"TH"}},{"arcs":[[-3,12,13]],"type":"Polygon","properties":{"Shape_Leng":1.27234375129,"Shape_Area":0.0390517753392,"ADM2_EN":"Khon Sawan","ADM2_TH":"คอนสวรรค์","ADM2_PCODE":"TH3603","ADM1_EN":"Chaiyaphum","ADM1_TH":"ชัยภูมิ","ADM1_PCODE":"TH36","ADM0_EN":"Thailand","ADM0_TH":"ประเทศไทย","ADM0_PCODE":"TH"}},{"arcs":[[-9,14,15,16]],"type":"Polygon","properties":{"Shape_Leng":2.06968051602,"Shape_Area":0.0896522761634,"ADM2_EN":"Kaset Sombun","ADM2_TH":"เกษตรสมบูรณ์","ADM2_PCODE":"TH3604","ADM1_EN":"Chaiyaphum","ADM1_TH":"ชัยภูมิ","ADM1_PCODE":"TH36","ADM0_EN":"Thailand","ADM0_TH":"ประเทศไทย","ADM0_PCODE":"TH"}},{"arcs":[[-8,-12,17,18,19,20,-15]],"type":"Polygon","properties":{"Shape_Leng":2.41602544905,"Shape_Area":0.180387638695,"ADM2_EN":"Nong Bua Daeng","ADM2_TH":"หนองบัวแดง","ADM2_PCODE":"TH3605","ADM1_EN":"Chaiyaphum","ADM1_TH":"ชัยภูมิ","ADM1_PCODE":"TH36","ADM0_EN":"Thailand","ADM0_TH":"ประเทศไทย","ADM0_PCODE":"TH"}},{"arcs":[[-6,21,22,23,24,25,-10]],"type":"Polygon","properties":{"Shape_Leng":1.52034836885,"Shape_Area":0.0571378894252,"ADM2_EN":"Chatturat","ADM2_TH":"จัตุรัส","ADM2_PCODE":"TH3606","ADM1_EN":"Chaiyaphum","ADM1_TH":"ชัยภูมิ","ADM1_PCODE":"TH36","ADM0_EN":"Thailand","ADM0_TH":"ประเทศไทย","ADM0_PCODE":"TH"}},{"arcs":[[-24,26,27,28]],"type":"Polygon","properties":{"Shape_Leng":1.29666971788,"Shape_Area":0.0388029805293,"ADM2_EN":"Bamnet Narong","ADM2_TH":"บำเหน็จณรงค์","ADM2_PCODE":"TH3607","ADM1_EN":"Chaiyaphum","ADM1_TH":"ชัยภูมิ","ADM1_PCODE":"TH36","ADM0_EN":"Thailand","ADM0_TH":"ประเทศไทย","ADM0_PCODE":"TH"}},{"arcs":[[-11,-26,29,30,31,-18]],"type":"Polygon","properties":{"Shape_Leng":1.56720248536,"Shape_Area":0.062901980673,"ADM2_EN":"Nong Bua Rawe","ADM2_TH":"หนองบัวระเหว","ADM2_PCODE":"TH3608","ADM1_EN":"Chaiyaphum","ADM1_TH":"ชัยภูมิ","ADM1_PCODE":"TH36","ADM0_EN":"Thailand","ADM0_TH":"ประเทศไทย","ADM0_PCODE":"TH"}},{"arcs":[[-28,32,33,-31,34]],"type":"Polygon","properties":{"Shape_Leng":2.1305157117,"Shape_Area":0.0805247648976,"ADM2_EN":"Thep Sathit","ADM2_TH":"เทพสถิต","ADM2_PCODE":"TH3609","ADM1_EN":"Chaiyaphum","ADM1_TH":"ชัยภูมิ","ADM1_PCODE":"TH36","ADM0_EN":"Thailand","ADM0_TH":"ประเทศไทย","ADM0_PCODE":"TH"}},{"arcs":[[-1,-17,35,36,37,38]],"type":"Polygon","properties":{"Shape_Leng":1.86531032312,"Shape_Area":0.0697602626704,"ADM2_EN":"Phu Khiao","ADM2_TH":"ภูเขียว","ADM2_PCODE":"TH3610","ADM1_EN":"Chaiyaphum","ADM1_TH":"ชัยภูมิ","ADM1_PCODE":"TH36","ADM0_EN":"Thailand","ADM0_TH":"ประเทศไทย","ADM0_PCODE":"TH"}},{"arcs":[[-38,39,40]],"type":"Polygon","properties":{"Shape_Leng":1.0881749157,"Shape_Area":0.0263822561193,"ADM2_EN":"Ban Thaen","ADM2_TH":"บ้านแท่น","ADM2_PCODE":"TH3611","ADM1_EN":"Chaiyaphum","ADM1_TH":"ชัยภูมิ","ADM1_PCODE":"TH36","ADM0_EN":"Thailand","ADM0_TH":"ประเทศไทย","ADM0_PCODE":"TH"}},{"arcs":[[-2,-39,-41,41,-13]],"type":"Polygon","properties":{"Shape_Leng":1.44256443812,"Shape_Area":0.0548552239041,"ADM2_EN":"Kaeng Khro","ADM2_TH":"แก้งคร้อ","ADM2_PCODE":"TH3612","ADM1_EN":"Chaiyaphum","ADM1_TH":"ชัยภูมิ","ADM1_PCODE":"TH36","ADM0_EN":"Thailand","ADM0_TH":"ประเทศไทย","ADM0_PCODE":"TH"}},{"arcs":[[-16,-21,42,-36]],"type":"Polygon","properties":{"Shape_Leng":2.74166357786,"Shape_Area":0.110940887185,"ADM2_EN":"Khon San","ADM2_TH":"คอนสาร","ADM2_PCODE":"TH3613","ADM1_EN":"Chaiyaphum","ADM1_TH":"ชัยภูมิ","ADM1_PCODE":"TH36","ADM0_EN":"Thailand","ADM0_TH":"ประเทศไทย","ADM0_PCODE":"TH"}},{"arcs":[[-19,-32,-34,43]],"type":"Polygon","properties":{"Shape_Leng":1.60140986692,"Shape_Area":0.0472105998417,"ADM2_EN":"Phakdi Chumphon","ADM2_TH":"ภักดีชุมพล","ADM2_PCODE":"TH3614","ADM1_EN":"Chaiyaphum","ADM1_TH":"ชัยภูมิ","ADM1_PCODE":"TH36","ADM0_EN":"Thailand","ADM0_TH":"ประเทศไทย","ADM0_PCODE":"TH"}},{"arcs":[[-5,44,-22]],"type":"Polygon","properties":{"Shape_Leng":0.836294621605,"Shape_Area":0.0223819145795,"ADM2_EN":"Noen Sa-Nga","ADM2_TH":"เนินสง่า","ADM2_PCODE":"TH3615","ADM1_EN":"Chaiyaphum","ADM1_TH":"ชัยภูมิ","ADM1_PCODE":"TH36","ADM0_EN":"Thailand","ADM0_TH":"ประเทศไทย","ADM0_PCODE":"TH"}},{"arcs":[[-25,-29,-35,-30]],"type":"Polygon","properties":{"Shape_Leng":1.06838155631,"Shape_Area":0.0236045946551,"ADM2_EN":"Sap Yai","ADM2_TH":"ซับใหญ่","ADM2_PCODE":"TH3616","ADM1_EN":"Chaiyaphum","ADM1_TH":"ชัยภูมิ","ADM1_PCODE":"TH36","ADM0_EN":"Thailand","ADM0_TH":"ประเทศไทย","ADM0_PCODE":"TH"}}]}}}