{"type":"Topology","arcs":[[[6337,5621],[8,-24],[24,-30],[13,-33],[20,-9],[-2,-18],[14,-24],[-21,-10],[1,-24],[50,5],[5,-14],[-18,-5],[13,-20],[14,2],[-2,-20],[54,-17],[-1,-28],[23,-15],[53,2]],[[6585,5339],[22,-14],[24,-29],[16,-41]],[[6647,5255],[-28,-5],[6,-10],[-22,-13],[-37,-3],[-31,-16],[-13,-18],[-55,-7],[0,-11],[-58,16],[-13,-3],[-51,8],[-21,13],[-42,-5],[-14,-48],[-14,-11],[13,-9],[-17,-40],[5,-17],[-29,-26],[23,-34]],[[6249,5016],[-45,2],[-19,19],[23,38],[9,40],[-22,14],[4,9],[-54,3],[-3,-9],[-39,-8],[-29,0],[-46,14],[-36,-9],[-50,18],[-14,16],[-25,-4],[-15,11],[-36,-10],[-25,8],[-43,-1],[-31,15],[-28,0],[-25,-11],[-31,18],[-8,31],[6,15],[-32,21],[3,34],[16,7],[-15,29],[11,14],[-10,15],[-18,-1],[-20,-16],[-56,-10],[-4,6],[-53,5],[-7,15],[-27,9],[10,17],[-12,13],[6,34],[32,66]],[[5491,5493],[29,-14],[65,-8],[40,0],[68,18],[30,-16],[55,7],[13,16],[78,-4],[25,6],[53,-1],[12,7],[104,-15],[41,-12],[9,22],[66,9],[7,-14],[62,16],[5,21],[-9,9],[-30,-1],[5,24],[-39,1],[21,16],[-6,15],[-26,9],[11,17],[157,0]],[[4676,4106],[-15,11],[-66,22],[-28,-2],[-13,-30],[-33,-8],[-35,31],[-19,-5],[-34,-30],[-7,-18],[-45,-27],[-5,-13],[27,-16],[25,2],[27,14],[25,-4],[-77,-64],[-41,-11],[-18,-17],[-5,-31],[-38,-35],[91,-56],[51,-53],[-5,-18],[-42,-3],[-34,15],[-39,-5],[-35,-17],[-52,-7],[21,-19],[3,-28],[-17,-8],[47,3],[26,-4],[18,-25],[78,-20],[13,-13],[33,-11],[28,-1],[65,-14],[24,-27],[25,-15],[42,-11],[11,-12],[166,-35],[53,-2],[29,-21],[11,-19],[-10,-42],[-20,-8],[17,-19],[58,-8],[-6,-13],[16,-11],[-27,-29],[16,-23],[-24,-13],[14,-11],[6,-25],[-4,-22]],[[4948,3225],[-65,-11],[-13,-11],[-54,-7],[-42,-16],[-10,-11],[-25,-5],[-28,-19],[-66,-6],[-69,-17],[-71,7],[-109,37],[-53,-2],[-19,13],[-32,-9],[-47,-2],[-36,11],[-27,22],[-38,18],[-22,0],[-52,17],[-38,-4],[-33,5],[-1,23],[-36,2],[6,17],[-11,12],[-17,-7],[-88,26],[-8,-17],[-19,-2],[-19,28],[-35,4],[-22,10],[-34,-8],[-3,20],[-59,11],[-30,17],[-57,23],[-42,3],[-38,15],[-76,2],[-65,6],[-60,-15],[-84,-5],[-77,-15],[-28,5],[-70,-11],[-27,-8],[-42,7],[-57,-4],[-47,22],[-32,0],[-17,-8],[-28,19],[-54,7],[-31,23],[-29,3],[-6,14],[-23,4]],[[2633,3458],[24,15],[-5,11],[41,23],[48,1],[41,10],[40,1],[66,17],[33,49],[-29,28],[16,37],[-3,21],[-51,14],[-2,28],[-13,10],[20,25],[36,32],[22,9],[26,32],[-19,24],[10,25],[2,32],[27,16],[-5,30],[35,12],[0,12],[30,9],[-5,16],[19,3],[20,18],[13,46],[-35,26],[-2,26],[-12,15],[14,10],[-52,15],[6,16],[-8,25],[27,25],[51,17],[18,12],[39,6],[14,21],[38,4],[41,11],[-24,35],[-20,8],[37,5],[-37,13],[21,9],[9,29],[-19,22],[-42,3],[-30,36],[-30,16],[-47,39],[-2,31],[7,43],[-28,37],[58,14],[1,16]],[[3063,4649],[72,-8],[42,13],[38,-5],[63,-2],[44,-10],[1,-8],[54,1],[15,-25],[70,14],[72,-9],[69,-3],[42,3],[42,-3],[63,3],[41,10],[34,19],[9,11],[48,8],[51,15]],[[3933,4673],[62,-9],[25,-26],[-3,-29],[8,-11],[35,-9],[82,-9],[39,6],[55,-26],[20,-26],[-1,-34],[17,-9],[73,-14],[10,-26],[-20,-34],[6,-7],[90,-30],[58,-8],[36,-10],[15,20],[51,-20],[17,-18],[-12,-14],[28,-2],[40,-12],[38,-31],[4,-18],[-27,-30],[50,-14],[18,-19],[-20,-12],[0,-31],[-14,-33],[-37,-22]],[[2633,3458],[-22,3],[-6,17],[-28,1],[-56,15],[-18,-3],[-10,23],[-20,1],[9,14],[-45,5],[-30,16],[-2,10],[-26,0],[-25,10],[-60,11],[-24,-15],[-18,3],[-22,25],[-66,6],[-8,-19],[-29,5],[-24,-10],[-4,-17],[-26,8],[-45,1],[-13,-14],[-41,18],[-5,10],[-57,-1],[2,-19],[-42,-20],[-10,-34],[20,-1],[-4,-16],[22,3],[11,-28],[-16,-22],[-24,-8],[-31,-26],[-66,3],[-38,-11],[-60,-8],[-41,6],[-13,12],[-20,-15],[-23,-29],[-26,-18],[-42,-2],[-36,12],[-40,-24],[-47,-6],[-38,25],[-35,15],[3,16],[-20,21],[9,24],[-40,38],[-39,-3],[-25,17],[-14,-9],[-23,5],[-14,16],[-12,-11],[14,-20],[-7,-21],[-35,-10],[-52,-20],[-23,-2],[14,-18],[-23,-21]],[[1028,3372],[-23,10],[-48,-10],[-19,8],[-32,1],[-25,11],[-30,37],[-18,8],[22,24],[3,15],[-35,20],[2,15],[-13,23],[10,6],[7,36],[46,11],[51,7],[24,-12],[33,3],[30,-6],[50,5],[45,10],[21,-6],[45,1],[61,22],[2,17],[31,22],[2,26],[-27,12],[-9,30],[-26,37],[-13,-10],[-21,21],[-16,0],[-87,34],[-32,-2],[-34,26],[-33,12],[-68,10],[-6,10],[-24,1],[-11,19],[-26,12],[-6,24],[-21,25],[-35,1],[-18,24],[-27,3],[26,29],[-5,11],[-56,12],[-43,-1],[-22,15],[-26,1],[-15,16],[-53,10],[-56,-13],[-33,14],[-29,29],[27,13],[22,19],[6,23],[61,19],[45,18],[38,4],[11,31],[20,17],[-1,15],[17,29],[41,17],[6,33],[16,12],[37,-7],[22,15],[68,17],[22,13],[55,-4],[20,17],[34,16],[1,10],[47,1],[1,16],[29,40],[-3,18],[66,5],[54,-27],[54,4],[31,-14],[34,16],[28,4],[22,21],[21,-1],[12,19],[42,7],[0,24],[25,7],[12,21],[-20,20],[-23,9],[-20,23],[-20,5],[-36,-3],[-36,12],[-8,49],[-7,7],[-73,5],[-44,-2],[-65,7],[10,29],[-16,9],[11,14],[-60,10],[-35,-7],[-52,3],[-30,20],[-77,23],[-46,-12],[-25,2],[-68,-9],[-25,3],[-43,35],[-35,13],[25,54],[22,17],[-16,20],[-35,7],[17,38],[-24,36],[-22,18],[48,32],[-28,18],[4,31],[-15,16],[4,12],[-54,10],[83,24],[4,20],[48,10],[37,17],[-14,12],[11,10],[-13,13],[24,17],[-6,11],[-89,10],[-56,-17],[-33,4],[-23,23],[11,11],[-15,19],[-17,3],[-2,26],[15,13],[-18,8],[-38,38],[18,47],[-7,13],[16,30],[26,24],[4,31],[26,38],[16,3],[47,45],[25,3]],[[624,5656],[14,1],[27,9],[51,5],[34,-6],[34,-18],[106,0],[43,16],[46,-22],[62,-7],[62,2],[41,-4],[24,-14],[10,-15],[56,-3],[67,7],[39,34],[28,0],[24,16],[49,56],[28,3],[38,20],[-25,19],[11,20],[68,14],[20,10],[37,-3],[15,13],[24,3],[102,-14],[33,-9],[64,10],[23,11],[39,-4],[50,23],[38,9],[31,-6],[8,-14],[38,3],[26,-26],[-6,-9],[30,-13],[1,-15],[-18,-9],[63,-15],[44,-3],[-13,-18],[26,-7],[30,-22],[12,3],[24,-21],[42,-19],[50,-5],[67,12],[34,1],[19,22],[54,3],[40,21],[67,10],[29,-2],[32,-11],[95,-20],[41,6],[-15,21],[0,25],[-15,15],[118,35],[15,-4],[26,23]],[[3001,5799],[63,-9],[-12,-30],[31,2],[30,-11],[37,-3],[32,-16],[27,-6],[-11,-9],[110,-50],[8,-14],[-21,-9],[13,-43],[-59,-25],[0,-8],[42,-8],[25,-18],[19,-50],[20,-13],[32,-4],[13,-21],[32,-19],[6,-24],[26,-20],[59,-20]],[[3523,5371],[-38,-18],[-51,-7],[-44,-23],[-30,-2],[-34,-10],[-17,-16],[-69,-11],[-33,-12],[-41,-1],[-32,-14],[-17,-22],[19,-40],[-65,-45],[-2,-21],[30,2],[0,-15],[22,-31],[-28,-4],[0,-9],[38,-11],[5,-28],[-3,-28],[16,-9],[-21,-19],[7,-30],[-17,-12],[7,-17],[-13,-10],[9,-15],[21,-8],[-24,-31],[-27,-14],[6,-19],[-7,-29],[-30,-20],[21,-23],[-8,-17],[12,-23],[-18,-29],[-4,-31]],[[6383,8777],[27,-6],[5,-21],[55,-7],[24,-14],[-6,-15],[-50,-32],[54,-53],[33,-21],[-2,-24],[-29,-4],[-2,-62],[19,-35],[-6,-5],[29,-34],[22,4],[41,-21],[0,-11],[52,-6],[15,-18],[65,4],[47,-30],[4,-45],[29,-11],[7,-26],[19,-6],[-6,-44],[26,5],[53,-8],[15,-17],[-8,-43],[-13,-10],[0,-28],[25,-3],[62,4],[101,-52],[34,-23],[24,-8],[16,-19],[42,-16]],[[7206,8016],[4,-14],[-29,-15],[-23,-4],[-12,-23],[-62,-20],[-18,-13],[18,-30],[2,-29],[19,-15],[65,7],[73,-17],[26,-15],[66,-17],[0,-19],[-17,-20],[25,-9],[7,-15],[-18,-9],[-11,-22],[18,-21],[-8,-16],[-18,-2],[-32,18],[-23,-2],[-13,-11],[-33,-8],[-33,-37],[-34,-22],[-18,-37],[-3,-49],[12,-19],[30,-6],[26,-36],[-49,8],[-57,-19],[-48,-11],[-46,-41],[-31,-37],[19,-5],[24,-28],[7,-32],[-30,-44],[-29,-12],[2,-14],[-27,-12],[-18,-25],[-28,-26],[19,-14],[-21,-16],[-5,-15],[23,-57],[37,-24],[-16,-12],[7,-15],[-39,-28],[-48,-22],[-10,-14]],[[6828,6954],[-49,-6],[-29,5],[-34,20],[-19,2],[-44,-18],[-77,-19],[-70,20],[-47,-4],[-23,15],[-62,1],[-8,13],[-25,2],[-39,-11],[-30,8],[0,12],[-44,13],[3,14],[-23,-7],[5,-39],[-17,-8],[-86,3],[-23,12],[-17,-6],[-27,9],[-38,0],[-68,22],[-41,-6],[-72,-4],[-90,-18],[-17,-20],[-17,8],[-43,4],[8,10],[-17,28],[-42,15],[5,12],[-38,9],[-153,27],[-41,-3],[-4,7],[-33,-7],[-51,4],[-36,-8],[-29,4],[-34,-4],[-14,-10],[-47,-13],[-26,11],[-36,7],[-12,11],[-22,0],[-49,26],[-50,6],[-28,22],[-87,30],[-42,7],[-36,-6],[-19,16],[-34,-4],[-28,-16],[-52,-12],[-27,2],[-21,-17],[-28,-10],[-29,9],[-1,-11],[-47,-34],[-16,3],[9,29],[-27,-11],[-2,12],[27,7],[-13,30],[4,17],[-55,19],[3,20],[-16,-3],[-49,11],[-18,-18],[-31,13],[-49,3],[-30,-7],[-34,1],[-30,24],[-79,22],[-8,6],[-47,-3],[-17,4],[-49,-21],[-40,7],[-27,-3],[-47,20],[-67,8]],[[3749,7269],[-3,15],[12,13],[-27,18],[-68,-4],[-41,45],[1,19],[-13,5],[2,18],[21,24],[21,6],[38,-8],[52,19],[12,12],[-25,7],[-19,17],[-22,4],[-5,27]],[[3685,7506],[47,13],[91,3],[30,23],[39,5],[37,-3],[58,24],[51,0],[47,-10],[79,-23],[27,4],[50,-12],[55,-1],[50,7],[56,-17],[27,-1],[23,10],[36,36],[17,7],[47,0],[60,14],[37,-2],[18,10],[60,8],[60,4],[32,35],[50,-8],[25,-10],[94,33],[-1,25],[-25,9],[14,17],[31,16],[-22,10],[-7,18],[-58,13],[-8,21],[6,28],[-23,22],[26,10],[8,24],[-22,23],[-55,32],[-6,23],[-50,2],[-11,17],[-28,-2],[-69,17],[15,15],[-28,26],[9,40],[-8,15],[6,31],[-7,22],[-27,31],[13,14],[-57,28],[31,43],[-4,36],[-28,15],[2,19],[-13,42],[22,37],[-17,21],[4,19],[-21,34],[8,27],[-17,46],[-24,24],[-18,3],[-27,23],[5,23],[-27,6],[-34,40]],[[4446,8660],[8,11],[42,25],[13,-12],[50,-14],[47,0],[23,-14],[35,-9],[44,5],[29,14],[68,-11],[61,-3],[33,-12],[28,3],[16,16],[33,15],[32,21],[27,27],[57,3],[15,10],[35,4],[59,24],[46,27],[-8,24],[32,30],[44,7],[59,-19],[12,-27],[64,-20],[64,-9],[4,-20],[34,-14],[45,-2],[34,-20],[36,-9],[22,-25],[24,3],[62,-17],[54,3],[39,17],[15,21],[25,0],[47,-14],[75,-2],[77,18],[22,11],[67,14],[26,10],[26,-1],[23,13],[26,4],[4,16],[18,0],[39,-19],[22,1],[3,13]],[[8751,5781],[-53,-29],[-47,-3],[-47,4],[-44,-18],[-80,14],[-29,2],[-37,11],[-21,-2],[-31,-18],[-62,2],[-30,-12],[-64,-16],[-59,-3],[-26,6],[-31,-21],[-23,3],[-12,-16],[-79,-15],[-12,-10],[10,-14],[-43,-12],[-7,-19],[-28,-1],[-62,-22],[32,-16],[0,-38],[-19,-19],[-1,-30],[-14,-11],[-28,1],[-52,-13],[-24,3],[14,-27],[-33,-22],[-47,-12]],[[7662,5408],[-21,-15],[-34,-8],[-44,-4],[-33,-9],[-46,-3],[-58,0],[-48,11],[-15,-28],[-18,0],[-36,-32],[-70,15],[-33,18],[-70,18],[-10,-22],[-31,6],[-28,-16],[2,-25],[-44,-26],[-3,-14],[-24,-5],[-24,-16],[-19,8],[-4,19],[-23,22],[-59,1],[-3,-24],[-42,5],[-51,14],[-34,-9],[-45,1],[2,35]],[[6696,5325],[1,56],[-14,4],[-1,33],[-18,9],[52,23],[7,9],[50,6],[5,14],[29,19],[11,17],[83,23],[89,22],[-4,38],[22,21],[35,11],[58,9],[-3,13],[21,2],[7,29],[-40,-1],[-9,12],[13,19],[23,1],[20,16],[-3,11],[19,11],[3,30],[-13,18],[-26,12],[-21,24],[-84,8],[-38,27],[-31,-1],[-21,11],[-33,0],[-21,29],[-23,18],[-38,-5],[-54,12],[-23,21],[59,15],[-12,23],[-28,22],[17,21],[23,3],[39,-8],[44,10],[17,22],[-42,25],[-5,10],[27,16],[-39,40],[34,22],[-21,11]],[[6839,6188],[43,13],[64,4],[17,6],[-2,16],[25,10],[6,25],[33,11],[13,15],[24,10]],[[7062,6298],[27,-18],[22,-1],[21,-18],[2,-22],[29,-22],[38,-7],[-9,-17],[12,-8],[54,-3],[9,-28],[46,-14],[-2,-48],[41,-16],[13,5],[75,1],[18,8],[42,-4],[36,-19],[62,-13],[24,1],[55,-17],[74,11],[100,0],[49,-8],[51,11],[-8,15],[12,9],[-5,26],[7,22],[-15,11],[15,19],[37,-5],[39,3],[2,8],[35,6],[23,-8],[55,7],[20,20],[17,3],[26,24],[21,1],[38,17],[14,15],[-7,29],[90,22],[12,25],[77,10],[21,27],[38,22]],[[8515,6380],[18,-7],[5,-25],[43,3],[59,-15],[27,-10],[-3,-24],[9,-13],[21,-6],[82,-8],[14,-7],[-7,-14],[16,-13],[-15,-7],[-8,-41],[28,-10],[12,-18],[13,-45],[22,0],[20,-19],[-3,-21],[37,-29],[-61,-10],[-12,-13],[-45,-8],[-26,-15],[-11,-15],[4,-17],[-12,-11],[9,-20],[-17,-30],[59,-27],[16,-27],[-11,-34],[-47,-43]],[[6828,6954],[32,-19],[23,7],[42,-11],[28,8],[52,-11],[55,-32],[38,-35],[25,-9],[-7,-24],[29,-8],[2,-11],[55,-22],[11,-13],[28,-1],[23,-17],[40,-2],[21,-17],[0,-27],[-64,-30],[-33,-11],[4,-33],[-58,-15],[-24,-18],[23,-23],[25,-15],[-10,-15],[-31,-13],[-36,3],[-64,-33],[-25,-7],[32,-13],[40,-47],[27,-13],[30,2],[22,-28],[20,-2],[3,-15],[-18,-29],[-32,-3],[-20,-22],[-64,-12],[-10,-20]],[[6839,6188],[-57,34],[-67,28],[-45,-7],[-55,13],[-37,-10],[-62,17],[-26,23],[-25,1],[-37,18],[-20,1],[-70,30],[-13,14],[-35,6],[-58,1],[-21,12],[-1,17],[-42,27],[-11,-25],[-47,9],[-8,-7],[-26,8],[-5,14],[-74,-9],[-32,-33],[-20,-9],[21,-10],[4,-22],[27,2],[25,-13],[-15,-16],[-18,13],[-24,-11],[4,-23],[45,-2],[-1,-15],[-19,-7],[5,-18],[48,0],[-9,-16],[32,-24]],[[6070,6199],[-32,-5],[-65,1],[-70,8],[-22,-13],[-57,-17],[-32,17],[-19,2],[-90,-9],[-37,-10],[-36,-22],[-44,-4],[-31,-10],[-35,2],[-40,11],[-30,-6],[-28,2],[-75,24],[-38,-8],[-16,10],[-23,-8],[-28,4],[-29,-7],[-49,12],[-24,-1],[-12,13],[-16,-3],[-36,24],[-23,-3],[-21,17],[-66,10],[-17,21],[-25,1],[2,21],[-34,40]],[[4872,6313],[-69,-13],[-20,3],[-40,-8],[-9,6],[-121,-4],[-24,-11],[-12,-19],[16,-2],[-19,-18],[-46,-2],[-12,-10],[-24,1],[-39,22],[-121,37],[-60,8],[-79,3],[-19,-8],[-74,2],[-29,-13],[-31,-1]],[[4040,6286],[3,23],[34,7],[16,13],[18,51],[-20,19],[-29,14],[12,16],[-24,14],[0,30],[-16,39],[-21,20],[18,31],[-6,20],[-99,10],[4,22],[-8,16],[-47,2],[-47,13],[7,18],[-38,15],[-72,14],[-37,-2],[-44,34],[-14,21],[-45,13],[-9,16],[22,20],[42,-5],[63,14],[49,28],[18,5],[-7,32],[-30,15],[-2,13],[-29,25],[14,15],[-2,16],[13,19],[40,11],[9,19],[36,11],[-32,12],[-36,21],[40,35],[-14,6],[22,21],[-4,32],[-20,4],[-49,34],[-9,16],[32,26],[-19,10],[-7,18],[4,21],[29,0]],[[5491,5493],[-24,32],[-4,24],[-78,20],[-41,-8],[-12,-10],[-72,-36],[-40,18],[-63,5],[-51,-20],[-35,-4],[-38,17],[-33,-1]],[[5000,5530],[-13,23],[13,5],[-9,22],[-42,41],[13,55],[19,9],[1,23],[24,27],[36,20],[19,21],[-8,35],[1,20],[-20,20],[-36,10],[-42,25],[16,21],[-20,19],[-9,22],[-64,27],[-53,31],[-25,46],[-25,6],[-5,17],[-19,10],[4,19],[-32,26],[17,14],[9,30],[-16,16],[6,16],[47,11],[6,26],[16,17],[46,7],[15,13],[2,33]],[[6070,6199],[17,-6],[-26,-21],[31,-16],[-20,-12],[14,-14],[-34,-16],[25,-19],[-1,-10],[32,-14],[5,-21],[15,-7],[-23,-12],[-19,-26],[1,-21],[33,-20],[-1,-23],[37,-6],[32,-60],[-14,-12],[41,-53],[0,-19],[25,-10],[13,-25],[47,-30],[1,-33],[-16,-6],[56,-35],[-4,-31]],[[3001,5799],[3,19],[-46,-1],[-47,11],[-30,23],[39,16],[45,30],[-2,22],[-48,-5],[-7,-6],[-56,9],[-43,-4],[-73,-29],[-46,-4],[-25,-12],[-17,10],[29,15],[2,18],[-62,9],[-47,28],[9,24],[-15,46],[22,29],[11,37],[31,12],[-1,43],[9,5]],[[2636,6144],[15,7],[44,46],[57,20],[35,-9],[60,4],[110,-20],[24,6],[77,-8],[35,-8],[84,-7],[62,-11],[63,-23],[29,-4],[78,4],[40,8],[29,13],[17,19],[34,-2],[32,7],[0,16],[22,7],[71,8],[40,-4],[44,-14],[70,36],[49,7],[33,35],[34,7],[21,-12],[17,9],[63,-3],[15,8]],[[5000,5530],[-45,-20],[-24,-51],[6,-24],[25,-21],[-21,-11],[-2,-22],[68,-55],[30,-1],[42,-22],[8,-12],[37,-8],[6,-24],[-13,-16],[-28,-10],[15,-21],[33,-10],[-9,-16],[27,-26],[24,-4],[-20,-26]],[[5159,5130],[-47,-21],[-22,13],[-50,11],[-7,12],[-39,11],[-17,-3],[-6,14],[-28,9],[-23,-3],[-9,11],[-39,24],[-40,4],[-4,19],[-22,-3],[-32,8],[8,16],[-41,4],[-55,-4],[-49,-9],[-48,14],[-19,15],[-23,-1],[-58,13],[-18,-4],[-22,19],[-30,-3],[-23,8],[-28,-14],[-74,3],[-10,-15],[-39,-5],[-79,3],[-21,-16],[-49,13],[-33,-6],[-39,-27],[18,-8],[33,-41],[36,-4],[47,-19],[-42,-9],[-25,-24],[-26,1],[-69,-21],[-49,6],[-11,-5],[-56,-1],[-55,6],[-30,-9],[-42,28],[-24,35],[-14,1],[-22,25],[-4,17],[-63,0],[-12,29],[-22,14],[-45,4],[8,19],[-11,13],[-10,33],[16,9],[-27,32]],[[7156,9860],[49,-26],[14,-16],[-13,-17],[4,-28],[47,-29],[2,-68],[-5,-15],[18,-44],[46,-55],[42,-26],[81,-8],[74,-29],[21,-14],[54,-13],[15,-11],[46,-20],[32,-1],[28,-24],[15,-36],[46,-2],[16,-12],[43,-5],[40,2],[27,-7],[2,-14],[-21,-5],[25,-9],[15,-23],[-14,-28],[27,-4],[-20,-9],[1,-25],[-38,-24],[-3,-12],[-27,-1],[108,-23],[1,-21],[-17,-23],[49,-9],[42,6],[35,-24],[34,-5],[39,4],[43,13],[21,-28],[29,-6],[22,-20],[26,-9],[34,-39],[-1,-7],[31,-20],[33,-12],[-9,-19],[52,-13],[42,-46],[-1,-12],[31,-10],[-9,-15],[43,-12],[-2,-21],[22,-23],[20,-5],[18,-26],[50,-30],[17,-21]],[[8648,8726],[30,-28],[-10,-17],[-1,-44],[-24,-7],[-4,-21],[14,-10],[-1,-27],[-15,-21],[-26,-6],[-44,0],[-15,-15],[8,-23],[-24,-7]],[[8536,8500],[-30,11],[-32,19],[-12,34],[-26,0],[-71,23],[-23,35],[-24,10],[-3,-9],[-31,5],[-10,12],[-41,9],[-40,3],[-62,-6],[-31,9],[-76,2],[-46,12],[-30,0],[-35,13],[-21,-14],[-27,-4],[-44,12],[-12,19],[-29,11],[-24,-9],[-22,3],[-41,-14],[-22,-1],[-5,-12],[-71,-26],[-11,-12],[-30,-7],[-16,-15],[-32,-8],[-32,6],[-51,-2],[-26,22],[8,20],[-17,32],[-32,9],[5,-14],[-41,-2],[-33,17],[-92,2],[-27,19],[-37,7],[-26,-14],[-63,3],[-60,-22],[-88,-2],[-42,9],[-22,19],[-64,4],[-41,7],[-47,-3],[-35,4],[-32,18],[-20,3],[-25,33],[-10,22],[28,13],[6,14],[41,13],[17,37],[-38,13],[-68,10],[-21,13]],[[6521,8915],[5,34],[15,22],[14,40],[12,17],[-16,18],[16,51],[-33,17],[-36,-5],[9,19],[-7,12],[22,11],[-14,40],[4,11],[-25,10],[-10,30],[21,9],[11,-15],[22,-2],[35,20],[44,2],[-10,19],[6,22],[19,17],[-32,25],[-9,38],[-41,23],[11,22],[13,4],[11,33],[21,15],[34,11],[27,0],[24,23],[-52,17],[-16,24],[13,31],[-10,16],[-1,30],[25,23],[34,17],[22,44],[65,18],[19,48],[-19,7],[17,30],[53,31],[31,-5],[8,-12],[44,1],[11,32],[28,-6],[19,-24],[125,11],[56,19]],[[7156,9860],[-16,29],[3,15],[86,9],[52,19],[71,19],[29,-7],[33,7],[46,-13],[38,-2],[42,10],[26,-12],[48,10],[53,0],[15,5],[30,-14],[21,0],[18,-20],[27,-9],[36,17],[30,-7],[43,-29],[30,-6],[44,6],[73,-4],[84,11],[20,-9],[77,0],[48,5],[49,-10],[23,6],[17,-14],[70,-1],[21,5],[41,-5],[15,-21],[41,5],[45,-31],[26,6],[64,3],[51,-15],[28,-17],[32,-6],[57,0],[27,6],[25,-12],[43,10],[32,-2],[30,17],[43,-1],[38,-10],[73,7],[25,21],[57,-1],[25,5],[28,17],[65,17],[73,1],[33,8],[14,11],[53,9],[-2,18],[-22,23],[-3,13],[34,5],[12,12],[34,14],[16,16],[22,-1],[53,-31],[52,-1],[104,-23],[62,-2],[57,-21],[25,-2],[28,-14],[-13,-40],[-67,-24],[-17,-10],[-13,14],[-24,7],[-32,-9],[-59,-7],[-35,-17],[-94,-10],[-20,-10],[-37,-2],[-41,-17],[-70,-14],[-11,-23],[21,-28],[65,-17],[14,-19],[-43,-6],[-18,-16],[-81,-32],[-42,4],[-32,-18],[-24,-1],[12,-14],[-24,-13],[30,-12],[14,-16],[35,-9],[-8,-14],[-22,1],[-51,-21],[-1,-15],[-35,-15],[3,-12],[-37,-21],[-36,-36],[-42,-22],[-6,-24],[-22,-7],[-69,-2],[-54,-26],[-8,-35],[-15,-8],[-2,-33],[11,-6],[5,-24],[22,-15],[-46,-8],[-24,2],[-48,-7],[-23,-27],[-27,-14],[-37,-6],[-47,-42],[15,-16],[-9,-18],[27,-4],[9,-22],[-1,-19],[54,-30],[42,-15],[4,-9],[41,-16],[34,1],[-45,-38],[8,-16],[64,-17],[2,-37],[-44,1],[-88,-8],[-18,3],[-47,-6],[-34,2],[-30,-11],[12,-32],[-20,-6],[-3,-63],[-12,-7],[-49,-8],[-38,9]],[[7206,8016],[27,12],[25,2],[98,26],[37,-15],[1,-23],[82,7],[97,28],[48,-10],[29,2],[25,-9],[-11,-14],[13,-5],[67,4],[22,-4],[26,7],[89,-39],[21,-4],[48,4],[62,10],[62,18],[43,4],[58,-4],[49,2]],[[8224,8015],[-3,-10],[70,-45],[26,-4],[36,7],[14,-6],[-3,-16],[15,-4],[4,-20],[39,-10],[-22,-15],[-58,0],[-9,-21],[-40,-8],[6,-19],[-33,-13],[-15,-15],[-1,-18],[-30,-31],[2,-22],[24,-18],[48,9],[11,-5],[-9,-20],[7,-13],[-14,-14],[33,-11],[42,-56],[-16,-10],[-8,-39],[-16,-16],[3,-13],[-16,-12],[35,-14],[4,-22],[24,-15],[12,-28],[64,-26],[-24,-8],[-21,4],[27,-46],[20,-7],[2,-44],[-8,-15],[18,-9],[10,-47],[-5,-31],[9,-11],[-15,-31],[-31,-12],[-3,-16],[15,-22],[15,-7],[5,-25],[40,-16],[-13,-26],[20,-20],[-19,-1],[9,-20],[18,-10],[-14,-6],[24,-23],[-44,-20],[10,-22],[-34,-21],[-21,-1],[-21,-14],[-28,-6],[9,-9],[-4,-24],[-32,-20],[-35,-10],[-10,-24],[6,-15],[23,-16],[-36,-15],[-16,-37],[-18,-2],[18,-17],[-11,-16],[10,-28],[50,-14],[34,-25],[1,-36],[20,-23],[8,-41],[-31,-10],[12,-31],[26,-16],[24,-4],[8,-17],[50,-31],[18,-28]],[[6082,4658],[-42,-32],[-1,-23],[-39,-14],[3,-17],[-29,-25],[-33,1],[-15,-25],[-21,-8],[7,-18],[-9,-9],[13,-14],[-41,-7],[-31,-14],[-41,3],[-64,-30],[-69,-16],[-83,-31],[-21,-14],[-17,1],[-19,17],[-39,-1],[-37,-18],[-1,-23],[-38,-14],[-28,6]],[[5387,4333],[9,19],[33,9],[-20,13],[17,12],[-6,28],[15,2],[-20,37],[10,19],[-28,13]],[[5397,4485],[31,12],[-10,24],[-19,-2],[-42,28],[-36,15],[-1,28],[-44,34],[-8,32],[21,4],[-9,33],[14,4],[8,36],[14,12],[-41,-4],[-36,32],[11,8],[-51,9],[-27,26],[41,11],[-13,44],[39,38],[-33,15],[-33,0],[2,12],[-33,17],[-41,15],[28,8],[11,16],[-24,-3],[-3,13],[50,10],[23,15],[-13,14],[29,0],[-4,18],[11,22]],[[5209,5081],[72,-20],[-8,-25],[26,-16],[124,-40],[7,-12],[43,-22],[50,-11],[34,-15],[10,6],[29,-7],[23,-48],[116,-10],[14,-9],[59,-2],[10,-18],[4,-38],[16,-15],[21,-5],[-4,-34],[7,-16],[23,-14],[20,-23],[6,-26],[79,-28],[43,4],[33,22],[16,-1]],[[6585,5339],[17,19],[53,-1],[11,-19],[30,-13]],[[7662,5408],[38,-14],[7,-21],[55,-16],[24,-20],[13,-49],[-27,-45],[-52,-22],[-37,1],[11,-21],[-1,-38],[41,0],[41,15],[36,2],[65,-23],[42,-26],[21,-25],[18,-7],[86,-15],[21,-21],[-23,-25],[19,-23],[8,-52],[-37,0],[3,-13],[-48,-14],[-12,-26],[-21,-14],[-86,-4],[-54,-33]],[[7813,4859],[-34,-4],[-48,5],[-23,18],[-55,4],[0,25],[-38,10],[-71,28],[-12,32],[21,38],[-2,20],[-63,12],[-20,-7],[-57,-1],[-29,7],[-14,-8],[-50,8],[-84,-21],[-23,-3],[-31,-24],[-33,-17],[-6,-17],[-73,-7],[-6,-11],[-58,1],[-13,6],[-39,-7],[-99,7]],[[6853,4953],[-9,53],[-11,11],[-30,62],[-45,32],[23,17],[0,10],[-36,15],[-10,15],[-25,11],[-13,22],[-21,1],[-17,21],[1,29],[-13,3]],[[6249,5016],[8,-28],[-4,-23],[-36,-23],[-16,3],[-45,-16],[-13,-30],[-35,-18],[5,-7],[-47,-24],[-24,-23],[-2,-39],[20,-26],[-14,-20],[75,-23]],[[6121,4719],[-6,-16],[27,-21],[-29,-17],[-31,-7]],[[5209,5081],[-24,16],[-26,33]],[[4948,3225],[23,-23],[35,-22],[8,-22],[34,3],[42,-16],[-13,-16],[19,-21],[-14,-5],[7,-48],[16,-16],[-12,-11],[23,-24],[-13,-30],[-37,-10],[1,-42],[-28,-13],[4,-8],[26,2],[72,-19],[3,-10],[-45,-17],[13,-24],[-74,-29],[11,-10],[-28,-45],[-19,-13],[20,-24],[-51,-18],[-9,-24],[-38,-15],[1,-32],[-14,-13]],[[4911,2610],[0,18],[-44,13],[-107,16],[-60,-5],[-51,11],[-11,13],[-69,5],[-25,-7],[-120,12],[-20,-3],[-15,14],[-50,7],[-39,2],[11,21],[-5,34],[-12,-1],[-20,31],[-29,0],[-50,17],[-11,12],[-42,28],[-47,12],[-21,-9],[-49,3],[26,20],[-3,9],[-40,-8],[-23,-11],[-46,-6],[-18,-20],[-70,-1],[-75,14],[-47,4],[30,-51],[56,-52],[20,-35],[-16,-14],[-65,4],[-51,-9],[-22,-13],[8,-14],[54,-14],[116,-21],[-31,-35],[5,-16],[-17,-5],[-50,16],[-23,-2],[-25,-25],[-46,-10],[-54,-18],[-25,3],[40,-42],[70,-40],[27,-28],[24,-4],[14,-24],[-33,-2],[-50,5],[-4,-11],[14,-21],[-18,6],[-41,-19],[-63,-7],[-65,1],[-16,19],[-37,25],[-5,-32],[-25,-15],[-44,-4],[-66,3],[-42,17],[-11,-3],[-32,-38],[-22,-17],[-25,-7],[-4,-13],[-25,-12],[-39,-6],[-36,-12],[-49,34]],[[3030,2297],[-22,46],[-22,5],[-26,21],[-27,2],[13,8],[-32,18],[5,6],[-29,23],[-46,9],[5,13],[-38,13],[-20,20],[-24,5],[-8,13],[-40,9],[-37,42],[-20,12],[-62,14],[-14,25],[-41,12],[-28,16],[30,30],[34,8],[-26,25],[-29,2],[-69,28],[-53,26],[-23,-7],[-94,-6],[-21,8],[-55,-6],[-43,20],[-38,3],[-8,12],[-41,-2],[-22,-9],[24,-12],[-10,-13],[-38,-15],[-23,3],[-46,-21],[-37,12],[-30,20],[-86,5],[-30,-13],[-80,6],[-28,10],[-45,-4],[-29,4]],[[1601,2743],[18,28],[21,9],[47,-5],[64,41],[7,23],[21,6],[16,32],[-17,24],[-29,-8],[-38,7],[-31,-6],[5,14],[-79,-5],[-20,7],[-32,-34],[-25,-6],[-43,10],[10,31],[-89,4],[30,10],[-20,23],[-31,-11],[7,-12],[-82,-16],[-45,3],[-32,8],[8,33],[-81,34],[2,14],[-106,11],[-22,-3],[-31,9],[0,25],[-18,26],[33,25],[-24,7],[-28,26],[-25,36],[2,15],[17,7],[45,-1],[4,51],[43,20],[17,14],[-33,33],[-29,9],[5,30],[15,31]],[[4911,2610],[46,-1],[17,-5],[34,14],[89,20],[54,-9],[60,-40],[27,-7],[35,-22],[-16,-15],[0,-25],[62,-37],[-11,-13],[23,-63],[50,-42],[-10,-15],[11,-26],[32,-23],[-8,-25],[13,-22],[28,-6],[2,-32],[38,-28],[-11,-21],[34,-61],[-2,-17],[-70,22],[-47,-39],[18,-42],[-18,-30],[4,-11],[29,-9],[0,-10],[-41,-5],[-24,-9],[-85,-17],[-23,-18],[-37,-2],[-21,-8],[-44,-1],[-15,5],[-55,-1],[-22,-8],[-17,8],[6,15],[-38,35],[27,-3],[-25,16],[4,27],[-29,0],[-13,10],[6,12],[-24,5],[-40,-5],[-29,-38],[-13,-1],[-23,-22],[1,-12],[-30,-27],[-83,-2],[-23,13],[-28,1],[-43,-26],[-51,-14],[-15,12],[-80,5],[-73,-15],[-20,-8],[-78,-3],[-5,19],[-17,20],[-20,9],[-21,39],[-27,13],[8,39],[-22,11],[-60,-27],[-44,-2],[-23,-28],[-66,-11],[-3,-14],[-22,-23],[-23,-11],[21,-31],[-9,-23],[-18,-15],[-45,-13],[-8,10],[-48,-1],[-42,25],[-44,40],[-24,15],[-47,8],[1,-11],[-56,-3],[-8,17],[-59,8],[-43,-38],[-17,-7],[-33,7],[-21,17],[-35,12],[-24,19],[-28,10],[-53,1],[-46,22],[-11,11],[-34,2],[-20,-11],[10,-16],[-47,-15],[-32,10],[-48,2],[-15,-7]],[[3098,1968],[-41,26],[-1,37],[-49,33],[-41,8],[-38,-14],[-52,-1],[-23,6],[-18,23],[-45,11],[-43,2],[-50,45],[2,30],[22,16],[-13,20],[-4,24],[58,25],[20,-6],[23,-19],[36,2],[30,19],[19,1],[27,23],[28,10],[40,-7],[45,15]],[[3098,1968],[-11,-6],[7,-31],[30,-24],[22,-2],[58,-27],[-10,-19],[5,-38],[-20,-10],[-16,-27],[14,-26],[44,-31],[31,-31],[-8,-15],[18,-15],[11,-39],[22,-14],[9,-16],[-7,-18],[-17,-12],[9,-22],[-8,-26],[20,-61],[21,-18],[-7,-10],[26,-35],[6,-32],[-20,-15],[10,-28],[26,-34],[45,-1],[45,-10],[37,-23],[81,-36],[41,-36],[27,-38],[-17,-2],[-30,-16],[-27,-6],[-18,-17],[-58,-2],[-31,-8],[-31,-34],[-42,-17],[-24,-18],[-46,-10],[-4,-22],[-11,-3],[-4,-23],[13,-12],[-15,-14],[-25,-3],[-1,-22],[28,-34],[-14,-37],[-17,-3],[-6,-29],[63,-83],[27,-12],[52,-3],[36,-11],[-1,-42],[21,-11],[52,-14],[-2,-27],[-19,-31],[12,-43],[-12,-16],[-31,-22],[-77,-83],[37,-20],[39,-8],[30,9],[42,-10],[10,-11],[-28,-14],[-16,-37],[20,-34],[16,-9],[-3,-19],[-30,-11],[14,-54],[-7,-16],[38,-4],[74,24],[22,0],[7,-19],[-21,-10],[-4,-23],[-60,1],[-91,-13],[-32,7],[-92,-30],[-59,12],[-26,12],[-55,-8],[-41,5],[-41,-25],[-33,-2],[-14,-8],[-10,9],[-41,0],[-26,15],[-36,-6],[-103,-8],[-15,-15],[-24,10],[-30,-12],[-23,9],[-22,-19],[-12,5],[-8,-21],[-61,-19],[-75,-11],[-32,10],[-67,-10],[-40,-34],[-35,24],[-19,1],[-38,17],[-18,27],[-39,22],[-44,5],[-26,13],[3,33],[27,17],[-39,1],[-35,16],[-71,8],[-81,30],[-29,18],[-10,32],[-22,13],[65,11],[28,13],[-16,19],[10,32],[18,10],[-31,26],[-36,15],[-1,11],[-39,17],[-3,16],[25,13],[-9,13],[-106,42],[-24,29],[-24,7],[-22,17],[27,18],[49,2],[13,-8],[20,10],[87,11],[24,42],[-43,21],[0,34],[19,12],[10,39],[36,33],[-13,35],[0,24],[-17,22],[-33,26],[-30,16],[2,22],[-18,18],[13,24],[-3,13],[-39,10],[-15,12],[21,5],[-24,48],[-42,12],[-4,18],[27,26],[-28,34],[-36,-3],[-93,7],[-47,12],[-36,-6],[-23,-16],[-43,-6],[-24,-16],[-13,-34],[-41,-4],[-20,-21],[-41,-1],[-15,-9],[-36,-6],[-49,4],[-31,-19],[-56,-6],[-42,10],[-52,-6],[-11,-9],[-39,3],[-18,-5],[-21,18],[-46,17],[-59,-14],[-56,-8],[-60,5],[-27,-3],[-46,39],[4,9],[-24,8],[13,33],[-59,17],[-41,16],[6,14],[-29,3],[-14,17],[23,21],[-26,6],[-18,18],[29,15],[-18,13],[15,10],[-48,11],[16,22],[-27,2],[-50,53],[29,2],[41,31],[25,-1],[22,18],[21,-6],[18,16],[25,3],[51,18],[2,12],[34,6],[13,18],[22,4],[7,15],[46,30],[-10,19],[42,32],[-10,39],[2,42],[25,22],[-21,16],[-8,40],[-58,10],[-28,38],[30,4],[46,53],[-36,15],[-40,28],[-17,26],[-41,0],[-21,7],[-62,-4],[-24,-13],[-110,45],[-39,13],[-2,16],[-20,5],[-29,20],[-42,39],[6,15],[-21,23],[4,27],[-37,20],[-26,-4],[-36,36],[-25,12],[-13,-9],[-61,19],[-41,6],[-20,11],[-16,33],[-42,-1],[-30,18],[-34,8],[-11,28],[19,19],[-9,13],[7,19],[-3,28],[15,-4],[9,-22],[45,17],[-17,20],[28,7],[-6,11],[23,4],[60,21],[32,0],[15,7],[23,-6],[10,9],[29,4],[2,9],[27,9],[31,-8],[40,17],[37,10],[39,-4],[64,24],[27,-6],[28,3],[24,-17],[68,-22],[68,-10],[35,-15],[24,8],[9,-14],[41,-5],[19,-18],[42,18],[-10,8],[12,36],[19,-3],[-6,19],[16,13],[27,-3],[29,34],[40,-6],[-22,9],[25,10],[59,-10],[12,19],[21,8],[28,-5],[7,12],[41,-9],[18,11],[26,-2],[10,13],[17,-12],[26,-3],[48,17],[45,0],[6,15],[15,-17],[36,2],[71,23],[-13,37],[-27,28],[21,29],[61,20],[24,38],[14,8]],[[6853,4953],[-29,2],[7,-22],[-23,-31],[-27,-1],[-27,-22],[-71,22],[-149,18],[-82,7],[-30,-9],[-22,9],[-10,-19],[-26,-19],[1,-66],[-63,-17],[-20,6],[-55,-20],[-29,4],[-8,-23],[-39,-17],[-30,-36]],[[3685,7506],[6,22],[-11,36],[15,28],[28,9],[8,17],[-12,9],[5,17],[27,-3],[29,31],[-21,10],[2,18],[-28,14],[16,20],[-23,25],[-18,5],[-28,27],[-43,19],[-22,4],[-35,-16],[-32,40],[13,15],[-24,20],[14,21],[-10,3],[8,27],[13,8],[-22,11],[-22,-1],[-91,23],[-16,8],[20,16],[-25,18],[4,33],[-27,22],[-2,26],[15,22],[-27,12],[25,18],[4,14],[-40,11],[-45,-2],[-33,21],[-4,23],[-30,-3],[-88,23],[-16,17],[-69,19],[-7,16],[-40,14],[-4,11],[-34,7],[-26,-2],[-11,32],[9,39],[-17,9],[6,21],[-22,23],[10,9],[27,-1],[17,12],[68,22],[71,5],[57,14],[18,27],[72,-10],[42,-30],[24,-4],[23,-31],[34,-10],[-3,-13],[70,-9],[53,-22],[9,-17],[44,-11],[26,84],[15,7],[-6,19],[21,1],[78,27],[19,12],[61,-8],[50,-14],[35,4],[24,24],[30,-12],[35,6],[8,17],[-16,26],[62,5],[8,8],[48,6],[10,8],[53,14],[39,-19],[35,25],[-12,18],[56,17],[48,-9],[31,18],[59,0],[66,12]],[[6383,8777],[-29,18],[41,4],[-8,39],[39,6],[31,17],[29,6],[9,31],[14,0],[12,17]],[[8536,8500],[-43,6],[-73,-5],[-80,-15],[4,-17],[-20,0],[-56,-44],[-34,-15],[0,-12],[-27,-11],[-22,1],[-16,-14],[-31,-5],[-37,-18],[-42,-6],[-30,-10],[-17,-36],[-25,-10],[10,-19],[-3,-17],[13,-11],[-17,-26],[51,-13],[8,-13],[-4,-38],[54,-12],[38,-15],[15,4],[46,-27],[11,-20],[-20,-13],[-3,-20],[34,-11],[4,-23]],[[5397,4485],[-48,12],[-6,15],[-30,8],[-2,15],[-59,2],[-19,12],[-39,11],[-40,23],[-45,3],[-32,9],[-24,26],[-35,-8],[-18,-16],[-51,-10],[-37,-13],[-31,-18],[-40,-13],[-33,-25],[-45,-4],[-15,-7],[-64,2],[-56,29],[-59,21],[-33,7],[-33,30],[-10,19],[20,55],[-32,5],[-98,68],[-21,5],[-26,-9],[-61,8],[-17,-12],[-38,-3],[-17,-14],[-33,8],[-31,-14],[-35,-5],[-41,2],[-42,11],[-47,-6],[-39,-23],[-2,-18]],[[8751,5781],[38,-37],[11,-24],[-10,-10],[22,-17],[-7,-26],[34,-15],[-37,-22],[12,-11],[-45,-37],[-41,-20],[-86,-26],[-52,-12],[1,-19],[-13,-20],[29,-25],[-14,-18],[28,-21],[-1,-32],[13,-24],[31,-8],[14,-40],[27,-11],[4,-14],[-26,-16],[-5,-19],[33,-35],[1,-20],[-32,-17],[-32,-5],[-49,-33],[-29,-3],[-9,-22],[3,-21],[-24,-22],[-26,-8],[17,-21],[-7,-12],[-53,-15],[19,-27],[-62,-32],[28,-17],[19,-26],[-9,-10],[40,-11],[62,-37],[-44,-19],[-60,3],[-13,-22],[-24,-19],[10,-21],[-10,-14],[24,-3],[-24,-27],[60,-13],[45,0],[35,6],[5,-10],[32,-6],[27,-21],[-12,-23],[-29,-18],[-25,-6],[21,-13],[-10,-24],[20,-10],[-33,-3],[-28,-14],[-32,9],[-35,-3],[-36,-37],[-2,-15],[15,-14],[-16,-12],[7,-28],[-36,-29],[-25,-5],[-9,-12],[-36,2],[-34,11],[-63,3],[-51,36],[-63,21],[-33,17],[-5,14],[-54,22],[-3,9],[-92,16],[-35,26],[-48,-1],[-11,10],[-47,11],[-64,9],[41,45],[-6,6],[24,16],[51,15],[2,11],[-24,13],[-3,15],[20,26],[-16,28],[16,20],[-19,18]],[[5387,4333],[-34,-6],[-22,-33],[-45,-22],[-75,-16],[-10,-12],[-39,-10],[-12,-9],[0,-28],[-60,5],[-34,-32],[-28,-5],[-61,3],[-71,-20],[-55,-41],[-17,-4],[-42,4],[-36,-2],[-32,-11],[-30,3],[-8,9]],[[624,5656],[14,3],[14,14],[1,8],[55,17],[33,35],[37,14],[88,0],[40,24],[37,1],[14,15],[3,21],[-12,27],[56,6],[39,31],[6,49],[-49,46],[-9,19],[35,27],[8,22],[-8,11],[61,25],[47,31],[1,31],[-17,13],[5,14],[42,1],[0,27],[95,34],[17,43],[27,3],[26,27],[50,29],[8,29],[35,6],[35,16],[5,24],[36,14],[45,8],[12,21],[-21,11],[-8,18],[-44,17],[20,9],[2,15],[-20,13],[12,27],[2,27],[41,10],[15,15],[61,-11],[27,-19],[18,12],[38,-5],[52,0],[15,-5],[52,10],[43,-1],[91,-8],[41,10],[31,0],[32,-19],[71,4],[-14,-29],[19,-17],[48,-23],[-35,-12],[-7,-20],[13,-6],[14,-37],[33,-22],[6,-12],[-15,-8],[15,-24],[41,-7],[38,0],[38,-13],[20,-33],[-15,-27],[54,-30],[12,9],[35,-17],[30,-3],[19,-33],[24,-5],[6,-27],[41,-5],[30,-12],[59,-15]]],"transform":{"scale":[0.00015643455845584602,0.0002905073189318893],"translate":[98.00868088500005,17.24231466200007]},"objects":{"Chiang Mai":{"type":"GeometryCollection","geometries":[{"arcs":[[0,1,2,3,4]],"type":"Polygon","properties":{"Shape_Leng":0.823858502137,"Shape_Area":0.0154947792296,"ADM2_EN":"Mueang Chiang Mai","ADM2_TH":"เมืองเชียงใหม่","ADM2_PCODE":"TH5001","ADM1_EN":"Chiang Mai","ADM1_TH":"เชียงใหม่","ADM1_PCODE":"TH50","ADM0_EN":"Thailand","ADM0_TH":"ประเทศไทย","ADM0_PCODE":"TH"}},{"arcs":[[5,6,7,8,9]],"type":"Polygon","properties":{"Shape_Leng":1.88505897845,"Shape_Area":0.0953067450961,"ADM2_EN":"Chom Thong","ADM2_TH":"จอมทอง","ADM2_PCODE":"TH5002","ADM1_EN":"Chiang Mai","ADM1_TH":"เชียงใหม่","ADM1_PCODE":"TH50","ADM0_EN":"Thailand","ADM0_TH":"ประเทศไทย","ADM0_PCODE":"TH"}},{"arcs":[[-8,10,11,12,13,14]],"type":"Polygon","properties":{"Shape_Leng":3.24204407169,"Shape_Area":0.234037003781,"ADM2_EN":"Mae Chaem","ADM2_TH":"แม่แจ่ม","ADM2_PCODE":"TH5003","ADM1_EN":"Chiang Mai","ADM1_TH":"เชียงใหม่","ADM1_PCODE":"TH50","ADM0_EN":"Thailand","ADM0_TH":"ประเทศไทย","ADM0_PCODE":"TH"}},{"arcs":[[15,16,17,18,19,20]],"type":"Polygon","properties":{"Shape_Leng":2.6459219919,"Shape_Area":0.188725149146,"ADM2_EN":"Chiang Dao","ADM2_TH":"เชียงดาว","ADM2_PCODE":"TH5004","ADM1_EN":"Chiang Mai","ADM1_TH":"เชียงใหม่","ADM1_PCODE":"TH50","ADM0_EN":"Thailand","ADM0_TH":"ประเทศไทย","ADM0_PCODE":"TH"}},{"arcs":[[21,22,23,24,25,26]],"type":"Polygon","properties":{"Shape_Leng":1.60698818442,"Shape_Area":0.0559947092871,"ADM2_EN":"Doi Saket","ADM2_TH":"ดอยสะเก็ด","ADM2_PCODE":"TH5005","ADM1_EN":"Chiang Mai","ADM1_TH":"เชียงใหม่","ADM1_PCODE":"TH50","ADM0_EN":"Thailand","ADM0_TH":"ประเทศไทย","ADM0_PCODE":"TH"}},{"arcs":[[-18,27,-25,28,29,30,31]],"type":"Polygon","properties":{"Shape_Leng":2.29348284645,"Shape_Area":0.121298312442,"ADM2_EN":"Mae Taeng","ADM2_TH":"แม่แตง","ADM2_PCODE":"TH5006","ADM1_EN":"Chiang Mai","ADM1_TH":"เชียงใหม่","ADM1_PCODE":"TH50","ADM0_EN":"Thailand","ADM0_TH":"ประเทศไทย","ADM0_PCODE":"TH"}},{"arcs":[[-5,32,33,-30,34]],"type":"Polygon","properties":{"Shape_Leng":1.10983091096,"Shape_Area":0.0389569054693,"ADM2_EN":"Mae Rim","ADM2_TH":"แม่ริม","ADM2_PCODE":"TH5007","ADM1_EN":"Chiang Mai","ADM1_TH":"เชียงใหม่","ADM1_PCODE":"TH50","ADM0_EN":"Thailand","ADM0_TH":"ประเทศไทย","ADM0_PCODE":"TH"}},{"arcs":[[-14,35,36,-31,-34,37,38]],"type":"Polygon","properties":{"Shape_Leng":1.79723067872,"Shape_Area":0.0863876454644,"ADM2_EN":"Samoeng","ADM2_TH":"สะเมิง","ADM2_PCODE":"TH5008","ADM1_EN":"Chiang Mai","ADM1_TH":"เชียงใหม่","ADM1_PCODE":"TH50","ADM0_EN":"Thailand","ADM0_TH":"ประเทศไทย","ADM0_PCODE":"TH"}},{"arcs":[[39,40,41,42]],"type":"Polygon","properties":{"Shape_Leng":1.56613994391,"Shape_Area":0.070454211767,"ADM2_EN":"Fang","ADM2_TH":"ฝาง","ADM2_PCODE":"TH5009","ADM1_EN":"Chiang Mai","ADM1_TH":"เชียงใหม่","ADM1_PCODE":"TH50","ADM0_EN":"Thailand","ADM0_TH":"ประเทศไทย","ADM0_PCODE":"TH"}},{"arcs":[[-40,43]],"type":"Polygon","properties":{"Shape_Leng":1.76484627458,"Shape_Area":0.0690608691848,"ADM2_EN":"Mae Ai","ADM2_TH":"แม่อาย","ADM2_PCODE":"TH5010","ADM1_EN":"Chiang Mai","ADM1_TH":"เชียงใหม่","ADM1_PCODE":"TH50","ADM0_EN":"Thailand","ADM0_TH":"ประเทศไทย","ADM0_PCODE":"TH"}},{"arcs":[[-17,44,45,-26,-28]],"type":"Polygon","properties":{"Shape_Leng":2.02250128058,"Shape_Area":0.110183441548,"ADM2_EN":"Phrao","ADM2_TH":"พร้าว","ADM2_PCODE":"TH5011","ADM1_EN":"Chiang Mai","ADM1_TH":"เชียงใหม่","ADM1_PCODE":"TH50","ADM0_EN":"Thailand","ADM0_TH":"ประเทศไทย","ADM0_PCODE":"TH"}},{"arcs":[[46,47,48,49]],"type":"Polygon","properties":{"Shape_Leng":0.77605732105,"Shape_Area":0.0148629672108,"ADM2_EN":"San Pa Tong","ADM2_TH":"สันป่าตอง","ADM2_PCODE":"TH5012","ADM1_EN":"Chiang Mai","ADM1_TH":"เชียงใหม่","ADM1_PCODE":"TH50","ADM0_EN":"Thailand","ADM0_TH":"ประเทศไทย","ADM0_PCODE":"TH"}},{"arcs":[[-2,50,-23,51,52,53]],"type":"Polygon","properties":{"Shape_Leng":0.917030381184,"Shape_Area":0.0201071124131,"ADM2_EN":"San Kamphaeng","ADM2_TH":"สันกำแพง","ADM2_PCODE":"TH5013","ADM1_EN":"Chiang Mai","ADM1_TH":"เชียงใหม่","ADM1_PCODE":"TH50","ADM0_EN":"Thailand","ADM0_TH":"ประเทศไทย","ADM0_PCODE":"TH"}},{"arcs":[[-1,-35,-29,-24,-51]],"type":"Polygon","properties":{"Shape_Leng":1.11218830612,"Shape_Area":0.029413320074,"ADM2_EN":"San Sai","ADM2_TH":"สันทราย","ADM2_PCODE":"TH5014","ADM1_EN":"Chiang Mai","ADM1_TH":"เชียงใหม่","ADM1_PCODE":"TH50","ADM0_EN":"Thailand","ADM0_TH":"ประเทศไทย","ADM0_PCODE":"TH"}},{"arcs":[[-4,54,55,-50,56,-38,-33]],"type":"Polygon","properties":{"Shape_Leng":0.954183717925,"Shape_Area":0.0224055259442,"ADM2_EN":"Hang Dong","ADM2_TH":"หางดง","ADM2_PCODE":"TH5015","ADM1_EN":"Chiang Mai","ADM1_TH":"เชียงใหม่","ADM1_PCODE":"TH50","ADM0_EN":"Thailand","ADM0_TH":"ประเทศไทย","ADM0_PCODE":"TH"}},{"arcs":[[-7,57,58,59,60,-11]],"type":"Polygon","properties":{"Shape_Leng":2.77232626151,"Shape_Area":0.127110230232,"ADM2_EN":"Hot","ADM2_TH":"ฮอด","ADM2_PCODE":"TH5016","ADM1_EN":"Chiang Mai","ADM1_TH":"เชียงใหม่","ADM1_PCODE":"TH50","ADM0_EN":"Thailand","ADM0_TH":"ประเทศไทย","ADM0_PCODE":"TH"}},{"arcs":[[-59,61,62]],"type":"Polygon","properties":{"Shape_Leng":1.80330381281,"Shape_Area":0.0730514715196,"ADM2_EN":"Doi Tao","ADM2_TH":"ดอยเต่า","ADM2_PCODE":"TH5017","ADM1_EN":"Chiang Mai","ADM1_TH":"เชียงใหม่","ADM1_PCODE":"TH50","ADM0_EN":"Thailand","ADM0_TH":"ประเทศไทย","ADM0_PCODE":"TH"}},{"arcs":[[-60,-63,63]],"type":"Polygon","properties":{"Shape_Leng":3.3730985782,"Shape_Area":0.24287136695,"ADM2_EN":"Omkoi","ADM2_TH":"อมก๋อย","ADM2_PCODE":"TH5018","ADM1_EN":"Chiang Mai","ADM1_TH":"เชียงใหม่","ADM1_PCODE":"TH50","ADM0_EN":"Thailand","ADM0_TH":"ประเทศไทย","ADM0_PCODE":"TH"}},{"arcs":[[-3,-54,64,-55]],"type":"Polygon","properties":{"Shape_Leng":0.583673088642,"Shape_Area":0.00920883202241,"ADM2_EN":"Saraphi","ADM2_TH":"สารภี","ADM2_PCODE":"TH5019","ADM1_EN":"Chiang Mai","ADM1_TH":"เชียงใหม่","ADM1_PCODE":"TH50","ADM0_EN":"Thailand","ADM0_TH":"ประเทศไทย","ADM0_PCODE":"TH"}},{"arcs":[[-20,65]],"type":"Polygon","properties":{"Shape_Leng":1.37438968615,"Shape_Area":0.0607091654776,"ADM2_EN":"Wiang Haeng","ADM2_TH":"เวียงแหง","ADM2_PCODE":"TH5020","ADM1_EN":"Chiang Mai","ADM1_TH":"เชียงใหม่","ADM1_PCODE":"TH50","ADM0_EN":"Thailand","ADM0_TH":"ประเทศไทย","ADM0_PCODE":"TH"}},{"arcs":[[-16,66,-42,67,-45]],"type":"Polygon","properties":{"Shape_Leng":1.33101577933,"Shape_Area":0.0452494989811,"ADM2_EN":"Chai Prakan","ADM2_TH":"ไชยปราการ","ADM2_PCODE":"TH5021","ADM1_EN":"Chiang Mai","ADM1_TH":"เชียงใหม่","ADM1_PCODE":"TH50","ADM0_EN":"Thailand","ADM0_TH":"ประเทศไทย","ADM0_PCODE":"TH"}},{"arcs":[[-9,-15,-39,-57,-49,68]],"type":"Polygon","properties":{"Shape_Leng":1.57727596119,"Shape_Area":0.0579489023876,"ADM2_EN":"Mae Wang","ADM2_TH":"แม่วาง","ADM2_PCODE":"TH5022","ADM1_EN":"Chiang Mai","ADM1_TH":"เชียงใหม่","ADM1_PCODE":"TH50","ADM0_EN":"Thailand","ADM0_TH":"ประเทศไทย","ADM0_PCODE":"TH"}},{"arcs":[[-22,69,-52]],"type":"Polygon","properties":{"Shape_Leng":1.31071581582,"Shape_Area":0.0407798775117,"ADM2_EN":"Mae On","ADM2_TH":"แม่ออน","ADM2_PCODE":"TH5023","ADM1_EN":"Chiang Mai","ADM1_TH":"เชียงใหม่","ADM1_PCODE":"TH50","ADM0_EN":"Thailand","ADM0_TH":"ประเทศไทย","ADM0_PCODE":"TH"}},{"arcs":[[-10,-69,-48,70]],"type":"Polygon","properties":{"Shape_Leng":0.840491165342,"Shape_Area":0.0182874082206,"ADM2_EN":"Doi Lo","ADM2_TH":"ดอยหล่อ","ADM2_PCODE":"TH5024","ADM1_EN":"Chiang Mai","ADM1_TH":"เชียงใหม่","ADM1_PCODE":"TH50","ADM0_EN":"Thailand","ADM0_TH":"ประเทศไทย","ADM0_PCODE":"TH"}},{"arcs":[[-13,71,-36]],"type":"Polygon","properties":{"Shape_Leng":1.45238666142,"Shape_Area":0.0526409860058,"ADM2_EN":"Galyani Vadhana","ADM2_TH":"กัลยาณิวัฒนา","ADM2_PCODE":"TH5025","ADM1_EN":"Chiang Mai","ADM1_TH":"เชียงใหม่","ADM1_PCODE":"TH50","ADM0_EN":"Thailand","ADM0_TH":"ประเทศไทย","ADM0_PCODE":"TH"}}]}}}