{"type":"Topology","arcs":[[[3372,8807],[5,-17],[21,-5],[-2,-20],[27,-10],[-2,-25],[16,5],[13,-37],[-11,-51],[13,11],[54,-66],[22,16],[17,-11],[112,14],[62,24],[72,1],[63,23],[66,8],[93,-5],[-38,-46],[-35,-53],[-14,-3],[-17,30],[-22,-9],[-27,-52],[-32,-40],[11,-31],[-12,-51],[-10,-13],[22,-67],[-13,-27],[14,-48],[-9,-5],[11,-32],[-17,-3],[13,-24],[28,-26],[25,-6]],[[3891,8156],[-7,-30],[-59,-53],[-3,-39],[67,-26],[23,-39],[3,-34],[-11,-37],[26,-13],[20,-55],[-37,-7],[-6,34],[-18,-7],[-17,9],[-23,-7],[-38,4],[-23,-14],[-58,40],[-22,21],[-27,-43],[-26,5],[12,-19],[34,-28],[44,-22],[4,-24],[17,20],[25,-8],[47,-30],[-2,-27],[-48,4],[-12,-16],[44,-6],[3,-34],[25,1],[0,-31],[21,0],[-9,-30],[34,-3],[25,-35],[6,-60],[18,-6],[19,-84],[15,-25],[-14,-54],[-5,-52],[20,-26],[-17,-30],[-31,-21],[-77,-64],[-28,-8],[-13,-38],[-4,-41],[-29,-27]],[[3779,7041],[-52,-18],[-46,26],[-24,-9],[-34,33],[-41,27],[-45,22],[-27,34],[-88,-69],[-76,-44],[-51,-2],[-44,-17],[-30,6],[-23,21],[-52,-3],[-16,-14],[-2,-22],[-15,-18],[-19,-43],[-3,-25],[-40,-17],[-12,-38],[-35,-30],[-10,-21],[19,-70],[19,-10],[-11,-32],[-3,-42],[-18,11],[-5,26],[-36,4],[-32,76],[-19,5],[-56,35],[-42,-30],[-39,-8],[-34,-16],[-84,-14]],[[2653,6755],[-16,61],[0,37],[-19,52],[2,31],[-42,106],[-52,93],[-50,68],[-92,102],[-32,21],[-15,21],[33,8],[15,17],[-4,40],[7,30],[-2,45],[33,-36],[31,-7],[42,3],[40,25],[16,42],[7,53],[-15,25],[12,43],[21,-2],[13,21],[-2,28],[19,24],[40,-7],[3,-11],[45,-8],[31,18],[18,20],[68,41],[52,5],[81,14],[73,33],[40,36],[19,46],[-19,7],[11,35],[30,0],[-9,45],[39,0],[-45,9],[26,9],[-19,9],[8,13],[41,10],[-8,13],[22,4],[12,30],[-25,38],[15,3],[-11,34],[9,3],[-4,54],[-26,42],[-47,103],[-31,61],[-32,79],[-20,59],[-3,53],[11,105],[15,49],[-65,51],[103,116],[43,-35],[20,-33],[13,0],[35,-28],[16,9],[26,-5],[44,20],[14,1],[64,-21],[17,-29],[29,1]],[[3891,8156],[48,4],[27,-23],[42,-16],[25,-24],[32,5],[40,-17],[11,-23],[19,16],[48,-6],[38,-19],[-20,-13],[-12,-44],[32,-7],[83,1],[-5,55],[49,-1],[30,-9],[9,-22],[-4,-65],[-24,-32],[5,-18],[29,4],[22,-16],[47,-10],[32,3],[-20,49],[26,37],[-12,36],[9,29],[61,-3]],[[4558,8027],[13,-72],[37,-23],[6,19],[-13,32],[-17,19],[-2,32],[48,2],[52,-11],[103,19],[19,-31],[32,-32],[24,1],[28,-12],[54,-48],[25,28],[-12,45],[19,25],[4,25],[21,-5],[25,-43],[18,8],[14,-13],[22,2],[1,-46],[30,-35],[15,4],[2,-20],[28,-13],[-8,-79],[8,-20],[43,1],[33,-26],[7,-52],[133,-7],[9,-57],[16,-14],[26,7],[51,-2],[49,-16],[11,-28],[39,-20],[20,6],[42,-17],[14,-21],[24,-3],[58,-22],[21,-39],[22,-6],[8,-17]],[[5780,7452],[15,-5],[60,5],[43,-40],[52,2],[57,-17],[21,-33],[25,-15],[44,-40],[10,-27],[28,-44],[22,2],[41,-31],[19,-30],[40,-20]],[[6257,7159],[-32,-21],[-24,-30],[-16,-46],[-17,-19],[19,-59],[-8,-18],[8,-26],[37,-42],[-1,-17],[59,-64],[-18,-1],[-35,-20],[-32,-33],[-37,-85],[-1,-38],[-20,-50],[-22,-23],[-37,-60],[3,-34],[114,-61],[-46,-51],[-32,-8],[-8,-14],[6,-42],[-5,-17],[-44,-31],[-51,-5],[-24,9],[-41,-24],[-9,-21],[-35,-17],[-12,-14],[-29,-11],[-22,6],[-1,-29],[-147,111],[-73,-37],[-13,-16],[1,-44],[-10,-27],[24,-44],[9,-38],[-5,-33],[-4,-86],[9,-10],[-18,-94],[-24,-42],[-23,-12],[56,-24],[9,-25],[-20,-51],[4,-65],[-3,-58],[41,-72],[22,-57],[-270,-12],[-67,-5]],[[5342,5402],[-77,-3],[-8,-15],[-22,12],[-57,51],[-21,34],[-21,0],[-23,37],[-21,2],[-28,48],[-28,17],[4,18],[-14,14],[-24,1],[-22,37],[-37,23],[-59,5],[-24,-4],[-28,39],[10,29],[-66,26],[-24,-5],[-14,19],[-48,32],[-12,41],[-36,75],[-12,117],[-14,22],[-47,19],[-23,43],[-38,28],[-23,48],[-26,8],[-21,-4],[-33,9],[-45,-5],[-27,6],[-15,-8],[-49,22],[-110,2],[-48,26],[-70,67],[-26,51],[-24,23],[-40,14],[-6,38],[8,26],[28,19],[13,31],[-11,35],[-41,-2],[-30,19],[-33,8],[-5,50],[-30,78],[6,23],[24,0],[2,13],[-20,77],[12,27],[2,26],[-32,14],[-21,78],[7,33],[-16,17],[-29,8]],[[6257,7159],[31,-32],[31,-45],[35,-38],[15,-25],[38,-27],[31,16],[31,-13],[26,-31],[52,-3],[19,-6],[-3,-24],[12,-30],[36,-57],[55,-59],[19,-43],[52,-46],[52,-72],[47,-84],[38,-55],[20,-19],[18,-42],[25,-30],[22,3],[42,-56],[48,-55],[22,-13],[56,-87],[28,-55],[31,-35],[-9,-29],[64,-53],[60,-77],[44,-27],[25,14],[1,37],[-10,30],[26,6],[45,-54],[66,-42],[24,-3],[20,-30],[5,-22],[32,-5],[53,12],[60,26],[34,24],[23,-7],[37,3],[54,54],[73,13],[47,-20],[8,-33],[52,-28],[24,-38],[25,10],[23,-34],[28,-11],[14,-20],[6,-36],[-2,-58],[-10,-18],[37,-48],[26,0],[22,-16],[26,-51],[18,0],[-5,-36],[9,-13],[36,-7],[9,-19],[-10,-15],[17,-13],[-8,-42],[6,-19],[-13,-40],[24,-9],[16,-25],[-6,-13],[38,-21],[21,-72]],[[8391,5221],[-22,-15],[-5,12],[-35,0],[-37,-11],[-4,13],[-51,-11],[-15,24],[-32,9],[-27,20],[-21,-19],[10,-28],[-41,-31],[-19,5],[-21,-21],[13,-22],[6,-49],[-111,-9],[-108,-2],[-56,4],[13,-54],[23,-15],[-55,-2],[-32,-20],[-17,9],[-6,-15],[-30,5],[-46,31],[-19,-24],[-23,-64],[50,-64],[27,-28],[0,-40],[-20,-17],[-39,32],[-8,-8],[-27,34],[-36,15],[-22,23],[-14,-7],[-23,39],[-11,2],[-11,29],[-31,35],[-17,3],[-18,26],[-22,-4],[-51,15],[-22,-44],[-53,-12],[-16,-27],[-28,-27],[-21,-4],[-13,-29],[6,-29],[-11,-10],[-11,-39],[-50,-18],[-32,-20],[-38,11],[-23,33],[-21,-26],[-50,-5],[-21,39],[-61,39],[-43,53],[-36,11],[-43,29],[-26,-4],[-47,20],[-25,57],[-30,46],[-17,14],[-29,0],[-27,17],[-25,54],[-36,31],[-10,36],[-24,25],[-48,2],[-41,59],[-57,22],[-68,-28],[-50,-44],[-6,-26],[-32,-4],[-22,14],[-13,-14],[-34,-10],[-22,-42],[-35,-7],[-19,-16],[-3,-36],[8,-21],[-10,-20],[-22,18],[-31,4],[-76,0],[-66,22],[-24,14],[-40,39],[-6,35],[-36,33],[-42,0],[-22,8],[-73,-57],[-29,-32],[-18,-8],[-42,11],[-56,48],[-64,36],[-28,21]],[[5340,5268],[6,79],[-10,21],[6,34]],[[246,3326],[-23,6],[19,50],[-9,60],[11,34],[11,-3],[17,-60],[-26,-87]],[[312,3621],[-28,33],[-1,25],[13,2],[25,-39],[-9,-21]],[[1490,3856],[-11,6],[-15,41],[15,6],[13,-15],[-2,-38]],[[1335,3908],[1,-62],[-6,-29],[-22,-32],[1,-32],[-38,-42],[-7,-46],[-21,-37],[-63,-31],[-26,47],[-9,64],[-35,46],[16,38],[11,94],[22,8],[50,-19],[19,3],[16,27],[20,6],[26,40],[30,24],[20,-10],[-9,-18],[4,-39]],[[1357,4038],[27,9],[-10,-25],[-30,-11],[-17,36],[30,-9]],[[309,4078],[-2,-47],[-23,-10],[3,-33],[21,0],[21,-29],[9,-46],[23,-31],[-21,-54],[-24,-21],[-53,-7],[-39,47],[-34,75],[-11,63],[-30,34],[-5,23],[11,17],[30,-3],[22,16],[47,19],[24,19],[20,-7],[11,-25]],[[54,4209],[11,-40],[-37,-56],[-23,-11],[-5,32],[10,16],[1,59],[37,10],[6,-10]],[[4065,4589],[19,-12],[54,-47],[5,-38],[28,-38],[3,-51],[-13,-23],[10,-33],[21,-30],[54,-9],[13,-8],[-8,-22],[-27,-33],[-10,-28],[-30,-26],[-15,6],[-23,-19],[-11,-57],[6,-18],[-19,-38],[25,-50],[-16,-12],[-2,-44],[-9,-36],[-20,-11],[19,-59],[-4,-38],[4,-47],[-40,-57],[-48,-18],[-29,-33],[43,-36],[-16,-14],[8,-26],[-50,-25],[-22,-47],[18,-23],[-19,-17],[23,-30],[-34,-46],[-34,-65],[-16,-58],[-33,-29],[0,-46],[27,-13],[-11,-67],[-14,-37],[15,-20],[-7,-47],[-48,-55],[-3,-24],[-29,-9],[-20,-22],[-3,-18],[-23,-22],[7,-22],[-54,-31],[-29,6],[-18,-10],[-28,8],[-41,-32],[-23,-64],[-33,0],[-82,-43],[0,-18],[-39,-89],[12,-100],[-23,-22],[1,-45]],[[3404,2402],[-48,11],[-34,0],[-54,-16],[-30,1],[-22,-18],[0,-17],[-26,2],[-50,-25],[-16,-30],[-44,49],[-20,58],[0,29],[-39,18],[-17,16],[-24,4],[-9,-16],[-46,-31],[-53,48],[-18,80],[-15,21],[-5,39],[-18,33],[-35,7],[-35,25],[-58,9],[-16,-6],[-32,17],[-17,-5],[-14,14],[5,29],[-3,116],[-30,16],[-18,-6],[-27,47],[7,54],[0,84],[5,75],[-16,78],[-19,31],[-30,23],[-21,50],[-116,-5],[-48,-12]],[[2298,3299],[-59,90],[-65,83],[-92,107],[-100,102],[-33,37],[13,40],[-12,23],[2,27],[26,17],[-2,29],[22,12],[14,37],[20,-33],[43,-11],[62,33],[51,56],[15,29],[14,69],[-5,40],[-9,2],[-6,59],[18,15],[2,35],[-15,82],[26,0],[44,18],[21,21],[20,-14],[-6,-11],[29,-2],[13,-15],[24,5],[34,24],[67,56],[69,76],[17,28],[20,62],[9,-2],[26,79],[7,35],[-3,55],[-10,61],[-19,55],[-33,69],[-26,36]],[[2531,4915],[15,25],[-17,11],[-13,29],[9,36],[-44,136],[48,41],[17,-10],[27,10],[23,-2],[16,11],[52,7],[5,36],[16,14],[4,25],[62,11],[14,-7],[50,38],[30,7],[4,-127],[9,-96],[2,-95],[5,-33],[38,36],[24,3],[19,17],[30,-7],[19,11],[51,-7],[24,4],[43,-12],[11,-17],[20,-3],[25,-19],[24,-42],[29,-16],[59,0],[16,-9],[42,6],[39,-31],[16,-33],[26,-8],[10,-43],[29,-45],[38,-5],[31,56],[16,-34],[26,-9],[35,2],[19,14],[35,4],[77,-20],[52,-22],[40,-23],[15,-23],[-2,-23],[16,-11],[30,-42],[14,-6],[37,7],[15,-6],[15,-35],[28,-26],[31,-1],[38,25]],[[3372,8807],[22,20],[24,-6],[11,55],[-10,10],[-27,-21],[-15,19],[21,39],[33,-17],[12,32],[34,4],[22,17],[14,-17],[37,-12],[51,11],[58,50],[-33,50],[30,15],[19,23],[-12,27],[29,32],[76,68],[-5,24],[-20,13],[12,16],[29,12],[36,-15],[17,4],[33,-13],[43,16],[8,-48],[49,-4],[11,23],[-53,82],[25,21],[-5,20],[-28,50],[41,4],[-17,25],[11,22],[-15,2],[14,41],[-9,7],[-33,-8],[-22,6],[8,13],[-41,21],[-30,-10],[-9,30],[-12,7],[11,48],[-37,-4],[-3,17],[-42,-2],[-54,8],[2,27],[21,58],[39,2],[33,-16],[30,-49],[79,33],[46,14],[14,-20],[39,-8],[26,11],[57,-5],[2,-24],[38,9],[8,27],[32,-7],[0,-16],[26,0],[24,22],[4,19],[21,-11],[44,17],[-16,18],[4,15],[28,16],[-4,14],[44,34],[36,6],[39,-47]],[[4397,9773],[16,-30],[66,-26],[6,-20],[37,-40],[-43,-45],[-13,-38],[-14,-11],[-44,0],[-22,-33],[-20,-14],[2,-20],[-30,-41],[18,-21],[-18,-65],[-10,3],[-27,-48],[4,-37],[-44,-18],[-1,-23],[25,-42],[-23,-13],[16,-17],[2,-27],[32,-14],[16,-22],[48,1],[18,-13],[45,0],[23,-20],[36,-8],[29,-28],[-25,-24],[-40,-15],[-7,-14],[16,-104],[-2,-86],[-17,-37],[9,-35],[46,-20],[9,-27],[28,8],[-6,-36],[14,-28],[13,4],[12,-26],[24,-17],[-2,-58],[-22,-33],[-25,-65],[-2,-23],[15,-61],[-29,-47],[-7,-24],[-50,-90],[-8,-25],[15,-34],[28,-40],[-5,-20],[49,-39]],[[4397,9773],[32,1],[76,45],[-12,41],[7,36],[54,19],[14,31],[32,40],[31,13],[34,-25],[37,-8],[15,-14],[42,18],[23,-12],[116,3],[100,16],[27,-13],[147,-9],[141,-50],[-4,-21],[79,-7],[31,-17],[32,-1],[53,-35],[102,-8],[41,-9],[-1,-27],[27,-3],[2,10],[42,-3],[7,12],[63,-6],[42,-37],[-2,-18],[29,-45],[-1,-19],[44,-27],[27,0],[11,-32],[34,-27],[2,-30],[27,-44],[39,-26],[9,-32],[-13,-12],[9,-32],[40,-5],[18,-26],[2,-26],[21,-14],[56,-10],[15,-38],[24,-26],[7,-41],[17,0],[31,-31],[10,1],[27,-38],[42,-13],[19,-20],[50,-9],[14,-29],[26,-26],[28,-12],[22,-25],[23,-4],[10,-20],[25,-3],[23,-50],[35,-28],[-2,-23],[34,-41],[37,-20],[16,5]],[[6714,8837],[15,-2],[71,-45],[3,-11],[-29,-25],[-10,-25],[-27,-33],[-68,-11],[-70,-44],[-22,-7],[-34,-24],[-63,-67],[-75,19],[-33,-64],[-84,62],[-71,32],[-34,23],[-55,11],[-36,-39],[-58,-30],[-58,-18],[-45,-7],[-2,-61],[-32,-2],[-77,-61],[0,-20],[15,-27],[1,-32],[-13,-159],[-18,-72],[-4,-37],[11,-13],[-6,-27],[-25,-3],[-3,-32],[21,-15],[36,-6],[-32,-145],[62,-17],[46,-32]],[[5911,7771],[-4,-38],[-26,-12],[9,-10],[-25,-20],[4,-21],[-53,-14],[-4,-105],[-32,-99]],[[5340,5268],[-35,-4],[-28,8],[-31,-8],[9,27],[-22,3],[-25,23],[-64,31],[-33,24],[-19,-10],[-59,-6],[-39,-19],[-26,-5],[-42,-54],[-19,-64],[16,-57],[-3,-29],[-11,-3],[-13,-34],[52,-16],[4,-18],[58,8],[40,12],[54,-22],[8,-95],[-34,-14],[-30,-29],[-23,-50],[-17,-70],[-93,11],[5,-73],[-10,12],[-54,29],[-11,11],[-31,-2],[-41,7],[-28,35],[-25,5],[-25,-17],[-64,-67],[-78,-45],[-7,2],[-25,53],[-34,40],[-23,3],[-39,42],[-59,19],[-42,-11],[-55,-46],[-42,25],[-31,28],[-21,5],[-24,-47],[-5,-46],[-15,-24],[-5,-29],[-31,-48],[-11,-34],[2,-33],[-21,-13]],[[2531,4915],[-33,52],[-203,-57],[-24,75],[149,43],[-13,45],[-149,-42],[-8,25],[-32,50],[117,67],[-9,33],[-130,-68],[-37,71],[72,41],[-16,29],[-32,16],[-28,2],[-31,-38],[-26,4],[0,59],[29,46],[14,83],[18,40],[5,59],[20,36],[31,31],[36,19],[10,14],[39,3],[33,29],[18,40],[-7,72],[11,18],[-6,28],[17,40],[58,32],[2,20],[16,17],[9,34],[28,16],[9,32],[24,5],[15,29],[36,13],[29,34],[13,83],[23,30],[6,95],[32,6],[34,101],[-16,43],[-3,45],[18,25],[-3,49],[-16,36],[-2,31],[-12,31],[-13,68]],[[1524,5642],[1,-39],[-53,-24],[12,21],[-12,29],[12,14],[14,-9],[26,8]],[[1649,6129],[32,-16],[-8,-37],[-18,-12],[-30,16],[7,21],[-9,20],[6,22],[20,-14]],[[1504,6204],[-8,-28],[21,-36],[-19,-45],[15,-55],[31,-17],[1,-20],[26,-52],[18,-13],[26,0],[-19,-12],[4,-19],[-8,-37],[44,-13],[-31,0],[7,-25],[-28,-37],[-11,-30],[-46,-39],[-12,-19],[-19,20],[4,51],[-6,20],[-35,34],[37,44],[-7,26],[-32,17],[-22,-9],[-11,15],[43,9],[-5,33],[15,14],[-34,36],[-10,42],[-21,2],[15,16],[-8,35],[25,22],[-10,40],[12,33],[23,-13],[27,22],[8,-12]],[[3404,2402],[12,-58],[21,-23],[-32,-31],[0,-16],[-32,-18],[2,-19],[-11,-45],[-43,-67],[6,-30],[-43,-35],[-35,-6],[-43,-39],[5,-29],[33,-77],[-26,-19],[-3,-21],[-18,-13],[2,-32],[-18,-10],[-5,-31],[-13,-15],[15,-8],[-20,-17],[-10,-41],[24,-21],[9,-41],[14,-5],[7,-49],[21,-35],[-30,-57],[20,-16],[13,-30],[-11,-12],[13,-20],[-11,-8],[12,-16],[-8,-20],[-115,-39],[-58,-26],[-33,-22],[-20,-24],[1,-25],[24,-16],[-45,-38],[-16,-23],[-9,-41],[22,-54],[6,-54],[8,-6],[-30,-52],[4,-28],[-12,-14],[-9,-36],[12,-30],[2,-34],[-32,-1],[-9,24],[-35,37],[-42,6],[-14,-25],[-41,-6],[0,31],[-61,48],[-34,15],[-41,0],[-6,-18],[-18,5],[-18,-25],[-14,25],[5,42],[-35,38],[-14,30],[-32,30],[-26,1],[4,46],[43,-3],[26,11],[4,30],[53,-8],[2,12],[-17,43],[24,31],[1,24],[18,23],[-24,32],[-52,54],[-36,27],[-60,26],[-67,13],[-104,-12],[-41,-36],[-19,-32],[-70,-2],[-79,-12],[-51,-33],[-23,30],[-42,-2],[-37,-26],[-20,-4],[-26,14],[-14,34],[9,20],[42,4],[9,14],[33,10],[32,40],[0,39],[-29,57],[-27,25],[-35,-14],[-25,13],[-20,-6],[-41,-47],[-4,32],[-15,23],[17,33],[-20,28],[69,51],[26,1],[12,20],[41,18],[-5,20],[-21,-4],[-31,36],[-34,-8],[-12,-26],[-14,-1],[-36,30],[-21,-2],[-4,49],[22,24],[3,17],[-19,26],[-37,31],[13,61],[17,23],[-2,48],[-18,43],[-9,5],[26,72],[29,8],[12,22],[0,32],[-14,32],[11,22],[36,11],[13,-12],[42,-2],[47,28],[10,22],[-19,28],[10,26],[41,25],[49,7],[41,19],[19,-5],[12,-27],[20,-11],[6,-32],[41,-8],[84,25],[37,25],[40,36],[31,39],[28,49],[21,73],[22,34],[5,34],[18,55],[1,19],[21,42],[-11,55],[-1,52],[-16,57],[-15,25],[-8,43],[-50,126],[-40,81],[2,11],[-48,81]],[[3031,140],[26,-39],[1,-47],[-17,-2],[-17,23],[-36,18],[-11,34],[10,12],[44,1]],[[2883,209],[9,-9],[25,-71],[9,-50],[-17,-27],[-4,-46],[-16,-6],[-23,49],[-19,13],[4,52],[10,26],[-10,66],[32,3]],[[3029,365],[-9,5],[1,40],[14,-11],[-6,-34]],[[2693,606],[-23,-6],[-6,-18],[-16,20],[29,11],[7,22],[9,-29]],[[2800,741],[33,-17],[35,1],[-3,-56],[14,-16],[21,-113],[9,-17],[23,1],[18,-31],[-15,-25],[-34,-15],[-41,-37],[-9,-30],[-16,26],[9,39],[-24,60],[12,18],[-29,25],[-5,39],[-28,32],[-12,57],[29,10],[13,49]],[[2963,757],[21,-34],[-2,-46],[-57,2],[-7,40],[13,40],[14,8],[18,-10]],[[2528,852],[-15,31],[9,24],[6,-55]],[[2146,947],[-23,28],[12,15],[11,-43]],[[2170,1016],[38,-6],[1,-10],[-37,-6],[-16,18],[14,4]],[[2387,1081],[-4,-23],[-24,1],[-4,30],[16,15],[16,-23]],[[2118,1243],[3,-31],[31,-16],[-12,-15],[-20,3],[-14,-15],[-36,-11],[-17,29],[-29,24],[15,28],[79,4]],[[2287,1276],[-1,-32],[-11,-6],[-57,8],[-29,19],[-35,-1],[2,11],[79,-10],[45,28],[7,-17]],[[1650,1557],[15,-26],[-22,3],[-1,20],[-14,13],[5,21],[18,-14],[-1,-17]],[[1202,1964],[15,-4],[23,-25],[34,-3],[27,15],[27,1],[30,-16],[66,17],[33,-8],[-3,-23],[13,-31],[6,-51],[-12,-36],[20,-30],[3,-33],[-28,-21],[-2,-13],[-35,-17],[-37,-8],[-50,-68],[13,-25],[-32,-43],[-37,-11],[-23,-20],[-26,2],[-18,17],[0,17],[22,12],[-19,30],[-20,95],[-43,58],[-56,57],[-1,40],[10,62],[23,-6],[13,-37],[3,-33],[26,-4],[36,20],[-12,34],[13,19],[-14,16],[2,30],[-11,16],[21,8]],[[1423,2023],[-13,-4],[-8,27],[21,-23]],[[1887,2338],[-46,-12],[-45,6],[-2,13],[67,20],[26,-27]],[[528,2677],[11,-24],[-20,-10],[-16,27],[-26,12],[-1,39],[15,8],[40,-20],[-3,-32]],[[5911,7771],[75,-15],[45,11],[22,15],[72,-15],[38,0],[50,-17],[36,-22],[38,-5],[57,6],[104,-70],[49,-39],[8,75],[51,0],[17,16],[42,12],[11,-12],[25,0],[40,42],[34,8],[60,1],[77,10],[64,20],[58,39],[15,26],[93,51],[23,38],[30,17],[14,27],[34,10],[58,-3],[51,-39],[25,-44],[36,-29],[52,-15],[66,-5],[23,-11],[53,31],[49,3],[52,-47],[25,-54],[17,-13],[16,6],[63,42],[60,26],[62,57],[46,18],[77,35],[74,58],[-2,35],[9,9],[75,31],[35,3],[36,-8],[32,19],[15,21],[60,3],[25,-13],[13,6]],[[8396,8122],[7,-26],[-6,-31],[-13,-21],[29,-24],[-4,-45],[27,-21],[25,11],[19,-14],[4,-42],[-8,-20],[22,-78],[-2,-50],[35,-69],[22,-3],[6,-19],[-8,-38],[5,-18],[40,-14],[38,0],[16,22],[42,10],[33,-31],[-3,-66],[22,-24],[36,-17],[22,-20],[14,-45],[21,-7],[21,8],[16,-34],[10,-47],[100,-30],[29,4],[17,20],[34,-4],[23,-37],[37,-18],[55,2],[31,-26],[45,-4],[24,-27],[32,-20],[14,-20],[35,-9],[9,-22],[30,-30],[13,-24],[21,-13],[72,-7],[26,-22],[34,-123],[39,-40],[66,-32],[32,-83],[19,-112],[48,-76],[66,-47],[22,-58],[35,-27],[43,-9],[10,-39],[-2,-60],[-7,-16],[39,-101],[24,-24],[-1,-34],[-23,-19],[6,-40],[-14,-18],[-6,-46],[-50,-20],[-65,-1],[-24,-33],[-20,-40],[-15,-8],[3,-18],[-10,-32],[-32,-3],[-24,14],[-78,6],[-19,9],[-25,31],[-29,25],[-42,-21],[-37,22],[-38,-10],[-14,39],[-20,2],[-9,25],[-31,-13],[-32,10],[-13,20],[-45,-9],[-28,-21],[-48,-5],[-10,-53],[-55,-44],[-17,-23],[-36,-24],[-2,-31],[-41,2],[-19,-33],[-26,-14],[-64,2],[-18,-16],[-62,-2],[-23,14],[-88,-43],[-33,-26],[21,-32],[3,-19],[-50,-54],[6,-32],[-25,-56],[-3,-44],[-9,-17],[11,-50],[-28,-19],[-6,-59],[-15,-4],[-41,14],[-11,-36],[-47,-49],[-29,-22],[-10,2],[-30,-25],[-68,-13]],[[6714,8837],[42,44],[57,14],[59,-6],[75,48],[20,4],[77,-17],[54,-20],[12,-11],[5,-35],[-15,-32],[-52,-63],[-2,-50],[64,13],[28,-15],[41,31],[10,-1],[107,-64],[50,30],[36,-55],[60,-2],[22,-28],[45,-15],[1,-14],[45,-41],[13,10],[77,-54],[13,-29],[34,26],[27,39],[6,34],[33,14],[20,-2],[-9,25],[58,20],[34,26],[38,-55],[13,-32],[-7,-21],[-31,-23],[-3,-24],[29,-38],[20,-11],[37,-54],[14,-58],[68,-5],[33,25],[12,39],[47,58],[47,4],[58,22],[14,11],[16,-13],[2,-30],[-14,-9],[0,-29],[10,-33],[33,-8],[48,-69],[1,-15],[26,-56],[22,-18],[-4,-39],[21,-39],[-15,-19]]],"transform":{"scale":[0.00010724622942294427,0.00010815556755675402],"translate":[100.64686028100004,12.507871481000052]},"objects":{"Chon Buri":{"type":"GeometryCollection","geometries":[{"arcs":[[0,1,2,3]],"type":"Polygon","properties":{"Shape_Leng":1.02862853364,"Shape_Area":0.0217896442525,"ADM2_EN":"Mueang Chon Buri","ADM2_TH":"เมืองชลบุรี","ADM2_PCODE":"TH2001","ADM1_EN":"Chon Buri","ADM1_TH":"ชลบุรี","ADM1_PCODE":"TH20","ADM0_EN":"Thailand","ADM0_TH":"ประเทศไทย","ADM0_PCODE":"TH"}},{"arcs":[[-2,4,5,6,7,8]],"type":"Polygon","properties":{"Shape_Leng":1.33288231242,"Shape_Area":0.0493323968642,"ADM2_EN":"Ban Bueng","ADM2_TH":"บ้านบึง","ADM2_PCODE":"TH2002","ADM1_EN":"Chon Buri","ADM1_TH":"ชลบุรี","ADM1_PCODE":"TH20","ADM0_EN":"Thailand","ADM0_TH":"ประเทศไทย","ADM0_PCODE":"TH"}},{"arcs":[[-8,9,10,11]],"type":"Polygon","properties":{"Shape_Leng":1.3464600982,"Shape_Area":0.0380427442023,"ADM2_EN":"Nong Yai","ADM2_TH":"หนองใหญ่","ADM2_PCODE":"TH2003","ADM1_EN":"Chon Buri","ADM1_TH":"ชลบุรี","ADM1_PCODE":"TH20","ADM0_EN":"Thailand","ADM0_TH":"ประเทศไทย","ADM0_PCODE":"TH"}},{"arcs":[[[12]],[[13]],[[14]],[[15]],[[16]],[[17]],[[18]],[[19,20,21,22]]],"type":"MultiPolygon","properties":{"Shape_Leng":1.46554650482,"Shape_Area":0.0455238550012,"ADM2_EN":"Bang Lamung","ADM2_TH":"บางละมุง","ADM2_PCODE":"TH2004","ADM1_EN":"Chon Buri","ADM1_TH":"ชลบุรี","ADM1_PCODE":"TH20","ADM0_EN":"Thailand","ADM0_TH":"ประเทศไทย","ADM0_PCODE":"TH"}},{"arcs":[[-1,23,24,-5]],"type":"Polygon","properties":{"Shape_Leng":0.94578564851,"Shape_Area":0.0137894662152,"ADM2_EN":"Phan Thong","ADM2_TH":"พานทอง","ADM2_PCODE":"TH2005","ADM1_EN":"Chon Buri","ADM1_TH":"ชลบุรี","ADM1_PCODE":"TH20","ADM0_EN":"Thailand","ADM0_TH":"ประเทศไทย","ADM0_PCODE":"TH"}},{"arcs":[[-6,-25,25,26,27]],"type":"Polygon","properties":{"Shape_Leng":1.17825091722,"Shape_Area":0.0402094994856,"ADM2_EN":"Phanat Nikhom","ADM2_TH":"พนัสนิคม","ADM2_PCODE":"TH2006","ADM1_EN":"Chon Buri","ADM1_TH":"ชลบุรี","ADM1_PCODE":"TH20","ADM0_EN":"Thailand","ADM0_TH":"ประเทศไทย","ADM0_PCODE":"TH"}},{"arcs":[[-3,-9,-12,28,-23,29]],"type":"Polygon","properties":{"Shape_Leng":1.49082523803,"Shape_Area":0.0510371616869,"ADM2_EN":"Si Racha","ADM2_TH":"ศรีราชา","ADM2_PCODE":"TH2007","ADM1_EN":"Chon Buri","ADM1_TH":"ชลบุรี","ADM1_PCODE":"TH20","ADM0_EN":"Thailand","ADM0_TH":"ประเทศไทย","ADM0_PCODE":"TH"}},{"arcs":[[[30]],[[31]],[[32]]],"type":"MultiPolygon","properties":{"Shape_Leng":0.25100603777,"Shape_Area":0.000589228975349,"ADM2_EN":"Ko Si Chang","ADM2_TH":"เกาะสีชัง","ADM2_PCODE":"TH2008","ADM1_EN":"Chon Buri","ADM1_TH":"ชลบุรี","ADM1_PCODE":"TH20","ADM0_EN":"Thailand","ADM0_TH":"ประเทศไทย","ADM0_PCODE":"TH"}},{"arcs":[[[-21,33]],[[34]],[[35]],[[36]],[[37]],[[38]],[[39]],[[40]],[[41]],[[42]],[[43]],[[44]],[[45]],[[46]],[[47]],[[48]],[[49]],[[50]]],"type":"MultiPolygon","properties":{"Shape_Leng":1.77270425753,"Shape_Area":0.023672684815,"ADM2_EN":"Sattahip","ADM2_TH":"สัตหีบ","ADM2_PCODE":"TH2009","ADM1_EN":"Chon Buri","ADM1_TH":"ชลบุรี","ADM1_PCODE":"TH20","ADM0_EN":"Thailand","ADM0_TH":"ประเทศไทย","ADM0_PCODE":"TH"}},{"arcs":[[-7,-28,51,52,-10]],"type":"Polygon","properties":{"Shape_Leng":1.48962190819,"Shape_Area":0.0693119366414,"ADM2_EN":"Bo Thong","ADM2_TH":"บ่อทอง","ADM2_PCODE":"TH2010","ADM1_EN":"Chon Buri","ADM1_TH":"ชลบุรี","ADM1_PCODE":"TH20","ADM0_EN":"Thailand","ADM0_TH":"ประเทศไทย","ADM0_PCODE":"TH"}},{"arcs":[[-27,53,-52]],"type":"Polygon","properties":{"Shape_Leng":0.904587308021,"Shape_Area":0.0223314667888,"ADM2_EN":"Ko Chan","ADM2_TH":"เกาะจันทร์","ADM2_PCODE":"TH2011","ADM1_EN":"Chon Buri","ADM1_TH":"ชลบุรี","ADM1_PCODE":"TH20","ADM0_EN":"Thailand","ADM0_TH":"ประเทศไทย","ADM0_PCODE":"TH"}}]}}}