{"type":"Topology","arcs":[[[7546,5020],[14,-4],[-29,-17],[3,27],[12,-6]],[[7324,5023],[-15,3],[12,22],[36,30],[3,-22],[-36,-33]],[[6022,5288],[-22,10],[18,15],[4,-25]],[[7638,5303],[2,20],[23,7],[-25,-27]],[[7799,5432],[5,-16],[-23,-28],[-18,8],[8,21],[28,15]],[[7471,5491],[-12,31],[10,5],[2,-36]],[[8175,5617],[-45,-38],[-11,-30],[-54,-23],[-37,-5],[-25,-15],[21,41],[39,14],[29,23],[22,2],[66,54],[-5,-23]],[[7693,5740],[30,19],[11,-5],[-41,-14]],[[7560,5878],[15,-19],[-49,-39],[-23,-9],[-57,5],[-47,15],[5,30],[16,18],[47,1],[-4,15],[19,29],[44,19],[7,-36],[27,-29]],[[8209,6028],[-25,12],[31,0],[-6,-12]],[[8875,6223],[-7,6],[29,36],[-22,-42]],[[6454,6824],[60,-24],[73,-3],[21,15],[27,-11],[48,7],[101,-24],[-9,-11],[15,-20],[30,-4],[32,11],[57,31],[22,-38],[35,-19],[27,-5],[27,-25],[31,-13],[69,3],[31,-39],[60,-16],[78,-2]],[[7289,6637],[-19,-15],[-23,-47],[-41,-20],[-66,3],[-30,-25],[-40,4],[-32,20],[-19,-1],[-22,14],[-50,3],[-43,-5],[-35,-24],[-31,-50],[-7,-44],[7,-31],[44,-69],[23,-20],[29,0],[33,-22],[8,14],[97,32],[38,1],[47,22],[-51,-68],[-5,-22],[-123,-36],[-39,-19],[-45,-5],[-31,5],[-7,16],[-76,0],[-5,-19],[-23,-10],[-22,-43],[-5,-47],[20,-68],[35,-55],[46,-48],[63,-54],[50,-21],[41,9],[11,-24],[18,-10],[74,-59],[59,-33],[71,-24],[47,-4],[5,-49],[40,-14],[26,-23],[27,6],[-12,-32],[7,-24],[-39,-32],[1,-17],[46,-92],[-5,-57],[16,-13],[-6,-24],[12,-16],[-22,-34],[-53,-22],[-15,-34],[-47,-3],[-12,-9],[-2,28],[-24,9],[-74,-4],[1,29],[-27,12],[-79,-5],[-72,-33],[-53,-49],[-46,-51],[-38,32],[-37,14],[-18,34],[-19,14],[-36,6],[-27,22],[-98,42],[-16,0],[-28,19],[-54,15],[-124,10],[2,-8],[-121,-17],[-49,-16],[-137,-29],[-26,11],[-48,-16],[6,-27],[-9,-20],[-22,-1],[-35,-28],[-17,5],[-25,-17],[1,-12],[-35,11],[-21,-9],[15,-9],[-18,-10],[-3,-23],[39,-44],[45,-34],[0,-19],[-24,-20],[-17,-29],[5,-45],[-19,-29]],[[5845,4958],[-34,2],[7,30],[-20,11],[-38,-2],[-7,14],[-21,0],[-40,24],[-32,-16],[-4,13],[-31,0],[-29,13],[-22,0],[16,-17],[-22,5],[-28,-15],[-35,16],[-48,6],[-20,-9],[-45,21],[-20,-7],[-52,19],[-8,23],[-39,4],[9,11],[-29,21],[-36,12],[19,13],[-4,20],[-32,30],[-86,41],[-10,-11],[-25,16],[-50,18],[-5,17],[-36,2],[-26,21],[-39,12],[-4,22],[-38,17],[-2,27],[-12,19],[-52,30],[-19,-6],[-17,19],[-33,7],[-38,33],[-4,17],[-39,13],[-24,-8],[-39,27],[-12,18],[-37,-2],[-16,8],[-24,-11],[-32,5],[-46,53],[-7,16],[12,40],[-28,2],[-2,31],[-25,6],[-13,38],[-36,17],[-83,15],[-22,25],[-79,13],[-67,-4],[-32,9],[-44,3],[-30,-11],[-3,-26],[-36,-18],[-5,-18],[8,-31],[-53,-61],[-42,-22],[-34,-32],[0,-26],[-23,-60],[-8,-41],[-26,-8],[-31,-31],[-49,23],[-58,18],[-45,1],[-25,-8],[-30,8],[-49,-8]],[[3470,5464],[-68,8],[-20,8],[4,35],[-14,28],[-38,7],[-40,-7],[-39,11],[-28,-11],[-20,10],[-31,0],[-35,13],[-41,-8],[-30,5],[1,15],[36,43],[-5,33],[-61,10],[-16,14],[-43,16],[16,40],[-9,7],[-5,41],[28,12],[1,22],[-19,21],[11,24],[-32,2],[-5,32],[-32,19],[-29,26],[21,28],[-54,7],[42,39],[7,17],[23,12],[0,20],[29,13],[21,27],[-6,50],[38,11],[29,19],[68,17],[34,-2],[28,18],[-2,21],[26,39],[44,32],[0,18],[84,44],[117,-3],[34,18],[69,13],[-1,33],[37,49],[59,46],[102,25]],[[3756,6551],[36,-20],[29,0],[29,19],[8,31],[51,16],[59,26],[35,-3],[20,15],[29,-1],[29,12],[55,-16],[83,-33],[106,14],[41,-12],[35,-2],[32,-11],[31,5],[13,-7],[100,-18],[43,-27],[37,5],[33,17],[59,9],[32,43],[24,3],[31,17],[54,0],[31,21],[-11,32],[11,22],[-5,27],[34,27],[60,2],[8,-8],[28,8],[43,-4],[64,-13],[47,-28],[14,17],[77,8],[9,16],[17,-8],[58,-8],[34,-36],[46,-1],[6,-19],[42,4],[85,99],[3,41],[64,12],[70,-9],[46,15],[49,26],[39,39],[49,-3],[18,-10],[71,-8],[62,-16],[31,9],[37,-7],[46,-38],[52,-31],[17,28],[53,-49],[-4,-40],[26,-18],[37,16],[-8,20],[22,8],[-2,13],[34,4],[-11,16],[12,13],[38,-10],[15,12]],[[3756,6551],[1,15],[-61,33],[-32,8],[-5,14],[-39,21],[-33,7],[-42,37],[10,20],[-40,56],[22,4],[74,27],[44,31],[34,5],[39,37],[1,20],[16,22],[3,43],[33,58],[-40,21],[-27,57],[-58,-26],[-75,-13],[-21,7],[-2,18],[16,27],[-1,24],[33,51],[-5,11],[23,45],[-34,19],[7,26],[-68,22],[-41,23],[-8,-10],[-42,10],[-79,1],[-2,23],[-20,17],[10,37],[35,42],[-11,11],[16,28],[-47,18],[-6,18],[-48,16],[-50,-7],[-41,3],[-48,-15],[-1,26],[24,18],[3,15],[-16,41],[-37,5],[-17,-8],[-22,-33],[-55,-25],[-36,-10],[-3,32],[-26,18],[-4,29],[-15,22],[64,34],[9,18],[21,11],[17,24],[-20,19],[9,13],[32,12],[1,27],[21,18],[2,24],[27,7],[-9,28],[44,25],[19,28],[-12,27],[24,8],[24,37],[-41,16],[-20,23],[-72,-3],[-54,-6],[-1,19],[-46,21],[-5,18],[14,14],[-7,16],[-19,0],[-1,30],[-29,8],[-2,55],[-31,0],[-13,14],[2,29],[96,45],[48,-7],[52,1],[26,15],[41,48],[23,11],[2,23],[28,18],[-12,32],[18,25],[24,4],[54,39],[8,31],[20,16],[55,-23],[37,-28],[47,-5],[16,-9],[-20,-24],[68,-8],[12,7],[46,-16],[50,10],[39,0],[34,-11],[31,23],[16,2],[37,33],[-9,17],[76,42],[5,16],[29,11],[66,-13],[43,17],[6,16],[51,38],[11,24],[46,-4],[29,22],[60,11],[100,56],[1,63],[10,43],[-34,17],[3,16],[-38,22],[-62,6],[3,12],[28,15],[30,59],[-20,13],[-14,44],[13,27],[-9,15],[-29,9],[-35,20],[31,18],[-10,12],[9,40],[-9,20],[31,34],[20,10],[-10,32],[32,13],[6,14],[63,29],[10,33],[21,8],[-7,27],[15,9],[4,33],[22,13],[8,30],[61,41],[70,-10],[11,-17],[32,-20],[50,-5],[15,-11],[24,4],[87,0],[11,-53],[21,-9],[21,-35],[40,-5],[34,26],[57,10],[34,-2],[36,11],[49,-1],[32,9],[16,21],[21,9],[8,27],[69,27],[45,42],[-16,13],[3,27],[35,30],[-6,20],[54,46],[0,19],[20,32],[-6,14],[15,18],[14,57],[17,10],[29,-3],[44,20],[41,30],[31,3],[45,22],[34,10],[37,26],[35,8],[28,-7],[16,10],[41,-10],[15,7],[59,-9],[29,26],[59,3],[-20,-12],[0,-43],[-10,-47],[-41,-16],[30,-18],[33,14],[-10,-19],[22,-10],[55,3],[50,-18],[27,6],[-6,-17],[38,-33],[37,-6],[33,-18],[4,14],[27,8],[2,-18],[28,12],[-6,-20],[24,-14],[52,-11],[-11,17],[46,-7],[12,-8],[10,23],[40,-9],[16,-13],[37,5],[0,-20],[-18,-19],[44,-10],[-18,-6],[15,-29],[14,5],[-1,25],[38,4],[97,-51],[30,-2],[55,8],[39,-6],[34,-13],[28,-23],[67,-4],[30,7],[11,-15],[-5,-27],[59,3],[32,-24],[81,0],[24,-25]],[[7074,9522],[-12,-4],[-20,-33],[12,-5],[-23,-20],[8,-20],[-24,-32],[5,-42],[17,-14],[-15,-6],[26,-43],[-7,-12],[20,-24],[24,-1],[20,-12],[45,3],[19,-14],[-14,-23],[20,-19],[20,9],[20,-19],[0,-19],[58,-17],[-44,-29],[3,-19],[-24,-7],[-19,-17],[10,-35],[-22,1],[-30,-26],[-13,-29],[-62,-10],[-15,-14],[-73,16],[-33,-12],[-26,5],[-18,-31],[22,-3],[17,-22],[72,4],[47,-14],[6,-10],[84,-11],[22,-33],[25,6],[53,-17],[-32,-47],[39,-36],[10,-43],[-2,-51],[-30,-19],[-54,-12],[-35,-21],[-72,-23],[-44,1],[-53,-12],[-24,-63],[-17,-17],[-27,-5],[-60,-38],[-15,-38],[-15,0],[-11,-21],[-22,-14],[-37,-10],[-10,-16],[-26,-7],[3,-25],[-10,-24],[24,-31],[52,-25],[-13,-38],[20,-42],[-16,-23],[7,-40],[-36,0],[-53,-10],[-27,-26],[-29,-60],[32,-19],[49,-12],[27,-12],[17,-21],[-17,-40],[-2,-41],[22,-25],[-14,-25],[31,-39],[-41,-76],[-11,-29],[-20,-10],[-6,-21],[-29,-20],[-26,-45],[17,-6],[52,3],[93,-20],[21,-23],[32,-10],[21,-39],[-23,-27],[-46,-33],[6,-20],[24,-25],[-11,-12],[28,-39],[-38,-24],[-24,-2],[-42,-63],[1,-42],[-36,-20],[-37,-11],[-47,-25],[-3,-26],[-28,-16],[-1,-14],[-34,-10],[11,-22],[-15,-1],[-2,-28],[-16,-15],[-72,-18],[-17,-30],[14,-4],[6,-37],[-18,-30],[18,-15],[-36,-22],[4,-27]],[[7074,9522],[2,18],[37,5],[67,-2],[34,-12],[18,-16],[36,-5],[52,-35],[9,-1],[91,73],[50,5],[66,-6],[49,-21],[43,1],[39,19],[84,1],[25,13],[105,-20],[19,-19],[52,-5],[22,46],[29,19],[42,12],[49,-22],[59,-5],[29,-10],[55,-7],[91,2],[59,7],[46,-44],[19,1],[65,-19],[25,-13],[126,-12],[70,-22],[98,35],[42,25],[15,18],[63,15],[12,22],[94,1],[3,6],[137,36],[39,26],[59,13],[-1,11],[48,36],[40,1],[55,26],[65,-28],[45,-4],[45,9],[64,-7],[13,-8],[37,3],[47,16],[27,-4],[26,11],[-10,-20],[-26,5],[-32,-7],[-22,-21],[-28,-50],[-25,-76],[-7,-94],[3,-42],[13,-57],[16,-37],[42,-67],[44,-47],[23,-17],[45,-11],[6,14],[29,2],[21,-9],[-37,-15],[6,-34],[30,-35],[77,-10],[19,-20],[1,-23],[-41,-31],[-28,-2],[-36,-35],[-24,-13],[1,-19],[31,-18],[-13,-44],[-45,-12],[11,-15],[-19,-20],[-35,-20],[-47,-11],[-4,12],[30,5],[12,16],[-25,30],[-22,15],[6,16],[-34,26],[-35,14],[-42,27],[-24,6],[-16,21],[-51,-2],[-42,-19],[-33,-42],[-15,-5],[-35,-39],[-30,-4],[-51,7],[-30,-6],[-72,7],[-119,-14],[-14,-27],[13,-17],[-16,-4],[-12,-27],[-47,-26],[-7,-12],[16,-21],[-12,-31],[6,-14],[-2,-49],[-17,-59],[-14,-20],[2,-19],[-20,-22],[-26,-45],[9,-13],[-17,-41],[-42,-48],[1,-35],[-66,-69],[-1,-24],[-47,-35],[-23,-41],[13,-21],[-7,-12],[17,-18],[-6,-13],[-23,9],[-27,-12],[-36,-50],[-38,-30],[-14,7],[-13,-26],[15,-7],[-24,-16],[-9,10],[-43,-6],[-26,-57],[-22,-15],[-33,-84],[-24,-38],[-37,-38],[-18,-26],[-49,-3],[-18,5],[-32,-12],[-75,-52],[-51,-50],[-10,-36],[7,-38],[25,-22],[36,10],[37,-13],[-28,-46],[-33,-8],[-18,-24],[-27,-9],[5,72],[-49,25],[-16,17],[-59,13],[-21,-4],[-60,2],[-75,-14],[-81,-31],[-70,-39],[-55,-45],[-86,-91],[-22,-64],[-22,-7],[-28,-22],[-10,-34],[-33,-39],[-20,-49],[7,-13],[-37,-7],[-46,-36],[-35,-10],[-26,-28],[-32,-51],[-7,-39],[5,-63],[31,-13],[-26,-29],[-24,-4],[-43,-51],[-15,-68],[6,-37],[28,-11],[10,-20]],[[8403,6658],[22,12],[19,30],[10,-8],[-24,-27],[-27,-7]],[[8776,7662],[-20,3],[8,31],[23,2],[-11,-36]],[[9690,8510],[-14,15],[16,13],[10,-16],[-12,-12]],[[9674,8779],[35,-2],[-32,-16],[-9,-29],[-59,-24],[-2,-17],[-24,4],[6,-12],[-59,-43],[-16,8],[-47,-28],[-20,3],[25,37],[23,22],[41,17],[33,25],[29,43],[30,12],[2,10],[44,-10]],[[6313,3126],[-51,-9],[-29,16],[22,10],[3,38],[29,8],[2,-14],[28,-15],[-4,-34]],[[5907,3238],[49,-53],[67,-60],[48,-36],[31,-13],[47,-7],[29,19],[37,-2],[-6,-23],[13,-21],[-19,-16],[-10,-26],[-57,0],[-18,-18],[1,-34],[31,-4],[37,-27],[5,-23],[-11,-24],[-30,-33],[-32,-2],[-53,9],[-43,35],[-58,-18],[-48,-45],[-43,-71],[-13,-77],[14,-71],[44,-82],[56,-85],[6,-67],[-7,-32],[17,-99],[-1,-51],[-7,-35],[-35,-6],[-11,-32],[0,-53],[14,-66],[27,-69],[53,-112],[-7,-13],[-27,-7],[3,-30],[-8,-38],[-45,6],[-32,-11],[-43,-28],[0,18],[-22,-4],[-46,-36],[-27,-28],[-45,-75]],[[5732,1562],[2,16],[-41,3],[-56,16],[-57,25],[-60,2],[-56,13],[-11,20],[-20,3],[-53,-14],[-45,1],[-59,-25],[-55,-13],[-83,0],[-18,17],[29,69],[17,11],[-63,0],[-15,22],[-51,8],[-37,-5],[-36,-20],[-14,-17],[10,-15],[-24,6],[-61,-28],[1,-13],[-25,-17],[13,-15],[-14,-13],[-49,-13],[-18,-14],[-6,-21],[-66,-5],[2,-26],[-53,-22],[-1,-9],[-39,-16],[6,-7],[-48,-24],[-48,-12],[0,-30],[-21,5],[-7,-15],[-27,-14],[-51,-7],[-108,-26],[-34,-2],[-18,13],[-32,1],[-25,12],[-1,20],[-20,18],[-24,54],[-40,-43],[-76,-36],[-20,-26],[-28,-16],[-7,21],[-53,20],[-35,30],[-58,5],[-21,25],[-5,21],[-107,-6],[-50,-12],[13,16],[-37,33],[-25,30],[-39,31]],[[3574,1552],[46,-9],[132,11],[25,12],[25,25],[-12,28],[13,30],[1,28],[17,10],[23,-10],[93,13],[19,20],[-11,22],[18,38],[-35,27],[-12,28],[-37,3],[-40,50],[0,24],[-19,7],[-2,17],[-26,13],[46,25],[25,-8],[8,10],[-35,60],[96,36],[9,14],[-37,13],[-38,46],[-21,4],[-11,24],[-37,33],[-7,29],[-23,12],[5,30],[40,26],[-5,41],[-19,7],[-19,-9],[-81,-14],[-69,-6],[-56,1],[-51,11],[-5,9],[30,10],[39,24],[-21,17],[-96,6],[-15,18],[6,32],[-12,17],[-32,18],[2,18],[-24,19],[6,24],[19,23],[-47,21],[-19,-6],[-18,17],[-60,25],[-51,-3],[-14,13],[-47,0],[-50,18],[-7,20],[-23,19],[-48,10],[-22,13],[-7,22],[-33,19],[-19,24],[-53,12],[-42,30],[2,6]],[[2851,2819],[22,7],[27,24],[12,34],[20,16],[37,10],[31,24],[44,13],[7,11],[50,12],[23,52],[-51,55],[-13,27],[5,22],[22,41]],[[3087,3167],[48,15],[31,-4],[53,16],[24,27],[48,39],[17,6]],[[3308,3266],[33,-13],[60,-8],[36,-32],[0,-30],[15,-14],[33,-5],[5,-13],[-18,-17],[-4,-52],[49,-33],[1,-21],[27,-13],[16,-34],[-7,-33],[-46,-22],[-4,-9],[23,-40],[98,12],[25,-10],[16,14],[65,34],[120,-6],[102,-3],[48,-30],[41,6],[75,24],[24,35],[73,18],[63,33],[33,37],[39,22],[48,1],[29,9],[23,-4],[42,9],[42,18],[12,23],[83,33],[56,-16],[17,-17],[23,-1],[25,-16],[67,-7],[25,-10],[16,5],[36,-14],[34,5],[97,-2],[33,-30],[34,-7],[79,-28],[36,-3],[31,-16],[8,-14],[76,-18],[23,2],[55,-24],[60,-10],[17,19],[47,-3],[21,-14],[-7,-14],[27,4],[-7,24],[37,6],[1,20],[18,11],[-23,23],[2,39],[-13,8],[15,32],[-39,31],[12,21],[-11,24],[16,20],[-67,4],[11,37],[38,15],[21,45],[26,17],[49,3],[22,-23],[36,-3],[22,-26],[28,-10],[149,-3]],[[5732,1562],[-5,-90],[7,-60],[24,-64],[-1,-35],[14,-90],[20,-72],[26,-170],[17,-39],[35,-64],[74,-103],[21,-64],[-16,7],[-22,-11],[-1,-45],[-33,2],[-22,-8],[-32,27],[-23,0],[-57,42],[-74,19],[-79,-19],[-66,-9],[-89,2],[-38,12],[-207,2],[-38,-5],[4,-10],[-44,-15],[-7,-26],[-44,-9],[-28,4],[-34,16],[-41,-8],[-48,27],[-38,-26],[-57,-67],[-79,4],[-57,-8],[-43,-13],[-20,-22],[-13,9],[-2,27],[-41,14],[-15,26],[-26,8],[-46,-1],[-29,23],[-28,-1],[-38,-24],[-22,1],[-37,23],[-49,4],[-46,-33],[-35,-16],[-53,-8],[-6,-17],[-40,-54],[-59,-20],[-14,-20],[-46,-14],[-39,6],[22,18],[-20,1],[5,18],[-23,18],[-44,-9],[-51,-17],[-48,-5],[-28,17],[7,7],[-69,5],[-16,10],[-10,-19],[-16,3],[-27,-13],[-35,25],[-26,-4],[-55,8],[-19,-8],[-21,25],[-22,-2],[-4,24],[-30,9],[6,46],[-33,17],[-3,10],[-35,7],[-65,43],[-25,38],[-54,36],[1,16],[-38,22],[-14,-8],[-29,3],[-35,14],[-48,-32],[-39,2],[-10,18],[-36,-6],[-10,9],[-37,2],[-6,22],[-58,1],[-10,17]],[[2839,895],[5,48],[-30,29],[41,44],[1,17],[40,38],[12,26],[-38,7],[4,19],[34,22],[-4,27],[17,23],[-12,21],[-54,16],[7,23],[-36,23],[12,30],[25,20],[44,13],[34,1],[25,10],[73,4],[19,19],[40,19],[60,42],[62,15],[64,7],[82,5],[54,-1],[68,46],[33,16],[34,8],[19,20]],[[2839,895],[-64,16],[-49,-6],[-34,-14],[-58,-16],[-4,-46],[-47,-47],[-28,-7],[-12,-17],[-53,-20],[-52,-12],[-7,-12],[-44,4],[-15,14],[-60,-30],[-10,26],[-47,7],[-28,-15],[-40,-3],[-40,5],[-35,-24],[-7,-25],[-51,-32],[-33,-6],[-23,-21],[-39,-10],[-77,-2],[-27,-18],[-39,-2],[-22,17],[26,33],[-31,15],[-41,-12],[-51,-6],[-3,-17],[-52,-3],[-59,-10],[-13,-12],[-6,-37],[9,-34],[-16,-16],[24,-32],[-17,-49],[8,-29],[-11,-16],[11,-26],[-22,-7],[-19,-55],[36,-9],[12,-15],[1,-31],[-25,-29],[14,-19],[-43,-11],[-42,-26],[-4,-13],[-35,-18],[-10,-20],[-59,-21],[-4,-20],[-21,-17],[-10,-25],[-32,6],[-54,-18],[-35,22],[5,41],[-34,24],[-20,-5],[-34,12],[-50,58],[-5,18],[-41,27],[-67,-2],[-30,23],[-24,-7],[-65,7],[-43,23],[-33,3],[-19,26],[-75,10],[-33,45],[-64,7],[-5,15],[-37,17],[-66,14],[-36,-8],[-66,2],[-11,7],[-64,-15],[-17,18],[-4,26],[-49,16],[6,24],[46,9],[8,37],[30,13],[42,35],[-11,47],[-21,14],[-51,14],[-65,11],[5,33],[28,25],[-4,18],[-23,8],[-14,20],[-28,10],[-4,22],[-46,22],[12,22],[-25,20],[-4,28],[19,23],[-14,18],[42,37],[-3,30],[-73,20],[-10,8],[-29,60],[14,20],[-7,22],[-29,27],[-24,13],[61,26],[-7,36],[-24,43],[31,43],[-1,27],[26,-1],[80,35],[14,-16],[16,2],[50,30],[13,21],[20,8],[49,36],[74,30],[-2,28],[11,15],[55,20],[19,29],[61,34],[29,6],[36,46],[48,-3],[37,-16],[35,11],[41,40],[9,21],[39,27],[10,15],[33,12],[-8,15],[36,7],[129,76],[28,24],[-17,28],[23,38],[-25,35],[13,14],[-17,24],[14,41],[80,35],[34,37],[69,12],[36,28],[49,29],[21,23],[59,5],[24,58],[-4,19],[10,20],[28,19],[59,23],[63,16],[52,43],[26,5],[70,26],[35,-8],[76,-33],[37,-26],[18,-2],[72,20],[86,-42],[50,-8],[25,12],[17,26],[61,41],[-15,80],[25,21],[28,48],[33,14],[1,33],[-16,11],[36,21],[21,-3],[25,16],[5,17],[38,5],[19,15],[8,25],[40,11],[54,-2],[53,12],[31,25],[48,-16],[59,1],[25,10],[22,23],[44,0],[51,31],[24,2]],[[5845,4958],[33,-70],[80,-87],[16,2],[42,-21],[42,-4],[0,-9],[-43,-25],[7,-13],[32,3],[70,-16],[23,-11],[64,-5],[47,10],[41,-9],[-40,-26],[22,-26],[69,-15],[51,18],[41,30],[34,-4],[28,-25],[-6,-29],[-24,-34],[3,-18],[-25,-33],[49,-51],[33,-46],[28,-10],[12,13],[29,-15],[25,0],[-10,-42],[22,-17],[48,-13],[11,12],[46,5],[24,19],[54,20],[26,29],[94,-15],[5,-8],[-21,-32],[-29,-12],[-11,-16],[-71,-12],[-49,-29],[-38,-14],[-1,-21],[-37,-5],[-14,17],[-41,-30],[-42,-5],[-23,-15],[-49,20],[-40,-10],[-7,37],[-29,9],[-68,-9],[-45,-24],[-24,-27],[19,-36],[-16,-21],[-23,-12],[-31,-54],[-28,-58],[-7,-49],[-63,-8],[-17,-23]],[[6143,3983],[-30,19],[-43,8],[-2,11],[-48,31],[-35,9],[-35,0],[-14,15],[-23,-4],[-23,-36],[0,-39],[-17,-54],[-45,-53],[-45,-13],[-36,16],[-63,6],[-55,-6],[-53,-18],[-67,-1],[-66,15],[-15,-17],[-52,-11],[-22,-26],[-7,10],[-51,3],[16,13],[-24,7],[-8,17],[-49,12],[13,6],[-5,30],[-54,12],[-12,10],[-49,2],[-24,-15],[-28,-4],[-54,-36],[-9,-17],[-24,2],[-73,-27],[-14,-13],[-40,-14],[-66,7],[-7,-6],[-72,2],[-83,-22],[-65,-13],[-131,-36],[-23,-18],[-38,-7],[-111,6],[-93,-8],[-43,24],[-29,8],[-38,-23],[-60,-46],[2,-24],[-17,-20],[7,-21],[-25,-13],[-60,-7],[-46,23],[-38,-9],[-40,-20],[-34,-2],[-116,6],[-22,-25],[-46,-14],[-38,-3],[-33,-17],[-52,8],[-36,23],[0,20],[-22,-18],[-4,-44],[11,-13],[-14,-61],[3,-17],[-45,-45],[-41,-16],[2,-33],[-13,-9],[11,-30],[1,-27],[14,-27]],[[3087,3167],[-25,18],[-41,19],[-5,14],[-51,18],[-38,-23],[-87,23],[-30,-15],[-45,10],[-65,0],[-15,-7],[-52,10],[-35,-20],[-23,-1],[-29,13],[-107,-6],[-72,6],[-36,24],[38,21],[17,17],[64,42],[15,34],[42,18],[19,-17],[36,7],[26,38],[49,27],[3,40],[34,38],[-3,31],[-24,10],[-7,36],[12,24],[-25,4],[-29,-11],[-9,8],[22,47],[-14,10],[11,34],[25,6],[56,-2],[13,7],[-7,51],[21,27],[-4,62],[35,13],[51,4],[46,-4],[32,5],[52,28],[2,61],[-57,32],[-10,16],[-53,14],[-6,27],[-74,27],[0,15],[28,35],[21,11],[4,29],[-8,39],[26,34],[39,30],[41,10],[36,34],[37,19],[4,34],[-25,33],[14,27],[47,20],[37,5],[27,18],[-2,21],[-53,15],[-2,27],[40,6],[57,16],[20,24],[20,42],[16,17],[-8,26],[-72,27],[-22,27],[18,54],[-9,26],[38,23],[-9,15],[12,17],[72,25],[41,29],[7,32],[35,45],[18,13],[43,12],[22,27],[58,22],[18,42],[27,6],[4,17],[58,40],[11,28],[-4,20],[28,22],[-15,53],[-75,17],[-52,23],[14,34],[18,22],[43,34],[-3,43]],[[6619,3852],[-2,29],[11,-13],[-9,-16]],[[6970,4169],[-12,25],[15,-6],[-3,-19]],[[6701,4512],[-35,-10],[32,24],[3,-14]],[[6716,4559],[-7,13],[20,7],[-13,-20]],[[7055,4520],[-44,32],[10,29],[24,16],[53,-4],[-1,-42],[-42,-31]],[[6804,4694],[12,-16],[-30,-12],[18,28]],[[6930,4857],[35,-9],[-10,-12],[-38,17],[13,4]],[[6143,3983],[-20,-23],[-14,-35],[-4,-44],[-20,-35],[-24,-21],[-24,-5],[-22,12],[-47,-18],[-29,-28],[-36,-14],[-59,-100],[-14,-54],[6,-80],[20,-78],[-10,-26],[63,-34],[3,-22],[21,-20],[0,-35],[-28,-9],[-29,-25],[31,-51]],[[6259,3278],[-30,-5],[28,17],[2,-12]],[[6186,3800],[7,-25],[-37,-10],[-8,6],[10,29],[28,0]]],"transform":{"scale":[0.00008917724732473212,0.00014329758675867184],"translate":[98.62768133900005,9.600876690000064]},"objects":{"Chumphon":{"type":"GeometryCollection","geometries":[{"arcs":[[[0]],[[1]],[[2]],[[3]],[[4]],[[5]],[[6]],[[7]],[[8]],[[9]],[[10]],[[11,12,13,14,15]]],"type":"MultiPolygon","properties":{"Shape_Leng":2.03254902257,"Shape_Area":0.0659205759145,"ADM2_EN":"Mueang Chumphon","ADM2_TH":"เมืองชุมพร","ADM2_PCODE":"TH8601","ADM1_EN":"Chumphon","ADM1_TH":"ชุมพร","ADM1_PCODE":"TH86","ADM0_EN":"Thailand","ADM0_TH":"ประเทศไทย","ADM0_PCODE":"TH"}},{"arcs":[[-16,16,17]],"type":"Polygon","properties":{"Shape_Leng":2.20195729165,"Shape_Area":0.121660416423,"ADM2_EN":"Tha Sae","ADM2_TH":"ท่าแซะ","ADM2_PCODE":"TH8602","ADM1_EN":"Chumphon","ADM1_TH":"ชุมพร","ADM1_PCODE":"TH86","ADM0_EN":"Thailand","ADM0_TH":"ประเทศไทย","ADM0_PCODE":"TH"}},{"arcs":[[[-12,-18,18]],[[19]],[[20]],[[21]],[[22]]],"type":"MultiPolygon","properties":{"Shape_Leng":1.9835303702,"Shape_Area":0.0643770687365,"ADM2_EN":"Pathio","ADM2_TH":"ปะทิว","ADM2_PCODE":"TH8603","ADM1_EN":"Chumphon","ADM1_TH":"ชุมพร","ADM1_PCODE":"TH86","ADM0_EN":"Thailand","ADM0_TH":"ประเทศไทย","ADM0_PCODE":"TH"}},{"arcs":[[[23]],[[24,25,26,27,28,29]]],"type":"MultiPolygon","properties":{"Shape_Leng":1.55474507094,"Shape_Area":0.0482723028742,"ADM2_EN":"Lang Suan","ADM2_TH":"หลังสวน","ADM2_PCODE":"TH8604","ADM1_EN":"Chumphon","ADM1_TH":"ชุมพร","ADM1_PCODE":"TH86","ADM0_EN":"Thailand","ADM0_TH":"ประเทศไทย","ADM0_PCODE":"TH"}},{"arcs":[[-26,30,31]],"type":"Polygon","properties":{"Shape_Leng":1.08474076591,"Shape_Area":0.0311472844167,"ADM2_EN":"Lamae","ADM2_TH":"ละแม","ADM2_PCODE":"TH8605","ADM1_EN":"Chumphon","ADM1_TH":"ชุมพร","ADM1_PCODE":"TH86","ADM0_EN":"Thailand","ADM0_TH":"ประเทศไทย","ADM0_PCODE":"TH"}},{"arcs":[[-27,-32,32]],"type":"Polygon","properties":{"Shape_Leng":1.48085673714,"Shape_Area":0.0724593274672,"ADM2_EN":"Phato","ADM2_TH":"พะโต๊ะ","ADM2_PCODE":"TH8606","ADM1_EN":"Chumphon","ADM1_TH":"ชุมพร","ADM1_PCODE":"TH86","ADM0_EN":"Thailand","ADM0_TH":"ประเทศไทย","ADM0_PCODE":"TH"}},{"arcs":[[[-14,33,34,-29,35]],[[36]],[[37]],[[38]],[[39]],[[40]],[[41]],[[42]]],"type":"MultiPolygon","properties":{"Shape_Leng":1.83800872107,"Shape_Area":0.068827229647,"ADM2_EN":"Sawi","ADM2_TH":"สวี","ADM2_PCODE":"TH8607","ADM1_EN":"Chumphon","ADM1_TH":"ชุมพร","ADM1_PCODE":"TH86","ADM0_EN":"Thailand","ADM0_TH":"ประเทศไทย","ADM0_PCODE":"TH"}},{"arcs":[[[-30,-35,43]],[[44]],[[45]]],"type":"MultiPolygon","properties":{"Shape_Leng":1.01656127748,"Shape_Area":0.0244132459242,"ADM2_EN":"Thung Tako","ADM2_TH":"ทุ่งตะโก","ADM2_PCODE":"TH8608","ADM1_EN":"Chumphon","ADM1_TH":"ชุมพร","ADM1_PCODE":"TH86","ADM0_EN":"Thailand","ADM0_TH":"ประเทศไทย","ADM0_PCODE":"TH"}}]}}}