{"type":"Topology","arcs":[[[8434,6182],[-6,-31],[-6,-2],[-2,-11],[2,-13],[-4,-12],[55,-90],[25,-25],[36,-23],[21,1],[10,7],[2,7],[17,-3],[0,-13],[32,-12],[20,-16],[143,-62],[43,-55],[17,-12],[19,-20]],[[8858,5797],[-1,-10],[-10,-11],[-20,2],[-1,-8],[-22,-7],[-14,-1],[-7,-10],[-12,-3],[-1,-8],[-8,0],[-2,-8],[-12,10],[-11,1],[-17,-9],[-2,-11],[-8,-4],[-9,6],[-7,-6],[-18,7],[-18,-2],[-12,-9],[-4,-12],[-25,4],[-10,-3],[-14,2],[-9,-18],[-18,-12],[-13,-14],[-14,-4],[-29,8],[-27,-3],[-23,-21],[0,-17],[-17,-17],[-16,-2],[-10,6],[-8,12],[-14,3],[-18,-25],[12,1],[12,-13],[-7,-9],[7,-11],[-6,-12],[-12,0],[-15,23],[-10,-1],[-11,-23],[2,-14],[13,-4],[1,-14],[-7,-14],[5,-9],[-8,-9],[-6,-22],[7,-49],[7,-6],[12,2],[7,6],[1,15],[9,10],[31,16],[8,-10],[-13,-22],[5,-19],[-5,-14],[-12,-15],[-16,-12],[9,-8],[15,-1],[-2,-6],[-31,-23],[-18,-3],[-14,7],[-5,-3],[-1,-14],[7,-14],[-1,-7],[-10,-6],[0,-7],[9,-1],[19,8],[14,-6],[24,-2],[10,-8],[-2,-16],[-11,-8],[-8,7],[-9,-2],[-3,-10],[-13,-15],[4,-9],[-5,-22],[-10,-7],[-11,9],[-13,1],[-10,-8],[-7,2],[0,17],[-9,6],[-12,-4],[-1,-20],[5,-7],[-4,-20],[-8,-1],[-10,10],[-1,11],[-6,4],[-5,-7],[1,-10],[-8,-13],[-2,-14],[15,-21],[10,-19],[-35,0],[-14,3],[-30,16],[-13,2],[-9,-9],[-18,-8],[-2,-8],[4,-19],[-13,-2],[2,-6],[27,-8],[7,-15],[16,-1],[9,-4],[-5,-13],[-21,-4],[-13,4],[-6,-7],[-22,-2],[-2,18],[3,12],[-11,-5],[-18,-36],[0,-15],[-46,1],[-9,-6],[-9,-19],[1,-6],[27,-37],[-1,-12],[-10,-7],[-34,2],[-29,-2],[-4,-40],[4,-23],[10,-5],[-23,-33],[-7,-31],[3,-10],[-5,-17],[4,-10],[-8,-12],[4,-22],[-9,-28],[-11,1],[-13,-15],[-14,-4],[-2,-10],[-24,-15],[-16,-3],[-7,-14],[-11,0],[-19,-8],[-4,-11],[-13,-5],[-5,-10],[-33,-7],[-13,-8],[-7,-10],[-1,-18],[-9,-16],[-4,-12],[-10,-6],[-17,-20],[-37,-18],[-28,-25],[-15,-21],[-7,-14],[-1,-14],[-15,-7],[-3,-14],[4,-24],[-8,-24],[10,-17],[11,-10],[19,-25],[-16,-6],[-7,-50],[-17,-21],[0,-15],[4,-34],[-6,-31],[1,-6],[25,-13],[18,-29],[4,-28],[-4,-10],[-27,-8],[-6,-14]],[[7641,4021],[-4,12],[-11,2],[-16,18],[-25,6],[-25,22],[-5,15],[3,11],[0,26],[-15,54],[3,21],[9,18],[-2,22],[-24,54],[-18,22],[-30,23],[-56,27],[-10,2],[-11,12],[-34,10],[-8,13],[-15,12],[-20,7],[-25,3],[2,29],[-7,11],[-18,4],[-18,12],[-20,2],[-10,-5],[-3,-10],[-9,-1],[-4,-7],[-11,-1],[-8,7],[-10,-1],[-8,10],[-30,2],[-4,16],[-7,3],[18,17],[-5,12]],[[7150,4533],[13,3],[3,10],[1,28],[8,42],[0,18],[-12,51],[-1,36],[-9,4],[-21,1],[-8,12],[6,10],[22,2],[17,7],[9,15],[-12,9],[1,7],[-11,17],[-1,13],[-28,3],[-11,3],[-18,26],[-30,8],[-18,-3],[-25,0],[-57,-16],[-48,-2],[-28,-3],[-2,-14],[-7,0],[-19,13],[-4,-5],[-13,8],[-5,-6],[-34,6],[-228,53],[16,9],[4,8],[-9,8],[2,6],[-8,9],[-18,4],[-6,11],[-5,1],[0,24],[-11,13],[-3,26],[-26,58],[0,5],[-14,35],[-29,16],[0,6],[-20,2],[-9,9]],[[6444,5139],[19,8],[16,3],[7,14],[21,60],[13,12],[18,6],[25,-10],[-8,11],[-11,7],[-13,2],[-9,20],[-6,-2],[-5,9],[-5,25],[0,25],[-7,2],[-6,12],[-4,23],[11,32],[-35,9],[-33,20],[-10,12],[-7,15],[-13,13],[32,10],[-8,13],[-11,7],[-13,13],[-6,12],[-24,18],[-1,10],[11,61],[-11,6],[-29,10],[-30,1],[-18,12],[3,15],[-17,11],[-32,1],[-11,9],[4,9],[-6,2],[8,21],[-6,20],[6,17],[-10,12],[9,14],[0,15],[-18,5],[9,17],[-26,47],[-13,2],[5,8],[-6,9],[16,9],[-16,6],[2,14],[7,16],[8,10],[-9,4],[6,18],[4,24],[11,11],[14,23],[20,15],[1,7],[17,9],[-10,13],[-15,4],[-12,-1],[-1,-6],[-11,0],[-5,17],[2,23],[6,5],[-9,5],[4,6],[-3,15],[-16,9],[-4,8],[-17,-2],[1,8],[-10,8],[-12,24],[2,9],[-7,2],[-4,11],[-12,1],[-4,15],[8,19],[11,14],[17,13],[30,36],[12,3],[34,47],[44,70],[18,17],[12,14],[5,12],[47,184],[26,-5],[1,6],[19,-1],[14,-12],[14,3],[15,-3],[10,5],[28,35],[1,20],[-6,16],[-14,30],[2,8],[46,43],[29,30],[32,28],[10,15],[0,14]],[[6602,6875],[21,-5],[25,1],[52,16],[52,11]],[[6752,6898],[7,-18],[28,-23],[17,-6],[17,1],[11,-6],[29,-20],[5,-14],[-16,-30],[-26,-19],[-9,-13],[4,-24],[3,-8],[15,-17],[14,-10],[14,0],[26,16],[10,-1],[18,10],[20,-10],[36,13],[15,0],[7,-11],[10,-6],[17,-1],[16,-5],[14,20],[15,-3],[29,-3],[25,20],[11,0],[7,13],[6,0],[7,9],[16,6],[31,6],[13,11],[3,13],[20,1],[4,9],[17,12],[15,22],[11,3],[9,-9],[9,-3],[7,5],[20,0],[3,-3],[17,10],[12,-7],[13,0],[33,-15],[10,3],[13,0],[5,10],[20,9],[7,8],[4,-5],[19,-4],[14,10],[13,-1],[21,10],[6,12],[22,5],[6,-1],[-2,9],[6,6],[30,6],[12,-7],[11,0],[13,-8],[10,-19],[13,-7],[29,3],[20,-12],[8,-18],[10,-14],[2,-9],[-4,-7],[-14,5],[-11,-3],[-10,-33],[-7,-5],[-5,5],[-4,16],[-12,1],[-18,-12],[-3,-8],[5,-19],[8,-2],[8,9],[13,-8],[-7,-17],[14,-15],[4,-16],[-7,-11],[-18,-6],[9,-9],[28,10],[21,-1],[6,-7],[-4,-12],[12,-14],[7,-1],[2,9],[-2,18],[11,18],[12,-3],[4,-11],[-12,-12],[-3,-13],[4,-5],[17,-8],[6,-21],[-6,-6],[-16,7],[-11,0],[-9,-12],[13,-13],[-1,-11],[-22,-12],[-1,-15],[21,-3],[23,-7],[4,6],[-10,24],[6,7],[11,2],[11,9],[9,14],[14,10],[10,-6],[-9,-15],[-1,-11],[5,-8],[39,-11],[8,1],[11,9],[8,-3],[13,-23],[1,-9],[-40,1],[-17,-6],[-9,-9],[-1,-20],[7,-4],[14,-1],[15,-22],[16,-29],[2,-14],[-15,4],[-43,-4],[7,-13],[13,-6],[24,-7],[16,-11],[0,-16],[-10,-4],[-20,16],[-6,0],[-21,-14],[-10,-12],[0,-10],[9,-22],[13,-3],[14,5],[10,-7],[-1,-13],[14,-28],[6,-6],[42,-14],[-2,-10],[-11,-8],[8,-19],[6,-2],[30,20],[34,-17],[0,-8],[-51,-24],[-5,-5],[11,-13],[17,9],[13,-3],[28,-21],[18,4],[27,-5],[-8,16],[3,9],[-5,13],[11,6],[-4,16],[5,22],[-9,4],[-3,9],[-13,2],[2,7],[10,5],[19,-11],[8,-12],[10,-2],[52,17],[39,-9],[26,-14],[9,-2],[105,-50],[21,1],[104,-9]],[[6444,5139],[-23,-4],[-15,4],[-7,-12],[1,-21],[-13,-10],[-28,-5],[-3,-5],[-19,-4],[-12,9],[-36,1],[-28,-10],[-5,-10],[-14,9],[-20,-14],[-6,1],[-10,-19],[-9,-2],[-1,-13],[-13,-3],[-17,2],[-10,-7],[-11,3],[1,-7],[-14,-6],[-10,9],[-9,-6],[-7,3],[-24,-5],[-6,-20],[-8,-2],[1,-14],[-16,-9],[-9,5],[-22,-10],[-11,-14],[-2,-15],[-8,3],[-36,-18],[-81,-5],[-30,-3],[-15,-4],[-17,3],[-30,2],[-31,-8],[-49,-3],[-14,1],[-19,10],[-5,-3],[-15,13],[-46,2],[-16,11],[-17,7],[-14,11],[-25,15],[-57,-72],[-34,2],[-3,-5],[-30,-17]],[[5417,4880],[-8,15],[-17,21],[-13,28],[0,11],[6,8]],[[5385,4963],[17,31],[29,29],[24,11],[21,17],[11,6],[22,19],[24,22],[17,29],[19,40],[10,41],[4,11],[1,30],[-1,34],[-3,16],[9,34],[1,25],[-2,27],[4,111],[2,28],[4,22],[24,61],[23,56],[11,30],[7,8],[11,34],[6,12],[11,41],[-7,1],[23,63],[15,71],[6,7],[11,49],[5,27],[3,33],[5,9],[4,27],[-2,20],[1,34],[3,31],[12,46],[3,41],[0,19],[6,45],[-1,10],[4,16],[1,20],[6,29],[5,42],[10,25],[6,38],[-5,39],[-15,25],[-6,17],[-5,36],[4,18],[2,22],[-3,18],[3,47],[-2,24],[5,22],[-6,15],[-17,17],[-10,22],[6,21]],[[5761,6834],[-6,32],[1,12],[13,35],[9,18],[10,11],[24,19],[49,21],[21,5],[50,16],[20,9],[26,6],[30,9],[24,15],[39,19],[24,1],[39,-10],[26,2],[17,-3],[13,-13],[11,-4],[18,0],[14,7],[28,5],[11,6],[11,0],[12,-8],[12,-2],[16,9],[8,0],[4,-9],[13,5],[13,-7],[22,11],[28,-6],[8,2],[14,-13],[13,-17],[66,-7],[24,-4],[48,-98],[18,-33]],[[7150,4533],[-17,6],[-2,13],[6,16],[-9,8],[-8,-15],[5,-18],[-4,-10],[-18,-18],[-10,-1],[-6,8],[6,10],[-1,22],[-8,-1],[-35,-45],[18,-10],[5,-9],[-3,-44],[-18,-4],[-5,-6],[3,-8],[11,-3],[-1,-15],[-12,-14],[1,-17],[-8,-15],[-18,-19],[-4,-14],[-18,-38],[-9,-10],[-16,-2],[-13,-7],[-10,-14],[-11,-7],[-17,-24],[0,-5],[17,-16],[-2,-15],[-7,-1],[-27,9],[-10,1],[-18,-5],[-17,1],[-5,5],[6,13],[-15,10],[-19,4],[1,-8],[15,-2],[6,-7],[-11,-16],[-29,7],[-60,9],[-10,-3],[-18,1],[-12,14],[-20,-4],[-41,-39],[-8,4],[-7,13],[-18,6],[-8,-6],[-3,-18],[-7,-11],[-18,4],[7,14],[-11,24],[-6,-4],[1,-14],[-13,8],[-14,-2],[-12,3]],[[6531,4202],[-4,4],[-18,5],[-22,13],[-6,-2],[-6,9],[-6,-1],[-3,9],[6,16],[-5,14],[-11,16],[-5,23],[-12,10],[-14,-1],[-2,8],[-10,2],[-10,11],[-29,14],[-7,13],[-14,-5],[-12,0],[-7,8],[-19,-1],[-13,9],[-5,17],[-9,9],[-12,0],[2,8],[-6,6],[-13,-5],[-12,1],[-8,10],[-5,-5],[-14,1],[-10,-4],[-9,16],[-13,-1],[-16,5],[1,5],[-18,9],[-5,-7],[-20,-4],[-15,10],[-2,13],[-14,4],[-10,-1],[-17,7],[-19,16],[-30,-9],[-4,4],[-20,4],[-3,5],[-9,-4],[-7,11],[-17,-10],[-7,4],[-20,-1],[-6,-3],[-19,19],[-33,17],[2,22],[-12,11],[-7,-4],[-8,4],[-10,22],[-28,18],[-3,11],[6,5],[-6,7],[0,10],[-13,1],[-7,18],[-9,7],[-17,3],[3,5],[-29,12],[-13,14],[-17,9],[-18,-3],[-6,-6],[-3,-12],[-11,-3],[-7,-13],[-7,2],[-18,-15],[-43,0],[-10,-8],[-13,1],[-9,-19],[-20,-6],[-48,11],[-18,10],[-17,21],[-10,8],[-24,-1],[-14,3],[6,10],[7,48],[6,17],[18,20],[2,18],[-6,17],[1,35],[-10,7],[0,6],[-21,34]],[[5385,4963],[-33,-2],[-40,4],[-21,17],[-33,1],[-31,10],[-35,22],[-13,14],[-21,43],[-13,17],[-22,22],[-24,9],[-16,18],[-10,23],[2,28],[-8,4],[-33,-11],[-16,-1],[-18,10],[-30,21],[-28,23]],[[4942,5235],[-36,13],[-30,4],[-8,6],[-18,32],[-3,14],[-13,21],[-22,9],[-9,-2],[-22,5],[-5,-2],[-5,10],[-14,2],[-12,15],[-20,0],[-16,11],[-2,10],[-7,1],[-10,11],[-5,12],[-6,4],[-21,1],[-18,19],[3,9],[-3,15],[-9,10],[-11,3],[-2,17],[-11,9],[-4,9],[-17,10],[2,18],[-9,12],[-9,2],[7,6],[-1,21],[10,2],[10,8],[4,15],[-10,14],[-4,13],[4,11],[-11,16],[-9,7],[-6,16],[5,12],[-9,3],[9,9],[-11,9],[-6,-4],[-6,8],[11,1],[-1,12],[-7,2],[-10,-9],[-1,19],[-7,0],[-8,-14],[-9,7],[-8,-5],[9,-14],[-16,-4],[4,-6],[21,0],[5,-4],[-10,-6],[6,-8],[-3,-6],[-19,7],[-10,-3],[6,-11],[15,2],[2,-8],[-19,-6],[-2,-12],[16,-6],[-15,-3],[12,-17],[6,15],[15,-14],[-8,-6],[1,-7],[10,0],[-7,-6],[2,-7],[-11,0],[-2,-7],[-7,6],[-12,1],[-1,-7],[-13,7],[3,-10],[-11,-2],[-5,-15],[-16,0],[2,8],[-17,-3],[-5,9],[-12,-21],[-4,2],[1,20],[-12,-6],[1,-9],[-19,-9],[4,-6],[-15,-4],[1,-11],[-14,-3],[6,-18],[-3,-5],[-19,6],[-6,10],[-12,5],[-1,8],[-37,-5],[5,10],[-1,8],[6,7],[-9,14],[3,17],[16,4],[-4,10],[-21,5],[-4,7],[11,2],[1,15],[-8,2],[-16,-2],[5,-7],[-3,-10],[-12,-5],[-12,4],[-1,-9],[-10,-6],[-7,18],[-8,-8],[-7,2],[-5,11],[-12,-5],[-8,10],[-7,1],[-9,-13],[-17,10],[-8,-4],[3,-9],[-23,-7],[9,-12],[-3,-5],[-14,9],[-2,-12],[-11,0],[-6,8],[-17,6],[0,-22],[-7,2],[-1,11],[-10,-11],[-9,3],[0,13],[-16,-13],[-3,7],[-15,2],[-2,5],[-16,-1],[4,-10],[-10,-4],[-9,5],[6,8],[-11,6],[-2,-13],[-14,-3],[5,11],[-4,9],[-9,0],[10,24],[-8,-2],[-2,28],[-12,-2],[-16,-13],[-10,-1],[-5,9],[-3,-6],[3,-23],[-36,4],[-7,-14],[-9,-7],[-11,3],[-14,-3]],[[3842,5603],[-15,1],[-9,17],[-3,12],[8,16],[14,4],[-1,11],[-15,3],[-1,13],[19,20],[-7,17],[-37,37],[-4,-18],[-7,-6],[-32,-5],[-8,23],[-2,14],[-7,6],[3,7],[-5,13],[8,20],[19,-2],[-11,68],[0,26],[3,37],[11,50],[1,9],[13,34],[0,11],[-6,37],[-9,4],[2,7],[-13,25],[-22,23],[2,16],[0,28],[-2,17],[3,14],[1,29],[9,27],[11,27],[3,15],[11,20],[36,41],[12,18],[18,19],[8,14]],[[3841,6422],[83,-15],[28,-11],[0,5],[23,-1],[25,-5],[6,10],[0,11],[21,1],[0,23],[2,4],[33,-9],[14,5],[21,2],[19,15],[66,5],[8,8],[33,0],[36,7],[24,-1],[7,14],[24,11],[11,-1],[6,6],[41,17],[10,9],[9,2],[42,-16],[20,-1],[11,6],[16,-6],[22,2],[12,-22],[7,2],[23,19],[19,-2],[15,10],[16,-2],[4,-9],[10,-7],[11,17],[-1,20],[21,25],[8,31],[12,6],[13,22],[6,17],[23,37],[14,-10],[39,-10],[21,7],[11,-12],[11,-6],[10,0],[7,-6],[14,0],[8,5],[15,0],[33,-25],[21,-9],[9,-25],[-3,-13],[0,-38],[19,-49],[7,-7],[3,-17],[8,-10],[9,-2],[12,-22],[12,-7],[2,-26],[12,-9],[0,-7],[8,-7],[-2,-12],[3,-15],[9,-23],[-6,-3],[-2,-26],[4,-6],[-4,-17],[5,-12],[15,2],[20,-4],[3,-6],[16,3],[5,11],[19,-1],[16,-6],[16,-15],[17,-9],[14,-3],[3,-15],[11,-8],[6,2],[14,18],[7,27],[16,3],[17,8],[16,-6],[44,-38],[12,-2],[7,8],[12,2],[41,-5],[16,9],[-3,22],[3,23],[6,15],[0,25],[12,10],[7,-1],[-1,-27],[4,-4],[29,11],[20,-1],[3,11],[-20,7],[4,19],[11,2],[25,-4],[30,1],[13,16],[17,6],[13,-1],[13,-7],[11,-1],[8,4],[9,13],[20,7],[2,14],[17,6],[7,23],[-21,76],[-23,71],[-15,24],[-16,21],[-8,21],[-4,24],[3,11],[26,42],[34,43],[16,27],[10,20]],[[5635,6808],[82,16],[44,10]],[[3842,5603],[-3,-8],[3,-13],[-15,8],[-21,7],[-4,-10],[-15,4],[0,15],[-11,0],[2,8],[-8,1],[2,10],[-10,18],[-5,-6],[-5,11],[-8,-10],[-8,10],[-18,2],[1,7],[8,-1],[-9,14],[-12,0],[-10,7],[-4,-11],[-9,-3],[-4,14],[3,7],[9,1],[-14,6],[-2,-13],[-10,-11],[8,-9],[-12,-1],[-8,12],[-3,-11],[-15,4],[-3,10],[-2,-13],[-9,-5],[-8,13],[-11,1],[10,6],[-16,7],[6,7],[-20,11],[-28,-8],[-4,-7],[-14,8],[-11,-1],[4,10],[6,26],[-15,6],[-7,-5],[-21,14],[-14,-1],[-22,3],[-15,12],[6,16],[-9,2],[-7,8],[5,9],[-7,5],[4,9],[-11,2],[-1,7],[12,7],[-21,19],[-32,26],[-10,-11],[-10,-5],[-25,0],[-2,5],[6,12],[-17,8],[-13,3],[-1,11],[-15,0],[-6,9],[-9,6],[-13,13],[-9,0],[1,18],[8,7],[-20,11],[-5,-4],[-15,3],[12,7],[3,7],[-6,4],[-29,-15],[-4,-11],[-8,6],[-7,-3],[-9,13],[-9,-1],[3,11],[9,5],[-5,7],[-7,-5],[-3,12],[-19,-1],[-3,-7],[-16,8],[-5,-20],[-11,4],[0,-11],[-16,8],[5,-15],[-3,-4],[-15,1],[-10,16],[3,13],[-9,-4],[-27,10],[-10,-3],[-7,7],[7,6],[-14,5],[-1,-7],[-13,-1],[4,-24],[5,-6],[-18,0],[1,-7],[-8,1],[1,-12],[-6,-12],[-7,-2],[3,-10],[-10,-3],[-15,14],[1,-16],[-3,-15],[-7,4],[-6,19],[-6,3],[4,13],[-9,-11],[-16,7],[7,5],[-8,7],[-7,-13],[-3,9],[-13,-3],[-1,4],[17,16],[-10,8],[-11,-7],[-2,7],[-13,-1],[-12,-8],[1,-9],[-12,-5],[-2,6],[4,20],[-3,4],[-26,0],[-2,-10],[-9,4],[-14,-6],[-3,-14],[-10,2],[-2,8],[-12,2],[1,-12],[-11,1],[-1,14],[-15,15],[-13,-2],[6,-7],[-6,-12],[-15,-2],[3,-7],[-24,3],[-1,-12],[-22,-3],[-6,-8],[-31,2],[-13,-8],[-18,-5],[-38,11],[-16,8],[-5,-9],[-15,-8],[-4,6],[-13,6],[-13,-1],[-12,12],[-15,-14],[-20,1],[-4,-13],[-11,4],[-12,17],[-15,9],[-6,-2],[-4,-16],[-8,0],[-7,-15],[-28,7],[-13,-17],[-20,2],[-6,5],[-6,17],[-10,6],[-10,-10],[-12,-2],[2,-9],[-9,-6],[-16,18],[-12,-2],[-4,-6],[-18,-4],[-3,7],[29,22],[-3,6],[-12,-5],[14,26],[18,-3],[-8,13],[-12,-1],[-9,-11],[-3,16],[-6,-4],[-7,7],[-6,-2],[-10,12],[-13,-4],[3,7],[-13,-7],[3,-9],[-13,-4],[3,14],[-6,4],[0,12],[-12,-8],[0,-7],[-12,6],[-4,-13],[-9,3],[-3,8],[-13,4],[4,14],[-7,0],[-21,-14],[-7,15],[-10,-4],[-6,4],[4,8],[-15,0],[4,-13],[-15,4],[-2,9],[-18,4],[-13,14],[0,12],[-10,3],[0,11],[-16,12],[-5,14],[-12,6],[0,20],[-10,4],[1,19],[13,20],[12,12],[-10,6],[0,55],[-5,8],[-9,3],[-5,9],[-5,-9],[-11,24],[-11,-5],[1,11],[-15,11],[0,12],[-6,9],[5,4],[-11,11],[18,23],[-11,0],[2,10],[-6,1],[-13,-14],[-9,5],[-6,11],[6,5],[-15,-2],[2,-7],[-9,2],[-11,-9],[4,9],[-13,2],[-17,-4],[-3,12],[-12,-10],[-11,2],[-6,-9],[-5,12],[-20,11],[-8,-2],[-5,7],[15,4],[-2,3],[-21,6],[-12,-6],[4,13],[-8,7],[-2,-18],[-20,-9],[7,11],[-3,8],[-17,8],[-13,-10],[-3,13],[7,5],[-9,3],[-11,-8],[-1,12],[9,3],[11,10],[-14,9],[-2,17],[-15,1],[11,4],[6,13],[-15,8],[11,10],[10,-8],[15,6],[1,4],[-13,12],[-5,-11],[-7,1],[-4,20],[22,-6],[5,19],[-10,-2],[-6,5],[-12,-2],[0,9],[-8,1],[6,-13],[-10,-6],[-12,7],[-10,-2],[5,17],[-11,-1],[-5,-8],[-3,7],[6,10],[-18,1],[-8,-5],[-7,6],[17,5],[5,6],[-6,3],[9,6],[8,-6],[10,2],[-1,7],[-27,10],[15,14],[12,5],[-1,8],[-7,7],[-2,11],[-12,-9],[4,15],[-9,1],[4,20],[-12,2],[-6,7],[-10,-8],[-4,11],[13,13],[7,1],[-11,15],[6,6],[-14,20],[-20,7],[-2,10],[-13,-13],[-4,-14],[-6,3],[-8,17],[6,6],[9,-3],[4,9],[-4,12],[-6,3],[-8,-7],[-3,9],[-22,6],[-2,-10],[8,-1],[1,-12],[-13,-4],[1,13],[-4,4],[-8,-14],[-9,4],[2,7],[-12,18],[-13,1],[5,-7],[-7,-15],[-14,2],[-11,14],[3,6],[10,-7],[0,10],[-8,5],[7,8],[-19,4],[5,-9],[-7,-6],[-10,13],[40,35],[-12,11],[2,7]],[[1431,6854],[2,15],[-8,2],[6,14],[-5,6],[7,10],[22,8],[-5,25],[4,8],[-3,14],[-15,13],[-5,43],[-6,16],[-8,29],[7,4],[-2,50],[8,48],[-9,1],[13,15],[-7,14],[3,16],[-7,8],[9,13],[-3,23],[-12,0],[-7,14],[-8,5],[11,2],[-7,6],[2,12],[-16,16],[-9,22],[-5,2],[-14,23],[-7,18],[-3,19],[-6,6],[-11,26],[11,3],[-9,12],[-7,-2],[-2,12],[-8,7],[1,6],[-8,-2],[-4,5],[-9,-6],[-1,23],[7,10],[2,17],[-4,17],[-5,1],[2,13],[-4,9],[7,5],[-12,19],[8,11],[1,19],[-7,3],[-10,13],[-2,13],[-13,6],[0,8],[8,14],[1,13],[-5,11],[-1,20],[13,7],[3,15],[-2,8],[4,21],[21,27],[6,13],[3,17],[12,40],[7,31],[20,70],[-24,187],[11,10],[5,11],[0,15],[9,20],[-14,18],[4,15],[-11,26],[-11,14]],[[1330,8265],[33,22],[43,11],[-22,12],[-25,25],[-7,45],[13,-5],[8,-14],[30,-3],[11,-5],[11,7],[4,-13],[15,-4],[8,8],[9,17],[18,11],[6,-3],[2,-11],[-5,-20],[7,-3],[16,3],[0,-17],[13,6],[10,9],[8,-8],[-7,-17],[5,-10],[23,-4],[6,-7],[11,8],[5,14],[14,12],[9,-9],[-11,-21],[5,-6],[9,0],[8,21],[6,6],[23,-5],[13,4],[3,-4],[-10,-12],[4,-6],[27,3],[3,-8],[20,1],[14,11],[-6,13],[2,11],[10,1],[9,-12],[8,10],[-5,18],[-18,13],[14,12],[5,-14],[9,-4],[13,9],[13,21],[12,8],[5,8],[-8,7],[-16,-7],[-7,10],[8,14],[-5,4],[-13,-5],[-5,11],[18,11],[19,2],[5,5],[-5,8],[8,4],[24,35],[6,5],[13,-2],[0,-13],[27,-27],[12,2],[11,28],[11,-8],[13,-6],[7,-13],[15,-18],[14,-3]],[[1939,8444],[-9,-27],[-6,-1],[1,-102],[55,0],[2,-14],[-13,-39],[-1,-35],[6,-30],[-4,-14],[-34,-40],[-11,-15],[-31,-89],[-47,-84],[-1,-124],[6,-57],[23,-68],[-12,-12],[-7,-14],[7,-9],[-3,-5],[5,-10],[-4,-19],[-27,8],[-6,6],[-14,-4],[-10,3],[-7,-6],[11,-18],[7,-17],[10,-5],[1,-17],[-9,-9],[11,-12],[-7,-4],[-2,-17],[-8,-12],[9,-7],[-8,-11],[-8,-4],[-6,-19],[5,-5],[-8,-11],[-10,-2],[-2,-11],[-10,-6],[-2,-9],[3,-12],[8,-6],[22,-30],[9,-15],[23,-23],[28,-14],[27,-6],[21,8],[11,1],[20,-6],[12,-10],[8,-1],[1,-8],[27,-10],[-2,-13],[27,-5],[7,-9],[26,23],[33,-12],[13,-14],[1,-11],[15,-2],[7,-16],[9,-7],[-1,-7],[-8,-10],[-17,-28],[3,-20],[-4,-28],[14,-7],[12,-11],[2,-10],[22,-16],[23,-9],[13,-13],[5,-11],[30,-17],[14,-6],[18,-11],[33,1],[32,-12],[19,-3],[8,-11],[12,1],[18,-8],[38,7],[12,-17],[14,-6],[15,3],[11,8],[1,6],[13,7],[14,-2],[25,5],[22,-21],[3,-18],[-3,-17],[11,-12],[22,-10],[10,-12],[8,-17],[5,-30],[4,-12],[10,-4],[23,-3],[6,-17],[13,-13],[13,-2],[5,-19],[23,-12],[23,2],[5,-4],[10,7],[13,-27],[12,-10],[30,-1],[15,-8],[14,8],[27,-1]],[[2842,6771],[0,-16],[6,-15],[0,-13],[-5,-21],[1,-22],[8,-6],[33,-10],[21,1],[28,6],[27,-4],[8,-6],[14,-28],[23,-20],[13,-27],[10,-10],[20,-4],[19,-8],[19,0],[56,35],[31,16],[23,17],[13,18],[6,-1],[11,-19],[9,-2],[16,4],[37,5],[32,10],[30,14],[34,2],[44,15],[25,4],[31,9],[53,10],[24,6],[70,27],[33,8],[19,6]],[[3684,6752],[26,-22],[9,-2],[1,-10],[-4,-13],[10,-7],[-3,-12],[-9,-12],[12,-4],[2,-9],[22,-13],[8,8],[16,-14],[27,1],[26,-12],[18,2],[16,-9],[6,-8],[15,-10],[11,2],[45,-59],[-17,-24],[-22,-22],[-11,-25],[-11,-15],[-28,-31],[-8,-10]],[[1939,8444],[18,14],[9,-1],[10,-7],[1,-7],[16,-9],[15,-4],[14,-9],[34,16],[2,15],[-13,15],[9,19],[5,3],[19,-7],[23,15],[16,-2],[17,-10],[13,15],[13,7],[-1,4],[-30,27],[5,9],[19,4],[33,30],[0,7],[-6,18],[7,14],[21,-5],[14,20],[6,-1],[3,-22],[8,-7],[6,3],[20,0],[27,16],[14,11],[7,1],[18,-11],[7,-16],[18,-6],[25,-3],[24,-10],[16,-2],[12,3],[2,8],[-12,9],[2,10],[-9,24],[8,10],[16,5],[4,24],[30,8],[16,-12],[18,-3],[9,-6],[-1,-7],[9,-11],[9,0],[-2,-21],[4,-9],[22,4],[15,6],[21,-30],[5,-4],[9,-19],[5,-4],[30,20],[22,-7],[11,-19],[7,-7],[20,2],[24,9],[1,-18],[21,-9],[6,5],[-6,20],[7,6],[19,-1],[12,4],[18,-4],[10,6],[23,-5],[8,-27],[2,-16],[-6,-9],[4,-9],[31,-6],[14,0],[11,-7],[12,4],[7,-4],[-6,-23],[23,-11],[21,3],[15,14],[5,13],[12,16],[9,2],[10,-10],[6,-12],[14,-9],[8,-13],[2,-15],[-5,-12],[10,-17],[10,-11],[20,11],[28,-3],[13,8],[20,1],[7,11],[26,7],[12,-9],[15,-3],[5,4],[19,-1],[10,-7]],[[3230,8435],[5,-5],[7,5],[6,-3],[-3,-10],[83,-33],[26,-2]],[[3354,8387],[-10,-37],[-14,-33],[-5,-27],[-3,-52],[-9,-55],[-2,-24],[5,-28],[-3,-49],[2,-33],[10,-36],[9,-21],[9,-37],[12,-25],[-1,-36],[6,-10],[13,-13],[-3,-16],[4,-9],[13,-17],[1,-62],[-9,-47],[1,-55],[-2,-7],[-22,-27],[-25,-24],[-21,-33],[-20,-28],[-13,-34],[-17,-48],[-2,-21],[-21,-40],[-12,-40],[-17,-25],[-6,-19],[-19,-27],[-5,-11],[-10,-60],[-11,-35],[-8,-36],[-11,-32],[-3,-25],[21,-17],[-1,-11],[-24,-24],[-28,-31],[-18,-12],[-15,-5],[-27,-14],[-19,-18],[-23,-14],[-25,-2],[-21,-15],[-34,-13],[-25,-4],[-4,-5],[-9,-31],[-13,-20],[-8,-34],[-7,-23],[-6,-6],[-7,-23]],[[6752,6898],[-1,22],[2,14],[10,12],[2,21],[-14,32],[-9,13],[5,37],[18,31],[12,-4],[16,6],[11,7],[1,7],[27,18],[12,1],[5,6],[3,32],[8,5],[4,11],[-13,19],[29,-2],[12,95],[23,-3],[8,10],[-6,2],[-3,18],[-10,16],[4,10],[-2,16],[-18,27],[-4,17],[1,15],[8,-2],[17,4],[9,21],[7,4],[-1,8],[8,4],[0,10],[15,9],[-2,9],[4,12],[32,24],[3,14],[-12,3],[-16,-7],[-4,2],[-2,12],[7,8],[-4,12],[-20,4],[-13,6],[-12,13],[-9,4],[-24,1],[-4,-3],[-24,8],[-12,10],[-11,20],[-14,11],[-4,11],[-11,6],[-1,6],[-15,17],[-2,18],[20,13],[33,5],[11,23],[4,25],[-4,20],[-53,69],[6,17],[77,133],[-2,13],[-17,23],[-17,19],[3,3],[7,26],[5,11],[2,27],[-11,18],[7,14]],[[6849,8147],[5,7],[24,7],[20,19],[13,7],[2,7],[14,1],[28,9],[10,9],[10,27],[0,8],[18,8],[0,6],[13,-6],[12,5],[9,-12],[3,-15],[16,-4],[-6,-4],[3,-22],[12,-17],[2,-17],[6,-6],[17,-3],[17,-8],[4,5],[18,-8],[14,-2],[8,10],[16,0],[2,4],[19,4],[123,-9],[29,-12],[34,-28],[16,-7],[29,-2],[39,19],[20,-4],[16,-11],[10,-3],[2,-17],[28,-22],[5,1],[20,-10],[-1,-2],[250,-127],[21,-10],[8,0],[35,6],[21,5],[12,-2],[60,-1],[22,1],[9,7],[20,8],[19,13],[13,1],[27,8],[24,-7],[15,-9],[27,-2],[30,12],[10,1],[16,-3],[7,5],[3,13],[20,13],[4,13],[11,2],[9,7],[77,31],[31,0],[15,8],[-6,21],[-15,12],[1,7],[-11,11],[1,14],[-15,10],[2,8],[-9,13],[-5,0],[-3,19],[-9,2],[-14,9],[-15,4],[-5,10],[0,15],[-5,7],[-14,7],[-11,17],[-12,42]],[[8219,8280],[16,-5],[22,0],[10,-3],[28,1],[13,-3],[21,16],[15,6],[20,14],[22,-2],[3,-6],[23,6],[17,8],[3,11],[19,4],[7,13],[15,-3],[57,27],[6,0],[27,24],[7,12],[19,10],[12,2],[26,-1],[27,8],[29,11],[15,14],[25,9],[4,13]],[[8727,8466],[1,-5],[13,-14],[9,-19],[-2,-29],[4,-17],[5,-3],[-3,-12],[7,-9],[6,0],[27,-15],[11,-12],[10,-3],[23,-18],[-13,-15],[-6,-2],[-3,-10],[5,-7],[-3,-11],[8,-18],[-2,-11],[-15,-3],[-13,-9],[-18,-2],[-12,-8],[-12,-23],[18,-41],[27,-71],[33,-60],[4,-15],[-7,-14],[-13,-41],[-6,-10],[4,-21],[-3,-21],[3,-12],[-19,-8],[-17,-18],[-18,-9],[-18,-18],[-17,-7],[-3,-7],[-12,-4],[3,-14],[-21,-13],[-13,-24],[-11,-8],[-6,-35],[-17,-17],[-3,-19],[-15,-12],[10,-16],[-6,-27],[28,3],[5,6],[9,-3],[19,11],[1,11],[10,-3],[3,9],[7,3],[-3,11],[10,7],[11,1],[-5,-46],[26,-79],[6,-34],[-8,-15],[-4,-29],[-117,-107],[-3,-99],[3,-169],[0,-50],[-3,-16],[-9,-32],[-3,-20],[-5,-19],[3,-28],[9,-27],[22,-30]],[[8643,6885],[20,-55],[15,-27],[35,-25],[32,-95],[15,-97],[-4,-58],[-7,-60],[-5,-21],[-22,-31],[-27,-9],[-15,-16],[13,-50],[-25,2],[-11,-11],[-223,-150]],[[5635,6808],[23,98],[7,33],[26,79],[25,47],[35,35],[57,49],[45,43],[37,40],[44,58],[17,29],[12,25],[13,35],[11,47],[2,55],[0,72],[-1,58],[-5,90],[-10,57],[-3,35],[-1,35]],[[5969,7828],[13,1],[19,10],[31,41],[-13,25],[-8,25],[4,53],[10,51],[4,58],[8,30],[5,33],[11,34],[3,20],[17,44],[6,18],[20,47],[6,18],[11,20],[24,71],[18,34],[10,24],[10,33],[15,30],[7,21],[22,47],[12,20],[39,56],[8,21],[14,25],[8,21],[9,10],[43,80],[7,8],[19,32],[20,47],[16,35],[19,61],[8,18],[17,28],[8,44],[7,18],[0,21]],[[6476,9161],[8,-18],[14,-23],[16,-11],[8,0],[14,11],[37,-1],[18,-7],[18,6],[22,-5],[11,0],[22,-7],[8,4],[11,-4],[7,5],[11,-2],[12,6],[37,-6],[20,2],[15,-9],[8,-14],[15,-5],[7,2],[5,-10],[-7,-8],[7,-17],[-9,-11],[8,-11],[-10,-7],[2,-10],[6,2],[5,-9],[8,0],[8,-14],[12,-1],[10,-17],[14,-7],[-8,-4],[2,-6],[25,7],[6,-8],[-8,-9],[4,-7],[-12,-3],[7,-5],[-10,-9],[-12,-3],[6,-11],[-14,-4],[2,-11],[51,-147],[-1,-8],[-16,-1],[8,-21],[-15,-6],[8,-9],[8,-1],[2,-12],[-8,-9],[9,-8],[-11,-6],[0,-8],[-11,-8],[3,-11],[-10,-9],[-12,-5],[5,-11],[-27,-3],[4,-20],[-13,-20],[11,-23],[-12,-11],[6,-67],[4,-8],[-1,-30],[6,-5],[4,-20],[5,-8],[7,-21],[-2,-24],[3,-31],[-6,-13],[-21,-3],[-14,6],[-18,-27],[-11,-12],[-9,-18],[35,-82],[26,-25]],[[8727,8466],[5,-3],[29,0],[9,8],[5,11],[3,19],[15,-1],[35,1],[38,19],[28,-3],[3,14],[12,25],[23,10],[5,9],[20,13],[19,20],[27,12],[14,8],[20,-3],[8,-8],[18,-6],[17,-3],[6,14],[10,9],[19,-4],[15,10],[5,7],[10,3],[10,16],[2,10],[12,7],[23,23],[23,9],[0,6],[12,4],[9,-10],[19,-7],[8,-12],[35,9],[4,18],[16,22],[10,10],[6,-1],[21,27],[16,2],[15,-2],[11,16],[9,3],[15,-10],[24,-3],[5,-14],[7,3],[13,-14],[0,-8],[16,-4],[11,5],[18,0],[0,-9],[20,-7],[9,-12],[12,-4],[11,-17],[5,-2],[-4,-21],[10,-15],[1,-13],[-15,-1],[-11,-5],[4,-7],[-7,-12],[2,-27],[13,-5],[2,-8],[-9,-10],[8,-6],[-12,-9],[-8,7],[-3,-7],[6,-11],[-5,-17],[5,1],[1,-19],[-2,-11],[-10,-6],[-1,-8],[-15,1],[-3,-11],[-7,1],[-11,-8],[-3,-9],[1,-21],[-7,-3],[4,-20],[19,-16],[-6,-15],[2,-6],[-12,-1],[4,-9],[-12,0],[-9,5],[-11,-4],[2,-9],[-17,-4],[-7,-11],[11,-10],[-5,-6],[3,-14],[-14,5],[1,-8],[-17,-14],[-5,-12],[6,-6],[10,1],[-7,-18],[9,-8],[9,1],[-1,-8],[9,0],[-8,-27],[-10,-5],[6,-3],[6,-14],[-5,-6],[14,4],[5,-14],[13,-1],[7,-14],[23,-29],[19,7],[22,2],[5,-7],[21,-2],[18,20],[6,-4],[2,10],[7,2],[2,13],[18,10],[5,10],[11,-2],[6,18],[5,5],[12,-4],[4,24],[11,15],[0,17],[8,2],[-3,22],[8,16],[6,34],[-4,48],[-3,6],[-24,28],[-12,29],[-12,38],[-1,12],[5,3],[25,-16],[33,-14],[35,-8],[60,-4],[32,6],[16,-10],[14,-2],[27,-10],[28,2],[13,-5],[-4,-16],[-32,-56],[0,-19],[4,-5],[4,-21],[31,-15],[6,-12],[10,0],[3,-14],[10,-8],[1,-15],[-4,-16],[-9,-9],[2,-26],[4,-1],[0,-19],[17,-4],[22,-42],[-11,-17],[4,-4],[0,-20],[-6,-3],[-2,-17],[7,-14],[-7,-12],[6,-2],[-1,-10],[-9,-2],[-3,-9],[-11,-1],[-5,-14],[8,-16],[12,-8],[3,-10],[-18,-17],[6,-12],[-6,-9],[7,-4],[3,-10],[-18,-28],[-7,1],[-15,-5],[-5,-15],[-10,-14],[1,-18],[-7,-21],[-7,-5],[-1,-26],[-15,-8],[-5,-12],[-9,4],[-13,-13],[-11,-4],[-11,-16],[-13,-1],[-20,-6],[-11,1],[-18,-7],[0,-6],[-15,14],[-5,-20],[2,-5],[-6,-14],[-11,-3],[-3,-8],[-10,-3],[-3,-9],[5,-15],[10,-16],[0,-8],[-7,-12],[4,-10],[11,-9],[8,0],[4,-14],[19,-11],[7,-9],[20,-12],[0,-11],[10,-15],[-8,-10],[3,-17],[-5,-3],[-7,-26],[1,-16],[-10,-10],[-10,-20],[-30,-4],[-9,-13],[6,-24],[-1,-25],[-14,-21],[-1,-9],[-13,-14],[7,-15],[-3,-6],[17,-20],[8,-19],[-4,-15],[5,-17],[8,-8],[29,-13],[0,-7],[11,-17],[1,-27],[21,-10],[1,-24],[-7,-13],[3,-5],[-9,-11],[-14,-4],[-16,-25],[0,-6],[-13,-14],[-5,-30],[17,-20],[-10,-14],[2,-18],[12,-22],[-10,-27],[-16,-2],[7,-11],[-5,-10],[4,-11],[-2,-32],[6,-4],[-4,-8],[3,-19],[-5,-14]],[[9762,6828],[-6,2],[-1,10],[-13,4],[-7,22],[-11,10],[-8,-1],[-13,7],[-43,0],[-6,-4],[-22,-4],[-98,-21],[-36,-11],[-244,-48],[-67,6],[-46,9],[-58,5],[-25,8],[-39,4],[-20,-7],[-50,3],[-44,8],[-19,1],[-122,10],[-24,8],[-27,3],[-57,25],[-13,8]],[[6497,3809],[15,-9],[4,-9],[-2,-14],[-9,-12],[1,-8],[28,-31],[23,-29],[3,-30],[-1,-11],[-9,0],[-8,-14],[12,-25],[6,-25],[0,-15],[-23,-19],[28,7],[12,-5],[18,-14],[16,-6],[15,1],[8,7],[21,-4],[14,-8],[8,-1],[11,-16],[36,-19],[64,1],[38,-3],[21,-8],[13,5],[25,0],[1,-6],[11,-5],[1,-6],[23,-8],[0,-10],[39,6],[17,56],[20,-1],[15,-5],[16,-11],[40,-8],[27,-1],[12,2],[28,10],[33,24],[24,23],[24,13],[15,3],[55,-4],[4,10],[12,-3],[34,6],[10,0],[10,-7],[27,-1],[7,4],[13,-5],[10,2],[22,16],[20,8],[16,19],[31,9],[2,-3],[35,12],[8,-4],[-9,-53],[8,-5],[20,-4],[11,4],[18,0],[30,-12]],[[7625,3560],[-5,-31],[16,-33],[12,-9],[1,-6],[18,-15],[2,-19],[10,4],[13,-18],[8,-31],[-1,-12],[27,9],[22,-10],[16,-4],[27,0],[0,-17],[9,-29],[-9,-13],[-16,-3],[-10,-20],[7,-14],[-14,-26],[-4,-21],[-13,-26],[4,-6],[-7,-18],[0,-10],[6,-8],[-11,-18],[-26,1],[-5,-34],[8,-35],[-7,-13],[-8,-8],[-13,-2],[-12,-19],[-17,-5],[2,-20],[5,0],[7,-13],[2,-18],[9,-17],[32,-6],[38,-37],[-2,-24],[15,-20],[-8,-10],[1,-21],[-9,-8],[-22,-5],[-5,-23],[20,-7],[-7,-20],[17,-5],[-1,-3],[29,-3],[14,13],[20,-19],[1,12],[10,2],[30,-4],[-1,-10],[9,-2],[3,-15],[5,-6],[40,-1],[10,-16],[14,-7],[25,-2],[-2,-16],[4,-9],[16,-3],[8,-18],[-2,-11],[-11,-4],[-13,-16],[-32,5],[-7,-11],[-11,-4],[2,-21],[12,-7],[-5,-9],[11,-6],[14,-27],[5,-14],[5,3],[24,-5],[8,-10],[16,-4],[11,-18],[13,-33],[15,-8],[3,-20],[25,-26],[14,-6],[0,-14],[-11,-1],[-2,-9],[-21,-13],[-7,-18],[6,-5],[-6,-25],[-7,0],[-2,-24],[-3,-1]],[[8026,2318],[-8,-1],[-12,14],[-3,8],[-15,17],[-15,5],[-12,8],[-18,6],[-6,-16],[-10,-11],[-20,9],[-7,-1],[-6,-12],[-12,-5],[-24,8],[-1,-8],[-10,-18],[-30,-2],[-4,8],[-30,-1],[-10,-19],[3,-9],[-12,-20],[-2,-14],[-6,0],[-14,-15],[-4,2],[-19,-9],[-12,-18],[-11,-9],[-5,-9],[-2,-24],[-46,32],[0,-48],[-22,-3],[-5,-4],[-28,-40],[4,-10],[-5,-32],[-37,-69],[-20,-12],[-8,0],[-14,-8],[-20,-16],[-8,-11],[-19,-2],[-37,0],[-16,3],[-2,-3],[-16,2],[-12,-32],[-19,-4],[-7,-15],[-13,-8],[-7,-24],[-16,-41],[-18,-1],[-12,-3],[-9,-14],[-3,-16],[5,-6],[-22,-40],[-9,-6],[-4,-9],[-13,-3],[-2,-11],[-26,-15],[-8,-12],[-7,-22]],[[7188,1679],[-11,5],[-22,-4],[-28,3],[-2,-21],[-17,12],[-2,9],[-15,8],[1,4],[-11,12],[-11,7],[-3,17],[12,20],[9,11],[-3,25],[-26,20],[-10,0],[-17,-6],[-12,4]],[[7020,1805],[9,17],[-21,19],[-1,21],[26,38],[0,13],[-12,15],[2,17],[12,4],[-7,16],[2,24],[11,2],[-1,15],[7,17],[-13,21],[3,29],[8,14],[4,-3],[17,26],[11,13],[-3,3],[17,10],[3,14],[4,-1],[7,18],[-6,3],[1,14],[-6,6],[6,24],[-24,16],[-44,-3],[-20,6],[-39,48],[-5,32],[-7,7],[-6,15],[-14,7],[-4,9],[-24,1],[-3,-6],[-10,14],[-19,10],[-3,11],[-14,7],[4,15],[-19,8],[0,24],[-11,3],[2,28],[-12,14],[-12,9],[4,14],[-5,11],[3,8],[-6,4],[-6,-8],[-24,-4],[-8,-4],[-16,9],[-4,-4],[-16,11],[-37,79],[9,30],[-25,-10],[0,4],[-17,2],[2,6],[-18,5],[-19,-3],[-56,49],[-16,5],[-16,-5],[-14,20],[-2,10],[-47,13],[1,19],[9,16],[-3,16],[-4,3],[-2,18],[-16,-6],[-7,3],[-26,-3],[-20,2],[-13,12],[-8,-4],[-37,4],[-18,9],[-25,-3],[-8,11],[4,12],[-3,9],[5,25],[0,15],[6,6],[-19,10],[-8,12],[-40,28],[-10,0]],[[6240,2945],[-2,13],[4,5],[19,3],[11,8],[4,33],[10,5],[5,21],[8,7],[-8,6],[-19,4],[-2,29],[20,-3],[19,35],[3,30],[-7,20],[-11,43],[-1,11],[6,27],[3,37],[-38,-16],[1,15],[-8,1],[-5,36],[-12,0],[-3,6],[-27,1],[-9,6],[7,38],[-7,16],[8,7],[-1,14],[-14,14],[4,12],[25,11],[-16,9],[-2,9],[-9,5]],[[6196,3463],[5,5],[2,16],[15,1],[9,5],[4,21],[17,9],[5,9],[-22,12],[1,21],[6,10],[13,-5],[5,14],[-15,14],[-2,11],[6,1],[17,-11],[19,6],[1,6],[-11,4],[-10,8],[9,9],[18,0],[12,6],[13,28],[12,-6],[1,-9],[12,-6],[11,6],[12,15],[-33,13],[-12,20],[0,11],[9,15],[15,5],[2,7],[-9,5],[8,6],[14,0],[21,-21],[9,-5],[13,7],[-6,15],[5,12],[14,-5],[11,4],[12,-3],[4,11],[-9,11],[-23,-10],[-6,8],[5,17],[7,8],[-4,12],[3,3],[22,-5],[8,-12],[18,6],[-11,22],[13,-1],[12,-17],[17,-3],[7,10]],[[8026,2318],[12,-12],[-4,-4],[-4,-21],[-10,-15],[-19,-6],[-5,-15],[-16,-13],[7,-24],[15,-23],[-9,-21],[-2,-14],[-13,-5],[-14,-21],[-18,-8],[3,-27],[6,0],[0,-10],[-9,-14],[10,-2],[-2,-10],[9,-5],[3,-15],[9,-12],[18,1],[6,-11],[-8,-5],[-2,-11],[5,-16],[-4,-7],[4,-11],[17,-9],[7,-11],[-6,-8],[4,-17],[15,-7],[-2,-35],[11,-3],[-5,-12],[8,-7],[15,-7],[5,-19],[-5,-10],[10,-4],[8,-13],[13,-10],[-1,-5],[18,-9],[7,-10],[-2,-8],[16,-23],[-1,-25],[20,0],[5,-2],[27,-1],[14,-4],[-9,-5],[0,-11],[10,-21],[-13,-23],[-6,-5],[1,-18],[9,-27],[-4,-5],[15,-18],[-6,-13],[-1,-16],[-9,2],[-10,-11],[-2,-16],[12,-16],[-5,-5],[3,-8],[-21,-13],[-4,-16],[7,-21],[-4,-12],[10,-11],[12,2],[-6,-11],[5,-7],[-6,-6],[0,-10],[-7,1],[-2,-8],[11,1],[6,-6],[-4,-14],[-11,-17],[-11,-8],[4,-13],[-5,-4],[18,-7],[1,-7],[14,-3],[20,-15],[0,-15]],[[8204,1266],[-17,-16],[-4,-8],[-18,-5],[-16,1],[-16,-15],[-9,-1],[-17,-14],[-13,-4],[-21,-2],[-3,38],[2,10],[-20,48],[-4,22],[-1,27],[-10,11],[-7,26],[3,9],[-4,7],[-15,9],[-2,11],[-15,4],[-22,11],[0,4],[-13,3],[-20,-9],[-10,24],[-12,2],[-2,18],[11,9],[-189,69],[-16,-2],[-28,2],[-13,4],[-7,-55],[-19,0],[-12,9],[-29,8],[-102,-14],[-6,-2],[-4,-16],[-8,-2],[-12,4],[-12,-8],[-12,9],[-13,3],[-13,-5],[4,-14],[-5,-8],[-10,0],[-61,24],[-27,6],[-19,22],[-10,19],[-37,21],[-7,7],[-20,11],[-7,6],[-20,10],[1,9],[-14,21],[-13,6],[-3,-6],[-15,9],[0,8],[21,14],[3,7],[-10,7],[3,10]],[[6296,1892],[35,-23],[30,-17],[13,2],[2,-9],[9,-2],[1,12],[26,-14],[3,11],[8,-4],[10,5],[17,-6],[1,6],[20,-9],[2,4],[17,-8],[6,9],[13,-8],[8,11],[7,-10],[29,1],[14,6],[8,-1],[2,8],[8,-5],[12,10]],[[6597,1861],[-5,-13],[13,-6],[-4,-19],[2,-29],[13,-15],[-7,-21],[1,-7],[12,-1],[11,-7],[4,-13],[-5,-18],[9,4],[4,-41],[9,-8],[10,-19],[9,-10],[-4,-18],[7,0],[9,-12],[-12,-21],[-1,-22],[-10,-15],[1,-9],[-20,-20],[-22,3],[4,-28],[-6,-9],[-9,0],[-15,-5],[-8,-10],[7,-10],[-11,-18],[0,-18],[9,-14],[-8,-1],[5,-29],[27,-8],[9,-14],[0,-8],[15,1],[6,-11],[-5,-3],[13,-27],[12,-6],[0,-12],[12,-1],[9,-27],[-7,-7],[4,-13],[-27,2],[-11,-5],[-24,5],[-15,-35],[-12,-1],[-9,-25],[-11,-11],[-10,-4],[-4,-11],[4,-7],[-13,-27],[-6,-3],[-13,-19],[-1,-15],[-8,-8],[-1,-19],[22,-51],[-12,-1],[-2,-8],[-17,-7],[3,-11],[-6,-8],[-17,-5],[-8,-11],[0,-22],[-5,-13],[0,-27],[-35,-12],[7,-16],[-7,-25],[12,-5],[2,-29],[-9,-13],[0,-15],[-10,-13],[3,-17],[15,-2],[8,-9],[-5,-6],[2,-10],[10,-10],[-7,-11],[8,-6],[6,-12],[-6,-15],[9,0],[-7,-20]],[[6477,653],[-17,-18],[-9,-1],[-4,-9],[-14,-6],[2,-13],[-7,-5],[4,-10],[-5,-6],[-7,1],[-12,-12],[-18,-6],[-31,6],[-8,4],[-12,-1],[-9,5],[-20,-2],[-24,-17],[-11,0],[-14,7],[-3,-5],[-17,2],[-25,9],[-21,-11],[-12,5],[0,6],[-10,9],[-17,7],[-11,-1],[-8,12],[-13,0],[-10,10],[-30,-6],[-1,16],[-14,6],[-12,1],[-4,8],[-33,15],[-25,1],[-9,-7],[-12,0],[1,-5],[-10,-8],[-11,0],[-5,-9],[-8,-4],[-3,-18],[-9,-9],[-19,-29],[3,-13],[-9,-4],[-13,2],[-8,-9],[-11,-5],[-18,-1],[-7,-5],[-12,1],[-9,-10],[-31,-13],[-11,2],[-1,9],[-21,11],[-18,-2],[-3,-9],[-24,3],[-11,-8],[-22,4],[-19,-11],[-14,-2],[-15,-7],[-3,-7],[-10,-3],[-11,6],[-18,3],[-40,9],[-35,19],[-32,-5],[-10,2],[-15,12],[-19,7],[6,4],[-10,4],[-2,7],[-12,2],[-108,99],[-34,-10],[-2,4],[-37,-16],[-18,-3],[-44,0],[-47,-28],[-35,-16],[-16,-4],[-35,-6],[-49,-2],[-40,6],[-21,-1],[-36,-4]],[[4903,577],[0,15],[11,3],[9,20],[8,5],[0,18],[4,88],[-9,18],[-7,23],[-4,28],[5,19],[-5,15],[5,15],[12,20],[1,14],[12,18],[0,10],[-15,9],[-6,11],[6,10],[0,15],[16,6],[29,5],[-5,18],[-1,21],[-9,25],[28,5],[20,2],[36,10],[26,20],[20,4],[28,-2],[20,3],[31,-6],[9,2],[40,-8],[5,-4],[28,-7],[13,3],[10,9],[-8,8],[-6,21],[3,8],[12,2],[-2,23],[-12,3],[3,21],[17,16],[4,17],[-1,21],[-17,17],[2,13],[-9,32],[-18,3],[-10,29],[4,7],[55,-1],[3,7],[-7,14],[10,61],[5,11],[-79,26],[23,28],[36,46],[18,37],[9,24],[12,43],[14,31],[5,26],[4,56]],[[5344,1707],[3,52],[61,-18],[15,-3],[35,0],[19,-6],[45,14],[63,51],[14,4],[28,18],[38,-10],[13,28],[-6,7],[4,10],[20,20],[0,14],[28,6],[23,-16],[5,-13],[15,22],[15,5],[13,8],[8,12],[-6,38],[1,23],[14,16],[-24,14],[-14,2],[-15,8],[-12,-7],[-10,10],[-3,12],[2,13],[-9,22]],[[5727,2063],[5,2],[12,-6],[27,-4],[3,2],[40,5],[9,9],[18,2],[29,8],[10,-34],[2,-20],[-4,-15],[1,-14],[10,-18],[10,-9],[14,-3],[21,-12],[10,-15],[10,1],[12,-12],[31,-17],[31,-5],[15,3],[41,-12],[2,12],[35,11],[37,-7],[14,-10],[3,-8],[25,1],[85,-4],[11,-2]],[[5344,1707],[-14,4],[-10,-6],[-11,4],[-11,-6],[-8,4],[-14,-6],[-28,4],[-5,6],[-21,1],[-8,6],[0,8],[-22,5],[-14,-8],[-19,-2],[-11,-27],[-8,-1],[-14,-13],[-3,-8],[-23,-6],[-14,10],[-18,9],[-21,3],[-6,7],[-24,2],[-2,6],[-17,-5],[-15,1],[-15,-3],[-12,-7],[-23,-3],[-11,4],[-12,12],[-32,11],[-38,1],[-10,-14],[-13,5],[-7,-7],[3,-16],[-44,-6],[-50,-28],[-15,-4],[-33,1],[-15,4],[-14,-1],[-27,11],[-1,-8],[-22,-3],[-11,2],[-5,8],[-27,2],[-17,11],[-20,2],[-14,12],[-13,1],[-19,8],[-6,12],[-2,14],[-11,7],[-28,-4],[-14,4],[-19,18],[-12,2],[-10,-4],[-2,6],[-12,3],[-4,8],[-29,-2],[-13,2],[-7,-4],[-9,4],[-25,3],[-9,6],[-2,9],[-8,5],[-5,-3],[-14,4],[-25,11],[4,26],[13,21],[-10,1]],[[4207,1843],[-5,20],[3,29],[2,5],[17,-1],[1,19],[22,24],[3,18],[-4,10],[17,9],[-3,12],[-13,1],[-2,8],[13,8],[-15,5],[0,12],[18,-2],[8,13],[-33,14],[-6,-2],[1,-9],[-7,-4],[-6,10],[2,8],[12,9],[37,6],[-1,-8],[11,3],[4,14],[-10,1],[-2,11],[24,19],[-4,10],[10,11],[5,13],[-12,-1],[-1,7],[10,6],[14,19],[6,-3],[2,-14],[12,1],[10,-5],[9,5],[-6,12],[-18,4],[-4,5],[11,2],[12,9],[3,8],[-2,17],[-24,-11],[-12,4],[8,19],[11,10],[-11,5],[-18,-24],[-4,6],[4,11],[-2,12],[-7,16],[2,9],[12,9],[-8,12],[14,-4],[15,11],[9,10],[-4,7],[5,7],[0,14],[-7,16],[38,13],[10,7],[11,2],[3,15],[12,1],[4,-9],[21,13],[-10,5],[-8,11],[3,17],[10,2]],[[4429,2427],[10,-3],[9,-18],[24,-12],[-8,-5],[-3,-12],[6,-2],[11,8],[1,22],[-6,10],[2,19],[18,-2],[14,5],[2,-10],[11,-16],[18,-2],[10,4],[10,-17],[7,-2],[18,24],[6,2],[6,-11],[14,-4],[13,14],[-3,5],[-19,-2],[-1,10],[16,8],[-10,9],[3,11],[12,6],[6,-12],[7,1],[0,17],[-8,5],[-5,15],[12,-2],[10,-15],[6,-14],[15,-1],[1,6],[-9,15],[11,6],[6,14],[9,10],[5,-5],[-4,-13],[1,-14],[11,-15],[18,12],[8,12]],[[4720,2488],[5,-20],[6,-6],[21,-10],[4,-9],[11,-8],[0,6],[13,-9],[0,-14],[11,-14],[2,-12],[5,1],[16,-12],[2,-6],[13,-7],[5,-7],[23,-3],[2,4],[14,-3],[11,-12],[1,5],[20,3],[9,-7],[7,-17],[16,-1],[5,-8],[13,-4],[8,5],[12,-3],[78,-55],[51,1],[25,33],[15,2],[27,16],[19,30],[17,14],[4,7],[16,5],[6,8],[37,-10],[5,2],[17,-3],[13,-21],[10,-7],[8,5],[21,-5],[11,1],[7,8],[16,8],[4,-8],[9,-2],[14,4],[12,-4],[12,4],[5,-14],[7,-9],[9,-22],[4,0],[5,-15],[14,6],[15,-5],[16,2],[12,-8],[19,5],[19,18],[1,8],[49,-18],[32,-26],[18,-7],[-4,-12],[-19,-3],[3,-8],[-6,-8],[4,-10],[-11,-15],[-13,-7],[-4,-7],[11,-20],[25,-14],[5,-15],[17,-15],[8,3],[4,-6],[9,3],[13,-12],[0,-6],[9,-7],[5,-38],[17,-8]],[[4903,577],[-28,-4],[-35,-32],[-22,-42],[-25,-7],[-39,4],[-19,-18],[-12,-4],[-13,-16],[-2,-10],[-14,-16],[-14,-4],[-56,11],[-30,9],[-15,8],[0,5],[-20,8],[-4,20],[-9,7],[-8,37],[-10,6],[-7,-4],[-6,15],[-5,0],[-24,28],[-3,7],[-16,4],[-4,17],[-8,4],[-11,13],[-5,18],[-32,6],[-8,17],[-17,7],[0,9],[-17,2],[-10,13],[-19,0],[-9,-15],[-14,-3],[-19,4],[-3,-7],[-15,-10],[-13,4],[-8,18],[-11,8],[-4,21],[-5,8],[-2,17],[12,37],[-3,9],[13,12],[2,18],[8,8],[-5,9],[5,11],[-13,27],[19,2],[8,8],[-7,19],[10,2],[-8,17],[2,7],[-17,8],[-27,-2],[-4,19],[-12,7],[-4,-4],[-5,10],[-9,2],[-14,11],[0,14],[-17,7],[-28,34],[-92,89],[-7,16],[-16,8],[6,37],[-14,19],[3,13],[18,-3],[-5,24],[-11,13],[-16,13],[2,13],[12,-1],[-1,22],[-7,13],[-12,13],[-5,15],[-12,-13],[-11,8],[23,16],[13,2],[-5,24],[0,15],[-14,20],[1,26],[-3,9],[-10,-7],[-8,2],[-1,22],[-13,1],[-9,9],[3,8],[18,10],[3,-13],[9,-1],[-1,14],[-20,8],[-1,10],[11,5],[3,7],[-7,6],[2,7],[22,8],[2,4],[-14,12],[-2,6],[8,4],[2,8],[-6,21],[2,8],[9,6],[29,0],[-6,22],[4,4],[13,-1],[19,9],[35,-2],[21,19],[-12,13],[9,26],[10,8],[13,-1],[13,5],[-5,28],[-12,12],[10,5],[9,-4],[16,9],[10,18],[4,13],[10,14],[-1,22],[8,13],[9,-4],[13,7]],[[8204,1266],[1,-6],[29,-3],[2,-15],[-7,-1],[-2,-14],[7,-6],[-2,-15],[5,-3],[0,-14],[-5,-9],[6,-2],[5,-20],[-11,-5],[-11,5],[-5,-7],[3,-13],[10,-17],[-21,-5],[-16,2],[-55,-24],[-8,-5],[-5,-11],[-16,0],[-43,-16],[-7,0],[0,-21],[-17,-1],[-19,10],[-24,2],[-10,-18],[-29,-11],[-1,-25],[-42,1],[0,-6],[-16,-12],[9,-11],[-8,-14],[-22,-3],[-19,2],[2,-10],[-4,-41],[10,-15],[17,-41],[-2,-14],[-10,1],[-4,-15],[9,-18],[3,-24],[-19,-10],[-14,-18],[-13,-23],[7,-17],[-2,-7],[9,-9],[-1,-11],[6,-28],[-20,-9],[19,-1],[1,-33],[-14,-17],[2,-7],[14,-8],[0,-32],[-6,-10],[-4,-30],[6,-2],[-3,-10],[-14,-20],[-8,-4],[-3,-9],[-21,-29],[-1,-8],[11,-28],[0,-12],[-11,0],[-2,-16],[6,-25],[26,-9],[3,-4],[-3,-22],[12,0],[-2,-16],[29,-5],[31,-15],[-3,-9],[4,-23],[-9,-18],[1,-5],[-28,9],[-13,2],[-20,-21],[-11,0],[-6,-20],[-7,-11],[-13,1],[-5,-11],[-1,-29],[-29,-12],[-11,-16],[-46,-87],[-72,6],[-14,1],[-55,-4],[-115,-19],[-39,-4],[-48,-3],[-12,0],[-1,7],[-20,5],[-38,15],[-20,4],[-7,-4],[-35,1],[3,-10],[-11,-18],[-18,-1],[-46,7],[-7,5],[11,9],[3,10],[15,-3],[5,17],[-8,21],[-13,-5],[-8,12],[9,6],[2,-6],[13,15],[-10,10],[6,5],[-7,11],[-15,0],[-4,11],[-11,-6],[3,8],[-14,-1],[1,15],[-14,7],[3,-12],[-7,5],[-10,-3],[-5,6],[-14,1],[-30,-5],[-1,8],[-7,-1],[0,10],[-28,9],[-1,11],[-15,1],[1,13],[-8,9],[-12,-5],[-7,8],[-15,-2],[10,12],[-7,9],[3,4],[-10,5],[-6,10],[3,12],[-8,-3],[-14,4],[-17,-9],[-2,6],[-15,-10],[-19,5],[-2,-7],[-14,-9],[-6,12],[-13,-5],[-6,6],[-10,-16],[-5,11],[-8,5],[0,-13],[-5,3],[-24,1],[-12,-2],[-10,3],[-4,-7],[-5,6],[-15,-3],[-2,11],[5,10],[-11,-4],[-4,10],[2,7],[-5,8],[5,16],[-11,17],[-7,17],[1,13],[-14,-2],[-16,27],[1,7],[-10,0],[-13,8],[-3,16],[-7,-10],[-8,11],[-7,-7],[-7,4],[-4,18],[4,8],[-21,20],[-24,12],[-2,16],[-13,2],[-2,6],[-14,8],[-4,21],[2,14],[12,-2],[4,-6],[10,7],[-19,29],[0,12],[15,-2],[-1,5],[15,3],[3,12],[-16,12],[11,6],[0,8],[-18,9],[2,16],[-37,10],[-19,1],[2,9],[-9,2],[-2,12],[-15,-12],[-9,7]],[[6597,1861],[9,-3],[5,4],[10,-4],[7,11],[16,0],[9,-5],[16,6],[5,-13],[14,-4],[4,7],[12,-5],[29,3],[11,-10],[19,5],[10,-13],[23,3],[12,12],[14,5],[18,-9],[23,-4],[7,3],[6,-7],[12,6],[17,-2],[37,9],[7,0],[13,-12],[10,-13],[10,-5],[2,-7],[9,-6],[14,-1],[13,-7]],[[3684,6752],[32,15],[25,15],[47,36],[49,34],[27,15],[44,28],[28,24],[84,36],[38,25],[45,38],[44,41],[18,22],[13,29],[6,9],[7,21],[6,61],[-2,3],[12,10],[11,14],[17,34],[17,38],[7,21],[17,72],[3,45],[-4,64],[-17,61]],[[4258,7563],[56,7],[79,3],[14,-4],[19,1],[16,5],[21,3],[33,-3],[27,5],[21,0],[13,13],[12,6],[6,9],[2,22],[19,5],[6,6],[16,-6],[13,3],[32,-4],[23,17],[7,0],[-3,57],[4,6],[-8,3],[8,11],[2,19],[-5,15],[5,33],[10,15],[5,45],[10,35],[15,11],[30,5]],[[4766,7906],[20,10],[13,16],[2,10],[-6,19],[0,15],[7,9],[19,-2],[10,-6],[18,-30],[15,-2],[17,7],[16,22],[7,13],[4,20],[4,40],[4,20],[17,11],[13,1],[11,-4],[27,-24],[31,-22],[19,-9],[19,-3],[26,2],[17,4],[30,11],[30,9],[24,4],[25,0],[44,-14],[35,-18],[44,-27],[37,-16],[39,-19],[78,-34],[47,-17],[47,-11],[103,-17],[58,-6],[51,-8],[56,-11],[60,-13],[65,-8]],[[6531,4202],[-5,-15],[4,-13],[9,-6],[10,-26],[27,-38],[3,-12],[-11,-3],[-23,10],[-9,-6],[-7,-17],[-2,-19],[-6,0],[-21,21],[1,12],[-5,19],[-7,2],[-2,18],[-15,13],[-11,3],[-6,-5],[18,-12],[-11,-23],[-11,2],[10,7],[-11,10],[-10,-8],[-4,-13],[-5,-4],[-36,0],[-8,-7],[20,-23],[11,-7],[3,-12],[9,-23],[-16,-20],[-10,2],[-3,9],[-27,-16],[-11,-24],[13,-23],[16,-2],[19,-9],[15,9],[8,-12],[11,-8],[-2,-17],[18,-10],[11,5],[16,-17],[-1,-10],[-30,-1],[-2,11],[-15,12],[-10,-5],[1,-9],[-7,-20],[1,-8],[10,0],[8,-15],[19,-2],[17,-28],[10,-2],[8,-8]],[[6196,3463],[-6,1],[-33,22],[2,6],[13,-3],[-4,14],[-2,20],[-3,1],[-21,-26],[-5,-11],[-34,16],[-9,1],[-8,-17],[-1,-10],[6,-5],[18,7],[4,-3],[-5,-25],[-9,-9],[-15,-11],[-5,-7],[28,-4],[-1,-10],[-25,-17],[-9,-3],[-6,6],[7,20],[-5,14],[-21,15],[-8,2],[-6,-13],[-3,-28],[-10,-8],[-20,-2],[-14,7],[0,10],[13,12],[-11,2],[-22,-13],[-1,-15],[-9,-6],[-16,11],[-12,-9],[5,-8],[15,-5],[7,-9],[-3,-10],[-18,-10],[-33,7],[-10,-11],[-8,0],[-2,15],[18,8],[3,4],[-15,9],[-11,-1],[-9,-7],[-27,5],[-6,5],[6,9],[15,10],[-22,10],[0,-11],[-12,-17],[-2,-19],[-14,-7],[-12,0],[-6,-8],[7,-11],[13,-1],[9,-6],[-14,-23],[-8,3],[-2,20],[-10,3],[-8,-12],[-3,-14],[-13,-11],[9,-8],[42,-6],[18,-15],[-5,-10],[-10,-4],[-8,21],[-6,4],[-27,-13],[-19,-4],[-12,0],[-11,-11],[-12,-34],[-3,-18],[2,-13],[11,-10],[6,-11],[3,-18],[12,-2],[16,8],[16,16],[5,-2],[0,-18],[17,-13],[-4,-13],[-11,7],[-17,-1],[-14,-8],[-38,15],[-19,1],[-50,-9],[-24,1],[-25,-6],[-54,-26],[-16,2],[-9,-3],[-1,-12],[-7,-5],[-13,-1],[-6,-6],[5,-6],[21,-11],[31,1],[23,-9],[-4,-8],[-19,-12],[-21,-3],[-14,-6],[-8,2],[-17,13],[-20,8],[-29,24],[-4,9],[-17,15],[-23,9],[-13,10],[-18,6],[-32,7],[-12,-5],[-4,-20],[4,-35],[-1,-9],[-7,-5],[-18,1],[-37,-4],[-33,5],[-4,3],[-6,24],[11,8],[21,5],[7,6],[0,10],[-5,8],[-19,10],[-9,0],[-24,-23],[-13,-27],[-6,-10]],[[5180,3068],[-11,5],[-4,13],[-14,4],[-1,10],[-8,2],[-7,27],[-15,2],[-12,5],[-12,18],[0,12],[-12,19],[-10,7],[-21,7],[-18,-1],[-39,18],[-14,3],[2,16],[-6,27],[0,36],[4,10],[10,9],[0,8],[-20,19],[-6,14],[-10,9],[-26,30],[-26,-2],[-13,2],[5,55],[-13,37],[-15,74],[-7,5],[2,13],[-16,-11],[-25,-6],[-9,5],[-12,-6],[-24,8],[-10,-6],[-21,1],[-4,6],[-11,-2],[-11,5],[-20,4],[-33,-2],[-29,0],[-3,-20],[5,-14],[-7,-14],[3,-6],[-10,-18],[8,-31],[6,-4],[8,-14],[18,-8],[8,-12],[0,-13],[-18,-24],[-7,-1],[3,-23],[-8,-16],[-11,-11],[6,-7],[-2,-21],[-12,-6],[-4,-24],[-5,-9],[3,-17],[-14,-3],[-21,2],[-5,29],[8,3],[-2,14],[-12,7],[-15,30],[1,8],[-7,17],[-10,-2],[-9,15],[5,9],[0,21],[5,12],[-9,7],[-5,12],[-18,5],[2,5],[-21,5],[-9,17],[-14,8],[-8,15],[-13,3],[-5,12],[-7,3],[1,9],[-8,5],[-4,17],[-20,12],[-3,29],[-4,7],[-22,8],[-5,7],[-14,5],[-13,-17],[-34,9],[-20,-6],[-21,2],[-73,16],[-45,6]],[[4151,3627],[38,54],[12,14],[46,70],[17,19],[23,34],[19,25],[13,12],[20,26],[59,70],[16,27],[13,12],[19,33],[30,42],[13,12],[6,15],[30,51],[7,19],[22,31],[36,34],[33,15],[10,9],[9,2],[16,12],[-8,19],[-26,30],[-15,46],[-2,26],[10,23],[9,28],[0,11],[24,42],[3,18],[-2,18],[15,47],[1,12],[21,43],[2,14],[24,32],[12,34],[15,30],[17,16],[34,22],[0,10],[-9,19],[-1,21],[12,16],[34,35],[12,28],[12,45],[5,34],[0,39],[-4,36],[1,29],[6,37],[5,13],[14,17],[29,26],[34,54]],[[6240,2945],[3,-16],[-18,-12],[5,-19],[-12,-5],[6,-16],[-21,-12],[-5,-6],[7,-4],[-2,-7],[-7,3],[-4,-16],[-16,-3],[-8,-9],[-13,-1],[4,-10],[8,-6],[2,-27],[-6,-3],[0,-11],[-21,-5],[-10,-14],[-7,-18],[-8,-6],[1,-10],[-21,-7],[-7,-7],[3,-19],[-11,-1],[-12,-19],[-30,-20],[-8,-15],[-24,-1],[-39,-23],[-3,-7],[-18,-3],[-9,-19],[2,-6],[-2,-18],[14,-4],[30,-24],[3,-13],[11,-8],[-4,-9],[5,-9],[-4,-5],[-2,-22],[6,0],[13,-23],[0,-20],[9,-7],[1,-7],[26,-11],[18,-15],[5,-29],[6,-16],[10,-12],[0,-17],[20,-5],[2,-18],[7,-2],[4,-12],[20,-16],[3,-9],[1,-18],[7,-16],[8,2],[20,-16],[8,-20],[-4,-7],[2,-21],[12,-16],[0,-8],[-7,-11],[5,-19],[-5,-10],[12,-14],[6,-13],[2,-19],[7,-14],[9,-9],[3,-22],[8,-15],[3,-15],[5,-5],[6,-18],[13,-15],[13,-1],[13,-8],[7,-14]],[[4720,2488],[-4,12],[-10,11],[14,10],[7,-16],[13,-1],[9,11],[13,30],[12,15],[-11,4],[-8,21],[-11,-2],[0,9],[12,8],[8,-10],[13,7],[-1,17],[19,8],[6,8],[-8,7],[-22,-2],[-7,-9],[-9,21],[1,11],[16,9],[-7,11],[0,16],[8,3],[10,17],[16,4],[12,-6],[-2,19],[20,-6],[-5,-11],[13,0],[7,-15],[14,-3],[17,17],[28,5],[4,8],[0,20],[-4,4],[-17,1],[-1,7],[9,4],[13,-8],[9,7],[1,17],[-6,22],[0,13],[-8,27],[-22,44],[-13,4],[-13,-2],[-3,8],[15,4],[16,14],[15,-2],[9,12],[24,-4],[20,9],[27,9],[24,-9],[17,-14],[24,-9],[21,-9],[18,-20],[13,-2],[9,15],[1,14],[-8,37],[-1,13],[6,6],[20,4],[22,-6],[14,10],[-3,24],[1,7],[13,22],[11,49]],[[6476,9161],[2,20],[-35,83],[-26,67],[-8,28],[8,5],[8,16],[22,15],[13,20],[30,72],[7,25],[-8,18],[-11,36],[1,8],[18,9],[-1,5],[-28,26],[3,28],[9,6],[-5,40],[4,12],[3,29],[-2,19],[8,0],[15,8],[10,12],[9,17],[9,23],[27,31],[6,3],[25,0],[9,21],[11,17],[3,11],[-2,15],[5,36],[7,20],[1,29],[16,7],[18,1],[16,-6],[18,-1],[3,-5],[-1,-22],[-5,-5],[-3,-14],[10,-15],[17,-9],[3,-13],[10,-8],[4,-11],[2,-28],[7,-14],[5,-3],[-3,-18],[3,-6],[-10,-16],[-1,-11],[15,-19],[1,-11],[14,-8],[22,-21],[32,-3],[20,-5],[12,-10],[16,-2],[22,3],[7,-13],[10,2],[3,-9],[8,0],[0,-8],[11,0],[9,-12],[14,4],[5,-7],[21,6],[6,-11],[18,-9],[14,-13],[8,-11],[10,0],[10,-14],[5,-19],[7,-2],[0,-15],[13,-13],[15,-3],[12,-9],[6,6],[9,-1],[2,-8],[17,-4],[8,2],[7,-7],[14,2],[9,-12],[0,-12],[10,0],[-1,-8],[15,-13],[22,0],[16,-6],[16,-13],[2,-8],[6,1],[6,-13],[11,-3],[1,-12],[17,-3],[2,-13],[-7,-11],[9,-23],[6,-4],[-5,-10],[15,-5],[-1,-29],[12,-19],[12,-5],[3,-23],[33,-9],[9,-7],[15,-7],[2,-6],[14,-5],[1,-10],[16,-4],[12,1],[7,-6],[-4,-12],[2,-13],[13,-14],[10,-1],[5,-6],[12,-1],[-3,-11],[-12,-9],[-11,-1],[1,-6],[-19,-8],[-11,-21],[-13,0],[-8,-10],[-15,-3],[-1,-12],[-18,-4],[-4,-11],[-5,1],[-8,-11],[-1,-15],[3,-15],[-3,-7],[18,-14],[0,-6],[15,-10],[-2,-6],[18,-7],[15,-1],[7,-13],[13,-12],[0,-8],[11,-2],[4,-10],[7,2],[6,-19],[-12,-14],[-6,-3],[0,-15],[-7,-5],[4,-6],[-4,-16],[0,-14],[-4,2],[-7,-11],[-14,-1],[-9,-9],[2,-15],[7,-5],[-7,-4],[-2,-12],[-9,-6],[1,-8],[-11,3],[1,-18],[4,-12],[-2,-18],[-4,-5],[24,-32],[-8,-10],[8,-19],[-4,-11],[3,-7],[-10,-10],[-5,-12],[4,-7],[-4,-10],[7,2],[7,-10],[-3,-7],[14,-8],[-3,-11],[11,-3],[4,-24],[14,-4],[11,-24],[4,-17],[20,-7],[-5,-26],[-12,1],[2,-29],[10,-13],[9,2],[5,-8],[1,-13],[8,-1],[2,8],[8,-3],[13,5],[-2,8],[4,11],[5,-2],[14,13],[15,3],[0,4],[19,8],[11,-1],[5,-9],[11,-5],[14,7],[-6,9],[1,15],[13,-1],[15,7],[4,-4],[16,2],[5,6],[-3,23],[19,9],[7,17],[4,-1],[12,13],[22,-9],[3,10],[13,2],[3,-9],[6,1],[9,-18],[17,2],[9,-8],[9,14],[12,4],[8,-9],[4,5],[14,2],[7,-10],[0,-13],[4,-4],[6,-29],[10,-5],[22,6],[7,12],[10,4],[5,-10],[11,-9],[-4,-5],[12,-15],[6,-2],[-3,-14],[10,-6],[4,-15],[7,3],[11,-10],[19,-10],[24,-27],[12,-25],[20,-24],[23,-18],[25,-24],[26,-43],[27,-4],[0,-10],[8,-7],[13,-2],[1,9],[15,7],[32,5],[19,-3]],[[1431,6854],[-18,4],[-11,16],[-10,1],[-7,9],[-14,-9],[-6,-1],[-10,18],[-8,2],[-12,-7],[-21,7],[4,-15],[-17,-13],[-12,2],[8,6],[-12,6],[-9,-14],[-15,-6],[-4,19],[-10,3],[-21,-3],[-19,-18],[-22,-2],[0,-9],[6,-12],[-14,-2],[0,17],[-25,11],[-6,14],[-10,3],[-21,-5],[0,-14],[12,-6],[-10,-14],[-8,-1],[-3,13],[-9,5],[-10,-11],[5,-5],[-7,-4],[-8,8],[6,9],[-3,7],[9,19],[-10,14],[-2,-13],[-20,5],[5,9],[8,2],[-11,13],[-14,-2],[-2,-12],[-7,13],[7,5],[-15,-2],[-13,9],[-12,-8],[-8,7],[-9,24],[-15,10],[-34,-1],[-5,-8],[-21,16],[-15,-12],[-19,-3],[0,10],[-9,-4],[2,-14],[-5,-2],[-12,4],[-2,12],[-7,0],[-5,19],[-8,14],[-16,-18],[-11,1],[-10,14],[-15,-7],[0,9],[-10,6],[-25,-7],[-18,7],[7,6],[-7,4],[-2,14],[-8,7],[10,7],[-8,14],[-6,-6],[-11,1],[-19,-16],[-13,-2],[-8,5],[-10,-7],[-18,1],[-2,9],[-12,1],[-13,13],[-10,-2],[-13,6],[-19,-1],[-10,-6],[-17,3],[-7,-7],[12,-10],[-13,-3],[-10,-18],[-13,0],[5,-12],[-8,2],[-4,15],[-7,12],[-10,-2],[-3,-9],[-17,3],[-5,-5],[-9,4],[-18,-11],[0,-6],[-15,-2],[-16,8],[-8,8],[-6,-4],[8,-17],[-1,-8],[-12,-10],[-5,-1],[-18,15],[-10,-6],[6,-11],[-6,0],[3,-11],[-9,-2],[-11,7],[-14,-7],[-3,-18],[-11,-7],[-4,-8],[-9,-4],[-15,1],[-7,4],[-17,-5],[4,-16],[-6,-9],[-13,0],[-1,-8],[-21,0],[-4,-8],[-22,-7],[-5,-13],[-7,0],[3,-11],[-7,-3],[-4,20],[8,25],[-2,10],[13,14],[-14,8],[4,7],[19,9],[0,9],[-8,7],[20,9],[-2,7],[-14,7],[-16,-3],[-18,5],[6,18],[-1,11],[-15,-5],[-7,4],[2,9],[-17,-2],[-21,15],[-8,-10],[-5,3],[-17,-16],[-18,11],[-17,-1],[-10,-9],[0,11],[-16,3],[-10,17],[7,16],[6,2],[2,15],[-13,16],[9,12],[-6,15],[11,10],[0,20],[-13,-1],[5,9],[-11,6],[4,16],[23,9],[11,-3],[17,5],[50,7],[16,9],[7,15],[13,17],[15,6],[5,16],[-9,15],[13,12],[1,26],[6,8],[-20,34],[9,7],[18,-2],[1,14],[8,13],[-5,22],[2,15],[13,6],[10,-1],[-4,20],[16,10],[1,14],[12,15],[29,2],[1,15],[4,12],[-5,5],[27,0],[4,12],[-7,9],[-2,15],[-6,7],[7,5],[-5,13],[-15,15],[0,4],[15,1],[-11,13],[-13,8],[3,12],[20,-2],[-3,9],[9,-1],[2,7],[-6,12],[19,13],[6,16],[-6,43],[3,45],[5,16],[21,19],[31,0],[40,17],[20,6],[27,12],[26,17],[47,16],[36,4],[5,2],[28,29],[67,13],[25,15],[13,5],[59,10],[31,3],[9,5],[9,13],[18,2],[7,16],[10,35],[11,18],[26,17],[35,31],[12,6],[21,2],[29,-1],[23,1],[41,5],[24,6],[16,11],[14,16],[20,7],[60,32],[13,9],[26,27],[28,21],[40,13],[31,7],[23,11]],[[9762,6828],[11,-12],[-6,-15],[1,-19],[6,-8],[11,0],[3,-11],[-5,-8],[2,-15],[-6,-2],[-5,-16],[4,-3],[-10,-13],[-12,1],[-5,-14],[-9,-4],[-5,-13],[-5,2],[-6,-9],[-13,1],[-8,-13],[-12,-1],[0,-12],[-19,3],[-11,-6],[-11,5],[-9,-11],[-13,-6],[-39,-8],[-22,-9],[1,-10],[-8,1],[-8,-14],[-7,-3],[-2,-16],[14,-14],[-11,-8],[0,-10],[9,-2],[-7,-13],[4,-16],[-8,-3],[0,-10],[-8,-11],[1,-11],[6,-9],[-8,-13],[5,-11],[-10,-6],[-1,-11],[11,-5],[-10,-6],[-4,-9],[-9,-1],[-5,-8],[5,-10],[-16,-6],[-13,-14],[-5,0],[-19,-20],[-18,-5],[-6,-6],[5,-7],[-3,-20],[-7,-3],[4,-10],[-6,-17],[-12,-8],[2,-4],[-9,-10],[-15,-5],[-5,-12],[-7,-3],[-4,-25],[-19,-7],[0,-6],[-20,-12],[-1,-13],[-24,-17],[7,-25],[-4,-18],[-11,-6],[2,-18],[6,-6],[-5,-9],[-28,-18],[-11,-19],[-3,4],[-9,-6],[-12,7],[-11,-1],[0,-8],[-12,1],[6,-7],[-2,-10],[-21,-17],[-10,-13],[-12,-4],[-7,2],[-4,-7],[-14,5],[-8,-3],[-5,-20],[-30,-1],[-6,-6],[-9,4],[-16,-12],[-3,-9],[-10,0],[-12,7],[-12,0],[0,-7],[-15,5],[-3,-15],[-20,-7],[2,-7],[-7,-14],[-14,0],[-9,5],[0,-7],[-11,3],[-5,11],[8,21],[-16,15],[0,16],[-10,-4],[-13,14],[-11,-13],[-4,-13],[7,-13],[-10,-9],[-14,-3],[-17,-17],[-8,0],[10,-15],[-3,-9],[-16,-2],[6,-3],[-4,-12],[-12,-7],[5,-8],[-15,-7],[-1,-9],[13,-17],[-10,-15]],[[4429,2427],[2,8],[-11,7],[2,9],[-8,4],[7,8],[10,1],[9,14],[-7,2],[-16,-9],[0,19],[13,5],[-5,9],[-17,-7],[-2,-17],[-11,10],[-16,-5],[-6,8],[11,3],[-22,13],[-3,14],[-7,0],[-1,-17],[8,-6],[-12,-4],[-8,11],[2,9],[-11,-6],[-3,11],[-8,3],[13,8],[3,11],[-13,3],[2,7],[-18,15],[1,-21],[-4,-10],[-4,5],[-13,-1],[-2,-8],[-7,6],[-28,2],[-7,9],[9,2],[-1,8],[-13,-4],[-17,5],[10,3],[0,7],[-17,6],[11,10],[-21,6],[-8,-4],[-1,18],[5,5],[0,14],[5,2],[-1,34],[-6,16],[-13,-2],[-3,7],[19,12],[-2,10],[-8,-4],[-11,7],[7,9],[-12,0],[0,11],[-21,6],[-6,-3],[-7,26],[2,11],[-7,-5],[-22,14],[-9,12],[-5,-8],[-9,9],[-11,-25],[-7,2],[-12,-4],[-13,-11],[-10,-14],[-17,-7],[-7,7],[-1,11],[-9,1],[-1,9],[-9,10],[-9,1],[3,8],[-15,0],[-22,5],[-11,11],[-10,3],[-4,17],[-38,-18],[-5,5],[-29,-14],[0,18],[-7,13],[-10,0],[-6,17],[-8,10],[-2,14],[-21,28],[-7,0],[-1,13],[-9,7],[-9,13],[-19,6],[-6,15],[2,18],[-5,18],[-9,11],[4,18],[-24,-1],[-21,14],[6,36],[9,15],[7,42],[56,58],[40,36],[36,23],[14,20],[33,30],[28,20],[17,16],[11,18],[16,22],[36,35],[9,11],[37,54],[24,27],[37,51],[12,32],[3,11],[25,51]],[[3230,8435],[8,4],[1,15],[22,12],[19,1],[7,5],[5,19],[16,0],[17,4],[-14,8],[0,8],[12,11],[14,0],[3,7],[-9,7],[1,6],[27,7],[7,-14],[9,2],[8,15],[-9,7],[1,9],[17,6],[28,-9],[9,-8],[-4,-14],[12,-6],[4,15],[20,-3],[-3,11],[-12,17],[12,6],[6,-12],[12,-12],[9,4],[-1,16],[-9,14],[10,12],[-6,21],[12,9],[-7,8],[2,7],[27,-4],[6,2],[-5,21],[9,3],[15,-9],[9,5],[34,-18],[40,12],[29,-4],[11,1],[10,7],[12,-1],[19,-7],[26,-13],[19,6],[3,-14],[19,3],[12,-2],[16,12],[13,-4],[-9,-21],[-21,-2],[-4,-21],[1,-5],[19,0],[11,4],[9,-3],[5,-10],[26,19],[6,0],[19,-7],[11,0],[6,-11],[-8,-7],[-18,-2],[-13,-8],[2,-22],[4,-6],[16,-7],[14,-2],[7,-20],[14,-8],[-2,-10],[13,-14],[6,-1],[12,14],[8,-1],[19,-9],[26,-5],[18,0],[-1,-14],[-36,-22],[12,-10],[0,-5],[-15,-5],[-10,-8],[-5,-21],[11,4],[18,-4],[13,-10],[7,7],[15,0],[16,10],[11,0],[7,-7],[5,-25],[5,-10],[-7,-10],[-21,1],[-28,-8],[0,-11],[7,5],[10,-1],[10,-11],[10,2],[12,-19],[2,-11],[23,-7],[11,-12],[13,2],[16,-15],[-1,-6],[-28,-17],[-2,-7],[12,-5],[11,-17],[-8,-26],[7,-5],[15,-2],[4,-26],[8,-10],[20,-4],[7,6],[21,40],[-7,12],[4,11],[-3,18],[9,4],[12,-7],[20,-27],[7,-7],[-6,-13],[11,-1],[11,-6],[15,-27],[10,-9],[22,8],[8,-3],[12,-15],[17,-11],[20,-1],[9,-6],[2,-8],[8,-5],[21,5],[5,8],[-3,12],[-21,3],[-4,13],[17,8],[24,-10],[26,1],[21,-24],[26,-19],[3,11],[8,6],[2,21],[35,-4],[8,17],[8,0],[7,-6],[18,-6],[2,-6],[-6,-25],[1,-32],[6,-22],[-2,-8],[11,-5],[14,17],[10,-4],[16,4],[14,0],[6,6],[8,-10],[-11,-60],[8,-7],[10,-1],[18,8],[15,-11],[12,4],[6,-16],[14,-4],[14,1],[1,-15],[17,-6],[16,-32]],[[4258,7563],[-8,39],[-6,13],[-15,25],[-19,21],[-13,10],[-45,48],[-15,10],[-26,9],[-16,-1],[-21,10],[-45,16],[-33,8],[-27,10],[-24,13],[-37,5],[-27,11],[-16,14],[-33,13],[-48,31],[-13,9],[-22,8],[-16,15],[-14,7],[-15,19],[-17,15],[-10,31],[-16,24],[-8,19],[-5,24],[0,24],[4,30],[-1,30],[-8,61],[-7,24],[-12,15],[-13,23],[-12,15],[-14,11],[-46,27],[-23,11],[-45,45],[-47,30],[-22,9],[-25,0],[-23,-7]],[[7641,4021],[-9,-26],[-8,-9],[-2,-10],[2,-13],[28,-42],[-8,-16],[11,-13],[-6,-11],[-14,-42],[2,-25],[5,-19],[-4,-24],[1,-26],[-5,-18],[0,-18],[17,-18],[49,-22],[11,-11],[-4,-3],[12,-13],[-1,-29],[-9,-19],[-14,-9],[-38,-12],[-23,-15],[-9,2]]],"transform":{"scale":[0.00014349668916891354,0.0001455579969996988],"translate":[101.74963562200008,15.63262508400004]},"objects":{"Khon Kaen":{"type":"GeometryCollection","geometries":[{"arcs":[[0,1,2,3,4,5,6]],"type":"Polygon","properties":{"Shape_Leng":1.95988664741,"Shape_Area":0.0833147915343,"ADM2_EN":"Mueang Khon Kaen","ADM2_TH":"เมืองขอนแก่น","ADM2_PCODE":"TH4001","ADM1_EN":"Khon Kaen","ADM1_TH":"ขอนแก่น","ADM1_PCODE":"TH40","ADM0_EN":"Thailand","ADM0_TH":"ประเทศไทย","ADM0_PCODE":"TH"}},{"arcs":[[-5,7,8,9,10]],"type":"Polygon","properties":{"Shape_Leng":1.049687804,"Shape_Area":0.0289083791687,"ADM2_EN":"Ban Fang","ADM2_TH":"บ้านฝาง","ADM2_PCODE":"TH4002","ADM1_EN":"Khon Kaen","ADM1_TH":"ขอนแก่น","ADM1_PCODE":"TH40","ADM0_EN":"Thailand","ADM0_TH":"ประเทศไทย","ADM0_PCODE":"TH"}},{"arcs":[[-4,11,12,-8]],"type":"Polygon","properties":{"Shape_Leng":0.867096311156,"Shape_Area":0.0188524834031,"ADM2_EN":"Phra Yuen","ADM2_TH":"พระยืน","ADM2_PCODE":"TH4003","ADM1_EN":"Khon Kaen","ADM1_TH":"ขอนแก่น","ADM1_PCODE":"TH40","ADM0_EN":"Thailand","ADM0_TH":"ประเทศไทย","ADM0_PCODE":"TH"}},{"arcs":[[-10,13,14,15,16,17]],"type":"Polygon","properties":{"Shape_Leng":1.43090287912,"Shape_Area":0.0446588840064,"ADM2_EN":"Nong Ruea","ADM2_TH":"หนองเรือ","ADM2_PCODE":"TH4004","ADM1_EN":"Khon Kaen","ADM1_TH":"ขอนแก่น","ADM1_PCODE":"TH40","ADM0_EN":"Thailand","ADM0_TH":"ประเทศไทย","ADM0_PCODE":"TH"}},{"arcs":[[-16,18,19,20,21,22,23]],"type":"Polygon","properties":{"Shape_Leng":2.26068645052,"Shape_Area":0.0567154030437,"ADM2_EN":"Chum Phae","ADM2_TH":"ชุมแพ","ADM2_PCODE":"TH4005","ADM1_EN":"Khon Kaen","ADM1_TH":"ขอนแก่น","ADM1_PCODE":"TH40","ADM0_EN":"Thailand","ADM0_TH":"ประเทศไทย","ADM0_PCODE":"TH"}},{"arcs":[[-22,24,25,26]],"type":"Polygon","properties":{"Shape_Leng":1.03341314996,"Shape_Area":0.0445504497978,"ADM2_EN":"Si Chomphu","ADM2_TH":"สีชมพู","ADM2_PCODE":"TH4006","ADM1_EN":"Khon Kaen","ADM1_TH":"ขอนแก่น","ADM1_PCODE":"TH40","ADM0_EN":"Thailand","ADM0_TH":"ประเทศไทย","ADM0_PCODE":"TH"}},{"arcs":[[-7,27,28,29,30,31]],"type":"Polygon","properties":{"Shape_Leng":1.70036804408,"Shape_Area":0.0628574035997,"ADM2_EN":"Nam Phong","ADM2_TH":"น้ำพอง","ADM2_PCODE":"TH4007","ADM1_EN":"Khon Kaen","ADM1_TH":"ขอนแก่น","ADM1_PCODE":"TH40","ADM0_EN":"Thailand","ADM0_TH":"ประเทศไทย","ADM0_PCODE":"TH"}},{"arcs":[[-6,-11,-18,32,33,34,-28]],"type":"Polygon","properties":{"Shape_Leng":1.10662060419,"Shape_Area":0.0345181778543,"ADM2_EN":"Ubolratana","ADM2_TH":"อุบลรัตน์","ADM2_PCODE":"TH4008","ADM1_EN":"Khon Kaen","ADM1_TH":"ขอนแก่น","ADM1_PCODE":"TH40","ADM0_EN":"Thailand","ADM0_TH":"ประเทศไทย","ADM0_PCODE":"TH"}},{"arcs":[[-31,35,36]],"type":"Polygon","properties":{"Shape_Leng":1.30637396584,"Shape_Area":0.0405835600537,"ADM2_EN":"Kranuan","ADM2_TH":"กระนวน","ADM2_PCODE":"TH4009","ADM1_EN":"Khon Kaen","ADM1_TH":"ขอนแก่น","ADM1_PCODE":"TH40","ADM0_EN":"Thailand","ADM0_TH":"ประเทศไทย","ADM0_PCODE":"TH"}},{"arcs":[[37,38,39,40,41,42,43]],"type":"Polygon","properties":{"Shape_Leng":1.33821306544,"Shape_Area":0.0419689278286,"ADM2_EN":"Ban Phai","ADM2_TH":"บ้านไผ่","ADM2_PCODE":"TH4010","ADM1_EN":"Khon Kaen","ADM1_TH":"ขอนแก่น","ADM1_PCODE":"TH40","ADM0_EN":"Thailand","ADM0_TH":"ประเทศไทย","ADM0_PCODE":"TH"}},{"arcs":[[-40,44,45]],"type":"Polygon","properties":{"Shape_Leng":0.681350998835,"Shape_Area":0.0116544171393,"ADM2_EN":"Pueai Noi","ADM2_TH":"เปือยน้อย","ADM2_PCODE":"TH4011","ADM1_EN":"Khon Kaen","ADM1_TH":"ขอนแก่น","ADM1_PCODE":"TH40","ADM0_EN":"Thailand","ADM0_TH":"ประเทศไทย","ADM0_PCODE":"TH"}},{"arcs":[[46,47,48,49,50,51]],"type":"Polygon","properties":{"Shape_Leng":1.10389462448,"Shape_Area":0.0378768673824,"ADM2_EN":"Phon","ADM2_TH":"พล","ADM2_PCODE":"TH4012","ADM1_EN":"Khon Kaen","ADM1_TH":"ขอนแก่น","ADM1_PCODE":"TH40","ADM0_EN":"Thailand","ADM0_TH":"ประเทศไทย","ADM0_PCODE":"TH"}},{"arcs":[[-51,52,53,54,55]],"type":"Polygon","properties":{"Shape_Leng":0.883852246206,"Shape_Area":0.0192148538971,"ADM2_EN":"Waeng Yai","ADM2_TH":"แวงใหญ่","ADM2_PCODE":"TH4013","ADM1_EN":"Khon Kaen","ADM1_TH":"ขอนแก่น","ADM1_PCODE":"TH40","ADM0_EN":"Thailand","ADM0_TH":"ประเทศไทย","ADM0_PCODE":"TH"}},{"arcs":[[-50,56,-53]],"type":"Polygon","properties":{"Shape_Leng":0.881770950953,"Shape_Area":0.0246287141714,"ADM2_EN":"Waeng Noi","ADM2_TH":"แวงน้อย","ADM2_PCODE":"TH4014","ADM1_EN":"Khon Kaen","ADM1_TH":"ขอนแก่น","ADM1_PCODE":"TH40","ADM0_EN":"Thailand","ADM0_TH":"ประเทศไทย","ADM0_PCODE":"TH"}},{"arcs":[[-41,-46,57,-48,58]],"type":"Polygon","properties":{"Shape_Leng":1.27947499498,"Shape_Area":0.0432319449138,"ADM2_EN":"Nong Song Hong","ADM2_TH":"หนองสองห้อง","ADM2_PCODE":"TH4015","ADM1_EN":"Khon Kaen","ADM1_TH":"ขอนแก่น","ADM1_PCODE":"TH40","ADM0_EN":"Thailand","ADM0_TH":"ประเทศไทย","ADM0_PCODE":"TH"}},{"arcs":[[-17,-24,59,60,61,-33]],"type":"Polygon","properties":{"Shape_Leng":1.19555509048,"Shape_Area":0.0507880588983,"ADM2_EN":"Phu Wiang","ADM2_TH":"ภูเวียง","ADM2_PCODE":"TH4016","ADM1_EN":"Khon Kaen","ADM1_TH":"ขอนแก่น","ADM1_PCODE":"TH40","ADM0_EN":"Thailand","ADM0_TH":"ประเทศไทย","ADM0_PCODE":"TH"}},{"arcs":[[-9,-13,62,-44,63,64,65,-14]],"type":"Polygon","properties":{"Shape_Leng":1.70248262893,"Shape_Area":0.0570630576225,"ADM2_EN":"Mancha Khiri","ADM2_TH":"มัญจาคีรี","ADM2_PCODE":"TH4017","ADM1_EN":"Khon Kaen","ADM1_TH":"ขอนแก่น","ADM1_PCODE":"TH40","ADM0_EN":"Thailand","ADM0_TH":"ประเทศไทย","ADM0_PCODE":"TH"}},{"arcs":[[-43,66,-52,-56,67,-64]],"type":"Polygon","properties":{"Shape_Leng":1.30595525476,"Shape_Area":0.0268871168054,"ADM2_EN":"Chonnabot","ADM2_TH":"ชนบท","ADM2_PCODE":"TH4018","ADM1_EN":"Khon Kaen","ADM1_TH":"ขอนแก่น","ADM1_PCODE":"TH40","ADM0_EN":"Thailand","ADM0_TH":"ประเทศไทย","ADM0_PCODE":"TH"}},{"arcs":[[-29,-35,68]],"type":"Polygon","properties":{"Shape_Leng":1.35715073911,"Shape_Area":0.0302187829167,"ADM2_EN":"Khao Suan Kwang","ADM2_TH":"เขาสวนกวาง","ADM2_PCODE":"TH4019","ADM1_EN":"Khon Kaen","ADM1_TH":"ขอนแก่น","ADM1_PCODE":"TH40","ADM0_EN":"Thailand","ADM0_TH":"ประเทศไทย","ADM0_PCODE":"TH"}},{"arcs":[[-20,69]],"type":"Polygon","properties":{"Shape_Leng":1.01777183766,"Shape_Area":0.0258395630001,"ADM2_EN":"Phu Pha Man","ADM2_TH":"ภูผาม่าน","ADM2_PCODE":"TH4020","ADM1_EN":"Khon Kaen","ADM1_TH":"ขอนแก่น","ADM1_PCODE":"TH40","ADM0_EN":"Thailand","ADM0_TH":"ประเทศไทย","ADM0_PCODE":"TH"}},{"arcs":[[-1,-32,-37,70]],"type":"Polygon","properties":{"Shape_Leng":0.755139789297,"Shape_Area":0.0164401729156,"ADM2_EN":"Sam Sung","ADM2_TH":"ซำสูง","ADM2_PCODE":"TH4021","ADM1_EN":"Khon Kaen","ADM1_TH":"ขอนแก่น","ADM1_PCODE":"TH40","ADM0_EN":"Thailand","ADM0_TH":"ประเทศไทย","ADM0_PCODE":"TH"}},{"arcs":[[-55,71,-65,-68]],"type":"Polygon","properties":{"Shape_Leng":1.02930213653,"Shape_Area":0.0219321546513,"ADM2_EN":"Khok Pho Chai","ADM2_TH":"โคกโพธิ์ไชย","ADM2_PCODE":"TH4022","ADM1_EN":"Khon Kaen","ADM1_TH":"ขอนแก่น","ADM1_PCODE":"TH40","ADM0_EN":"Thailand","ADM0_TH":"ประเทศไทย","ADM0_PCODE":"TH"}},{"arcs":[[-26,72,-61,73]],"type":"Polygon","properties":{"Shape_Leng":0.83397446166,"Shape_Area":0.0148266601203,"ADM2_EN":"Nong Na Kham","ADM2_TH":"หนองนาคำ","ADM2_PCODE":"TH4023","ADM1_EN":"Khon Kaen","ADM1_TH":"ขอนแก่น","ADM1_PCODE":"TH40","ADM0_EN":"Thailand","ADM0_TH":"ประเทศไทย","ADM0_PCODE":"TH"}},{"arcs":[[-3,74,-38,-63,-12]],"type":"Polygon","properties":{"Shape_Leng":0.811408061541,"Shape_Area":0.0184476947441,"ADM2_EN":"Ban Haet","ADM2_TH":"บ้านแฮด","ADM2_PCODE":"TH4024","ADM1_EN":"Khon Kaen","ADM1_TH":"ขอนแก่น","ADM1_PCODE":"TH40","ADM0_EN":"Thailand","ADM0_TH":"ประเทศไทย","ADM0_PCODE":"TH"}},{"arcs":[[-42,-59,-47,-67]],"type":"Polygon","properties":{"Shape_Leng":0.652080490592,"Shape_Area":0.015313635163,"ADM2_EN":"Non Sila","ADM2_TH":"โนนศิลา","ADM2_PCODE":"TH4025","ADM1_EN":"Khon Kaen","ADM1_TH":"ขอนแก่น","ADM1_PCODE":"TH40","ADM0_EN":"Thailand","ADM0_TH":"ประเทศไทย","ADM0_PCODE":"TH"}},{"arcs":[[-23,-27,-74,-60]],"type":"Polygon","properties":{"Shape_Leng":0.779203434123,"Shape_Area":0.0265146404599,"ADM2_EN":"Wiang Kao","ADM2_TH":"เวียงเก่า","ADM2_PCODE":"TH4029","ADM1_EN":"Khon Kaen","ADM1_TH":"ขอนแก่น","ADM1_PCODE":"TH40","ADM0_EN":"Thailand","ADM0_TH":"ประเทศไทย","ADM0_PCODE":"TH"}}]}}}