{"type":"Topology","arcs":[[[5222,9184],[41,0],[48,-37],[42,4],[71,-20],[55,-52],[-13,-37],[32,-24],[2,-34],[57,-31],[-6,-19],[65,-10],[-27,-42],[37,-90],[82,-26],[51,-51],[140,-2],[43,-20],[-18,-19],[55,-28],[-31,-18],[38,-19],[-38,-40],[-24,-54],[8,-58],[33,-15],[-75,-72],[33,-29],[22,-110],[-15,-43],[-56,-27],[2,-114],[158,-50],[172,-44]],[[6206,7953],[-33,-30],[0,-38],[-33,-12],[-16,-61],[-55,-2],[-46,-37],[-53,-11],[16,-94],[61,-140],[-58,-38],[35,-36],[149,28],[118,-36],[-29,-68],[40,-33],[17,-56],[-14,-43],[-57,-46],[-14,-30],[150,-73],[4,-29],[122,-36],[46,4],[44,-35],[95,-41],[75,15],[105,-13]],[[6875,6962],[-16,-72],[24,-18],[-26,-32],[52,-22],[35,-39],[-15,-28],[-97,-29],[-5,-32],[-84,-29],[-10,-40],[-91,-74],[-32,-5],[-20,-56],[-114,-45],[0,-37],[-49,-1],[12,-77],[-55,-42],[-74,-33],[1,-44],[-43,-36],[70,-87],[-7,-65],[-47,-42],[-70,-9]],[[6214,5968],[-118,-15],[-189,26],[-103,-23],[-131,15],[-80,18],[-71,29],[-45,-16],[-20,101],[-25,25],[-83,-24],[33,-38],[-85,-16],[-50,17],[-37,-53],[-41,-10],[-34,29],[-76,10],[-81,-26],[-59,6],[-75,-17],[-106,42],[-53,52],[25,39],[59,22],[-10,53],[18,63],[-24,25],[-82,-19],[-90,45],[-136,9],[-22,18],[-66,-11],[-75,10],[-80,81],[13,39],[-36,0],[-65,38],[-62,15],[-70,-3],[-64,22],[-73,2],[-101,37],[-33,93]],[[3711,6678],[54,8],[5,57],[29,55],[-49,83],[27,40],[52,21],[-11,49],[-34,51],[43,42],[-47,65],[53,36],[2,55],[-25,45],[-127,25],[-7,40],[-53,0],[-60,67],[-134,46],[-66,6],[50,86],[43,2],[40,26],[38,-7],[34,-35],[50,23],[65,-9],[44,37],[89,-5],[-21,49],[-87,10],[0,36],[-37,25],[13,34],[-71,30],[-43,34],[23,14],[-116,57],[25,50],[-10,38],[43,21],[-12,40],[-93,44],[-35,-1],[0,40],[121,8],[26,29],[44,5],[111,86],[0,36],[88,72],[91,55],[52,10],[41,67],[68,7],[10,49],[114,25],[-90,23],[-58,76],[-98,37],[-5,79],[59,69],[-28,37],[31,28],[119,19],[88,-20],[91,8],[50,24],[96,10],[161,54],[79,-19],[57,0],[-3,19],[109,17],[15,70],[-27,31],[1,44],[56,6],[16,21],[138,-16],[204,10]],[[6214,5968],[17,-35],[-20,-48],[-45,0],[-47,-33],[-105,1],[-45,-20],[-38,-47],[-67,-22],[-18,-29],[-47,-8],[-105,-114],[-6,-42],[-50,-72],[-12,-80],[45,-51],[6,-63],[38,-29],[14,-45],[40,-6],[66,23],[107,-14],[-22,-37],[20,-46],[-101,-36],[-6,-27],[-100,-32],[65,-13],[9,-79],[33,-24],[-57,-42],[54,-73],[-19,-51]],[[5818,4774],[-186,-34],[-62,27],[-159,-58],[-121,-4],[-90,-11],[-160,-34],[-133,-82],[-59,-28],[-62,-8],[-32,-41],[-57,31],[-136,-4],[-18,-42],[-65,0],[-94,33],[-35,-23],[-85,5],[-88,-38],[-56,6],[-44,31],[-22,-16],[-71,35],[-106,-7],[-48,-32],[-90,-23],[-21,-28],[-104,16],[-21,-20],[-196,-20],[-28,-18],[-98,30]],[[3271,4417],[16,91],[-35,16],[15,27],[-30,22],[31,20],[9,83],[-37,63],[33,17],[-8,33],[24,42],[-65,86],[-58,20],[-24,36],[1,45],[-24,31],[45,31],[7,52],[35,11],[-11,26],[-51,11],[-18,41],[10,47],[-35,26],[-6,37],[32,45],[-43,8],[-56,93],[48,17],[19,45],[-32,26],[13,34],[-53,49],[14,68],[-29,20],[-134,0],[-66,48],[-56,4],[-48,30],[-7,28],[-57,25],[1,44],[-114,24],[-22,-7],[-40,37],[36,22],[-20,28],[52,-5],[82,26],[31,-18],[76,39],[58,2],[-19,40],[87,13],[45,-8],[31,32],[38,-9],[60,36],[-29,13],[16,34],[-12,117],[25,25],[-2,63],[-23,24],[122,6],[88,-10],[50,29],[12,45],[-52,45],[32,33],[95,15],[80,-11],[89,56],[56,21],[142,6]],[[6206,7953],[12,20],[170,35],[116,-30],[44,2],[144,82],[63,-2],[46,-32],[54,-17],[69,36],[25,-10],[157,9],[74,15],[31,31],[70,12],[78,-41],[96,-4],[156,26],[-144,54],[-51,53],[41,89],[5,49],[57,52],[7,24],[99,45],[8,67],[-35,158],[9,36],[49,58],[130,38],[7,63],[73,31],[65,79],[-46,64],[14,17],[-48,107],[19,16],[-14,45],[-60,11],[-65,29],[-114,26],[-64,36],[37,37],[-46,0],[-168,46]],[[7376,9415],[112,49],[105,-23],[37,20],[60,-17],[45,8],[109,-30],[55,37],[81,12],[28,18],[101,-20],[14,-21],[62,-10],[38,14],[43,-14],[76,17],[86,-15],[106,19],[61,-31],[27,-65],[-10,-51],[13,-43],[71,-7],[62,-54],[82,-26],[19,-22],[106,-31],[35,3],[5,-30],[40,-28],[101,-12],[-34,-43],[32,-16],[-16,-63],[33,-30],[-5,-43],[30,-25],[-5,-33],[161,-43],[-30,-78],[14,-47],[38,-54],[41,22],[79,-31],[82,-76],[-19,-27],[56,-56],[-34,-41],[-32,4],[-3,-57],[-50,-49],[11,-114],[79,-37],[-76,-41],[-70,2],[-26,-32],[12,-56],[50,-60],[81,6],[32,-24],[-11,-38],[-34,0],[3,-52],[23,-14],[-38,-34],[10,-22],[83,-50],[-5,-79],[-48,-47],[81,-43],[-53,-41],[-49,-14],[-29,-66],[37,-52],[36,-19],[9,-43],[-80,-44],[-77,-19],[-49,7],[-16,-49],[54,-16],[69,-74],[44,2],[132,-37],[-8,-25],[112,-20],[5,-50],[118,-14],[-14,-68],[25,-26],[33,-133],[59,-44],[-21,-67],[-61,-27],[-5,-34],[-136,0],[-42,-9],[-39,-46],[-59,-10],[-84,-48],[-99,24],[-86,-10],[-25,-31],[-80,-6],[-20,-26],[-83,-29],[-127,1],[-75,30],[-309,46],[-29,-9],[-132,27],[-71,-5],[-42,12],[-69,-27],[-70,-71],[-106,37],[-49,6],[-59,87],[-77,27],[-15,-12],[-65,39],[19,36],[-24,44],[-46,18],[-95,9],[-6,60],[-40,28],[-23,84],[41,16],[-80,54],[17,39],[-85,-6],[-38,25],[-86,-13],[-161,12],[-62,-13],[-126,14],[-21,-17],[-32,25],[-73,15],[-68,-33]],[[3248,4320],[19,-24],[-32,-63],[15,-37],[87,-50],[42,-7],[2,-47],[-35,-41],[-5,-48],[26,-61],[-28,-38],[-2,-72],[46,-69],[23,-55],[118,-4],[-63,-125],[88,-23],[-17,-52],[27,-34],[-40,-14],[-42,-69],[102,-69],[78,-39],[58,5],[85,-30],[104,-13],[64,-32],[72,-89],[65,-20],[162,-82],[45,-55],[79,-3],[139,59],[110,-58],[50,-57],[76,-49],[80,-26],[64,22],[36,65],[42,9],[63,-17],[65,17],[-1,43],[170,16],[86,46],[48,9],[47,63],[54,50],[22,48],[74,37],[105,18],[54,-45],[-14,-37],[54,-38],[159,-40],[189,9],[66,30],[5,24],[86,97]],[[6320,3255],[45,1],[104,-45],[43,-29],[16,14],[41,-89],[33,-16],[-3,-35],[-39,-52],[-73,-29],[-78,6],[-114,-20],[-105,19],[-115,-23],[-20,-55],[12,-51],[42,-27],[-30,-53],[57,-59],[92,-27],[57,13],[30,-20],[-26,-74],[35,-12],[39,-44],[-72,-45],[-4,-68],[-55,0],[-22,-28],[46,-65]],[[6256,2342],[-125,4],[-66,16],[-64,-4],[-43,21],[-107,12],[-21,36],[-49,23],[-77,-25],[-1,-49],[93,-47],[80,-75],[76,-33],[13,-133],[-77,-22],[23,-12],[-77,-6],[-4,-21],[-73,3],[-58,-32],[11,-63],[36,-19],[-66,-24],[10,-61],[-70,-12],[18,-69],[-46,-12],[-37,-67],[-62,-5],[-36,-26],[-72,29],[-18,26],[-222,55],[-56,43],[9,34],[-31,28],[-65,8],[-8,23],[-94,42],[-20,31],[-73,24],[36,81],[-44,47],[-74,10],[-65,-36],[-118,-18],[-44,-52],[-70,-27],[28,-21],[-35,-78],[34,-56],[-67,-32],[-82,-19],[10,-17],[81,-19],[2,-34],[-99,14],[-71,-6],[-86,15],[-121,-3],[-56,14],[-264,-61],[-51,11],[-28,44],[-192,15],[-46,-29],[-77,9],[-56,25],[-127,5],[-123,21],[-55,-17],[-23,-35],[-42,3]],[[2882,1737],[23,25],[-114,121],[-8,43],[-66,43],[-55,-5],[-32,-21],[-40,12],[-19,56],[65,19],[14,42],[-19,38],[-78,84],[-2,181],[-17,36],[-47,29],[-79,17],[-55,26],[-62,65],[-116,68],[-99,73],[-49,77],[19,51],[174,99],[39,38],[0,30],[-99,102],[-45,36],[-125,45],[-90,22],[-73,4],[-55,27],[-68,-9],[-54,11],[-62,-20],[-64,-105],[-16,-56],[-39,-61],[-59,-39],[-161,-51],[-30,0],[-69,43],[-74,66],[-109,46],[-66,43],[-72,85],[-41,15],[-23,46],[-16,80],[68,77],[13,59],[-81,69],[-91,11],[-33,15],[-42,55],[-13,61],[-29,31],[-86,37],[-72,112],[-24,84],[-53,84],[-79,56],[-79,19],[-73,35],[-49,44],[-20,41],[-6,110],[109,70],[20,34],[23,-27],[-9,-146],[16,-10],[139,-1],[85,9],[79,23],[25,-40],[84,-21],[64,-32],[24,-102],[49,-16],[5,-64],[49,-18],[6,-33],[81,-8],[32,27],[38,-11],[59,34],[146,26],[59,-66],[87,-13],[46,22],[161,-23],[53,117],[-1,38],[43,20],[104,-40],[33,13],[36,47],[104,-7],[22,19],[113,-8],[27,35],[54,9],[68,-8],[-60,49],[-2,31],[98,19],[50,-31],[49,18],[30,32],[41,6],[8,28],[157,-16],[19,16],[70,-7],[77,-25],[64,-2],[159,18],[28,49],[49,10],[50,-32],[116,-14],[112,8]],[[5818,4774],[60,-35],[-26,-23],[-29,-72],[42,-17],[51,-47],[140,5],[56,16],[91,-30],[37,-27],[104,6],[71,-14],[-6,-69],[218,-13],[18,-75],[111,-19],[74,-70],[-43,-36],[-1,-32],[-50,-10],[-66,-52],[-74,-26],[-37,18],[-64,-5],[-65,36],[-79,-7],[4,-24],[-36,-75],[-58,-14],[-65,-45],[-65,6],[-108,-39],[-26,-21],[-44,9],[-27,-59],[-48,-24],[-57,-122],[-45,-5],[-127,-50],[-7,-30],[-59,-43],[75,-58],[66,18],[64,-13],[76,-42],[118,-15],[-25,-54],[54,-36],[41,-2],[33,-65],[44,-41],[156,-44],[35,-33]],[[3248,4320],[-10,18],[33,79]],[[6256,2342],[46,-27],[-40,-33],[22,-69],[190,-23],[-3,-19],[97,-45],[-9,-43],[92,-16],[98,22],[28,31],[25,-30],[-36,-15],[106,-5],[-11,-41],[80,-5],[39,45],[24,-10],[95,7],[75,-20],[35,11],[21,-32],[-53,-81],[-76,-55],[-57,7],[-63,-60],[-28,-51],[-74,-26],[-25,-39],[33,-37],[16,-50],[-86,-31],[-122,0],[-57,-22],[-51,19],[-65,-29],[-91,2],[-40,-35],[-70,14],[-52,-18],[-34,-45],[-32,3],[-35,-39],[-3,-58],[-50,-24],[-22,25],[-89,14],[-204,62],[-29,24],[-66,3],[-77,-32],[-46,6],[-92,-36],[-36,11],[-83,-43],[-83,0],[-100,-34],[-26,-24],[20,-27],[-53,-22],[-28,34],[-17,-104],[12,-39],[77,-33],[50,0],[20,-43],[145,-48],[45,-4],[43,-48],[76,-21],[14,-87],[50,-52],[58,-33],[2,-22],[178,-78],[29,18],[148,-5],[21,-33],[90,-58],[-54,-70],[-36,-7],[34,-50],[69,-13],[9,-54],[26,-21],[-30,-29],[9,-109],[-50,-42],[12,-25],[-148,-114],[-193,-64],[-50,-41],[-54,-2],[-112,50],[-69,1],[-20,41],[-74,47],[-87,41],[22,19],[-31,30],[-11,44],[-52,27],[-3,41],[-56,-2],[35,46],[-96,56],[-9,30],[62,-6],[-46,42],[-10,38],[-53,33],[22,24],[-32,31],[-63,2],[8,28],[-66,69],[-29,7],[-10,39],[43,12],[-87,22],[-2,44],[-32,-3],[51,77],[-54,39],[-34,-1],[-25,42],[49,28],[-31,21],[-190,-42],[-201,-1],[-53,-21],[-30,-63],[-43,-16],[-17,-38],[48,-37],[-30,-50],[-124,-37],[-62,-27],[-42,0],[-42,-29],[-159,-46],[-151,12],[-66,22],[-174,-43],[-73,37],[-87,-27],[-90,-12],[-72,7],[-49,36],[-29,-1],[-72,51],[-75,13],[-42,39],[7,49],[-73,0],[-46,-15],[-90,83],[3,42],[-45,35],[-58,73],[-32,21],[-15,55],[63,85],[38,30],[15,78],[127,84],[66,23],[136,19],[42,29],[12,85],[-12,49],[-115,126]],[[5222,9184],[1,17],[78,7],[55,48],[-16,57],[-71,22],[8,32],[-41,49],[45,55],[-43,29],[-30,71],[53,16],[-18,41],[33,36],[-7,53],[37,55],[-32,31],[12,97],[34,28],[-43,17],[73,22],[41,32],[48,-45],[69,-3],[19,24],[123,2],[26,-27],[-19,-59],[51,-3],[80,-87],[93,8],[16,25],[57,2],[98,39],[165,-78],[48,11],[73,-29],[46,-32],[43,-5],[-6,-40],[75,-58],[29,4],[42,-30],[73,-8],[41,-25],[59,15],[35,-10],[7,-36],[54,-39],[-49,-56],[40,-43],[88,-53],[92,9],[47,22],[84,-7],[79,14],[34,-15],[66,25],[59,4]]],"transform":{"scale":[0.00013083437863786572,0.00021784493669367263],"translate":[97.34357768000007,17.636971256000038]},"objects":{"Mae Hong Son":{"type":"GeometryCollection","geometries":[{"arcs":[[0,1,2,3,4]],"type":"Polygon","properties":{"Shape_Leng":2.6634406261,"Shape_Area":0.199531907136,"ADM2_EN":"Mueang Mae Hong Son","ADM2_TH":"เมืองแม่ฮ่องสอน","ADM2_PCODE":"TH5801","ADM1_EN":"Mae Hong Son","ADM1_TH":"แม่ฮ่องสอน","ADM1_PCODE":"TH58","ADM0_EN":"Thailand","ADM0_TH":"ประเทศไทย","ADM0_PCODE":"TH"}},{"arcs":[[-4,5,6,7]],"type":"Polygon","properties":{"Shape_Leng":2.14562131442,"Shape_Area":0.139085021127,"ADM2_EN":"Khun Yuam","ADM2_TH":"ขุนยวม","ADM2_PCODE":"TH5802","ADM1_EN":"Mae Hong Son","ADM1_TH":"แม่ฮ่องสอน","ADM1_PCODE":"TH58","ADM0_EN":"Thailand","ADM0_TH":"ประเทศไทย","ADM0_PCODE":"TH"}},{"arcs":[[-2,8,9]],"type":"Polygon","properties":{"Shape_Leng":2.70187620803,"Shape_Area":0.196735639311,"ADM2_EN":"Pai","ADM2_TH":"ปาย","ADM2_PCODE":"TH5803","ADM1_EN":"Mae Hong Son","ADM1_TH":"แม่ฮ่องสอน","ADM1_PCODE":"TH58","ADM0_EN":"Thailand","ADM0_TH":"ประเทศไทย","ADM0_PCODE":"TH"}},{"arcs":[[10,11,12,13]],"type":"Polygon","properties":{"Shape_Leng":3.77792395404,"Shape_Area":0.224250108813,"ADM2_EN":"Mae Sariang","ADM2_TH":"แม่สะเรียง","ADM2_PCODE":"TH5804","ADM1_EN":"Mae Hong Son","ADM1_TH":"แม่ฮ่องสอน","ADM1_PCODE":"TH58","ADM0_EN":"Thailand","ADM0_TH":"ประเทศไทย","ADM0_PCODE":"TH"}},{"arcs":[[-7,14,-11,15]],"type":"Polygon","properties":{"Shape_Leng":1.95416857972,"Shape_Area":0.118485064199,"ADM2_EN":"Mae La Noi","ADM2_TH":"แม่ลาน้อย","ADM2_PCODE":"TH5805","ADM1_EN":"Mae Hong Son","ADM1_TH":"แม่ฮ่องสอน","ADM1_PCODE":"TH58","ADM0_EN":"Thailand","ADM0_TH":"ประเทศไทย","ADM0_PCODE":"TH"}},{"arcs":[[-13,16]],"type":"Polygon","properties":{"Shape_Leng":3.28174343022,"Shape_Area":0.121885731226,"ADM2_EN":"Sop Moei","ADM2_TH":"สบเมย","ADM2_PCODE":"TH5806","ADM1_EN":"Mae Hong Son","ADM1_TH":"แม่ฮ่องสอน","ADM1_PCODE":"TH58","ADM0_EN":"Thailand","ADM0_TH":"ประเทศไทย","ADM0_PCODE":"TH"}},{"arcs":[[-1,17,-9]],"type":"Polygon","properties":{"Shape_Leng":1.73702286889,"Shape_Area":0.0947090152421,"ADM2_EN":"Pang Mapha","ADM2_TH":"ปางมะผ้า","ADM2_PCODE":"TH5807","ADM1_EN":"Mae Hong Son","ADM1_TH":"แม่ฮ่องสอน","ADM1_PCODE":"TH58","ADM0_EN":"Thailand","ADM0_TH":"ประเทศไทย","ADM0_PCODE":"TH"}}]}}}