{"type":"Topology","arcs":[[[6752,5032],[16,9],[8,20],[38,21],[41,1],[48,-17],[52,-29],[54,-37],[25,-23],[20,-29],[-13,-17],[-41,-11],[3,-26],[11,3],[61,-14],[35,-40],[47,-46],[11,-23],[30,-23],[15,-26],[44,-30],[4,-17],[16,-9],[40,-37],[31,-44],[29,-25],[8,-43],[11,-27],[11,-3],[29,-43],[32,-74],[10,-6],[11,-33],[23,-41],[-6,-19],[27,-30],[35,-32],[3,-15],[26,-47],[7,-24],[12,-79],[29,-50],[98,-123],[16,0]],[[7759,3874],[1,-26],[15,-38],[43,-31],[-6,-19],[-22,-17],[-14,-33],[10,-16],[-6,-9],[-26,-1],[17,-22],[-20,-1],[-3,-31],[13,-4],[-7,-35],[-15,-4],[7,-13],[-10,-24],[1,-22],[-34,-10],[-2,12],[-18,-2],[0,-15],[-20,-19],[19,-9],[-21,-14],[6,-19],[-6,-25],[19,2],[-18,-20],[-17,-31],[5,-33],[-50,-18],[-9,9],[16,9],[-53,9],[-9,-16],[-17,8],[-13,-7],[-9,22],[-10,-6],[-15,11],[-13,-12],[-31,-7],[13,-17],[-20,-14],[20,-7],[-11,-41],[9,-8],[-17,-14],[-18,-2],[-1,12],[-18,-13],[11,-10],[-29,-22],[3,-10],[-20,-8],[17,-16],[-24,-22],[15,-7],[3,-25],[-6,-26],[12,-13],[-7,-12],[17,-20],[-18,-8],[-28,-31],[1,-32],[-5,-21],[-19,-30],[-15,-6],[-15,-23],[0,-13],[-18,-27],[3,-19],[-15,-13],[3,-15],[-17,-41],[-35,-11],[-30,-3],[-19,5],[-35,-8]],[[7124,2756],[-29,9],[-24,-13],[-55,-2],[-6,18],[-28,10],[-6,13]],[[6976,2791],[9,14],[-2,26],[8,6],[-33,65],[-14,38],[-18,29],[-20,14],[-21,67],[-10,5],[-26,-5],[-15,46],[-8,12],[-14,63],[-11,36],[10,42],[-19,65],[-10,7],[2,22],[-17,67],[-22,59],[27,20],[-21,18],[-23,37],[2,22],[-17,15],[-17,37],[-20,82],[-1,20],[-21,-5],[-67,-38],[-41,3],[-53,-5],[-60,22],[30,57],[-40,-9],[-47,6],[-11,-6],[-18,10],[-5,-15],[-33,-3],[-2,-20],[10,-36],[-45,16],[-111,3],[-6,-21],[2,-22],[-94,-11],[-96,10],[-28,-23],[-68,-6],[-23,-12],[-57,-10],[-3,-12],[-32,-9]],[[5756,3584],[-16,-6],[-52,16],[-60,-4],[-1,-24],[-27,3],[-50,-10],[31,51],[3,22],[-13,0],[-2,51],[26,6],[-29,23],[0,13],[16,26],[5,24],[10,8],[1,21],[12,1],[14,45],[-4,32],[-32,26],[-13,-3],[-32,-44],[-20,7],[-49,6],[-33,38],[-11,28],[-3,29],[-8,13],[-27,9],[-30,35],[-45,17],[-25,29],[-2,21],[-36,20],[-26,36],[-43,21],[-31,19],[-35,55]],[[5119,4244],[9,29],[52,61],[11,7],[37,-25],[11,-18],[24,-4],[32,8],[27,30],[35,-15],[5,10],[60,12],[20,-8],[24,20],[2,15],[33,1],[14,-9],[61,32],[51,-13],[5,-8],[36,-12],[24,17],[26,-7],[53,13],[26,14],[6,20],[30,-12],[38,-5],[36,-15],[47,10],[25,19],[8,25],[50,21],[6,22],[53,3],[78,-6],[67,11],[43,-7],[19,9],[4,16],[118,3],[42,-8],[24,21],[14,27],[-57,16],[-15,8],[-48,47],[-21,31],[-20,58],[-10,10],[-52,22]],[[6282,4740],[16,22],[0,50],[13,16],[34,10],[27,19],[-6,15],[-28,23],[-1,12],[16,20],[65,17],[4,15],[16,-1],[9,34],[-9,27],[-33,3],[-3,12],[14,17],[20,10],[-14,15],[-29,2],[2,55],[14,9],[12,-11],[-11,-14],[9,-15],[23,0],[8,20],[19,1],[16,-11],[-2,-14],[33,11],[16,-6],[-3,-16],[13,-3],[37,8],[11,-16],[-12,-12],[24,-13],[-4,-15],[21,-30],[1,-19],[16,-18],[18,-1],[63,15],[29,18],[6,31]],[[5119,4244],[-19,6],[-26,-6],[-44,6],[-29,17],[-27,8],[-15,23],[-28,16],[-23,29],[-25,15],[-36,9],[-62,31],[-26,-7],[-43,2],[-25,-14],[-37,6],[-36,11],[-9,11],[-78,2]],[[4531,4409],[31,36],[31,7],[7,10],[35,21],[-20,12],[-16,25],[12,42],[-29,33],[-14,6],[5,23],[-2,34],[17,14],[-7,16],[-30,37],[-14,35],[-13,11],[-87,-1],[-28,-8],[-28,8],[3,33],[28,15],[-2,44],[-27,21],[-12,24],[-28,25],[-4,11],[-40,19],[9,49],[35,33],[-3,19],[-23,22],[-3,17]],[[4314,5102],[-6,12],[10,14],[-11,28],[33,23],[23,34],[14,8],[73,-18],[20,7],[24,-8],[47,-1],[103,5],[22,7],[61,0],[46,-9],[60,25],[24,19],[15,-1],[19,14],[52,4],[2,40],[24,3],[52,-23],[20,-26],[37,3],[3,9],[27,7],[22,-7],[35,-32],[33,4],[32,13],[9,20],[47,-2],[12,-13],[67,-6],[18,6],[36,-6]],[[5419,5255],[6,-52],[-6,-13],[16,-11],[-4,-19],[7,-19],[27,-9],[-7,-19],[-43,-5],[8,-15],[-20,1],[-27,-10],[10,-17],[12,2],[12,-50],[25,-26],[0,-54],[8,-8],[-5,-20],[52,-2],[26,-17],[19,6],[39,-7],[-3,-12],[19,-18],[-5,-30],[26,-22],[28,8],[22,-18],[-22,-2],[-1,-12],[35,-4],[16,-13],[54,-16],[72,5],[59,-5],[67,11],[88,-18],[5,-8],[30,26],[49,16],[24,1],[36,-7],[109,-33]],[[5756,3584],[20,-30],[1,-13],[46,5],[6,-12],[40,6],[19,-6],[2,-15],[94,8],[44,-4],[0,-25],[-22,-6],[-35,6],[-14,-69],[14,-2],[19,-15],[-12,-9],[-61,-4],[-23,-15],[-47,3],[-10,-6],[-12,-45],[-17,-33],[-2,-30],[-27,-16],[-8,-35],[-15,-9],[-22,-28],[-13,6],[-20,-29],[-21,-16]],[[5680,3146],[-2,19],[-33,6],[-14,14],[-28,11],[9,8],[-23,34],[-43,8],[6,9],[-17,7],[-19,-15],[-42,9],[-28,-21],[-26,-12],[8,-20],[-7,-15],[-34,-31],[4,-28],[-11,-18],[23,-17],[-49,-17],[-29,-21],[-40,12],[-1,-23],[28,-22],[-1,-35],[-26,1],[-23,-8],[-41,3],[-15,-17],[-41,0],[-47,12],[-21,-18],[-5,-27],[-22,-15],[-25,4],[-18,-23],[-47,-32],[-20,2],[-70,-9],[-51,-1],[-14,16],[-18,6],[-60,-49]],[[4747,2833],[-27,13],[-14,31],[5,17],[-10,15],[-52,8],[-26,-3],[-54,10],[-20,-5],[-27,43],[-25,8],[-23,17],[7,31],[-3,25],[-11,16],[-52,55]],[[4415,3114],[-12,48],[8,29],[-78,34],[-46,6],[-50,33],[27,29],[39,32],[-16,55],[1,25],[38,26],[17,26],[-27,9],[-17,17],[-41,7],[-54,36],[41,60],[11,48],[-7,10],[0,34],[13,11],[46,20],[-2,22],[23,22],[-28,15],[4,44],[-22,49],[16,49],[-20,2],[-25,16],[-11,22],[1,29],[-12,16],[31,17],[8,15],[-28,20],[-4,29],[-20,29],[-17,3],[-7,39]],[[4195,4147],[33,17],[-14,61],[20,25],[4,20],[19,28],[-18,17],[5,20]],[[4244,4335],[22,21],[24,12],[37,7],[53,17],[34,-8],[26,3],[11,11],[30,10],[50,1]],[[4195,4147],[2,-20],[-8,-26],[1,-21],[-8,-15],[-55,-13],[-64,11],[-62,-33],[-14,3],[-63,-16],[-25,-19],[-74,4],[-9,7],[-38,6],[-43,-21],[-18,-15],[-23,8],[-37,-6],[-9,14],[-22,-6],[-26,20],[-43,15],[-16,-3],[-20,-32],[4,-13],[-31,-10],[-68,-28],[-17,15],[-46,6],[-21,-15],[-25,7],[-10,-7],[-29,1],[-7,-7],[-38,6],[-27,-29],[-24,2],[-11,-34],[5,-34],[11,-33],[-8,-29],[-32,-30],[-12,-18],[3,-65],[78,-67],[9,-24],[-7,-5],[-48,10],[-45,18],[-26,21],[-38,2],[-28,-4],[-12,17],[-15,2],[-59,-13],[-3,-8],[-26,5],[-38,-3],[-22,21],[-15,5],[-38,-19],[-24,3],[-6,13],[-10,-13],[-41,11],[-28,-24],[-31,16],[-25,-5],[-10,-15],[35,-6],[-8,-49],[-30,-1],[4,-22],[-30,3],[11,-10],[-7,-18],[-36,-19],[22,-21],[-9,-26],[5,-22]],[[2587,3427],[-38,14],[-53,-6],[-3,28],[-12,1],[2,44],[-23,2],[-14,15],[-45,6],[-1,21],[-58,-11],[-12,-16],[-99,14]],[[2231,3539],[11,28],[-3,14],[23,26],[-5,30],[4,33],[-15,13],[-55,12],[11,30],[-24,0],[-23,21],[7,15],[-19,9],[-15,-19],[-45,5],[-25,11],[-51,5],[-3,28],[-15,11],[-7,26],[-15,5],[-9,-17],[-31,6],[-43,21],[-15,-18],[-37,-28],[-31,4],[-11,-22],[-13,18],[-28,15],[-31,-4],[-30,40]],[[1688,3857],[39,26],[23,-4],[23,-13],[19,21],[-10,20],[8,16],[-17,33],[2,9],[32,4],[7,36],[13,20],[18,9],[74,-17],[42,-24],[20,13],[15,33],[7,31],[-5,26],[-22,17],[-30,14],[2,13],[-43,24],[5,19],[-7,34],[12,62],[-40,22],[-4,38],[16,34],[14,6],[1,51],[9,30],[-31,6],[-37,1],[-23,-8],[-52,8],[-16,12],[-13,30],[14,45],[33,40],[-31,31],[5,50],[-15,88],[-26,10],[-6,12],[-49,14]],[[1664,4799],[-5,29],[-15,4],[-5,31],[-12,16],[25,36],[10,-4],[29,12],[28,43],[23,2],[19,13],[8,28],[39,-5],[18,33],[44,18],[11,21],[-15,5],[23,33],[32,-8],[23,0],[10,8],[25,-4],[36,40],[2,19],[-27,46],[-45,36],[-3,30],[13,23],[-10,29],[22,18],[31,34],[1,21],[78,53],[30,-3],[10,-17],[30,-11],[34,10],[34,-4]],[[2215,5434],[-8,-11],[22,-23],[-6,-7],[-34,-4],[-12,-22],[13,-25],[-10,-13],[18,-38],[30,-15],[9,-16],[60,-31],[49,-11],[23,-22],[5,-42],[23,-10],[29,-30],[11,-26],[25,-22],[3,-22],[28,-12],[19,-17],[-30,-26],[-19,-33],[7,-45],[37,-39],[15,-2],[26,12],[15,-5],[11,-23],[5,-33],[9,-22],[-5,-38],[-9,-12],[-2,-43],[16,-28],[5,-33],[11,-19],[1,-24],[13,-57],[-3,-14],[20,-21],[9,-32],[-2,-29],[67,-23],[27,10],[25,-2],[44,7],[30,0],[50,37],[37,0],[55,-43],[49,-8],[51,6],[11,-11],[11,-46],[-10,-19],[3,-15],[35,-13],[36,18],[39,-6],[9,19],[25,18],[41,60],[10,5],[31,-5],[18,3],[58,-9],[15,-20],[30,-1],[20,23],[61,5],[2,14],[25,27],[44,14],[12,14],[26,7],[54,52],[15,7],[31,-8],[47,-3],[28,-9],[9,-16],[73,-10],[73,-17],[12,-13],[19,-2],[35,-26],[28,-28],[8,-43],[20,-16],[26,-9],[18,-16],[52,-22],[67,-1]],[[2215,5434],[28,17],[1,15],[-25,21],[2,22],[47,28],[3,16],[21,28],[22,17],[32,6],[15,-11],[17,10],[-1,23],[-30,36],[8,10],[42,21],[-21,58],[-38,20],[33,20],[30,6],[30,14],[17,15],[29,13],[-3,35],[23,15],[18,3],[35,19],[59,10]],[[2609,5921],[20,-9],[21,0],[21,14],[26,9],[27,-2],[21,10],[22,-2],[13,-10],[29,-8],[46,10],[19,-1],[23,-20],[26,-2],[16,-15],[-9,-18],[10,-21],[18,-7],[11,6],[25,-19],[32,-14],[90,-6],[27,-12],[24,0],[36,14],[54,16],[22,21],[37,-6],[19,-11],[18,5],[21,-12],[22,4],[10,-22],[25,-16],[11,-15],[35,-15],[9,-27],[25,-1],[19,-14],[28,-3],[21,8],[18,-6],[18,11],[37,-19],[25,-31],[31,11],[25,-4],[9,-10],[25,-5],[16,9],[18,-12],[31,-4],[19,-15],[26,-6],[21,5],[19,-10],[42,2],[29,-18],[19,-34],[-14,-28],[12,-25],[39,-30],[0,-10],[-25,-11],[-12,-16],[-30,-14],[-19,1],[-7,-16],[25,-13],[-6,-15],[45,-37],[-22,-94],[2,-25],[-9,-34],[37,-17],[36,9],[16,25],[46,-5],[6,-59],[31,-38],[4,-21],[35,-37],[43,-10],[37,8],[37,20]],[[9291,2283],[-8,-13],[-17,-6],[-29,12],[-16,-7],[-58,19],[-62,-9],[-9,-47],[-8,-26],[-25,-41],[-13,-37],[-26,-46],[-16,-7],[-2,-45],[-15,-1],[-22,-31],[-7,-28],[-23,-51],[-9,-10],[30,-19],[-10,-10],[-18,-43],[45,-10],[-20,-36],[33,-7],[-6,-28],[-17,-32],[-35,-39],[-22,0],[-19,-27],[34,-35],[-25,0],[-25,-30],[-47,-10],[-42,-51],[5,-40],[-14,-20],[-1,-35],[-10,-5],[-60,-2],[-25,-37],[-6,-79],[8,-28],[19,-31],[-17,-61],[30,-38],[-21,-5],[-107,4],[-49,7]],[[8534,1162],[-334,58],[-104,19],[-264,47],[-135,21],[-17,-6],[-25,12],[-26,-2],[-32,40],[-50,28],[-35,14],[-8,25],[-15,-7],[-59,34]],[[7430,1445],[25,25],[-8,16],[25,16],[2,16],[25,34],[17,-1],[11,12],[42,19],[12,26],[30,7],[20,14],[25,0],[5,11],[-31,22],[7,77],[14,2],[-8,39],[1,28],[12,21],[45,-13],[50,-32],[27,1],[15,35],[22,35],[34,-25],[75,62],[-18,19],[-129,54],[-93,49],[-36,22],[45,46],[39,22],[107,72],[35,21],[24,-1],[12,25],[22,24],[20,-3],[22,22],[40,5],[31,-10],[41,52],[-25,18],[-3,16],[-18,2],[-37,28],[-56,13],[-58,2],[-32,25],[-49,17],[-34,16],[-7,-3],[-55,16],[8,23],[35,35],[-13,7],[11,23],[-21,6],[-12,16],[-21,-11],[-44,42]],[[7655,2602],[42,-12],[102,-6],[96,-20],[118,-35],[91,-50],[-1,28],[16,28],[33,43],[44,5],[68,-11],[4,13],[117,-11],[4,-10],[54,5],[5,12],[23,12],[37,3],[26,16],[2,17],[19,-6],[15,7],[13,-13],[14,5],[27,-21],[27,6],[-7,-14],[31,-2],[6,-24],[23,-6],[53,-5],[37,3],[19,-9],[16,-55],[7,-10],[36,4],[11,-12],[-7,-30],[7,-4],[87,-13],[47,-11],[73,-2],[19,-6],[20,21],[33,-7],[22,10],[14,-17],[32,-23],[57,6],[-9,-44],[19,-16],[9,-28],[-22,-8],[-5,-13],[12,-9]],[[8534,1162],[0,-25],[-22,-2],[-8,16],[-19,0],[-18,-22],[-5,-29],[-32,-6],[-4,-26],[-55,-23],[-45,0],[-19,-7],[0,-26],[17,-56],[-2,-29],[-40,-41],[10,-27],[23,-20],[-13,-16],[-52,-30],[-19,-32],[-12,-32],[3,-31],[52,-129],[49,-83],[46,-57],[88,-81],[17,-11],[88,-79]],[[8562,258],[-56,-20],[-95,-4],[-114,-13],[-26,1],[-40,-19],[-11,2],[-29,27],[-48,28],[-67,12],[-127,5],[-62,-12],[-29,-12],[-18,0],[-1,-19],[-26,-13],[-26,-2],[-38,-48],[-7,-17],[-23,-7],[-44,-33],[-29,-33],[-46,-30],[12,-33],[-30,5],[-48,14],[-45,-27],[-30,-10],[-25,12],[-19,21],[-48,2],[-23,-11],[-33,7],[-54,27],[-36,3],[-40,-8],[-10,3],[-48,-9],[-36,19],[-42,3],[-71,30],[-29,4],[-35,14],[-39,23],[-29,8],[-61,39],[-45,40],[-57,23],[-37,9],[2,33],[-8,21],[9,8],[-7,26],[-17,13],[1,32],[7,3],[-3,34],[-17,10],[1,16],[-41,-6],[-50,-32],[-7,-33],[-33,-35],[-2,-20],[-12,-12],[-28,-6],[-13,-25],[-45,-9],[-52,-23],[-49,-42],[-18,1],[-20,-12],[29,-8],[-16,-12],[-138,71],[-53,32],[-110,48],[-45,18],[-17,22],[-45,-12],[-81,-30],[-38,2],[-27,-7],[-29,18],[-78,-9],[-9,11],[-23,1],[-14,8],[-32,3],[-35,-21],[-7,-17],[-42,6],[-28,-12],[-64,21],[-3,-14],[-25,-11],[-31,12],[-22,26],[-46,21],[-41,-17],[-16,-18],[-16,-33],[-69,-3],[-95,-22],[-13,-15],[-22,-3],[-8,-15],[-26,-22],[-26,-13],[-27,-23],[-24,1],[-44,-35],[-6,-12],[-38,-5],[-37,3],[-11,-15],[-18,-5],[-19,6],[-5,17],[-39,-8],[-37,9],[-3,13]],[[4571,153],[58,19],[23,21],[21,0],[11,12],[25,7],[42,2],[4,27],[21,10],[26,33],[25,15],[0,32],[15,10],[57,4],[2,16],[19,2],[-6,19],[19,31],[-2,30],[29,6],[30,17],[34,9],[29,-13],[17,2],[24,18],[20,-3],[4,21],[-7,43],[13,28],[5,29],[14,12],[39,57],[2,36],[-12,8],[29,26],[32,7],[20,16],[52,30],[22,4],[55,32],[19,44],[-4,29],[-19,12],[1,40],[-37,9],[-18,16],[-55,19],[-23,18],[-76,18],[-20,11],[-65,7],[-16,20],[-2,28],[-43,60],[10,18]],[[5034,1177],[36,20],[9,-5],[38,4],[20,-16],[46,-16],[58,-3],[43,-8],[22,1],[9,-11],[49,3],[7,-7],[32,6],[21,13],[24,-3],[12,7],[26,-12],[62,10],[6,-9],[18,14],[24,2],[4,12],[28,0],[16,-10],[33,1],[42,10],[27,16],[-3,9],[29,-2],[4,9],[25,-3],[20,8],[18,-4],[17,23],[36,0],[15,18],[24,-1],[17,18],[37,-6],[25,5],[16,-16],[13,10],[65,19],[10,-4],[9,-30],[36,-19],[95,5],[81,36],[57,13],[-5,12],[2,31],[16,7],[-9,14],[59,-3],[22,-7],[0,11],[25,9],[20,-2],[26,32],[-12,18],[9,14],[-6,14],[21,14],[-13,12],[18,17],[-28,71],[6,25],[28,8],[9,12],[26,8],[5,16],[-14,8],[0,20]],[[6597,1645],[31,19],[-7,15],[49,16],[48,25],[1,10],[41,24],[10,-2],[48,14],[71,15],[43,17],[61,11],[92,5],[35,41],[40,25],[10,34],[15,22],[17,1]],[[7202,1937],[22,-3],[3,-22],[24,-20],[15,-3],[-4,-18],[13,-24],[18,-7],[31,9],[6,-19],[-6,-26],[-69,-17],[7,-14],[21,-5],[10,-17],[-10,-9],[-2,-20],[31,2],[17,-9],[1,-13],[18,-16],[-1,-11],[21,-8],[-13,-7],[-32,1],[-10,-16],[21,-4],[13,-24],[-12,-38],[35,-11],[-25,-6],[-11,-10],[23,-13],[-26,-17],[25,-25],[7,-41],[26,2],[41,-13]],[[5419,5255],[30,8],[17,-9],[66,7],[16,10],[64,5],[44,-5],[46,2],[-14,70],[-18,13],[-27,8],[-19,24],[-36,20],[-15,-1],[4,15],[-1,68],[25,39],[-14,44],[4,30],[-12,5],[9,36],[16,13],[-5,9],[15,45],[-5,28],[-12,5],[0,29],[-11,38],[-11,11],[-32,68],[7,17],[-37,3],[-32,17],[-81,15],[-41,5],[-18,-4],[-3,-51],[-23,-58],[-10,-3],[-87,16],[-7,6],[-32,-1],[-14,8],[-24,-3],[-25,11],[-19,21],[13,26],[-17,12],[-4,36],[46,23],[39,-2],[23,4],[-15,21],[-55,41],[-6,21],[-30,25],[-29,38],[0,25],[-27,1],[-25,17],[-18,40],[-22,9],[-9,14],[-3,34],[-32,10],[-32,34],[-4,16],[-40,43],[13,19],[1,41],[-9,18],[-44,27],[-40,52],[-16,7]],[[4755,6541],[26,17],[42,15],[24,-3],[9,20],[30,0],[73,14],[34,-7],[30,7],[17,-11],[23,-44],[39,-34],[32,2],[38,-12],[8,9],[30,3],[20,13],[39,10],[31,-16],[37,2],[2,45],[65,8],[8,11],[27,1],[51,13],[37,-9],[27,4],[18,-12],[35,-10],[50,7],[10,8],[36,7],[21,-7],[54,11],[2,-17],[27,-2],[34,8],[48,-1],[-1,13],[46,24],[6,11],[51,5],[48,29],[30,15],[7,28],[-11,1],[8,19],[-11,5],[21,13],[-2,25],[6,17],[22,11],[23,26],[-7,28],[17,16],[-5,14],[10,9],[23,0],[12,9],[-14,15],[13,4],[35,-8],[16,16]],[[6232,6936],[6,-60],[49,-222],[36,-135],[19,-49],[8,-56],[14,-18],[-3,-15],[1,-58],[16,-146],[29,-199],[10,-59],[46,-228],[17,-62],[32,-83],[-14,-42],[-1,-39],[15,-52],[-6,-4],[8,-33],[3,-34],[23,-56],[31,-60],[31,-33],[0,-19],[16,-1],[3,-14],[16,-2],[1,-13],[46,-38],[29,-37],[-22,-10],[-1,-12],[62,-15]],[[4747,2833],[-4,-9],[13,-38],[-21,-23],[-5,-24],[17,-6],[19,-20],[45,-23],[41,-4],[28,15],[20,-5],[42,-29],[49,-10],[75,4],[-38,-19],[-28,-29],[-15,-41],[-23,-36],[-37,-27],[31,-24],[21,-2],[17,-17],[22,-7],[5,-16],[25,-10],[76,7],[25,-6],[-11,-25],[21,-10],[-26,-8],[-28,-34],[-46,-33],[-32,-4],[17,-17],[-2,-49],[9,-15],[-17,-21],[-27,-11],[-31,-6],[-22,-17],[-56,-21],[8,-17],[-5,-54],[-13,-17],[-35,-19],[7,-13],[45,-18],[8,-26],[17,-21],[10,-29],[-22,-34],[-18,-15],[-25,-52],[-14,-19],[-28,-77],[-10,-6],[-3,-24],[-13,-15],[-9,-34],[2,-20],[-10,-38],[30,-17],[13,-20],[-10,-32],[52,2]],[[4873,1548],[47,-37],[14,-21],[5,-25],[-12,-28],[-6,-38],[5,-29],[19,-21],[48,-14],[5,-12],[16,-3],[27,-21],[23,-30],[-29,-54],[-1,-38]],[[4571,153],[-15,20],[4,11],[-18,18],[24,16],[15,32],[-13,18],[-20,5],[-12,33],[-23,32],[9,12],[7,36],[-16,34],[11,12],[2,29],[13,10],[-4,24],[29,10],[17,27],[-1,23],[10,14],[4,26],[-47,21],[-24,17],[0,13],[-18,7],[-37,31],[16,48],[20,40],[63,-26],[24,22],[10,1],[17,47],[14,22],[17,6],[18,36],[38,4],[10,32],[-9,26],[7,11],[31,22],[-5,23],[-33,-2],[-22,-18],[-21,-7],[-27,10],[-6,25],[19,18],[60,21],[17,20],[0,29],[-7,33],[-10,14],[-57,-12],[-19,3],[-18,14],[-23,3],[-13,-8],[-1,-15],[-19,-18],[-52,-5],[-29,-28],[-24,5],[5,-10],[-24,-12],[-10,13],[-11,-13],[-19,-4],[-3,-11],[-36,-4],[-9,-17],[-34,2],[-19,13],[-27,-9],[-26,5],[-28,-4],[-17,7],[-17,25],[-19,8],[-31,-13],[-35,23],[-26,-3],[-2,7],[-48,14],[5,16],[-17,9],[9,8],[-26,2],[-8,11],[-7,-15],[-13,9],[-28,-6],[-14,13],[-12,-3],[-30,25],[-21,-6],[-14,14],[-58,-17],[-10,6],[-34,-3],[-11,7],[-37,-7],[-19,-14],[-19,-2],[-25,15],[-29,-7],[-36,-39],[-30,-10],[-12,-14],[-11,-32],[-17,-18],[-18,4],[-11,-10],[-3,-28],[-14,11],[-10,-11],[-15,5],[-14,-18],[-65,-1],[1,-14]],[[3345,977],[-51,2],[-61,30],[-24,-2],[-15,25],[-17,7],[-23,-3],[0,18],[-49,48],[7,12],[-7,21],[9,9],[-14,8],[9,32],[-18,48],[-35,36],[5,13],[-16,9],[-4,25],[-22,-2],[-36,8],[-19,10],[-57,-3],[-37,25],[-1,22],[-37,23],[12,21],[-26,28],[-13,40],[-12,12],[10,8],[-13,14],[-6,41],[-21,6],[-14,42],[4,16],[-75,-13],[-45,-2],[-16,24],[0,45],[11,27],[7,64],[-13,61],[-15,21],[5,56],[-1,50],[7,18],[-4,53],[-17,26],[-35,-11],[-38,6],[-75,-5],[-6,-10],[-4,-44],[-16,-70],[-18,1],[-20,15],[-37,-2],[-22,29],[3,8],[-12,35],[-24,18],[-26,3],[-25,-6],[-21,5],[-8,17],[-28,5],[-27,-12],[-16,-20],[-27,-10],[-59,-14],[-12,-22],[-17,-14],[3,-11],[45,-23],[6,-18],[-42,-5],[-24,9],[-75,11],[-52,3],[-60,-13],[-21,3]],[[1807,1914],[7,18],[-5,31],[-19,22],[-44,14],[-6,7],[0,43],[10,21],[-1,18],[33,59],[19,14],[48,4],[4,37],[12,24],[30,22],[-4,34],[29,21],[-1,29],[7,17],[22,10],[39,5],[32,14],[58,13],[33,-3],[21,13],[28,5],[4,8]],[[2163,2414],[31,17],[-12,21],[13,20],[22,8],[8,-8],[16,12],[10,29],[-19,6],[13,14],[17,2],[23,24],[33,-13],[31,11],[45,-4],[10,8],[-7,19],[16,3],[26,43],[46,22],[29,29],[46,0],[33,-16],[46,-10],[28,-11],[56,18],[-1,15],[26,1],[13,15],[1,26],[12,12],[84,17],[71,-16],[49,1],[55,7],[62,-22],[38,1],[2,-52],[25,-7],[2,-20],[46,-8],[39,0],[69,-31],[-13,-6],[4,-69],[-6,-46],[41,-2],[43,40],[24,13],[19,-4],[-1,51],[58,-5],[10,22],[46,20],[3,10],[42,-1],[18,-8],[59,-7],[38,9],[42,-5],[28,10],[26,-22],[33,-14],[25,-18],[22,5],[19,17],[26,5],[28,-7],[13,23],[33,26],[10,27],[51,42],[1,14],[-14,25],[1,29],[-20,20],[2,21],[-13,17],[-52,49],[14,43],[2,26],[18,20],[-15,22],[-1,29],[16,20]],[[3996,3038],[34,-8],[25,18],[64,26],[87,5],[31,10],[72,-3],[17,13],[89,15]],[[2587,3427],[20,-21],[16,-4],[0,-19],[-18,-9],[39,-25],[6,-25],[19,-18],[46,-9],[-5,-9],[53,-16],[5,-12],[33,-13],[32,3],[-7,-16],[16,-25],[21,-5],[-10,-19],[22,-2],[1,-18],[15,-4],[1,-22],[19,0],[-6,-13],[16,-3],[4,-15],[34,-14],[22,8],[-21,-29],[10,-10],[24,-5],[63,6],[21,-8],[24,12],[21,-6],[40,4],[47,-32],[27,-2],[54,-40],[19,-21],[55,-12],[25,4],[7,-14],[34,17],[26,-5],[25,-27],[10,-21],[25,8],[29,30],[34,-7],[37,-34],[22,-1],[47,24],[40,8],[30,11],[23,36],[56,46],[18,33],[28,19],[102,-37],[13,-11]],[[2163,2414],[-12,5],[-17,25],[6,27],[-44,49],[-10,52],[4,18],[-8,45],[-9,12],[10,14],[-3,15],[21,72],[-2,25],[25,15],[-10,21],[3,23],[16,20],[0,21],[22,13],[-12,25],[27,12],[-1,9],[32,12],[16,12],[-8,15],[20,6],[9,14],[10,42],[12,23],[-16,6],[-8,22],[6,34],[32,-5],[28,40],[-41,15],[13,19],[-16,16],[2,17],[-16,3],[-1,17],[12,17],[34,12],[-3,18],[-26,1],[18,22],[-24,8],[1,18],[-15,1],[6,24],[-24,8],[37,6],[25,13],[13,28],[-21,17],[-46,3],[-25,12],[26,41],[-17,35],[17,15]],[[1807,1914],[-41,5],[-61,-2],[-60,16],[-24,-3],[-28,-15],[-23,-4],[-48,7],[-30,-14],[-34,-28],[-31,-50]],[[1427,1826],[-28,34],[-20,54],[5,17],[-14,41],[11,15],[20,8],[-12,42],[-24,17],[-50,-20],[-42,-4],[-19,-10],[-41,-6],[-3,-8],[-35,-4],[-4,-19],[-67,0],[0,9],[-52,-5],[-22,17],[-70,-4],[-62,-17],[-1,8],[-52,4],[-82,0],[-53,-3],[-74,-1],[-18,-21],[-26,8],[-30,-2],[-9,13],[13,7],[-9,18],[24,25],[-33,35],[-13,-9],[3,22],[-49,16],[22,14],[-18,14],[11,23],[-13,7],[14,12],[-6,20],[31,11],[44,5],[9,7],[-3,21],[14,2],[25,-12],[21,10],[0,12],[31,21],[1,33],[-21,20],[17,4],[-20,18],[8,23],[20,-2],[-12,12],[34,6],[5,14],[40,-13],[11,17],[-8,8],[26,-1],[-4,15],[10,18],[-13,7],[3,15],[28,19],[-22,42],[8,29],[-30,11],[1,19],[-13,8],[-4,28],[-34,46],[24,4],[-12,19],[12,15],[24,12],[34,1],[-10,30],[17,-3],[-1,18],[17,-1],[-6,14],[18,-2],[-3,12],[20,3],[19,17],[20,-2],[20,14],[-12,14],[3,14],[20,5],[0,32],[18,9],[-18,21],[-18,10],[11,19],[-2,17],[-16,11],[5,45],[-9,26],[-33,24],[-17,2],[-5,12],[-34,-21],[-15,15],[-19,-9],[3,16],[-20,-3],[-21,27],[-30,2],[-57,31],[-2,8],[-46,7],[17,22],[-17,7],[10,26],[-34,1],[-18,-24],[-47,13],[4,20],[-19,7],[-21,-14],[-17,4],[-5,16],[8,15],[-3,23],[-13,24],[6,13],[-16,28],[17,8],[0,12],[-30,14],[3,17],[-24,-4],[-1,16],[-25,4],[36,22],[-21,3],[3,24],[-16,0],[-19,-13],[1,16],[-26,10],[0,-19],[-17,7],[-19,-15],[1,14],[-26,7],[-8,-12],[-18,12],[-15,34],[-53,11],[5,16],[-25,16],[-11,14],[-31,11],[-15,-15],[-32,32],[10,21],[-7,11],[-25,10],[12,3],[-7,14],[10,17],[-20,3],[2,20],[-25,8],[21,14],[5,31],[-16,14],[-10,22],[10,14],[21,5],[17,-7],[46,31],[14,16],[-7,9],[31,16],[-7,13],[17,13],[-11,10],[0,21],[20,33],[25,-3],[2,34],[23,19],[4,18],[22,3],[0,18],[22,-3],[3,17],[-28,40],[4,22],[44,9],[21,33],[25,2],[22,-5],[-16,24],[34,-6],[0,-10],[23,-2],[18,19],[-5,25],[42,23],[49,-8],[4,18],[-23,1],[4,18],[53,12],[12,-3]],[[535,4251],[-26,-26],[0,-11],[15,-16],[-18,-43],[34,12],[25,0],[20,-29],[25,-1],[38,-19],[2,-14],[20,-4],[11,-21],[50,-2],[-17,-15],[16,-5],[9,-15],[17,-4],[-12,-19],[3,-26],[-23,1],[-5,-32],[-9,-10],[0,-20],[17,-8],[15,20],[11,-3],[3,-32],[17,-15],[19,7],[10,-13],[-22,-14],[-5,-14],[46,-5],[-5,18],[17,5],[8,-21],[41,1],[21,-5],[14,-22],[41,-20],[-17,-11],[7,-15],[32,12],[-5,16],[14,22],[18,-14],[9,-37],[-7,-38],[16,-12],[4,11],[26,10],[12,-11],[22,-3],[38,23],[10,30],[14,12],[33,-12],[31,-41],[-5,-19],[28,-17],[55,-26],[0,24],[32,-14],[29,9],[33,-12],[1,16],[13,2],[7,-20],[22,-7],[21,23],[22,14],[48,38],[39,0],[5,-18],[18,-6],[4,14],[17,1],[23,-11],[18,11],[-39,38],[19,27],[29,10],[5,19],[29,8]],[[7759,3874],[15,0],[14,12],[17,-10],[38,1],[31,-12],[44,-33],[13,13],[35,-28],[66,-13],[43,-24],[-1,-8],[37,-10],[1,-20],[23,2],[73,-47],[10,8],[31,-8],[83,-9],[16,9],[3,20],[33,2],[66,-30],[28,7],[24,-10],[22,10],[-30,26],[-10,24],[-42,40],[-56,49],[-15,4],[-35,39],[-9,30],[8,3],[-21,23],[8,4],[-6,42],[-16,56],[3,25],[-14,4],[11,30],[22,34],[19,66],[18,43],[34,55],[18,9],[31,40],[8,-3],[-34,46],[14,14],[-15,20],[-3,18],[23,13],[-14,7],[-16,-18],[-27,27],[-26,2],[-19,23],[-35,23],[-50,12],[-33,2],[-33,11],[-38,-4],[-19,16],[-41,10],[-55,-4],[-48,17],[95,15],[48,1],[96,-15],[72,-19],[110,-47],[74,-36],[53,-35],[72,-52],[27,-15],[51,-44],[62,-61],[58,-71],[19,-19],[49,-67],[48,-84],[19,-27],[38,-69],[81,-161],[39,-93],[16,-23],[32,-76],[12,-16],[34,-74],[37,-89],[43,-99],[7,-5],[32,-72],[39,-96],[34,-93],[47,-133],[10,-19],[29,-94],[32,-89],[15,-65],[22,-53],[43,-149],[17,-77],[13,-39],[9,-5],[15,-70]],[[9630,2239],[-18,-2],[-103,3],[-75,10],[-50,2],[-29,-3],[-50,2],[10,12],[-8,19],[-16,1]],[[7655,2602],[-15,15],[8,12],[-43,32],[-77,-50],[-19,-32],[-32,-11],[-8,-10],[-59,29],[-61,42],[-74,47],[-69,39],[-82,41]],[[5680,3146],[9,-19],[30,0],[2,-37],[27,1],[8,-15],[23,-7],[-1,13],[20,-5],[-1,-10],[30,2],[8,-10],[9,13],[13,-17],[9,13],[17,-2],[0,-19],[-19,2],[12,-18],[11,6],[19,-15],[19,2],[-5,-16],[32,7],[8,18],[13,-7],[-8,-16],[21,-4],[4,14],[14,-6],[-13,-12],[38,-4],[6,-11],[32,3],[4,-12],[17,3],[14,-11],[25,14],[17,-2],[8,-25],[13,-4],[12,-33],[36,-24],[6,-20],[39,-2],[28,41],[81,-2],[9,-8],[33,-4],[22,-10],[-6,-11]],[[6425,2880],[-7,-32],[17,-98],[-6,-24],[-11,-12],[-88,-65],[34,-2],[28,-7],[48,11],[36,-1],[21,8],[21,-5],[28,3],[17,-7],[89,16],[92,-1],[20,-10],[62,28],[59,11],[4,-34],[16,0],[1,-17],[-24,-42],[2,-84],[30,-13],[57,14],[16,27],[26,-1],[15,-26],[-18,-12],[28,-14],[10,16],[16,-5],[4,-19],[-28,-5],[14,-18],[14,9],[16,-15],[-20,-8],[23,-2],[5,-20],[-25,-28],[-14,-27],[39,-16],[-13,-16],[16,-10],[41,-43],[54,-39],[3,-14],[-23,-69],[66,-37],[14,-39],[-52,-83],[14,-36],[-10,-30]],[[6597,1645],[-26,17],[-12,24],[3,16],[-14,15],[-3,29],[-24,31],[-16,9],[3,15],[-15,77],[-76,-7],[-60,2],[11,39],[-3,29],[-11,1],[-63,-16],[-29,23],[-46,2],[8,-25],[-7,-18],[9,-40],[-28,-19],[-50,-4],[-36,3],[-39,-7],[-33,-13],[-73,-3],[3,22],[20,21],[3,40],[-32,6],[-49,-6],[-20,3],[2,14],[-21,22],[-13,-4],[-27,12],[-15,29],[-27,18],[-17,51],[-10,12],[-56,23],[-9,9],[-14,-42],[-2,-32],[-19,-6],[-20,9],[-23,-26],[-21,14],[-40,0],[-26,-6],[-9,13],[-17,-9],[-27,8],[-16,18],[-52,-7],[-39,-37],[-39,0],[-34,9],[-21,12],[-55,-2],[-79,-54],[2,-19],[-28,-18],[-29,-10],[-21,-52],[6,-8],[-17,-26],[-24,-5],[-24,-33],[1,-28],[-22,-11],[-14,-16],[-10,-27],[-13,-4],[-24,-42],[5,-14],[-24,-11],[-31,-29],[-1,-21],[-16,-19],[11,-18]],[[4755,6541],[-36,-4],[-24,38],[-26,14],[-31,3],[-34,-9],[-26,9],[-51,-9],[-61,28],[-20,21],[-28,0],[-52,68],[-25,17],[-24,2],[-26,15],[-35,-5],[-16,9],[-33,9],[-7,30],[-27,0],[-22,-15],[-23,6],[-19,47],[-49,19],[-6,19],[10,22],[20,27],[-2,36],[9,22],[-19,-7],[-51,-2],[-14,45],[3,47],[-6,19],[27,34],[4,17],[-33,6],[-42,20],[-14,0],[-28,23],[-46,13],[-11,38],[-44,1],[-11,24],[-46,8],[-10,20],[-46,3],[-6,9],[1,44]],[[3699,7322],[19,6],[12,-14],[28,20],[-8,-41],[29,-18],[12,7],[-2,16],[41,4],[27,-5],[45,2],[22,13],[18,0],[18,17],[31,-5],[17,3],[6,13],[25,3],[67,0],[49,11],[39,22],[1,23],[14,27],[-28,61],[-58,48],[38,30],[4,55],[9,17],[24,3],[32,-10],[20,3],[24,-14],[42,-6],[33,1],[19,24],[21,17],[42,0],[24,26],[-3,32],[7,16],[18,3],[31,38],[5,24],[-8,15],[9,24],[-5,16],[27,7],[-12,23],[10,20],[29,5],[20,24],[14,36],[28,10],[4,14],[-20,19],[7,17],[-26,36],[34,27],[1,28],[10,19],[-23,23],[3,19],[-19,13],[61,71],[11,7],[38,6],[35,-4],[66,20],[5,19],[18,21],[-7,12],[11,17],[-23,39],[21,15],[31,13],[-2,20],[17,11]],[[4878,8456],[9,-15],[57,16],[24,-19],[26,-33],[22,0],[68,24],[54,9],[-1,-47],[73,-34],[9,23],[-16,12],[73,15],[16,11],[-24,24],[-2,9],[-38,13],[-5,17],[24,39],[-3,14],[36,40],[-7,25],[5,24],[29,-20],[54,5],[32,24],[39,10],[30,-12],[66,-9],[44,-23],[12,-55],[14,-34],[11,-14],[30,-11],[24,-38],[34,-16],[-2,-22],[27,-4],[24,6],[14,17],[38,13],[16,22],[0,-15],[23,-27],[44,-29],[114,30],[62,1],[24,-6],[22,10],[26,-14]],[[6129,8412],[21,-19],[12,-20],[-4,-18],[-23,-19],[-3,-26],[2,-57],[8,-101],[22,-161],[7,-37],[12,-14],[24,-9],[-13,-14],[39,-28],[20,-31],[52,1],[4,-17],[-26,-10],[-39,10],[-13,-7],[-13,-25],[-20,-18],[-6,-19],[-13,-80],[-13,-130],[-2,-122],[5,-76],[6,-31],[-1,-28],[15,-138],[16,-110],[15,-85],[12,-37]],[[4878,8456],[2,16],[-36,8],[-7,15],[-10,-8],[-13,14],[-26,2],[-27,23],[-34,2],[-15,14],[-38,3],[-16,-4],[-48,12],[-13,22],[-33,-8],[-37,-4],[-5,-7],[-30,7],[-13,-13],[-29,15],[22,14],[7,16],[38,14],[11,10],[5,43],[-22,38],[-26,21],[-38,9],[1,26],[-8,10],[-33,16],[21,39],[-15,31],[64,42],[45,-12],[7,24],[32,25],[19,24],[12,31],[-1,14],[19,24],[0,46],[-6,30],[-23,49],[74,30],[-6,19],[6,45],[55,40],[6,25],[-27,23],[0,101],[-10,88],[-15,55],[13,7],[78,23],[42,3],[25,-20],[21,-24],[34,-3],[15,57],[-4,37],[-15,39],[-36,10],[1,17],[-23,11],[-14,34],[12,12],[-2,15],[14,17],[-17,28],[3,67],[8,25],[20,34],[15,13],[38,-16],[17,-19],[-10,-17],[10,-17],[32,-21],[30,0],[17,14],[3,30],[21,4],[-11,-33],[28,-14],[35,-4],[-4,13],[32,16],[-2,21],[11,7],[9,-15],[-11,-31],[13,-11],[32,69],[23,-23],[18,2],[-10,-29],[-27,-6],[-20,-38],[47,-25],[51,-16],[59,-13],[32,-4],[40,7],[11,17],[21,57],[18,10],[18,-17],[33,-15],[16,-15],[-3,-15],[11,-43],[20,-11],[28,4],[-17,-24],[4,-40],[10,-13],[28,-2],[-12,-50],[-1,-76],[29,-39],[-4,-13],[11,-16],[27,-3],[74,-1],[36,-28],[8,-73],[12,-10],[11,9],[29,4],[-7,-30],[9,-29],[29,-23],[3,-26],[13,1],[29,-22],[5,-47],[18,-15],[-5,-15],[-33,0],[-7,-14],[-12,-91],[-9,-116],[-2,-102],[3,-33],[12,-90],[22,-24],[15,-60],[22,-21],[16,-4],[15,10],[45,-5],[32,-21],[35,-29],[12,-21],[2,-26],[37,-14],[34,-58],[17,-7],[5,-21],[-1,-40]],[[4902,9993],[37,4],[35,-16],[-24,-20],[-14,10],[-18,-9],[-38,18],[-31,5],[2,12],[28,2],[23,-6]],[[9630,2239],[28,-110],[21,-96],[35,-146],[6,-19],[33,-157],[79,-352],[32,-153],[5,-10],[56,-240],[19,-90],[55,-221],[-4,-20],[-7,31],[-70,22],[-48,-16],[-11,6],[-34,-1],[-42,-8],[-19,-52],[-27,-39],[6,-41],[10,-16],[-29,-4],[-31,10],[-68,7],[-133,-18],[-126,9],[-2,-24],[5,-43],[-28,-10],[-65,-8],[4,-25],[-17,-11],[-38,-3],[2,-13],[-66,-6],[-22,-23],[9,-22],[-63,-13],[4,-12],[-33,-5],[-78,-1],[-145,-15],[-204,-16],[-34,0],[-33,-7]],[[3345,977],[30,-20],[2,-15],[-41,0],[-21,-40],[-13,-11],[16,-19],[-31,4],[13,-27],[-30,-5],[20,-26],[-5,-16],[-14,-4],[-81,0],[-19,-38],[15,-6],[-40,-13],[18,-11],[-21,2],[-3,-15],[-62,2],[-16,12],[-13,-8],[-25,-44],[9,-20],[-19,2],[-10,-13],[-30,14],[-11,-26],[26,0],[8,-13],[-25,-10],[7,-36],[-19,-8],[-14,-22],[-26,-13],[-18,18],[-31,-18],[-28,6],[-29,-52],[-15,-4],[-11,11],[9,-29],[-17,-20],[8,-16],[-10,-8],[-45,-16],[8,-18],[-25,-31],[6,-10],[23,-2],[5,-13],[-26,-15],[9,-16],[27,3],[8,-7],[-53,-22],[0,-9],[-23,4],[4,9],[-57,-14],[-7,-16],[-18,-3],[-6,13],[-41,-3],[-25,13],[-14,20],[-36,26],[-53,11],[-46,-8],[-15,-18],[-34,5],[-28,26],[-9,-2],[-35,-32],[-21,-6],[-31,8],[-4,12],[-28,27],[-14,71],[-18,37],[-18,-3],[-63,-32],[-32,-48],[-34,-20],[-40,4],[-15,-17],[-29,7],[-30,-14],[1,-38],[-22,-12],[-27,-2],[-18,-25],[-13,14],[-67,-9],[-19,10],[-3,23],[-12,18],[-33,7],[-5,22],[7,10],[-7,34],[-34,15],[-11,23],[21,27],[3,50],[19,20],[8,44],[46,43],[-15,9],[-22,-17],[-38,-11],[-170,3],[-53,25],[-26,26],[-49,10],[-44,23],[-23,26],[-22,9],[-36,3],[-44,15],[42,11],[56,-22],[36,-5],[37,-11],[10,18],[24,1],[10,19],[34,28],[3,7],[33,11],[22,26],[-23,13],[-23,-1],[-1,32],[-9,14],[21,24],[5,33],[13,14],[-14,35],[21,17],[33,15],[-15,9],[59,34],[9,24],[13,11],[17,-6],[39,18],[-12,20],[4,14],[-19,-3],[2,13],[-52,40],[-18,25],[15,16],[-36,56],[-2,33],[-14,17],[-2,16],[-31,27],[-17,44],[3,17],[-10,7],[-3,27],[-28,1],[1,22],[-32,33],[-9,39],[2,20],[-34,4],[21,74],[29,1],[6,12],[35,-1],[8,8],[-2,23],[-15,37],[20,4],[-25,31],[-1,11],[19,18],[-15,33]],[[535,4251],[22,-1],[15,14],[56,12],[57,-5],[29,9],[51,2],[13,35],[78,48],[25,7],[-18,28],[58,11],[66,4],[32,6],[34,-17],[-3,37],[28,8],[103,11],[-3,25],[31,2],[19,18],[45,12],[-2,18],[32,22],[52,-8],[54,9],[-1,-27],[48,5],[-11,11],[16,15],[-2,40],[-15,15],[2,31],[20,-2],[-2,13],[16,-1],[-4,17],[38,19],[-5,14],[2,37],[34,8],[2,17],[25,16],[49,16],[43,-3]],[[6976,2791],[-38,16],[-25,2],[-25,-9],[-72,36],[-38,11],[-41,4],[-33,-24],[0,-13],[-59,0],[-20,-3],[-11,-12],[-20,-3],[-36,21],[-20,34],[-27,7],[-34,-3],[-33,25],[-19,0]],[[2609,5921],[11,26],[2,26],[8,11],[2,24],[24,61],[-2,15],[18,9],[15,43],[-14,25],[16,32],[-26,1],[-21,14],[-16,1],[-21,38],[10,16],[10,45],[-1,22],[-11,28],[6,16],[-8,27],[4,29],[13,19],[15,56],[16,25],[4,20],[-10,28],[-34,37],[-21,14],[-6,51],[-21,27],[27,31],[9,30],[32,3],[12,13],[24,1],[13,10],[33,9],[60,7],[29,-23],[16,-3],[38,8],[25,-2],[62,15],[4,25],[-4,41],[-32,37],[-14,31],[1,18],[-10,18],[22,10],[8,-6],[30,14],[42,26],[53,44],[33,18],[13,37],[-4,41],[10,50],[31,1],[14,12],[-5,15],[18,4],[2,15],[21,1],[22,13],[52,-1],[0,17],[24,20],[20,-10],[25,4],[19,20],[45,5],[56,-3],[25,-11],[15,-17],[-14,-10],[0,-27],[23,-8],[11,-22],[51,-12],[10,18],[33,-13],[31,28],[28,-6],[12,13],[-19,27],[-33,3],[61,21],[18,15]]],"transform":{"scale":[0.00011013240524052612,0.0001488210346034638],"translate":[99.23449144200004,7.838055458000042]},"objects":{"Nakhon Si Thammarat":{"type":"GeometryCollection","geometries":[{"arcs":[[0,1,2,3,4,5,6]],"type":"Polygon","properties":{"Shape_Leng":1.50519835954,"Shape_Area":0.0461355292161,"ADM2_EN":"Mueang Nakhon Si Thammarat","ADM2_TH":"นครศรีธรรมราช","ADM2_PCODE":"TH8001","ADM1_EN":"Nakhon Si Thammarat","ADM1_TH":"นครศรีธรรมราช","ADM1_PCODE":"TH80","ADM0_EN":"Thailand","ADM0_TH":"ประเทศไทย","ADM0_PCODE":"TH"}},{"arcs":[[-6,7,8,9,10]],"type":"Polygon","properties":{"Shape_Leng":0.850270922012,"Shape_Area":0.020164478131,"ADM2_EN":"Phrom Khiri","ADM2_TH":"พรหมคีรี","ADM2_PCODE":"TH8002","ADM1_EN":"Nakhon Si Thammarat","ADM1_TH":"นครศรีธรรมราช","ADM1_PCODE":"TH80","ADM0_EN":"Thailand","ADM0_TH":"ประเทศไทย","ADM0_PCODE":"TH"}},{"arcs":[[-5,11,12,13,14,15,16,-8]],"type":"Polygon","properties":{"Shape_Leng":0.935733108718,"Shape_Area":0.0284119507394,"ADM2_EN":"Lan Saka","ADM2_TH":"ลานสกา","ADM2_PCODE":"TH8003","ADM1_EN":"Nakhon Si Thammarat","ADM1_TH":"นครศรีธรรมราช","ADM1_PCODE":"TH80","ADM0_EN":"Thailand","ADM0_TH":"ประเทศไทย","ADM0_PCODE":"TH"}},{"arcs":[[-16,17,18,19,20,21,22]],"type":"Polygon","properties":{"Shape_Leng":1.41932708896,"Shape_Area":0.03539967527,"ADM2_EN":"Chawang","ADM2_TH":"ฉวาง","ADM2_PCODE":"TH8004","ADM1_EN":"Nakhon Si Thammarat","ADM1_TH":"นครศรีธรรมราช","ADM1_PCODE":"TH80","ADM0_EN":"Thailand","ADM0_TH":"ประเทศไทย","ADM0_PCODE":"TH"}},{"arcs":[[-9,-17,-23,23,24]],"type":"Polygon","properties":{"Shape_Leng":1.05225699374,"Shape_Area":0.0406902480856,"ADM2_EN":"Phipun","ADM2_TH":"พิปูน","ADM2_PCODE":"TH8005","ADM1_EN":"Nakhon Si Thammarat","ADM1_TH":"นครศรีธรรมราช","ADM1_PCODE":"TH80","ADM0_EN":"Thailand","ADM0_TH":"ประเทศไทย","ADM0_PCODE":"TH"}},{"arcs":[[25,26,27,28]],"type":"Polygon","properties":{"Shape_Leng":0.987185995185,"Shape_Area":0.0265789551811,"ADM2_EN":"Chian Yai","ADM2_TH":"เชียรใหญ่","ADM2_PCODE":"TH8006","ADM1_EN":"Nakhon Si Thammarat","ADM1_TH":"นครศรีธรรมราช","ADM1_PCODE":"TH80","ADM0_EN":"Thailand","ADM0_TH":"ประเทศไทย","ADM0_PCODE":"TH"}},{"arcs":[[-27,29,30,31,32,33,34]],"type":"Polygon","properties":{"Shape_Leng":1.713469074,"Shape_Area":0.0612679492427,"ADM2_EN":"Cha-Uat","ADM2_TH":"ชะอวด","ADM2_PCODE":"TH8007","ADM1_EN":"Nakhon Si Thammarat","ADM1_TH":"นครศรีธรรมราช","ADM1_PCODE":"TH80","ADM0_EN":"Thailand","ADM0_TH":"ประเทศไทย","ADM0_PCODE":"TH"}},{"arcs":[[-7,-11,35,36,37]],"type":"Polygon","properties":{"Shape_Leng":1.29864142992,"Shape_Area":0.0341713843289,"ADM2_EN":"Tha Sala","ADM2_TH":"ท่าศาลา","ADM2_PCODE":"TH8008","ADM1_EN":"Nakhon Si Thammarat","ADM1_TH":"นครศรีธรรมราช","ADM1_PCODE":"TH80","ADM0_EN":"Thailand","ADM0_TH":"ประเทศไทย","ADM0_PCODE":"TH"}},{"arcs":[[-14,38,39,-32,40,41,42,43,44]],"type":"Polygon","properties":{"Shape_Leng":2.10112270622,"Shape_Area":0.0757460433267,"ADM2_EN":"Thung Song","ADM2_TH":"ทุ่งสง","ADM2_PCODE":"TH8009","ADM1_EN":"Nakhon Si Thammarat","ADM1_TH":"นครศรีธรรมราช","ADM1_PCODE":"TH80","ADM0_EN":"Thailand","ADM0_TH":"ประเทศไทย","ADM0_PCODE":"TH"}},{"arcs":[[-19,45,-44,46]],"type":"Polygon","properties":{"Shape_Leng":1.02001810677,"Shape_Area":0.0161225773391,"ADM2_EN":"Na Bon","ADM2_TH":"นาบอน","ADM2_PCODE":"TH8010","ADM1_EN":"Nakhon Si Thammarat","ADM1_TH":"นครศรีธรรมราช","ADM1_PCODE":"TH80","ADM0_EN":"Thailand","ADM0_TH":"ประเทศไทย","ADM0_PCODE":"TH"}},{"arcs":[[-20,-47,-43,47,48,49]],"type":"Polygon","properties":{"Shape_Leng":1.75872618118,"Shape_Area":0.0495858633427,"ADM2_EN":"Thung Yai","ADM2_TH":"ทุ่งใหญ่","ADM2_PCODE":"TH8011","ADM1_EN":"Nakhon Si Thammarat","ADM1_TH":"นครศรีธรรมราช","ADM1_PCODE":"TH80","ADM0_EN":"Thailand","ADM0_TH":"ประเทศไทย","ADM0_PCODE":"TH"}},{"arcs":[[-2,50,51,-29,52]],"type":"Polygon","properties":{"Shape_Leng":1.42939514692,"Shape_Area":0.0442842096451,"ADM2_EN":"Pak Phanang","ADM2_TH":"ปากพนัง","ADM2_PCODE":"TH8012","ADM1_EN":"Nakhon Si Thammarat","ADM1_TH":"นครศรีธรรมราช","ADM1_PCODE":"TH80","ADM0_EN":"Thailand","ADM0_TH":"ประเทศไทย","ADM0_PCODE":"TH"}},{"arcs":[[-13,53,54,-34,55,-39]],"type":"Polygon","properties":{"Shape_Leng":1.42588027989,"Shape_Area":0.0369349104444,"ADM2_EN":"Ron Phibun","ADM2_TH":"ร่อนพิบูลย์","ADM2_PCODE":"TH8013","ADM1_EN":"Nakhon Si Thammarat","ADM1_TH":"นครศรีธรรมราช","ADM1_PCODE":"TH80","ADM0_EN":"Thailand","ADM0_TH":"ประเทศไทย","ADM0_PCODE":"TH"}},{"arcs":[[-37,56,57,58,59]],"type":"Polygon","properties":{"Shape_Leng":1.30264385886,"Shape_Area":0.056668146768,"ADM2_EN":"Sichon","ADM2_TH":"สิชล","ADM2_PCODE":"TH8014","ADM1_EN":"Nakhon Si Thammarat","ADM1_TH":"นครศรีธรรมราช","ADM1_PCODE":"TH80","ADM0_EN":"Thailand","ADM0_TH":"ประเทศไทย","ADM0_PCODE":"TH"}},{"arcs":[[[-59,60]],[[61]]],"type":"MultiPolygon","properties":{"Shape_Leng":1.10164909901,"Shape_Area":0.0256173411678,"ADM2_EN":"Khanom","ADM2_TH":"ขนอม","ADM2_PCODE":"TH8015","ADM1_EN":"Nakhon Si Thammarat","ADM1_TH":"นครศรีธรรมราช","ADM1_PCODE":"TH80","ADM0_EN":"Thailand","ADM0_TH":"ประเทศไทย","ADM0_PCODE":"TH"}},{"arcs":[[-26,-52,62,-30]],"type":"Polygon","properties":{"Shape_Leng":0.937995579585,"Shape_Area":0.0356877915165,"ADM2_EN":"Hua Sai","ADM2_TH":"หัวไทร","ADM2_PCODE":"TH8016","ADM1_EN":"Nakhon Si Thammarat","ADM1_TH":"นครศรีธรรมราช","ADM1_PCODE":"TH80","ADM0_EN":"Thailand","ADM0_TH":"ประเทศไทย","ADM0_PCODE":"TH"}},{"arcs":[[-42,63,-48]],"type":"Polygon","properties":{"Shape_Leng":1.22452045594,"Shape_Area":0.0386716024225,"ADM2_EN":"Bang Khan","ADM2_TH":"บางขัน","ADM2_PCODE":"TH8017","ADM1_EN":"Nakhon Si Thammarat","ADM1_TH":"นครศรีธรรมราช","ADM1_PCODE":"TH80","ADM0_EN":"Thailand","ADM0_TH":"ประเทศไทย","ADM0_PCODE":"TH"}},{"arcs":[[-21,-50,64]],"type":"Polygon","properties":{"Shape_Leng":0.756735014298,"Shape_Area":0.0145032133536,"ADM2_EN":"Tham Phannara","ADM2_TH":"ถ้ำพรรณรา","ADM2_PCODE":"TH8018","ADM1_EN":"Nakhon Si Thammarat","ADM1_TH":"นครศรีธรรมราช","ADM1_PCODE":"TH80","ADM0_EN":"Thailand","ADM0_TH":"ประเทศไทย","ADM0_PCODE":"TH"}},{"arcs":[[-33,-40,-56]],"type":"Polygon","properties":{"Shape_Leng":0.766752747243,"Shape_Area":0.018756065004,"ADM2_EN":"Chulabhorn","ADM2_TH":"จุฬาภรณ์","ADM2_PCODE":"TH8019","ADM1_EN":"Nakhon Si Thammarat","ADM1_TH":"นครศรีธรรมราช","ADM1_PCODE":"TH80","ADM0_EN":"Thailand","ADM0_TH":"ประเทศไทย","ADM0_PCODE":"TH"}},{"arcs":[[-4,65,-54,-12]],"type":"Polygon","properties":{"Shape_Leng":0.697252141019,"Shape_Area":0.0125313292442,"ADM2_EN":"Phra Phrom","ADM2_TH":"พระพรหม","ADM2_PCODE":"TH8020","ADM1_EN":"Nakhon Si Thammarat","ADM1_TH":"นครศรีธรรมราช","ADM1_PCODE":"TH80","ADM0_EN":"Thailand","ADM0_TH":"ประเทศไทย","ADM0_PCODE":"TH"}},{"arcs":[[-10,-25,66,-57,-36]],"type":"Polygon","properties":{"Shape_Leng":1.45745581945,"Shape_Area":0.0597520415107,"ADM2_EN":"Nopphitam","ADM2_TH":"นบพิตำ","ADM2_PCODE":"TH8021","ADM1_EN":"Nakhon Si Thammarat","ADM1_TH":"นครศรีธรรมราช","ADM1_PCODE":"TH80","ADM0_EN":"Thailand","ADM0_TH":"ประเทศไทย","ADM0_PCODE":"TH"}},{"arcs":[[-15,-45,-46,-18]],"type":"Polygon","properties":{"Shape_Leng":0.943234945243,"Shape_Area":0.0224257904009,"ADM2_EN":"Chang Klang","ADM2_TH":"ช้างกลาง","ADM2_PCODE":"TH8022","ADM1_EN":"Nakhon Si Thammarat","ADM1_TH":"นครศรีธรรมราช","ADM1_PCODE":"TH80","ADM0_EN":"Thailand","ADM0_TH":"ประเทศไทย","ADM0_PCODE":"TH"}},{"arcs":[[-3,-53,-28,-35,-55,-66]],"type":"Polygon","properties":{"Shape_Leng":0.932481120476,"Shape_Area":0.0127787156171,"ADM2_EN":"Chaloem Phra Kiat","ADM2_TH":"เฉลิมพระเกียรติ","ADM2_PCODE":"TH8023","ADM1_EN":"Nakhon Si Thammarat","ADM1_TH":"นครศรีธรรมราช","ADM1_PCODE":"TH80","ADM0_EN":"Thailand","ADM0_TH":"ประเทศไทย","ADM0_PCODE":"TH"}}]}}}