{"type":"Topology","arcs":[[[4648,4994],[154,-166],[162,-12],[-58,-66],[100,-21],[22,-116],[125,-36],[220,-155],[26,-70],[-67,-33],[-13,-62],[47,-48],[91,-14],[320,9]],[[5777,4204],[75,-190],[49,-33],[166,-213],[2,-54],[-70,-195],[-24,-13],[-49,-177],[23,-276],[-139,-227],[-63,-70],[-35,-120],[-64,21],[-122,-195],[-16,-90],[-78,-132],[-1,-71],[48,-74],[31,-264],[-23,-56],[44,-280],[-50,-13],[123,-433]],[[5604,1049],[-198,-77],[-160,-18],[-28,20],[-176,-43],[-108,-6],[-86,-92]],[[4848,833],[-131,34],[-200,-1],[-29,37],[-109,-9],[-39,-84],[-125,-11],[-24,56],[-161,74],[-19,84],[4,180],[-25,330],[28,175],[85,23],[32,75],[-33,190],[-123,-74],[-54,-69],[-158,-29],[-195,-124],[-81,74],[-137,-94],[9,-50],[-274,-72],[3,-29],[-301,-148],[-67,77],[-39,-13],[-11,147],[-99,14],[-18,104],[-111,112],[15,113],[-41,77],[-54,274],[131,5],[145,79],[49,183],[-2,215],[227,30],[57,31],[18,95],[-36,27],[22,104],[-139,56],[17,222],[-16,126],[-91,83],[-73,-70],[-228,-50],[-125,74],[45,63],[-18,76],[-144,45],[-57,-15],[-113,56],[-136,-45],[-85,75],[-90,-90],[-66,-17],[226,561],[-139,215],[45,127],[116,145],[103,28],[73,-21],[96,237],[-107,13],[-111,53],[148,127],[11,159],[38,100]],[[2157,5378],[25,94],[119,-77],[153,87],[29,64],[78,45],[111,-11],[104,-104],[18,-58],[89,-20],[135,163],[-22,-99],[78,-98],[134,-98],[33,-174],[114,-19],[40,-89],[65,21],[128,-72],[149,-119],[89,-129],[95,26],[94,-126],[-72,-53],[251,-87],[11,65],[122,5],[0,90],[38,74],[-166,104],[86,150],[87,-52],[52,69],[72,-41],[118,19],[34,66]],[[2157,5378],[-104,46],[-235,60],[-197,32],[-150,114],[-110,58],[-60,-12],[-84,113],[-46,111],[-130,31],[-79,57],[-201,-32],[-155,213],[-48,145],[-72,-5],[-114,146],[-41,120],[-43,20],[71,89],[59,414],[46,22],[-29,89],[99,46],[-18,63],[91,23],[15,91],[44,2],[-26,186],[-137,52],[-130,98],[-223,12],[-150,56],[71,128],[81,27],[38,76],[51,-9],[154,58],[173,-58],[200,50],[267,-95],[319,322],[139,-10],[667,711],[82,-80],[160,61],[-6,81],[77,11],[1,50],[122,4],[121,-49],[150,-20],[129,54],[-109,75],[28,44],[149,59],[40,-68],[204,16],[93,-20],[180,75],[45,-39],[212,72],[98,56],[142,0],[41,66],[181,41],[186,-34],[43,-104],[234,-17]],[[4763,9372],[-14,-211],[6,-176],[52,-11],[19,-131],[-76,-12],[-6,-202],[16,-51],[98,-75],[-39,-116],[-54,37],[-62,-99],[-5,-181],[87,-137],[-94,-48],[26,-200],[-8,-114],[-170,-44],[87,-279],[51,-82],[103,2]],[[4780,7242],[-26,-129],[-68,-80],[22,-141],[42,5],[44,-109],[-76,-74],[0,-136],[38,-69],[-67,0],[-38,53],[4,-128],[-92,-32],[-75,-86],[-203,11],[-34,-67],[4,-105],[-78,-24],[-104,75],[-60,-27],[-3,-71],[-91,6],[8,-84],[-35,-114],[-92,-25],[-15,-92],[47,-53],[87,52],[-1,-73],[68,-26],[16,-143],[-108,34],[-15,-38],[107,-58],[63,-75],[20,90],[116,-73],[48,27],[88,-87],[102,22],[12,-63],[91,36],[21,-44],[94,44],[-26,-135],[25,-96],[-26,-86],[34,-60]],[[5777,4204],[87,5],[27,48],[125,24],[23,55],[88,9],[-15,84],[55,26],[-9,104],[134,86],[91,6],[137,103],[-35,67],[85,14],[5,62],[137,37],[30,83],[177,78],[-22,70]],[[6897,5165],[39,-47],[82,-2],[183,-93],[132,25],[27,-77],[120,-65],[77,-6],[28,-69],[152,-5],[88,23],[88,-19],[100,-98],[74,65],[236,48],[122,-24]],[[8445,4821],[21,-101],[193,-660],[-57,-659],[-351,-15],[-60,-102],[33,-112],[-122,-59],[-39,-217],[78,-22],[101,77],[70,-7],[-25,-65]],[[8287,2879],[-92,-127],[-118,-74],[-126,47],[-35,-17],[-63,-169],[-70,-87],[-249,-247],[-81,-105],[-235,-222],[-116,-135],[-48,-25],[-93,82],[-22,-33],[-226,-43],[-98,6],[-2,-66],[-153,7],[-23,-127],[6,-120],[-64,-186],[-94,32],[-64,-90],[-69,56],[-70,-14],[-26,-95],[-301,-37],[-151,-41]],[[4780,7242],[226,55],[32,124],[195,-42],[76,52],[36,172],[386,-163],[-30,-154],[-44,-25],[-5,-176],[-51,-116],[19,-140],[-86,2],[-20,-60],[-125,-90],[-19,-73],[54,-132],[7,-141],[77,-73],[-44,-193],[76,-127],[52,54],[72,-41],[76,6],[28,-46],[86,22],[28,-67],[144,-50],[252,-169],[295,-249],[19,-57],[84,-49],[209,-73],[12,-58]],[[4763,9372],[81,0],[53,44],[76,-36],[69,33],[154,-22],[115,19],[263,8],[345,-46],[141,7],[-7,-130],[72,70],[153,60],[232,-14],[116,33],[-23,74],[158,18],[27,58],[69,4],[33,98],[261,54],[-7,31],[265,100],[-11,109],[264,55],[573,-95],[454,-36],[291,-40],[-51,-544],[-38,-295],[44,33],[37,-495],[-127,10],[-5,-313],[-85,-308],[-157,-155],[92,-446],[151,-239],[-137,-9],[-14,-87],[-94,-163],[47,-42],[-61,-68],[43,-59],[-60,-58],[107,-88],[31,-86],[85,-116],[235,-218],[226,-149],[-214,-305],[-279,-287],[-133,-216],[149,-88],[55,-56],[188,-390]],[[9015,4591],[-108,-39],[-53,170],[-62,106],[-188,-35],[-159,28]],[[8287,2879],[123,-19],[71,52],[125,-2],[47,-45],[147,3],[48,31],[49,-57],[168,-75],[175,-24],[113,24],[-6,-81],[152,48],[20,-163],[-59,-7],[12,-320],[263,0],[30,-91],[93,-3]],[[9858,2150],[56,-66],[-5,-80],[50,-39],[-8,-105],[48,-261],[-45,-8],[31,-71],[-38,-26],[19,-101],[-221,-107],[-72,68],[-84,-16],[-8,55],[-160,-60],[-123,0],[62,-88],[-114,-18],[-21,67],[-133,0],[-20,-51],[-102,-19],[55,-111],[-35,-9],[-18,-196],[60,-57],[-166,-28],[-23,-87],[-119,-91],[-165,38],[-69,-110],[-44,21],[-240,-114],[-53,98],[-262,-134],[-58,163],[-224,6],[-50,59],[-124,-122],[-134,-37],[-39,-43],[-98,-2],[-140,283],[-91,-18],[-39,-112],[-173,-64],[-44,-37],[-137,73],[-5,68],[-460,-48],[-213,-49],[46,-113],[-38,-11],[40,-103],[-114,-14],[82,-236],[-194,-42],[-117,-45],[-112,54],[-94,-33],[-28,51],[-128,-44],[-47,122],[-137,6],[-126,52],[-192,0],[50,84],[12,164],[75,106],[23,219],[-15,52]],[[9015,4591],[259,-536],[595,-1243],[61,-319],[-56,-69],[-16,-274]]],"transform":{"scale":[0.000052343719671965376,0.000052942199719973784],"translate":[99.81410096500008,13.649253140000042]},"objects":{"Nakhon Pathom":{"type":"GeometryCollection","geometries":[{"arcs":[[0,1,2,3,4]],"type":"Polygon","properties":{"Shape_Leng":1.18317187118,"Shape_Area":0.0341160075293,"ADM2_EN":"Mueang Nakhon Pathom","ADM2_TH":"เมืองนครปฐม","ADM2_PCODE":"TH7301","ADM1_EN":"Nakhon Pathom","ADM1_TH":"นครปฐม","ADM1_PCODE":"TH73","ADM0_EN":"Thailand","ADM0_TH":"ประเทศไทย","ADM0_PCODE":"TH"}},{"arcs":[[-5,5,6,7]],"type":"Polygon","properties":{"Shape_Leng":1.26896555676,"Shape_Area":0.0403492509477,"ADM2_EN":"Kamphaeng Saen","ADM2_TH":"กำแพงแสน","ADM2_PCODE":"TH7302","ADM1_EN":"Nakhon Pathom","ADM1_TH":"นครปฐม","ADM1_PCODE":"TH73","ADM0_EN":"Thailand","ADM0_TH":"ประเทศไทย","ADM0_PCODE":"TH"}},{"arcs":[[-2,8,9,10,11]],"type":"Polygon","properties":{"Shape_Leng":0.774373194756,"Shape_Area":0.0218091144618,"ADM2_EN":"Nakhon Chai Si","ADM2_TH":"นครชัยศรี","ADM2_PCODE":"TH7303","ADM1_EN":"Nakhon Pathom","ADM1_TH":"นครปฐม","ADM1_PCODE":"TH73","ADM0_EN":"Thailand","ADM0_TH":"ประเทศไทย","ADM0_PCODE":"TH"}},{"arcs":[[-1,-8,12,-9]],"type":"Polygon","properties":{"Shape_Leng":0.756418926601,"Shape_Area":0.0125751077492,"ADM2_EN":"Don Tum","ADM2_TH":"ดอนตูม","ADM2_PCODE":"TH7304","ADM1_EN":"Nakhon Pathom","ADM1_TH":"นครปฐม","ADM1_PCODE":"TH73","ADM0_EN":"Thailand","ADM0_TH":"ประเทศไทย","ADM0_PCODE":"TH"}},{"arcs":[[-7,13,14,-10,-13]],"type":"Polygon","properties":{"Shape_Leng":1.18664576247,"Shape_Area":0.045489516321,"ADM2_EN":"Bang Len","ADM2_TH":"บางเลน","ADM2_PCODE":"TH7305","ADM1_EN":"Nakhon Pathom","ADM1_TH":"นครปฐม","ADM1_PCODE":"TH73","ADM0_EN":"Thailand","ADM0_TH":"ประเทศไทย","ADM0_PCODE":"TH"}},{"arcs":[[-3,-12,15,16]],"type":"Polygon","properties":{"Shape_Leng":0.929895013729,"Shape_Area":0.0188986432828,"ADM2_EN":"Sam Phran","ADM2_TH":"สามพราน","ADM2_PCODE":"TH7306","ADM1_EN":"Nakhon Pathom","ADM1_TH":"นครปฐม","ADM1_PCODE":"TH73","ADM0_EN":"Thailand","ADM0_TH":"ประเทศไทย","ADM0_PCODE":"TH"}},{"arcs":[[-11,-15,17,-16]],"type":"Polygon","properties":{"Shape_Leng":0.474845981656,"Shape_Area":0.00567655945728,"ADM2_EN":"Phutthamonthon","ADM2_TH":"พุทธมณฑล","ADM2_PCODE":"TH7307","ADM1_EN":"Nakhon Pathom","ADM1_TH":"นครปฐม","ADM1_PCODE":"TH73","ADM0_EN":"Thailand","ADM0_TH":"ประเทศไทย","ADM0_PCODE":"TH"}}]}}}