{"type":"Topology","arcs":[[[8594,7663],[-109,-108],[-81,-99],[-71,-27],[-44,-68],[-185,-74],[-157,-48],[-235,-133],[-96,-14],[-28,59],[-93,83],[-67,5],[-57,29],[-78,-36],[1,-48],[-48,-55],[21,-53],[0,-62],[-58,-22],[-39,-43],[-46,-11],[-2,-42],[69,-120],[12,-64],[72,-80],[2,-21],[-67,-48],[-31,-74],[12,-92],[-35,-64],[-7,-60],[153,-159],[5,-73],[-49,-97],[16,-116],[-3,-99],[-99,-174],[-67,-15],[-56,-60],[-140,-69],[-25,-59],[26,-133],[-49,-12],[-58,-37],[-131,-132],[-68,0],[-35,-18],[-51,30],[-53,-4],[-46,-80],[15,-67],[-28,-55],[-50,-14],[-22,-74],[34,-38],[35,10],[-55,-71],[-22,-48],[13,-66],[24,-11],[-31,-50],[-55,-15],[-34,-67],[12,-56],[-40,-29],[-44,-115],[-39,11],[-42,-27],[-15,38],[-37,-32],[31,-54],[-62,-23],[-76,38],[-72,23],[6,33],[44,-2],[6,33],[-58,7],[-111,-18],[-56,4],[-6,-32],[-89,-48],[-58,14],[-47,-83],[-68,-29],[-114,-23],[18,-50],[11,-143],[-82,-47],[-30,-56],[-48,-16],[3,-37],[-86,-9],[-4,-52],[29,-40],[-74,-58],[-11,-50],[-27,-9],[18,-45],[-31,-14],[-35,101],[-75,-24],[-17,25],[-73,-67],[46,11],[51,-31],[-17,-47],[-37,-31],[-11,-61],[80,-31],[-125,-76],[13,-44],[119,-171],[69,-48],[-23,-88],[-62,-11],[-39,-101],[-6,-54],[-50,-50],[-41,-4],[-18,-37],[-105,-27],[-88,-45],[0,-52],[49,-51],[47,21],[18,-88],[-14,-24],[26,-88],[-15,-44],[-55,50],[-63,-68],[-38,-3],[-35,-43],[381,-582],[38,-41]],[[4889,1480],[9,-42],[-42,-50],[-7,-77],[-63,-81],[60,-85],[-34,-25],[-51,41],[-31,-24],[28,-51],[33,-106],[-16,-33],[-61,30],[-102,-48],[-146,-7],[10,-59],[-49,-20],[-38,68]],[[4389,911],[-78,26],[-20,36],[-85,-12],[-164,-64],[-17,16],[-207,312],[-284,433],[-189,24],[0,623],[-1,45],[-165,223],[-581,780],[-15,17]],[[2583,3370],[112,111],[368,61],[5,53],[34,67],[-20,57],[14,98],[43,37],[15,86],[-51,21],[-33,63],[6,48],[55,57],[60,5],[29,-29],[16,35],[25,-23],[74,-9],[81,105],[-6,92],[-51,67],[14,101],[26,27],[76,27],[4,-21],[62,46],[61,-33],[9,30],[107,-47],[23,106],[-32,138],[-28,30],[-12,60],[-71,30],[-41,53],[-4,34],[35,96],[-12,143],[17,0],[42,71],[6,135],[83,55],[37,-12],[70,48],[-9,117],[-48,5],[-31,89],[-70,36],[-53,130],[0,98],[56,0],[13,38],[61,-32],[69,136],[26,-1],[74,50],[43,65],[55,-8],[-22,78],[18,40],[-11,64],[-20,14],[-91,149],[-7,65],[72,106],[59,104],[73,28],[58,7],[115,46]],[[4261,6913],[10,103],[31,17],[169,-33],[9,37],[115,93],[-6,68],[18,39],[3,108],[106,80],[70,-21],[54,2],[52,30],[61,-7],[57,22],[30,173],[-33,17],[-15,51],[-81,103],[14,122],[-44,96],[47,77],[102,116],[-11,87],[7,46],[-31,131],[44,104],[54,67],[79,-26],[68,-39],[52,-60],[56,56],[-25,69],[-69,114],[-34,27],[16,42],[68,70],[66,6],[45,84],[3,42],[-53,76],[-66,-7],[-22,21],[18,50],[-33,85],[14,32],[54,18],[170,-52],[63,-1],[9,37],[-35,131],[17,85],[54,87],[53,-9],[30,25],[4,64],[86,60],[43,-6],[142,103],[27,89],[51,23],[22,62],[77,0],[23,-24],[-3,-91],[69,-36],[32,-42],[-29,-58],[22,-116],[-2,-56],[146,21],[51,63],[47,33],[19,39],[93,18],[35,-21],[-30,-62],[35,-57],[-29,-76],[63,-124],[25,-120],[28,-37],[69,-7],[76,-33],[61,5],[30,-16],[43,-61],[37,16],[72,-72],[33,-11],[87,-76],[2,-17],[105,-52],[67,19],[93,-82],[58,-25],[50,22],[28,-15],[-31,-54],[94,-60],[-3,-69],[58,13],[42,-30],[21,-51],[86,-18],[-17,-48],[17,-43],[-47,-2],[-20,-32],[40,-69],[48,15],[83,-9],[16,-45],[40,-34],[75,-15],[19,-61],[-17,-24],[19,-104],[99,-61],[51,-4],[66,-97],[50,-45],[61,-123],[48,-71],[47,-44]],[[8594,7663],[66,110],[54,11],[168,-65],[48,-33],[50,-11],[131,-59],[95,-64],[155,-123],[70,-34],[87,-86],[1,-80],[73,-113],[9,-93],[23,-46],[72,-79],[95,-72],[53,-63],[-3,-150],[-48,-40],[-6,-27],[28,-96],[110,-93],[73,-40],[1,-40],[-25,-57],[-58,-77],[-5,-51],[27,-105],[1,-55],[-32,-101],[31,-241],[-122,-42],[-163,60],[-74,-32],[-122,-107],[-75,-7],[-87,20],[-202,-132],[-43,-11],[-66,11],[-75,-20],[-118,10],[-80,22],[-61,-27],[-186,-30],[-25,4],[-124,137],[-40,69],[-74,77],[-36,58],[-67,32],[-51,-21],[-109,8],[-40,-30],[8,-45],[33,-38],[-26,-66],[10,-37],[-19,-47],[-44,-16],[-6,-38],[56,-88],[12,-91],[-62,-141],[24,-49],[39,-20],[26,-41],[-26,-68],[31,-9],[4,-40],[29,-15],[-18,-42],[21,-63],[-62,-81],[-19,-48],[22,-29],[-62,-6],[-21,21],[-60,-32],[-31,-92],[-81,-25],[-17,-35],[-47,27],[-23,-31],[-21,30],[-56,-11],[-64,-36],[-65,-16],[-1,-38],[-83,-9],[2,-51],[-60,-41],[-31,-64],[-50,-11],[-47,-66],[-71,-36],[-24,-49],[-12,-84],[-67,24],[-68,-35],[-95,-22],[-58,-70],[20,-31],[-16,-53],[-60,-7],[-154,-100],[9,-25],[-52,15],[3,-25],[-67,-51],[-34,-4],[2,-34],[-33,-41],[16,-62],[-11,-70],[-28,-44],[16,-59],[-30,-51],[125,-164],[166,-80],[14,-44],[68,-103],[0,-91],[-18,-117],[25,-90],[73,-84],[54,-93],[39,-17],[43,-140],[-722,-407],[-41,56],[-5,38],[-175,37],[-107,2],[-319,-64],[-11,-15],[-156,-23],[-34,-26],[25,-38],[-46,-23],[-23,29],[-71,-2],[-127,46],[-16,-52],[-67,-75],[-23,-49],[-88,-9],[7,-49]],[[2583,3370],[-260,-266],[-97,122],[-29,102],[-33,35],[-12,67],[-60,108],[28,50],[-7,72],[-55,34],[-40,3],[1,86],[-18,18],[20,70],[-67,72],[-102,33],[20,55],[-81,113],[-106,-85],[-79,105],[-28,-22],[-80,111],[-77,-63],[-96,251],[17,14],[-156,210],[-78,-62],[-85,80],[-80,52],[-57,21],[15,119],[-12,-7],[-115,244],[-218,-108]],[[556,5004],[1,122],[-19,102],[66,100],[-18,52],[22,3],[29,75],[-25,69],[35,80],[-12,24],[135,69],[109,73],[-22,41],[276,177],[67,-5],[44,-76],[23,8],[24,55],[-1,58],[-20,68],[135,45],[24,-18],[95,15],[128,5],[70,38],[-12,74],[78,170],[45,-4],[57,79],[0,24],[65,66],[68,16],[7,59],[117,88],[35,76],[30,-9],[63,45],[16,188],[-7,36],[27,29],[14,93],[67,0],[23,89],[107,152],[6,130],[-102,114],[-24,89],[-21,21],[30,81],[31,32],[-17,89],[3,102],[-13,38],[-55,30],[65,38],[22,-24],[60,29],[40,-55],[-3,-29],[57,-68],[72,-19],[-1,-73],[23,-82],[60,-151],[84,-44],[52,-13],[13,-36],[80,-21],[89,-8],[49,-29],[-5,60],[51,-2],[1,24],[89,9],[101,-35],[37,43],[29,-53],[91,33],[68,-12],[46,-27],[24,-68],[44,-33],[192,-59],[48,7],[17,-28],[58,-35],[28,-85],[83,-150],[-21,-47],[19,-133],[107,-42],[32,-50]],[[4389,911],[-52,-53],[12,-57],[-46,-11],[-17,55],[-40,10],[-17,-60],[30,-53],[-58,7],[-47,-13],[-63,40],[-7,-44],[-35,-30],[-81,-37],[-35,-30],[-42,26],[4,66],[-25,21],[-57,-19],[14,-116],[7,-132],[31,-119],[13,-152],[-47,-44],[-42,-10],[-590,83],[-337,13],[-578,27],[-89,-2],[-356,-98],[-680,-11],[-1148,-168],[6,1305],[7,910],[-24,555],[2,767],[5,1179],[3,6],[523,268],[23,14]]],"transform":{"scale":[0.00005918897239724397,0.00005512590889089254],"translate":[100.91354390500004,13.961278383000035]},"objects":{"Nakhon Nayok":{"type":"GeometryCollection","geometries":[{"arcs":[[0,1,2,3,4]],"type":"Polygon","properties":{"Shape_Leng":1.87299458655,"Shape_Area":0.0692864585613,"ADM2_EN":"Mueang Nakhon Nayok","ADM2_TH":"เมืองนครนายก","ADM2_PCODE":"TH2601","ADM1_EN":"Nakhon Nayok","ADM1_TH":"นครนายก","ADM1_PCODE":"TH26","ADM0_EN":"Thailand","ADM0_TH":"ประเทศไทย","ADM0_PCODE":"TH"}},{"arcs":[[-1,5]],"type":"Polygon","properties":{"Shape_Leng":1.48069469393,"Shape_Area":0.0360258246005,"ADM2_EN":"Pak Phli","ADM2_TH":"ปากพลี","ADM2_PCODE":"TH2602","ADM1_EN":"Nakhon Nayok","ADM1_TH":"นครนายก","ADM1_PCODE":"TH26","ADM0_EN":"Thailand","ADM0_TH":"ประเทศไทย","ADM0_PCODE":"TH"}},{"arcs":[[-4,6,7]],"type":"Polygon","properties":{"Shape_Leng":1.03291979076,"Shape_Area":0.0296577114211,"ADM2_EN":"Ban Na","ADM2_TH":"บ้านนา","ADM2_PCODE":"TH2603","ADM1_EN":"Nakhon Nayok","ADM1_TH":"นครนายก","ADM1_PCODE":"TH26","ADM0_EN":"Thailand","ADM0_TH":"ประเทศไทย","ADM0_PCODE":"TH"}},{"arcs":[[-3,8,-7]],"type":"Polygon","properties":{"Shape_Leng":1.04174819578,"Shape_Area":0.0439388949335,"ADM2_EN":"Ongkharak","ADM2_TH":"องครักษ์","ADM2_PCODE":"TH2604","ADM1_EN":"Nakhon Nayok","ADM1_TH":"นครนายก","ADM1_PCODE":"TH26","ADM0_EN":"Thailand","ADM0_TH":"ประเทศไทย","ADM0_PCODE":"TH"}}]}}}