{"type":"Topology","arcs":[[[5622,5924],[-1,-19],[-8,-31],[4,-12],[-16,-21],[-6,-27],[2,-22],[7,-26],[11,-16],[-19,-15],[13,-32],[-10,-31],[24,-38],[8,-51],[8,-21],[-2,-13],[10,-16],[-2,-27],[11,-27],[-9,-32],[-6,-2],[9,-47],[17,-35],[-10,-34],[-4,-52],[16,1],[-4,-19],[-11,0],[-2,-22],[14,-34],[0,-29],[-25,-8],[6,-11],[27,-33],[12,-20],[7,-34],[-3,-29],[-10,-40],[-3,-53],[8,-30],[18,-29],[28,-51],[-2,-23],[-11,-23],[11,-14],[-16,-19],[5,-28]],[[5718,4729],[-16,-2],[-27,-14],[-23,-24],[-18,-11],[-9,-17],[-16,-4],[3,-25],[-13,-21],[-17,-13],[-56,-10],[-29,1],[-2,-16],[-12,0],[0,-20],[-9,-17],[0,-28],[-10,-29],[-15,-18],[-58,-36],[-39,-33],[-28,1],[-1,-9],[-16,-30],[-24,1],[-29,9],[-2,8],[-40,9],[-28,-4],[-75,-39],[-2,-16],[-8,1],[-21,-21],[0,-14],[-11,2],[-28,-47],[8,-94],[-4,-33],[-7,-37],[2,-21],[10,-24],[5,-58]],[[5053,3976],[-25,-10],[-34,29],[-16,3],[-31,33],[-9,41],[-27,9],[-15,14],[-8,-3],[-19,21],[-13,3],[-5,12],[-30,20],[-4,11],[3,34],[-12,14],[-34,7],[-9,26],[-19,16],[4,17],[-32,11],[-7,9],[-37,-3],[-11,-5],[-24,-1],[-2,-27],[-15,-11],[-34,5],[-53,21],[-27,-15],[-22,1],[-22,-4],[-26,8],[-19,-3],[-5,-14],[-1,-38],[-21,-25],[-22,-9],[-7,-11],[5,-23],[-20,-28],[-26,-22],[-20,-9],[-5,36],[9,16],[-7,32]],[[4299,4164],[-10,30],[-16,34],[-3,29],[-16,39],[6,16],[-5,12],[0,22],[9,12],[-7,24],[1,20],[-7,21],[-30,33],[-20,3],[-15,9],[-10,17],[-21,14],[3,25],[-9,3],[-17,28],[2,11],[-16,14],[10,33],[-11,17],[-11,5],[-3,17],[12,18],[6,-2],[6,19],[-9,14],[-4,29],[31,35],[-2,18],[13,8],[-2,14]],[[4154,4805],[16,13],[6,23],[20,10],[41,-15],[24,10],[5,11],[14,-3],[-6,14],[23,-12],[14,10],[-8,10],[11,3],[11,-13],[13,11],[11,30],[4,-10],[14,-4],[18,5],[21,24],[-3,6],[19,11],[20,45],[-16,57],[3,11],[-18,18],[-11,-1],[-10,13],[-1,14],[-10,22],[-7,28],[-13,21],[-19,19],[-8,16],[3,12],[-5,30],[14,42],[23,8],[3,34],[6,13],[26,13],[16,26],[17,38],[-6,16],[2,32],[-5,24],[7,33],[-6,37],[8,46],[5,8],[-1,25],[6,13],[-5,12],[5,31],[-1,23]],[[4444,5718],[23,-2],[69,7],[-1,-25],[23,-11],[2,-16],[22,-25],[29,12],[50,-17],[5,12],[42,-9],[45,7],[68,-5],[45,2],[14,3],[49,23],[24,22],[-5,11],[-20,11],[-9,12],[-12,54],[1,11],[30,60],[28,63],[-2,33],[13,16],[1,29],[21,-11],[-2,12],[9,8],[8,-12],[12,-4],[10,16],[-16,8],[31,-3],[8,10],[25,-4],[1,19],[18,4],[6,-15],[10,10],[11,-5]],[[5130,6029],[20,-20],[0,-13],[24,10],[17,-17],[5,-24],[15,-17],[27,4],[17,14],[13,0],[9,-11],[14,3],[23,29],[10,4],[0,18],[16,7],[31,3],[21,11],[48,6],[22,9],[14,-16],[-9,-8],[-3,-22],[6,-22],[12,-4],[19,-19],[27,-15],[27,-8],[4,7],[12,-19],[30,0],[21,5]],[[5947,2922],[18,-7],[9,6],[31,-2],[10,-16],[44,-4],[82,-23],[54,-22],[36,-10],[47,-5],[64,23],[62,24],[35,35],[34,40],[7,-3],[5,-29],[11,-33],[26,-27],[50,-19],[28,-13],[54,-10],[69,-8],[39,-1],[46,-13],[19,-10]],[[6827,2795],[0,-19],[-18,-42],[-61,-89],[-14,-46],[9,-87],[-6,-50],[0,-29],[-10,-42],[-24,-47],[-39,-41],[-42,-35],[-11,-21],[-3,-30],[-20,-65],[-18,-32],[-22,-57],[-9,-88],[-9,-35],[0,-23],[8,-45],[-3,-50],[7,-60],[-8,-22],[2,-43],[7,-43],[-5,-34],[-8,-30],[-10,-55],[-15,-31],[-37,0],[-4,-118],[21,-6],[28,-27],[28,-41],[5,-12],[-9,-4],[0,-19],[-7,-22],[-18,-19],[-2,-12],[-32,-51],[-4,-20],[6,-19],[36,-43],[17,-11],[9,-21],[-11,-4],[-18,-19],[-10,3],[-16,-10],[-30,-11],[-11,-18],[-6,-41],[-24,-40],[-3,-16],[15,-34],[4,-41],[26,-46],[27,-14],[22,-20],[19,-40],[-3,-17],[-42,-48],[-23,-20],[-8,-16],[8,-40],[16,-54],[2,-34],[-4,-28],[-16,-69],[1,-24],[8,-27],[-32,-61]],[[6433,270],[-3,-14],[14,-59],[-1,-31],[-6,-22],[-16,-18],[-1,-17],[7,-26],[-8,-14],[-19,-8],[-26,-32],[-20,-1],[-24,6],[-10,-2],[-16,-27],[-15,0],[-13,13],[-11,28],[-31,-2],[-9,-9],[-47,-27],[-22,-8],[-43,19],[1,15],[-10,22],[-28,14],[-23,18],[-13,-2],[-14,-17],[-27,-2],[-14,-9],[-30,-5],[9,43],[-9,21],[-9,37],[-23,6],[-16,-10],[-19,2],[-54,-33],[-17,0],[-28,16],[-7,10],[-46,4],[-24,-8],[-32,8],[-12,-6],[-19,8],[-14,18],[-13,29],[2,22],[12,34],[3,37],[-13,31],[-37,10],[-21,21],[-2,19],[-16,8],[-10,24],[3,18],[-30,25],[-26,5],[-21,-3],[-22,-24],[-20,-16],[-6,-42],[-24,-18],[-5,-28],[-11,-16],[-2,-29],[6,-18],[26,-20],[-2,-18],[-13,-29],[-6,-55],[-16,-16],[-23,-3],[-53,-17],[-43,5],[-32,-5],[-10,7],[-16,-2],[-23,11],[-1,10],[-43,44],[-15,4],[-20,-3],[-13,8],[-20,1],[-18,16],[-14,19],[-43,9],[-57,29],[-30,-4],[-28,9],[-21,13],[-27,29],[-15,24],[-70,58],[-11,0],[-31,21],[-15,24],[-9,27],[-10,8],[-31,5],[-16,7],[-40,5],[-17,-5],[-25,17],[-19,0],[-16,20],[-15,0],[-15,19],[-12,6],[-18,24],[-18,8],[-27,19],[-31,12],[-15,14],[-14,2],[-42,22]],[[4289,637],[35,2],[27,15],[20,1],[20,8],[36,-3],[16,-5],[36,27],[5,11],[21,15],[21,5],[15,12],[14,1],[6,23],[17,14],[-11,20],[4,13],[-11,16],[-11,35],[-15,19],[-19,33],[-13,44],[-24,6],[9,22],[20,7],[24,18],[-11,19],[16,2],[-3,11],[11,7],[-14,9],[38,-7],[19,20],[-10,19],[19,4],[-7,8],[4,42],[7,7],[11,35],[62,21],[26,22],[20,2],[-10,16],[8,16],[-6,26],[10,20],[14,12],[6,17],[23,-3],[11,13],[15,3],[9,12],[25,0],[8,5],[18,32],[3,28],[-14,15],[-5,32],[-20,8],[-13,39],[3,24],[-22,35],[-11,40],[4,13],[62,31],[-2,25],[11,15],[-18,9],[-16,-3],[-47,7],[3,29],[42,47],[7,22],[-18,50],[-4,24],[-9,17],[-43,33],[-13,15],[-13,25],[-10,41],[3,15],[11,22],[4,21],[-9,22],[-22,29],[-4,31],[5,46],[17,51],[17,12],[5,23],[17,18],[-6,16],[5,13],[-18,5],[-14,15],[-9,1],[-8,15],[-20,7],[-10,-3],[-20,11],[-8,12],[26,14],[6,8],[38,18],[4,15],[-12,22],[6,7],[-10,8],[30,25],[-1,13]],[[4730,2519],[31,24],[32,30],[18,31],[23,5],[12,18],[8,3],[-2,22],[14,31],[17,0],[40,12],[9,14],[4,31],[15,32],[-3,12],[22,15],[16,0],[3,11],[18,6],[1,17],[-21,21],[17,19],[4,35],[9,0],[3,23],[-10,33],[1,15],[9,17],[21,20],[93,40],[16,10],[37,13]],[[5187,3079],[43,18],[46,39],[19,6],[11,-3],[-7,-23],[8,-10],[6,-31],[-8,-5],[11,-10],[-16,-14],[7,-10],[-10,-3],[9,-34],[-6,-5],[-2,-36],[9,-5],[-13,-16],[7,-12],[6,11],[6,-9],[17,5],[4,-23],[-7,-7],[11,-12],[19,-4],[18,27],[10,-9],[3,-17],[-8,-14],[13,-24],[-9,-2],[21,-51],[32,0],[78,-6],[59,26],[37,7],[79,1],[24,10],[19,37],[24,23],[15,26],[15,10],[19,2],[23,-3],[58,3],[13,-11],[47,1]],[[6827,2795],[12,8],[11,25],[26,4],[42,17],[55,19],[40,39],[31,22]],[[7044,2929],[-4,-108],[4,-29],[-24,-32],[25,-29],[34,-24],[27,-32],[14,-10],[57,-31],[-10,-24],[7,-14],[-9,-33],[0,-31],[4,-12],[-3,-33],[-16,-55],[-32,-38],[-14,-32],[-4,-41],[13,-15],[27,-19],[26,-9],[79,7],[16,5],[24,-4],[29,4],[73,-5],[36,-8],[51,-9],[99,-14],[29,-11],[24,-1],[51,-8],[67,-2],[34,-6],[28,-11],[-1,-34],[-14,-87],[-4,-51],[-12,-34],[-20,-17],[-10,-52],[-9,-7],[-42,5],[-32,-6],[-12,-10],[-64,-94],[-6,-20],[4,-31],[-3,-30],[-7,-25],[-19,-42],[-6,-48],[-2,-36],[-5,-23],[0,-39],[4,-24],[16,-35],[11,-31],[13,-10],[16,5],[28,-15],[22,-8],[13,-31],[19,-33],[-7,-46],[-1,-25],[14,-24],[15,-3],[33,-22],[25,-33],[22,-9],[33,4],[36,-11],[14,3],[47,30],[26,9],[41,-2],[29,-18],[32,-10],[27,-15],[16,-5],[28,-17],[41,-50],[15,-30],[16,-2],[33,-16],[-33,-22],[-47,-25],[-33,-21],[-27,-25],[-26,-13],[-37,-9],[-79,-48],[-66,-48],[-56,-50],[-53,-65],[-36,-29],[-34,-14],[-65,-60],[-25,-16],[-84,-38],[-46,-4],[-7,-6],[-39,-70],[-15,-12],[-18,-3],[-105,0],[-18,-2],[-14,-12],[-25,-53],[-17,-20],[-36,-4],[-48,17],[-43,58],[-23,5],[-10,-12],[-16,-29],[-9,-6],[-26,10],[-20,-2],[-37,3],[-14,-20],[-6,-20],[-20,-28],[-27,-48],[-14,-41],[3,-18],[-5,-23],[-19,-33],[-23,-9],[-14,0],[-10,22],[-12,7],[-23,-6],[-12,-13],[-40,11],[-19,-13],[-23,-42],[-9,-10],[-20,2],[-40,-10],[-26,9],[-50,34],[-11,12],[-38,56],[-14,17],[-27,-1]],[[7039,7931],[-2,-10],[-25,-36],[-29,-37],[-29,-41],[-25,-46],[-37,-52],[-55,-92],[-9,-23],[12,-27],[71,33],[79,56],[74,-47],[33,-16],[73,-24],[16,-10],[24,-4],[39,-23],[41,-39],[53,-35],[3,-32],[7,-8]],[[7353,7418],[-7,-23],[-23,12],[-36,-9],[-13,5],[8,-15],[-19,-6],[-5,12],[-13,-6],[8,-35],[-8,-5],[0,-16],[-11,-3],[-21,7],[-33,-16],[13,-23],[-15,-1],[0,-12],[23,-14],[-15,0],[-3,-12],[-22,-6],[-21,13],[-20,-3],[6,-12],[15,-8],[-10,-9],[-13,12],[3,-17],[-10,-5],[5,-14],[-25,2],[-19,24],[-10,-16],[14,-25],[-22,10],[-14,-19],[-14,9],[-2,11],[-9,-19],[4,-21],[-14,4],[-6,-14],[-31,-19],[-19,6],[5,-15],[12,-12],[-1,-12],[-11,2],[-4,-12],[-16,8],[-5,-17],[-17,-19],[-19,-12],[-7,3],[7,-34],[-14,-12],[8,-10],[-28,-21],[-26,-2],[-12,-11],[14,-11],[-24,-10],[3,-21],[-8,-15],[2,-23],[-20,-5],[-12,-34],[-8,3],[1,-15],[-13,-5]],[[6756,6830],[-6,6],[-19,-3],[-12,-13],[-8,2],[-18,73],[-12,59],[-23,15],[-3,9],[-15,-4],[-3,-21],[-11,0],[-15,-17],[7,-23],[-14,-5],[-17,3],[3,-31],[-21,1],[-60,-19],[-42,-7],[-45,9],[-37,0],[-21,5],[-21,18],[-6,42],[-9,16],[1,38],[6,8],[2,57],[-9,50],[12,30],[31,36],[80,95],[25,33],[21,21],[3,10],[23,30],[-10,9],[-22,38],[-34,13],[-7,10],[-21,8],[-33,1],[-64,17],[-62,7],[-7,28],[-24,6],[-65,-1],[-99,-71],[-15,-7]],[[6060,7411],[4,35],[-14,49],[1,26],[17,37],[19,25],[2,10],[-18,36],[-13,3],[-18,18],[-20,8],[-48,30],[-22,41],[-32,7],[-19,13],[-20,49],[-17,64],[-38,13],[-25,22],[-25,26],[-40,38],[-24,14],[-33,-4],[-56,-14],[-49,-6],[-67,1],[-19,-2],[-60,6],[-47,-27],[-5,-6],[-35,2],[-128,-49],[-30,-8],[-48,-17],[-47,-27],[-70,-33],[-34,-7],[-16,-11],[-16,-2],[-16,-16],[-129,-95],[-21,-2],[-29,10],[-43,4]],[[4712,7672],[2,34],[16,44],[4,19],[-4,14],[-21,12],[-29,2],[-9,6],[-24,33],[-14,9],[-60,17],[-22,14],[-25,52]],[[4526,7928],[21,16],[23,27],[29,26],[26,13],[27,21],[10,14],[5,24],[-15,52],[-3,35],[3,30]],[[4652,8186],[46,-1],[32,7],[4,12],[19,0],[20,28],[36,3],[20,37],[25,7],[11,10],[17,-2],[7,9],[38,-11],[22,15],[23,-1],[19,13],[10,15],[35,6],[12,8],[7,15],[-5,13],[15,7],[-24,19],[-8,16],[24,10],[27,6],[59,-8],[29,-6],[25,5],[13,-13],[43,-16],[36,-6],[10,4],[2,13],[14,17],[16,-5],[5,-14],[42,-67],[9,15],[16,-2],[21,9],[24,-4],[3,6],[29,-39],[36,-27],[17,-3],[28,5],[48,-3],[46,0],[22,7],[60,60],[43,27],[29,26],[12,48]],[[5821,8456],[24,-1],[33,-18],[16,-19],[20,-15],[64,-5],[32,-7],[43,-36],[16,-2],[13,7],[26,-1],[18,-15],[12,-2],[3,-12],[66,-1],[20,-45],[13,-8],[11,-16],[-1,-28],[18,-15],[1,-13],[16,-6],[1,-10],[27,14],[23,1],[20,-11],[23,7],[18,-21],[37,-20],[8,-1],[22,-25],[20,16],[15,2],[-3,12],[11,-2],[30,16],[28,-16],[15,-3],[68,-45],[95,-60],[105,-63],[44,0],[94,-10],[21,-24],[32,-24]],[[4652,8186],[15,61],[12,32],[11,14],[3,34],[10,11],[1,15],[-9,46],[-17,61],[19,27],[70,130],[22,27],[22,17],[-10,27],[1,11],[30,32],[14,20],[5,20],[9,6],[9,33],[4,36],[-1,42],[8,5],[-1,17],[33,-12],[7,8],[-12,14],[29,-11],[-6,-15],[11,10],[5,14],[-12,13],[28,-3],[-4,11],[-17,10],[14,22],[10,-4],[-1,-21],[12,-15],[6,20],[13,18],[12,-12],[-15,-9],[5,-7],[21,7],[5,10],[-10,8],[0,14],[30,-17],[11,29],[-17,-5],[-9,7],[17,15],[10,-3],[9,24],[15,0],[6,-11],[-5,-16],[11,0],[9,18],[-10,12],[7,14],[19,-5],[10,11],[8,-12]],[[5134,9041],[55,-12],[60,-17],[34,-23],[24,-21],[22,-9],[34,-24],[42,-39],[45,-10],[14,-21],[22,-13],[54,6],[18,13],[18,5],[18,-6],[27,-1],[24,-6],[60,-5],[23,-7],[4,-18],[12,-22]],[[5744,8811],[-12,-31],[2,-22],[64,-84],[8,-22],[18,-20],[5,-21],[-4,-34],[13,-28],[-17,-93]],[[7115,5694],[49,-60],[3,-15],[-15,-45],[-8,-12],[11,-2],[37,16],[11,-3],[22,-36],[2,-13],[-6,-20],[12,-12],[3,-25],[11,2],[13,-23],[2,-19],[-10,-12],[19,-70],[-7,-29],[3,-25],[16,-21],[1,-20],[11,-1],[5,-23],[-7,-22],[4,-14],[-9,-24],[26,-19],[11,-20],[4,-28],[-6,-7],[20,-30],[13,-31],[14,-11],[7,9],[21,-20],[14,-21],[7,-34],[11,-23],[-8,-16],[30,-17]],[[7452,4898],[27,-22],[9,-14],[20,-2],[16,-10],[23,-5],[13,-16],[-1,-27],[12,-20],[-8,-3],[-5,-20],[-13,-12],[-17,-30],[-13,-33],[-35,-14],[-39,-24],[12,-10],[-1,-19],[-10,-21],[-10,2],[-8,-44],[27,-8],[5,-15],[16,-13],[7,-19],[-27,-32],[0,-27],[6,-11],[33,-12],[-8,-50],[-4,-11],[-16,-3],[13,-37],[-4,-19],[-17,-39],[-5,0],[-14,-41],[-9,-14],[-3,-31],[-12,-5],[-16,-27],[-7,-26],[-9,-9],[-28,-12],[-52,-26],[-52,-7],[-16,-15],[-16,-4],[-56,21],[-65,32],[-53,32],[-16,22],[-13,30],[-30,31],[-11,27]],[[6972,4236],[-7,26],[-20,30],[-27,-6],[-27,1],[-14,-9],[-22,1],[-21,-15],[-13,6],[-18,43],[-15,27],[-25,14],[-14,-2],[-19,-22],[-19,-12],[-51,-24],[-21,10],[-1,13],[-23,24],[-1,11],[-22,3],[-16,-8],[-17,-27],[-10,0],[-32,-15],[-2,-13],[-42,-17],[-38,-11],[-11,-33],[-12,0],[-13,-33],[-9,0],[-13,-14],[-38,22],[-29,14],[-35,32],[-14,18],[-18,39],[-12,11],[-8,41]],[[6223,4361],[-17,44],[-12,-1],[-5,23]],[[6189,4427],[-3,49],[-8,25],[30,8],[36,33],[25,20],[7,14],[36,4],[19,16],[-7,21],[-16,93],[-7,25],[0,46],[-29,61],[20,9],[31,-58],[16,5],[4,-16],[82,0],[37,-52],[20,-14],[47,-15],[13,22],[-1,37],[-14,40],[3,4],[32,-1],[12,4],[7,16],[-8,18],[11,59],[-2,36],[10,38],[14,15],[-2,37],[21,47],[4,67],[13,34],[1,16],[-7,18],[-9,49],[2,19],[-10,18],[-179,12],[-7,-1],[-122,-26],[-3,17],[-20,65],[51,53],[-12,16],[-26,3],[-19,16],[-15,61],[-32,29],[-26,31]],[[6209,5570],[18,22],[-7,1],[0,23],[17,1],[21,11],[-15,13],[16,5],[1,-8],[26,18],[5,-9],[20,5],[1,14],[11,-6],[8,14],[-11,8],[10,6],[7,-16],[7,12],[13,-10],[5,15],[11,-1],[-9,16],[7,6],[-16,10],[2,16],[9,-1],[14,17],[8,-20],[16,6],[-4,12],[27,-27],[13,-5],[16,19],[-20,-2],[1,17],[-9,8],[-5,23],[9,11],[-18,-3],[9,10],[-21,16],[-1,22],[-10,11],[-9,-2],[20,52],[11,-18],[6,3],[-5,17],[27,3],[5,-8],[23,15],[-14,7],[20,5],[0,36],[16,-11],[15,4],[-6,21],[18,-14],[-8,22],[28,6],[2,18]],[[6540,6006],[29,-18],[18,-34],[14,-13],[16,-2],[23,-20],[-17,-30],[-18,-1],[12,-18],[-11,-13],[13,4],[24,-16],[10,-12],[-16,-13],[4,-21],[17,4],[-3,-17],[5,-19],[18,-13],[-4,-19],[6,-21],[-11,-15],[9,-3],[55,1],[10,10],[58,-11],[44,-21],[19,-17],[24,-7],[15,-9],[10,-16],[19,-11],[7,7],[46,10],[3,-9],[22,10],[7,-12],[38,23],[0,5],[57,27],[-6,10],[9,8]],[[5718,4729],[23,-26],[19,0],[22,-7],[4,-22],[15,8],[11,-17],[8,7],[22,1],[7,13],[22,-1],[15,-21],[15,8],[15,-9],[37,-5],[-7,-42],[35,0],[42,-19],[-2,-9],[19,-17],[20,-7],[28,1],[101,-138]],[[6223,4361],[-56,-6],[-31,-9],[-25,-38],[-14,-34],[-14,-24],[-7,-24],[10,-40],[-4,-18],[-15,-8],[-24,-43],[-14,-55],[11,-16],[-9,-23],[-10,-2],[-26,-31],[-1,-89],[-2,-24],[6,-32],[-5,-41],[8,-36],[39,-60],[10,-21],[0,-39],[6,-16],[-3,-34],[-16,-16],[-18,-3],[-20,5],[-30,-11],[-23,-32],[-30,-17],[5,-12],[-11,-23],[7,-11],[-13,-10],[-5,-14],[21,-73],[-6,-30],[3,-19],[8,-4],[6,-26],[-5,-24],[-2,-36],[4,-17],[-10,-8],[2,-20],[-9,-31],[21,-45],[15,-51],[3,-41],[0,-32],[4,-28],[-7,-47]],[[5187,3079],[-20,20],[-3,15],[-9,4],[-4,43],[21,47],[15,8],[-19,29],[2,20],[-6,26],[7,17],[28,2],[18,11],[-8,37],[0,47],[6,17],[-15,11],[-2,21],[-25,18],[-11,3],[-3,17],[-12,17],[-28,-1],[-4,-7],[-21,12],[-3,33],[11,15],[-8,26],[5,26],[-2,94],[2,18],[9,16],[-16,12],[-4,14],[7,28],[-2,10],[1,51],[-9,22],[4,18],[-37,30],[1,50]],[[3808,7519],[-5,-28],[-7,-5],[14,-19],[23,-46],[23,-24],[23,-10],[18,-20],[52,-26],[26,-24],[23,-4],[17,-8],[20,-29],[9,-2],[10,-17],[-4,-11],[10,-31],[-4,-21],[17,-1],[9,-12],[27,-7],[-24,-30],[-27,-25],[-25,-34],[13,-26],[8,-36]],[[4054,7023],[-2,-16],[3,-52],[-2,-12],[-18,-19],[-17,-87],[-2,-26],[-17,-53],[0,-17],[-18,-27],[-16,-38],[-21,-30],[-16,-29],[9,-12],[20,-53],[-31,-4],[-12,-8],[-10,20],[-15,-19],[-17,13],[-3,-20],[-12,9],[-9,-13],[-16,1],[-5,-10],[-8,19],[-9,1],[-6,-14],[-14,-1],[-2,18],[-18,-4],[-3,-42],[10,-66],[7,-15],[-10,-47],[-23,-32],[16,-3],[37,-16],[13,-83],[-6,-16],[29,-38],[-1,-14],[29,-10],[13,2],[48,-17],[6,-5],[2,-32],[4,-6],[-14,-65],[-15,-59],[-25,-79],[-22,-29]],[[3865,5868],[-17,-7],[-8,-10],[-47,-9],[-18,3],[-30,-9],[-26,2],[-15,-7],[-28,-40],[-27,-44],[-37,-18],[-7,-15],[-9,-44],[-21,-1],[-2,-18]],[[3573,5651],[-18,9],[-12,-9],[-40,5],[-18,-2],[-55,-24],[-28,-19],[-19,-25],[-5,-20],[-31,-9],[-9,-15],[-30,-25]],[[3308,5517],[-35,53],[-19,20],[-10,18],[-22,6],[-42,37],[-32,16],[-31,-2],[-17,-24],[-13,-31],[-42,-11],[-49,19],[-31,20],[-19,-2],[-39,22],[-25,-30],[-40,-20],[-9,-31],[-26,12],[-24,21],[1,9],[-31,13],[-48,4],[-43,-13],[-24,3],[-22,-5],[-40,11],[-7,8],[-39,13],[-39,8],[-15,14],[-16,35],[14,8],[-17,40],[2,35],[-23,-3],[-37,1],[-57,-8],[-99,15],[-14,-7],[-20,4],[-3,-13],[-29,-4],[-10,10],[-14,-12],[-24,-11],[-22,0],[-8,13],[-41,11],[-12,25],[-26,21],[-19,-6],[-43,5],[-32,-15],[-13,-1],[-8,-19],[-36,0],[-34,8],[-15,-14],[-18,-1],[-9,19],[-11,4],[-22,42],[-18,14],[-94,11],[-44,16],[-44,-2],[-62,-48],[-31,-10],[-48,0],[-28,4],[-12,-3],[-19,-27],[-59,-28],[-26,4],[-26,23],[-14,5],[-42,0]],[[1193,5816],[-2,25],[8,29],[-5,16],[-4,51],[3,51],[11,27],[1,16],[-5,26],[6,56],[-13,50],[3,44],[-12,38],[-2,32],[-12,26],[-8,71],[-15,103],[-13,40],[-7,49]],[[1127,6566],[29,7],[70,7],[53,12],[55,2],[59,6],[63,14],[54,6],[45,-5],[10,-6],[29,-4],[31,-14],[17,-28],[10,-28],[4,-33],[18,-45],[36,-12],[-1,-22],[16,-14],[28,4],[24,-5],[37,-2],[34,3],[58,-6],[33,5],[82,6],[-9,28],[36,8],[54,2],[39,-5],[47,24],[41,15],[46,-4],[15,7],[-8,15],[6,18],[-9,2],[2,18],[-11,2],[3,41],[-10,13],[-17,7],[-2,11],[8,26],[-11,20],[-2,23],[12,37],[17,0],[10,-18],[27,1],[23,-8],[32,3],[23,-11],[5,-18],[10,-3],[-2,-11],[19,-1],[23,-20],[12,3],[12,-13],[12,6],[8,26],[18,35],[9,47],[0,43],[-6,30],[-14,40],[-6,51],[-12,36],[-16,16],[-33,61],[-31,14],[-25,5],[-61,-2],[-30,11],[-8,23],[-21,11],[-20,19],[-61,91],[9,39],[-18,24],[2,21],[-37,9],[-31,26],[8,23],[0,27],[-4,34],[8,25]],[[2102,7417],[121,9],[17,28],[18,-5],[17,11],[21,-3],[14,10],[17,-1],[27,-40],[38,-18],[154,126],[40,51],[25,8],[41,-7],[29,-14],[23,-16],[28,-12],[32,-7],[68,13],[15,0],[29,-17],[36,-8],[13,-22],[19,-10],[135,-14],[91,-7],[92,16],[27,16],[21,31],[25,21],[19,23],[34,21],[15,33],[-1,16],[7,17],[-17,38],[32,4],[29,-8],[24,-1],[22,-21],[41,-14],[44,7],[8,-2],[216,-150]],[[4444,5718],[-4,13],[-17,11],[-52,5],[-42,-18],[-9,24],[-43,10],[-3,6],[-25,1],[-13,-5],[-29,11],[-8,22],[-25,23],[-65,14],[-20,14],[-18,6],[-21,-10],[-43,-6],[-38,0],[-51,11],[-35,14],[-18,4]],[[4054,7023],[32,-66],[16,-23],[54,-24],[25,-8],[21,-29],[-12,-24],[-28,-67],[-18,-25],[-6,-31],[4,-19],[24,-29],[20,-11],[33,-7],[51,-3],[27,-12],[15,-16],[1,-34],[6,-16],[5,-40],[9,-17],[25,0],[-11,16],[-6,30],[35,17],[15,20],[32,6],[13,-2],[26,12],[29,4],[18,20],[38,30],[10,20],[14,15],[-8,22],[-3,26],[-7,17],[-11,-15],[-22,5],[-21,-1],[0,26],[25,26],[5,11],[12,2],[24,15],[27,-7],[19,9],[5,8],[3,33],[-8,40],[11,27],[41,1],[9,27],[-5,34],[12,-3],[28,-19],[51,-58],[22,-40],[27,-38],[36,25],[20,3],[0,9],[18,7],[12,71],[10,13],[49,37],[27,12],[58,5],[39,19]],[[5076,7059],[11,-15],[13,3],[20,-10],[8,7],[10,-6],[29,4],[41,-4],[26,8],[12,-9],[7,-26],[8,-72],[54,-21],[17,-22],[7,-28]],[[5339,6868],[5,-22],[-4,-59],[33,-71],[19,-29],[24,-13],[8,-16],[3,-50],[5,-46],[12,-37],[-6,-21],[-26,-23],[-45,-6],[-52,-13],[-67,-2],[-29,-26],[-8,-32],[-1,-34],[9,-22],[-13,-9],[6,-19],[-10,-14],[4,-13],[-12,-15],[-3,-19],[3,-37],[7,-9],[-9,-6],[-11,-48],[-7,-18],[-11,-46],[-19,-39],[-10,0],[-4,-25]],[[5339,6868],[30,-5],[53,2],[29,9],[6,-5],[23,5],[5,54],[-9,31],[5,31],[26,97],[-1,22],[13,11],[48,8],[47,11],[81,27],[38,11],[46,18],[46,41],[16,21],[65,49],[29,17],[37,15],[24,14],[64,59]],[[6756,6830],[62,-70],[23,-36],[9,-30],[-30,-14],[-60,-21],[-41,-12],[-34,-4],[-1,-7],[-20,-14],[-72,-38],[-19,-8],[-31,-27],[-13,-15],[12,-24],[-32,-21],[-35,-17],[10,-29],[10,-47],[12,-33],[28,-24],[-12,-16],[16,-2],[-19,-19],[13,-14],[-12,-1],[1,-18],[-15,-9],[-16,0],[0,-24],[-5,-15],[17,-29],[-12,-12],[14,2],[-2,-19],[-11,10],[-7,-4],[9,-24],[-3,-20],[9,-2],[-4,-21],[13,-1],[-8,-15],[13,-6],[3,-14],[-10,-17],[19,3],[-10,-15],[15,-8],[-11,-4],[10,-9],[-4,-10],[15,0]],[[6209,5570],[-18,-7],[11,-10],[-36,-9],[4,-12],[-15,3],[-20,-4],[11,-13],[-11,-2],[1,-14],[-19,1],[8,-15],[-29,-6],[8,-13],[-11,-12],[-8,21],[-24,-12],[-16,-22],[-20,-1],[3,-23],[-10,-2],[2,-14],[-11,1],[-26,-19],[-15,5],[-1,14],[-17,6],[-6,20],[-30,-3],[-10,6],[-25,-1],[-7,23],[-35,13],[6,8],[4,72],[-17,11],[-1,22],[-10,29],[-4,31],[-9,11],[-24,14],[0,10],[-17,1],[-6,22],[-13,2],[0,21],[6,31],[-9,19],[-2,27],[-20,45],[-34,45],[-2,11],[-63,23]],[[5076,7059],[-39,17],[-72,8],[-23,12],[0,21],[-12,17],[-11,46],[-19,26],[-21,4],[-16,8],[-23,31],[4,13],[-39,53],[33,37],[6,11],[-3,25],[18,41],[-5,27],[-39,24],[-32,-2],[-17,2],[-29,23],[-6,20],[2,28],[-3,22],[-15,49],[-3,50]],[[5744,8811],[44,10],[163,160],[108,103],[13,15],[17,4],[5,15],[42,39],[9,-5],[17,28],[-10,11],[-36,56],[17,6],[5,11],[20,9],[20,-1],[57,20],[46,43],[21,15],[2,11],[39,9],[19,-2],[9,25],[35,8],[11,-2],[18,26],[-2,22],[11,18],[0,11],[12,14],[-5,28],[2,19]],[[6453,9537],[16,11],[26,0],[7,12],[15,1],[8,-12],[26,-15],[7,-15],[25,-5],[4,-15],[14,-15],[4,-15],[14,-10],[28,-36],[13,-2],[7,-32],[10,-24],[27,-18],[65,-16]],[[6769,9331],[1,-27],[-11,-20],[14,-16],[11,-41],[-2,-31],[20,-12],[26,5],[23,-11],[42,22],[-5,-32],[1,-28],[-8,-35],[1,-31],[5,-18],[19,-11],[7,-15],[3,-34],[11,-8],[46,9],[8,-22],[13,-9],[35,8],[16,-4],[12,-13],[6,-19],[-17,-19],[-15,-8],[10,-34],[-7,-14],[7,-20],[15,-8],[16,10],[24,-1],[47,-12],[48,-5],[46,4]],[[7237,8831],[-15,-53],[3,-27],[16,-19],[29,-12],[38,-29],[8,-12],[16,-47],[2,-47],[-5,-92],[-8,-18],[-79,1],[-1,-35],[-28,5],[-33,11],[-4,20],[-34,1],[-27,14],[-26,-9],[-28,0],[-28,9],[-27,2],[-21,-7],[10,-28],[17,-17],[5,-13],[-2,-42],[-17,3],[0,-15],[13,-26],[-9,-16],[5,-16],[10,-5],[-18,-28],[17,-28],[9,8],[4,-32],[8,-32],[-1,-32],[5,0],[14,-26],[-4,-6],[6,-30],[22,-7],[15,1],[4,-9],[19,1],[17,-16],[2,8],[25,-15],[9,7],[20,-10],[10,-11],[15,6],[8,-5],[1,-19],[19,-4],[13,-16],[24,5],[6,-18],[16,-5],[-2,-8],[14,-20]],[[7314,7971],[-23,-2],[-22,27],[-22,0],[-1,8],[-38,8],[-24,-2],[-3,-8],[-22,-3],[-23,5],[-15,-7],[-28,0],[-5,-24],[-21,-13],[-17,-32],[-11,3]],[[9023,8239],[42,-47],[-5,-26],[-58,-67],[-161,-194],[-39,-51],[-16,-17],[-41,-20],[-19,-24],[-27,-15],[-31,-6],[-47,4],[-30,-8]],[[8591,7768],[-47,-3],[-91,35],[-29,17],[-108,71],[-21,8]],[[8295,7896],[-1,28],[20,12],[21,21],[-4,17],[7,14],[13,5],[9,13],[-4,41],[-19,44],[-6,-9],[-13,1],[-9,-11],[12,-24],[-22,-9],[-20,9],[-15,-13],[-15,3],[1,-16],[-10,-8],[-34,7],[5,-9],[-30,0],[-22,16],[-6,-6],[-4,17],[-11,-17],[-17,-8],[-28,-20],[-28,4],[-7,-13],[-33,3],[-8,9],[-1,-16],[19,-6],[2,-16],[-10,13],[-24,-19],[-11,9],[-33,-4],[-11,12],[13,15],[-17,-5],[-9,17],[-10,-10],[10,-6],[-37,-13],[8,-16],[-26,4],[-4,-8],[10,-18],[-22,-3],[-11,-21],[-4,18],[-13,-18],[11,-8],[-2,-20],[-21,10],[-9,-5],[10,-17],[0,-14],[-17,-3],[-16,15],[-3,-10]],[[7789,7854],[-19,-9],[-4,-9],[-18,-2],[-11,20],[-4,20],[-21,46],[-1,20],[17,22],[4,32],[8,32],[-21,8],[-13,22],[-5,25],[3,23],[-3,18],[25,29],[10,19],[-1,21],[-10,49],[-9,15],[-3,25],[21,15],[11,31],[6,7],[29,11],[13,15]],[[7793,8359],[17,13],[23,5],[4,25],[9,2],[5,30],[-5,39],[3,19],[17,34],[-3,36],[12,29],[3,24],[-7,28],[-7,5],[5,17],[-8,15],[5,33],[-10,11],[-1,30],[-6,0],[-8,42],[14,21],[-3,23],[-14,33],[1,99],[4,22],[-3,34],[-12,28],[-18,24],[-40,73],[-7,28]],[[7763,9181],[11,34],[0,18],[-21,97],[-19,72],[2,32]],[[7736,9434],[-1,15],[22,33],[2,15],[27,22],[16,6],[20,-1],[25,-13],[4,-7],[20,-6],[1,-13],[24,5],[17,-9],[6,-10],[23,-5],[17,-18],[16,10],[20,-8],[16,2],[19,-5],[19,14],[63,-10],[32,20],[1,24],[11,5],[24,24],[6,-6],[13,11],[7,-20],[44,-9],[-2,-15],[14,-7],[-9,-12],[13,-11],[-2,-10],[-23,-5],[0,-11],[15,-25],[-8,-6],[-13,7],[2,-30],[23,-14],[1,-14],[19,-10],[17,-17],[-1,-22],[12,2],[6,-9],[25,-19],[13,-23],[10,-9],[14,-30],[-5,-14],[7,-21],[8,3],[-2,-18],[19,4],[36,-2],[3,9],[10,-14],[8,13],[15,0],[5,-10],[12,13],[16,-4],[26,11],[17,0],[-2,-11],[16,-24],[-8,-10],[26,-1],[6,-19],[13,-11],[21,-8],[6,-15],[24,5],[15,-6],[11,9],[11,-7],[-1,-13],[17,0],[4,-10],[11,0],[9,-22],[-13,-24],[11,5],[6,-18],[-4,-15],[-12,3],[-20,-21],[1,-18],[-25,-24],[-8,2],[19,-40],[-9,-15],[15,0],[4,-16],[15,-8],[4,-17],[-10,-9],[10,-2],[-1,-13],[18,-23],[0,-23],[-17,-39],[19,-10],[13,5],[-10,-17],[9,-19],[-7,-27],[2,-10],[16,-4],[0,-18],[-22,-7],[7,-11],[18,-8],[-16,-13],[-9,-31],[12,-18],[13,3],[8,-10],[-14,-8],[15,-3],[-4,-10],[13,-2],[18,8],[7,-23],[-16,-4],[-3,-34],[19,8],[1,-18],[8,-3],[-10,-13],[22,-1],[-6,-16],[18,1],[-11,-11],[10,-10],[-12,-28],[17,-15],[9,4],[5,-11],[13,8],[3,-13],[26,-4],[11,-8],[-5,-14],[13,-8],[-3,-19],[14,-21],[1,-10],[30,-1],[24,10],[-1,-15],[11,-12],[-8,-5],[18,-7],[12,25],[11,-5]],[[4730,2519],[-18,9],[-32,29],[-19,10],[-25,23],[-30,12],[-24,14],[-20,6],[-28,38],[-5,25],[14,33],[-45,18],[-51,8],[-1,-33],[-6,-11],[-1,-20],[-28,-2],[-5,-22],[12,-3],[-3,-12],[-17,-2],[-44,3],[8,13],[-18,6],[-34,0],[-4,-17],[-25,2],[-17,-15],[-8,-21],[-12,4],[-23,-10],[-26,-27],[-13,-29],[3,-15],[-36,-7],[-25,8],[-41,3],[-76,-3],[-25,-9],[-12,-11],[-11,0],[-20,-16],[-15,-18],[-36,-19],[-20,-55],[-32,-27],[-14,-19],[-18,-51],[-1,-30],[-21,-29],[-35,-2],[-16,-6],[-41,3],[-15,24],[-47,38],[-30,14],[-26,23],[2,-39],[-29,-16],[-13,2],[-27,-8],[-17,5],[7,16],[-16,-5],[-17,13],[-40,-5],[-10,-19],[-19,-7],[-13,13],[-26,0],[-16,14],[-3,17],[-16,1],[-44,22],[-3,-11],[13,-31],[-11,-18],[-10,7],[-11,36],[-13,6],[-10,15],[-19,7],[-6,-5],[-20,4],[3,14],[-17,39],[8,34],[10,15],[-4,20],[-26,11],[-13,14],[-4,19],[3,23],[19,42],[18,11],[6,14],[0,26],[34,37],[13,23],[14,45],[14,59],[28,36],[7,28],[11,25],[-29,0],[-17,-10],[-10,-16],[-21,19],[-28,-27],[-17,5],[-26,-3],[-38,18],[-5,19],[5,14],[24,34],[-4,28],[-39,27],[-23,43],[-7,35],[-15,9],[-49,17]],[[3010,3105],[-32,28],[-9,16],[9,44],[2,22],[-7,27],[-20,36],[-23,9],[-39,2],[5,23],[-5,19],[-14,18]],[[2877,3349],[8,31],[-23,43],[-11,54],[12,32],[22,23],[12,27],[26,19],[25,-1],[31,21],[36,11],[12,7],[8,16],[19,-12],[40,3],[23,-22],[30,-7],[39,-30],[27,-15],[12,0],[26,-33],[-1,-25],[9,-8],[9,-27],[-2,-14],[31,3],[26,7],[9,-9],[57,-26],[35,-1],[35,-61],[26,6],[28,-7],[18,9],[46,-3],[23,20],[6,13],[24,4],[15,-7],[11,-16],[19,2],[0,18],[-12,13],[24,28],[6,24],[33,4],[3,-20],[19,0],[4,9],[19,-5],[0,20],[23,13],[13,13],[12,3],[12,17],[-24,19],[0,18],[27,13],[25,6],[21,-31],[30,1],[6,25],[11,8],[1,25],[16,-4],[9,17],[23,7],[1,17],[20,-4],[8,19],[3,27],[-15,6],[-38,4],[-41,49],[-12,7],[-26,38],[5,21],[37,22],[52,6],[27,14],[46,7],[10,11],[21,38],[48,52],[48,48],[20,25],[22,18],[14,20],[14,7],[-4,31],[18,3],[5,30],[8,3],[-1,20],[33,8]],[[7353,7418],[14,7],[16,-4],[9,9],[17,-8],[8,9],[12,-3],[21,32],[-11,16],[18,14],[0,13],[18,28],[27,26],[36,39],[17,9],[49,75],[8,3],[0,16],[19,11],[12,0],[-1,-11],[32,-20],[18,2],[18,19],[8,-12],[15,1],[3,18],[20,14],[2,12],[28,7],[-15,24],[1,14],[9,23],[10,-2],[15,22],[-14,5],[-3,28]],[[8295,7896],[-3,-32],[1,-34],[-4,-18],[-2,-42],[-32,-83],[-10,-34],[-6,-7],[-10,-73],[-18,-62],[25,-46],[-11,-19],[9,-12],[-9,-11],[-12,12],[6,-20],[-8,-2],[-3,-15],[-11,-5],[-8,13],[-8,-3],[8,-22],[-29,-8],[-23,-19],[15,-12],[-1,-9],[-25,2],[-15,-9],[-22,15],[11,15],[-5,11],[-7,-8],[-22,10],[0,-10],[-24,-1],[-6,-15],[-13,9],[2,14],[-38,-3],[7,-16],[-16,-10],[13,-7],[-1,-17],[-13,15],[-15,-1],[1,14],[-12,13],[2,-16],[-25,4],[-16,-13],[8,-19],[-16,-10],[11,-8],[-16,-12],[4,-17],[-14,-14],[2,12],[-20,1],[-4,-19],[-18,-4],[10,-14],[2,13],[20,-7],[-12,-3],[3,-12],[-19,4],[14,-32],[-11,-5],[12,-11],[-3,-8],[9,-19],[3,-21],[-8,-8],[-22,-5],[-13,-23],[-19,-14],[17,-19],[-3,-13],[20,-9],[-6,-13],[11,-10],[2,-14],[24,-1],[16,-18],[29,1],[69,13],[24,1],[44,8],[10,63],[6,4],[57,0],[12,8],[27,2],[36,-7],[39,-10],[4,-9],[16,-2],[7,-41],[-21,-4],[8,-14],[-11,-20],[-4,-21],[-16,1],[-19,-14],[-4,9],[-15,-10],[16,-25],[-8,-10],[-8,8],[-24,-37],[22,-18],[-14,-11],[3,-9],[-13,-2],[-9,-18],[-7,1],[-6,-32],[-10,-15],[13,-12],[5,-18],[-12,-11],[-10,18],[-46,-5],[-6,-13],[23,-31],[9,-26],[-8,1],[-33,-13],[-14,-24],[-3,-50],[13,-4],[-1,-26],[12,0],[6,-10],[-41,-29],[-8,-23],[18,-3],[-6,-18],[-11,-5],[4,-18],[-8,-40],[15,-6],[5,-32],[23,9],[10,-12],[-2,-13],[12,-7],[1,-14],[17,12],[12,-19],[-21,-7],[-2,-25],[11,0],[12,-16],[0,-27],[8,-16],[14,2],[1,-22],[-10,-16]],[[8138,6198],[-5,-13],[-19,-11],[-12,1],[-17,11],[-30,-10],[-9,5],[-10,-11],[0,-27],[-16,-16],[-6,-17],[-27,-14],[-30,-27],[-17,-9],[-35,3],[-19,-11],[-28,-7],[-34,13],[-11,41],[-14,19],[-28,4],[-34,-2],[-72,21],[-2,-10],[-26,-77],[-13,-110],[-10,-55],[-11,-18],[-7,-23],[-2,-20],[7,-31],[-7,-20],[-24,-12],[-30,-27],[-34,13],[-16,0],[-55,13],[-51,25],[-22,1],[-20,-8],[-23,-2],[-75,3],[-59,13],[-29,-13],[-12,-17],[0,-22],[10,-11],[-39,-39]],[[8138,6198],[10,-7],[15,16],[7,-6],[-1,-18],[13,12],[4,-10],[10,14],[9,-7],[-10,-13],[34,-28],[17,-39],[-4,-7],[26,-11],[-19,-23],[8,-3],[6,-20],[10,-7],[47,4],[7,8],[10,-12],[-22,-30],[25,-10],[-9,-23],[18,3],[-9,-19],[10,2],[-6,-19],[7,-9],[7,8],[29,-2],[4,-9],[-8,-9],[-2,-17],[7,-6],[16,5],[1,-21],[11,-12],[16,-3],[-8,-14],[0,-19],[25,-2],[0,-10],[-17,1],[22,-42],[35,-10],[9,29],[14,-5],[1,-14],[10,-16],[14,2],[11,-9],[-2,-9],[17,-8],[0,-23],[25,4],[5,-24],[16,18],[23,0],[8,-14],[-4,-12]],[[8636,5693],[-7,-18],[20,-6],[-6,-29],[17,-4],[13,21],[10,4],[-2,-17],[19,-9],[3,-32],[18,20],[37,-1],[2,-7],[-19,-9],[10,-8],[-6,-15],[18,6],[-5,-10],[16,-13],[-11,-15],[5,-27],[10,2],[8,16],[7,-19],[40,-19],[-13,-23],[46,-28],[-12,-4],[-9,-15],[-71,-37],[-44,-33],[-4,-25],[12,-53],[-243,-67],[-19,-29],[-21,-3],[-34,-37],[-5,-11],[-24,-12],[-22,-4],[1,-5],[-20,-26],[-6,-98],[2,-31],[-9,-25],[-20,-35],[-42,-83],[-94,2],[-28,3],[-112,2],[-91,7],[-84,0],[-24,-7],[-15,2],[-76,1],[-23,17],[-128,111],[-15,5],[-31,2],[-40,-12],[-63,-55]],[[8591,7768],[68,-41],[25,-8],[29,-172],[7,-52],[7,-24],[15,-1],[5,9],[-3,17],[10,4],[3,-16],[39,-5],[-14,19],[9,14],[18,-12],[5,-18],[19,10],[-9,-20],[33,-27],[22,9],[-2,18],[7,8],[11,-6],[-5,-16],[14,-3],[10,16],[15,8],[16,-2],[28,8],[1,19],[21,2],[6,-13],[29,9],[2,10],[-13,11],[15,22],[-1,13],[9,12],[12,43],[18,-7],[13,9]],[[9085,7615],[3,-35],[-3,-98],[6,-207],[3,-95],[0,-80],[-4,-11],[-21,-19],[9,-54],[17,-54],[-11,-27],[-46,-11],[0,-29],[-26,-11],[-4,-27],[-32,-67],[2,-14],[44,-16],[44,-8],[13,0],[26,-83],[35,8],[12,11],[27,-17],[38,-15],[27,-7],[3,-86],[-1,-21],[-13,-27],[-40,-57],[-23,-7],[-1,-23],[15,-20],[4,-30],[-2,-30],[13,-28],[-12,-35],[-1,-19],[12,-35],[0,-21],[15,-14]],[[9213,6196],[-14,-10],[-31,11],[-27,-2],[-2,21],[-42,-2],[-2,-18],[-34,-23],[-23,-30],[-17,-4],[-19,3],[-32,-11],[-5,-31],[-9,-25],[-14,-14],[-11,-3],[-4,-32],[-23,-14],[-12,0],[1,-15],[-11,-33],[-31,-30],[-4,-14],[-11,-6],[-18,-23],[-11,-25],[-29,-20],[-14,-23],[6,-8],[-18,-34],[-7,-4],[-15,-31],[-17,-6],[-41,-36],[-11,1],[-25,-12]],[[2877,3349],[-31,3],[-20,-5],[-25,-13],[-11,2],[-21,25],[-28,13],[-24,20]],[[2717,3394],[20,27],[8,5],[9,45],[14,39],[-14,19],[-28,15],[-29,81],[1,27],[13,23],[8,1],[13,28],[17,8],[38,35],[-2,16],[37,-4],[29,9],[16,17],[5,26],[12,23],[13,11],[-6,7],[8,26],[21,5],[-2,22],[-21,25],[9,9],[0,27],[13,24],[-23,10],[-3,23],[10,17],[-1,21],[-11,10],[-5,27],[-15,20],[-13,8],[0,13],[-17,10],[-15,-4],[-17,15],[-10,33],[5,30],[-12,53],[16,23],[14,4],[15,36],[17,2],[24,30],[13,-1],[7,-10],[19,-4],[12,20],[25,10],[-1,15],[10,14],[18,14],[23,-3],[6,-9],[18,14],[4,14],[16,16],[13,-10],[3,7],[28,-1],[25,9],[16,-14],[25,20],[-9,7],[17,13],[-10,4],[5,10],[36,-4],[2,21],[18,15],[20,-11],[25,-7],[7,7],[24,-8],[10,7],[-10,65],[1,20],[-23,48],[-3,34],[6,18],[20,28],[0,12],[-19,26],[-28,60],[-28,34],[-41,67],[-18,43],[-5,30],[3,24],[1,42],[5,58],[7,29],[11,69],[10,22],[24,22],[6,23],[2,56],[8,4],[8,19],[15,3],[15,16],[14,35],[8,9],[8,35],[-1,16],[9,24]],[[3573,5651],[22,-8],[28,1],[34,-10],[61,-45],[12,-15],[28,-13],[27,-32],[55,-43],[16,-60],[1,-40],[9,-41],[8,-54],[-1,-23],[-13,-33],[4,-26],[-6,-31],[13,-28],[9,-34],[15,-12],[-7,-21],[9,-3],[11,-27],[14,-18],[10,-28],[5,-37],[11,-29],[-4,-30],[-18,-26],[-2,-24],[28,-32],[2,-20],[34,18],[5,17],[22,-4],[-7,-6],[28,-4],[0,-11],[38,-11],[7,-6],[15,5],[17,-10],[18,10],[5,13],[11,-1],[7,-14]],[[2717,3394],[-41,18],[-14,14],[-40,16],[-33,6],[-8,7],[-14,32],[-16,13],[-11,24],[-24,13],[-42,-15],[-37,-6],[-50,-1],[-14,16],[-1,50],[-4,28],[-13,32],[-3,30],[-6,16],[-19,19],[-26,35],[-16,11],[-33,6],[-62,3],[-27,13],[-28,56],[-9,10],[-27,6],[-36,22],[-26,13],[-31,6],[-11,11],[-3,16],[1,55],[16,20],[15,35],[7,25],[0,22],[-6,21],[16,25],[15,16],[9,37],[15,20],[3,31],[-4,19],[2,17],[-13,16],[-5,23],[-32,28],[-13,4],[-22,-5],[-33,-21],[-49,-47],[-24,-15],[-50,-21],[-25,1],[-66,30],[-24,16],[-29,9],[-28,32],[-2,52],[-6,12],[-24,24],[-15,-1],[-15,11],[1,44],[-26,26],[-31,14],[-12,30],[-2,38],[-24,31],[-10,40],[-28,9],[-14,-4]],[[1460,4633],[1,25],[-8,15],[12,11],[-6,19],[-22,29],[6,19],[-3,10],[-17,8],[-13,14],[-7,18],[12,10],[-12,11],[-12,53],[-13,7],[2,25],[-16,8],[9,12],[-11,22],[-4,27],[14,5],[4,30],[-12,32],[3,15],[-6,19],[-9,0],[-4,18],[10,15],[-15,12],[3,9],[-14,13],[-6,39],[-18,7],[-1,13],[8,34],[6,4],[-3,39],[12,5],[-8,6],[-18,32],[-8,34],[-11,16],[2,24],[-12,15],[-5,18],[13,24],[-17,34],[-7,32],[-30,41],[-32,65],[-1,41],[-6,15],[2,37],[-11,12],[10,3],[-12,52],[9,7],[-15,7],[16,5],[4,11]],[[3010,3105],[-15,-20],[-24,-15],[-11,-12],[1,-15],[-19,-13],[-23,4],[-10,12],[-30,-2],[-6,-31],[-16,-27],[-8,11],[-18,8],[-25,2],[-8,8],[-26,-7],[-11,-12],[-11,0],[2,-13],[-9,-26],[26,-4],[2,-21],[-23,-98],[-11,-10],[-11,-27],[2,-14],[15,-28],[2,-16],[-19,-2],[-13,-20],[-25,-19],[22,-17],[28,11],[37,-11],[-5,-20],[10,-30],[9,-4],[6,-18],[40,-29],[-2,-15],[13,-25],[14,-7],[-4,-11],[17,-23],[10,-4],[6,-16],[-5,-8],[21,-17],[3,-14],[22,6],[27,-4],[11,13],[34,-17],[-2,-15],[-37,-9],[-10,-48],[5,-44],[-3,-13],[-28,-30],[4,-10],[31,-8],[19,3],[1,22],[27,0],[11,-29],[29,18],[22,-23],[-25,-13],[-14,-43],[-20,-19],[4,-15],[-11,-23],[-15,-20],[9,-14],[17,-6],[5,-21],[-19,-22],[5,-9],[-14,-1],[-2,-11],[-32,-7],[-20,-16],[-15,-26],[-29,16],[-23,-7],[-9,27],[-19,4],[-14,10],[-34,12],[16,29],[-33,41],[-17,-4],[2,-34],[-26,-6],[-31,17],[-6,22],[-1,33],[9,9],[6,24],[-17,12],[0,-13],[-14,9],[-3,-18],[-10,-12],[-11,2],[-14,-11],[-10,6],[3,-19],[-14,-1],[-7,9],[-21,-11],[-8,23],[-10,-5],[-7,13],[-35,3],[3,-16],[-11,-20],[-2,-19],[-23,-19],[20,-67],[-2,-40],[-6,-46],[16,-17],[1,-41],[11,-24],[-8,-17],[9,-29],[-11,-25],[-18,-7],[-24,5],[-23,-5],[-25,7],[-17,25],[-15,11]],[[2412,1822],[-22,25],[-46,36],[-30,13],[-26,7],[-28,3],[-31,-2],[-29,-7],[-32,-23],[-16,-4],[-57,-5],[-29,8],[-32,-3],[-34,2],[-34,-43],[-8,-22],[-44,4],[-26,7],[-48,24],[-25,10],[-27,17],[-37,29],[-26,36],[-32,39],[-5,18],[-10,10],[-4,22],[-14,5],[-19,-1],[-25,-9],[-16,-16],[-25,9],[-19,-10],[-33,-7],[-33,-20],[-16,-6],[-42,-24],[-35,-12],[-3,-9],[7,-18],[-10,-13],[13,-30],[14,-20],[7,-23],[20,-4],[9,-27],[-2,-11],[-27,-21],[-16,-62],[3,-21],[-17,-29],[-15,-18],[-8,-31],[-17,6],[-17,-4],[-22,-36],[-15,15],[-15,23],[-20,40],[-16,15],[-21,31],[-17,1],[-32,20],[-6,34],[6,8],[-7,20],[-24,5],[-13,11],[-5,15],[-27,3],[-15,-5],[-13,22],[6,11],[15,1],[-5,14],[5,15],[-27,6],[-7,17],[-14,10],[-18,-4],[0,22],[-30,19],[10,18],[-9,5],[-16,-7],[-19,8],[-30,27],[-22,-6],[-34,17],[0,5],[-28,25],[-11,4],[-23,23],[-12,-5],[-14,20],[-29,4],[-25,10],[-23,2],[-8,12],[-9,40],[-20,40],[10,25],[-12,19],[10,20],[-11,7],[-30,-6],[-7,-13],[-15,-11],[-16,-20],[-48,-7],[1,18],[-7,38],[9,19],[-10,14],[-22,12],[1,29],[-8,8],[-25,0],[-7,-20],[-16,-8],[-9,-29],[-46,-33],[-14,2],[-27,-20],[-2,-21],[-10,-8],[-17,3],[-17,-28],[-6,-28],[12,-43],[-3,-12],[-23,45],[-23,34],[-46,60],[-16,57],[-23,8],[-12,9],[-14,25],[-18,23],[-3,30],[-37,9],[-35,20],[-7,32],[-6,4],[-24,-18],[-37,39],[6,7],[-5,23],[-14,22],[2,23],[21,27],[18,-2],[9,16],[24,-5],[-6,22],[3,27],[14,2],[7,15],[15,1],[-6,20],[5,18],[22,32],[12,4],[-9,17],[18,3],[3,20],[24,13],[9,-2],[4,28],[-20,13],[-5,17],[-14,-4],[10,26],[-34,53],[21,26],[-20,18],[4,20],[-6,28],[8,5],[3,29],[10,3],[3,18],[-10,8],[2,25],[-9,4],[-2,29],[7,21],[-11,12],[-3,16],[9,3],[-7,29],[-8,12],[-7,24],[-12,-3],[8,12],[-2,42],[10,16],[-5,26],[15,22],[-17,6],[2,28],[-12,34],[-17,7],[5,23],[-9,9],[5,9],[-13,4],[8,10],[-17,6],[-8,19],[-22,11],[15,18],[-9,16],[0,19],[-13,8],[11,22],[23,-8],[-3,10],[17,35],[-18,12],[9,9],[10,27],[-17,24],[-14,9],[1,23],[19,-1],[6,12],[22,-11],[5,7],[-7,22],[11,11],[17,-14],[35,-16],[2,19],[12,16],[-1,-14],[14,2],[12,-8],[2,-17],[7,-12],[-6,-11],[14,-5],[30,-20],[2,-14],[12,-6],[-1,-9],[19,-10],[9,-23],[12,16],[20,-13],[15,6],[15,-9],[25,0],[3,16],[13,-16],[19,-2],[7,6],[9,-15],[11,0],[8,14],[14,5],[10,-16],[11,0],[1,-12],[17,-1],[5,-12],[30,5],[8,-8],[16,2],[10,22],[-4,19],[6,47],[-4,22],[8,7],[18,0],[9,-36],[17,-22],[36,5],[22,24],[5,22],[-7,9],[-4,25],[20,37],[21,12],[21,-2],[4,10],[18,-4],[20,14],[24,-21],[16,9],[36,40],[8,23],[10,2],[6,21],[-15,18],[4,21],[-9,15],[13,22],[27,-1],[28,4],[3,13],[-4,21],[16,9],[18,-2],[0,7],[17,10],[7,14],[41,17],[14,17],[45,0],[27,23],[36,19],[47,43],[8,16],[19,5],[18,37],[8,5],[15,38],[14,8],[1,17],[19,19],[26,-3],[6,10],[23,20],[19,0],[8,7],[20,2],[40,29],[22,1],[27,10],[8,20],[12,15],[-7,22],[4,16],[-12,27],[19,8],[-2,27],[-16,37],[2,16],[-9,25],[4,10],[-12,43]],[[6972,4236],[-17,-17],[-32,-51],[-10,-24],[-10,-108],[-30,4],[1,-27],[10,-20],[11,-33],[11,-17],[-9,-40],[16,-6],[3,-12],[19,-19],[28,-36],[20,-1],[10,-11],[17,-5],[24,4],[16,-10],[23,-80],[4,-94],[-3,-16],[-14,-23],[-34,-26],[-26,-33],[-12,-29],[-4,-20],[0,-56],[10,-34],[26,-39],[12,-32],[1,-34],[10,-25],[14,-67],[11,-28],[-3,-43],[3,-37],[-4,-61],[-7,-42],[-9,-30],[-4,-29]],[[5134,9041],[0,34],[-8,9],[23,10],[1,-13],[14,-12],[7,4],[2,50],[-15,-6],[-8,25],[18,6],[-13,10],[18,-2],[5,14],[16,-3],[-24,21],[17,2],[9,9],[-3,13],[19,-6],[-2,-17],[14,5],[15,21],[0,9],[14,1],[-10,16],[13,-7],[6,7],[-8,14],[20,16],[-14,11],[2,22],[-8,19],[-1,24],[10,19],[-9,35],[6,4],[19,-10],[11,8],[-10,22],[17,-5],[-6,15],[17,23],[-12,33],[11,1],[1,-18],[14,0],[3,18],[-9,24],[12,-12],[14,10],[14,-1],[3,16],[-13,14],[-15,-10],[-11,10],[7,6],[-10,13],[12,-1],[1,29],[-8,11],[11,8],[11,-9],[19,-3],[-5,-12],[11,-1],[13,19],[-19,13],[16,10],[12,-7],[24,2],[17,15],[15,-14],[2,18],[10,0],[10,-15],[17,17],[8,-12],[-19,-6],[-3,-16],[10,-10],[12,6],[2,-13],[24,1],[5,15],[20,-16],[14,8],[12,-7],[2,13],[19,40],[-9,11],[-10,-8],[-8,9],[13,9],[13,34],[17,-20],[14,6],[19,-1],[10,-29],[11,16],[29,-10],[0,-7],[-21,-11],[5,-7],[16,9],[24,-2],[0,-14],[16,1],[11,-13],[19,13],[8,17],[21,2],[11,17],[9,2],[16,-16],[28,22],[-3,13],[-28,6],[4,19],[21,-1],[-8,20],[10,9],[-2,34],[29,8],[5,11],[-12,7],[5,19],[-4,23],[17,-1],[10,10],[11,-10],[12,12],[13,-6],[13,16],[34,-24],[17,20],[18,-9],[14,6],[-1,20],[26,-3],[19,-7],[14,23],[32,3],[28,15],[6,22],[-2,20],[10,8],[8,-10],[7,8],[-2,43],[31,-1],[7,-19],[30,4],[-4,-12],[9,-9],[12,11],[-2,-24],[18,-21],[71,-77],[23,-29],[13,-6],[0,-13],[35,-22],[3,-16],[20,2],[14,-7],[5,-21],[-8,-2],[6,-16],[-22,-9],[10,-23],[0,-18],[-25,-72],[9,-39],[15,-23],[8,0]],[[7314,7971],[19,-21],[11,44],[-4,23],[-16,27],[22,12],[6,13],[12,-1],[15,10],[14,55],[12,18],[-11,7],[5,12],[-11,27],[19,18],[4,19],[15,10],[-6,8],[2,33],[-8,1],[-10,20],[8,23],[-1,23],[-9,12],[-1,15],[69,6],[45,-8],[49,9],[37,-19],[14,-17],[157,4],[21,5]],[[4289,637],[1,6],[25,7],[45,26],[14,20],[-3,5],[-32,2],[-22,5],[-72,32],[-67,6],[-15,23],[-1,13],[-9,21],[-14,9],[4,27],[-4,18],[-12,19],[-3,30],[-32,54],[-10,7],[6,49],[18,2],[18,13],[38,47],[-21,39],[-22,17],[-1,30],[-10,31],[-16,6],[0,20],[-20,9],[-13,-6],[-7,20],[-24,-3],[-2,11],[-12,2],[-21,-28],[-12,-7],[-12,6],[-30,0],[-34,19],[-13,1],[-8,-23],[-1,-32],[-15,-6],[-11,16],[-21,-3],[-10,7],[-18,-6],[-10,4],[-19,26],[-12,3],[-19,35],[-39,36],[-5,11],[-18,6],[-40,28],[-39,17],[-17,12],[2,32],[17,39],[-17,2],[-18,-14],[-22,2],[-14,-14],[-4,-30],[-22,-27],[-12,-7],[-21,5],[-40,-17],[-18,7],[-18,23],[-48,34],[-14,-8],[-22,15],[-12,-11],[-39,-6],[5,-27],[-42,-12],[4,-16],[-9,-14],[-42,-1],[-13,-9],[-32,3],[-21,13],[-14,17],[-14,-13],[-1,-37],[4,-20],[-5,-25],[20,-41],[0,-11],[-11,-19],[-2,-39],[-26,-30],[-9,-5],[-49,50],[-24,14],[-16,15],[-27,36],[-38,29],[-22,9],[-14,24],[-32,35],[-22,33],[-8,6],[-17,32],[-16,20],[-36,35],[-12,4],[-27,28],[-31,37],[-23,20],[-35,45],[-4,12],[-23,16],[-21,-4],[-14,11],[2,30],[8,17],[-3,10],[-28,21],[-18,3],[-30,-8],[-29,3],[-11,33],[-7,8],[-27,6],[-18,16],[2,16],[22,45]],[[1127,6566],[-2,20],[3,30],[13,25],[-19,17],[-8,24],[-3,29],[2,28],[-11,33],[-1,62],[-8,51],[-5,44],[1,58],[8,96],[2,53],[-2,40],[22,6],[169,-2],[13,10],[1,9],[14,0],[-7,17],[14,-3],[6,8],[21,6],[18,-12],[2,16],[18,24],[-9,3],[10,18],[46,15],[96,-1],[133,20],[81,15],[-34,89],[7,25],[15,6],[14,29],[10,-1],[14,16],[9,34],[20,11],[25,27],[6,-7],[-4,25],[12,-6],[10,6],[19,-1],[-2,10],[30,2],[2,-14],[11,23],[27,-2],[9,7],[12,-16],[20,8],[44,-98],[81,-81]],[[9023,8239],[-13,28],[14,-5],[15,14],[-1,-11],[12,-9],[22,1],[19,-9],[27,6],[-3,-8],[15,-4],[7,15],[22,2],[1,-12],[14,1],[7,-23],[12,-1],[12,14],[-1,13],[26,7],[11,-11],[1,15],[-12,29],[15,7],[19,-3],[-3,8],[30,9],[28,-19],[-19,-8],[17,-11],[-5,-9],[22,-9],[-5,19],[6,9],[29,18],[29,-18],[22,-7],[16,-12],[12,3],[-5,-13],[2,-24],[16,-11],[27,-8],[19,10],[7,15],[19,1],[30,-22],[-1,-25],[-15,-2],[-9,12],[-6,-18],[-16,5],[1,-28],[25,-9],[9,-22],[-7,-8],[21,-17],[11,3],[1,24],[23,-5],[5,9],[-10,16],[11,6],[9,-22],[19,-20],[1,-17],[-25,-8],[-3,-33],[-17,-8],[0,-11],[21,-11],[12,8],[-9,7],[5,9],[15,-10],[-6,24],[17,8],[13,-5],[-2,-22],[15,-5],[5,12],[9,-6],[41,7],[-3,13],[-11,2],[0,12],[42,6],[-2,-23],[6,-19],[18,1],[12,-7],[12,9],[1,14],[18,8],[17,-29],[4,-26],[15,-24],[0,-11],[25,-3],[20,14],[1,-33],[23,-27],[-14,-2],[-4,-12],[10,-24],[18,-8],[20,-52],[22,-26],[15,2],[1,-10],[-16,-11],[3,-13],[24,-2],[1,-15],[-35,-11],[-22,2],[-15,-27],[-15,-36],[-15,-17],[-17,2],[-23,18],[14,28],[-19,10],[-8,15],[-16,-2],[-4,-17],[19,-25],[-7,-21],[-22,5],[-11,26],[14,13],[2,29],[-15,7],[-15,-12],[-18,-4],[-2,-26],[4,-13],[-10,-5],[-19,4],[5,-16],[-4,-14],[5,-20],[-10,-14],[13,-7],[-18,-9],[-11,-18],[-21,1],[-1,8],[22,10],[-11,22],[-18,-3],[0,-23],[-19,-5],[-7,-8],[-2,-42],[20,-83]],[[9687,7480],[-20,3],[-7,-13],[-12,8],[-15,-3],[-12,13],[-13,0],[-6,-16],[3,-21],[10,-15],[-21,-4],[-2,-21],[-14,-15],[-30,10],[-10,-12],[-23,1],[-5,-11],[7,-27],[-13,0],[0,16],[-15,22],[-12,-2],[-6,-18],[7,-13],[-22,7],[-10,13],[11,21],[-17,11],[5,14],[-31,2],[-3,13],[-18,26],[-9,-5],[15,-6],[3,-15],[-12,-3],[-21,8],[-5,-17],[12,-8],[0,-19],[-10,-9],[-18,28],[-44,10],[-16,-31],[-13,0],[-8,16],[-18,11],[4,24],[10,9],[4,25],[-10,9],[-35,16],[-15,16],[-15,-5],[-14,15],[-7,21],[-10,-8],[7,-22],[-25,2],[10,25],[-11,17],[-18,4],[-4,14],[-27,0],[0,24],[-8,0]],[[3808,7519],[7,9],[-3,16],[30,23],[34,8],[18,17],[20,37],[21,27],[28,29],[4,10],[20,21],[-1,65],[7,13],[26,8],[22,-11],[58,6],[2,26],[-4,26],[6,0],[4,21],[15,-6],[14,42],[-6,11],[53,-10],[34,0],[62,9],[45,13],[59,31],[29,6],[57,-13],[10,-12],[47,-13]],[[9687,7480],[41,-31],[58,-19],[40,2],[32,-4],[-1,-52],[-3,-24],[-33,-69],[-12,-32],[9,-12],[-2,-32],[8,-11],[20,-5],[5,-73],[-45,-6],[-13,-15],[-33,-2],[-29,-14],[-21,8],[-9,-6],[-27,-6],[-1,-24],[15,-28],[54,-48],[12,-19],[5,-21],[-67,-105],[-3,-18],[7,-12],[22,-20],[2,-38],[-21,-43],[10,-26],[12,-51],[-9,-79],[-2,-32],[15,-22],[70,-52],[-13,-17],[-5,-16],[-20,-31],[-6,-20],[-22,2],[-29,-9],[-18,-14],[-39,-3],[-20,-9],[-4,-11],[-15,-2],[-12,-11],[-41,-4],[-3,14],[-34,2],[-2,-13],[-29,-3],[0,34],[-13,-11],[-18,-2],[-19,-11],[0,-17],[-31,-10],[-19,-22],[-14,17],[-37,23],[-1,14],[-14,-4],[-24,-29],[-25,-20],[-16,-30],[-19,3],[-9,-24],[-9,-9]],[[6769,9331],[14,2],[22,37],[25,19],[30,-3],[20,5],[17,36],[27,28],[67,8],[32,-5],[38,2],[40,8],[27,14],[37,24],[34,0],[43,16],[28,6],[85,-86],[10,-1],[5,-13],[34,-19],[25,5],[27,-16],[46,-11],[9,-5],[22,15],[25,11],[18,-3],[8,6],[19,-3],[2,9],[15,1],[25,-18],[25,11],[6,8],[30,5],[15,11],[15,-1]],[[7763,9181],[-13,-43],[-44,-64],[-27,-44],[-52,-126],[-58,3],[-40,10],[-58,4],[-17,-13],[-34,-32],[-30,-6],[-32,6],[-38,-16],[-28,-6],[-8,28],[4,22],[-9,1],[-42,-74]]],"transform":{"scale":[0.00018312627482748318,0.00016877302180217738],"translate":[101.18113875000007,14.120232343000055]},"objects":{"Nakhon Ratchasima":{"type":"GeometryCollection","geometries":[{"arcs":[[0,1,2,3,4,5,6]],"type":"Polygon","properties":{"Shape_Leng":1.49078740166,"Shape_Area":0.0641623496693,"ADM2_EN":"Mueang Nakhon Ratchasima","ADM2_TH":"เมืองนครราชสีมา","ADM2_PCODE":"TH3001","ADM1_EN":"Nakhon Ratchasima","ADM1_TH":"นครราชสีมา","ADM1_PCODE":"TH30","ADM0_EN":"Thailand","ADM0_TH":"ประเทศไทย","ADM0_PCODE":"TH"}},{"arcs":[[7,8,9,10,11,12]],"type":"Polygon","properties":{"Shape_Leng":2.25090943901,"Shape_Area":0.156038862113,"ADM2_EN":"Khon Buri","ADM2_TH":"ครบุรี","ADM2_PCODE":"TH3002","ADM1_EN":"Nakhon Ratchasima","ADM1_TH":"นครราชสีมา","ADM1_PCODE":"TH30","ADM0_EN":"Thailand","ADM0_TH":"ประเทศไทย","ADM0_PCODE":"TH"}},{"arcs":[[-9,13,14]],"type":"Polygon","properties":{"Shape_Leng":1.55181530361,"Shape_Area":0.0791043072674,"ADM2_EN":"Soeng Sang","ADM2_TH":"เสิงสาง","ADM2_PCODE":"TH3003","ADM1_EN":"Nakhon Ratchasima","ADM1_TH":"นครราชสีมา","ADM1_PCODE":"TH30","ADM0_EN":"Thailand","ADM0_TH":"ประเทศไทย","ADM0_PCODE":"TH"}},{"arcs":[[15,16,17,18,19,20,21,22]],"type":"Polygon","properties":{"Shape_Leng":1.88007414841,"Shape_Area":0.0543368208646,"ADM2_EN":"Khong","ADM2_TH":"คง","ADM2_PCODE":"TH3004","ADM1_EN":"Nakhon Ratchasima","ADM1_TH":"นครราชสีมา","ADM1_PCODE":"TH30","ADM0_EN":"Thailand","ADM0_TH":"ประเทศไทย","ADM0_PCODE":"TH"}},{"arcs":[[-22,23,24,25]],"type":"Polygon","properties":{"Shape_Leng":0.790194950438,"Shape_Area":0.0189486234992,"ADM2_EN":"Ban Lueam","ADM2_TH":"บ้านเหลื่อม","ADM2_PCODE":"TH3005","ADM1_EN":"Nakhon Ratchasima","ADM1_TH":"นครราชสีมา","ADM1_PCODE":"TH30","ADM0_EN":"Thailand","ADM0_TH":"ประเทศไทย","ADM0_PCODE":"TH"}},{"arcs":[[26,27,28,29,30,31,32]],"type":"Polygon","properties":{"Shape_Leng":1.58708953933,"Shape_Area":0.046712331884,"ADM2_EN":"Chakkarat","ADM2_TH":"จักราช","ADM2_PCODE":"TH3006","ADM1_EN":"Nakhon Ratchasima","ADM1_TH":"นครราชสีมา","ADM1_PCODE":"TH30","ADM0_EN":"Thailand","ADM0_TH":"ประเทศไทย","ADM0_PCODE":"TH"}},{"arcs":[[-2,33,-30,34,-13,35]],"type":"Polygon","properties":{"Shape_Leng":1.14399626663,"Shape_Area":0.0455369872737,"ADM2_EN":"Chok Chai","ADM2_TH":"โชคชัย","ADM2_PCODE":"TH3007","ADM1_EN":"Nakhon Ratchasima","ADM1_TH":"นครราชสีมา","ADM1_PCODE":"TH30","ADM0_EN":"Thailand","ADM0_TH":"ประเทศไทย","ADM0_PCODE":"TH"}},{"arcs":[[36,37,38,39,40,41,42,43]],"type":"Polygon","properties":{"Shape_Leng":2.11095598279,"Shape_Area":0.117308135614,"ADM2_EN":"Dan Khun Thot","ADM2_TH":"ด่านขุนทด","ADM2_PCODE":"TH3008","ADM1_EN":"Nakhon Ratchasima","ADM1_TH":"นครราชสีมา","ADM1_PCODE":"TH30","ADM0_EN":"Thailand","ADM0_TH":"ประเทศไทย","ADM0_PCODE":"TH"}},{"arcs":[[-6,44,-38,45,46,47]],"type":"Polygon","properties":{"Shape_Leng":1.30229094406,"Shape_Area":0.0458822815909,"ADM2_EN":"Non Thai","ADM2_TH":"โนนไทย","ADM2_PCODE":"TH3009","ADM1_EN":"Nakhon Ratchasima","ADM1_TH":"นครราชสีมา","ADM1_PCODE":"TH30","ADM0_EN":"Thailand","ADM0_TH":"ประเทศไทย","ADM0_PCODE":"TH"}},{"arcs":[[-7,-48,48,-18,49,-32,50]],"type":"Polygon","properties":{"Shape_Leng":1.61150359868,"Shape_Area":0.0580370636339,"ADM2_EN":"Non Sung","ADM2_TH":"โนนสูง","ADM2_PCODE":"TH3010","ADM1_EN":"Nakhon Ratchasima","ADM1_TH":"นครราชสีมา","ADM1_PCODE":"TH30","ADM0_EN":"Thailand","ADM0_TH":"ประเทศไทย","ADM0_PCODE":"TH"}},{"arcs":[[-19,-49,-47,51]],"type":"Polygon","properties":{"Shape_Leng":0.749534766114,"Shape_Area":0.0285899622879,"ADM2_EN":"Kham Sakaesaeng","ADM2_TH":"ขามสะแกแสง","ADM2_PCODE":"TH3011","ADM1_EN":"Nakhon Ratchasima","ADM1_TH":"นครราชสีมา","ADM1_PCODE":"TH30","ADM0_EN":"Thailand","ADM0_TH":"ประเทศไทย","ADM0_PCODE":"TH"}},{"arcs":[[-23,-26,52,53,54,55,56]],"type":"Polygon","properties":{"Shape_Leng":1.26975932593,"Shape_Area":0.0425180250599,"ADM2_EN":"Bua Yai","ADM2_TH":"บัวใหญ่","ADM2_PCODE":"TH3012","ADM1_EN":"Nakhon Ratchasima","ADM1_TH":"นครราชสีมา","ADM1_PCODE":"TH30","ADM0_EN":"Thailand","ADM0_TH":"ประเทศไทย","ADM0_PCODE":"TH"}},{"arcs":[[57,58,59,60,61,62,63]],"type":"Polygon","properties":{"Shape_Leng":1.53311427357,"Shape_Area":0.044920490619,"ADM2_EN":"Prathai","ADM2_TH":"ประทาย","ADM2_PCODE":"TH3013","ADM1_EN":"Nakhon Ratchasima","ADM1_TH":"นครราชสีมา","ADM1_PCODE":"TH30","ADM0_EN":"Thailand","ADM0_TH":"ประเทศไทย","ADM0_PCODE":"TH"}},{"arcs":[[-3,-36,-12,64,65,66]],"type":"Polygon","properties":{"Shape_Leng":1.81907535017,"Shape_Area":0.0836873068223,"ADM2_EN":"Pak Thong Chai","ADM2_TH":"ปักธงชัย","ADM2_PCODE":"TH3014","ADM1_EN":"Nakhon Ratchasima","ADM1_TH":"นครราชสีมา","ADM1_PCODE":"TH30","ADM0_EN":"Thailand","ADM0_TH":"ประเทศไทย","ADM0_PCODE":"TH"}},{"arcs":[[-17,67,-60,68,69,-33,-50]],"type":"Polygon","properties":{"Shape_Leng":2.290110249,"Shape_Area":0.0750507591926,"ADM2_EN":"Phimai","ADM2_TH":"พิมาย","ADM2_PCODE":"TH3015","ADM1_EN":"Nakhon Ratchasima","ADM1_TH":"นครราชสีมา","ADM1_PCODE":"TH30","ADM0_EN":"Thailand","ADM0_TH":"ประเทศไทย","ADM0_PCODE":"TH"}},{"arcs":[[-27,-70,70,71]],"type":"Polygon","properties":{"Shape_Leng":1.20795414939,"Shape_Area":0.0447670529875,"ADM2_EN":"Huai Thalaeng","ADM2_TH":"ห้วยแถลง","ADM2_PCODE":"TH3016","ADM1_EN":"Nakhon Ratchasima","ADM1_TH":"นครราชสีมา","ADM1_PCODE":"TH30","ADM0_EN":"Thailand","ADM0_TH":"ประเทศไทย","ADM0_PCODE":"TH"}},{"arcs":[[-59,72,73,74,-71,-69]],"type":"Polygon","properties":{"Shape_Leng":1.68877523772,"Shape_Area":0.0540986294687,"ADM2_EN":"Chum Phuang","ADM2_TH":"ชุมพวง","ADM2_PCODE":"TH3017","ADM1_EN":"Nakhon Ratchasima","ADM1_TH":"นครราชสีมา","ADM1_PCODE":"TH30","ADM0_EN":"Thailand","ADM0_TH":"ประเทศไทย","ADM0_PCODE":"TH"}},{"arcs":[[-4,-67,75,76,-40,77]],"type":"Polygon","properties":{"Shape_Leng":1.60535725018,"Shape_Area":0.0644266484982,"ADM2_EN":"Sung Noen","ADM2_TH":"สูงเนิน","ADM2_PCODE":"TH3018","ADM1_EN":"Nakhon Ratchasima","ADM1_TH":"นครราชสีมา","ADM1_PCODE":"TH30","ADM0_EN":"Thailand","ADM0_TH":"ประเทศไทย","ADM0_PCODE":"TH"}},{"arcs":[[-5,-78,-39,-45]],"type":"Polygon","properties":{"Shape_Leng":0.730100869276,"Shape_Area":0.0176845565838,"ADM2_EN":"Kham Thale So","ADM2_TH":"ขามทะเลสอ","ADM2_PCODE":"TH3019","ADM1_EN":"Nakhon Ratchasima","ADM1_TH":"นครราชสีมา","ADM1_PCODE":"TH30","ADM0_EN":"Thailand","ADM0_TH":"ประเทศไทย","ADM0_PCODE":"TH"}},{"arcs":[[-41,-77,78,79]],"type":"Polygon","properties":{"Shape_Leng":1.83562835598,"Shape_Area":0.0984479008572,"ADM2_EN":"Sikhio","ADM2_TH":"สีคิ้ว","ADM2_PCODE":"TH3020","ADM1_EN":"Nakhon Ratchasima","ADM1_TH":"นครราชสีมา","ADM1_PCODE":"TH30","ADM0_EN":"Thailand","ADM0_TH":"ประเทศไทย","ADM0_PCODE":"TH"}},{"arcs":[[-66,80,81,-79,-76]],"type":"Polygon","properties":{"Shape_Leng":2.79007522386,"Shape_Area":0.164736786561,"ADM2_EN":"Pak Chong","ADM2_TH":"ปากช่อง","ADM2_PCODE":"TH3021","ADM1_EN":"Nakhon Ratchasima","ADM1_TH":"นครราชสีมา","ADM1_PCODE":"TH30","ADM0_EN":"Thailand","ADM0_TH":"ประเทศไทย","ADM0_PCODE":"TH"}},{"arcs":[[-8,-35,-29,82,-14]],"type":"Polygon","properties":{"Shape_Leng":1.02205594265,"Shape_Area":0.0450828070253,"ADM2_EN":"Nong Bun Mak","ADM2_TH":"หนองบุญมาก","ADM2_PCODE":"TH3022","ADM1_EN":"Nakhon Ratchasima","ADM1_TH":"นครราชสีมา","ADM1_PCODE":"TH30","ADM0_EN":"Thailand","ADM0_TH":"ประเทศไทย","ADM0_PCODE":"TH"}},{"arcs":[[-25,83,-53]],"type":"Polygon","properties":{"Shape_Leng":1.03839895864,"Shape_Area":0.0265942039343,"ADM2_EN":"Kaeng Sanam Nang","ADM2_TH":"แก้งสนามนาง","ADM2_PCODE":"TH3023","ADM1_EN":"Nakhon Ratchasima","ADM1_TH":"นครราชสีมา","ADM1_PCODE":"TH30","ADM0_EN":"Thailand","ADM0_TH":"ประเทศไทย","ADM0_PCODE":"TH"}},{"arcs":[[-16,-57,84,-61,-68]],"type":"Polygon","properties":{"Shape_Leng":0.75396479719,"Shape_Area":0.0141766328876,"ADM2_EN":"Non Daeng","ADM2_TH":"โนนแดง","ADM2_PCODE":"TH3024","ADM1_EN":"Nakhon Ratchasima","ADM1_TH":"นครราชสีมา","ADM1_PCODE":"TH30","ADM0_EN":"Thailand","ADM0_TH":"ประเทศไทย","ADM0_PCODE":"TH"}},{"arcs":[[-11,85,-81,-65]],"type":"Polygon","properties":{"Shape_Leng":2.49442991206,"Shape_Area":0.0893265114165,"ADM2_EN":"Wang Nam Khiao","ADM2_TH":"วังน้ำเขียว","ADM2_PCODE":"TH3025","ADM1_EN":"Nakhon Ratchasima","ADM1_TH":"นครราชสีมา","ADM1_PCODE":"TH30","ADM0_EN":"Thailand","ADM0_TH":"ประเทศไทย","ADM0_PCODE":"TH"}},{"arcs":[[-43,86]],"type":"Polygon","properties":{"Shape_Leng":0.947021723424,"Shape_Area":0.0318469619219,"ADM2_EN":"Thepharak","ADM2_TH":"เทพารักษ์","ADM2_PCODE":"TH3026","ADM1_EN":"Nakhon Ratchasima","ADM1_TH":"นครราชสีมา","ADM1_PCODE":"TH30","ADM0_EN":"Thailand","ADM0_TH":"ประเทศไทย","ADM0_PCODE":"TH"}},{"arcs":[[-58,87,88,-73]],"type":"Polygon","properties":{"Shape_Leng":1.20638079832,"Shape_Area":0.0225621644265,"ADM2_EN":"Mueang Yang","ADM2_TH":"เมืองยาง","ADM2_PCODE":"TH3027","ADM1_EN":"Nakhon Ratchasima","ADM1_TH":"นครราชสีมา","ADM1_PCODE":"TH30","ADM0_EN":"Thailand","ADM0_TH":"ประเทศไทย","ADM0_PCODE":"TH"}},{"arcs":[[-20,-52,-46,-37,89]],"type":"Polygon","properties":{"Shape_Leng":0.942303919123,"Shape_Area":0.0287754003013,"ADM2_EN":"Phra Thong Kham","ADM2_TH":"พระทองคำ","ADM2_PCODE":"TH3028","ADM1_EN":"Nakhon Ratchasima","ADM1_TH":"นครราชสีมา","ADM1_PCODE":"TH30","ADM0_EN":"Thailand","ADM0_TH":"ประเทศไทย","ADM0_PCODE":"TH"}},{"arcs":[[-74,-89,90]],"type":"Polygon","properties":{"Shape_Leng":0.984300346226,"Shape_Area":0.0230547268295,"ADM2_EN":"Lam Thamenchai","ADM2_TH":"ลำทะเมนชัย","ADM2_PCODE":"TH3029","ADM1_EN":"Nakhon Ratchasima","ADM1_TH":"นครราชสีมา","ADM1_PCODE":"TH30","ADM0_EN":"Thailand","ADM0_TH":"ประเทศไทย","ADM0_PCODE":"TH"}},{"arcs":[[-55,91,-63,92]],"type":"Polygon","properties":{"Shape_Leng":0.585188156341,"Shape_Area":0.0148540417783,"ADM2_EN":"Bua Lai","ADM2_TH":"บัวลาย","ADM2_PCODE":"TH3030","ADM1_EN":"Nakhon Ratchasima","ADM1_TH":"นครราชสีมา","ADM1_PCODE":"TH30","ADM0_EN":"Thailand","ADM0_TH":"ประเทศไทย","ADM0_PCODE":"TH"}},{"arcs":[[-56,-93,-62,-85]],"type":"Polygon","properties":{"Shape_Leng":0.859516742903,"Shape_Area":0.0148562450843,"ADM2_EN":"Sida","ADM2_TH":"สีดา","ADM2_PCODE":"TH3031","ADM1_EN":"Nakhon Ratchasima","ADM1_TH":"นครราชสีมา","ADM1_PCODE":"TH30","ADM0_EN":"Thailand","ADM0_TH":"ประเทศไทย","ADM0_PCODE":"TH"}},{"arcs":[[-1,-51,-31,-34]],"type":"Polygon","properties":{"Shape_Leng":1.00406642477,"Shape_Area":0.0237950660669,"ADM2_EN":"Chaloem Phra Kiat","ADM2_TH":"เฉลิมพระเกียรติ","ADM2_PCODE":"TH3032","ADM1_EN":"Nakhon Ratchasima","ADM1_TH":"นครราชสีมา","ADM1_PCODE":"TH30","ADM0_EN":"Thailand","ADM0_TH":"ประเทศไทย","ADM0_PCODE":"TH"}}]}}}