{"type":"Topology","arcs":[[[9771,2753],[-150,35],[-43,8],[-45,4],[-99,-2],[-15,1],[2,16],[15,15],[1,10],[-18,11],[-28,-3],[-13,43],[31,33],[-3,7],[-35,6],[2,16],[-9,13],[6,14],[14,7],[-1,18],[-67,12],[-4,4],[-46,7],[-59,13],[-42,22],[-43,5],[-54,16],[2,15],[-21,20],[-21,14],[-25,1],[-38,18],[-59,14],[-73,5],[-20,-11],[-29,3],[-45,-8],[-11,-6],[-42,0],[-20,-19],[-43,-7],[-7,-8],[0,-21],[-13,-20],[-29,-9],[-67,-4],[-45,3],[-41,-6],[-28,-1],[-102,-11],[-51,-8]],[[8240,3038],[-56,-12],[-71,-25],[-51,-12],[-21,-13]],[[8041,2976],[20,31],[36,64],[14,11],[14,2],[19,17],[3,28],[-9,5],[-10,35],[-22,30],[17,25],[-9,20],[7,12],[19,13],[-7,4],[15,9],[2,-7],[13,18],[10,-3],[10,20],[32,23],[-2,12],[16,3],[6,20],[9,6],[19,-1],[11,27],[39,1],[-6,7],[15,5],[29,21],[9,-5],[7,27],[20,1],[1,17],[18,3],[5,12],[28,-4],[29,12],[-1,10],[36,15],[-2,12],[-18,0],[-8,16],[-20,3],[-16,30],[-34,-8],[-18,13],[8,6],[-16,10],[5,5],[-14,11],[-11,26],[-10,5],[0,16],[-13,17],[30,51],[20,16],[23,-1],[2,12],[18,15],[-6,3],[6,20],[-2,31],[12,14],[25,43],[15,37],[-12,10],[13,12],[-1,24],[19,57],[6,1],[-7,29],[-22,31],[10,7],[-1,28],[-18,11],[-1,15],[-14,4],[2,17],[12,12],[0,14],[-9,2],[9,27],[-19,9],[6,15],[-9,15],[-15,2],[-14,27],[-27,7],[15,3],[-8,7],[-3,22],[-8,8],[10,12],[-5,19],[-19,22],[-34,16],[-10,-7],[-55,-2],[-45,-21],[-23,-17],[0,-19],[25,4],[-16,-11],[-25,-2],[-16,-15],[10,-7],[-18,-1],[-15,-10],[9,-10],[-13,-6],[18,-4],[1,-14],[-21,-3],[-8,-15],[-1,-25],[-22,-13],[24,-10],[-20,-26],[-19,-3],[-25,16],[-13,-12],[-44,0],[-14,-24],[-18,-4],[5,-10],[-20,-16],[25,-23],[-2,-15],[-30,-7],[-10,-33],[-14,-21],[-39,-25],[-36,-31],[-83,-2],[-139,14],[-40,7],[-31,12],[-51,5],[-75,-3],[-45,5],[-86,-14],[-95,-8],[-26,-5],[-16,-12],[-37,-8],[-45,-2],[-23,4],[-117,42],[-58,16],[-45,10],[-63,17],[-46,7],[-31,-5],[-143,-56],[-48,-18],[-48,-14],[-80,-35],[-37,-1],[-32,6],[-69,24],[-36,2],[-33,6],[-75,7],[-1,4],[-84,40],[-71,10],[-38,3],[-74,0],[-20,16],[-165,115],[-30,14],[-297,143],[-33,7],[-33,-2]],[[5261,4319],[62,43],[-2,5],[21,13],[-8,29],[9,1],[6,15],[-7,20],[10,8],[-1,17],[-13,22],[-31,17],[1,28],[-20,5],[-4,12],[-45,16],[-8,26],[-11,19],[6,9],[-6,20]],[[5220,4644],[90,5],[75,7],[29,5],[56,1],[55,2],[22,-2],[75,11],[49,0],[45,6],[85,2],[58,18],[36,15],[22,14],[45,13],[117,6],[21,-1],[41,-10],[46,-26],[10,1],[10,15],[33,13],[54,15],[27,17],[53,27],[9,12],[59,31],[29,20],[35,20],[39,26],[72,35],[69,40],[33,15],[24,15],[56,52],[52,44],[38,39],[28,12],[16,12],[-2,15],[-10,7],[14,22],[28,-5],[21,7],[22,-13],[15,20],[22,3],[37,18],[26,-1],[42,-10],[79,-30],[75,-18],[24,12],[36,9],[0,-10],[27,-11],[11,-13],[36,3],[10,-8],[69,4],[15,9],[12,-2],[21,19],[15,5],[9,-8],[20,2],[0,17],[46,-4],[-1,-11],[21,-12],[24,-4],[21,6],[22,-2],[15,-17],[4,-50],[16,4],[94,3],[71,10],[24,1],[31,-7],[17,6],[3,13],[21,6],[-5,12],[15,-2],[-2,11],[21,-4]],[[8065,5173],[7,2],[7,23],[18,7],[35,0],[5,13],[16,-4],[33,14],[34,4],[32,-17],[20,1],[8,16],[15,-2],[23,10],[11,-4],[-2,26],[10,12],[-1,32],[32,9],[16,25],[16,-4],[2,-10],[33,12],[27,-4],[-9,14],[8,14],[37,13],[-1,-8],[32,-22],[30,-13],[23,3],[16,-10],[32,-9],[44,13],[22,-6],[11,5],[5,-9],[29,2],[34,-8],[11,17],[13,3],[3,15],[-16,8],[0,19],[-7,4],[5,25],[19,17],[14,-3],[15,17],[-21,25],[13,18],[-20,1],[-24,7],[-1,12],[11,1],[-7,14],[-21,14],[12,12],[-22,1],[-2,8],[-46,-2],[-20,22],[24,14],[9,12],[-23,1],[10,13],[19,-6],[14,24],[17,10],[10,-12],[9,10],[18,-10],[6,14],[-12,2],[13,31],[30,-10],[-4,-6],[24,4],[11,-20],[18,4],[0,32],[11,-2],[14,12],[-1,-23],[21,9],[53,-12],[25,11],[-14,15],[52,11]],[[9038,5696],[26,-45],[19,-28],[46,-56],[61,-54],[66,-42],[58,-68],[19,-30],[75,-58],[39,-26],[43,-23],[66,-40],[78,-55],[80,-69],[114,-101],[36,-34],[36,-38],[18,-29],[15,-39],[14,-54],[11,-91],[3,-45],[-4,-79],[4,-67],[0,-66],[10,-65],[1,-72],[16,-36],[5,-59],[-6,-55],[-11,-59],[-6,-44],[-25,-106],[-4,-54],[5,-27],[23,-85],[6,-41],[9,-36],[5,-51],[-3,-36],[13,-80],[0,-20],[-9,-31],[-19,-42],[-8,-50],[-3,-70],[-5,-51],[-9,-39],[-5,-65],[-3,-73],[-15,-37],[-38,-67],[-70,-101],[-17,-42],[-4,-39],[-12,-44],[-11,-29]],[[8041,2976],[-18,-17],[-59,-33],[-22,-29],[3,-24],[-8,-22],[-13,-12],[-19,-8],[-6,-16],[-24,-18],[-2,-14],[-27,-17],[-14,0],[-4,-33],[3,-14],[-8,-6],[-42,-11],[-8,4],[-14,-8],[-2,-30],[-19,-17],[-11,-3],[-12,-15],[5,-9],[-27,7],[2,-11],[-21,6],[-6,-12],[-21,7],[-15,-14],[12,-10],[-32,-9],[14,-13],[-31,-6],[-2,-13],[22,-22],[-30,-9],[9,-11],[-2,-14],[-14,-4],[12,-13],[0,-14],[-16,-22],[3,-18],[-18,-8],[-25,8],[14,-11],[-25,-1],[-9,-14],[-33,-18],[-6,9],[-22,-10],[-15,31],[-33,12],[-18,-17],[-132,-55],[-90,-36]],[[7165,2319],[-7,10],[18,14],[-17,4],[5,8],[-12,11],[17,12],[-11,8],[-26,1],[3,-17],[-19,6],[6,-9],[-19,-5],[2,9],[-15,-1],[-25,7],[-32,27],[19,7],[1,8],[-20,-1],[0,11],[-53,30],[-20,4],[-10,-12],[-24,-10],[4,-6],[-19,-4],[-34,9],[-11,20],[-13,4],[-14,-14],[-64,13],[-147,37],[-143,4]],[[6485,2504],[-44,4],[-65,1],[-26,10],[-26,19],[-28,35],[-11,54],[-13,18],[-15,7],[-69,9],[-37,-13],[-30,-4],[-13,6],[-57,-23],[-21,4],[-71,-3],[-96,12],[-46,1],[-20,4],[-21,12],[-36,11],[-51,8],[-82,33],[-37,21],[-77,28],[-62,27],[-36,19],[-61,17],[-161,21]],[[5173,2842],[-49,8],[-44,4],[-47,25],[-51,12],[-29,4],[-24,24],[29,73],[-6,95],[10,72],[15,28],[23,21],[93,36],[27,14],[26,23],[7,14],[5,35],[67,96],[51,56],[90,72],[21,22],[20,33],[26,23],[20,11],[34,12],[4,15],[-39,16],[-21,-3],[-4,13],[-29,10],[-9,15],[-26,2],[15,39],[1,25],[-50,23],[-11,17],[0,16],[-34,3],[-21,-4],[-22,25],[3,11],[-24,18],[-16,29],[-16,14],[-19,5],[2,14],[-20,21],[-16,5],[8,8],[-12,19],[10,29],[-10,25],[11,2],[-12,16],[6,6],[-22,30],[-2,17],[-10,5],[2,74],[28,4],[32,22],[23,5],[64,5],[35,25],[-10,25],[-15,18]],[[8065,5173],[-16,23],[-33,26],[-41,45],[-29,21],[-25,8],[-63,11],[-43,-3],[-36,-12],[-56,-9],[-41,-2],[-85,5],[-21,12],[-49,18],[-25,13],[-58,21],[-22,14],[-61,49],[-22,23],[-36,56],[-15,43],[-8,67],[-19,43],[-26,22],[-39,45],[-40,31],[-31,18],[-63,51],[-94,55],[-54,20],[-47,13],[-25,0],[7,12],[16,-4],[34,2],[17,23],[-10,6],[0,17],[-9,-1],[6,18],[22,7],[-11,12],[-18,-6],[-6,9],[-28,-4],[-23,19],[8,12],[-15,1],[2,13],[-39,20],[12,8],[-34,7],[13,6],[-6,13],[-18,5],[-2,12],[-12,-9],[-18,-2],[-6,11],[9,31],[-25,6],[-5,14],[-27,2],[12,17],[-33,8],[-20,-7],[-41,-1],[-17,9],[-22,-5],[9,-11],[-19,-13],[-2,13],[-18,6],[-21,-2],[-20,17],[12,13],[-12,15],[-55,-11],[-13,0],[-20,-15],[-10,2],[-20,-18],[5,-7],[-19,-13],[-92,-8],[-53,-17],[-38,-17],[-24,-2],[-47,1],[-21,9],[-18,-2],[-20,10],[-24,3],[-20,14],[-34,13],[-24,-5],[-37,6],[-53,-11],[-28,-11],[-10,-10],[-28,-13],[-76,-16],[-39,-17],[-41,-10],[-65,-5],[-52,0],[-41,3],[-38,-5],[-69,-1],[-23,5],[-38,16],[-47,32],[-33,26]],[[5219,6145],[-9,25],[18,17],[20,-7],[29,12],[6,16],[-11,18],[-17,2],[-23,25],[2,20],[-12,17],[-32,8],[-31,2],[-26,14],[-34,30],[7,25],[7,56],[12,28],[5,27],[-7,30],[-20,32],[-62,30],[-15,13],[-1,19],[16,22],[1,20],[-35,17],[-78,13],[-18,6],[-19,16],[-9,17],[6,46],[-2,17],[-14,21],[-81,77],[-26,26],[-4,30],[10,29],[33,26],[44,11],[71,11],[19,5],[10,15],[-4,28],[-16,25],[-19,21],[-41,26],[-57,18],[-38,20],[-34,45],[-25,20],[-27,15],[-56,14],[-61,2],[-33,0],[-92,-7],[-46,2],[-39,9],[-41,19],[-32,21],[-17,22],[2,39],[8,-6],[26,-3],[46,23],[21,24],[9,26],[22,17],[3,9],[34,9],[41,2],[2,11],[21,-1],[29,12],[40,-19],[39,-28],[40,-43],[23,24],[0,12],[28,9],[14,-9],[18,1],[13,9],[9,15],[-6,6],[6,16],[-2,30],[1,30],[9,4],[-9,18],[-20,19],[-39,25],[-28,12],[-73,67],[-45,35],[-72,46],[-58,15],[-88,19],[-37,-53],[-19,-18],[-61,-47],[-42,-2],[-15,-18],[-11,-27],[9,-10],[-15,-7],[19,-12],[-33,-14],[-34,2],[-14,8],[4,16],[-27,13],[-5,14],[-15,8],[7,10],[-12,19],[14,5],[-17,18],[-28,13],[-18,1],[-40,20],[-6,14],[-37,5],[-15,-16],[-7,14],[-27,-20]],[[3853,7740],[-5,5],[-53,9],[-20,24],[8,13],[-6,17],[-17,16],[10,6],[-7,9],[13,22],[-10,4],[17,11],[12,14],[-56,29],[-3,20],[7,21],[14,9],[-17,2],[-7,19],[27,10],[-4,17],[20,15],[11,51],[12,9],[-7,12],[33,37],[-10,4],[10,15],[-22,31],[20,25],[11,2],[-8,13],[8,21],[-18,5],[12,11],[-37,20],[12,9],[-31,24],[-43,3],[-15,-5],[-26,8],[-4,10],[-17,9],[-53,4],[1,14],[-14,11],[12,26],[14,2],[-8,12],[-16,2],[3,18],[-14,8],[23,26],[-12,10],[13,5],[24,26],[16,3],[23,19],[25,-3],[9,-16],[-15,-12],[5,-9],[31,-2],[24,3],[25,15],[18,2],[24,14],[1,6],[39,27]],[[3865,8557],[78,-18],[47,-6],[60,-3],[94,-17],[68,-18],[82,-8],[161,-68],[61,-39],[53,-50],[26,-20],[30,-39],[40,-43],[74,-84],[13,-13],[20,-33],[46,-47],[49,-42],[42,-50],[67,-65],[13,-18],[46,-79],[30,-36],[31,-34],[72,-65],[16,-8],[78,-69],[59,-56],[35,-22],[46,-36],[62,-43],[78,-74],[21,-10],[49,-50],[24,-37],[66,-62],[19,-21],[62,-62],[32,-28],[14,-7],[37,-36],[6,-10],[27,-17],[52,-27],[35,-7],[79,-21],[52,-34],[24,-12],[175,-69],[79,-21],[61,-21],[132,-51],[82,-30],[58,-25],[142,-50],[160,-52],[87,-30],[39,-11],[135,-55],[247,-92],[49,-16],[16,-1],[62,11],[25,0],[71,-30],[193,-85],[101,-36],[157,-66],[75,-35],[29,-8],[73,-16],[55,-21],[125,-41],[67,-24],[84,-35],[47,-25],[27,-21],[80,-70],[78,-47],[66,-45],[43,-37],[14,-32],[3,-21],[-40,-9]],[[3853,7740],[7,-18],[-9,1],[-50,-29],[-13,-15],[-35,-30],[-18,-6],[-20,15],[-85,-1],[-33,-8],[-35,12],[-47,25],[-23,7],[-41,22],[-41,29],[-20,6],[-49,-12],[-24,-13],[-18,-37],[5,-10],[-23,-8],[-20,-23],[21,-14],[-2,-18],[-44,-9],[-27,-2],[-19,-22],[-30,5],[-18,17],[-32,15],[-35,-2],[-31,-18],[-37,-1],[-38,9],[-20,1],[-18,8],[-12,18],[2,17],[13,15],[8,39],[-8,3],[-4,-20],[-28,-7],[-21,6],[-3,17],[18,9],[-1,15],[9,25],[-26,0],[4,11],[-42,-2],[-6,25],[6,12],[-19,10],[-49,-11],[9,-28],[-25,-7],[-24,7],[4,23],[-12,2],[-54,-25],[-40,-3],[-6,12],[25,8],[-14,10],[-26,-14],[-18,2],[-13,19],[9,19],[-1,15],[-13,2],[-24,-24],[-22,-4],[-50,5],[-7,14],[10,14],[31,11],[-5,7],[-46,9],[4,37],[-14,2],[-19,-15],[-12,7],[8,7],[-12,12],[21,13],[25,-10],[11,7],[-18,16],[-3,15],[14,15],[48,10],[-16,7],[-24,42],[-20,6],[-19,-8],[-5,-25],[-9,-8],[-69,21],[-28,12],[-9,-2],[-6,-18],[-29,10],[-6,47],[7,9],[14,-1],[-3,-12],[21,-9],[10,3],[17,17],[8,-4],[-7,-15],[36,-6],[14,8],[-2,20]],[[2388,8082],[15,-2],[61,23],[120,54],[20,15],[18,21],[3,11],[-38,47],[-34,15],[-20,-5],[-26,21],[6,7],[-23,21],[37,28],[2,11],[-11,11],[8,4],[-11,23],[-13,-1],[-15,13],[-28,7],[-18,17],[9,12],[-19,14],[-27,13],[-13,14],[9,20],[24,-1],[6,12],[19,-3],[22,30],[17,5],[-9,13],[25,17],[-21,29],[-18,10],[7,17],[-3,27],[12,10],[-5,18],[-14,23],[-19,19],[-47,30],[-3,8],[17,11],[42,8],[25,-1],[17,6],[-6,12],[-24,3],[-9,12],[3,12],[19,18],[33,8],[26,27],[-12,15],[-36,15],[-15,15],[2,19],[-10,9],[18,37],[6,31],[-1,46],[-16,45],[-26,42],[-25,29],[-45,44],[-44,24],[-45,11],[-89,34],[-30,16],[-104,34],[-60,35],[-64,22],[-49,22],[-45,30]],[[1846,9451],[-29,4],[-63,20],[-1,14],[-44,19],[-51,16],[-13,15],[-2,22],[-9,24],[-40,42],[-3,30],[31,30],[4,17],[-16,71],[-35,28],[1,43],[13,8],[51,2],[326,-21],[271,8],[21,5],[37,-19],[19,0],[4,29],[-7,31],[17,28],[3,17],[23,0],[-1,-14],[18,-7],[40,10],[6,-8],[16,2],[-16,22],[-13,7],[0,12],[42,19],[13,0],[64,22],[91,-70],[84,-48],[40,-25],[63,-47],[31,-35],[62,-65],[35,-40],[37,-49],[34,-57],[59,-106],[88,-141],[54,-57],[47,-88],[76,-121],[56,-87],[28,-47],[11,-13],[25,-48],[55,-87],[45,-52],[66,-53],[18,-9],[107,-49],[69,-24],[61,-24]],[[9771,2753],[-93,-131],[-21,-46],[-44,-37],[-14,-27],[-9,-28],[-20,-37],[-64,-94],[-16,-19],[-18,-35],[-11,-12],[-26,-45],[-48,-54],[-30,-27],[-31,-15],[-49,-34],[-34,-27],[-21,-20],[-28,-38],[-72,-78],[-23,-55],[-29,-53],[-4,-32],[-9,-36],[-2,-43],[7,-46],[14,-62],[4,-42],[15,-57],[17,-35],[7,-26],[-2,-63],[2,-42],[11,-44],[2,-36],[-3,-83],[1,-111],[9,-44],[19,-40],[16,-41],[31,-44],[14,-28],[25,-46],[46,-63],[103,-114],[30,-37],[21,-38],[8,-26],[15,-28],[9,-38],[-4,-30],[-16,-31],[-19,-16],[-73,-50],[-63,-39],[-94,-52],[-36,-51],[-14,-30],[-6,-27],[0,-28],[-62,11],[-32,-2],[-10,9],[-18,-5],[-8,12],[-21,0],[8,10],[-50,1],[2,23],[-13,35],[-29,42],[2,11],[-23,13],[7,22],[-3,16],[-19,6],[-20,-8],[-71,-8],[-34,-8],[-36,4],[-20,-2],[-58,-19],[-30,-5],[-2,-9],[1,-100],[2,-1],[3,-149],[-10,-14],[-64,25],[-7,10],[-20,3],[-12,-5],[-19,3],[-59,-11],[-15,18],[-13,-8],[-25,2],[-2,-6],[-49,-15],[7,-16],[-8,-27],[-27,3],[-12,17],[-12,-4],[-24,3],[-2,20],[-28,2],[3,25],[-20,6],[8,10],[-22,22],[-15,2],[-5,14],[-27,11],[18,16],[-40,14],[-29,-7],[-18,6],[2,23],[-8,-1],[-12,17],[-15,-5],[10,17],[-16,3],[-34,22],[-2,23],[-24,10],[-31,5],[-11,17],[-6,24],[10,41],[-5,29],[13,30],[2,21],[-15,28],[-31,43],[-39,18],[-13,34],[0,21],[-10,9],[-2,25]],[[7832,614],[27,26],[28,35],[18,-1],[5,8],[6,39],[29,13],[17,31],[9,27],[-6,20],[10,46],[-12,30],[-6,24],[7,14],[-17,31],[-9,7],[7,24],[11,12],[2,15],[-19,44],[-13,48],[2,28],[-1,78],[-7,50],[-13,38],[-15,29]],[[7892,1330],[26,11],[4,22],[17,11],[21,3],[10,8],[-2,18],[8,5],[37,-10],[27,1],[19,-23],[19,-3],[6,13],[-2,15],[-25,8],[0,22],[-13,13],[4,22],[-22,50],[0,20],[45,12],[15,14],[18,8],[41,47],[10,26],[48,27],[29,12],[29,-1],[28,-6],[-3,-12],[9,-17],[18,5],[23,-21],[16,-2],[15,10],[19,3],[13,14],[62,25],[12,19],[12,4],[27,-17],[32,-16],[-2,-5],[40,-6],[21,5],[6,-9],[37,-1],[12,29],[20,-3],[8,15],[30,1],[16,9],[-10,9],[21,13],[5,17],[17,4],[23,13],[-8,17],[12,8],[0,17],[13,8],[1,23],[18,24],[0,10],[17,23],[40,31],[-6,36],[11,24],[5,25],[-3,19],[14,26],[15,17],[-3,29],[-21,20],[-17,9],[10,20],[-12,23],[25,36],[17,11],[18,21],[-19,25],[-11,2],[-22,18],[-21,-2],[-47,4],[-18,9],[13,32],[17,20],[19,12],[25,25],[-14,23],[-17,16],[9,39],[-14,20],[19,37],[48,38],[2,30],[5,8],[-39,8],[-107,61],[-60,43],[-7,18],[-16,-1],[-19,-15],[-30,2],[-16,6],[-20,17],[-2,9],[-85,16],[-35,16],[-12,9],[-25,0],[-19,9],[-40,6],[-25,1],[1,25],[-17,41],[-3,26],[13,39],[-1,28],[-104,80]],[[7892,1330],[-14,3],[-6,19],[-16,6],[-33,-12],[-18,23],[0,13],[-17,19],[-8,2],[-17,-14],[-20,-8],[-21,-22],[-18,-1],[-10,21],[-14,3],[-14,-24],[-11,2],[-8,18],[19,9],[-11,13],[2,13],[42,13],[-2,7],[-20,3],[9,13],[0,25],[28,12],[1,6],[-21,24],[-12,3],[-18,-8],[-42,-3],[-9,12],[-28,9],[-32,-6],[-4,-14],[-41,1],[-21,-10],[7,23],[-25,19],[1,9],[20,2],[10,21],[26,8],[7,13],[-17,21],[-26,0],[-17,9],[8,14],[-3,13],[-32,10],[-43,9],[-18,-5],[-19,-21],[-38,-3],[-9,-10],[6,-32],[-19,-17],[-29,6],[-10,-5],[-8,-24],[-47,10],[-13,8],[-16,19],[7,32],[-4,17],[-26,12],[-24,-16],[-16,-1],[-36,9],[-17,-4],[-16,-17],[-18,4],[-1,11],[17,17],[30,16],[50,5],[46,-8],[23,5],[16,10],[12,20],[-5,12],[-68,17],[-14,7],[-22,25],[-17,39],[6,14],[25,14],[23,4],[53,3],[57,25],[24,24],[8,12],[-6,9],[-33,9],[4,13],[25,13],[3,21],[9,8],[-3,46],[-13,17],[19,-3],[-2,12],[-23,0],[-1,-27],[-12,-1],[-10,13],[-10,24],[-40,3],[-25,9],[-14,10],[-14,23],[29,12],[32,-14],[8,7],[15,-6],[20,5],[8,20],[13,0],[-1,18],[-42,14],[-11,13],[-14,0],[9,25],[14,9],[-1,-10],[31,7],[-15,15],[-22,4],[1,11],[-34,-5],[-1,19],[13,1],[29,19],[2,-10],[36,18],[2,25],[-21,8],[-12,-10],[-24,9],[-39,6],[-10,5]],[[7832,614],[-45,0],[-27,-8],[-22,8],[-53,3],[-52,-4],[-30,-14],[-22,-5],[-20,12],[0,9],[-59,10],[-33,15],[-51,1],[-21,5],[-32,-3],[-63,-13],[-42,1],[-42,-6],[-59,9],[-19,-1],[-24,-13],[-30,-4],[-46,16],[-43,1],[-37,14],[-19,16],[-42,0],[-19,-21],[-24,-12],[-41,0],[-84,20],[-54,-17],[-41,3],[-31,-7],[-33,-45],[-16,-3],[-46,1],[-26,-15],[-23,-4],[-32,5],[-21,-5],[-29,-24],[-22,-12],[-20,-1],[-61,19],[-53,0],[-64,-6],[-81,-2],[-9,3],[-72,37],[-14,13],[-33,21],[-61,26],[-29,-4],[-31,-18],[0,-6],[39,-9],[29,-10],[66,-68],[16,-5],[27,-32],[13,-30],[0,-11],[-21,1],[-6,9],[-21,-13],[-17,13],[-17,4],[7,-23],[-16,13],[-45,-8],[18,37],[1,27],[-18,34],[-26,25],[-70,32],[-32,0],[-27,-8],[-8,-23],[45,-24],[7,-9],[-7,-28],[-17,-21],[5,-17],[-3,-22],[-26,-9],[-18,6],[4,-13],[-20,-13],[-2,-30],[6,-15],[15,-12],[-10,-12],[-41,5],[-35,16],[-6,13],[41,49],[8,21],[-1,18],[-14,26],[-18,41],[31,19],[-4,6],[-30,5],[-4,7],[-17,0],[-19,-22],[-19,-6],[-12,-12],[11,-14],[-6,-12],[13,-28],[1,-22],[-11,-8],[-23,3],[-23,22],[3,18],[-14,12],[-11,-2],[-13,-13],[-21,0],[16,18],[-29,1],[6,11],[24,14],[20,3],[9,12],[-10,6],[7,12],[-7,9],[10,12],[-18,7],[-47,-27],[-31,-1],[-6,41],[5,8],[68,25],[31,17],[26,6],[36,4],[-7,25],[-29,18],[-48,35],[-50,15],[-29,14],[-9,33],[-54,16],[-47,23],[-24,7],[-43,5],[-44,-3],[-28,27],[-9,2],[-16,-71],[-16,-29],[0,-12],[-34,-16],[-1,-39],[-39,-30],[-5,-40],[5,-28],[33,-42],[10,-32],[13,-16],[41,-24],[36,-35],[-2,-28],[-13,-11],[-33,-19],[-20,5],[-33,-6],[-38,1],[-19,10],[-23,37],[-27,12],[-26,26],[-1,10],[-21,21],[-36,24],[-19,22],[-17,4],[5,11],[-7,18],[3,10],[-10,10],[-32,8],[-28,2],[-90,-13],[-33,2],[-53,15],[1,26],[13,21],[-1,43],[-36,15],[-41,8],[-47,0],[-30,-4],[-27,-9],[-42,-9],[-131,-8],[-34,-7],[-55,8],[-17,-1],[-72,-14],[4,-43],[-23,-16],[-47,-6],[-17,-25],[-31,-19],[-20,-40],[-27,-18],[-1,-16],[-14,-9],[-9,-28],[13,-20],[-15,-16],[-10,-1],[-33,-22],[-34,-8],[-19,-11],[-18,18],[-2,16],[-21,13],[-8,17],[-10,3],[-8,16],[-13,6],[-2,18],[-9,0],[-13,32],[2,14],[-34,2],[-12,-7],[-21,9],[-36,0],[-10,-7],[-11,5],[16,28],[-8,14],[-38,12],[-32,-2],[-10,5],[-42,-1],[-12,7],[-25,-2],[-29,13],[-15,19],[-2,17],[-24,17],[-32,2],[-63,-12],[-35,4],[13,21],[-6,12],[7,13],[-7,8],[13,23],[31,37],[-6,30],[7,21],[-11,15],[3,10],[-11,13],[13,80],[27,18],[32,2],[21,9],[91,64],[6,16],[155,45],[42,8],[38,16],[29,-7],[51,3],[39,-4],[20,-5],[46,-2],[22,16],[-4,18],[25,19],[20,36],[28,38],[6,17],[10,2],[22,39],[-4,9],[15,7],[22,34],[4,33],[9,13],[62,46],[-6,21],[-36,33],[0,17],[13,6],[21,-8],[1,11],[26,-6],[2,9],[25,-1],[52,-17],[48,3],[13,7],[-1,21],[9,-1],[21,24],[67,8],[12,-1],[7,18],[22,-6],[31,1],[16,6],[12,-10],[26,17],[-16,2],[18,10],[8,-3],[18,13],[-15,4],[5,17],[-15,1],[-1,16],[24,13],[-2,14],[16,14],[-14,25],[22,16],[19,2],[-18,13],[14,7],[34,-1],[-2,12],[19,7],[31,-10],[25,-3],[16,5],[15,13],[16,5],[16,-6],[23,18],[15,4],[0,27],[21,3],[20,11],[38,-4],[9,-11],[22,5],[9,-6],[-2,17],[18,-4],[31,18],[10,-15],[29,0],[-6,26],[12,10],[19,-3],[22,11],[25,-7],[8,13],[-13,0],[23,27],[-2,11],[-22,-5],[-20,3],[-8,11],[20,10],[-7,16],[-12,7],[20,10]],[[5026,2000],[20,6],[6,-14],[18,10],[8,19],[19,1],[19,9],[22,-8],[-1,-7],[24,4],[10,-17],[18,4],[29,-8],[3,7],[-29,5],[16,18],[13,-9],[12,6],[28,-8],[-2,-15],[-17,-15],[3,-21],[10,-22],[-2,-14],[22,-3],[9,-13],[-5,-12],[9,-18],[-15,-11],[-29,10],[-12,-18],[18,-1],[7,-7],[-39,-12],[10,-20],[-12,-13],[6,-12],[12,0],[31,16],[21,-5],[8,-15],[36,-3],[13,-16],[17,2],[12,-10],[-5,-10],[19,-14],[57,-12],[31,4],[18,7],[10,14],[84,16],[75,11],[58,19],[30,6],[15,7],[71,22],[67,23],[59,15],[18,9],[32,25],[32,14],[91,33],[0,7],[24,-2],[0,-7],[32,3],[-6,24],[-11,0],[-1,13],[-20,8],[13,21],[20,70],[18,15],[15,3],[97,0],[140,24],[28,10],[32,2],[68,21],[39,10],[0,14],[12,18],[-6,16],[-19,11],[-16,23],[-8,24],[-17,10],[-9,46],[-15,22],[-1,17],[-17,28],[-9,33],[-22,37],[-10,24]],[[5219,6145],[-20,-11],[-16,1],[-28,-15],[-1,7],[-29,11],[-58,8],[-46,-1],[-30,-14],[0,-12],[-21,-9],[-3,-17],[-13,-1],[-38,-35],[14,-5],[14,-20],[-4,-15],[23,-10],[-69,3],[-76,-9],[-37,4],[-40,66],[-53,24],[-21,15],[-7,10],[14,18],[-12,5],[-20,-6],[-13,-12],[3,-12],[-22,-5],[11,-32],[-23,-5],[-3,-15],[13,-8],[-17,-5],[17,-24],[-16,-15],[-18,-2],[2,-15],[-14,-8],[-4,-13],[-40,-1],[-4,-11],[-22,-1],[-11,-14],[-62,-5],[-61,8],[-55,1],[-52,-12],[-22,-14],[-37,-11],[-18,6],[-39,34],[-25,30],[7,11],[-14,24],[-13,-6],[-17,13],[2,21],[-19,11],[-28,-17],[-8,10],[-12,-13],[-25,2],[2,-18],[-17,4],[-18,17],[-2,-6],[-28,8],[-7,-12],[-23,-4],[0,-8],[-20,-4],[-36,9],[-3,25],[-148,20],[-25,-23],[-33,-20],[-31,-15],[-21,-32],[-31,-31],[-11,-1],[-97,-25],[3,-26],[-14,-44],[10,-35],[-11,-37],[-31,24],[-15,-1],[-55,24],[-34,8],[-105,-37],[-26,-8],[-26,3],[-67,1],[-54,-4],[-99,1],[-39,-2],[-80,3],[-57,4],[-95,25],[-61,-17],[-34,-6],[-58,-4],[-70,-3],[-32,1]],[[2384,5786],[-61,1],[-40,16],[-9,14],[-10,3],[-66,-6],[-42,16],[-33,9],[-74,39],[-22,14],[0,18],[-31,14],[-20,-6],[-29,-28],[0,-8],[-22,-8],[-6,-9],[-53,8],[-22,-7],[-9,-20],[-21,-5],[-27,13],[-3,6],[-38,14],[8,35],[36,17],[-1,18],[12,17],[-1,17],[-15,34],[-14,10],[14,9],[25,-6],[-7,11],[-33,11],[-4,14],[-23,7],[-5,13],[29,-6],[10,3],[-3,16],[22,8],[21,-9],[12,4],[-18,20],[12,4],[31,-13],[5,12],[-24,3],[-35,14],[8,9],[43,-10],[12,9],[0,14],[-26,7],[6,12],[42,-3],[5,9],[-12,6],[-23,29],[8,30],[-11,-2],[-19,-14],[-24,6],[18,17],[40,13],[-6,-9],[17,-5],[20,16],[-3,15],[18,1],[-3,-12],[17,0],[10,14],[14,-3],[-12,-31],[23,-4],[12,-15],[44,-2],[18,-12],[7,8],[-9,10],[20,4],[15,-11],[4,13],[-31,9],[26,24],[28,-23],[36,10],[6,-16],[21,-2],[6,-14],[20,-4],[14,6],[22,17],[5,30],[-10,21],[-30,18],[1,18],[15,13],[-44,4],[-1,10],[38,5],[10,17],[10,1],[72,-24],[23,-23],[43,-6],[-35,-5],[-2,-7],[19,-19],[-11,-6],[-30,7],[-16,-17],[11,-15],[-14,-15],[27,-14],[22,2],[39,40],[60,3],[0,-7],[-37,-8],[12,-10],[52,8],[39,23],[-3,13],[15,7],[10,14],[10,0],[25,-14],[13,-1],[12,16],[-6,29],[-25,13],[7,8],[53,11],[6,21],[8,4],[-252,-3],[-117,29],[-52,20],[-62,37],[-26,10],[-25,3],[-60,-14],[-87,2],[-32,3],[-89,22],[-40,21],[-56,46],[-46,23],[-27,10],[-29,2],[-39,21],[-67,10],[-11,5],[-20,-3],[-71,10],[-51,24],[-14,16],[-36,19],[-11,19],[3,25],[-6,24],[-14,14],[-8,20],[-25,15],[-2,27],[-31,23],[-21,5],[-10,12],[-20,7],[-17,23],[-7,18],[-53,27]],[[1083,6990],[-12,1],[-14,12],[33,8],[-4,17],[19,17],[-13,3],[-5,13],[-17,-1],[14,15],[-4,15],[9,3],[-1,24],[40,-3],[-10,13],[7,10],[-10,9],[52,15],[6,-11],[-15,-5],[13,-13],[13,7],[19,0],[2,8],[-17,0],[1,7],[38,-12],[11,13],[-33,9],[-20,-2],[-16,9],[25,16],[7,13],[22,2],[17,20],[-15,13],[12,16],[-34,-14],[-7,-24],[-14,8],[-42,-3],[-3,-9],[-39,9],[-8,-7],[-19,6],[-2,16],[15,6],[-29,11],[1,21],[-7,13],[-24,22],[19,12],[3,10],[15,3],[75,-6],[16,8],[17,21],[-40,27],[-32,-9],[-19,0],[-18,11],[19,15],[43,-1],[32,4],[8,8],[-5,26],[-45,-6],[-18,6],[-11,11],[-6,19],[7,17],[-57,27],[-12,18],[-32,37],[-40,22],[-2,18],[22,12],[24,-8],[0,-29],[13,-12],[16,-4],[24,2],[10,12],[-5,25],[4,32],[-9,45],[-13,27]],[[1028,7706],[7,6],[25,0],[32,-13],[70,-8],[19,-12],[-24,-34],[-47,-27],[-2,-6],[36,-29],[28,-12],[60,-9],[16,2],[34,14],[5,17],[-8,24],[6,17],[45,21],[10,-3],[19,16],[45,-5],[41,13],[28,4],[10,7],[14,-4],[27,31],[13,10],[32,10],[27,26],[-9,34],[-22,20],[19,43],[26,25],[16,3],[-4,8],[8,19],[30,10],[3,7],[24,1],[-2,12],[-14,18],[26,0],[13,14],[16,3],[-3,21],[19,2],[20,20],[0,8],[108,41],[17,9],[14,-4],[-7,11],[20,6],[9,9],[8,-10],[16,5],[4,-18],[16,0],[7,13],[27,4],[3,-13],[8,7],[30,6],[7,-9],[14,10],[23,4],[1,-14],[16,2],[-4,8],[22,-2],[4,17],[19,1],[10,-10],[9,24],[19,7],[17,-8],[2,8],[15,-15],[43,4],[0,-13],[-11,-15],[22,-5],[29,10],[15,14],[11,-2],[31,-30],[32,0]],[[2384,5786],[6,-27],[17,-28],[14,-36],[16,-30],[8,-42],[9,-30],[16,-37],[21,-32],[35,-68],[-2,-14],[-13,-34],[-17,-31],[3,-22],[9,-9],[23,-5],[18,-17],[30,-15],[20,-29],[26,3],[8,-10],[-12,-40],[5,-14],[-15,-6],[8,-20]],[[2617,5193],[-36,-24],[8,-4],[-31,-1],[14,-21],[-27,0],[-20,7],[-13,-9],[-10,14],[3,17],[-14,2],[-11,-25],[-27,-8],[3,-5],[-36,8],[10,14],[-30,12],[15,4],[-10,18],[-17,-9],[-33,-6],[-47,16],[-27,-22],[18,-5],[-3,-12],[-17,-3],[2,-11],[28,-19],[-27,-17],[6,-9],[18,-2],[12,-14],[43,0],[-18,-16],[-58,16],[-80,2],[-65,13],[-18,-2],[-45,-23],[-10,-24],[16,-3],[-22,-7],[-8,-8],[19,2],[23,-9],[-2,-6],[-36,-12],[-39,-4],[-7,4],[-2,25],[-18,10],[-22,-6],[-20,-25],[19,-32],[21,-1],[0,-11],[27,2],[22,11],[19,-8],[23,-32],[-2,-22],[-15,-13],[-23,-3],[-40,5],[-8,6],[2,17],[-29,10],[-34,-9],[-24,-16],[41,-28],[5,-12],[-33,-40],[-58,-10],[-24,-17],[-28,-11],[-38,7],[-14,17],[10,23],[-5,24],[-36,24],[26,36],[2,15],[-19,10],[-12,-15],[-40,-7],[-24,5],[-15,10],[-14,-27],[-21,-22],[-13,-5],[-22,4],[-21,-3],[-22,4],[-3,10],[37,31],[3,17],[-14,20],[-16,5],[-52,1],[-26,-20],[-20,-6],[-19,19],[-39,16],[-25,-13],[-28,2],[-7,-6],[31,-20],[31,-4],[-2,-18],[-33,-29],[-15,-23],[2,-5],[32,-9],[32,29],[22,4],[29,-15],[2,-13],[-25,-17],[4,-37],[-15,-15],[-6,-17],[-11,1],[-16,-20],[-30,-6],[-33,0],[-29,10],[-12,14],[43,38],[-8,17],[-49,14],[-52,41],[-46,15],[-17,-3],[8,-51],[-25,-9],[-22,-21],[-3,-23],[9,-7],[31,0],[4,-9],[-37,-14],[-15,3],[-5,17],[-14,8],[-33,10],[-7,6],[-2,24],[-20,33],[-37,-1],[-28,-6],[-23,13],[-14,-3],[-9,9],[10,20],[17,14],[-2,7],[-25,21],[-20,2],[-13,15],[-20,9],[-3,11],[-16,11],[-7,26],[-28,4],[-3,17],[-25,8],[-12,23],[-19,-2],[-9,16],[-17,2],[11,6],[-7,9],[-15,1],[-6,11],[-23,9],[5,12],[-11,8],[19,7],[-18,8],[6,11],[-21,14],[18,8],[-14,15],[-23,5],[7,6],[-32,17],[-8,11],[-15,-3],[-14,13],[-21,9],[20,26],[-11,19],[13,1],[-7,13],[-28,29],[-27,10],[7,13],[-26,7],[-7,14],[-14,0],[-3,12],[-25,2],[-11,9],[6,15],[-30,18],[6,17],[-13,18],[-3,15],[-23,27],[-15,40],[-10,36],[-1,21],[-16,13],[-2,16],[41,7],[83,3],[22,22],[-1,23],[25,28],[-2,30],[10,22],[27,7],[14,9],[10,15],[21,7],[2,11],[20,34],[22,27],[-6,29],[15,7],[1,10],[16,-1],[14,9],[28,7],[17,25],[3,19],[-20,18],[-11,33],[-13,55],[-11,60],[-16,69],[1,42],[9,15],[35,23],[29,8],[51,8],[18,0],[40,15],[20,25],[5,23],[-2,26],[14,12],[6,19],[-6,30],[12,41],[-26,8],[-24,35],[-23,21],[-16,9],[-6,13],[-35,24],[-35,-3],[-23,11],[-5,39],[-15,13],[-48,16],[-12,12],[-3,15],[8,14],[-3,37],[19,34],[17,3],[-7,17],[21,18],[-38,13],[18,6],[-12,12],[-17,4],[-47,-11],[-4,5],[17,11],[20,1],[1,23],[25,-10],[6,-9],[31,-2],[8,-12],[9,9],[33,7],[-30,4],[8,8],[21,-5],[27,31],[9,2],[31,-14],[-8,-24],[44,-28],[11,17],[41,0],[19,22],[18,-12],[33,20],[17,-4],[31,4],[-9,16],[21,-2],[4,-13],[16,1],[2,9],[19,-8],[3,21],[-19,5],[1,16],[17,-9],[-3,20],[17,4],[0,-12],[22,-6],[7,21]],[[5220,4644],[9,15],[-17,23],[-5,23],[9,8],[-11,9],[-19,-2],[-14,13],[-3,13],[13,11],[-21,13],[-10,16],[7,20],[18,8],[-1,14],[16,23],[-10,9],[1,13],[9,-4],[18,6],[8,23],[18,4],[17,19],[-20,29],[2,8],[-28,8],[-1,17],[-17,5],[17,10],[-13,27],[25,10],[7,15],[15,1],[26,14],[-10,21],[16,2],[3,22],[-14,5],[17,10],[-7,8],[-40,8],[3,33],[-34,4],[-13,-7],[-15,7],[3,10],[-31,-9],[-55,-3],[4,8],[-12,12],[-10,-7],[-36,-6],[-7,-23],[-15,9],[-28,-15],[5,-11],[-19,-1],[-9,-9],[23,0],[22,-9],[-15,-10],[7,-9],[-6,-11],[15,2],[7,-16],[-27,1],[-12,-9],[-23,4],[-17,12],[-15,-1],[-9,-25],[-15,-5],[-27,6],[-63,30],[-29,22],[-43,9],[-61,4],[-115,2],[-26,-2],[-72,8],[-36,1],[-50,-3],[-41,2],[-35,11],[-27,23],[-21,4],[-49,0],[-43,2],[-87,38],[-114,3],[-18,-3],[-44,-16],[-146,12],[-40,5],[-30,-5],[-58,-17],[-32,-15],[-48,-14],[-47,-18],[-32,-19],[-17,0],[-4,-13],[-16,0],[-16,-10],[-33,-10],[-32,-1],[-78,-12],[-28,2],[-54,12],[-63,-8],[-58,-13],[-63,-8],[-63,3],[-49,10],[-26,13],[-19,4],[-53,-16],[-4,-9],[-18,13],[-29,-4],[-3,14],[-21,0],[-16,6],[-1,29],[7,13],[-10,14],[-20,-6],[-5,20],[-29,3],[3,12],[-27,8]],[[1028,7706],[-18,28],[-4,28],[-21,7],[-16,-4],[-3,-33],[-13,-17],[-21,-11],[-49,-12],[-29,-11],[-21,4],[-12,25],[12,23],[-6,41],[19,4],[40,-1],[23,4],[21,10],[7,21],[-6,19],[-21,20],[-75,49],[-41,17],[-49,12],[-42,14],[-109,-5],[-21,-6],[7,-37],[-8,-19],[4,-27],[-17,-11],[-25,3],[-22,12],[-13,18],[-18,59],[-11,26],[-11,15],[-24,20],[-31,17],[-11,23],[4,34],[-8,13],[-25,15],[-22,32],[12,28],[24,6],[71,-3],[28,13],[-7,34],[-11,17],[-25,27],[0,16],[-9,10],[-55,4],[-8,7],[2,18],[18,-5],[20,21],[-14,1],[6,12],[-25,8],[-31,-10],[-1,9],[18,9],[26,4],[17,18],[-19,8],[-10,16],[-18,11],[20,4],[10,10],[-17,5],[17,12],[-62,6],[16,15],[-55,3],[-3,17],[-22,13],[5,15],[-51,9],[-13,17],[21,1],[8,17],[-17,3],[20,6],[-20,11],[25,-2],[21,10],[-14,13],[-26,-8],[-34,24],[-25,0],[-12,19],[-18,2],[-20,-6],[-49,23],[-12,18],[-10,1],[-1,-13],[-31,8],[-2,9],[29,15],[22,-4],[11,8],[-6,11],[-27,21],[-2,6],[26,5],[19,-17],[11,7],[-35,16],[-9,8],[3,16],[19,-6],[21,17],[-49,0],[3,13],[23,11],[10,-7],[24,-1],[-3,16],[16,16],[25,16],[-6,15],[20,-1],[1,14],[-9,29],[34,16],[16,-2],[-3,19],[9,9],[-15,0],[20,12],[12,-10],[24,-5],[9,4],[38,-3],[37,5],[20,-2],[39,9],[30,19],[-3,13],[-15,4],[24,13],[-4,12],[31,-2],[22,8],[-10,11],[42,4],[23,18],[28,-1],[8,20],[12,10],[34,9],[29,-7],[19,0],[23,-11],[49,5],[32,-10],[37,1],[9,17],[20,-6],[13,-17],[25,-15],[49,0],[11,8],[24,-12],[2,-13],[25,10],[15,-15],[-29,-8],[-4,-6],[17,-19],[-9,-11],[25,-9],[42,0],[14,11],[16,0],[12,-24],[-38,-14],[9,-43],[-24,-15],[25,-14],[35,-8],[-9,-11],[6,-7],[-20,-2],[14,-13],[39,13],[25,13],[54,37],[95,70],[28,18],[65,48],[36,29],[37,21],[51,24],[55,9],[55,16],[46,19],[68,34],[35,68],[16,41],[38,40],[7,23],[-6,23],[12,24],[25,25],[7,17],[-5,17]],[[5026,2000],[-25,24],[-16,-7],[-7,11],[-7,-8],[-18,2],[-5,-8],[14,-11],[-29,2],[-16,6],[-17,-11],[-9,13],[-29,3],[18,16],[11,19],[-21,16],[18,16],[-10,11],[-21,-6],[-5,6],[-26,4],[-7,9],[-41,1],[4,9],[-23,4],[11,5],[-29,6],[6,15],[-30,-3],[3,17],[-17,-6],[-43,7],[-2,10],[-22,5],[-2,7],[-21,2],[2,9],[22,13],[-14,1],[-2,25],[-24,-2],[8,14],[-46,-15],[-2,-8],[18,-7],[-21,1],[-11,-10],[5,-12],[-20,-3],[1,12],[-20,6],[-13,-7],[-15,44],[-4,27],[15,8],[1,12],[20,-7],[22,12],[13,-13],[17,0],[13,16],[31,9],[-12,18],[8,13],[-15,18],[31,7],[-8,17],[-18,-4],[-15,32],[4,6],[16,-9],[0,21],[-19,14],[21,-3],[7,8],[-26,9],[6,17],[-20,17],[36,10],[5,23],[29,29],[-2,8],[20,15],[18,-13],[27,2],[13,-8],[21,-1],[37,13],[11,-5],[20,8],[5,14],[12,5],[7,13],[29,3],[69,13],[18,12],[24,-5],[-4,22],[20,52],[0,9],[-28,3],[41,30],[36,31],[20,5],[37,26],[16,15],[67,21]]],"transform":{"scale":[0.00008256626022602455,0.0001236746769676938],"translate":[103.98169759600007,16.787116707000052]},"objects":{"Nakhon Phanom":{"type":"GeometryCollection","geometries":[{"arcs":[[0,1,2,3,4,5,6]],"type":"Polygon","properties":{"Shape_Leng":1.90375459031,"Shape_Area":0.0671435078069,"ADM2_EN":"Mueang Nakhon Phanom","ADM2_TH":"เมืองนครพนม","ADM2_PCODE":"TH4801","ADM1_EN":"Nakhon Phanom","ADM1_TH":"นครพนม","ADM1_PCODE":"TH48","ADM0_EN":"Thailand","ADM0_TH":"ประเทศไทย","ADM0_PCODE":"TH"}},{"arcs":[[-3,7,8,9,10]],"type":"Polygon","properties":{"Shape_Leng":1.36649686382,"Shape_Area":0.0466886533095,"ADM2_EN":"Pla Pak","ADM2_TH":"ปลาปาก","ADM2_PCODE":"TH4802","ADM1_EN":"Nakhon Phanom","ADM1_TH":"นครพนม","ADM1_PCODE":"TH48","ADM0_EN":"Thailand","ADM0_TH":"ประเทศไทย","ADM0_PCODE":"TH"}},{"arcs":[[-6,11,12,13,14]],"type":"Polygon","properties":{"Shape_Leng":1.89141970341,"Shape_Area":0.0476296235173,"ADM2_EN":"Tha Uthen","ADM2_TH":"ท่าอุเทน","ADM2_PCODE":"TH4803","ADM1_EN":"Nakhon Phanom","ADM1_TH":"นครพนม","ADM1_PCODE":"TH48","ADM0_EN":"Thailand","ADM0_TH":"ประเทศไทย","ADM0_PCODE":"TH"}},{"arcs":[[-14,15,16,17]],"type":"Polygon","properties":{"Shape_Leng":1.18653044081,"Shape_Area":0.0258895482207,"ADM2_EN":"Ban Phaeng","ADM2_TH":"บ้านแพง","ADM2_PCODE":"TH4804","ADM1_EN":"Nakhon Phanom","ADM1_TH":"นครพนม","ADM1_PCODE":"TH48","ADM0_EN":"Thailand","ADM0_TH":"ประเทศไทย","ADM0_PCODE":"TH"}},{"arcs":[[-1,18,19,20]],"type":"Polygon","properties":{"Shape_Leng":1.26923199116,"Shape_Area":0.0292259212734,"ADM2_EN":"That Phanom","ADM2_TH":"ธาตุพนม","ADM2_PCODE":"TH4805","ADM1_EN":"Nakhon Phanom","ADM1_TH":"นครพนม","ADM1_PCODE":"TH48","ADM0_EN":"Thailand","ADM0_TH":"ประเทศไทย","ADM0_PCODE":"TH"}},{"arcs":[[-2,-21,21,-8]],"type":"Polygon","properties":{"Shape_Leng":0.932255041367,"Shape_Area":0.0190375232124,"ADM2_EN":"Renu Nakhon","ADM2_TH":"เรณูนคร","ADM2_PCODE":"TH4806","ADM1_EN":"Nakhon Phanom","ADM1_TH":"นครพนม","ADM1_PCODE":"TH48","ADM0_EN":"Thailand","ADM0_TH":"ประเทศไทย","ADM0_PCODE":"TH"}},{"arcs":[[-9,-22,-20,22,23]],"type":"Polygon","properties":{"Shape_Leng":2.0195560264,"Shape_Area":0.054107812742,"ADM2_EN":"Na Kae","ADM2_TH":"นาแก","ADM2_PCODE":"TH4807","ADM1_EN":"Nakhon Phanom","ADM1_TH":"นครพนม","ADM1_PCODE":"TH48","ADM0_EN":"Thailand","ADM0_TH":"ประเทศไทย","ADM0_PCODE":"TH"}},{"arcs":[[-13,24,25,26,27,-16]],"type":"Polygon","properties":{"Shape_Leng":2.13083922245,"Shape_Area":0.0650892028143,"ADM2_EN":"Si Songkhram","ADM2_TH":"ศรีสงคราม","ADM2_PCODE":"TH4808","ADM1_EN":"Nakhon Phanom","ADM1_TH":"นครพนม","ADM1_PCODE":"TH48","ADM0_EN":"Thailand","ADM0_TH":"ประเทศไทย","ADM0_PCODE":"TH"}},{"arcs":[[-26,28,29]],"type":"Polygon","properties":{"Shape_Leng":1.52192374462,"Shape_Area":0.0298577759026,"ADM2_EN":"Na Wa","ADM2_TH":"นาหว้า","ADM2_PCODE":"TH4809","ADM1_EN":"Nakhon Phanom","ADM1_TH":"นครพนม","ADM1_PCODE":"TH48","ADM0_EN":"Thailand","ADM0_TH":"ประเทศไทย","ADM0_PCODE":"TH"}},{"arcs":[[-5,30,-29,-25,-12]],"type":"Polygon","properties":{"Shape_Leng":1.62392761684,"Shape_Area":0.0486698582619,"ADM2_EN":"Phon Sawan","ADM2_TH":"โพนสวรรค์","ADM2_PCODE":"TH4810","ADM1_EN":"Nakhon Phanom","ADM1_TH":"นครพนม","ADM1_PCODE":"TH48","ADM0_EN":"Thailand","ADM0_TH":"ประเทศไทย","ADM0_PCODE":"TH"}},{"arcs":[[-17,-28,31]],"type":"Polygon","properties":{"Shape_Leng":1.14112053748,"Shape_Area":0.0275228111412,"ADM2_EN":"Na Thom","ADM2_TH":"นาทม","ADM2_PCODE":"TH4811","ADM1_EN":"Nakhon Phanom","ADM1_TH":"นครพนม","ADM1_PCODE":"TH48","ADM0_EN":"Thailand","ADM0_TH":"ประเทศไทย","ADM0_PCODE":"TH"}},{"arcs":[[-10,-24,32]],"type":"Polygon","properties":{"Shape_Leng":0.688367800114,"Shape_Area":0.0140865887691,"ADM2_EN":"Wang Yang","ADM2_TH":"วังยาง","ADM2_PCODE":"TH4812","ADM1_EN":"Nakhon Phanom","ADM1_TH":"นครพนม","ADM1_PCODE":"TH48","ADM0_EN":"Thailand","ADM0_TH":"ประเทศไทย","ADM0_PCODE":"TH"}}]}}}