{"type":"Topology","arcs":[[[7031,5388],[-10,-39],[-14,-3],[-9,11],[-15,45],[-13,-7],[0,-36],[-12,-10],[-22,30],[-15,1],[-2,-34],[-18,-3],[-8,43],[-13,-13],[4,-42],[-25,-18],[-7,-23],[-9,18],[-11,-4],[3,-31],[-25,-14],[-12,23],[-25,-5],[2,18],[17,0],[2,20],[-11,23],[-12,1],[-16,-17],[-9,1],[7,-47],[-9,-38],[-10,-21],[-24,-14],[-11,12],[-9,30],[-13,-23],[-21,6],[-17,-13],[-20,1],[-28,-42],[-9,-3],[-28,14],[-24,-32],[-18,-3],[-4,20],[-22,22],[15,59],[-19,-15],[-8,18],[-5,43],[13,26],[-1,11],[-20,-5],[3,-27],[-10,-45],[-41,15],[-13,31],[-13,-16],[19,-57],[11,-7],[-2,-25],[-20,-38],[-8,17],[-15,-14],[7,-25],[-10,-10],[-23,11],[-3,-56],[-10,-13],[-25,6],[-17,-55],[-11,25],[-14,5],[-5,-13],[6,-50],[7,-8],[20,6],[11,-8],[-6,-14],[-24,-10],[2,-27],[15,13],[14,-6],[4,-30],[-19,-46],[-33,18],[0,-29],[-5,-51],[-15,-26],[-18,18],[-5,41],[-15,25],[-13,-7],[-3,-38],[-20,-7],[-24,-41],[-20,-16],[-15,-37],[-14,18],[6,26],[16,4],[5,40],[11,28],[-17,-1],[-20,40],[-15,-9],[-34,-7],[8,-38],[-6,-26],[13,-31],[14,-7],[3,-14],[-12,-78],[-16,-28],[-15,-41],[-22,-13],[-9,11],[-9,-34],[-11,-5],[-24,-33],[-8,28],[4,22],[-16,3],[4,-38],[-23,-11],[20,-44],[9,26],[14,-3],[10,-35],[31,15],[18,3],[18,27],[9,2],[3,-25],[14,-38],[16,-4],[15,-47],[18,-27],[1,-34],[-11,-19],[5,-32]],[[6108,4279],[-7,1],[-9,-23],[4,-12],[-5,-26],[-25,18],[-20,-4],[4,-37],[-10,5],[-26,-35],[3,-24],[-16,-5],[7,-52],[0,-41],[-15,0],[-3,-39],[5,-12],[-10,-26],[5,-26],[19,12],[-2,-12],[22,-19],[-14,-19],[15,-17],[-12,-30],[11,-5],[4,-43],[-26,-24],[12,1],[7,-36],[1,-45],[-16,9],[-1,-27],[-12,-4],[7,18],[-22,7],[0,-26],[-17,1],[4,-30],[6,14],[6,-39],[-20,-3],[22,-24],[-17,-9],[-3,-16],[8,-18],[7,12],[17,-17],[-8,-20],[-9,-1],[-16,-19],[1,19],[-13,-2],[3,-18],[-14,11],[-11,-12],[-5,-28],[-17,20],[-1,-43],[-8,25],[-5,-35],[-7,16],[-9,-5],[0,-52],[-15,5],[6,20],[-17,24],[-4,-16],[-18,-20],[-17,-8],[12,-27],[6,-29],[31,-58],[1,-24],[-39,-35],[-16,22],[-30,-16],[-14,-14],[-15,-30],[6,-25],[26,19],[6,-23],[-26,-26],[-3,-12],[17,-22],[7,-34],[-14,-26],[-18,39],[-14,-38],[-13,12],[-17,2],[-14,27],[-13,-5],[14,-60],[12,-4],[19,8],[11,-55],[20,-9],[20,21],[17,6],[14,-40],[-7,-6],[-7,-58],[9,-14],[-2,-21],[-16,-2],[-11,-28],[0,-17],[25,-10],[-11,-16],[4,-12],[15,7],[34,-44],[20,-33],[1,-20],[-12,-22],[-25,23],[-15,-2],[9,-26],[2,-39],[21,-28],[15,9],[12,-15],[-4,-21],[16,13],[7,-10],[-4,-31],[-7,-18],[2,-56],[-26,31],[-6,-22],[8,-32],[10,16],[4,-36],[-18,-30],[-15,-1],[-12,-27],[19,-31],[-9,-15],[4,-21],[13,-20],[-2,-30],[7,-2],[3,-52],[-7,-11],[-20,7],[-11,-25],[-4,-26],[-12,5],[0,-24],[-9,3],[6,-35],[14,10],[0,-33],[38,-48],[-19,-23],[8,-15],[-2,-55],[10,-4],[7,-25],[-20,-25],[-7,7],[-32,-91],[-18,-19],[-19,-34],[-8,-5],[-10,15],[-1,-18],[-11,-6],[14,-65],[-3,-20],[8,-17],[-6,-27],[7,-15],[-4,-47],[-13,-21],[-2,-35],[-20,-36],[3,-27],[-34,-24],[-5,-13],[-31,-3],[2,-23],[-13,6],[-25,-36],[-38,-12],[-7,-16],[-28,6],[-3,-13],[-20,9],[-5,-15],[-34,26],[-8,0]],[[5464,1295],[-5,12],[21,34],[-9,7],[17,40],[-6,25],[10,18],[-12,38],[-34,41],[-55,42],[6,41],[-21,16],[8,58],[-2,63],[-13,13],[-23,-9],[-18,-22],[-12,129],[-48,10],[-44,-11],[-4,44],[6,28],[-15,25],[-4,34],[-13,6],[4,15],[-2,55],[-7,40],[-21,17],[-28,32],[-41,11],[-2,19],[-25,6],[-11,-12],[-15,72],[-25,17],[2,51],[-5,10],[-25,3],[-1,16],[-10,1],[-4,18],[-28,4],[-12,23],[-9,2],[13,-29],[-30,-134],[-2,-45],[-9,-12],[-1,-20],[10,-8],[2,-33],[11,-15],[10,-42],[-8,-56],[-16,-13],[-40,-2],[-24,-9],[-61,-11],[-24,-14],[4,-31],[31,-105],[3,-42],[17,-122],[3,-62],[-6,-31],[-1,-65],[-30,18],[-26,8],[-66,9],[-26,17],[-41,7],[-13,-7],[-11,13],[-1,48],[-18,50],[-67,3],[-32,12],[-10,12],[-20,-23],[-15,18],[-19,-10],[2,-34],[-7,7],[-15,-21],[2,-16],[-9,-12]],[[4389,1575],[8,55],[26,128],[14,118],[16,99],[10,50],[18,99],[5,49],[10,33],[4,81],[-3,44],[-5,135],[-11,125],[-26,66],[-28,44],[-5,22],[-10,-2],[-4,34],[-10,32],[-3,-18],[-14,29],[3,20],[15,20],[-15,17],[7,24],[32,0],[14,28],[2,32],[76,-30],[23,14],[6,34]],[[4544,2957],[35,-6],[45,17],[18,12],[29,31],[26,46],[15,37],[9,38],[4,65],[-3,21],[-25,56],[-54,91],[-39,54],[-20,42],[-10,58],[1,72],[5,53],[23,93],[22,64],[42,90],[21,28],[39,43],[48,31],[31,15],[115,37],[46,24],[49,29],[53,22],[22,21],[57,43],[41,43],[31,45],[45,98],[28,93],[26,158],[28,93],[23,52],[41,49],[32,28],[44,15],[73,-4],[28,6],[37,30],[33,35],[35,46],[53,89],[89,157],[39,57],[57,65],[43,19],[52,28],[100,18],[35,18],[69,42],[39,29],[56,68],[107,109],[69,61],[74,40],[49,11],[41,4],[39,-7],[38,-20],[71,-53],[85,-81],[25,-29],[37,-55],[19,-36],[32,-81],[20,-36]],[[4389,1575],[-25,-91],[-12,-81],[-6,-165],[-12,-80],[-20,-65],[-14,-22],[-22,-19],[-41,-48],[-28,11],[-16,38],[-13,48],[-42,125],[-11,27],[-13,15],[-13,-7]],[[4101,1261],[-9,17],[-14,51],[-13,34],[-18,34],[-18,17],[-22,9],[-33,31],[-44,51],[-31,46],[-12,31],[-13,20],[-2,20],[-11,27],[-26,24],[4,37],[-8,-1],[-39,45],[-40,69],[-47,71],[-52,83],[-20,37],[-59,83],[-15,30],[2,63],[-13,70],[-20,50],[-14,24],[-32,33],[-31,14],[-38,-6],[-51,-15],[-50,-46],[-27,-12],[-15,12],[-14,23],[-20,-11],[-14,-47],[-12,0],[-4,18],[-13,-4],[-38,4],[-17,-6],[-33,6],[-9,-33],[-9,0],[-18,-22],[-21,-5],[-22,31],[-13,27],[-22,15],[-9,19],[-4,-16],[-31,29],[-15,2],[-8,13],[5,36],[-2,44],[-25,58],[-17,-11],[1,-20],[-13,3],[-5,-27],[-14,-7],[-17,8],[-12,39],[3,29],[-12,39],[-2,43],[16,16],[-6,16],[5,26],[9,-15],[13,45],[-14,0],[1,18],[-12,1],[-6,-18],[-8,30],[-21,15],[2,13],[-10,23],[10,2],[-4,47],[-17,13],[-5,-39],[-12,11],[-1,46],[9,-3],[21,46],[-20,0],[9,30],[-7,18],[9,14],[10,-9],[0,30],[8,20],[-7,25],[-13,4],[22,34],[22,-8],[2,15],[-14,12],[17,17],[-7,21],[16,0],[-6,38],[14,-15],[0,30],[6,18]],[[2845,3178],[16,14],[16,-11],[7,22],[-12,-2],[-6,30],[27,-4],[11,17],[2,34],[10,2],[2,18],[15,10],[-11,16],[21,14],[-8,9],[17,18],[13,-24],[9,8],[8,-21],[-10,-5],[3,-27],[16,5],[28,41],[19,-23],[22,43],[-11,1],[2,18],[9,-3],[5,28],[-12,21],[7,17],[10,0],[0,31],[-10,9],[4,14],[18,-7],[-10,52],[13,5],[24,-12],[5,25],[21,-33],[7,19],[5,-14],[9,23],[-6,10],[15,2],[-18,14],[2,11],[-19,22],[10,-1],[34,26],[-9,12],[10,6],[14,35],[-13,30],[22,-1],[5,-30],[14,20],[-13,13],[3,23],[23,2],[-1,30],[20,-19],[-9,-31],[17,-18],[6,37],[-5,45],[11,17],[-15,2],[-1,14],[15,-1],[3,30],[16,-7],[-7,21],[15,17],[-7,18]],[[3288,3905],[9,0],[24,-26],[19,20],[-2,-26],[29,18],[0,-27],[27,-13],[7,-21],[17,9],[9,23],[20,13],[-3,22],[-16,24],[1,13],[28,6],[11,21],[23,-3],[13,27],[-22,78],[-8,12],[-8,43],[1,45],[15,66],[56,85],[56,70],[39,40],[39,34],[17,26],[36,14],[79,38],[22,4],[70,38],[79,55],[26,-14],[31,-7],[49,-22],[35,2]],[[4116,4592],[-1,-57],[-6,-145],[-8,-83],[-24,-114],[-26,-135],[-13,-51],[-33,-116],[-17,-50],[-23,-96],[-11,-62],[-5,-89],[9,-77],[-6,-75],[30,-48],[21,-12],[46,-17],[31,-1],[43,-15],[45,1],[54,7],[45,2],[37,-22],[27,-29],[27,-41],[36,-62],[20,-53],[21,-45],[8,-25],[47,-83],[19,-20],[35,-22]],[[7031,5388],[45,-48],[38,-15],[15,3],[29,24],[42,42],[22,15],[37,46],[56,109],[19,33],[38,88],[40,106],[53,153],[32,80],[18,57],[23,107],[7,43],[10,130],[-1,64],[-9,60],[-19,97],[-23,81],[-12,65],[-1,36],[9,86],[32,207],[6,91],[1,74],[-9,54],[5,85],[15,94],[13,53],[20,42],[18,28],[30,34],[66,55],[78,105],[144,144],[19,23],[40,70]],[[7977,8009],[24,-41],[-9,-34],[17,-10],[6,-39],[-14,-10],[11,-5],[-8,-19],[14,9],[10,-14],[-9,-21],[9,-17],[-6,-17],[-15,1],[-5,-33],[-25,-25],[4,-16],[22,8],[7,-10],[-18,-41],[0,-36],[-9,-29],[9,-15],[9,13],[-2,-24],[-14,1],[7,-39],[9,15],[2,-56],[-15,-7],[32,-47],[16,16],[21,0],[13,-19],[15,20],[11,-35],[4,30],[16,12],[-8,6],[21,25],[4,-23],[9,9],[10,-11],[-10,31],[19,14],[3,-18],[9,14],[2,-24],[11,-15],[4,13],[25,-4],[-2,15],[16,11],[8,-21],[15,12],[15,24],[23,-1],[11,24],[16,3],[2,-17],[17,9],[-2,-36],[13,-2],[-5,-13],[13,-2],[10,15],[15,-31],[5,18],[5,-20],[40,-29],[0,-10],[18,-21],[10,-113],[17,-16],[1,-25]],[[8476,7266],[13,-54],[13,-20],[43,-99],[0,-26],[7,-33],[16,-22],[8,-45],[-7,-29],[-15,-17],[-14,-5],[-11,-19],[1,-20],[-9,11],[5,-34],[-20,-23],[-16,-32],[-5,-36],[2,-24],[-7,-13],[-5,16],[-15,-9],[-9,13],[-10,-58],[-6,-19],[-8,8],[-9,-16],[-16,9],[-19,-19],[-10,14],[-11,-18],[-3,-34],[-16,-24],[-15,-1],[-7,-16],[8,-22],[-21,-24],[-11,-79],[-11,-39],[14,-14],[-10,-7],[9,-45],[30,-11],[-24,-52],[-3,-33],[-12,-14],[12,-9],[-17,-36],[-1,-37],[8,5],[-1,-31],[8,-12],[-1,-23],[9,-4],[2,-20],[-11,12],[0,-20],[-12,-1],[10,-25],[5,-28],[-4,-14],[-12,4],[8,-49],[-7,-9],[-17,-54],[4,-19],[-6,-24],[12,-3],[-13,-22],[-4,-38],[16,-26],[5,-23],[13,-10],[4,-57],[19,-22],[20,-8],[21,-27],[21,-15],[24,-7],[18,4],[30,-22],[69,-14],[49,-2],[101,-19],[15,14],[12,39],[34,35],[12,34],[16,3],[-10,-51],[-2,-44],[-7,-40],[13,-42],[-5,-48],[1,-80],[3,-9],[9,-70],[26,-44],[12,-5],[-4,-43],[1,-26],[12,-54],[21,-6],[-1,-19],[39,-9],[2,22],[19,32],[43,-27],[28,-62],[1,-26],[27,-24],[19,0],[9,9],[26,-17],[41,18],[30,-6],[2,17],[26,11],[18,-6],[14,-29],[12,13],[-3,30],[18,28],[61,21],[-1,10],[20,34],[16,69],[14,-6],[-1,-25],[27,2],[4,21],[23,4],[27,-18],[39,1],[8,-15],[2,-66],[27,33],[2,-15],[76,-171],[20,-37],[11,-77],[5,-8],[6,-51],[-9,-29],[6,-21],[1,-37],[17,-53],[-12,-16],[-21,2],[-34,15],[-44,-13],[-48,-7],[-12,13],[-50,-15],[-11,16],[-6,25],[-20,27],[-29,-6],[-16,10],[-13,-45],[-2,-45],[-25,-18],[-24,-3],[-17,15],[-11,19],[-16,4],[-10,-44],[18,-13],[-10,-37],[37,-31],[2,-26],[22,-7],[38,11],[11,-40],[16,-20],[31,-2],[7,-10],[-4,-47],[-7,-1],[-7,-34],[-27,13],[-26,-36],[-18,-12],[3,-46],[-46,-50],[7,-23],[13,12],[6,-12],[31,-30],[39,-21],[3,-13],[17,6],[42,-66],[72,-66],[12,-29],[0,-29],[21,-16],[17,-21],[5,-17],[29,-33],[18,6],[10,-30],[9,-2],[17,-67],[14,-9]],[[9603,3697],[-4,-26],[-21,-13],[-5,14],[-17,-1],[-17,-25],[-10,2],[-16,-14],[-17,-26],[-15,7],[-8,-26],[5,-14],[0,-36],[-13,-58],[-24,-81],[-20,-54],[-9,-47],[-23,-55],[-62,34],[-1,-10],[-54,-9],[-6,-9],[-20,8],[-28,39],[-16,8],[-10,-26],[-21,0],[-23,26],[-30,24],[-15,0],[-15,46],[-51,77],[-18,33],[-71,98],[-7,14],[-17,68],[-5,47],[10,70],[-9,37],[-35,41],[-24,45],[-18,67],[-48,52],[-24,15],[-17,30],[-18,13],[-5,21],[-12,-10],[-2,-44],[6,-28],[-25,-26],[-11,5],[-33,-6],[-3,-23],[-12,-12],[0,-21],[-15,-10],[-2,-14],[-20,3],[-15,-27],[-16,-1],[-18,15],[-36,9],[-11,15],[-20,-14],[6,-19],[-12,-1],[-27,-31],[-11,-34],[-6,13],[-4,-19],[-14,2],[-11,20],[5,17],[-12,8],[-5,-19],[-11,9],[0,20],[-12,-11],[0,26],[-9,5],[-14,-49],[5,-24],[-21,-47],[-9,13],[0,-26],[-9,-11],[-8,-42],[-19,11],[-7,-12],[2,-20],[-12,-2],[1,-19],[-18,-3],[-5,-39],[17,-29],[-27,-130],[-9,-32],[-6,-106],[-26,-89],[-3,-105],[-7,-40],[-49,-115],[-25,-37],[-12,-10],[-17,1],[-18,13],[-20,29],[-33,64],[-25,22],[-22,75],[-12,-4],[-8,-33],[-15,16],[20,42],[-3,27],[-15,7],[2,25],[20,-3],[2,29],[-23,7],[-5,28],[-10,-23],[-16,24],[-4,35],[-15,9],[-9,-6],[-1,18],[-12,16],[16,25],[13,-1],[-8,19],[11,6],[1,19],[11,-3],[5,14],[-17,23],[9,32],[-7,32],[-22,24],[-15,8],[-27,-32],[-12,2],[-5,28],[15,11],[7,32],[-22,23],[-5,67],[-10,20],[4,38],[-8,18],[-41,6],[-5,-5],[-4,-37],[4,-20],[9,-1],[0,-38],[-22,16],[-7,26],[-15,10],[-8,-23],[-13,14],[11,38],[-2,56],[-7,72],[-8,15],[-21,-23],[0,-37],[-15,4],[-21,67],[-20,17],[-19,42],[-23,-26],[-10,17],[3,63],[-24,47],[-5,43],[-39,1],[-10,-27],[-45,-22],[-48,-38],[-12,-2],[-24,12],[-17,-2],[-30,33],[-5,39],[-10,-13],[-8,13],[-10,59],[13,-1],[-8,34],[-16,13],[-33,-26],[3,-17],[15,-13],[-4,-25],[7,-28],[11,-9],[0,-17],[-14,-15],[-9,-62],[-13,0],[-18,-14],[-3,-13],[-26,-20],[-3,14],[-24,24],[-69,-22],[-14,28],[-3,-16],[-17,-7],[6,-51],[-22,-44],[13,-59],[0,-38],[-16,-12],[-18,16],[-22,-2],[-3,-285],[-32,7],[-49,26],[-34,-13],[-27,-45],[-17,-54],[-5,-90],[-19,-23],[-37,-24],[-30,-40],[-11,-1],[-23,52],[-33,-1],[1,65],[4,18],[-38,25],[-15,63],[-1,40],[4,26],[-11,14],[-13,57],[1,12],[-21,34],[-35,41],[-2,28],[-13,27],[-3,42],[7,19],[-5,71],[3,28],[-16,22],[-8,27],[-16,21],[0,21],[-8,8],[6,96],[-19,12],[-3,30],[-8,3],[-20,28],[-18,45],[-18,-13],[-25,2],[-4,14],[-22,-32],[2,-7],[-25,2],[-18,-8],[-33,12],[-69,0],[-35,4],[-19,13],[-3,33],[-48,53]],[[3288,3905],[-44,41],[-39,45],[-20,11],[-35,36],[-9,23],[-10,57],[-27,88],[-28,72],[-26,49],[-18,55],[-19,45],[-12,41],[-6,32],[3,25],[-1,45],[-5,33],[-11,23],[-4,25],[-2,79],[6,72],[-22,33],[-32,8],[-33,18],[-90,0],[-26,-10],[-27,0],[-15,24],[-26,10],[-32,54],[-50,45],[-67,47],[-18,29],[-20,19],[-12,46],[-17,22],[-6,51],[-14,41],[-2,56],[-32,46]],[[2440,5341],[53,95],[17,46],[15,60],[4,77],[9,45],[22,73]],[[2560,5737],[37,-43],[47,-65],[10,-17],[72,-80],[42,-40],[139,-124],[34,-28],[41,-40],[88,-47],[55,-13],[51,1],[44,6],[53,27],[28,18],[38,14],[19,-6],[29,-19],[41,-44],[44,-39],[13,-2],[72,2],[21,8],[53,45],[53,36],[31,-16],[55,-35],[55,-22],[121,-31],[17,-8],[30,-33],[50,-73],[38,-72],[30,-87],[3,-22],[3,-178],[-1,-118]],[[2440,5341],[-6,-15],[-50,-202],[-10,-66],[5,-66],[-8,-65],[-15,-31],[-7,-40],[-3,-64],[-28,1],[-10,-57],[-35,-51],[-48,-46],[-9,-16]],[[2216,4623],[-2,24],[-21,3],[-21,-13],[-22,16],[-11,30],[-16,-17],[-10,58],[-43,59],[-22,4],[-27,-8],[-31,6],[-15,9],[-17,21],[-8,22],[-5,40],[-27,39],[-45,47],[-10,19],[-12,55],[-9,16],[-11,54],[-7,14],[-19,8],[-13,30],[3,51],[-8,43],[-17,8],[-31,43],[-2,26],[8,35],[27,69],[-5,40],[-41,-1],[5,28],[-18,28],[-4,22],[-42,63],[-13,-67],[0,-65],[-17,-22],[-11,-23],[-37,28],[-49,32],[-7,13],[-25,-1],[-45,64],[-18,0],[-21,25],[-22,2],[-4,66],[-8,13],[-21,5],[-2,29],[-14,5],[-2,16],[-20,-11],[0,23],[-7,22],[-16,4],[-11,18],[-12,-14],[-10,23],[-27,-13],[-19,36],[-13,-15],[-11,8],[-5,-22],[-27,-6],[-16,24],[-26,-6],[-6,14],[-12,-1],[-13,12],[-11,50],[-19,40],[15,27],[7,30],[15,11],[1,24],[-17,9],[-17,-3],[-34,-39],[-40,-34],[-29,-35],[-32,-7],[-94,-97],[-45,-80],[-57,-153],[-12,35],[-11,-9],[-13,10],[-18,-9],[-9,31],[5,24],[-8,4],[-3,37],[-8,13],[1,57],[-16,8],[-27,29],[0,14],[15,54],[2,32],[-13,37],[12,44],[-6,22],[21,47],[4,36],[-8,35],[6,14],[3,36],[-18,33],[-9,-6],[-17,12],[-8,-19],[-15,-5],[-36,19],[-22,-17],[-4,7],[-72,-71],[-71,-52],[-9,2],[-18,45],[1,57],[39,98],[15,19],[7,71],[-6,30],[10,10],[-4,77],[-8,-5],[-2,30],[-7,1],[-15,27],[5,18],[-6,56],[3,43],[-64,73],[6,20],[-2,28],[11,39],[-11,20],[1,22],[-24,20],[-13,-7],[-5,-31],[-20,-1],[-20,-14],[-45,-2],[-20,43],[-23,5],[-42,35],[-4,-11],[-19,4],[-9,-15],[-6,24],[-15,-4],[-22,5],[-8,-13],[-22,29],[-17,-3],[1,126],[2,30],[11,26],[24,34],[6,21],[9,82],[12,61],[5,52],[1,48],[15,124],[17,108],[2,31],[-13,33],[6,34],[29,52],[27,33],[16,46],[28,41],[18,36],[19,22],[18,10],[41,6],[47,13],[5,10],[-4,34],[1,36],[9,10],[0,37],[-7,67],[4,15],[-15,28],[2,20],[15,17],[-2,47],[-7,7],[-2,40],[9,9],[-6,57],[-9,12],[4,23],[8,7],[-7,30],[0,45],[7,6],[10,33],[-5,36],[6,13],[15,82],[32,-32],[23,-8],[42,29],[35,4],[32,11],[29,25],[20,4],[24,-29],[24,-16],[15,-40],[-1,-46],[8,-8],[32,-5],[24,-15],[21,-6],[27,6],[31,-3],[12,-12],[31,-189],[11,-32],[13,-62],[14,-109],[20,-43],[9,-26],[21,-125],[20,-134],[18,-59],[13,-19],[44,-45],[33,-71],[2,-41],[8,-16],[37,-32],[21,-12],[37,-32],[38,-53],[46,-85],[51,-85],[49,-68],[48,-81],[25,-34],[84,-164],[15,-36],[41,-79],[136,-232],[9,-28],[22,-39],[23,-27],[47,-40],[44,-8],[39,-24],[46,-18],[44,-8],[55,-18],[22,2],[41,-10],[75,-36],[54,-83],[68,-85],[76,-112],[110,-143],[26,-49],[37,-73],[18,-45],[17,-24]],[[5464,1295],[-4,-8],[-21,6],[-11,-30],[-16,-3],[-9,-17],[-25,8],[-9,-4],[-3,-53],[-14,-20],[8,-18],[-8,-23],[-12,-7],[6,-28],[-9,-10],[5,-13],[-18,-3],[-14,-36],[6,-37],[-23,-13],[7,-7],[-1,-51],[8,-20],[-3,-20],[9,-27],[-16,-68],[4,-25],[-7,-26],[-13,-1],[-1,-16],[-17,-2],[-4,-22],[-26,28],[-11,-2],[-7,-20],[-13,-1],[-8,-30],[16,-34],[-3,-15],[10,-55],[9,-8],[-6,-27],[8,-19],[-5,-29],[14,-30],[-1,-22],[17,-34],[-14,-35],[-18,5],[-23,-7],[-12,10],[-24,0],[-10,37],[-22,-5],[-20,4],[9,-15],[-13,-53],[-23,-22],[-17,11],[3,22],[-9,-1],[-2,19],[-24,-31],[-8,-35],[1,-22],[-17,-43],[2,-41],[-13,-18],[-8,-37],[-9,-9],[-30,12],[-75,-5],[-38,28],[-32,64],[-8,-4],[-18,30],[-1,19],[-10,3],[1,29],[-17,19],[-12,38],[-33,13],[-21,-43],[-18,-65],[-20,-40],[-52,-30],[-27,-23],[-20,-24],[-10,-25],[-2,-48],[-25,-50],[-21,-15],[-41,-12],[-29,1],[-32,-9],[-26,18],[0,28],[-6,25],[8,19],[11,51],[-13,26],[4,24],[-12,31],[2,66],[-12,7],[-78,58],[-34,22],[-59,33],[-62,27],[-29,7],[-31,1],[-65,-39],[-6,27],[10,22],[-2,43],[17,32],[5,20],[11,11],[7,52],[-7,61],[12,22],[-7,26],[7,6],[0,26],[-11,44],[7,14],[3,32],[-7,4],[-7,39],[-10,21],[3,50],[-10,18],[1,20],[-9,27],[-6,40],[0,24],[11,35],[18,107],[23,9],[24,-2],[35,27]],[[8476,7266],[9,-15],[22,4],[4,16],[30,-1],[25,20],[41,6],[9,14],[27,8],[53,-4],[24,-6],[30,9],[25,-6],[20,8],[7,21],[30,16],[4,28],[10,19],[-7,21],[4,49],[5,18],[14,11],[20,2],[1,17],[22,23],[-8,9],[0,20],[9,-2],[-1,54],[9,8],[18,-4],[9,18],[5,-11],[13,18],[24,-23],[8,24],[24,-5],[25,18],[8,27],[9,2],[13,20],[13,-1],[18,26],[6,-29],[19,-9],[10,-25],[-2,-35],[10,2],[11,-16],[-6,-8],[-8,-57],[-3,-81],[-9,-39],[10,-44]],[[9139,7401],[-9,-11],[-4,-53],[-8,-20],[4,-30],[-8,-11],[16,-79],[7,0],[-1,-26],[15,5],[10,25],[7,-3],[-2,-35],[6,-5],[17,19],[10,37],[21,-5],[16,-16],[14,-28],[-4,-14],[17,-7],[2,23],[6,-11],[-2,-45],[-29,-32],[-9,1],[-28,-49],[-14,-34],[-12,-12],[-9,-130],[9,-40],[21,-54],[31,-46],[14,-63],[13,-41],[0,-68],[13,-34],[26,-15],[29,-5],[30,-19],[14,2],[29,-40],[27,9],[34,-21],[6,-22],[16,14],[13,-20],[14,2],[6,-17],[25,-3],[-2,-29],[22,-33],[-2,-29],[7,-4],[4,-50],[18,-39],[-10,-6],[8,-22],[-12,-8],[-13,-30],[6,-22],[20,19],[22,9],[36,30],[55,10],[22,12],[17,-15],[31,-41],[1,-19],[25,-36],[28,15],[22,-26],[11,-36],[-13,-54],[9,-4],[11,-33],[6,-52],[14,-42],[26,-11],[15,-24],[28,-6],[1,-23],[8,-22],[-26,-27],[-8,-19],[-3,-46],[-7,-28],[-11,-13],[3,-27],[9,20],[4,-16],[24,3],[-30,-51],[-4,-19],[2,-50],[-13,-33],[-15,22],[-13,-1],[-23,49],[-10,6],[-4,-19],[-23,-53],[1,-35],[28,16],[5,-23],[-11,-26],[-12,-73],[-3,-63],[3,-121],[8,-23],[29,-2],[25,22],[48,-54],[38,-70],[9,-42],[-33,-24],[-6,-31],[20,4],[21,-9],[7,-24],[-3,-41],[2,-22],[12,-23],[-2,-42],[-39,0],[-23,-36],[-12,21],[-9,-22],[-22,-4],[1,38],[-20,28],[-12,-48],[15,-21],[-13,-40],[11,-35],[19,19],[6,-3],[9,-36],[-10,-19],[10,-29],[0,-35],[-12,-52],[-15,-46],[3,-22],[19,-35],[-8,-3],[6,-18],[-23,27],[-8,-18],[13,-6],[3,-16],[-25,-15],[19,-27],[1,-18],[9,-4],[-2,-128],[4,-25],[-3,-42],[-12,-61],[-19,-57],[-23,-24],[-5,-52],[-13,19],[-22,18],[-8,16],[-14,5],[-33,-16],[-2,19],[-28,12],[2,-50],[17,-70],[-35,-41],[-21,-36],[-12,-48],[-14,0],[-11,17],[-15,-6],[-18,-23]],[[7977,8009],[34,59],[20,45],[32,82],[28,142],[11,88],[3,68],[-2,67],[-12,96],[-13,75],[-11,75],[1,92],[15,84],[22,65],[33,107],[44,124],[16,54],[24,32],[47,53],[51,42],[47,16],[31,6],[52,26],[32,12],[97,68],[17,6],[55,43],[39,37],[34,22],[64,27],[63,13],[60,32],[126,82],[80,66],[26,31],[16,53],[14,-26],[-8,-24],[3,-13],[-26,-86],[8,-59],[8,-25],[-5,-12],[-31,14],[2,-20],[20,-23],[-10,-9],[-6,-33],[13,-3],[4,-26],[-17,-43],[-3,17],[-20,2],[-12,-11],[16,-5],[-1,-33],[26,23],[2,-37],[-10,-37],[-19,30],[-7,-61],[-11,0],[-5,35],[-17,13],[-8,-38],[7,-10],[1,-37],[7,-17],[-7,-14],[-14,21],[-4,42],[-18,7],[-7,-10],[3,-33],[-9,-9],[-5,-29],[-13,12],[-1,51],[-8,9],[-22,-56],[14,-13],[2,-18],[-14,-13],[-3,26],[-24,-5],[-3,-39],[-18,-9],[-14,16],[-11,-3],[-3,15],[15,5],[-7,27],[-21,17],[6,-40],[-21,11],[-8,-28],[5,-18],[20,-16],[-6,-29],[-13,-34],[7,-36],[-2,-44],[9,-9],[20,38],[14,-26],[-30,-61],[19,-18],[7,-35],[12,-16],[20,-12],[-1,-22],[15,-29],[19,15],[24,-12],[9,11],[21,-13],[14,-18],[14,-46],[70,-43],[43,-41],[66,-58],[33,-18],[64,-63],[50,-59],[34,-95],[46,-114],[9,-36],[4,-215],[5,-32],[26,-35],[14,-8],[44,-5],[10,-9],[33,11],[32,-43],[-1,-46],[3,-23],[13,4],[7,-27],[-15,-15],[-16,-3],[-2,-11],[-49,-24],[-45,-2],[-10,-27],[-14,-8],[-14,-49],[-29,-17],[-28,7],[-8,-4],[4,-21],[6,-89],[-4,-19],[4,-23],[-5,-42],[4,-20],[-27,-27],[-26,-15],[-12,-20],[-22,-1],[-12,17],[-1,-16],[-10,-7],[-8,-28],[2,-24],[-14,-48],[-15,-7],[0,-18],[-20,11],[-1,22],[-18,-21],[-18,21],[-20,5],[0,-19],[-15,-4],[-14,-27],[-15,-6],[-15,-28],[-20,8]],[[2845,3178],[-11,15],[-12,-11],[-5,25],[-20,-3],[-8,-17],[-12,17],[-31,-30],[-21,30],[-2,-17],[-21,45],[9,7],[-4,16],[-12,0],[-15,15],[-23,41],[-5,20],[-18,-10],[-5,37],[-12,1],[-10,31],[12,30],[-11,34],[5,21],[-19,-3],[-12,8],[4,17],[-15,-5],[-28,17],[-5,29],[-9,11],[13,7],[-7,19],[14,-6],[-2,41],[17,25],[-12,4],[11,36],[-13,22],[6,8],[-12,17],[1,46],[-11,15],[-23,8],[-4,12],[20,35],[-16,16],[-2,25],[17,14],[16,77],[-19,38],[-16,47],[0,25],[-13,9],[-11,23],[-7,47],[-10,8],[-3,24],[4,33],[-6,14],[-18,6],[3,37],[-26,-21],[-24,-6],[-18,20],[-2,36],[-33,17],[-7,27],[-13,2],[-6,15],[-16,-10],[2,30],[-15,15],[-5,-10],[-8,20],[7,40],[14,1],[-1,29],[-9,16],[5,16],[-11,11],[0,18],[-25,-7],[3,21],[-7,11],[-12,-17],[6,-22],[-19,2],[-6,24],[8,4],[-14,35],[10,8],[-8,17]]],"transform":{"scale":[0.0001357680172017211,0.00007115498359835584],"translate":[102.05513989400004,17.593768951000072]},"objects":{"Nong Khai":{"type":"GeometryCollection","geometries":[{"arcs":[[0,1,2,3,4]],"type":"Polygon","properties":{"Shape_Leng":1.89127840229,"Shape_Area":0.0412951048831,"ADM2_EN":"Mueang Nong Khai","ADM2_TH":"เมืองหนองคาย","ADM2_PCODE":"TH4301","ADM1_EN":"Nong Khai","ADM1_TH":"หนองคาย","ADM1_PCODE":"TH43","ADM0_EN":"Thailand","ADM0_TH":"ประเทศไทย","ADM0_PCODE":"TH"}},{"arcs":[[-4,5,6,7,8,9]],"type":"Polygon","properties":{"Shape_Leng":1.12837161988,"Shape_Area":0.0306107895798,"ADM2_EN":"Tha Bo","ADM2_TH":"ท่าบ่อ","ADM2_PCODE":"TH4302","ADM1_EN":"Nong Khai","ADM1_TH":"หนองคาย","ADM1_PCODE":"TH43","ADM0_EN":"Thailand","ADM0_TH":"ประเทศไทย","ADM0_PCODE":"TH"}},{"arcs":[[-1,10,11,12,13]],"type":"Polygon","properties":{"Shape_Leng":2.57046146849,"Shape_Area":0.0704811279891,"ADM2_EN":"Phon Phisai","ADM2_TH":"โพนพิสัย","ADM2_PCODE":"TH4305","ADM1_EN":"Nong Khai","ADM1_TH":"หนองคาย","ADM1_PCODE":"TH43","ADM0_EN":"Thailand","ADM0_TH":"ประเทศไทย","ADM0_PCODE":"TH"}},{"arcs":[[-9,14,15,16]],"type":"Polygon","properties":{"Shape_Leng":0.626132080672,"Shape_Area":0.012864868914,"ADM2_EN":"Si Chiang Mai","ADM2_TH":"ศรีเชียงใหม่","ADM2_PCODE":"TH4307","ADM1_EN":"Nong Khai","ADM1_TH":"หนองคาย","ADM1_PCODE":"TH43","ADM0_EN":"Thailand","ADM0_TH":"ประเทศไทย","ADM0_PCODE":"TH"}},{"arcs":[[-16,17,18]],"type":"Polygon","properties":{"Shape_Leng":1.23621924147,"Shape_Area":0.0391777515618,"ADM2_EN":"Sangkhom","ADM2_TH":"สังคม","ADM2_PCODE":"TH4308","ADM1_EN":"Nong Khai","ADM1_TH":"หนองคาย","ADM1_PCODE":"TH43","ADM0_EN":"Thailand","ADM0_TH":"ประเทศไทย","ADM0_PCODE":"TH"}},{"arcs":[[-3,19,-6]],"type":"Polygon","properties":{"Shape_Leng":0.876141627957,"Shape_Area":0.0177614732258,"ADM2_EN":"Sakhrai","ADM2_TH":"สระใคร","ADM2_PCODE":"TH4314","ADM1_EN":"Nong Khai","ADM1_TH":"หนองคาย","ADM1_PCODE":"TH43","ADM0_EN":"Thailand","ADM0_TH":"ประเทศไทย","ADM0_PCODE":"TH"}},{"arcs":[[-13,20,21]],"type":"Polygon","properties":{"Shape_Leng":1.52074131285,"Shape_Area":0.0308465991874,"ADM2_EN":"Fao Rai","ADM2_TH":"เฝ้าไร่","ADM2_PCODE":"TH4315","ADM1_EN":"Nong Khai","ADM1_TH":"หนองคาย","ADM1_PCODE":"TH43","ADM0_EN":"Thailand","ADM0_TH":"ประเทศไทย","ADM0_PCODE":"TH"}},{"arcs":[[-12,22,-21]],"type":"Polygon","properties":{"Shape_Leng":1.15083885402,"Shape_Area":0.0252272143016,"ADM2_EN":"Rattanawapi","ADM2_TH":"รัตนวาปี","ADM2_PCODE":"TH4316","ADM1_EN":"Nong Khai","ADM1_TH":"หนองคาย","ADM1_PCODE":"TH43","ADM0_EN":"Thailand","ADM0_TH":"ประเทศไทย","ADM0_PCODE":"TH"}},{"arcs":[[-8,23,-18,-15]],"type":"Polygon","properties":{"Shape_Leng":0.698004666309,"Shape_Area":0.0107144337163,"ADM2_EN":"Pho Tak","ADM2_TH":"โพธิ์ตาก","ADM2_PCODE":"TH4317","ADM1_EN":"Nong Khai","ADM1_TH":"หนองคาย","ADM1_PCODE":"TH43","ADM0_EN":"Thailand","ADM0_TH":"ประเทศไทย","ADM0_PCODE":"TH"}}]}}}