{"type":"Topology","arcs":[[[4334,8125],[-31,-253],[38,-345],[-44,-228]],[[4297,7299],[-225,-206],[-98,-51],[-117,23],[-82,-90],[88,-179],[-1,-188],[-108,-278],[-105,-27],[-329,-12]],[[3320,6291],[-4,66],[-124,153],[42,169],[-91,73],[-178,27],[-172,-63],[15,130],[-35,170],[87,278],[90,-16],[65,112],[-52,171],[-247,-14],[-42,104],[-202,211]],[[2472,7862],[233,119],[218,159],[200,262],[129,327],[147,52],[125,-71],[77,-194],[171,-29],[-13,-228],[81,-106],[61,21],[221,194],[135,-198],[77,-45]],[[2695,4311],[-228,-547],[-66,-186],[21,-275],[-10,-242],[-55,-274],[312,-272],[-113,-98],[52,-330],[171,-414],[139,-271]],[[2918,1402],[-72,-194],[-87,-68],[-375,100],[-142,1],[-90,104],[-122,-13],[-62,95],[-132,83],[-129,-52],[-159,109],[-222,384],[-88,30],[-57,196],[-156,119],[-119,25],[-114,-30],[-67,54],[-100,289],[-183,188],[208,526],[-55,92],[41,252],[-74,352],[-199,-69],[-57,-84],[4,317],[-68,-27],[-138,50],[-104,122],[80,113],[-5,84],[102,110],[15,256],[-52,157],[59,94],[-63,254],[19,290],[91,84],[97,307],[177,154]],[[520,6256],[82,-118],[91,-8],[65,-82],[58,22],[179,-97],[236,17],[99,-78],[48,72],[23,-106],[104,-88],[-3,-115],[279,-159],[52,-184],[82,-88],[104,-25],[217,124],[134,-84],[78,-146],[45,-476],[49,-165],[153,-161]],[[3320,6291],[55,-169],[132,0],[87,-251],[-32,-151],[-93,-200],[-176,-26],[-23,-168],[-146,-25],[-2,-145],[49,-158],[207,-378],[-6,-247],[77,17],[-11,-144],[40,-244],[69,-94],[-21,-63],[98,-13],[-7,-134],[-99,-85]],[[3518,3613],[-106,-5],[-193,89],[-76,125],[-204,139],[-244,350]],[[520,6256],[-143,180],[-30,219],[13,284],[104,183],[-103,54],[34,167],[167,154],[69,-5],[54,146],[520,96],[198,6],[218,-45],[130,33],[259,-9],[140,88],[322,55]],[[8168,5764],[-213,-160],[-103,-121],[-365,-93],[-90,55],[-77,-26],[-99,-242],[7,-138],[-123,-221],[-91,-34],[-46,-152],[-130,-55]],[[6838,4577],[-72,76],[-90,242],[-219,386],[-58,57],[-124,230]],[[6275,5568],[64,48],[86,186],[-16,217],[-95,467],[-148,256],[-38,133],[166,212],[111,75],[30,239],[120,60],[-25,148],[-99,57],[-40,129],[-122,-114],[-97,125],[0,229],[35,242]],[[6207,8277],[81,-36],[292,-272],[65,0],[281,-121],[180,-124],[86,111],[164,-332],[126,-172],[152,17],[171,-482],[363,-1102]],[[6838,4577],[-156,-320],[-51,-211]],[[6631,4046],[-155,-40],[-316,31],[-29,-75],[-171,-25],[-21,-300],[-37,-130],[-26,-272],[45,-185],[-31,-356],[-45,-96],[-19,-286],[-179,-293],[-155,15],[-87,57],[-53,-257],[-150,31],[-110,-207],[75,-354],[-148,-73]],[[5019,1231],[-88,52],[-15,119],[-93,179],[46,197],[-15,537],[-118,561],[-203,592],[-66,97],[-151,421],[-64,117],[-20,159],[33,68],[197,203],[73,273],[11,321],[-72,352]],[[4474,5479],[220,-23],[320,-191],[386,-93],[128,65],[120,454],[30,12],[223,-261],[267,42],[107,84]],[[6631,4046],[191,-89],[80,16],[28,-135],[103,-114],[-18,-361],[-43,-229]],[[6972,3134],[-113,-108],[-95,35],[-139,-63],[0,-214],[55,-237],[119,-296],[55,-912]],[[6854,1339],[-97,-108],[-90,118],[-86,-128],[-90,-34],[2,-89],[-162,87],[-101,-7],[22,-207],[-99,-288],[-67,18],[-27,112],[-117,205],[-118,67],[-108,-1],[-122,-198],[-146,-171],[-30,-116],[-182,-147],[-78,38]],[[5158,490],[-84,183],[-52,195],[57,145],[-60,218]],[[8168,5764],[476,-1431],[164,-211],[328,-1097]],[[9136,3025],[-265,2],[-61,55],[-33,-107],[67,-89],[-96,-453],[35,-138],[68,-80],[-9,-131],[-164,36]],[[8678,2120],[-12,-180],[-48,-81],[-55,81],[51,102],[-51,34],[-43,-100],[-79,11],[-17,83],[-103,-35],[-99,-203],[-176,70]],[[8046,1902],[-101,183],[-21,155],[-127,78],[-77,-62],[-8,-232],[-49,-123],[-149,7],[-174,353],[0,160],[182,388],[-24,72],[-178,7],[-188,73],[-62,121],[-98,52]],[[9136,3025],[304,-781],[290,-846],[269,-727],[-198,-188],[-76,-31],[-249,119],[-268,28],[-45,98],[0,154],[-85,92],[25,92],[-127,239],[-78,339],[-58,140],[-65,-47],[-75,114],[-22,300]],[[4334,8125],[82,-141],[84,-12],[-48,106],[74,202],[96,79],[30,100],[-20,159],[-51,79],[19,272],[-54,62],[-124,-71],[-31,286],[-58,157],[-163,-126],[-71,146],[-88,-29],[-39,170],[-66,95],[-114,-19],[19,246],[-90,16],[-82,-172],[-31,74],[-167,-65],[-49,-79],[-90,5],[-79,-133],[-46,62],[-85,-204],[52,240],[125,154],[258,92],[156,123],[174,-46],[277,-249],[140,-174],[211,-357],[271,-326],[113,-91],[335,-176],[494,-175],[273,-69],[53,27],[183,-86]],[[4474,5479],[20,606],[0,362],[-51,362],[-116,158],[-30,332]],[[5158,490],[-153,-42],[-137,-107],[-23,-234],[-51,83],[-125,-19],[-233,237],[-84,148],[-178,-151],[-88,-36],[-87,150],[-30,179],[25,200],[-46,266],[-45,112],[-16,322],[45,93],[91,6],[12,109],[-72,256],[14,359],[-35,161],[-102,275],[38,196],[70,30],[-2,94],[-84,127],[-78,-59],[-69,37]],[[3715,3282],[-5,60],[103,187],[46,7],[-49,280],[-6,221],[-43,16],[5,-279],[-81,-35],[-20,-235],[-72,80],[-30,-80],[-45,109]],[[8046,1902],[-138,-173],[-1,-256],[-45,-190],[77,-220],[122,-62],[106,-187],[21,-111],[-40,-102],[-3,-191],[-96,-93],[-68,-158],[-109,-29],[-156,-130],[-188,133],[-188,20],[-103,166],[-49,223],[-124,151],[68,146],[-19,138],[-161,329],[-98,33]],[[3715,3282],[40,-166],[-63,-208],[-11,-279],[-87,-228],[-231,-127],[-97,66],[-137,-250],[-100,-464],[-111,-224]]],"transform":{"scale":[0.00007072939323931948,0.00004022371097109271],"translate":[101.01761865100008,6.549858604000065]},"objects":{"Pattani":{"type":"GeometryCollection","geometries":[{"arcs":[[0,1,2,3]],"type":"Polygon","properties":{"Shape_Leng":0.467691356604,"Shape_Area":0.00744427156159,"ADM2_EN":"Mueang Pattani","ADM2_TH":"เมืองปัตตานี","ADM2_PCODE":"TH9401","ADM1_EN":"Pattani","ADM1_TH":"ปัตตานี","ADM1_PCODE":"TH94","ADM0_EN":"Thailand","ADM0_TH":"ประเทศไทย","ADM0_PCODE":"TH"}},{"arcs":[[4,5,6]],"type":"Polygon","properties":{"Shape_Leng":0.823562654082,"Shape_Area":0.0245271289028,"ADM2_EN":"Khok Pho","ADM2_TH":"โคกโพธิ์","ADM2_PCODE":"TH9402","ADM1_EN":"Pattani","ADM1_TH":"ปัตตานี","ADM1_PCODE":"TH94","ADM0_EN":"Thailand","ADM0_TH":"ประเทศไทย","ADM0_PCODE":"TH"}},{"arcs":[[-3,7,8,-7,9]],"type":"Polygon","properties":{"Shape_Leng":0.851889247318,"Shape_Area":0.0196597082036,"ADM2_EN":"Nong Chik","ADM2_TH":"หนองจิก","ADM2_PCODE":"TH9403","ADM1_EN":"Pattani","ADM1_TH":"ปัตตานี","ADM1_PCODE":"TH94","ADM0_EN":"Thailand","ADM0_TH":"ประเทศไทย","ADM0_PCODE":"TH"}},{"arcs":[[10,11,12,13]],"type":"Polygon","properties":{"Shape_Leng":0.538163130276,"Shape_Area":0.011653281282,"ADM2_EN":"Panare","ADM2_TH":"ปะนาเระ","ADM2_PCODE":"TH9404","ADM1_EN":"Pattani","ADM1_TH":"ปัตตานี","ADM1_PCODE":"TH94","ADM0_EN":"Thailand","ADM0_TH":"ประเทศไทย","ADM0_PCODE":"TH"}},{"arcs":[[-12,14,15,16,17]],"type":"Polygon","properties":{"Shape_Leng":0.649865950506,"Shape_Area":0.0163825518596,"ADM2_EN":"Mayo","ADM2_TH":"มายอ","ADM2_PCODE":"TH9405","ADM1_EN":"Pattani","ADM1_TH":"ปัตตานี","ADM1_PCODE":"TH94","ADM0_EN":"Thailand","ADM0_TH":"ประเทศไทย","ADM0_PCODE":"TH"}},{"arcs":[[-16,18,19,20,21]],"type":"Polygon","properties":{"Shape_Leng":0.624745202786,"Shape_Area":0.0106713555822,"ADM2_EN":"Thung Yang Daeng","ADM2_TH":"ทุ่งยางแดง","ADM2_PCODE":"TH9406","ADM1_EN":"Pattani","ADM1_TH":"ปัตตานี","ADM1_PCODE":"TH94","ADM0_EN":"Thailand","ADM0_TH":"ประเทศไทย","ADM0_PCODE":"TH"}},{"arcs":[[-11,22,23,24,25,-19,-15]],"type":"Polygon","properties":{"Shape_Leng":0.674640446561,"Shape_Area":0.0161348411239,"ADM2_EN":"Sai Buri","ADM2_TH":"สายบุรี","ADM2_PCODE":"TH9407","ADM1_EN":"Pattani","ADM1_TH":"ปัตตานี","ADM1_PCODE":"TH94","ADM0_EN":"Thailand","ADM0_TH":"ประเทศไทย","ADM0_PCODE":"TH"}},{"arcs":[[-24,26]],"type":"Polygon","properties":{"Shape_Leng":0.352295014203,"Shape_Area":0.00490406002195,"ADM2_EN":"Mai Kaen","ADM2_TH":"ไม้แก่น","ADM2_PCODE":"TH9408","ADM1_EN":"Pattani","ADM1_TH":"ปัตตานี","ADM1_PCODE":"TH94","ADM0_EN":"Thailand","ADM0_TH":"ประเทศไทย","ADM0_PCODE":"TH"}},{"arcs":[[-1,27,-13,-18,28]],"type":"Polygon","properties":{"Shape_Leng":0.917827940202,"Shape_Area":0.0176317344331,"ADM2_EN":"Yaring","ADM2_TH":"ยะหริ่ง","ADM2_PCODE":"TH9409","ADM1_EN":"Pattani","ADM1_TH":"ปัตตานี","ADM1_PCODE":"TH94","ADM0_EN":"Thailand","ADM0_TH":"ประเทศไทย","ADM0_PCODE":"TH"}},{"arcs":[[-2,-29,-17,-22,29,30,-8]],"type":"Polygon","properties":{"Shape_Leng":0.961558607972,"Shape_Area":0.0178920479849,"ADM2_EN":"Yarang","ADM2_TH":"ยะรัง","ADM2_PCODE":"TH9410","ADM1_EN":"Pattani","ADM1_TH":"ปัตตานี","ADM1_PCODE":"TH94","ADM0_EN":"Thailand","ADM0_TH":"ประเทศไทย","ADM0_PCODE":"TH"}},{"arcs":[[-20,-26,31]],"type":"Polygon","properties":{"Shape_Leng":0.461871088242,"Shape_Area":0.00741560050959,"ADM2_EN":"Kapho","ADM2_TH":"กะพ้อ","ADM2_PCODE":"TH9411","ADM1_EN":"Pattani","ADM1_TH":"ปัตตานี","ADM1_PCODE":"TH94","ADM0_EN":"Thailand","ADM0_TH":"ประเทศไทย","ADM0_PCODE":"TH"}},{"arcs":[[-5,-9,-31,32]],"type":"Polygon","properties":{"Shape_Leng":0.427751543525,"Shape_Area":0.00650819575,"ADM2_EN":"Mae Lan","ADM2_TH":"แม่ลาน","ADM2_PCODE":"TH9412","ADM1_EN":"Pattani","ADM1_TH":"ปัตตานี","ADM1_PCODE":"TH94","ADM0_EN":"Thailand","ADM0_TH":"ประเทศไทย","ADM0_PCODE":"TH"}}]}}}