{"type":"Topology","arcs":[[[8953,2534],[40,-23],[-42,-17],[-62,-8],[-121,-22],[-8,4],[35,52],[88,27],[70,-13]],[[8104,2826],[1,-27],[-18,22],[17,5]],[[8414,4858],[52,-24],[70,-13],[30,-18],[1,-17],[100,-48],[-2,-20],[95,-29],[33,-2],[49,-24],[51,-12],[46,20],[22,-9],[60,0],[19,-25]],[[9040,4637],[-3,-40],[-56,-31],[-6,-16],[-37,-11],[-33,-26],[-26,-64],[-7,-33],[-71,-61],[-40,-13],[-26,-36],[-13,-51],[-8,-73],[-63,-3],[-14,-19],[-58,-11],[-51,-81],[51,-53],[-1,-11],[-51,-24],[-4,-20],[41,-18],[91,-15],[-4,-29],[22,-36],[110,12],[59,-5],[6,-45],[43,-27],[-38,-32],[-18,-1],[-28,-40],[-5,-31],[8,-72],[69,-28],[23,-39],[33,-15],[-8,-30],[24,-22],[-55,-48],[14,-23],[42,-3],[61,-32],[14,-25],[59,-26],[30,-65],[30,-160]],[[9146,3105],[-60,0],[4,-44],[-23,-59],[-20,4],[-16,27],[-44,-16],[-47,-37],[-95,-23],[-38,3],[-36,23],[-13,-19],[-36,2],[-26,-28],[-43,3],[-98,-50],[-26,-49],[-34,0],[-56,16],[-20,-6],[-12,-35],[-69,-25],[-44,4],[-70,-45],[-32,2],[-19,18],[-37,63],[1,26],[-82,-2],[-45,-18]],[[8010,2840],[-46,29],[-101,22],[-9,19],[13,48],[-59,25],[-28,58],[-39,7],[-13,16],[25,46],[-3,28],[-42,17],[28,18],[23,31],[-23,32],[-12,38],[-16,8],[7,32],[95,41],[-23,30],[37,4],[0,18],[35,25],[16,27],[-25,12],[32,10],[-4,33],[-33,10],[-11,24],[-82,15],[-52,20],[-50,-8],[-31,-15],[-140,11],[-52,48],[-37,4],[-48,-7],[-48,10],[-25,-14],[-77,-2],[-53,-35],[-28,-7]],[[7111,3568],[5,17],[-53,54],[-12,31],[-21,17],[-80,2],[-42,10],[-53,38],[-13,48],[32,23],[3,26],[43,37],[16,27],[-4,66],[18,20],[71,29],[21,30],[48,8],[10,45],[49,17],[15,43],[36,10],[3,27],[26,19],[54,19],[4,13],[67,41],[-17,35],[39,17],[-3,15],[-90,66],[-20,4],[-8,37],[14,11],[-3,37],[16,40],[33,26],[-31,26],[5,26],[-39,14],[-7,17]],[[7243,4656],[40,7],[24,26],[51,-24],[37,0],[29,-23],[29,2],[55,30],[37,-33],[36,-5],[84,6],[68,-32],[-11,-23],[14,-15],[47,-11],[6,-32],[52,-9],[38,9],[74,-8],[25,-29],[46,2],[31,29],[30,4],[14,20],[71,39],[42,46],[-2,21],[22,12],[27,37],[2,18],[48,41],[40,59],[-27,45],[41,3],[51,-10]],[[8846,36],[-10,-36],[-23,31],[33,5]],[[8203,394],[-9,23],[30,36],[1,-20],[-22,-39]],[[8698,690],[-3,-19],[-24,11],[27,8]],[[9235,937],[-27,-1],[-8,19],[20,9],[15,-27]],[[8349,1425],[31,-37],[40,-27],[34,-11],[41,-32],[57,-25],[45,-37],[55,-14],[40,-28],[80,-29],[70,-7],[40,5],[52,24],[63,18],[-58,-62],[-10,-46],[24,-47],[77,-56],[30,-5],[37,-29],[-79,-61],[-12,-42],[7,-22],[-12,-31],[9,-45],[25,-31],[-1,-97],[40,-47],[22,10],[23,-37],[3,-63],[11,-29],[-29,-95],[4,-30],[-18,-38],[-38,-55],[-14,-53],[-34,-52],[1,-34],[-24,-73],[-9,-51],[-16,9],[-19,61],[21,10],[-28,28],[-31,61],[-25,-15],[-36,18],[-21,-20],[25,-100],[-27,-7],[-31,36],[-10,55],[6,19],[-19,19],[28,46],[-59,90],[-19,63],[-39,77],[29,50],[25,27],[2,28],[-53,67],[30,32],[47,-21],[65,10],[33,37],[10,25],[-9,52],[-85,74],[-92,74],[-54,-23],[-13,-17],[-29,3],[-13,37],[16,12],[-30,9],[-53,77],[-4,27],[26,14],[-16,14],[-28,-16],[-16,28],[-33,26],[39,3],[-10,14],[-47,24],[-53,10],[12,13],[-13,51],[-39,39],[-17,5],[-3,27],[25,23],[17,-17],[-11,-22],[29,-3],[23,35],[-25,36],[29,21],[-56,70],[22,-4]],[[8399,1686],[36,-24],[52,-13],[58,-38],[43,-41],[21,-46],[-8,-26],[-94,30],[-77,47],[-29,36],[-9,33],[7,42]],[[8433,1756],[-42,38],[28,78],[18,-17],[14,-52],[-1,-37],[-17,-10]],[[9332,1876],[19,-20],[-19,-21],[31,-7],[-35,-15],[-29,-53],[43,-1],[-25,-75],[-1,-21],[-38,-2],[11,-19],[37,0],[-3,-35],[-18,-32],[-89,-42],[-6,-25],[46,-10],[-17,-22],[4,-34],[-27,-52],[-1,-43],[-40,-21],[-11,-116],[-57,2],[-28,10],[18,44],[-11,41],[-74,39],[-42,-5],[-37,-35],[-64,12],[-69,30],[-28,23],[-92,49],[-30,36],[11,4],[60,-17],[39,-20],[41,2],[32,33],[45,-9],[40,28],[12,26],[2,72],[44,24],[5,41],[28,37],[128,79],[52,45],[9,50],[21,-5],[6,-34],[42,26],[-14,34],[67,9],[12,-5]],[[9106,1937],[31,-7],[-27,-26],[-26,23],[22,10]],[[9354,1961],[18,-32],[-11,-29],[-43,27],[36,34]],[[7991,1968],[18,-35],[-9,-53],[11,-10],[17,-64],[-15,-39],[-20,-1],[-8,38],[-32,20],[-14,35],[23,47],[-15,31],[12,23],[32,8]],[[8162,1966],[-4,32],[17,-3],[-13,-29]],[[8932,2012],[-18,16],[9,30],[-11,30],[26,3],[5,-41],[-11,-38]],[[8140,2121],[20,-57],[-4,-51],[-15,1],[-29,39],[-4,60],[32,8]],[[8078,2131],[15,-12],[-12,-25],[-24,8],[21,29]],[[8085,2209],[28,-14],[31,-54],[-13,3],[-26,46],[-26,-4],[6,23]],[[7243,4656],[-73,20],[-62,-10],[-47,27],[-57,43],[-41,-9],[-105,-4],[-70,-35],[-23,-27],[-32,-1],[-44,42],[2,30],[-50,6],[-35,-20],[-57,23],[-4,39],[-57,27],[-29,0]],[[6459,4807],[-8,15],[15,47],[-60,49],[-93,19],[12,49],[104,95],[-3,13],[32,40],[-38,30],[-1,34],[37,12],[-3,29],[28,49],[42,32],[60,-12],[54,19],[66,-6],[41,39],[-4,28],[13,31],[43,54],[35,9],[33,-12],[49,0],[41,-13],[42,34],[56,32],[39,8],[58,-4],[15,21],[-10,26],[51,17],[7,41],[-12,22],[13,19],[-22,27],[3,31],[-23,33],[2,24],[27,33],[-25,37],[0,34],[-13,10],[-14,75],[77,39],[71,42],[-4,14],[28,38],[46,7],[1,25],[111,54],[22,39],[53,56],[15,40]],[[7568,6331],[54,-4],[38,-25],[39,-8],[118,-2],[17,7],[89,-25],[146,-34],[45,2],[21,-13],[37,-85],[36,-33],[76,-8],[24,13],[99,-28],[-14,-47],[-19,-22],[40,-24],[58,-11],[36,-30],[15,-28],[40,-10],[26,-55],[-14,-30],[95,-53],[55,-4],[40,-16],[38,-4],[51,16],[29,-22],[76,-14],[29,-22],[11,-34],[0,-43],[15,-13],[-37,-51],[10,-19],[-25,-73],[10,-31],[-6,-57],[-18,-6],[3,-41],[-10,-48],[20,-45],[-9,-68],[-51,-43],[-67,-19],[-10,-39],[-71,-32],[-7,-44],[-30,-19],[-49,-3],[-36,-36],[-77,-12],[-54,5],[-66,-45],[-20,-38]],[[8010,2840],[-13,-6],[29,-36],[4,-22],[26,-25],[-3,-28],[-20,-17],[-57,-13],[-63,7],[-89,-5],[-46,-67],[-1,-25],[-28,-29],[21,-26],[-13,-71],[-29,-1],[-38,21],[-17,-4],[-5,-28],[-28,-14],[26,-22],[-2,-60],[35,-15],[-2,-27],[16,-48],[-17,-25],[-34,-2],[20,-13],[-32,-17],[63,-1],[25,-8],[18,-38],[19,-86],[-11,-17],[-21,17],[-20,-13],[-4,-26],[50,-31],[13,-39],[-87,-42],[-116,-3],[-29,-27],[-23,-65],[-40,-77],[-10,-39],[23,-6],[-16,-21],[13,-15],[38,-1],[9,-30],[-34,-43],[-15,6],[-44,-47],[-60,-13],[-33,38],[25,11],[-27,37],[-22,56],[-79,27],[-54,0],[8,-61],[-22,-26],[-33,-19],[25,-54],[-63,7],[-39,-22],[-16,-26],[-44,-24],[-80,50],[-1,13],[-41,18],[-13,88],[-41,46],[4,48],[-16,22],[-39,19],[14,27],[-33,19],[13,8],[-21,30],[-21,-10],[-36,24],[-73,-18],[-56,-37],[-37,-11],[-69,35],[-31,32],[-6,35],[-59,21],[-87,6],[-18,21],[-45,-3],[-71,24],[-73,0],[-15,-21],[-23,12],[7,77],[-23,119],[19,23],[-5,36],[-37,136],[-42,116],[-40,135]],[[5922,2641],[85,10],[56,-4],[38,-40],[120,-6],[29,18],[38,-5],[40,16],[8,30],[60,14],[31,18],[136,43],[44,-16],[43,4],[37,18],[21,34],[4,38],[-24,22],[23,15],[51,-8],[44,16],[9,38],[47,52],[0,33],[-26,20],[6,17],[37,5],[31,28],[20,43],[37,51],[-2,41],[-34,9],[3,22],[49,18],[17,28],[64,22],[21,27],[17,44],[-11,20],[14,35],[20,18],[0,34],[-42,20],[10,59],[18,26]],[[7648,1434],[-31,1],[29,13],[2,-14]],[[7559,1517],[29,-11],[-10,-39],[-49,29],[4,36],[26,-15]],[[7232,1703],[20,-1],[14,-35],[-6,-20],[-25,-3],[-21,59],[18,0]],[[7821,2293],[10,-23],[-64,-17],[-28,-17],[47,53],[35,4]],[[7981,2393],[13,-18],[-47,13],[19,16],[15,-11]],[[7930,2409],[-22,-24],[-25,20],[-1,37],[19,25],[8,-35],[21,-23]],[[8046,2445],[-50,11],[-60,46],[18,90],[20,37],[48,-48],[43,-20],[15,-65],[-33,-14],[-1,-37]],[[8073,2607],[-38,-7],[-6,24],[40,9],[4,-26]],[[7890,2561],[-16,11],[-5,54],[20,10],[-10,-45],[11,-30]],[[7990,2650],[-32,24],[56,-1],[-24,-23]],[[6459,4807],[-40,-4],[-25,-33],[-35,-12],[-92,0],[-64,-56],[-51,-4],[-46,-16],[-43,1],[-45,-28],[-20,0],[-31,33],[-8,65],[-47,12],[-22,-41],[-31,-32],[-45,2],[-30,-29],[-63,-23],[-5,-21],[-67,-9],[-39,-13],[3,-20]],[[5613,4579],[-38,7],[-14,28],[19,19],[49,9],[53,20],[8,42],[24,21],[-12,49],[14,39],[-12,47],[-37,70],[2,16],[-47,240],[-22,51],[-57,32],[-58,17],[-9,62],[25,-24],[87,-10],[50,14],[74,43],[36,3],[59,52],[17,50],[28,20],[10,58],[0,76],[-27,99],[-14,23],[-49,41],[62,25],[45,47],[15,46],[-4,106],[-18,81],[39,13],[68,41],[38,46],[29,75],[17,15],[27,52],[13,72],[-4,40],[32,43],[46,18],[19,26],[0,51],[32,26],[37,0],[30,17],[41,54],[19,38],[51,51],[10,30],[62,46],[39,4],[81,-32],[104,45],[55,16],[16,37],[-1,32]],[[6772,6954],[33,4],[92,-12],[38,-13],[39,-33],[23,-54],[140,-79],[85,-2],[46,-33],[36,-52],[93,-31],[53,-31],[26,-1],[65,28]],[[7541,6645],[45,-35],[67,-19],[18,-27],[-24,-49],[0,-65],[-22,-32],[-42,-39],[-15,-48]],[[1594,5839],[-37,7],[-15,23],[35,41],[42,-12],[19,-22],[-8,-30],[-36,-7]],[[6443,6849],[12,34],[5,-22],[-17,-12]],[[5882,7084],[84,-8],[29,-27],[50,-4],[60,-21],[186,-45],[51,-26],[78,-29],[12,-35],[-87,-134],[-12,-12],[-29,-73],[-47,-43],[-56,3],[-31,-35],[7,-48],[-8,-18],[-80,-40],[-13,-19],[-2,-39],[-16,-86],[-22,-42],[-34,-37],[-69,-103],[-35,-28],[4,29],[-9,73],[-34,74],[-72,77],[-42,39],[-14,33],[42,47],[74,96],[13,45],[2,87],[-17,111],[-28,70],[-41,69],[-54,49],[88,40],[72,10]],[[6772,6954],[-5,35],[16,16],[63,34],[50,18],[70,35],[-3,30],[31,36],[92,7],[46,31],[-86,10],[-52,-19],[-49,-36],[-64,-26],[-26,-21],[-52,-5],[-82,-40],[-22,-34],[-43,-21],[-55,12],[-57,24],[-20,32],[-69,28],[8,17],[-18,35],[-56,31],[-7,15],[17,50],[18,19],[35,10],[12,40],[32,31],[70,39],[67,30],[63,13],[135,-4],[33,-44],[-3,-14],[42,5],[50,-17],[48,0],[13,26],[-55,40],[-39,10],[-2,35],[16,33],[-31,2],[-20,-17],[-35,8],[-41,86],[83,27],[-5,17],[-64,-5],[-32,-24],[-39,-13],[-58,8],[-9,40],[-26,49],[-3,33],[-18,17],[-23,-9],[-7,22],[39,48],[-49,15],[-21,43],[16,33],[0,34],[-35,52],[-91,76],[-14,27],[-54,49],[-23,43],[-13,43],[5,40],[23,37],[9,35],[56,35],[27,40],[36,-18],[7,-28],[88,1],[19,21],[37,-1],[27,-17],[13,-25],[48,-33],[56,-14],[40,14],[-27,32],[7,96],[-185,51],[-14,25],[24,40],[46,21],[68,42],[37,40],[39,69],[0,25],[-41,-1],[-29,20],[1,25],[36,20],[53,19],[21,-15],[36,14],[12,19],[26,112],[2,54],[30,31],[6,25],[27,17],[51,8],[13,-16],[59,-4],[11,21],[-11,26],[13,67],[48,4],[18,-31],[31,-9],[-1,-16],[41,-25],[40,-2],[146,-52],[25,22],[-1,16],[70,-15],[0,-43],[32,-8],[42,-37],[41,-1],[37,-12],[30,4],[33,41],[54,-42],[14,5],[38,-33],[-16,-40],[49,22],[138,-4],[54,12],[91,-28],[19,-29],[89,-18],[0,-27],[-25,-29],[-2,-34],[18,-19],[11,-60],[-5,-40],[38,-51],[-34,-49],[3,-28],[-33,-13],[7,-37],[-43,-7],[-26,-15],[2,-25],[-56,-13],[4,-18],[-54,-39],[-35,-5],[-22,-16],[-5,-40],[-22,-36],[12,-44],[-41,-20],[-11,-26],[22,-30],[7,-31],[-15,-30],[21,-47],[53,-33],[7,-34],[-64,-10],[-40,-31],[-79,-48],[14,-56],[-43,-49],[50,-43],[-7,-22],[37,-26],[5,-53],[19,-56],[1,-38],[24,-31],[-39,-39],[-44,-27],[-37,-2],[-79,-37],[16,-54],[-6,-41],[10,-27],[42,-48],[43,-11],[18,-31],[-10,-14],[39,-40],[-5,-36],[33,2],[42,-27],[14,-23],[32,-14],[26,-33],[57,-19],[2,-17],[-52,-79],[-61,4],[-43,12],[-89,-42],[-45,-3],[-50,-22],[-102,-31],[-117,-27],[-18,-52],[9,-38],[-63,-35]],[[103,3758],[26,-25],[32,-2],[41,-20],[-43,-19],[-33,11],[-62,52],[39,3]],[[128,3812],[-35,15],[-38,37],[-16,32],[110,-66],[-21,-18]],[[0,4309],[23,-12],[49,-6],[-14,-66],[-27,9],[-31,75]],[[71,4424],[10,-15],[-22,-16],[-30,8],[3,53],[39,-30]],[[136,4904],[35,0],[10,-32],[-13,-64],[-20,-29],[36,-30],[-26,-30],[38,-53],[-7,-8],[-59,16],[-18,42],[2,46],[-54,39],[7,30],[-22,21],[25,28],[66,1],[0,23]],[[151,4988],[35,-16],[-1,-28],[-38,2],[-67,23],[71,19]],[[6663,6901],[-61,19],[-18,27],[79,-46]],[[6834,7482],[-21,9],[23,19],[-2,-28]],[[1689,7368],[-33,5],[-23,20],[-20,42],[23,12],[-17,58],[27,15],[60,-59],[28,-59],[-45,-34]],[[6685,7594],[-38,27],[20,16],[18,-43]],[[6648,7650],[-6,-21],[-18,17],[24,4]],[[6111,8042],[31,-47],[22,-2],[35,-41],[-12,-88],[51,-13],[16,15],[26,-3],[20,-35],[0,-25],[46,-19],[4,-11],[92,-63],[1,-40],[17,-16],[63,-124],[6,-38],[-50,-42],[-2,-25],[-37,-33],[-28,-1],[-39,-17],[-12,-28],[-61,-59],[-48,-22],[-6,-35],[-76,-19],[-77,-13],[-7,-28],[-40,14],[-15,-8],[-221,-1],[-93,13],[11,90],[32,159],[4,85],[-8,163],[-10,52],[0,53],[19,-16],[30,12],[35,44],[24,46],[3,35],[-12,89],[22,35],[61,-6],[38,7],[113,9],[32,-3]],[[6569,7889],[-16,-50],[2,-34],[-53,-21],[-65,53],[-74,79],[-31,22],[-29,49],[-6,67],[23,61],[16,4],[113,-108],[61,-45],[61,-53],[-2,-24]],[[6811,8303],[-20,8],[-5,27],[25,-35]],[[6711,8403],[48,-32],[19,-55],[-33,14],[-42,39],[8,34]],[[6369,8571],[-34,-51],[-58,-48],[-12,-33],[-25,-28],[-67,-19],[-19,-40],[-44,-56],[4,-30],[53,-19],[3,-24],[-32,-9],[-60,-38],[-20,-62],[-41,-5],[-85,-42],[-46,1],[-31,-21],[-20,1],[41,62],[-1,55],[-13,64],[12,12],[1,42],[91,-2],[27,21],[46,79],[6,44],[51,5],[48,54],[44,29],[17,57],[62,81],[19,-23],[64,-27],[19,-30]],[[6437,9082],[-12,-12],[-19,21],[26,20],[5,-29]],[[2184,9346],[22,-10],[10,-34],[-37,-18],[-33,8],[-5,27],[43,27]],[[2460,9476],[-6,-9],[-39,23],[45,-14]],[[2164,9652],[41,-43],[10,-32],[-69,-27],[5,-20],[100,-5],[-10,-34],[49,-5],[21,-28],[22,-55],[-1,-19],[-32,1],[-34,-15],[-31,0],[-2,28],[-23,44],[-101,45],[8,18],[-46,9],[-18,-8],[-69,19],[-47,63],[3,19],[50,-7],[25,-19],[38,-2],[18,22],[-18,10],[33,27],[78,14]],[[1870,9663],[21,-10],[-16,-30],[-49,-3],[29,43],[15,0]],[[2362,9895],[45,-6],[21,-15],[-8,-18],[63,-35],[39,13],[10,-27],[-68,-30],[-34,4],[-6,-27],[17,-18],[89,-24],[-22,-7],[23,-36],[-27,-32],[-40,46],[-71,14],[-92,56],[-7,17],[-71,-4],[2,-42],[31,-25],[30,-43],[-5,-18],[34,-27],[-6,-20],[-66,41],[-46,11],[-20,51],[-27,10],[-21,-13],[-36,9],[-40,-7],[-51,30],[-6,13],[44,9],[68,-27],[22,13],[-38,57],[-47,3],[27,63],[67,-11],[63,7],[17,14],[67,3],[5,27],[58,10],[13,-9]],[[2530,9999],[16,-6],[-9,-31],[-23,33],[16,4]],[[9040,4637],[41,29],[9,35],[52,13],[51,-7],[17,17],[67,27],[45,-8],[28,5],[60,48],[37,51],[89,-4],[56,-12],[71,32],[34,0],[33,-21],[56,-13],[25,-47],[63,-16],[43,-28],[3,-55],[42,-7],[-18,-58],[20,-32],[-14,-31],[16,-16],[-4,-39],[28,-3],[9,-44],[-34,-23],[-11,-28],[-54,-47],[-53,-30],[8,-24],[-43,-41],[-45,-79],[-18,-56],[6,-43],[-34,-59],[0,-47],[-30,5],[-50,-74],[-33,-66],[-28,-8],[-1,-46],[-49,-19],[-28,-32],[-34,6],[31,-52],[15,5],[27,-34],[20,4],[9,-22],[36,-7],[8,-48],[39,12],[7,-15],[-36,-23],[-19,2],[7,-34],[-19,-26],[-1,-34],[19,-25],[-4,-47],[-19,-21],[-68,-5],[-63,-24],[-37,-32],[-10,-27],[9,-21],[57,-27],[55,-37],[35,-36],[14,-45],[-30,-23],[-141,-20],[-79,-16],[-13,24],[-102,8],[-14,9],[-55,0]],[[5922,2641],[-38,67],[-23,103],[-44,117],[-43,130],[-51,136],[-58,136],[-54,107],[-17,45],[-13,70],[-68,162],[-18,83],[-32,97],[-73,178],[-35,53],[-27,53],[19,83],[47,71],[21,48],[30,19],[52,-54],[99,21],[37,21],[21,30],[15,47],[-21,10],[-24,40],[10,35],[-5,29],[-16,1]]],"transform":{"scale":[0.00010752393039303854,0.00015912531823181956],"translate":[97.63227880200009,7.88786216400007]},"objects":{"Phangnga":{"type":"GeometryCollection","geometries":[{"arcs":[[[0]],[[1]],[[2,3,4,5,6,7]]],"type":"MultiPolygon","properties":{"Shape_Leng":1.472376805,"Shape_Area":0.0454673088808,"ADM2_EN":"Mueang Phangnga","ADM2_TH":"เมืองพังงา","ADM2_PCODE":"TH8201","ADM1_EN":"Phangnga","ADM1_TH":"พังงา","ADM1_PCODE":"TH82","ADM0_EN":"Thailand","ADM0_TH":"ประเทศไทย","ADM0_PCODE":"TH"}},{"arcs":[[[8]],[[9]],[[10]],[[11]],[[12]],[[13]],[[14]],[[15]],[[16]],[[17]],[[18]],[[19]],[[20]],[[21]],[[22]],[[23]]],"type":"MultiPolygon","properties":{"Shape_Leng":1.73371764172,"Shape_Area":0.0113834742145,"ADM2_EN":"Ko Yao","ADM2_TH":"เกาะยาว","ADM2_PCODE":"TH8202","ADM1_EN":"Phangnga","ADM1_TH":"พังงา","ADM1_PCODE":"TH82","ADM0_EN":"Thailand","ADM0_TH":"ประเทศไทย","ADM0_PCODE":"TH"}},{"arcs":[[-8,24,25,26]],"type":"Polygon","properties":{"Shape_Leng":1.09365547674,"Shape_Area":0.0498362327425,"ADM2_EN":"Kapong","ADM2_TH":"กะปง","ADM2_PCODE":"TH8203","ADM1_EN":"Phangnga","ADM1_TH":"พังงา","ADM1_PCODE":"TH82","ADM0_EN":"Thailand","ADM0_TH":"ประเทศไทย","ADM0_PCODE":"TH"}},{"arcs":[[[-6,27,28]],[[29]],[[30]],[[31]],[[32]],[[33]],[[34]],[[35]],[[36]],[[37]],[[38]]],"type":"MultiPolygon","properties":{"Shape_Leng":1.74504458948,"Shape_Area":0.0404391286842,"ADM2_EN":"Takua Thung","ADM2_TH":"ตะกั่วทุ่ง","ADM2_PCODE":"TH8204","ADM1_EN":"Phangnga","ADM1_TH":"พังงา","ADM1_PCODE":"TH82","ADM0_EN":"Thailand","ADM0_TH":"ประเทศไทย","ADM0_PCODE":"TH"}},{"arcs":[[[-26,39,40,41,42]],[[43]],[[44]],[[45]]],"type":"MultiPolygon","properties":{"Shape_Leng":1.63848960655,"Shape_Area":0.0475749234551,"ADM2_EN":"Takua Pa","ADM2_TH":"ตะกั่วป่า","ADM2_PCODE":"TH8205","ADM1_EN":"Phangnga","ADM1_TH":"พังงา","ADM1_PCODE":"TH82","ADM0_EN":"Thailand","ADM0_TH":"ประเทศไทย","ADM0_PCODE":"TH"}},{"arcs":[[[-42,46]],[[47]],[[48]],[[49]],[[50]],[[51]],[[52]],[[53]],[[54]],[[55]],[[56]],[[57]],[[58]],[[59]],[[60]],[[61]],[[62]],[[63]],[[64]],[[65]],[[66]],[[67]],[[68]],[[69]]],"type":"MultiPolygon","properties":{"Shape_Leng":3.62545731007,"Shape_Area":0.0672796227844,"ADM2_EN":"Khura Buri","ADM2_TH":"คุระบุรี","ADM2_PCODE":"TH8206","ADM1_EN":"Phangnga","ADM1_TH":"พังงา","ADM1_PCODE":"TH82","ADM0_EN":"Thailand","ADM0_TH":"ประเทศไทย","ADM0_PCODE":"TH"}},{"arcs":[[-4,70]],"type":"Polygon","properties":{"Shape_Leng":0.884097665156,"Shape_Area":0.0243438504877,"ADM2_EN":"Thap Put","ADM2_TH":"ทับปุด","ADM2_PCODE":"TH8207","ADM1_EN":"Phangnga","ADM1_TH":"พังงา","ADM1_PCODE":"TH82","ADM0_EN":"Thailand","ADM0_TH":"ประเทศไทย","ADM0_PCODE":"TH"}},{"arcs":[[-7,-29,71,-40,-25]],"type":"Polygon","properties":{"Shape_Leng":1.13498137718,"Shape_Area":0.0501677578047,"ADM2_EN":"Thai Mueang","ADM2_TH":"ท้ายเหมือง","ADM2_PCODE":"TH8208","ADM1_EN":"Phangnga","ADM1_TH":"พังงา","ADM1_PCODE":"TH82","ADM0_EN":"Thailand","ADM0_TH":"ประเทศไทย","ADM0_PCODE":"TH"}}]}}}