{"type":"Topology","arcs":[[[6978,7625],[23,-206],[88,-665],[38,-332],[65,-470]],[[7192,5952],[-938,-42],[-21,1],[-58,41],[-59,6],[-18,-29],[-4,-41],[-357,-73],[-95,-33],[-120,-5],[-79,-80],[-55,-81],[-78,-141],[-124,-4],[-16,-20],[-61,-3],[-47,-28],[-18,-54],[-79,-52],[2,-27],[-26,-33],[-1,-80],[-64,-57],[-40,-68],[2,-110],[-39,-58],[-82,4],[-44,-31],[-27,11],[-46,-23],[-40,9],[-29,-27],[-31,4],[-90,-6],[-9,-12],[-26,32],[-48,-15],[-8,-37],[18,-30],[145,-108],[8,-27],[-95,-79],[6,-37],[-49,2],[-14,-91],[-22,-73],[-57,-9],[-8,-24],[-36,-18],[-58,4],[-61,-10],[-5,-12],[-77,0]],[[4014,4278],[13,63],[-12,41],[11,26],[-69,19],[-65,-18],[-4,40],[30,1],[11,48],[45,6],[-7,37],[38,11],[21,40],[53,9],[1,88],[52,8],[-15,114],[-33,9],[21,20],[-20,62],[3,33],[43,28],[6,58],[28,55],[27,7],[52,57],[17,115],[18,21],[-45,7],[-89,-2],[-44,22],[-39,45],[-39,29],[-28,6],[-138,-2],[-52,-10],[-91,26],[-32,-7]],[[3682,5390],[-11,170],[-4,124],[-12,104],[75,120],[-91,13],[-91,40],[-116,-26],[0,40],[-18,41],[36,29],[99,32],[114,22],[-9,48],[-3,121],[-10,156],[-1,170],[15,126]],[[3655,6720],[60,-9],[45,-21],[94,13],[120,-2],[54,43],[33,-10],[125,6],[34,46],[51,-1],[27,-14],[77,49],[68,56],[16,35],[31,19],[69,-13],[54,24],[-14,48],[8,45],[-8,38],[24,19],[42,70],[20,18],[-12,33],[-46,10],[-31,72],[15,22],[37,11],[13,27],[-4,48],[161,58],[50,59],[27,59],[-18,48],[50,17],[28,-30],[103,-9],[31,49],[36,18],[-5,29],[52,32],[42,-1],[36,32],[59,-7],[37,21],[47,62],[26,12],[112,-16],[23,6],[63,44],[59,-1],[29,11],[26,34],[53,13],[49,-50],[45,-18],[0,-40],[35,-21],[26,7],[1039,-195]],[[4014,4278],[-48,1],[11,-68],[-59,-9],[8,-49],[-30,-7],[-15,-39],[-48,3],[-63,-25],[-15,-52],[18,-34],[9,-69],[-6,-42],[21,-75],[57,-60],[23,-91],[41,-75],[-56,-28],[-21,-32],[-3,-39],[36,-63],[-14,-60],[21,-13],[29,12],[39,-12],[21,-56],[103,-28]],[[4073,3268],[4,-106],[39,-4],[3,-19],[-83,-48],[-80,-14],[-40,1],[-7,-37],[-55,-13],[-17,-27],[-39,5],[14,-19],[-14,-62],[-30,-20],[-21,15],[-54,-33],[-39,-10],[6,-19],[-59,1],[-9,20],[-35,10],[-35,-15],[-72,21],[-23,-24],[-2,-54],[-36,-36],[-83,-40],[-119,-12],[-66,39],[-23,28],[-33,-50],[-47,-11],[-43,2]],[[2975,2737],[-9,43],[-29,10],[-79,-4],[-36,9],[-99,6],[-63,-6],[-79,17],[-18,54],[-28,26],[-7,64],[-44,24],[-29,42],[16,23],[-28,53],[4,31],[27,41],[5,30],[-22,54],[-66,33],[-44,67],[1,41],[56,60],[23,77],[-6,32],[-54,38],[-30,39],[-35,73],[17,57],[-42,67],[-58,24],[-25,33],[-2,61],[-114,50],[-23,62],[-53,39],[-1,64],[-59,82],[-43,34],[-58,9],[14,48],[-31,23],[45,44],[-50,38],[-3,45],[-24,48],[-111,44],[-14,12],[-17,68],[36,27]],[[1686,4693],[37,19],[19,25],[49,15],[39,33],[99,39],[41,-9],[99,-58],[76,-18],[71,47],[18,28],[64,22],[84,46],[33,-23],[56,33],[18,37],[24,-4],[-16,-27],[14,-14],[55,8],[28,101],[50,9],[30,33],[53,9],[10,-35],[42,1],[10,52],[69,58],[31,38],[47,29],[34,-11],[1,24],[79,4],[7,-13],[67,-8],[37,-46],[59,73],[92,58],[26,30],[-10,-43],[-5,-102],[67,8],[83,1],[95,30],[53,29],[22,46],[30,9],[9,114]],[[7192,5952],[30,-353],[25,-102],[18,-23],[252,-397],[67,-95],[179,-1]],[[7763,4981],[45,-222]],[[7808,4759],[-240,-10],[-370,2],[-149,6],[-55,-14],[-126,-6],[-26,-13],[-145,6],[-37,29],[-112,10],[-49,-48],[-34,-9],[-32,-34],[17,-32],[-13,-22],[-23,9],[-79,-6],[-9,24],[8,55],[-17,8],[-47,-80],[-66,-4],[-59,-49],[-87,-39],[-59,-1],[-58,29],[-37,-68],[-19,-12],[24,-35],[-22,-43],[-38,-40],[-15,-60],[-33,-17],[-37,-70],[-1,-35],[-81,-25],[-51,-62],[1,-31],[23,-43],[21,-100],[-53,-27],[6,-22],[-26,-29],[-27,6],[-16,-35],[-38,21],[-41,-35],[-45,-14],[7,-26],[-29,8],[-7,-28],[22,-10],[-33,-15],[25,-9],[4,-26],[-41,-5],[-38,-40],[-33,2],[19,-29],[-29,-17],[18,-21],[-20,-18],[-24,35],[-19,-4],[28,-61],[25,4],[-52,-55],[42,-6],[9,-66],[48,-35],[43,-63]],[[5401,3309],[-77,20],[-141,58],[-58,9],[-37,-48],[-25,-9],[-117,10],[-2,36],[-54,-12],[-120,32],[-4,62],[-24,-16],[-59,-9],[-39,-32],[-54,-8],[-11,-28],[-109,-2],[-26,-23],[-103,-2],[-78,-62],[-117,-20],[-73,3]],[[5401,3309],[33,-55],[76,-15],[24,17],[90,7],[105,39],[47,-9]],[[5776,3293],[23,-28],[-1,-25],[-27,-32],[-16,-45],[-41,-27],[-17,-26],[4,-74],[-10,-41],[-55,-37],[-18,-41],[-26,-11],[-22,-65],[-54,-57],[10,-75],[25,-22],[57,-102],[-2,-45],[-94,-11],[-59,-34],[14,-22],[58,-18],[13,-48],[73,-28],[-6,-46],[-41,-49],[41,-24],[14,-67],[-161,-48],[-15,-22],[-62,8],[-33,39],[-150,-33],[0,-54],[-19,-18],[14,-25],[-27,-27],[11,-69],[-59,-61],[-39,-26],[-35,-5],[3,-66],[-60,-8],[-53,-44],[-62,1],[-41,-16],[-8,-40],[-42,-5],[-20,-32],[-103,-16],[-5,-40],[-61,-23],[-22,-20],[2,-45],[27,-46],[5,-39],[-54,-86],[-20,-3],[-137,48],[-84,7],[-56,57],[-59,18],[-98,0],[-93,19],[-27,36],[-34,3],[-114,-73],[-8,27],[-42,28],[-36,-4],[-74,37],[-105,16],[-70,-51],[-38,-2],[-45,-64],[4,-38],[-24,-20],[5,-23],[-40,-19],[-64,19],[-54,-7]],[[3237,1338],[-71,14],[-50,20],[-51,69],[-29,73],[11,11],[34,-22],[23,13],[4,39],[-35,29],[5,44],[-57,39],[-24,64],[-41,12],[15,44],[-89,49],[-16,81],[41,37],[11,45],[32,28],[18,-7],[44,30],[35,82],[32,18],[-1,45],[-32,15],[-50,99],[-8,45],[18,53],[-14,7],[3,46],[-25,153],[-31,44],[35,37],[1,43]],[[3655,6720],[-23,40],[-45,2],[-16,15],[-26,-13],[-31,13]],[[3514,6777],[11,50],[-26,169],[-39,21],[-41,-9],[-149,-9],[-77,-22],[-48,10],[-72,-10],[-121,-1],[-147,68],[-3,64],[13,41],[-108,25],[-115,65],[-101,105],[17,24],[9,51],[48,45],[68,37],[20,54],[35,19],[19,47],[21,16],[18,81],[-2,82],[25,94],[-27,54],[-4,28],[-30,18],[-25,87],[-11,106],[8,36],[-8,88],[100,17],[23,30],[-19,24],[62,10],[82,24],[-4,26],[28,12],[37,-12],[-33,44],[12,47],[-35,50],[-83,13]],[[2842,8596],[35,60],[30,-10],[123,5],[36,41],[50,23],[41,-6],[33,24],[68,-6],[15,-36],[50,-21],[42,24],[52,-14],[77,-2],[-2,36],[34,18],[35,-5],[86,272],[9,37],[23,11],[25,71],[-12,125],[62,9],[-16,16],[-58,7],[-4,18],[-115,-12],[64,190]],[[3625,9471],[42,-33],[46,-13],[61,-42],[57,-26],[46,-7],[111,-55],[66,-5],[59,-36],[74,17],[80,9],[57,-5],[86,-49],[51,-14],[37,20],[76,-4],[30,-37],[39,-22],[48,18],[71,50],[76,-27],[47,-8],[-18,60],[73,56],[46,59],[69,61],[36,12],[11,31],[61,88],[41,2],[42,25],[1,35],[29,0],[45,22],[99,21],[199,-9],[107,-22],[75,-50],[46,-51],[18,-2],[63,33],[41,0],[180,23],[152,7],[89,37],[65,-245],[119,-429],[64,-210],[71,-260],[14,-69],[24,-27],[84,-289],[124,-288],[23,-198]],[[7763,4981],[330,-14],[57,43],[131,73],[669,282],[442,-196],[18,-181],[-74,-884],[51,-106],[46,-48],[99,-86],[47,-88],[6,-148],[22,-113],[67,-186],[53,-134],[1,-74],[12,-63],[59,-128],[77,-116],[115,-113],[8,-20],[-9,-71],[-29,-90],[-5,-45],[32,-92],[-19,-40],[-34,-25],[-117,-31],[-67,-30],[-19,-21],[-21,-90],[-93,-35],[-44,13],[-45,59],[-28,22],[-83,36],[-50,40],[-26,52],[27,92],[-17,55],[-46,48],[-27,60],[17,75],[-18,71],[-36,-10],[-19,-28],[-11,-72],[-35,2],[-129,-22],[-59,-30],[-27,-52],[8,-57],[29,-42],[-6,-29],[40,-59],[-25,-34],[-54,9],[-115,-17],[-13,-30],[-28,-14],[-51,20],[-1,-66],[-26,-58],[0,-100],[21,-35],[5,-43],[-11,-31],[-43,-12],[-8,-19],[-55,-26],[18,-50],[-121,-48],[-22,6],[-69,-44],[-45,-14]],[[8390,1729],[-68,69],[-78,119],[-14,-24],[-50,-33],[-27,6],[-115,-29],[-98,23],[-63,-14],[-40,0],[-101,51],[-43,-15],[-33,15],[-70,-25],[-19,-33],[-8,-57],[-54,-8],[-26,-28],[-48,-2],[-35,59],[-14,67],[-53,9],[-32,38],[-7,30],[-36,-8],[-27,44],[-9,51],[1,73],[-43,-19],[-72,-13],[-84,-47],[-67,3],[3,37],[-67,7],[-39,-8],[-64,-54],[-59,7],[-48,27],[-2,30],[47,36],[2,82],[37,25],[35,-8],[89,54],[-8,26],[56,24],[-14,24],[26,7],[-14,98],[60,10],[63,-8],[42,-19],[0,52],[62,25],[31,-19],[17,-60],[26,37],[-16,39],[19,50],[43,6],[21,26],[120,-6],[44,16],[10,51],[38,11],[15,21],[-36,35],[-135,204],[-243,280],[-18,14],[-203,104],[-23,19],[-212,246]],[[6662,3579],[-102,120],[-1,10],[53,27],[101,29],[207,47],[99,19],[48,63],[61,70],[47,9],[140,-13],[72,0],[50,9],[118,40],[331,246],[-78,504]],[[3514,6777],[-40,17],[-2,32],[-74,17],[-36,-6],[-12,-21],[-73,36],[-21,-22],[-48,9],[6,-17],[-78,4],[-47,-33],[-15,10],[-36,-41],[-35,-6],[-12,-102],[-26,6],[-48,-33],[-25,23],[-58,-29],[-18,8],[-50,-12],[-11,16],[-65,3],[-19,-48],[-107,-36],[-42,-51],[9,-67],[-18,-59],[-35,-24],[-26,19],[-44,10],[-96,-48],[-28,31],[-89,58],[-69,10],[-47,28],[26,62],[-62,45],[-48,5],[-41,-24],[-78,-65],[-19,-47],[-46,-24],[-27,-34],[-71,-50],[-49,-25],[-52,-55],[-26,-8],[-133,55],[-24,-24],[-112,-41],[-111,30],[-79,-46],[-82,-21],[-29,29],[-41,2]],[[975,6223],[6,51],[-8,29],[29,56],[56,40],[4,87],[39,38],[-109,48],[-55,48],[0,43],[-28,56],[-48,27],[-41,12],[-31,38],[102,15],[125,-2],[78,-10],[0,35],[63,13],[22,20],[2,39],[35,67],[-9,80],[39,40],[-42,62],[25,49],[-4,39],[-25,26],[-67,22],[-60,5],[-81,20],[6,55],[-49,41],[-3,32],[-97,34],[1,21],[-29,58],[-14,64],[1,84],[-27,31],[-30,59],[9,46],[-22,29],[-4,36],[62,88],[-5,16]],[[791,8010],[68,136],[27,31],[94,30],[27,-3],[36,19],[41,-21],[33,-33],[83,-16],[51,16],[97,55],[30,-7],[31,16],[15,-47],[69,-31],[21,-43],[-6,-38],[41,-19],[55,38],[2,43],[29,27],[11,52],[34,16],[26,29],[20,-10],[99,8],[66,24],[11,-24],[66,14],[39,-18],[51,-48],[50,-2],[32,25],[38,-19],[116,-2],[71,32],[35,5],[34,-16],[78,12],[-9,50],[27,10],[109,129],[15,30],[48,31],[32,-3],[41,49],[19,42],[48,17]],[[5776,3293],[33,-19],[9,-26],[153,-6],[18,-21],[52,7],[42,-12],[9,34],[55,36],[42,1],[-14,38],[55,15],[45,73],[89,22],[48,-8],[9,69],[18,22],[154,35],[69,26]],[[8390,1729],[-33,-23],[-34,-110],[-44,-51],[-43,-80],[-20,-15],[-60,6],[-108,28],[-91,-4],[-48,-10],[-17,13],[-51,-22],[-122,-38],[-9,-26],[-113,-36],[-9,-23],[-42,-29],[-26,-4],[-30,27],[-55,6],[-31,-9],[-52,-59],[-55,-18],[-59,4],[-51,17],[-75,-18],[-28,7],[-70,-11],[-8,-17],[-66,-15],[-14,-29],[-56,-22],[-4,14],[-42,-2],[-4,-27],[-74,-13],[-11,12],[-69,-43],[-39,17],[-58,-25],[-42,-42],[-37,10],[-9,-21],[-58,5],[-31,-24],[-21,15],[-23,-29],[-32,-11],[-19,-74],[-37,-14],[-35,-28],[27,-35],[-45,-14],[14,-36],[-55,-6],[-31,-28],[0,-20],[-49,-33],[-51,29],[-2,20],[-52,-22],[-18,-24],[-118,44],[-49,-4],[-35,53],[4,28],[-73,4],[-78,79],[-27,-9],[-17,17],[-30,-8],[-58,12],[-44,-9],[-53,-31],[-29,-1],[-15,-29],[-68,-67],[-16,8],[-36,-55],[-65,-24],[-16,-16],[-102,-26],[-36,5],[-93,-4],[-13,-28],[-55,-40],[-25,-29],[-75,-11],[9,-36],[-21,-17],[11,-25],[-36,-56],[15,-36],[55,-21],[40,-47],[-1,-75],[-39,-21],[-48,0],[-64,-33],[-46,25],[-47,1],[-17,-24],[-54,14],[-51,-7],[-55,6],[-13,-16],[2,-44],[-12,-32],[-38,-6],[-46,-94],[-40,-34],[-39,24],[16,34],[4,66],[-13,29],[-57,17],[-129,62],[-114,26],[-20,-5],[-16,31],[-33,-17],[-16,29],[-39,14],[-78,110],[-16,4],[-41,83],[-9,59],[-23,30],[-67,39],[-21,66],[-61,12],[-38,21],[-15,47],[15,31],[-24,35],[-15,82],[-67,12],[-37,25],[-10,54],[-38,56],[29,48],[-46,58],[-11,39],[33,40],[14,41],[-26,36]],[[791,8010],[-69,52],[3,29],[-34,38],[41,52],[-6,26],[-94,10],[-49,64],[-83,33],[-8,15],[25,48],[-46,41],[11,43],[61,35],[1,75],[-58,78],[-38,14],[-6,40],[-53,24],[-29,39],[-2,45],[14,34],[-34,90],[-1,42],[-54,22],[-5,83],[-10,19],[-50,25],[-20,22],[-89,41],[-43,65],[-66,49],[2,58],[77,64],[59,-16],[61,14],[7,-31],[31,-11],[29,9],[16,26],[59,-5],[60,11],[10,20],[69,65],[39,-2],[42,43],[42,22],[41,40],[12,28],[35,5],[21,27],[150,41],[109,5],[25,62],[25,31],[65,32],[73,-39],[35,-48],[50,-22],[39,21],[4,25],[102,-38],[43,22],[68,-10],[11,29],[55,39],[50,-4],[59,-17],[14,-21],[124,16],[45,-31],[44,12],[60,-3],[128,54],[71,23],[26,-42],[72,-32],[174,-88],[84,-58],[218,-130],[26,22],[-46,16],[32,21],[29,-2],[76,76],[83,43],[71,15],[20,46],[45,12],[18,22],[4,37],[52,64],[11,59],[80,58],[63,11],[0,-29],[26,-18],[5,-63],[-10,-4],[-2,-59],[26,-24],[12,-47],[-15,-15],[13,-38],[-3,-61],[58,-15],[91,-42],[55,-60],[70,-53]],[[1686,4693],[-1,45],[47,23],[6,18],[-18,49],[-25,32],[-68,47],[-45,56],[-1,42],[-14,10],[-68,4],[-39,18],[-16,32],[-90,27],[-65,35],[-30,47],[18,24],[-2,36],[-36,28],[-4,21],[29,19],[61,5],[64,44],[-3,66],[115,109],[-21,43],[8,57],[-129,37],[-84,80],[-12,49],[-44,30],[-73,96],[-68,37],[-26,23],[-34,58],[-64,14],[-4,44],[-29,39],[21,55],[33,31]]],"transform":{"scale":[0.00006959959645965076,0.00008154900360036137],"translate":[99.73277308900005,7.090332414000045]},"objects":{"Phatthalung":{"type":"GeometryCollection","geometries":[{"arcs":[[0,1,2,3,4]],"type":"Polygon","properties":{"Shape_Leng":1.15467532904,"Shape_Area":0.0387008688599,"ADM2_EN":"Mueang Phatthalung","ADM2_TH":"เมืองพัทลุง","ADM2_PCODE":"TH9301","ADM1_EN":"Phatthalung","ADM1_TH":"พัทลุง","ADM1_PCODE":"TH93","ADM0_EN":"Thailand","ADM0_TH":"ประเทศไทย","ADM0_PCODE":"TH"}},{"arcs":[[-3,5,6,7,8]],"type":"Polygon","properties":{"Shape_Leng":0.902998787371,"Shape_Area":0.0235893582206,"ADM2_EN":"Kong Ra","ADM2_TH":"กงหรา","ADM2_PCODE":"TH9302","ADM1_EN":"Phatthalung","ADM1_TH":"พัทลุง","ADM1_PCODE":"TH93","ADM0_EN":"Thailand","ADM0_TH":"ประเทศไทย","ADM0_PCODE":"TH"}},{"arcs":[[-2,9,10,11,12,-6]],"type":"Polygon","properties":{"Shape_Leng":1.04119368502,"Shape_Area":0.0286304384361,"ADM2_EN":"Khao Chaison","ADM2_TH":"เขาชัยสน","ADM2_PCODE":"TH9303","ADM1_EN":"Phatthalung","ADM1_TH":"พัทลุง","ADM1_PCODE":"TH93","ADM0_EN":"Thailand","ADM0_TH":"ประเทศไทย","ADM0_PCODE":"TH"}},{"arcs":[[-7,-13,13,14,15]],"type":"Polygon","properties":{"Shape_Leng":0.84592367244,"Shape_Area":0.0227909113398,"ADM2_EN":"Tamot","ADM2_TH":"ตะโหมด","ADM2_PCODE":"TH9304","ADM1_EN":"Phatthalung","ADM1_TH":"พัทลุง","ADM1_PCODE":"TH93","ADM0_EN":"Thailand","ADM0_TH":"ประเทศไทย","ADM0_PCODE":"TH"}},{"arcs":[[-5,16,17,18,19]],"type":"Polygon","properties":{"Shape_Leng":1.20350837205,"Shape_Area":0.0441235669109,"ADM2_EN":"Khuan Khanun","ADM2_TH":"ควนขนุน","ADM2_PCODE":"TH9305","ADM1_EN":"Phatthalung","ADM1_TH":"พัทลุง","ADM1_PCODE":"TH93","ADM0_EN":"Thailand","ADM0_TH":"ประเทศไทย","ADM0_PCODE":"TH"}},{"arcs":[[-11,20,21,22]],"type":"Polygon","properties":{"Shape_Leng":1.19061067135,"Shape_Area":0.0404251681524,"ADM2_EN":"Pak Phayun","ADM2_TH":"ปากพะยูน","ADM2_PCODE":"TH9306","ADM1_EN":"Phatthalung","ADM1_TH":"พัทลุง","ADM1_PCODE":"TH93","ADM0_EN":"Thailand","ADM0_TH":"ประเทศไทย","ADM0_PCODE":"TH"}},{"arcs":[[-18,23,24,25]],"type":"Polygon","properties":{"Shape_Leng":0.992984966886,"Shape_Area":0.0196000587534,"ADM2_EN":"Si Banphot","ADM2_TH":"ศรีบรรพต","ADM2_PCODE":"TH9307","ADM1_EN":"Phatthalung","ADM1_TH":"พัทลุง","ADM1_PCODE":"TH93","ADM0_EN":"Thailand","ADM0_TH":"ประเทศไทย","ADM0_PCODE":"TH"}},{"arcs":[[-15,26,-22,27]],"type":"Polygon","properties":{"Shape_Leng":1.53327178223,"Shape_Area":0.0389362069623,"ADM2_EN":"Pa Bon","ADM2_TH":"ป่าบอน","ADM2_PCODE":"TH9308","ADM1_EN":"Phatthalung","ADM1_TH":"พัทลุง","ADM1_PCODE":"TH93","ADM0_EN":"Thailand","ADM0_TH":"ประเทศไทย","ADM0_PCODE":"TH"}},{"arcs":[[-12,-23,-27,-14]],"type":"Polygon","properties":{"Shape_Leng":0.626193469488,"Shape_Area":0.0131064420268,"ADM2_EN":"Bang Kaeo","ADM2_TH":"บางแก้ว","ADM2_PCODE":"TH9309","ADM1_EN":"Phatthalung","ADM1_TH":"พัทลุง","ADM1_PCODE":"TH93","ADM0_EN":"Thailand","ADM0_TH":"ประเทศไทย","ADM0_PCODE":"TH"}},{"arcs":[[-19,-26,28]],"type":"Polygon","properties":{"Shape_Leng":0.948649165326,"Shape_Area":0.0255126533791,"ADM2_EN":"Pa Phayom","ADM2_TH":"ป่าพะยอม","ADM2_PCODE":"TH9310","ADM1_EN":"Phatthalung","ADM1_TH":"พัทลุง","ADM1_PCODE":"TH93","ADM0_EN":"Thailand","ADM0_TH":"ประเทศไทย","ADM0_PCODE":"TH"}},{"arcs":[[-4,-9,29,-24,-17]],"type":"Polygon","properties":{"Shape_Leng":0.86193900311,"Shape_Area":0.0208525673017,"ADM2_EN":"Srinagarindra","ADM2_TH":"ศรีนครินทร์","ADM2_PCODE":"TH9311","ADM1_EN":"Phatthalung","ADM1_TH":"พัทลุง","ADM1_PCODE":"TH93","ADM0_EN":"Thailand","ADM0_TH":"ประเทศไทย","ADM0_PCODE":"TH"}}]}}}