{"type":"Topology","arcs":[[[2982,4290],[13,-22],[-8,-46],[-28,-12],[-32,20],[-2,-38],[-25,-23],[-77,3],[-2,-45],[-73,-47],[-35,4],[16,-46],[-9,-48],[-41,-23],[5,-34],[-37,-14],[21,-24],[-15,-31],[-31,12],[13,-25],[-68,9],[-18,-44],[-37,8],[54,-48],[177,-144],[2,-10],[154,-141],[128,-97],[20,-6],[16,-37],[19,-2],[47,-42],[-7,-58],[31,-77],[25,-29],[-7,-40],[20,-2],[50,-56],[-19,-12],[36,-43],[18,-57],[94,-126],[23,1],[9,-36],[22,-16],[-1,-69],[16,-11],[18,-59],[37,-47],[28,-5],[-1,-72],[19,-8],[20,-56],[-28,-24],[1,-46],[-17,-53],[-32,-31],[20,-92],[27,-39],[6,-40],[-22,-56],[-76,-47],[-9,-100],[45,-44],[-32,-76],[-50,-20],[-17,-51],[69,-32],[1,-43],[57,-57],[-33,-50],[33,-15],[-1,-48],[46,-16],[21,-32],[-23,-100],[-19,-29],[35,-91],[69,-145],[9,-58]],[[3640,984],[-46,-21],[-66,5],[-47,37],[-37,54],[-42,9],[-29,24],[-59,-26],[-22,34],[-56,55],[-77,45],[-22,28],[-40,-16],[-40,35],[-53,24],[-20,44],[-121,70],[-13,34],[-59,48],[-64,134],[-8,52],[-38,36],[-23,46],[-42,29],[-33,46],[-9,48],[-66,17],[-58,29],[-30,53],[-18,2],[-21,-49],[-46,-2],[-19,32],[-38,3],[-62,28],[-25,-16],[-23,37],[-36,27],[-19,66],[-41,5],[-63,-40],[-72,13],[-35,18],[-61,9],[-19,24],[-73,-2],[-35,18],[-60,-29],[-50,53],[-39,21],[-16,46],[50,44],[-6,58],[18,47],[-47,47],[-6,20],[36,75],[-40,9],[-83,78],[-4,44],[-29,40],[14,53],[-55,22],[-24,-45],[-64,0],[-40,-21],[-33,1],[-38,-35],[-68,28],[-66,-5],[-9,37],[-36,28],[-61,30],[11,127],[-52,19],[-40,71],[-2,34],[-22,40],[19,57],[-11,56],[-20,29],[-21,115],[-26,37],[-3,41],[18,70],[-12,63],[-74,31],[-28,27],[-55,27],[-17,54],[2,55],[-25,64],[-53,42],[-9,37],[-38,35],[-40,5],[22,73],[2,56],[-24,63],[-45,53],[4,63],[-24,38],[-9,55],[-53,46],[14,33],[-7,77],[-33,44],[-13,103],[-15,37],[-39,19],[-23,50],[28,24],[-1,22],[-37,58],[25,82],[-12,23],[17,142],[-24,82],[-8,142],[-36,30],[-6,50],[28,64],[12,65],[26,45]],[[229,5551],[67,-10],[85,14],[67,-33],[103,-20],[60,-19],[45,-41],[35,-14],[33,-54],[76,-28],[53,-50],[69,-77],[38,-13],[106,17],[23,19],[64,-7],[98,4],[116,34],[42,19],[8,63],[33,81],[38,18],[7,-27],[31,8],[-16,71],[-27,20],[22,55],[43,33],[81,-56],[24,-30],[60,32],[46,-24],[35,9],[50,59],[55,12],[25,26],[24,133],[5,83],[28,55],[90,-9],[82,-39],[40,7],[48,110],[-7,56],[-63,84],[-2,28],[23,36],[51,11],[1,-18],[41,-4],[-5,26],[-29,22],[17,37],[6,53],[60,37],[33,-15],[23,35],[61,14],[12,27],[45,44]],[[2508,6455],[47,-118],[10,-77],[35,-92],[13,-89],[1,-97],[-6,-64],[-21,-28],[14,-46],[-8,-72],[-22,-110],[17,-87],[0,-71],[-12,-134],[-22,-40],[4,-37],[-34,-89],[3,-32],[-20,-50],[-9,-95],[-14,-30],[-4,-59],[-24,-87],[5,-16],[-25,-49],[47,-42],[22,-34],[58,-8],[52,-41],[-21,-65],[27,-55],[71,-56],[31,-64],[47,-53],[68,-30],[7,-18],[80,49],[37,-19],[20,-60]],[[4977,7952],[32,-23],[8,-45],[-51,2],[13,-71],[33,-32],[38,-13],[-27,-25],[-28,0],[24,-45],[-12,-28],[-58,1],[-19,12],[-38,-41],[37,-35],[-5,-20],[-48,8],[-8,-12],[35,-30],[-47,-44],[66,-21],[32,-39],[34,-20],[93,-25],[-42,-50],[22,-13],[-16,-27],[56,-25],[-5,-9],[57,-40],[-78,-68],[50,-49],[74,16],[57,-2],[4,-24],[32,10],[6,46],[57,-43],[95,-46],[54,-63],[62,-41],[6,-83],[-52,-40],[-24,-99],[104,-48],[-23,-59],[33,-74],[-54,-9],[-66,-27],[39,-102],[15,-82],[41,-47],[27,-89],[44,-51],[-7,-38],[111,-141],[8,-57],[43,-95],[32,-36]],[[5843,5801],[16,-55],[-45,-37],[-40,-8],[-15,-29],[25,-36],[28,-106],[47,-20],[30,-29],[32,-3],[37,-39],[-23,-65],[7,-44],[56,-86],[41,-8],[67,-55],[8,-124],[23,-63],[-4,-36],[16,-37],[-34,-38],[-47,-14],[-70,-6],[-14,15],[-60,-11],[-73,61],[-106,14],[-15,-14],[-15,-101],[-43,-51],[5,-66],[-40,-32],[-7,-55],[-25,-38],[-1,-48],[-77,-24],[-61,55],[-85,11],[-22,-24],[-46,-16],[-65,-77],[-68,-45],[-57,-17],[-43,2],[-35,-51],[-73,-61],[-41,-18],[-22,15],[-51,-37],[-9,-46],[-41,-33],[-23,-44],[-26,-126],[-6,-65],[-76,-182],[-31,-4],[-79,25]],[[4567,3775],[25,97],[-17,30],[29,55],[-21,36],[36,81],[11,68],[-61,7],[-7,65],[11,45],[-44,92],[6,34],[-28,40],[-43,114],[0,81],[13,37],[0,62],[-11,32],[9,53],[-6,43],[-49,55],[-4,38],[-33,21],[-7,27],[17,39],[90,58],[-18,18],[-6,64],[-61,77],[10,62],[-43,11],[-44,-21],[-44,1],[4,27],[-86,-10],[-26,-15],[-67,0],[15,60],[24,36],[5,68],[32,29],[-48,22],[63,69],[12,114],[-80,16],[-3,72],[-78,34],[-20,-8],[-72,31],[-57,34],[-2,24],[72,67],[4,29],[-23,30],[14,24],[-56,101],[8,35],[-15,30],[-7,96],[26,51],[-12,35],[27,71],[-4,33],[22,19],[8,37],[-26,76],[7,70],[-15,20]],[[3923,6724],[21,23],[40,13],[8,-26],[23,20],[55,-32],[45,31],[-18,23],[-10,51],[-47,18],[3,53],[23,60],[32,38],[-10,92],[-41,48],[18,62],[-3,37],[30,42],[-2,51],[-27,57],[-1,50],[-15,21],[-4,48],[18,25],[-12,38],[13,83],[-4,87],[32,67],[-20,77],[7,21],[62,54],[25,4],[54,36],[20,26],[70,12],[61,0],[15,14],[39,-13],[93,-5],[155,-33],[306,-45]],[[4977,7952],[49,-6],[12,-27],[41,12],[3,45],[-15,36],[39,5],[-12,47],[-26,1],[17,31],[26,-17],[1,38],[-16,20],[39,25],[-42,10],[-7,30],[-20,-3],[22,47],[-15,27],[39,-18],[25,15],[-23,57],[14,28],[-29,3],[1,28],[32,19],[-9,44],[40,10],[-4,34],[27,27],[-38,7],[-19,34],[65,41],[21,26],[-1,34],[26,-25],[7,35],[51,13],[5,-21],[40,-26],[93,-3],[70,15],[42,-35],[67,9],[34,28],[54,-6],[73,-47],[54,53],[13,66],[25,13],[1,49],[20,36],[47,39],[28,51],[58,6]],[[6022,8912],[21,-22],[-8,-27],[24,-90],[-11,-71],[10,-83],[-49,-29],[-22,-84],[10,-71],[27,-17],[-12,-173],[12,-87],[39,-41],[1,-46],[92,-23],[119,-39],[122,40],[56,4],[5,39],[30,-32],[-4,-18],[52,-19],[28,-36],[61,17],[121,-5],[22,39],[33,-3],[5,32],[46,40],[41,9],[47,102],[27,9],[95,-26],[71,21],[114,1],[-4,31],[95,0],[29,-30],[64,-3],[61,26],[19,-8],[38,19],[84,-3],[108,17],[110,50],[60,-2],[44,-21],[15,-24],[60,-36],[50,-8],[52,14],[114,4],[83,-6],[55,5],[147,-35]],[[8531,8213],[-46,-72],[-41,-35],[19,-65],[-4,-56],[46,-62],[42,-19],[109,-30],[15,-33],[48,-26],[37,-74],[22,-25],[71,-12],[20,-26],[32,-8],[42,11],[51,46],[71,-22],[43,-30],[45,1],[73,-71],[18,-31],[70,-20],[45,-26],[60,-68],[71,-6],[24,28],[67,49],[47,-2],[51,41],[4,-127],[12,-57],[34,-81],[-8,-67],[-54,-24],[-32,4],[-68,-27],[-43,8],[-73,-67],[-17,-38],[-44,-24],[-18,-57],[-44,-47],[-6,-191],[-101,-87],[-40,-22],[-53,-55],[-69,-52],[-34,-6],[-75,-40],[-36,-31],[-88,-33],[-51,10],[-47,-8],[-28,-33],[-59,-11],[-88,-34],[-42,8]],[[8511,6381],[-38,0],[-50,-21],[-65,31],[-81,-3],[-39,-22],[-87,-13],[-67,-37],[-84,14],[-68,46],[-70,11],[-64,23],[-61,-19],[-39,-33],[-34,13],[-39,-31],[-93,13],[-43,-61],[-9,-101],[-37,-112],[-18,-12],[-77,63],[-107,37],[-14,40],[-44,74],[-51,22],[-28,-76],[0,-52],[16,-33],[1,-59],[-23,-53],[-5,-39],[-68,-58],[-108,100],[-33,45],[-16,3],[-54,-32],[-77,-34],[-62,-8],[-18,-23],[-9,-91],[4,-45],[-32,-111],[-67,8],[-76,-19],[-23,27],[-71,18],[-21,-22],[15,-30],[-67,-22],[-39,-32],[-89,40],[-152,95],[3,38],[-54,18],[-82,-27],[-54,-28]],[[8183,2188],[-19,-26],[46,-45],[97,-8],[26,16],[27,-16],[77,6],[44,-6],[114,-50],[90,-24],[-10,-41],[-23,-18],[-26,-113],[-81,-55],[-25,-61],[-81,-30],[-10,-64],[24,-61],[-18,-37],[-69,-14],[-43,-25],[-123,-48],[-29,-67],[-47,-11],[-87,87],[-103,32],[-48,-11],[-47,32],[-88,-32],[-116,-6],[24,-82],[-23,-30],[-69,-19],[-77,-62],[-11,-70],[9,-12],[3,-107],[-16,-10],[-18,-77],[0,-81],[-63,-89],[-67,-52],[-48,-63],[-46,-29],[-44,-119],[22,-30],[13,-48],[-24,-54],[-73,-58],[-42,-52],[-66,-54],[11,-43],[-28,-27],[-64,-15],[8,-27],[-40,-37],[94,-59],[-35,-76],[-14,-10],[-21,78],[-44,-10],[-36,11],[-57,-28],[-77,12],[-72,-14],[-64,68],[-35,18],[-72,-12],[-42,3],[-136,36],[-77,-25],[-41,15],[-42,-12],[-55,23],[-39,-19],[-52,36],[-38,-5],[-52,-28],[-43,17],[-27,26],[-90,18],[-41,-47],[-27,9],[-36,-36],[-79,4],[-43,-31],[-63,-15],[-43,25],[-75,24],[-113,-60],[-45,3],[-72,57],[-63,93],[-37,83]],[[5002,317],[-46,46],[-13,48],[11,64],[-4,127],[-13,32],[-8,76],[-29,35],[-50,21],[59,64],[48,-2],[17,45],[3,63],[-28,12],[14,42],[42,8],[-1,150],[-24,51],[-27,24],[12,40],[-29,68],[-4,91],[-41,55],[-33,20],[-48,0],[-47,22],[-38,2],[2,26],[-26,46],[-53,27],[12,48],[-14,44],[48,79],[-16,24],[-82,22],[-30,23],[40,98],[-39,87],[-10,37],[-36,4],[-34,53],[16,76],[-35,27],[3,22],[60,95]],[[4531,2359],[36,-36],[33,-5],[42,-41],[52,-20],[14,-43],[62,-7],[48,-38],[40,-10],[55,38],[71,-28],[37,7],[51,38],[153,30],[34,-13],[16,32],[50,26],[33,-7],[57,10],[37,49],[62,16],[10,24],[26,-21],[32,27],[124,33],[17,-59],[27,-12],[53,34],[12,-44],[19,-3],[26,33],[36,-11],[11,25],[28,-14],[43,12],[16,-87],[15,-35],[-18,-17],[64,15],[17,20],[155,48],[58,136],[43,25],[59,18],[19,30],[8,49],[53,36],[71,-1],[73,39],[17,57],[-14,40],[20,61],[48,27],[37,-12],[33,9],[43,-13],[16,-26],[146,-40],[48,-47],[-6,-50],[12,-27],[8,-88],[72,2],[30,-18],[66,3],[38,-46],[127,-10],[24,28],[34,9],[41,-9],[53,-31],[82,-17],[89,24],[91,-25],[52,2],[40,21],[59,-54],[40,-6],[26,37],[106,-26],[-1,-38],[-34,-94],[4,-27],[73,-45],[52,-40]],[[2982,4290],[47,5],[55,31],[-11,47],[31,15],[18,-27],[1,33],[71,-12],[92,76],[-11,36],[28,9],[2,74],[60,36],[34,60],[13,58],[23,27],[-1,51],[72,67],[16,31],[-28,36],[4,55],[20,51],[20,12],[-21,47],[48,10],[-18,75],[-5,69],[24,-8],[27,27],[-20,22],[48,27],[-22,29],[24,12],[-5,34],[-59,26],[-17,-4],[-46,42],[19,12],[3,60],[22,9],[-12,27],[23,25],[-9,31],[-41,29],[-18,-28],[-26,56],[0,42],[25,-17],[-1,34],[19,-3],[9,36],[-22,-3],[-42,39],[-27,0],[-45,40],[-11,60],[30,20],[-26,29],[-13,-22],[-15,57],[16,18],[-25,19],[49,38],[-14,41],[45,19],[-17,42],[40,10],[17,37],[31,-8],[8,32],[30,6],[19,-21],[47,1],[-2,29],[36,-29],[-9,56],[-30,10],[2,50],[-47,-9],[1,27],[-50,56],[-35,-13],[-39,8],[4,29],[-38,15],[0,58],[-28,12],[15,27],[32,13],[7,42],[15,-26],[23,1],[1,35],[-29,5],[-6,68]],[[3407,6700],[23,5],[39,-41],[25,25],[-30,23],[-19,44],[2,30],[26,21],[22,-13],[49,1],[-2,-21],[72,10],[23,-10],[10,28],[45,24],[10,32],[24,-19],[37,11],[7,20],[35,-17],[57,-3],[34,-29],[-20,-60],[24,-42],[23,5]],[[4567,3775],[-13,-14],[4,-63],[-18,-40],[-4,-81],[10,-73],[-12,-65],[25,-37],[-33,-13],[-22,-53],[27,-68],[-20,-77],[14,-43],[-3,-82],[-23,-68],[-12,-93],[63,-85],[19,-36],[34,-6],[32,-44],[40,-17],[-36,-96],[-36,-56],[12,-75],[-40,14],[-47,-59],[-9,-35],[12,-51]],[[5002,317],[-29,-29],[5,-29],[-48,-30],[-26,4],[-22,-34],[-63,-6],[-12,-33],[-36,-36],[-39,-2],[-52,18],[-48,-3],[-35,11],[-38,-120],[-27,5],[-55,50],[-56,2],[-26,20],[-35,53],[-27,16],[-51,55],[-27,2],[-11,-27],[-31,-1],[-43,-52],[-88,-40],[-31,14],[-8,34],[9,73],[-55,22],[10,63],[27,58],[39,21],[11,65],[-26,24],[6,31],[27,35],[4,89],[-33,13],[-62,143],[-53,8],[-52,52],[-50,-10],[-20,13],[-14,42],[-44,16],[-21,71],[-40,49],[-44,-22],[-22,-31]],[[8511,6381],[6,-65],[-13,-24],[20,-35],[-47,-53],[38,-22],[58,-5],[17,-20],[7,-80],[57,8],[40,-8],[65,39],[40,44],[43,19],[35,-16],[2,-39],[32,-42],[82,-41],[1,-32],[-17,-73],[-23,-53],[56,-29],[61,1],[54,-17],[29,-44],[53,-45],[67,0],[28,-18],[-47,-43],[10,-79],[-15,-51],[6,-38],[32,-38],[-3,-48],[42,-8],[60,-65],[35,39],[23,1],[104,61],[11,37],[38,35],[0,59],[81,10],[28,25],[77,49],[17,-37],[39,-31],[26,-83],[-38,-32],[-11,-83],[-3,-89],[-14,-53],[19,-72],[-20,-39],[-1,-61],[-20,-16],[-38,-107],[15,-42],[-11,-85],[-47,-44],[10,-35],[92,-130],[16,-48],[55,-61],[-10,-51],[16,-30],[-3,-38],[20,-32],[18,-64],[12,-83],[-37,-72],[8,-33],[-10,-78],[83,-125],[-5,-43],[30,-78],[7,-91],[-42,-61],[-3,-45],[-21,-29],[24,-143],[11,-21],[-40,-141],[-37,-11],[-78,-55],[-50,-4],[-7,-18],[-42,29],[-52,-36],[-34,2],[-26,-38],[-23,9],[-54,-24],[-42,7],[2,54],[-43,32],[-34,-10],[-47,-61],[6,-66],[27,1],[-18,-58],[-44,-22],[8,-11],[-31,-53],[49,-5],[-44,-26],[19,-39],[74,-31],[30,-33],[48,-24],[18,-38],[82,-65],[40,-9],[59,-50],[29,-3],[86,-36],[38,-28],[41,-54],[18,-52],[-53,-51],[-38,-16],[-53,-73],[-83,39],[-71,41],[-41,-1],[-30,31],[-36,10],[-104,-13],[-54,11],[-42,37],[-28,71],[-26,36],[-39,-8],[-15,-30],[-42,-6],[-19,40],[-45,27],[-65,-9],[-21,-44],[-22,-7],[-101,33],[-66,0],[-49,45],[-119,23],[-63,18],[4,-36],[-14,-51],[-52,-57],[-18,20],[-15,-32],[-34,-1],[5,-67],[-44,-26],[19,-12],[-20,-40],[-67,-30],[-12,-36],[-38,2],[-9,-44],[-58,-16],[-35,-35]],[[229,5551],[23,61],[20,25],[-11,155],[-63,21],[-20,56],[-49,28],[-35,70],[26,114],[16,108],[-57,85],[-33,116],[3,59],[-25,32],[5,30],[-29,72],[4,43],[31,-19],[46,-8],[44,7],[51,-9],[30,32],[29,-1],[21,31],[24,-25],[61,-34],[21,28],[74,5],[32,23],[45,-10],[24,9],[21,35],[40,8],[8,23],[59,10],[15,20],[46,15],[42,62],[111,3],[53,20],[46,-16],[80,51],[43,49],[163,6],[129,-28],[49,-3],[103,-34],[99,2],[73,-11],[78,21],[101,-10],[30,8],[66,76],[62,14],[28,-61],[67,-18],[25,-44],[66,-65],[13,-53],[34,-73],[25,11],[58,53],[80,9],[50,-198],[8,-82]],[[6022,8912],[14,41],[-8,32],[47,16],[-2,20],[42,-1],[4,42],[47,-22],[13,-53],[28,8],[-10,45],[40,-17],[22,16],[8,41],[50,16],[3,-50],[33,-42],[25,14],[46,-23],[35,32],[48,-7],[44,12],[16,-22],[15,20],[58,2],[27,30],[35,4],[48,95],[63,108],[40,116],[62,66],[46,26],[-34,59],[-47,104],[34,64],[90,33],[19,27],[50,10],[47,-37],[41,44],[140,-83],[123,23],[56,79],[-4,36],[63,85],[92,36],[19,42],[49,-13],[58,-29],[30,-39],[61,0],[56,-72],[75,-25],[27,-56],[-6,-24],[58,-42],[-7,-54],[-77,-69],[-25,-40],[-19,-60],[-28,-34],[-28,-120],[128,-71],[43,-44],[-11,-69],[19,-82],[-25,-52],[10,-96],[40,-60],[99,-7],[29,-54],[10,-47],[39,-13],[47,-32],[93,-12],[62,-37],[-9,-63],[48,-80],[4,-30],[-29,-74],[65,-48],[13,-65],[-19,-37],[1,-36]],[[2508,6455],[36,12],[1,21],[31,8],[30,55],[54,15],[10,18],[71,12],[30,40],[-8,28],[39,29],[87,5],[44,-13],[106,18],[36,-19],[27,17],[59,3],[10,25],[37,9],[39,-17],[6,-23],[61,13],[12,21],[-11,34],[49,-10],[43,-56]]],"transform":{"scale":[0.00009463520242024019,0.00009301996429642683],"translate":[99.68261142500006,18.80595545500006]},"objects":{"Phayao":{"type":"GeometryCollection","geometries":[{"arcs":[[0,1,2,3]],"type":"Polygon","properties":{"Shape_Leng":1.86245821658,"Shape_Area":0.0764264158003,"ADM2_EN":"Mueang Phayao","ADM2_TH":"เมืองพะเยา","ADM2_PCODE":"TH5601","ADM1_EN":"Phayao","ADM1_TH":"พะเยา","ADM1_PCODE":"TH56","ADM0_EN":"Thailand","ADM0_TH":"ประเทศไทย","ADM0_PCODE":"TH"}},{"arcs":[[4,5,6,7]],"type":"Polygon","properties":{"Shape_Leng":1.31989321494,"Shape_Area":0.0456387935202,"ADM2_EN":"Chun","ADM2_TH":"จุน","ADM2_PCODE":"TH5602","ADM1_EN":"Phayao","ADM1_TH":"พะเยา","ADM1_PCODE":"TH56","ADM0_EN":"Thailand","ADM0_TH":"ประเทศไทย","ADM0_PCODE":"TH"}},{"arcs":[[-5,8,9,10,11]],"type":"Polygon","properties":{"Shape_Leng":1.75885037233,"Shape_Area":0.0729745763491,"ADM2_EN":"Chiang Kham","ADM2_TH":"เชียงคำ","ADM2_PCODE":"TH5603","ADM1_EN":"Phayao","ADM1_TH":"พะเยา","ADM1_PCODE":"TH56","ADM0_EN":"Thailand","ADM0_TH":"ประเทศไทย","ADM0_PCODE":"TH"}},{"arcs":[[12,13,14]],"type":"Polygon","properties":{"Shape_Leng":1.37511978573,"Shape_Area":0.0598031485525,"ADM2_EN":"Chiang Muan","ADM2_TH":"เชียงม่วน","ADM2_PCODE":"TH5604","ADM1_EN":"Phayao","ADM1_TH":"พะเยา","ADM1_PCODE":"TH56","ADM0_EN":"Thailand","ADM0_TH":"ประเทศไทย","ADM0_PCODE":"TH"}},{"arcs":[[-1,15,16,-7,17,-14,18]],"type":"Polygon","properties":{"Shape_Leng":2.2307060849,"Shape_Area":0.0638363743,"ADM2_EN":"Dok Khamtai","ADM2_TH":"ดอกคำใต้","ADM2_PCODE":"TH5605","ADM1_EN":"Phayao","ADM1_TH":"พะเยา","ADM1_PCODE":"TH56","ADM0_EN":"Thailand","ADM0_TH":"ประเทศไทย","ADM0_PCODE":"TH"}},{"arcs":[[-6,-12,19,-15,-18]],"type":"Polygon","properties":{"Shape_Leng":2.34021211076,"Shape_Area":0.144795890188,"ADM2_EN":"Pong","ADM2_TH":"ปง","ADM2_PCODE":"TH5606","ADM1_EN":"Phayao","ADM1_TH":"พะเยา","ADM1_PCODE":"TH56","ADM0_EN":"Thailand","ADM0_TH":"ประเทศไทย","ADM0_PCODE":"TH"}},{"arcs":[[-3,20]],"type":"Polygon","properties":{"Shape_Leng":0.790918740253,"Shape_Area":0.0254358693397,"ADM2_EN":"Mae Chai","ADM2_TH":"แม่ใจ","ADM2_PCODE":"TH5607","ADM1_EN":"Phayao","ADM1_TH":"พะเยา","ADM1_PCODE":"TH56","ADM0_EN":"Thailand","ADM0_TH":"ประเทศไทย","ADM0_PCODE":"TH"}},{"arcs":[[-10,21]],"type":"Polygon","properties":{"Shape_Leng":0.944462587075,"Shape_Area":0.0254153086779,"ADM2_EN":"Phu Sang","ADM2_TH":"ภูซาง","ADM2_PCODE":"TH5608","ADM1_EN":"Phayao","ADM1_TH":"พะเยา","ADM1_PCODE":"TH56","ADM0_EN":"Thailand","ADM0_TH":"ประเทศไทย","ADM0_PCODE":"TH"}},{"arcs":[[-4,22,-16]],"type":"Polygon","properties":{"Shape_Leng":0.938592027174,"Shape_Area":0.0179977170353,"ADM2_EN":"Phu Kamyao","ADM2_TH":"ภูกามยาว","ADM2_PCODE":"TH5609","ADM1_EN":"Phayao","ADM1_TH":"พะเยา","ADM1_PCODE":"TH56","ADM0_EN":"Thailand","ADM0_TH":"ประเทศไทย","ADM0_PCODE":"TH"}}]}}}