{"type":"Topology","arcs":[[[5528,8226],[-135,-145],[-19,13],[-7,-51],[-33,-44],[-45,-30],[-3,-17],[-33,-32],[5,-59],[-19,-15],[6,-40],[-21,-15],[-4,-92],[20,-28],[-29,-62],[24,-97],[-9,-69],[24,-63],[31,-12],[8,-47]],[[5289,7321],[-40,-6],[4,-30],[-20,-5],[-7,-28],[48,-56],[1,-39],[-20,-26],[-10,-49],[-51,-23],[-32,-73],[-31,-20],[28,2],[35,-22],[14,-56],[14,17],[34,-23],[31,-6],[42,13],[18,17],[117,48],[64,56],[16,36],[127,26],[122,-1],[78,16],[10,-34],[26,6],[101,7],[14,-15],[49,1],[1,-90],[41,-27],[54,-18],[7,17],[99,-19],[48,-23],[109,-63],[-9,-34],[20,-23],[24,-2],[52,-29],[17,-42],[-3,-81],[22,-16],[3,17],[31,3],[-2,-100],[70,-11],[2,-25],[23,4],[19,-61],[-30,-8],[13,-64],[1,-45],[-52,-43],[-71,4],[-40,-17],[-93,24],[-25,23],[-50,18],[2,9],[-94,45],[-62,6],[-78,-24],[-49,-27],[-25,-56],[-51,-85],[-14,-72],[-33,1],[-24,-17],[39,-90],[-14,-16],[-1,-37],[-18,-17],[13,-91],[0,-60],[8,-22],[41,9],[26,-18],[39,3],[4,-56],[-20,-42],[-6,-36],[-18,-32],[-19,-60],[27,-19],[62,-11],[13,-17],[-2,-70],[-25,-199],[3,-27],[25,-38]],[[6101,5157],[-44,-24],[-70,-2],[-68,-17],[-82,-6],[-51,-10],[-41,9],[-8,33],[-53,4],[0,41],[-68,31],[-48,44],[-93,34],[0,27],[-52,-13],[-2,33],[-85,-6],[-9,20],[-29,-9],[-28,10],[-31,-44],[8,-38],[-5,-27],[-22,-26],[-15,-40],[-45,-29],[19,-39],[32,-20],[-1,-18],[-28,2],[-31,-35],[13,-32],[-42,-17],[-57,-109],[-2,-64],[-180,-13],[-9,6],[-46,-16],[-94,23],[-14,-98],[-65,-25],[-28,-30],[25,-107],[-93,12],[-6,16],[-50,33],[-56,29],[-14,39],[11,29],[4,79],[32,41],[-24,12],[-12,-17],[-32,-3],[-40,21],[-128,25],[-98,22],[-46,-15],[-64,-2],[-11,28],[-19,10]],[[4006,4919],[31,114],[-22,47],[13,10],[85,130],[4,22],[-21,48],[97,26],[4,37],[86,61],[-19,94],[-2,70],[-9,76],[-29,56],[-44,34],[-11,45],[-6,69],[-29,46],[-31,75],[7,50],[-20,36],[-33,17],[-118,4],[-28,7],[-113,-2],[-130,2],[-46,9],[-85,-43],[-6,62],[-33,16],[-12,42],[12,45],[22,27],[-18,50],[14,42],[21,26],[-18,47],[3,55],[-27,43],[-62,8],[-62,-76],[-45,-10],[-19,7],[-23,36],[-50,4],[-41,72],[-40,-19],[1,31],[-153,53],[-3,44],[-28,5]],[[2970,6669],[61,71],[30,64],[23,23],[-28,54],[-13,7],[-15,76],[-36,12],[-16,52],[21,27],[25,-4],[92,55],[29,-12],[44,53],[-2,45],[18,14],[19,-22],[35,15],[25,-2],[26,43],[-14,39],[19,22],[4,53],[28,14],[-1,23],[-22,46],[4,32],[-16,53],[-35,25],[-50,56],[34,100],[9,62],[-7,41],[13,26],[39,8],[-7,24],[-33,28],[-6,20],[26,30],[-25,22],[5,43],[-21,-2],[-15,47],[-53,74],[-64,30],[-30,42],[-7,26],[10,145]],[[3093,8369],[65,-10],[43,10],[31,-5],[57,22],[50,0],[55,80],[34,16],[80,-15],[81,-44],[63,-18],[89,-12],[62,-28],[49,-12],[128,-22],[69,-16],[83,-12],[98,55],[51,-35],[29,31],[17,1],[40,28],[38,2],[3,19],[47,20],[56,4],[105,34],[70,48],[64,57],[66,30],[-45,18],[-21,-4],[-20,23],[3,21],[32,26],[29,6],[33,-12],[61,5],[42,24],[39,5],[80,-70],[52,-15],[84,-43],[26,-37],[69,-31],[106,-34],[42,-34],[24,-37],[19,-54],[-10,-43],[11,-16],[-9,-44],[65,-25]],[[5289,7321],[2,-48],[13,-24],[-12,-22],[35,-4],[17,-61],[4,-72],[12,2],[24,-38],[-2,23],[30,-6],[24,11],[-8,49],[71,61],[-1,32],[30,29],[-11,47],[24,5],[15,30],[42,-22],[79,40],[15,-1],[6,33],[26,32],[52,12],[18,-12],[38,11],[23,-12],[31,13],[50,42],[45,-7],[37,52],[98,-14],[6,-12],[70,6],[31,-31],[16,9],[13,-28],[43,15],[69,9],[28,-7],[-17,-20],[16,-13],[10,28],[35,-3],[24,17],[9,-25],[51,11],[22,-12],[34,6],[5,-24],[63,-15],[24,-17],[11,46],[18,-4],[20,23],[25,-14],[46,19],[7,-38],[31,31],[12,-20],[13,21],[30,-38],[22,29],[14,-29],[15,29],[36,4],[24,45],[41,-9],[17,-21],[-4,-24],[55,-16],[6,-31],[23,-12],[6,19],[31,8]],[[7167,7414],[31,-42],[-4,-38],[40,-13],[10,-22],[-8,-33],[41,-46],[38,-18],[-16,-37],[6,-35],[30,-13],[11,-41],[56,-38],[34,-126],[45,-36],[-6,-23],[21,-44],[25,16],[15,-26],[33,2],[3,-17],[53,33],[6,16],[22,-38],[-25,-32],[21,-19],[37,-11],[55,-62],[43,-12],[59,1],[8,-35],[46,-53],[15,12],[14,-21],[38,-24],[8,-59],[22,-64],[-24,-80],[13,-62],[13,-27],[-123,-155],[-33,-20],[7,-30],[-11,-52],[13,-25],[-30,-33],[-14,-33],[18,-9],[-23,-24],[21,-16],[44,-82],[-21,-5],[30,-100],[-6,-47],[11,-67],[-3,-66]],[[7876,5483],[-8,-26],[-34,28],[-32,-22],[-26,8],[-13,-21],[-64,7],[-22,-44],[8,-7],[-38,-38],[-18,8],[-16,-24],[-33,10],[-29,-9],[-45,11],[-44,-2],[-63,-58],[-7,22],[-35,-4],[-10,-15],[-93,-63],[-35,17],[-45,-34],[-6,-25],[-20,-4],[-49,-58],[-17,-4],[-41,26],[-42,-11],[-7,24],[-118,-31],[-33,-2],[-32,22],[-45,10],[0,13],[-35,11],[-22,19],[-56,23],[0,10],[-43,11],[-26,-48]],[[6582,5213],[-34,21],[-36,-2],[-177,-35],[-74,2],[-42,-5],[-118,-37]],[[4006,4919],[-74,49],[-84,-17],[-87,17],[-47,0],[27,140],[16,28],[-37,34],[-40,-6],[4,-34],[-19,-14],[-31,22],[-44,-4],[-29,-28],[-16,25],[-29,-19],[-13,-54],[-53,-50],[1,-24],[-20,-57],[22,-40],[-14,-29],[0,-39],[40,-32],[-11,-13],[15,-23],[5,-55],[-6,-23],[-20,0],[-3,-21],[-37,-9],[-23,-25],[-16,-52],[17,-43],[-8,-35],[16,-28],[-12,-28]],[[3396,4432],[-24,-1],[-10,-24],[11,-32],[-47,-25],[-43,0],[-30,26],[-36,-17],[-11,54],[4,23],[-20,19],[-18,-6],[-24,20],[-20,-5],[-77,5],[-297,6],[-145,5],[-56,40],[-37,11],[-42,-8],[-87,-47],[-132,-13],[-69,4],[-66,-7],[-50,-12],[-35,0],[-64,21],[-35,22],[-30,-12],[-27,28],[-13,-12],[-37,2],[-7,21],[-31,4],[-39,-48],[-14,21],[-44,23],[-6,19],[-38,43],[-4,18],[-76,35],[-43,0],[-53,-23],[-25,7],[-59,59],[-88,-2],[-24,16],[-21,35],[-39,18],[-97,-5],[-66,16],[-115,-41],[-10,1],[-51,75],[-16,-22],[-10,18],[-35,-16],[-43,45],[3,26],[-34,33],[-54,17],[-25,-37],[-28,-22],[-9,-32],[-73,20]],[[555,4819],[0,38],[27,69],[-5,32],[-37,83],[-10,48],[-69,80],[-27,13],[1,83],[20,71],[6,64]],[[461,5400],[47,30],[36,-3],[-12,61],[20,12],[50,2],[27,19],[84,29],[41,-9],[35,8],[26,25],[29,4],[35,-16],[42,18],[34,63],[6,-1],[-6,193],[-9,77],[66,34],[-4,29],[49,28],[68,9],[33,29],[-4,36],[31,37],[34,-8],[16,29],[25,9],[50,-8],[29,-14],[13,-45],[31,-20],[66,30],[9,51],[-14,34],[40,77],[88,11],[23,22],[72,41],[49,-20],[45,-34],[36,59],[123,31],[92,4],[42,17],[62,-6],[51,9],[57,-42],[16,-25],[9,-43],[29,-46],[38,0],[58,52],[36,9],[93,69],[103,-12],[87,5],[121,18],[27,33],[44,33],[-15,6],[12,59],[-18,74],[5,22],[38,13],[-6,36],[39,23],[30,2]],[[6582,5213],[-20,-43],[-58,-73],[-57,-16],[-142,-154],[-35,-10],[-48,0],[-49,-45],[-13,-20],[30,-98],[-2,-36],[10,-105],[58,-5],[2,-11],[50,10],[58,-2],[87,17],[53,15],[78,-3],[48,-16],[35,13],[23,-20],[4,-23],[43,-8],[42,11],[52,31],[51,8],[72,-26],[15,8],[51,-2],[54,-29],[-2,-89],[63,-2],[63,23],[70,14],[13,-55],[20,-36],[43,-51],[-39,-54],[-19,15],[-32,-35],[-19,-38],[-11,5],[-18,-38],[-32,-4],[-4,-27],[-22,-11],[13,-24],[-22,-23],[-14,21],[-46,-21],[1,-36],[-72,14],[-1,-12],[-37,-23],[-34,-7],[3,-30],[-32,-11],[-8,13],[-36,-24],[-21,13],[-36,-42],[-2,-23],[-44,-31],[-25,-41],[-19,-7],[-2,-70],[42,-9],[27,25],[33,5],[-32,-74],[-52,-70],[-3,-77],[33,-44],[-6,-47],[-92,-187],[-18,-63],[-33,-80],[-6,-32],[-32,27],[-15,-2],[-33,-36],[-7,-35],[11,-25],[-31,-4],[-9,-104],[-6,-185],[6,-58],[2,-88],[-25,-16],[2,-51],[30,-31],[-9,-47],[25,-41],[35,-6],[11,-39],[42,4],[8,-24]],[[6612,2420],[-9,-24],[-44,-62],[-20,-5],[-45,12],[-137,13],[-28,20],[-73,24],[-82,7],[-145,4],[-18,46],[1,24],[-15,55],[0,34],[-16,55],[5,63],[-6,12],[-42,5],[-12,18],[-51,29],[-23,-31],[-79,39],[-45,2],[-53,-35],[-66,-34],[-25,-1],[-53,16],[-21,41],[0,46],[57,-9],[54,17],[12,-14],[43,11],[16,36],[18,3],[-21,22],[5,31],[-15,25],[-27,-1],[-7,23],[-29,22],[-6,27],[-40,-7],[-14,21],[-6,38],[-25,-22],[-31,23],[26,63],[35,56],[4,46],[-34,-11],[-47,13],[-31,49],[-29,32],[-18,3],[-85,-23],[-88,15],[-58,-16],[1,-10],[-102,2],[-41,-27],[-4,-31],[-18,4],[-34,-21],[3,-26],[-20,-6],[-57,-111],[-58,-45],[-13,-22],[13,-20],[-28,-26],[11,-44],[-16,-17],[-12,-45],[-48,-29],[-16,-26],[-35,34],[-66,10],[-44,-62],[7,-16]],[[4592,2732],[-66,6],[-45,73],[-2,35],[31,47],[-20,29],[-16,57],[-29,24],[-22,55],[4,29],[-15,16],[-60,-1],[-41,-20],[-22,16],[-3,29],[34,71],[-14,67],[-10,15],[-37,7],[-10,23],[20,101],[-97,-10],[-84,27],[-19,21],[-62,21],[-18,20],[-67,44],[-36,-8],[-13,81],[-49,22],[-30,1],[-78,57],[-68,4],[-52,-21],[-40,-25],[-36,5],[-41,31],[-43,-31],[-18,6],[-23,65],[-19,-3],[-12,-27]],[[3364,3691],[-28,16],[3,37],[-37,28],[9,21],[26,8],[9,19],[-20,24],[26,25],[19,46],[-5,11],[8,68],[-50,21],[-1,71],[-20,28],[-13,59],[7,39],[53,10],[53,-24],[20,48],[10,94],[-36,60],[-1,32]],[[6612,2420],[43,14],[27,-30],[49,-39],[28,-54],[63,-46],[30,-58]],[[6852,2207],[-15,-61],[-11,-148],[-23,-210],[-22,-45],[-49,-25],[-24,-37],[-18,-77],[-24,-71],[-21,-84],[-1,-35],[-27,-30],[-34,-1],[26,-17],[-16,-40],[35,-17],[41,17],[28,-21],[40,20],[8,-75],[-16,15],[-35,2],[-1,-26],[-88,-36],[-24,-38],[-52,-26],[-36,-8],[-20,-30],[-28,6],[-29,22],[-16,-8],[-31,29],[-35,-5],[-23,-20],[-23,7],[-29,-12],[-14,-62],[16,-6],[5,-75],[38,-76],[27,-103],[-4,-118],[10,-151],[21,-43],[61,-86],[54,-62],[69,-31],[25,-20]],[[6567,289],[-51,-33],[-79,2],[-181,-4],[-26,-22],[-47,-14],[-42,5],[-69,-12],[-80,15],[-121,40],[-70,-16],[-66,-1],[-35,-16],[4,-72],[-42,-9],[-25,6],[18,41],[-95,45],[-87,9],[-41,13],[3,-53],[-71,-39],[-63,-19],[-56,-8],[-44,9],[-69,24],[-131,33],[-43,53],[-46,7],[-27,17],[-45,9],[-75,-6],[-117,1],[-67,-14],[-23,-30],[-44,-29],[-55,0],[-46,21],[-66,14],[-86,39],[186,455],[-36,38],[-69,35],[-83,75],[-58,6],[-40,35],[-23,-3],[0,-18],[36,-47],[3,-34],[-12,-33],[2,-45],[-52,2],[-82,34],[-40,-48],[-35,-2]],[[3958,745],[-49,35],[-25,96],[17,18],[8,40],[117,83],[71,99],[31,5],[11,-22],[28,-14],[13,9],[13,44],[40,-10],[-14,56],[-25,-1],[72,88],[14,49],[-16,39],[-1,33],[14,29],[73,20],[-1,46],[47,88],[7,56],[-3,109],[-37,27],[0,20],[22,33],[13,54],[71,42],[46,41],[28,43],[44,104],[3,34],[17,17],[14,49],[30,61],[20,-11],[1,67],[28,37],[21,3],[-8,24],[-27,16],[-8,52],[43,42],[1,24],[30,12],[14,28],[-9,25],[-45,-6],[-47,41],[19,53],[-64,23],[-28,37]],[[3958,745],[1,-43],[51,-45],[0,-58],[-9,-22],[-29,-6],[-17,-23],[-32,-14],[-53,0],[-30,-30],[-19,6],[-3,-22],[-31,-10],[-15,-29],[-50,-5],[-34,-14],[-35,-53],[-71,-42],[-46,-3],[-34,-28],[-7,-22],[-32,7],[-44,33],[27,109],[-30,95],[-30,34],[-27,15],[-34,3],[-40,-9],[-38,-22],[-24,-39],[-9,-48],[-50,-73],[-4,-23],[74,-100],[-25,-30],[-30,-20],[-82,-15],[-25,-42],[-48,-25],[-16,-24],[-66,18],[-51,-7],[-51,5],[-55,34],[-82,11],[-13,41],[-31,5],[-18,-27],[-36,-1],[-35,18],[-108,-4],[-23,-64],[-33,4],[-59,54],[-5,31],[-20,21],[11,78],[-16,14],[-28,85],[5,17],[-28,26],[-5,60],[-33,11],[-26,24],[-21,-18],[-16,15],[4,79],[-14,33],[21,41],[27,21],[-23,43],[6,31],[-20,35],[-26,19],[-30,0],[-64,88],[-15,-5],[-37,43],[-12,43],[-40,58],[-18,42],[-4,45],[-37,63],[6,32],[-34,19],[-7,36],[-41,33],[-13,67],[-13,12],[-19,70],[24,-2],[24,30],[-12,61],[-31,1],[-14,44],[-22,-10],[-43,19],[-17,46],[-36,43],[-20,10],[42,105],[-14,40],[7,23],[-25,25],[-1,37],[-17,-3],[-38,87],[13,14],[-9,44],[-28,4],[-9,39],[27,31],[28,5]],[[1591,2200],[22,-7],[24,18],[30,-25],[10,-31],[26,-26],[33,-11],[6,-25],[38,-16],[15,51],[12,118],[19,76],[65,55],[26,9],[15,72],[48,31],[13,-9],[50,24],[62,11],[31,16],[83,90],[44,77],[26,115],[6,119],[-6,155],[8,49],[23,14],[4,39],[27,-19],[-6,-45],[17,-3],[-6,27],[19,16],[-12,29],[24,11],[15,37],[33,8],[-17,38],[17,30],[13,86],[15,4],[9,55],[-31,29],[7,56],[32,59],[81,37],[56,69],[64,-5],[130,24],[61,2],[64,9],[15,-5],[7,-32],[34,-76],[12,-2],[-5,-73],[1,-117],[61,-18],[5,-48],[55,-35],[32,-44],[36,-18],[71,-18],[72,10],[0,28],[-22,144],[48,25],[17,-1],[-15,155],[4,73]],[[461,5400],[-28,24],[-45,73],[-30,8],[20,111],[-20,54],[-21,-8],[-44,9],[-25,31],[-1,59],[-21,39],[-24,10],[-24,64],[-25,84],[-33,50],[1,72],[-10,25],[-72,74],[-49,85],[-10,70],[36,115],[60,105],[22,55],[15,58],[9,76],[-13,149],[-7,137],[2,46]],[[124,7075],[106,38],[101,4],[76,-4],[13,23],[43,5],[178,31],[75,42],[33,44],[49,34],[81,29],[20,17],[74,-13],[8,-41],[-6,-39],[18,-12],[39,10],[24,-21],[28,7],[119,-57],[63,-18],[60,-5],[113,25],[113,48],[65,47],[95,-14],[69,-4],[121,5],[77,-13],[61,8],[116,43],[27,0],[19,-45],[58,13],[48,-20],[38,40],[10,62],[-6,17],[-48,26],[-34,125],[-23,29],[-32,13],[4,57],[34,14],[-20,39],[-16,3],[0,43],[57,59],[14,99],[-15,30],[19,48],[-4,24],[25,5],[8,31],[83,82],[42,32],[40,17],[23,-6],[12,48],[2,51],[-16,81],[11,89],[44,57],[22,89],[22,195],[-20,39],[-34,146],[-146,50],[-158,124],[26,32],[21,51],[-2,24]],[[2291,9207],[75,-21],[88,0],[27,9],[-17,57],[-46,47],[-29,50],[55,66],[40,26],[34,-20],[36,19],[55,4],[9,44],[-37,40],[14,62],[-3,24],[62,-39],[12,4],[-3,49],[21,28],[-67,41],[-64,5],[3,37],[-18,23],[-5,33],[59,2],[-4,30],[-21,46],[9,28],[-22,23],[-10,45],[24,30],[49,-63],[27,-14],[15,9],[26,-18],[16,11],[-3,35],[49,-12],[57,1],[41,35],[9,-69],[-15,-59],[20,-31],[12,-45],[-4,-30],[99,-53],[11,-68],[-12,-31],[10,-30],[51,19],[12,-19],[17,-64],[-1,-112],[6,-89],[-4,-106],[-21,-149],[1,-148],[13,-134],[7,-32],[20,-22],[7,-44],[-36,-49],[-6,-57],[-22,-75],[37,-88],[37,-29]],[[7876,5483],[35,22],[11,22],[36,31],[30,-6],[27,32],[109,-39],[8,46],[30,2],[14,-59],[24,-62],[-1,-53],[-37,-65],[14,-57],[-5,-88],[8,-49],[25,-78],[22,-20],[21,-56],[28,-28],[81,-31],[61,-14],[14,-33],[-10,-10],[7,-34],[24,-19],[68,-11],[-10,-28],[6,-29],[-17,-53],[2,-30],[-50,-74],[-43,-10],[10,-42],[-36,-8],[-5,-35],[21,10],[38,-1],[24,13],[11,-25],[52,-11],[26,33],[36,-2],[7,18],[78,-12],[10,-23],[28,-5],[20,50],[43,2],[31,13],[-24,39],[57,97],[30,23],[31,8],[61,-48],[41,-52],[21,-42],[9,-53],[-11,-1],[-53,-49],[-34,-20],[-1,-26],[-23,24],[-57,-97],[-87,-160],[-56,-123],[-81,-147],[-40,-61],[-44,-82],[-173,-310],[-209,-355],[-32,-87],[-27,-35],[1,-17],[46,-26],[4,-80],[14,-17],[64,-38],[2,-21],[-18,-82],[17,-57],[-1,-44],[18,-43],[-38,-81],[1,-57],[-52,-177],[-76,-213],[-50,-180]],[[8032,1887],[-90,49],[-47,-23],[-4,13],[-32,-9],[9,23],[-33,-7],[8,17],[-17,21],[-49,-25],[-42,31],[4,15],[-28,32],[-47,-7],[-19,-26],[-31,-16],[-25,13],[-50,1],[-20,-12],[-8,17],[-54,-7],[-7,23],[-14,-17],[-53,18],[13,10],[-39,8],[-30,20],[-16,36],[-29,-14],[-40,11],[-43,-10],[-51,24],[-13,16],[-39,7],[-39,36],[-16,-5],[-45,36],[-60,-18],[-26,16],[-49,10],[-9,13]],[[5528,8226],[124,-4],[177,9],[89,15],[35,-3],[51,30],[-4,37],[31,9],[-18,74],[-18,22],[49,16],[15,28],[54,8],[12,18],[-13,18],[25,14],[-7,27],[-36,34],[18,18],[-2,28],[22,30],[-16,4],[43,16],[1,40],[31,-3],[41,14],[12,36],[23,-17],[2,35],[33,54],[98,5],[76,28],[34,43],[27,10],[26,-19],[48,30],[46,-64],[16,19],[47,-10],[51,16],[17,14],[34,-10],[63,32],[-1,11],[38,8],[57,-16],[75,26],[5,21],[40,27],[27,6],[22,33],[21,57],[66,15],[17,29],[59,-66],[7,-24],[-12,-47],[6,-53],[-12,-37],[-7,-87],[26,-66],[-10,-63],[-2,-68],[6,-54],[-17,-133],[-19,-51],[-1,-96],[49,9],[10,-25],[-6,-26],[39,20],[27,-34],[-8,-58],[10,-63],[-37,-40],[-3,-46],[18,-30],[11,-123],[-18,-115],[-10,-89],[5,-58],[19,-56],[-7,-29],[-88,-44],[-27,-33],[-28,-18],[-11,13],[-22,-30],[-32,-10]],[[1591,2200],[-5,15],[-32,16],[-49,37],[-67,64],[-6,57],[-16,20],[-35,-8],[-8,31],[-19,23],[-17,55],[29,55],[-13,20],[10,24],[-53,66],[-58,6],[-60,61],[-8,29],[-42,47],[-3,23],[45,35],[4,58],[27,28],[43,88],[-14,13],[1,50],[-89,-3],[-17,26],[10,37],[-30,36],[11,40],[21,25],[-12,48],[-16,20],[-102,-31],[-21,9],[-25,-27],[-36,68],[-86,46],[-55,-7],[-15,19],[-48,2],[-34,51],[-33,9],[6,60],[-17,15],[7,44],[-39,38],[-25,-8],[-32,17],[-7,33],[-33,18],[-24,33],[111,71],[54,-1],[43,55],[-6,20],[48,25],[-6,27],[26,24],[3,41],[-49,59],[-76,76],[-57,115],[-62,173],[-65,114],[-6,49],[55,45],[16,47],[-2,95],[24,53]],[[8032,1887],[-26,-93],[9,-23],[-41,-16],[12,-35],[24,-25],[19,13],[33,-23],[23,29],[14,-12],[32,18],[-5,43],[25,36],[21,3],[8,24],[50,5],[28,-32],[5,-56],[8,-1],[0,-72],[15,-29],[30,-5],[21,-21],[0,-35],[22,-13],[-5,-15],[27,-18],[45,12],[16,-22],[58,10],[6,-36],[17,5],[9,-33],[20,13],[15,-38],[24,20],[29,-5],[16,35],[12,-17],[39,1],[17,-34],[40,11],[21,-31],[7,24],[24,-15],[3,17],[36,3],[18,-12],[48,23],[37,-17],[20,16],[23,-39],[31,0],[19,13],[18,-13],[81,7],[0,-37],[21,-22],[23,27],[16,-30],[34,-11],[28,10],[19,-16],[44,-72],[40,-8],[29,-15],[47,-5],[7,9],[60,-14],[0,14],[32,-23],[-6,-13],[35,-51],[59,-21],[15,-65],[35,17],[37,-19],[18,4],[61,-66],[39,-21],[7,-17],[-17,-23],[7,-16],[-6,-51],[-15,-28],[16,-27],[-37,-28],[-16,0],[-21,-72],[-14,-27],[28,-55],[-13,-15],[28,-31],[51,-18],[27,-37],[47,-19],[2,-21],[26,-51],[18,-16],[-13,-54],[7,-39],[14,5],[7,-47],[41,-50],[2,-32],[-38,-60],[-91,8],[-15,13],[-31,-16],[-10,24],[-35,7],[-7,-21],[-48,-1],[-15,-29],[-58,-15],[-22,17],[-35,3],[18,18],[5,29],[-26,42],[-36,-4],[-26,27],[-59,35],[-12,17],[-10,106],[-14,30],[-29,31],[-11,84],[14,60],[-7,49],[-50,60],[-13,33],[14,54],[-33,19],[6,26],[-19,33],[-44,8],[-11,48],[-65,4],[-31,10],[-161,-28],[-84,17],[-32,-7],[-74,4],[-142,49],[-35,38],[-56,50],[-231,180],[-63,86],[-55,105],[-14,-27],[-74,-66],[-50,-33],[-9,-28],[-34,-23],[-28,-52],[10,-27],[-8,-31],[-55,-5],[-55,-17],[-34,-25],[-1,-35],[-13,-14],[15,-33],[-19,-36],[-20,-4],[-25,-39],[-25,-78],[-46,-34],[-39,-6],[2,-41],[-31,0],[-23,-49],[-26,-8],[-31,-34],[-13,-35],[-44,0],[-27,-28],[-28,-3],[-55,-57],[-7,-45],[-19,1],[-18,-43],[0,-46],[-46,-64],[-18,5],[10,-29],[-5,-27],[-19,5],[-27,-19],[-62,18],[-22,-34],[-26,18],[-17,-19],[-41,13],[-22,-35],[-8,-41],[-24,-14],[-15,-49],[-29,-29],[-38,23],[-20,0],[-11,-36],[8,-18],[-62,-60],[-33,28],[-27,3],[-29,-20],[2,-18],[-26,-11],[-17,23],[-17,-29],[-24,-3],[-4,-20],[-26,13],[-53,-21],[3,-19],[-27,-11],[-27,34],[-1,45],[25,23],[-13,15],[9,57],[59,5],[33,25],[9,43],[-66,25],[-31,1],[-36,16]],[[124,7075],[1,69],[33,83],[27,43],[2,75],[45,130],[17,26],[75,64],[68,96],[72,80],[26,47],[130,187],[5,22],[-35,31],[-68,96],[-17,46],[0,73],[-57,19],[-18,-19],[-42,-2],[-58,16],[13,122],[-41,9],[37,67],[10,63],[-14,97],[13,49],[-6,43],[27,63],[1,18],[-35,21],[3,63],[11,2],[0,98],[92,14],[3,29],[32,29],[11,26],[34,12],[12,-14],[30,2],[6,37],[20,16],[49,-26],[15,-34],[43,-24],[-1,-30],[35,-55],[50,-10],[82,26],[67,7],[-1,27],[18,13],[100,-7],[21,31],[53,-16],[6,12],[51,18],[5,43],[25,-10],[41,34],[46,59],[-19,12],[-6,39],[8,31],[-15,51],[36,25],[72,-5],[29,83],[35,1],[46,-26],[6,71],[44,24],[79,19],[46,24],[93,-44],[47,-3],[3,-28],[32,-35],[6,-27],[47,-14],[5,-43],[28,-13],[79,24],[1,75],[40,-4],[39,-98],[18,-25],[43,-19],[32,-26],[72,-34],[51,-9]]],"transform":{"scale":[0.00008154083518351606,0.00007291990999099712],"translate":[99.98372525000008,15.919128646000047]},"objects":{"Phichit":{"type":"GeometryCollection","geometries":[{"arcs":[[0,1,2,3,4,5]],"type":"Polygon","properties":{"Shape_Leng":1.44344021998,"Shape_Area":0.0473547424135,"ADM2_EN":"Mueang Phichit","ADM2_TH":"เมืองพิจิตร","ADM2_PCODE":"TH6601","ADM1_EN":"Phichit","ADM1_TH":"พิจิตร","ADM1_PCODE":"TH66","ADM0_EN":"Thailand","ADM0_TH":"ประเทศไทย","ADM0_PCODE":"TH"}},{"arcs":[[-2,6,7,8,9]],"type":"Polygon","properties":{"Shape_Leng":1.11599177472,"Shape_Area":0.0216843480646,"ADM2_EN":"Wang Sai Phun","ADM2_TH":"วังทรายพูน","ADM2_PCODE":"TH6602","ADM1_EN":"Phichit","ADM1_TH":"พิจิตร","ADM1_PCODE":"TH66","ADM0_EN":"Thailand","ADM0_TH":"ประเทศไทย","ADM0_PCODE":"TH"}},{"arcs":[[-4,10,11,12,13]],"type":"Polygon","properties":{"Shape_Leng":1.01001560919,"Shape_Area":0.033176925069,"ADM2_EN":"Pho Prathap Chang","ADM2_TH":"โพธิ์ประทับช้าง","ADM2_PCODE":"TH6603","ADM1_EN":"Phichit","ADM1_TH":"พิจิตร","ADM1_PCODE":"TH66","ADM0_EN":"Thailand","ADM0_TH":"ประเทศไทย","ADM0_PCODE":"TH"}},{"arcs":[[-3,-10,14,15,16,17,-11]],"type":"Polygon","properties":{"Shape_Leng":1.44768075631,"Shape_Area":0.0390572763382,"ADM2_EN":"Taphan Hin","ADM2_TH":"ตะพานหิน","ADM2_PCODE":"TH6604","ADM1_EN":"Phichit","ADM1_TH":"พิจิตร","ADM1_PCODE":"TH66","ADM0_EN":"Thailand","ADM0_TH":"ประเทศไทย","ADM0_PCODE":"TH"}},{"arcs":[[-16,18,19,20,21]],"type":"Polygon","properties":{"Shape_Leng":1.12226785328,"Shape_Area":0.0334341409427,"ADM2_EN":"Bang Mun Nak","ADM2_TH":"บางมูลนาก","ADM2_PCODE":"TH6605","ADM1_EN":"Phichit","ADM1_TH":"พิจิตร","ADM1_PCODE":"TH66","ADM0_EN":"Thailand","ADM0_TH":"ประเทศไทย","ADM0_PCODE":"TH"}},{"arcs":[[-17,-22,22,23]],"type":"Polygon","properties":{"Shape_Leng":1.14594678253,"Shape_Area":0.0442345920629,"ADM2_EN":"Pho Thale","ADM2_TH":"โพทะเล","ADM2_PCODE":"TH6606","ADM1_EN":"Phichit","ADM1_TH":"พิจิตร","ADM1_PCODE":"TH66","ADM0_EN":"Thailand","ADM0_TH":"ประเทศไทย","ADM0_PCODE":"TH"}},{"arcs":[[-5,-14,24,25,26]],"type":"Polygon","properties":{"Shape_Leng":1.32935470042,"Shape_Area":0.0305578432135,"ADM2_EN":"Sam Ngam","ADM2_TH":"สามง่าม","ADM2_PCODE":"TH6607","ADM1_EN":"Phichit","ADM1_TH":"พิจิตร","ADM1_PCODE":"TH66","ADM0_EN":"Thailand","ADM0_TH":"ประเทศไทย","ADM0_PCODE":"TH"}},{"arcs":[[-9,27,28,-19,-15]],"type":"Polygon","properties":{"Shape_Leng":1.27824986508,"Shape_Area":0.0334792668785,"ADM2_EN":"Tap Khlo","ADM2_TH":"ทับคล้อ","ADM2_PCODE":"TH6608","ADM1_EN":"Phichit","ADM1_TH":"พิจิตร","ADM1_PCODE":"TH66","ADM0_EN":"Thailand","ADM0_TH":"ประเทศไทย","ADM0_PCODE":"TH"}},{"arcs":[[-1,29,-7]],"type":"Polygon","properties":{"Shape_Leng":0.792728427172,"Shape_Area":0.0150755926514,"ADM2_EN":"Sak Lek","ADM2_TH":"สากเหล็ก","ADM2_PCODE":"TH6609","ADM1_EN":"Phichit","ADM1_TH":"พิจิตร","ADM1_PCODE":"TH66","ADM0_EN":"Thailand","ADM0_TH":"ประเทศไทย","ADM0_PCODE":"TH"}},{"arcs":[[-12,-18,-24,30]],"type":"Polygon","properties":{"Shape_Leng":1.00059000601,"Shape_Area":0.0250236535722,"ADM2_EN":"Bueng Na Rang","ADM2_TH":"บึงนาราง","ADM2_PCODE":"TH6610","ADM1_EN":"Phichit","ADM1_TH":"พิจิตร","ADM1_PCODE":"TH66","ADM0_EN":"Thailand","ADM0_TH":"ประเทศไทย","ADM0_PCODE":"TH"}},{"arcs":[[-20,-29,31]],"type":"Polygon","properties":{"Shape_Leng":1.36407728309,"Shape_Area":0.0193663195267,"ADM2_EN":"Dong Charoen","ADM2_TH":"ดงเจริญ","ADM2_PCODE":"TH6611","ADM1_EN":"Phichit","ADM1_TH":"พิจิตร","ADM1_PCODE":"TH66","ADM0_EN":"Thailand","ADM0_TH":"ประเทศไทย","ADM0_PCODE":"TH"}},{"arcs":[[-26,32]],"type":"Polygon","properties":{"Shape_Leng":0.813600165485,"Shape_Area":0.0241434226041,"ADM2_EN":"Wachirabarami","ADM2_TH":"วชิรบารมี","ADM2_PCODE":"TH6612","ADM1_EN":"Phichit","ADM1_TH":"พิจิตร","ADM1_PCODE":"TH66","ADM0_EN":"Thailand","ADM0_TH":"ประเทศไทย","ADM0_PCODE":"TH"}}]}}}