{"type":"Topology","arcs":[[[5033,4618],[27,-66],[-14,-62],[24,-49],[37,-46],[35,-86],[-2,-49],[-46,-26],[-40,-37],[1,-56],[-32,-61],[-48,-23],[-22,1],[-60,-20],[-93,-49],[-55,-58],[4,-23],[-24,-15],[-57,6],[-49,18],[-6,-54],[-152,-49],[-20,-24],[-37,-19],[-115,-9],[-9,-16],[-55,1],[-40,-36],[-12,-35],[-44,-3],[1,-19],[-46,-60],[29,7],[-6,-28],[-17,6],[-28,-14],[-13,-32],[-33,-13],[-41,3],[20,-24],[-30,14],[-4,-33],[-35,19],[-27,-3],[-13,-25],[-37,21],[6,-112],[-26,16],[-17,-19],[-3,-53],[-40,5],[-39,-18],[-13,-29],[-16,14],[-76,10],[3,-27],[-12,-25],[-19,4],[4,34],[-33,2],[-12,-27],[15,-10],[-4,-34],[34,-68],[-19,-16],[-1,-58],[-13,-19],[-2,-39],[12,-9],[13,-67],[29,-31],[-10,-26],[-46,-54],[40,-19],[-15,-78]],[[3589,2739],[-22,-33],[8,-29],[-25,-12],[13,-103],[20,-56],[-33,-31],[-23,-79],[9,-15],[-8,-53],[-21,-40],[24,-33],[-8,-20],[18,-7],[-40,-34],[-12,45],[-17,-16],[3,-21],[-32,10],[-19,36],[8,18],[-26,6],[-54,-11],[-123,-13],[-98,-40],[-53,15],[-32,26],[-39,4],[-48,21],[-19,23],[-36,-1],[-15,16]],[[2889,2312],[15,48],[59,58],[-20,16],[-49,-17],[-17,52],[-29,-1],[-21,17],[-8,47],[-16,29],[-32,-3],[-3,13],[42,22],[-10,18],[-24,2],[-18,27],[26,44],[-25,22],[-23,-7],[-23,24],[-7,48],[-48,18],[-32,47],[16,14],[-23,19],[-44,18],[1,18],[-50,44],[4,16],[-28,14],[-32,31],[32,32],[-3,30],[-20,30],[-4,59],[-13,87],[10,0],[-5,47],[15,9],[-42,64],[-51,24],[-27,25],[18,21],[34,-28],[24,2],[47,102],[-19,49],[-62,78],[0,52],[-32,22],[-54,6],[-32,15],[-48,50],[-27,15],[12,19],[-19,34],[30,11],[-9,15],[16,22],[-40,13],[20,30],[29,-8],[-17,19],[-11,39],[-33,42],[-13,-4],[-53,21],[-48,3],[9,20],[24,-1],[26,35],[-2,17]],[[2132,4128],[20,10],[15,40],[52,10],[28,43],[0,43],[19,15],[21,-12],[37,2],[8,21],[36,14],[24,22],[29,1],[51,20],[95,0],[15,-23],[40,13],[25,-66],[68,-1],[35,-25],[-20,-19],[75,-41],[52,-18],[26,0],[77,-17],[7,12],[47,-2],[-43,33],[-2,13],[41,27],[-47,62],[11,44],[-54,47],[-13,35],[68,1],[45,13],[49,-41],[61,-23],[22,10],[62,-31],[63,-24],[123,-23]],[[3400,4313],[105,-32],[63,-6],[26,14],[57,44],[42,42],[28,17],[65,11],[88,-4],[52,4],[37,30],[50,9],[95,-13],[10,-20],[43,18],[49,8],[24,28],[97,20],[17,17],[102,25],[108,7],[49,41],[41,17],[102,-16],[120,27],[66,21],[97,-4]],[[8352,3388],[-27,79],[-4,25],[-27,48],[-54,19],[7,34],[-33,4],[-24,25],[-34,-21],[-37,24],[-34,-27],[-46,14],[-37,28],[-28,55],[-24,6],[-50,-30],[-20,14],[-71,5],[-13,18],[0,30],[-35,10],[35,44],[61,36],[1,41],[17,27],[-23,11],[-41,-12],[2,-21],[-17,-42],[-27,3],[-46,-25],[-17,-25],[-55,5],[-23,25],[7,29],[-16,8],[-49,-32],[-20,14],[-9,51],[-16,37],[-112,69],[-33,-11],[-25,-43],[-32,-19],[-29,3],[-134,-21],[-68,20],[-88,-27],[-31,24],[-48,0],[-36,-13],[-92,4],[-75,-2],[-52,17],[-27,50],[-3,58],[-11,39],[22,45],[-4,58],[29,29],[-13,28],[-74,39],[-11,12],[-9,47],[-50,41],[-2,40],[-29,71],[-28,44],[-20,51],[-46,66],[-39,-8],[-45,4],[-9,71],[17,49],[-52,26],[-19,25],[-31,5],[-18,62],[-50,24],[-26,42],[-38,40],[-46,16],[-37,60],[-71,70],[-18,72],[8,14],[39,17],[12,33],[24,27],[-11,71],[-18,16],[-6,88],[-9,22],[37,52],[71,23],[-41,46],[31,57],[5,62],[16,54],[-23,37],[-21,4]],[[6026,5822],[-59,57],[11,47],[11,5],[79,-17],[-2,36],[-81,14],[-3,23],[58,15],[4,18],[-25,18],[10,33],[-9,25],[-25,-16],[-38,-8],[-43,33],[109,43],[13,12],[4,51],[-17,30],[31,51],[24,-2],[2,-34],[16,-10],[4,34],[166,60],[55,-30],[19,-31],[75,-57],[-11,-34],[-28,-11],[22,-37],[-37,-37],[5,-10],[49,-1],[57,43],[49,-41],[55,-5],[8,-22],[36,7],[31,35],[23,1],[18,19],[24,47],[3,53],[45,19],[34,40],[44,36],[42,6],[12,14],[46,12],[47,-1],[53,50],[25,-10],[23,21],[38,64],[30,6],[31,35],[14,41],[41,34],[20,47],[23,33],[16,61],[45,5],[18,13],[21,61],[21,28],[5,32],[31,39],[38,33],[51,-4],[32,35],[11,32],[31,25],[49,21],[21,39],[-40,17],[-22,25],[-33,15],[-7,20],[32,50],[-36,12],[-21,27],[22,25],[-13,40],[25,18],[5,38],[34,18],[20,27],[19,100],[19,42],[-3,42],[14,37],[-44,32],[-37,9],[-36,-7],[-8,27],[-47,46],[24,40],[51,12],[25,17],[46,70],[7,29],[35,14],[49,8],[18,32],[-10,54],[44,36]],[[7809,8068],[48,-37],[52,-26],[23,-35],[36,4],[1,-25],[29,1],[30,16],[31,-20],[32,2],[34,-15],[44,21],[35,31],[15,27],[47,13],[13,22],[32,-45],[42,-5],[21,-32],[25,1],[17,-18],[43,-4],[9,-49],[-25,-64],[20,-18],[28,-3],[15,-45],[-12,-18],[13,-19],[-13,-35],[15,-28],[-11,-19],[9,-43],[-32,-2],[-13,-19],[-4,-52],[11,-11],[-8,-34],[-13,-1],[-16,-67],[30,-21],[-17,-46],[18,-18],[-5,-59],[-12,-21],[-9,-68],[36,0],[2,-17],[34,-16],[49,-12],[49,3],[16,-8],[49,38],[29,-10],[82,-14],[49,6],[50,27],[21,-12],[120,-10],[45,17],[57,-25],[53,-32],[15,-30],[-11,-35],[26,-58],[39,-30],[29,-4],[23,18],[40,-17],[68,-72],[4,-27],[19,-2],[79,-73],[31,-17],[71,-20],[69,-7],[81,14],[24,-15],[-9,-19],[4,-34],[52,-52],[30,-83],[127,-125],[10,-31],[-16,-102],[-67,-47],[-31,-69],[-21,-17],[-77,-31],[-23,-27],[-4,-28],[-39,-52],[1,-57],[31,-2],[7,-16],[-35,-51],[35,-45],[-13,-13],[-4,-105],[-36,-15],[-27,-39],[14,-78],[-18,-22],[-46,-3],[-19,-12],[-52,19],[-28,1],[6,-37],[20,-32],[-9,-37],[-18,-25],[43,-19],[1,-25],[-30,-25],[-26,-61],[18,-29],[33,-22],[1,-46],[14,-9],[-4,-48],[-18,-14],[16,-41],[-21,-16],[-19,-36],[13,-3],[33,-43],[3,-39],[-25,-14],[-13,-30],[17,-37],[-44,-54],[0,-16],[-29,-36],[-7,-51],[6,-58],[-27,-9],[-2,-18],[49,-44],[2,-15],[-28,-16],[-7,-39],[51,-58],[3,-16],[-75,-29],[-35,-31],[-87,-25],[6,-36],[35,-43],[61,-27],[22,8],[40,-8],[49,13],[47,-16],[19,9],[57,-19],[21,-17],[3,-38],[-6,-52],[-33,-62],[-39,24],[-41,9],[-70,-6],[-30,-17],[-46,-42],[-64,-41],[-14,-86],[-15,-40],[-38,-45],[-39,-6],[-35,-29],[-1,-32],[-21,12],[-16,-26],[-114,-16],[-39,-26],[-56,-7],[-19,-17],[27,-17],[-56,-31],[-24,12],[39,-39],[14,12],[17,-29],[-14,-28],[-23,4],[6,-30],[-27,23],[5,-26],[-29,-3],[12,25],[-36,11],[-24,-20],[-22,21],[-26,-40],[-38,7],[-5,-38],[25,3],[-12,-27],[22,-2],[-18,-46],[21,-2],[-15,-35],[-28,-17],[30,-11],[-11,-32],[-22,-23],[-48,-9],[-32,24],[-49,3],[-104,-28],[-45,-1],[-32,28],[-64,20],[-22,22]],[[6026,5822],[-5,-30],[-38,-50],[-7,-30],[-72,-65],[-20,6],[-20,33],[-64,-4],[-40,-18],[-14,7],[-41,-16],[-61,-5],[-69,-48],[-43,9],[-30,-36],[-54,-16],[-51,-2],[-1,-13],[-33,-39],[-9,-22]],[[5354,5483],[-23,87],[-14,12],[-68,14],[-116,16],[-23,10],[-27,31],[1,45],[24,82],[-11,35],[8,16],[41,21],[-17,54],[20,29],[1,28],[-47,57],[-20,44],[-9,84],[-26,30],[-36,-22],[-38,14],[-32,-1],[-41,17],[-43,-3],[-74,32],[-82,66],[-38,43],[-5,22],[-48,78],[0,26],[-22,58],[77,19],[81,4],[89,31],[68,37],[38,27],[-78,71],[-18,29],[15,51],[-71,90],[-44,19],[-20,18],[-23,50],[-67,34],[-36,-13],[-27,6],[-76,72],[-56,13],[-46,3],[-30,26],[-37,71],[1,40],[16,38],[1,28],[-31,23],[-13,28],[-38,20],[-13,37],[-38,48],[-39,8],[-52,32],[16,33],[-14,24]],[[4124,7525],[69,39],[70,28],[24,29],[41,-13],[54,15],[24,16],[47,9],[70,27],[44,62],[15,-15],[52,-18],[86,50],[27,-4],[37,-37],[114,20],[43,-3],[55,-18],[56,12],[30,21],[26,3],[49,41],[43,-25],[8,-20],[5,-68],[-15,-21],[48,-35],[37,19],[41,5],[-8,15],[49,21],[15,-8],[6,35],[17,-23],[39,11],[3,22],[32,-20],[47,6],[27,-14],[82,20],[31,21],[45,13],[58,-12],[29,5],[25,-16],[95,30],[51,32],[-6,37],[-20,26],[21,23],[-6,19],[10,38],[30,29],[12,36],[37,57],[40,23],[23,-3],[68,42],[32,-6],[84,2],[10,13],[-17,48],[13,19],[-27,32],[6,25],[23,8],[53,-2],[39,32],[75,18],[21,-4],[16,21],[39,17],[30,33],[39,23],[36,56],[85,41],[88,32],[77,5],[91,35],[31,3],[38,29],[13,58],[37,56],[34,10],[5,19],[35,5],[23,44],[31,-2],[19,21],[2,53],[54,9],[21,26],[-19,75],[18,11],[11,30],[29,26],[38,5],[41,46],[14,42],[43,50],[20,39],[21,15],[2,36],[25,1],[31,22],[41,14],[31,-2],[85,20],[15,12],[46,0],[48,36],[30,47],[-6,18],[35,35],[30,57],[-10,29],[22,15],[20,49],[68,69],[4,20],[61,63],[43,17],[117,17],[59,-13],[26,8],[7,-49],[28,-43],[33,-19],[58,5],[21,-23],[99,16],[9,11],[51,7],[22,-15],[74,5],[26,18],[52,-5],[34,50],[16,3],[38,42],[32,47],[2,23],[32,35],[-4,27],[24,31],[10,36],[76,-64],[54,-9],[14,-26],[-32,-99],[15,-40],[-13,-20],[11,-26],[-29,-29],[66,8],[-7,-29],[-54,-88],[-24,-31],[-46,-31],[2,-19],[-18,-42],[42,-54],[-27,-26],[18,-92],[-12,-12],[6,-67],[-21,-52],[1,-30],[-34,-4],[5,-41],[-22,-26],[-19,-3],[-4,-20],[-27,-29],[-13,-35],[-24,-13],[-41,-5],[-9,-64],[-19,-25],[18,-65],[-20,21],[-47,6],[-22,-16],[-60,10],[-17,-15],[-56,4],[-16,-23],[-51,7],[-27,-10],[-29,27],[-59,22],[14,29],[-15,11],[-39,-1],[-54,44],[-7,26],[-34,-5],[-77,-51],[-42,-11],[-47,11],[-17,-30],[-34,-22],[-47,-75],[-46,-147],[30,-25],[11,-38],[39,-31],[5,-15],[-55,-89],[-84,-71],[-56,-19],[-26,-40],[0,-61],[-82,-48],[-4,-34],[12,-64]],[[2889,2312],[-33,-27],[-68,6],[2,-19],[-55,7],[-32,32],[-16,-15],[21,-35],[-5,-15],[16,-38],[-38,-1],[13,-48],[41,-3],[44,-20],[-20,-42],[-40,20],[-7,-44],[23,-21],[-5,-22],[-59,-12],[-23,11],[-61,-47],[49,-50],[11,-30],[-75,-4],[-81,16],[-96,40],[-37,63],[-26,2],[-1,-39],[-51,-12],[-21,29],[-31,7],[-26,46],[-31,2],[-60,22],[-110,-34],[-4,-37],[-52,13],[-19,-42],[-47,3],[-23,-13],[10,-27],[-2,-36],[13,-6],[-76,-64],[-37,-15],[-34,8],[-15,-16],[-64,4],[-11,-21],[-97,-17],[-33,5],[-21,44],[-38,30],[-32,13],[-17,-27],[-49,0],[-30,-43],[-31,-4],[-24,10],[17,49],[-33,-7],[-26,28],[-21,-1],[6,-19],[-13,-23],[-62,3],[-19,-15],[-63,5],[-10,-24],[-72,18],[-37,18],[-69,-5],[-97,-26],[-59,-7],[-102,15],[-37,18],[1,34],[-86,139],[7,40],[-20,16],[-33,88],[-47,45],[-26,42],[-9,79],[-20,27],[12,44],[-31,19],[9,25],[-42,30],[-6,77],[25,48],[-56,52],[29,8],[17,18],[-42,25],[52,12],[39,19],[-35,19],[-29,48],[-39,-28],[-43,11],[-47,23],[25,16],[-30,48],[-47,-8],[-22,34],[-23,17],[-28,-15],[-26,44],[39,34],[39,5],[8,33],[-1,62],[19,35],[27,3],[13,34],[43,5],[22,39],[-21,28],[10,50],[18,10],[-7,23],[16,19],[33,2],[23,17],[-8,29],[26,15],[51,3],[104,48],[45,0],[110,37],[17,60],[45,13],[8,30],[29,4],[22,79],[-14,27],[4,68],[-28,2],[-7,27],[15,59],[107,-10],[28,17],[47,-5],[53,-26],[43,17],[1,18],[97,6],[49,9],[25,-27],[22,-4],[56,53],[3,32],[-5,76],[25,21],[84,2],[121,10],[6,18],[51,12],[26,-21],[27,-5],[43,-25],[28,3],[22,-21],[44,0],[81,57],[33,-32],[42,8],[8,21],[26,9],[-14,12],[23,17],[14,-22],[47,34],[-11,67],[14,32],[34,18],[48,-11]],[[2048,4182],[9,-16],[39,7],[36,-45]],[[3589,2739],[45,0],[19,-10],[80,8],[3,-23],[59,-8],[44,-22],[62,-63],[2,-26],[49,-45],[22,-11],[17,-51],[38,-20],[48,-49],[4,-21],[50,22],[26,-7],[14,-25],[22,1],[-18,-40],[-13,-8],[10,-64],[38,24],[46,-33],[74,39],[124,51],[36,-16],[94,-80],[42,-58],[43,-97],[31,-6],[51,4],[32,-6],[21,-24],[93,-45],[47,-72],[32,-93],[17,-77],[-7,-60],[35,-94]],[[5021,1634],[-30,-50],[28,-31],[-15,-26],[-36,-4],[-41,-22],[23,-50],[-17,-23],[-33,-16],[-196,-11],[-80,3],[-42,12],[5,53],[-28,47],[-27,17],[-114,33],[-17,19],[-88,30],[-52,36],[-53,-15],[-79,0],[-21,-13],[11,-22],[43,-7],[-43,-16],[-87,-53],[-68,-18],[-36,-2],[-94,-36],[-19,-16],[-34,18],[-63,-28],[-213,32],[-41,14],[-98,15],[-53,23],[-52,8],[-22,-9],[-36,-41],[-69,-11],[-48,-2],[-49,7],[-17,13],[-24,45],[18,67],[23,25],[-22,50],[-8,69],[-1,76],[14,76],[2,54],[-3,103],[-19,42],[-33,-9],[-6,66],[-64,27],[3,15],[-21,39],[10,30],[0,45]],[[2048,4182],[8,31],[-36,43],[13,46],[-15,19],[35,3],[-32,35],[16,2],[0,37],[-42,156],[-45,12],[11,13],[56,-5],[0,29],[-46,-6],[-14,16],[13,39],[-40,8],[3,19],[-19,18],[4,27],[-26,-1],[-25,-27],[-9,22],[-77,8],[28,51],[-30,12],[-11,-19],[-23,29],[-49,16],[3,22],[-28,-2],[-24,36],[-52,-31],[-61,17],[-42,20],[-3,56],[-74,0],[-16,30],[-50,0],[-21,36],[-31,7],[-44,46],[4,12],[-52,22],[0,38],[14,33],[-8,27],[33,21],[35,6],[3,27],[-16,19],[11,35],[-59,0],[-11,45],[-13,-2],[-53,45],[-3,-24],[-26,13],[6,-27],[-33,-14],[-38,3],[-12,60],[-9,13],[17,35],[-49,59],[-28,-5],[-15,17],[-70,35],[-25,27],[-15,43],[-2,59],[12,27],[-17,26],[8,42],[-2,46],[-33,27],[2,17],[-24,13],[25,55],[-29,15],[7,27],[36,16],[39,-18],[56,-4],[71,-71],[43,-20],[-4,19],[20,13],[54,-6],[16,-21],[64,-13],[57,-23],[-11,-33],[-25,9],[-32,-4],[-41,-42],[3,-16],[50,6],[57,-8],[36,2],[18,39],[27,32],[28,13],[18,32],[-21,47],[8,20],[54,-7],[19,17],[-8,36],[51,66],[44,-17],[36,2],[35,28],[29,-13],[73,4],[30,10],[68,-7],[97,26],[5,11],[102,14],[57,-16],[61,-25],[73,1],[56,9],[13,-26],[80,17],[28,16],[-3,-41],[20,-5],[27,-29],[4,-36],[31,-30],[27,34],[13,97],[23,117],[45,9],[77,26],[50,-4],[65,8],[36,-7],[35,19],[61,3],[50,13],[75,7],[76,71],[18,-3],[72,12],[73,-18],[83,6],[98,-5]],[[3414,6328],[29,-23],[32,-9],[34,-38],[3,-28],[-23,-14],[-13,-34],[0,-41],[14,-29],[-39,-72],[-2,-35],[23,-42],[20,-73],[-6,-34],[26,-42],[26,-56],[13,-67],[15,-28],[29,-10],[30,-66],[8,-36],[33,-57],[44,-17],[6,-50],[31,-67],[18,-81],[-26,-8],[-17,-31],[-51,-31],[-229,-188],[-86,3],[-132,13],[17,-85],[10,-10],[144,-25],[-15,-91],[19,-53],[-23,-61],[-43,-38],[-4,-28],[23,-54],[20,-78],[29,-190],[-1,-11]],[[3414,6328],[-15,13],[-11,77],[-10,18],[-33,18],[6,51],[-7,58],[29,37],[5,66],[-43,38],[-3,25],[16,45],[-3,29],[21,23],[-12,33],[15,23],[34,12],[9,38],[-12,100],[21,109],[51,21],[55,56],[-15,59],[0,72],[-47,70],[51,-12],[30,5],[60,55],[8,1],[62,-63],[47,-28],[34,-5],[7,28],[28,32],[4,24],[-16,28],[54,27],[57,-16],[26,13],[23,27],[58,-68],[71,43],[55,15]],[[5354,5483],[-25,-21],[-28,21],[-68,13],[-28,-4],[2,-25],[-63,-32],[-26,10],[-13,-19],[-76,-12],[-19,13],[-45,-1],[1,-16],[27,-10],[-8,-16],[29,-37],[-12,-15],[-45,19],[-31,-38],[-26,-13],[-8,-27],[-36,-24],[-18,-61],[-15,-25],[-53,-29],[-5,-20],[20,-32],[57,-34],[3,-21],[-39,-36],[-3,-16],[31,-22],[1,-20],[-23,-32],[4,-34],[22,-10],[1,-21],[34,-16],[35,-36],[47,-29],[46,-52],[29,-64],[3,-21]],[[8352,3388],[12,-45],[13,-83],[-29,-58],[-41,6],[-18,-19],[29,-80],[39,-16],[62,6],[62,-7],[3,-42],[24,-51],[-18,-42],[-41,-33],[-11,-23],[20,-38],[53,-33],[45,-18],[20,-17],[0,-43],[-49,12],[-17,-8],[7,-65],[41,-38],[30,0],[12,-28],[-8,-19],[-35,-33],[72,10],[36,-42],[-47,8],[-36,-14],[-29,-63],[-7,-41],[-42,-15],[-35,36],[-24,10],[-87,-21],[-75,20],[-65,-22]],[[8218,2439],[3,51],[-8,21],[-133,166],[11,54],[25,21],[-48,62],[-56,37],[-8,32],[-33,27],[-30,10],[-35,-4],[-23,-52],[9,-32],[-13,-15],[-38,10],[-18,23],[-44,-8],[-11,20],[-70,20],[-39,-2],[-75,12],[-146,47],[3,40],[-31,11],[-38,-1],[-13,-17],[-38,8],[-70,29],[-52,-3],[-45,9],[-19,25],[-24,-6],[-53,5],[-40,18],[-40,-5],[-35,25],[-60,31],[-23,-1],[-50,63],[-68,-30],[-26,4],[-18,30],[-57,-6],[-11,14],[-79,-31],[-11,11],[-48,-16],[-15,22],[-51,-15],[-15,31],[6,16],[-36,10],[-8,25],[-29,22],[-1,16],[-29,29],[-32,1],[-23,34],[-61,9],[-32,-35],[-6,-54],[-56,-63],[-3,-45],[-28,-29],[-18,-54],[-48,-28],[-41,8],[-89,-4],[-7,-42],[-17,-17],[13,-29],[-9,-33],[-22,-30],[-27,-17],[-2,-18],[-49,-2],[-20,-33],[-34,-18],[-53,-8],[-50,10],[38,-162],[21,-45],[-3,-57],[13,-42],[54,-78],[18,-43],[45,-38],[17,-56],[-14,-39],[63,-44],[76,-65],[23,-50],[6,-62],[-35,-44],[-56,-28],[-47,-6],[-46,-32],[-30,-41]],[[5743,1873],[-11,-14],[-43,-8],[-28,-46],[-44,-17],[-3,-11],[-49,-13],[-37,8],[-65,-26],[-22,5],[-44,-15],[-41,-5],[-29,33],[-31,-15],[-35,4],[-22,-22],[-50,-14],[-63,-3],[-45,-55],[-47,-6],[-13,-19]],[[8218,2439],[-12,-18],[-9,-57],[-40,-37],[-63,-7],[-43,-35],[-24,-40],[-4,-26],[2,-78],[28,-21],[-29,-46],[-37,15],[-35,-14],[19,-11],[-2,-33],[-25,-13],[-1,-30],[22,-36],[-29,-3],[-26,-29],[5,-42],[21,-18],[-25,-15],[-12,-32],[37,-5],[1,-67],[19,-49],[20,-1],[17,-25],[4,-68],[-37,-25],[-61,-8],[5,-25],[25,-22],[1,-33],[-18,-17],[14,-15],[-7,-26],[-31,-10],[-26,20],[-57,-26],[16,-43],[-21,-45],[1,-24],[-43,-3],[-59,-18],[-54,-42],[6,-46],[21,-28],[-15,-17],[-54,-11],[-26,8],[-18,-10],[-25,-35],[-51,-16],[-6,-26],[22,-20],[26,-60],[45,-7],[6,-59],[-32,14],[-38,4],[-36,-12],[-43,6],[-33,-18],[-8,-23],[-43,-21],[-18,-26],[5,-66],[-34,-12],[-39,31],[-31,1],[-43,-33],[-47,-3],[-11,-20],[-49,-28],[-59,23],[-32,-11],[-25,13],[-56,-14],[-23,9],[-37,-21],[-38,1],[-42,-44],[-2,-45],[-17,-19],[9,-54],[32,-16],[3,-64],[-79,-35],[-17,-14],[-3,-48],[-76,-39],[-103,-64],[-75,-89],[-29,-59],[-45,-61],[-12,-39],[-17,43],[-20,-1],[-5,-24],[-71,20],[-36,-13],[-53,-38],[-2,92],[-20,51],[14,3],[-39,67],[29,34],[-6,55],[22,10],[79,79],[-17,45],[16,41],[-20,64],[-33,22],[-10,-6],[-30,27],[-5,18],[-66,6],[-36,32],[-38,15],[17,16],[-19,12],[-34,-17],[-33,21],[-16,-8],[-10,34],[-29,18],[-22,64],[-37,20],[-26,28],[6,37],[-51,32],[-2,29],[-25,6],[3,19],[-21,22],[42,14],[36,26],[58,23],[4,14],[-16,59],[19,104],[-18,102],[25,20],[-1,62],[-18,18],[-26,-11],[-2,26],[-32,-4],[0,49],[13,26],[11,68],[-3,63],[7,32],[-17,34],[12,63],[0,64],[-38,33]]],"transform":{"scale":[0.0001256700836083613,0.0001424851009100892],"translate":[99.85341018000008,16.318967930000042]},"objects":{"Phitsanulok":{"type":"GeometryCollection","geometries":[{"arcs":[[0,1,2,3,4]],"type":"Polygon","properties":{"Shape_Leng":1.6636338916,"Shape_Area":0.0607239256465,"ADM2_EN":"Mueang Phitsanulok","ADM2_TH":"เมืองพิษณุโลก","ADM2_PCODE":"TH6501","ADM1_EN":"Phitsanulok","ADM1_TH":"พิษณุโลก","ADM1_PCODE":"TH65","ADM0_EN":"Thailand","ADM0_TH":"ประเทศไทย","ADM0_PCODE":"TH"}},{"arcs":[[5,6,7]],"type":"Polygon","properties":{"Shape_Leng":2.73293993726,"Shape_Area":0.200914558328,"ADM2_EN":"Nakhon Thai","ADM2_TH":"นครไทย","ADM2_PCODE":"TH6502","ADM1_EN":"Phitsanulok","ADM1_TH":"พิษณุโลก","ADM1_PCODE":"TH65","ADM0_EN":"Thailand","ADM0_TH":"ประเทศไทย","ADM0_PCODE":"TH"}},{"arcs":[[-7,8,9,10]],"type":"Polygon","properties":{"Shape_Leng":2.73327391581,"Shape_Area":0.137356529424,"ADM2_EN":"Chat Trakan","ADM2_TH":"ชาติตระการ","ADM2_PCODE":"TH6503","ADM1_EN":"Phitsanulok","ADM1_TH":"พิษณุโลก","ADM1_PCODE":"TH65","ADM0_EN":"Thailand","ADM0_TH":"ประเทศไทย","ADM0_PCODE":"TH"}},{"arcs":[[-3,11,12]],"type":"Polygon","properties":{"Shape_Leng":1.67549328891,"Shape_Area":0.0816515023237,"ADM2_EN":"Bang Rakam","ADM2_TH":"บางระกำ","ADM2_PCODE":"TH6504","ADM1_EN":"Phitsanulok","ADM1_TH":"พิษณุโลก","ADM1_PCODE":"TH65","ADM0_EN":"Thailand","ADM0_TH":"ประเทศไทย","ADM0_PCODE":"TH"}},{"arcs":[[-2,13,14]],"type":"Polygon","properties":{"Shape_Leng":1.011777969,"Shape_Area":0.0299270369977,"ADM2_EN":"Bang Krathum","ADM2_TH":"บางกระทุ่ม","ADM2_PCODE":"TH6505","ADM1_EN":"Phitsanulok","ADM1_TH":"พิษณุโลก","ADM1_PCODE":"TH65","ADM0_EN":"Thailand","ADM0_TH":"ประเทศไทย","ADM0_PCODE":"TH"}},{"arcs":[[-4,-13,15,16]],"type":"Polygon","properties":{"Shape_Leng":1.70869280204,"Shape_Area":0.0704740347175,"ADM2_EN":"Phrom Phiram","ADM2_TH":"พรหมพิราม","ADM2_PCODE":"TH6506","ADM1_EN":"Phitsanulok","ADM1_TH":"พิษณุโลก","ADM1_PCODE":"TH65","ADM0_EN":"Thailand","ADM0_TH":"ประเทศไทย","ADM0_PCODE":"TH"}},{"arcs":[[-5,-17,17,-10,18]],"type":"Polygon","properties":{"Shape_Leng":1.59217489879,"Shape_Area":0.0734497867697,"ADM2_EN":"Wat Bot","ADM2_TH":"วัดโบสถ์","ADM2_PCODE":"TH6507","ADM1_EN":"Phitsanulok","ADM1_TH":"พิษณุโลก","ADM1_PCODE":"TH65","ADM0_EN":"Thailand","ADM0_TH":"ประเทศไทย","ADM0_PCODE":"TH"}},{"arcs":[[-1,-19,-9,-6,19,20,21,-14]],"type":"Polygon","properties":{"Shape_Leng":2.99374597845,"Shape_Area":0.144416359624,"ADM2_EN":"Wang Thong","ADM2_TH":"วังทอง","ADM2_PCODE":"TH6508","ADM1_EN":"Phitsanulok","ADM1_TH":"พิษณุโลก","ADM1_PCODE":"TH65","ADM0_EN":"Thailand","ADM0_TH":"ประเทศไทย","ADM0_PCODE":"TH"}},{"arcs":[[-21,22]],"type":"Polygon","properties":{"Shape_Leng":1.7719414998,"Shape_Area":0.0939674743087,"ADM2_EN":"Noen Maprang","ADM2_TH":"เนินมะปราง","ADM2_PCODE":"TH6509","ADM1_EN":"Phitsanulok","ADM1_TH":"พิษณุโลก","ADM1_PCODE":"TH65","ADM0_EN":"Thailand","ADM0_TH":"ประเทศไทย","ADM0_PCODE":"TH"}}]}}}