{"type":"Topology","arcs":[[[7666,4981],[13,-15],[-2,-60],[-50,-111],[-1,-66],[-18,-65],[43,-85],[-49,-7],[4,-13],[126,-105],[18,-40],[39,-12],[20,26],[20,-53],[39,-37],[19,-3],[17,-42],[76,19],[43,-17],[28,4],[32,-60],[44,6],[15,-24],[29,-1],[106,-49],[25,7],[57,-29],[50,-58],[62,-11],[42,22],[54,-3],[14,12],[59,-4],[71,-41],[60,-21],[72,14]],[[8843,4059],[-4,-38],[-33,-66],[-89,-32],[-13,-26],[-13,-63],[-35,-80],[11,-48],[33,-44],[21,-67],[-29,-36],[-6,-90],[11,-24],[32,3],[75,-72],[-54,-86],[49,-71],[-11,-46],[6,-40],[31,-55],[29,-32],[17,-61],[-3,-25],[-26,-49],[-53,20],[-62,-27],[-56,1],[-31,-20],[-18,-36],[-57,-27],[-20,-67],[-26,-31],[-57,-37],[-37,-42],[-74,-50],[-49,-19],[8,-47],[20,-47],[23,-83],[-4,-66],[-11,-24],[10,-48],[-10,-36],[46,-58],[-13,-36],[10,-42],[-9,-36],[-43,-20],[-50,-50],[11,-52],[-54,-79],[-4,-50],[-43,-22],[-18,-24],[-39,34],[-43,-9],[-1,40],[-33,43],[-33,63],[-36,4],[-9,66],[-26,29],[2,69],[-19,47],[-48,28],[-14,21],[-104,-17],[-7,104],[-55,73],[-31,2],[-36,-18]],[[7639,2335],[-24,14],[7,62],[-32,68],[-23,14],[-27,47],[-47,20],[-49,-14],[-61,19],[-30,-11],[-50,12],[-21,19],[0,51],[-17,11],[-22,50],[14,15],[-57,62],[40,6],[10,42],[-47,21],[-22,31],[18,38],[23,-8],[28,20],[21,-11],[58,37],[37,13],[-50,63],[-9,31],[-63,58],[-37,-8],[-24,66],[-17,8],[-40,83],[-35,14],[-20,42],[-72,16],[-15,-20],[-25,12],[1,21],[-31,9],[-35,34],[-23,87],[21,8],[-105,112],[-24,-7],[-7,28],[-38,-2],[-57,22],[-48,29],[-19,27],[-86,34],[-52,47],[-107,58],[-67,-21],[-62,-41],[-99,-12],[-29,3],[-52,-13],[-31,12],[-10,43],[-41,16],[-12,-11],[-46,29],[-23,71],[-33,-21],[-53,-4],[-44,23],[6,46],[-54,42],[-47,10]],[[5652,4007],[37,40],[18,48],[38,7],[16,51],[22,2],[29,37],[10,97],[33,24],[24,52],[-3,64],[-11,65],[12,59],[29,85],[23,26],[-2,36],[20,-3],[31,37],[13,56],[-34,-1],[-9,70],[39,77],[16,10],[56,-22],[6,23],[0,116],[24,64],[14,5]],[[6103,5132],[19,-10],[55,26],[85,-7],[-20,-37],[25,-31],[75,-17],[28,-38],[41,-14],[62,-48],[78,17],[49,-1],[63,-56],[46,-20],[26,-97],[15,-9],[11,39],[-11,37],[69,6],[29,-12],[-28,-21],[47,-60],[-11,-31],[29,-14],[32,20],[28,-2],[-10,26],[-25,-8],[35,44],[-9,13],[30,36],[54,0],[-18,46],[34,12],[-9,23],[30,4],[5,26],[60,-1],[51,11],[50,56],[54,22],[5,-27],[28,20],[60,-13],[24,32],[22,-2],[-4,-24],[34,-24],[4,-39],[97,-44],[11,15],[66,21],[7,16],[35,-12]],[[7666,4981],[25,2],[11,60],[-10,60],[-30,48],[-80,54],[-5,27],[-51,2],[-31,-43],[-116,63],[-35,28],[-52,13],[-7,79],[-52,27],[-37,40],[-118,46]],[[7078,5487],[-27,41],[21,36],[20,4],[20,55],[23,-5],[28,111],[-10,48],[-18,15],[12,22],[-53,94],[18,21],[-17,12],[7,37],[22,15],[18,58],[59,71],[34,17],[2,24],[25,25],[43,8],[11,22],[-7,47],[15,37],[48,15],[14,36],[85,118],[23,-4],[-1,37],[40,34],[-7,26],[84,31],[-7,19],[11,54],[33,-10],[65,-1],[11,28],[73,-27],[55,2],[35,37],[87,46],[19,35],[33,-3],[20,14],[38,-12],[29,-39],[26,-4],[-3,-36],[90,-36],[-13,-81],[116,-4],[9,-16],[86,-19],[32,-25],[56,-4],[8,-31],[43,-25],[17,-43],[80,-40],[26,13],[-13,33],[15,16],[-31,73],[-5,36],[21,16],[40,2],[66,-19],[25,14],[24,34],[-7,50],[83,74],[13,4],[-56,41],[-8,18],[-65,52],[-23,27],[4,23],[-48,35],[-5,37]],[[8715,6953],[100,-18],[30,-28],[35,49],[-4,34],[30,49],[56,15],[70,39],[10,-43],[51,-61],[13,48],[76,6],[48,-49],[107,16],[33,21],[5,-53],[25,-21],[13,-33],[102,-73],[76,12],[26,-21],[58,32],[34,-10],[58,39],[5,24],[67,25],[16,41],[21,8],[44,-18],[9,-49],[7,-99],[-5,-26],[29,-35],[-9,-26],[27,-26],[15,-87],[-21,-49],[-6,-54],[7,-45],[26,-28],[-11,-20],[10,-32],[-5,-53],[-23,-25],[-14,-61],[-42,-20],[-17,-60],[-17,-20],[-7,-42],[-30,10],[-49,-12],[-78,17],[-36,-35],[-26,-59],[1,-49],[-31,-36],[-10,-80],[-30,-35],[-33,-12],[-4,-39],[-138,-31],[18,-24],[-6,-41],[37,3],[45,-30],[-23,-35],[-12,-44],[-29,-44],[-33,-10],[-10,-44],[16,-47],[6,-67],[21,-9],[11,-56],[-24,-21],[1,-48],[46,-42],[27,-5],[12,-58],[-50,-23],[-19,-37],[-43,-31],[-17,0],[-23,-34],[10,-23],[-26,-36],[-31,-94],[-17,-10],[-1,-67],[-57,-62],[6,-61],[-28,-49],[-38,-25],[30,-62],[20,-110],[-37,-36],[-35,-62],[10,-24],[-2,-67],[-37,-69],[-9,-58],[-57,-49],[-37,-6],[-123,14],[-24,14],[-34,-17]],[[5652,4007],[10,-57],[-69,-46],[-34,12],[-46,-71],[-36,2],[-35,-58],[-5,-66],[-59,-9],[-8,-51],[-72,-49],[-45,-6],[1,-33],[-28,-47],[-48,-28],[-22,-2],[-3,-27],[27,-18],[-43,-72],[11,-59],[-4,-37],[22,-66],[-29,-39],[-26,-18],[12,-44],[-16,-15]],[[5107,3103],[18,-49],[2,-41],[-23,-5],[-19,-54],[-4,-41],[-56,-36],[-12,-83],[-22,-28],[-83,-67],[-47,-21],[-11,-26],[11,-36],[-61,-50],[-27,-53],[-61,-21],[-41,-30],[5,-25],[-30,-11],[-67,-80],[-52,-9],[-73,-66],[-51,-18],[-36,-45],[32,-1],[37,-47],[-49,-39],[-33,-42],[-52,-7]],[[4302,2072],[-46,54],[-29,63],[-32,-2],[-8,-33],[-27,24],[-34,9],[-19,-41],[-34,-9],[-27,-51],[-77,-26],[-25,0],[-23,22],[-37,-18],[-51,24],[-97,22],[-13,-19],[-145,-25],[-43,25],[-12,25],[-58,-8],[-51,-22],[-51,12],[-83,-22],[-141,-16],[-45,-37],[-105,-52],[-44,7],[-28,-18],[-45,1],[-62,-24],[-15,-29],[-26,4],[-59,-15],[-24,4],[-82,-18],[-72,16],[-15,-12],[-74,1],[-21,-24],[-36,20],[-64,58],[-62,-1],[-21,22],[23,24],[-27,79],[8,39],[-15,35],[82,21],[14,12],[-7,39],[-54,26],[-12,20],[23,14],[78,-33],[52,-8],[79,25],[36,21],[21,32],[-31,16],[34,12],[19,23],[32,-1],[-2,68],[19,32],[-13,24],[20,15],[7,48],[18,32],[-18,14],[71,76],[-8,65],[30,58],[-14,29],[0,51],[-53,74],[-90,59],[-10,14],[-6,67]],[[2545,3085],[29,19],[67,16],[34,52],[54,28],[10,15],[-20,55],[32,29],[63,7],[32,29],[41,-14],[59,24],[30,-13],[2,31],[23,16],[35,104],[63,67],[14,67],[28,53],[62,22],[69,75],[42,4],[18,26],[-64,57],[15,55],[-20,32],[43,70],[111,127],[13,38],[33,36],[15,35],[36,32],[22,45],[22,9],[14,54],[75,71],[3,52],[15,38],[1,46],[31,29],[43,72],[82,70],[14,25],[61,0],[44,-11],[4,35],[41,38],[38,91],[16,11],[32,-12],[17,24],[-15,36],[17,8],[26,51],[11,42],[20,20],[-18,27],[9,45],[51,-35],[71,-18],[53,13],[24,29],[82,-8],[45,-18],[91,7],[10,30],[29,21],[18,51],[51,76],[12,52],[50,56],[27,58],[47,62],[21,61],[-10,29],[17,35],[-7,33],[13,57],[18,22],[76,17],[-7,71],[48,112],[39,57],[51,-6],[35,61],[-31,21],[7,13],[76,-28],[89,8],[17,48],[62,50],[22,-4]],[[5336,6228],[47,-53],[37,-1],[32,-27],[50,-13],[19,-32],[26,0],[7,-27],[44,-2],[12,19],[72,-9],[-38,-96],[-5,-49],[8,-36],[32,-19],[40,-2],[14,-19],[71,-14],[10,29],[37,-14],[39,10],[-60,-97],[16,-13],[73,-9],[58,6]],[[5977,5760],[-15,-31],[-7,-78],[35,-69],[49,-56],[-3,-39],[-30,-17],[-28,-49],[37,-55],[5,-26],[39,-16],[53,-112],[-9,-80]],[[7639,2335],[-25,-11],[-60,-8],[-76,65],[-58,5],[-38,-23],[-15,-23],[-40,-9],[-31,-51],[-46,-2],[4,-55],[-8,-30],[-44,-8],[-20,-23],[5,-23],[-28,-44],[-1,-65],[-38,-9],[-16,-20],[-49,6],[-46,-66],[-12,-35],[-65,-23]],[[6932,1883],[-4,35],[-71,77],[-66,12],[-22,20],[-98,10],[-138,70],[-63,40],[-45,46],[-1,86],[17,17],[-12,35],[5,42],[67,67],[67,19],[30,72],[0,20],[-39,67],[-38,-28],[-22,3],[-47,33],[-5,27],[-28,25],[-29,-6],[-40,14],[-4,22],[-30,14],[-63,-5],[-46,36],[-11,65],[-16,21],[-39,6],[-40,46],[-67,-11],[-31,18],[-109,11],[26,14],[6,28],[-110,12],[-52,-9],[-135,32],[-28,33],[-43,-19],[-92,50],[2,12],[-47,3],[-19,46],[-65,-18],[-21,44],[-34,-18],[-26,4],[-19,-18],[-68,-5],[-62,3]],[[6932,1883],[-162,-112],[-39,4],[-49,-32],[-1,-32],[-44,-58],[-57,-54],[-18,-36],[-124,-93],[-38,21],[-45,-1],[-58,-32],[-24,-40],[-84,-25],[-42,31],[-50,-35],[-11,-39],[-22,9],[-39,-10],[-44,-36],[-57,17],[-51,1],[-44,-61],[-21,31],[-37,16],[-43,66],[-101,-22],[-32,-20],[-20,-29],[-17,14],[-82,-30],[-38,-30],[-52,34],[-28,-24],[-26,0],[-39,-27],[-47,36],[12,-49],[-34,-3],[18,-79],[24,-45],[-2,-31],[-55,-78],[-52,-45],[-39,-4],[-40,24],[-38,-19],[-23,-40],[0,-83],[-16,-42],[-58,5],[-24,-15],[-36,1],[-23,29],[-52,10],[-37,73],[-37,-8],[-24,23],[-67,32],[-8,18],[-36,5],[-9,41],[-40,25],[-48,-14],[-51,26]],[[4451,1042],[38,63],[93,49],[13,32],[-39,55],[-6,40],[15,47],[30,17],[110,35],[59,-7],[-6,29],[18,3],[-4,40],[33,-14],[-2,20],[-46,64],[-55,-9],[-43,61],[36,26],[-6,21],[-86,-2],[-37,17],[-24,36],[10,37],[-45,3],[-43,-43],[-51,26],[-8,61],[-67,65],[-37,-2],[-20,19],[22,15],[-11,69],[19,43],[-10,51],[11,45],[-10,18]],[[7078,5487],[-20,-21],[-58,-29],[-57,-80],[-52,-7],[-12,-99],[-60,-9],[-72,46],[-1,27],[-46,-3],[11,55],[49,27],[5,24],[-70,81],[12,65],[-5,53],[-18,71],[-21,40],[-21,-4],[-26,28],[-33,-3],[-25,-25],[-34,14],[-7,-14],[-105,34],[-61,-19],[-25,-24],[10,-55],[-58,12],[-23,25],[-3,27],[-47,25],[-33,82],[-46,4],[-11,-28],[-44,-16],[-14,15],[-56,-3],[-24,-43]],[[5336,6228],[19,34],[45,46],[-20,33],[18,63],[64,130],[-31,46],[-43,25],[74,13],[55,-1],[33,63],[34,91],[-44,41],[55,-2],[73,119],[1,19],[93,108],[12,48],[1,75],[17,20],[-5,42],[24,33],[9,39],[-61,22],[30,82],[-9,28],[30,67],[5,65],[59,30],[56,14],[75,3],[24,15],[66,72],[47,-24],[18,-28],[71,-66],[34,8],[-28,64],[6,48],[39,28],[6,34],[-17,22],[-8,54],[34,29],[66,88],[-41,67],[-31,9],[-14,28],[-36,11],[-7,50],[-51,67],[0,41],[24,58],[11,74],[24,25],[-1,61],[-9,44],[30,26],[21,40],[-21,43],[4,38],[-40,51],[0,32],[33,12],[1,56],[-11,51],[-37,8],[-1,55],[-22,37],[11,66],[-26,14],[-18,53],[11,35],[34,26],[0,83],[-12,44],[57,36],[11,52],[64,29],[2,28],[-13,67],[46,44],[24,3],[27,48],[-42,94],[-47,15],[5,36],[-20,28],[33,109],[139,-19],[39,55],[50,6],[17,27],[21,-3],[39,24],[-5,23],[24,24],[29,-68],[50,-75],[59,-46],[35,-3],[90,49],[61,-19],[34,-20],[51,11],[34,26],[63,-4],[29,30],[21,-8],[33,38],[72,-14],[56,-35],[41,23],[31,4],[41,-30],[32,16],[44,-19],[33,10],[33,-12],[61,20],[109,-29],[91,7],[28,-15],[51,-55],[58,12],[62,-10],[45,23],[29,-9],[35,8],[17,-63],[-37,-93],[9,-73],[36,-19],[59,12],[65,-13],[16,-29],[37,-28],[-29,-58],[19,-38],[-32,-51],[8,-93],[60,-40],[33,-6],[29,-32],[94,-21],[57,17],[6,-15],[-33,-66],[8,-38],[-46,-9],[-44,-32],[-1,-29],[-59,-83],[-29,0],[-33,-23],[6,-26],[-33,-45],[-10,-79],[-62,-82],[39,-65],[-13,-35],[24,-19],[-27,-43],[12,-21],[31,-6],[9,-33],[-10,-53],[15,-42],[34,-6],[26,-38],[59,-18],[99,20],[16,-16],[33,7],[-8,-100],[-16,-15],[-43,-1],[-30,-25],[0,-42],[-28,-55],[3,-57],[-12,-18],[12,-35],[-12,-51],[21,-48],[-26,-52],[0,-51],[-44,-68],[72,-50],[68,-28],[-6,-137],[72,-86],[3,-46],[-33,-42],[-42,-82],[47,-41],[35,-59],[8,-37],[-15,-16],[37,-17],[-7,-70]],[[4451,1042],[-30,-27],[-49,27],[-6,24],[-17,-27],[3,-36],[-33,-6],[-2,30],[-24,-35],[-53,30],[-13,-24],[-90,-32],[-4,30],[-27,-29],[-21,-3],[-15,34],[-33,-7],[-38,-30],[-12,18],[-33,-25],[-28,51],[-21,-20],[-42,1],[-15,17],[-33,-12],[-39,3],[-27,21],[-1,-22],[-31,10],[-34,-20],[-12,-45],[-26,-3],[-35,-28],[-42,-5],[-17,18],[-17,-20],[-28,1],[-2,-21],[-33,-2],[-26,-30],[3,-30],[-25,0],[36,-37],[-40,-20],[-7,-32],[-18,5],[-16,-62],[-20,-35],[-90,-76],[-33,2],[8,-22],[41,-4],[-27,-34],[-1,-42],[-40,-48],[-30,8],[0,-25],[-23,-10],[-8,-28],[-52,-19],[15,-21],[-88,-22],[-13,39],[-40,50],[-37,3],[-18,41],[-26,4],[-2,52],[-18,43],[9,15],[-21,67],[-74,-12],[-31,33],[-30,-5],[12,45],[-13,34],[-46,42],[11,34],[-48,74],[-48,30],[-32,58],[-4,30],[-73,-5],[-63,-23],[-44,5],[-38,49],[-22,-4],[-22,30],[-23,-1],[-16,30],[-39,36],[-31,14],[-10,-16],[-42,8],[-48,38],[-59,-13],[-11,25],[-70,21],[-9,-13],[-42,3],[-74,-34],[-77,-9],[-26,6],[-45,-42],[-49,9],[-13,-9],[-94,5],[-47,-19],[-21,-43],[-94,-43],[-78,-20],[-23,-26],[7,-23],[-23,-26],[6,-51],[-41,-5],[-103,-76],[-17,-41],[-81,-54],[7,-41],[-27,-31],[-20,-81],[-63,-33],[-29,-32],[-58,-8],[-14,-31],[-51,-45],[-8,-31],[22,-19],[-19,-61],[-58,-56],[-58,-13],[-84,7],[-14,14],[-72,1],[-63,-57],[-51,-23],[-26,-33],[-25,2],[-25,-26],[-104,-59],[17,78],[-66,53],[2,50],[-17,25],[44,36],[9,56],[-52,6],[-24,34],[-2,62],[25,19],[-6,35],[18,17],[-16,36],[15,48],[-6,51],[-52,47],[-55,96],[28,50],[47,21],[26,34],[50,41],[9,40],[59,113],[-7,59],[75,37],[24,37],[33,1],[36,31],[1,44],[30,53],[13,45],[21,-2],[23,66],[42,24],[5,36],[77,56],[37,0],[22,40],[28,11],[34,75],[45,38],[49,2],[48,56],[2,30],[44,8],[25,43],[-6,29],[19,18],[46,109],[-10,32],[19,-5],[109,66],[3,34],[25,54],[44,48],[46,7],[82,74],[9,43],[87,42],[43,5],[40,67],[34,22],[13,-11],[80,24],[26,32],[3,76],[30,44],[60,35],[36,0],[32,42],[125,81],[-27,31],[-1,41],[-28,36],[4,41],[-36,58],[4,15],[77,31],[23,-5],[64,38],[47,64],[32,-17],[42,6],[44,50],[31,56],[31,13],[29,-8],[60,-50],[70,10],[7,-39],[72,-98],[79,6]]],"transform":{"scale":[0.00011838121462146084,0.00011480290809080642],"translate":[99.36757282600007,17.687556630000074]},"objects":{"Phrae":{"type":"GeometryCollection","geometries":[{"arcs":[[0,1,2,3,4]],"type":"Polygon","properties":{"Shape_Leng":1.71908135174,"Shape_Area":0.0678298268996,"ADM2_EN":"Mueang Phrae","ADM2_TH":"เมืองแพร่","ADM2_PCODE":"TH5401","ADM1_EN":"Phrae","ADM1_TH":"แพร่","ADM1_PCODE":"TH54","ADM0_EN":"Thailand","ADM0_TH":"ประเทศไทย","ADM0_PCODE":"TH"}},{"arcs":[[-1,5,6,7]],"type":"Polygon","properties":{"Shape_Leng":1.54093113053,"Shape_Area":0.0739519738455,"ADM2_EN":"Rong Kwang","ADM2_TH":"ร้องกวาง","ADM2_PCODE":"TH5402","ADM1_EN":"Phrae","ADM1_TH":"แพร่","ADM1_PCODE":"TH54","ADM0_EN":"Thailand","ADM0_TH":"ประเทศไทย","ADM0_PCODE":"TH"}},{"arcs":[[-4,8,9,10,11,12,13]],"type":"Polygon","properties":{"Shape_Leng":1.93551260591,"Shape_Area":0.108753523988,"ADM2_EN":"Long","ADM2_TH":"ลอง","ADM2_PCODE":"TH5403","ADM1_EN":"Phrae","ADM1_TH":"แพร่","ADM1_PCODE":"TH54","ADM0_EN":"Thailand","ADM0_TH":"ประเทศไทย","ADM0_PCODE":"TH"}},{"arcs":[[-3,14,15,-9]],"type":"Polygon","properties":{"Shape_Leng":1.15455504621,"Shape_Area":0.0317207886976,"ADM2_EN":"Sung Men","ADM2_TH":"สูงเม่น","ADM2_PCODE":"TH5404","ADM1_EN":"Phrae","ADM1_TH":"แพร่","ADM1_PCODE":"TH54","ADM0_EN":"Thailand","ADM0_TH":"ประเทศไทย","ADM0_PCODE":"TH"}},{"arcs":[[-10,-16,16,17]],"type":"Polygon","properties":{"Shape_Leng":1.26839933633,"Shape_Area":0.0462795208778,"ADM2_EN":"Den Chai","ADM2_TH":"เด่นชัย","ADM2_PCODE":"TH5405","ADM1_EN":"Phrae","ADM1_TH":"แพร่","ADM1_PCODE":"TH54","ADM0_EN":"Thailand","ADM0_TH":"ประเทศไทย","ADM0_PCODE":"TH"}},{"arcs":[[-7,18,-13,19]],"type":"Polygon","properties":{"Shape_Leng":2.26084316603,"Shape_Area":0.129570185763,"ADM2_EN":"Song","ADM2_TH":"สอง","ADM2_PCODE":"TH5406","ADM1_EN":"Phrae","ADM1_TH":"แพร่","ADM1_PCODE":"TH54","ADM0_EN":"Thailand","ADM0_TH":"ประเทศไทย","ADM0_PCODE":"TH"}},{"arcs":[[-11,-18,20]],"type":"Polygon","properties":{"Shape_Leng":2.26411504249,"Shape_Area":0.0844298663551,"ADM2_EN":"Wang Chin","ADM2_TH":"วังชิ้น","ADM2_PCODE":"TH5407","ADM1_EN":"Phrae","ADM1_TH":"แพร่","ADM1_PCODE":"TH54","ADM0_EN":"Thailand","ADM0_TH":"ประเทศไทย","ADM0_PCODE":"TH"}},{"arcs":[[-5,-14,-19,-6]],"type":"Polygon","properties":{"Shape_Leng":0.805121876329,"Shape_Area":0.011595070885,"ADM2_EN":"Nong Muang Khai","ADM2_TH":"หนองม่วงไข่","ADM2_PCODE":"TH5408","ADM1_EN":"Phrae","ADM1_TH":"แพร่","ADM1_PCODE":"TH54","ADM0_EN":"Thailand","ADM0_TH":"ประเทศไทย","ADM0_PCODE":"TH"}}]}}}