{"type":"Topology","arcs":[[[2740,2729],[74,-29],[103,-10],[-21,-35],[-85,-30],[-21,37],[-64,21],[-71,-6],[-16,30],[101,22]],[[1463,2788],[50,-8],[-33,-25],[-17,33]],[[2462,2930],[-16,-49],[-28,26],[44,23]],[[2159,3166],[-2,-29],[-69,-33],[-36,11],[107,51]],[[1345,3142],[0,-80],[103,-92],[13,-50],[77,-25],[-63,-23],[-40,-55],[-57,-28],[-213,-47],[-55,-39],[-160,-9],[19,24],[91,32],[-79,82],[-98,47],[-104,-15],[9,16],[147,106],[-9,20],[76,11],[-12,-27],[83,-27],[140,29],[33,92],[-51,19],[-82,-2],[135,47],[41,-5],[66,41],[-10,-42]],[[1844,3194],[-34,21],[73,37],[-39,-58]],[[2023,3766],[140,-3],[78,63],[53,-29],[-11,-38],[-141,-133],[-10,-54],[46,-17],[13,-52],[-79,-75],[-86,30],[-55,-8],[-33,-85],[7,-41],[46,-12],[-19,-30],[-59,-7],[-85,64],[-118,-14],[-81,44],[10,52],[-51,63],[41,27],[-12,37],[113,8],[37,21],[-7,63],[-77,85],[120,38],[108,80],[57,-16],[-12,-24],[67,-37]],[[2928,4046],[25,-16],[-135,-17],[3,29],[107,4]],[[2451,4107],[103,-18],[-22,-38],[-59,-38],[-98,-25],[-140,-7],[-56,-22],[-26,25],[108,38],[41,39],[-15,26],[99,25],[65,-5]],[[3024,4154],[-54,-47],[-85,-8],[-82,-36],[45,63],[49,27],[127,1]],[[2479,4236],[40,-3],[-114,-37],[-52,26],[102,31],[24,-17]],[[6534,4122],[-7,-16],[-120,-55],[-96,-12],[-49,-36],[-111,-33],[-14,-77],[34,-33],[-32,-37],[24,-27],[-39,-23],[-267,-106],[-138,-100],[-50,-10],[-119,18],[-52,-45],[-125,-38],[-27,-28],[-78,-19],[-11,-41],[-104,-30],[-185,-91],[-43,13],[-112,-33],[-79,-67],[44,-76],[-86,-26],[75,-39],[-10,-40],[55,-66],[102,-18],[5,-30],[-60,-35],[-7,-40],[40,-46],[-16,-21]],[[4876,2759],[-91,-27],[-22,-38],[-282,-129],[-43,-50],[-72,-15],[-94,-44],[-9,-60],[-105,-16],[-16,-28],[-66,-12],[-70,-34],[58,-45],[-66,-8],[-164,-70],[-181,-64],[-110,-18],[-52,28],[-164,23],[-60,38],[-93,32],[-154,8],[-115,-9],[-105,-41],[-68,-6]],[[2732,2174],[-39,57],[88,39],[55,60],[5,50],[-111,6],[-50,-41],[-79,66],[-46,-1],[-41,118],[-63,18],[-4,29],[96,-7],[27,-22],[79,-8],[-12,-20],[80,-26],[91,-10],[114,21],[68,43],[98,-16],[83,34],[86,53],[70,18],[7,52],[-36,23],[112,56],[58,55],[126,41],[-60,83],[2,52],[-77,-27],[-156,-10],[-79,13],[-80,35],[-97,1],[-88,-48],[-107,-17],[-41,-30],[-73,0],[-55,25],[38,29],[71,5],[8,39],[78,15],[3,40],[-91,78],[-7,76],[85,10],[55,34],[73,8],[67,-24],[153,27],[33,82],[30,21],[-58,23],[-79,67],[-27,68],[-87,42],[-11,53],[-86,68],[68,22],[156,-1],[101,16],[-102,9],[-40,41],[18,36],[74,36],[34,37],[84,26],[139,8],[54,-20],[125,3],[86,41],[42,70],[50,30],[101,14],[2,20],[-109,5],[-146,-57],[-61,-50],[-27,35],[11,87],[47,38],[138,-5],[-1,21],[208,54],[78,6],[-323,172],[109,108],[61,84],[162,118],[102,101],[128,96],[263,165],[58,89],[144,118],[51,139],[72,34],[22,41],[-42,84],[89,62],[156,175],[151,19],[124,34],[28,31]],[[5416,5892],[157,-38],[114,11],[156,58],[62,-9],[89,-37],[154,-37],[374,-8],[132,-21],[77,-36],[-9,-24],[-80,30],[-176,-22],[-131,17],[42,-63],[-49,-52],[-267,-25],[-20,-55],[-53,-45],[-61,-19],[-9,-45],[-53,-81],[-65,-19],[-28,27],[-67,3],[-56,-27],[-48,-58],[-84,-133],[18,-72],[57,-16],[-40,-29],[12,-57],[-39,-65],[31,-55],[-43,-82],[12,-21],[73,-6],[20,-49],[85,-15],[57,-52],[-5,-53],[80,-8],[75,-51],[-21,-20],[68,-29],[40,-53],[90,-2],[70,-39],[147,-47],[141,-82],[34,-58],[-22,-29],[82,-28],[-5,-44]],[[5416,5892],[57,49],[86,47],[196,79],[54,38],[118,126]],[[5927,6231],[202,-24],[37,8],[188,-23],[54,18],[177,-24],[76,-39],[96,-19],[-6,-19],[93,-29],[93,23],[17,20],[134,11],[48,36],[208,-38],[-5,-17],[115,-31],[82,27],[135,26],[104,-15],[56,-81],[60,-2],[191,45],[314,-53],[118,10],[73,24]],[[8587,6065],[5,-67],[-68,-59],[104,-25],[8,-26],[75,-14],[93,-46],[-2,-59],[-74,-27],[-181,-5],[-48,-12],[5,-60],[-30,-26],[11,-49],[-133,-11],[4,-43],[-30,-45],[88,-1],[-7,-58],[38,-39],[-47,-37],[-5,-38],[-68,-26],[-37,-37],[-78,9],[-58,-18],[-21,-32],[-168,-77],[52,-23],[100,-6],[150,6],[73,-12],[49,20],[73,-10],[218,11],[122,-22],[53,22],[172,-67],[-38,-60],[90,-79],[-33,-51],[-69,-11],[-196,-71],[-54,-56],[-136,-39],[-63,0],[-66,-32],[-150,14],[-43,-24],[-206,-20],[-38,-39],[-54,-4],[-41,-32],[-81,-18],[21,-42],[-47,-13],[-74,-67],[21,-78],[-144,-76],[-70,8],[-120,41],[-102,-20],[-183,59],[-50,8],[-135,-30],[-73,-41],[-171,-38],[-39,-18],[-42,-94],[-105,-11]],[[4876,2759],[162,-80],[-42,-73],[163,-24],[45,-59],[-100,-46],[-12,-36],[-73,-32],[68,-15],[31,-43],[90,15],[157,-2],[94,-13],[58,-31],[90,-6],[46,-44],[106,-10],[27,-24],[107,-26],[124,0],[43,-23],[94,2],[134,-98],[124,-30],[-8,-40],[50,-21],[-13,-49],[26,-20],[-46,-33],[29,-25],[111,-34],[195,-19],[24,-37],[-43,-56],[52,-24],[119,-83],[-77,-52],[-127,8],[-101,-14],[-133,-69],[-85,-19],[-15,-41],[-86,-16],[-69,-29],[-8,-47],[-107,-25],[-21,-85],[-184,-7],[-25,-35],[-85,-33],[-42,-39],[-168,-3],[-105,-29],[-130,12],[-50,-49],[39,-73]],[[5329,975],[-99,-5],[-197,32],[-127,3],[-124,27],[-148,18],[-136,48],[-82,1],[-37,26],[-134,7],[-50,34],[-347,33],[-118,27],[-185,8],[-63,-13],[-60,19],[-186,-28],[-139,11],[-93,-18],[-36,15],[-145,5],[-113,-7],[-9,57],[-122,13],[18,54],[79,58],[-78,88],[-31,56],[-19,100]],[[2548,1644],[122,6],[-15,24],[218,11],[59,36],[-86,-4],[265,52],[98,14],[30,59],[-78,0],[-116,24],[-143,68],[-90,29],[-79,0],[-85,-19],[-270,-1],[-143,43],[-62,-13],[-40,34],[-6,125],[-21,55],[64,-26],[96,17],[80,50],[54,-35],[53,0],[20,-43],[65,-39],[102,4],[92,59]],[[2926,1842],[173,-21],[-94,-14],[-121,-1],[42,36]],[[2335,1872],[140,-16],[38,-19],[-106,-38],[-65,36],[-102,6],[15,31],[80,0]],[[2998,1875],[-120,7],[18,17],[102,-24]],[[2177,1818],[-37,-6],[-73,42],[31,38],[61,15],[6,35],[111,-44],[-58,-63],[-41,-17]],[[5927,6231],[238,281],[38,62],[85,102],[29,73],[62,56],[130,74],[40,191],[79,129],[54,117],[43,37],[146,60],[35,27],[47,92],[146,125],[111,27],[144,4],[53,23],[-47,16],[-5,34],[176,81],[21,26],[-145,59],[5,26],[81,-13],[-31,23],[97,19],[80,34],[37,39],[19,65],[-30,27],[27,36],[0,56],[51,7],[-136,24],[37,46],[-93,11],[127,48],[-57,12],[-17,33],[-69,-1],[-76,37],[-75,-6],[1,20],[81,14],[48,59],[2,48],[41,18],[-32,45],[13,30],[-70,-42],[-41,-1],[4,39],[-76,25],[66,26],[-29,32],[-125,-9],[-98,16],[-49,-31],[-32,17],[11,81],[-118,7],[-34,36],[64,22],[28,56],[-2,50],[98,38],[-30,188],[-18,27],[43,35],[32,-23],[102,23],[-15,21],[126,79],[68,7],[-19,47],[94,4],[83,37],[-45,21],[145,24],[6,33],[66,8],[0,43],[127,30],[-8,20],[100,50],[16,35],[89,10],[13,29],[158,68],[124,72],[74,-14],[38,41],[81,9],[19,29],[144,-29],[16,-42],[43,0],[4,-53],[40,-8],[38,-44],[-13,-30],[67,-40],[175,9],[86,-37],[-67,-44],[17,-26],[-88,-51],[-59,-101],[-58,-24],[27,-18],[-65,-51],[-90,-33],[68,-98],[128,35],[30,32],[77,2],[22,-40],[-37,-56],[67,14],[128,4],[142,-51],[-8,-37],[-63,-76],[32,-39],[181,0],[153,-44],[38,-44],[-73,-102],[-17,-68],[134,7],[82,25],[37,-56],[57,-20],[-47,-56],[-28,-82],[-54,-36],[-245,-64],[57,-54],[-15,-20],[298,-116],[-2,-14],[-142,-24],[-83,-44],[-52,-48],[1,-32],[-144,-29],[-165,2],[-118,-42],[-62,-49],[-32,-57],[-183,-32],[-94,-29],[8,-49],[-171,-123],[75,-7],[-29,-26],[85,-44],[62,-98],[-39,-11],[20,-46],[-22,-39],[83,-30],[85,-9],[7,-31],[-52,-57],[99,3],[121,-22],[203,0],[15,-61],[123,-15],[5,-42],[-61,-32],[-44,-54],[177,-39],[21,-51],[-38,-22],[-11,-46],[-125,-61],[-24,-40],[-83,-22],[-29,-26],[-87,-24],[-59,-74],[-56,-28],[-102,-24],[-5,-31],[-53,-22],[-13,-77],[31,-27],[101,-25],[12,-25],[-79,-81],[-136,-21],[2,-26],[75,-15],[-34,-37],[-119,-24],[-19,-27],[29,-64],[-103,-51],[-57,-10],[-91,-61]],[[5329,975],[75,-10],[54,-45],[81,-31],[-119,-46],[-39,-31],[-74,-19],[-103,-7],[-147,53],[-47,-9],[1,-91],[94,-65],[6,-26],[-85,-85],[148,-12],[101,3],[74,20],[74,-5],[14,-53],[-64,-55],[16,-38],[-75,-69],[-60,-14],[-55,-43],[-60,-3],[-202,35],[-89,25],[-124,-16],[-289,-80],[-109,17],[-118,32],[-109,48],[1,54],[-45,22],[-49,-24],[-146,7],[-32,-23],[-98,-20],[-65,10],[-228,4],[-119,-48],[-16,-25],[-135,-34],[-72,-47],[-167,-50],[-58,-32],[6,-27],[-95,-43],[-3,-46],[-91,-13],[-235,4],[-83,-24],[27,44],[-179,74],[-55,-44],[-183,10],[-71,40],[-55,8],[1,46],[-119,17],[-41,-41],[-248,55],[-66,2],[-120,54],[-32,34],[-80,-5],[-22,-122],[-167,18],[29,60],[49,171],[11,159],[30,90],[66,0],[80,-35],[146,60],[193,212],[39,73],[37,122],[-21,114],[25,10],[-4,60],[80,115],[72,79],[66,94],[30,12],[86,117],[14,44],[89,-7],[83,32],[53,-15],[-45,-41],[-103,-9],[123,-95],[166,24],[39,66],[61,-60],[95,2]],[[368,921],[25,-27],[-93,-17],[6,42],[62,2]],[[823,1174],[-63,-11],[-109,10],[-5,50],[-36,62],[185,-38],[73,-35],[-45,-38]],[[25,1102],[-25,26],[37,60],[90,49],[-12,22],[239,118],[44,-7],[-45,-59],[-6,-65],[-92,-30],[-53,-70],[-177,-44]],[[393,1390],[-4,36],[72,13],[26,-35],[-94,-14]],[[878,1806],[-21,-51],[-52,3],[40,48],[33,0]]],"transform":{"scale":[0.00006353782258225762,0.00014845715941593808],"translate":[98.32955542700006,9.304004464000059]},"objects":{"Ranong":{"type":"GeometryCollection","geometries":[{"arcs":[[[0]],[[1]],[[2]],[[3]],[[4]],[[5]],[[6]],[[7]],[[8]],[[9]],[[10]],[[11,12,13,14]]],"type":"MultiPolygon","properties":{"Shape_Leng":2.86788264003,"Shape_Area":0.0652611927325,"ADM2_EN":"Mueang Ranong","ADM2_TH":"เมืองระนอง","ADM2_PCODE":"TH8501","ADM1_EN":"Ranong","ADM1_TH":"ระนอง","ADM1_PCODE":"TH85","ADM0_EN":"Thailand","ADM0_TH":"ประเทศไทย","ADM0_PCODE":"TH"}},{"arcs":[[-15,15,16,17]],"type":"Polygon","properties":{"Shape_Leng":1.30710194994,"Shape_Area":0.0455029053485,"ADM2_EN":"La-Un","ADM2_TH":"ละอุ่น","ADM2_PCODE":"TH8502","ADM1_EN":"Ranong","ADM1_TH":"ระนอง","ADM1_PCODE":"TH85","ADM0_EN":"Thailand","ADM0_TH":"ประเทศไทย","ADM0_PCODE":"TH"}},{"arcs":[[[-13,18,19,20]],[[21]],[[22]],[[23]],[[24]]],"type":"MultiPolygon","properties":{"Shape_Leng":1.40688832664,"Shape_Area":0.0425450757603,"ADM2_EN":"Kapoe","ADM2_TH":"กะเปอร์","ADM2_PCODE":"TH8503","ADM1_EN":"Ranong","ADM1_TH":"ระนอง","ADM1_PCODE":"TH85","ADM0_EN":"Thailand","ADM0_TH":"ประเทศไทย","ADM0_PCODE":"TH"}},{"arcs":[[-17,25]],"type":"Polygon","properties":{"Shape_Leng":1.9847823217,"Shape_Area":0.0791962644632,"ADM2_EN":"Kra Buri","ADM2_TH":"กระบุรี","ADM2_PCODE":"TH8504","ADM1_EN":"Ranong","ADM1_TH":"ระนอง","ADM1_PCODE":"TH85","ADM0_EN":"Thailand","ADM0_TH":"ประเทศไทย","ADM0_PCODE":"TH"}},{"arcs":[[[-20,26]],[[27]],[[28]],[[29]],[[30]],[[31]]],"type":"MultiPolygon","properties":{"Shape_Leng":1.4884279611,"Shape_Area":0.0390582730359,"ADM2_EN":"Suk Samran","ADM2_TH":"สุขสำราญ","ADM2_PCODE":"TH8505","ADM1_EN":"Ranong","ADM1_TH":"ระนอง","ADM1_PCODE":"TH85","ADM0_EN":"Thailand","ADM0_TH":"ประเทศไทย","ADM0_PCODE":"TH"}}]}}}