{"type":"Topology","arcs":[[[4236,9289],[-7,-25],[4,-66],[-9,-52],[-26,-25],[-3,-18],[16,-15],[11,-55],[8,-19],[-13,-82],[-14,-19],[-36,-19],[-19,-16],[-38,-6],[-10,-20],[1,-28],[-12,-7],[-21,-140],[-19,-28],[4,-23],[20,-9],[3,-27],[25,-14],[-11,-20],[10,-5],[-18,-42],[16,-7],[-8,-46],[-15,-34],[21,-73],[-9,-24],[7,-51],[4,-54],[-19,-15],[-48,-17],[-18,-20],[-38,-15],[-16,-30],[-1,-17],[-19,-7],[-10,-25],[-15,-14],[-32,2],[-17,-14],[-6,-16],[-16,-8],[1,-12],[-35,-11],[-18,-16],[-21,-4],[-1,-50],[3,-16],[-10,-28],[-11,-8],[-21,-39],[-4,-31],[-11,-22],[-60,-32],[-17,-27],[0,-11],[30,-32],[-5,-43],[-22,-2],[13,-19],[-27,-32],[-43,-18],[-11,-21],[-19,-7],[-9,-23],[-25,4],[-13,-25],[18,-5],[-16,-25],[-36,-25],[-1,-20],[-12,-24],[-20,-15],[-17,8],[-19,-7],[2,-10],[-45,2],[-30,-35],[-23,7],[-7,-9],[-45,17],[-15,-15],[-34,2],[-4,-15],[-36,-6],[-41,-29],[1,-11],[-26,-50],[-20,-3],[9,-11],[-14,-21],[-49,-23],[0,-23],[-13,-11],[9,-14],[13,1],[17,-22],[56,-27],[20,-67],[-5,-9],[8,-36],[-14,-7],[-16,-20],[-15,-52],[-34,-51],[-25,-3],[-12,-10],[0,-43],[-57,-149],[-8,-14],[1,-20],[-15,-26],[-40,-16],[-18,0],[-12,-16],[-18,9],[-31,-11],[-32,-39],[-13,6],[-22,-28],[-52,-23],[-4,-18],[-23,13],[14,-38],[12,-16],[41,-33],[-9,-31],[2,-29],[-13,0],[-18,-15],[22,-18],[18,-40],[30,-20],[-2,-23],[18,3],[9,-21],[20,-4],[28,-44],[6,6],[13,-22],[-5,-55],[11,-5],[8,-29],[-7,-19],[-15,-14],[-2,-15],[9,-30],[13,-4],[1,-28],[7,-23],[-12,-9],[4,-31],[-11,-21],[9,-18],[-11,-23],[17,-1],[2,-16],[19,0],[3,-11],[30,2],[9,-5],[-4,-32],[39,-19],[-6,-13],[10,-22],[-11,-13],[26,-23],[22,-32],[15,7],[-2,-23],[28,-22],[34,6],[18,-27],[16,-8],[25,30],[14,-1],[11,-16],[48,-13],[10,-16],[15,14],[-7,9],[36,-2],[19,-13],[-2,-36],[16,-17],[-15,-15],[21,-23],[26,0],[-11,-13],[3,-15],[14,-5],[20,-23],[0,-34],[-32,-31],[12,-9],[-2,-22],[14,-15],[0,-27],[-11,-30],[-24,-19],[-2,-32],[7,-18],[-15,-41],[-15,3],[-9,-22],[-12,4],[-10,-23],[-24,-2],[-5,-15],[-26,6],[-11,-29],[-32,-32],[-14,-1],[-21,-51],[-40,-2],[-1,-9],[-35,0],[-28,-10],[-28,0],[-10,-8],[-7,-30],[-31,11],[-27,-1],[-8,-42],[-21,-18],[-28,-7],[-21,-23],[-36,-15],[-66,-19],[-9,-13],[-46,-27],[-7,-11],[-64,-40]],[[2625,4670],[-4,39],[-52,7],[-6,42],[-9,20],[2,34],[20,18],[-4,38],[-17,29],[6,65],[-3,13],[-24,21],[-4,14],[-18,-2],[0,33],[10,28],[-7,16],[14,35],[-21,25],[-42,27],[-37,15],[-34,19],[-37,6],[-6,15],[-44,17],[-13,25],[-32,33],[-11,19],[-28,19],[5,12],[-20,8],[-17,20],[-6,19],[-21,14],[-32,2],[5,13],[-23,6],[-10,-14],[-19,33],[-13,4],[0,20],[-36,-5],[-27,8],[19,-32],[-5,-9],[-28,14],[-35,2],[-16,-28],[-25,-22],[-3,-23],[15,-11],[-1,-18],[-19,-27],[-2,-19],[20,0],[-1,-13],[-26,-4],[-18,-12],[-10,-24],[-24,-2],[-9,10],[-45,11],[2,21],[-31,16],[-18,23],[-24,-9],[-30,14],[-10,-14],[-48,-8],[-3,-22],[-36,0],[-2,-53],[-8,-25],[-23,-10],[-3,-22],[-15,-43],[6,-18],[0,-41],[-31,6],[-7,-20],[14,-17],[-13,-16],[0,-25],[13,-24],[24,-8],[-1,-18],[-22,-65],[-31,-36],[-17,3],[-43,20],[-18,1],[-3,-21],[-17,-13],[-15,14],[-13,-4],[-20,20],[-25,7],[-19,-28],[-11,-1],[-22,58],[1,13],[-99,48],[-2,-31],[-17,-52],[-16,-22],[-34,-20],[-25,-35],[-12,-65],[-13,-27],[-1,-53],[-13,-49],[-62,9],[-30,25],[-44,-1],[-29,18],[-45,21],[-24,-9],[-21,2],[-18,14],[-1,34],[-64,-1],[-58,12]],[[650,4746],[-2,44],[7,9],[-9,19],[7,31],[-15,-7],[6,17],[-8,8],[4,25],[-17,-3],[-10,16],[12,5],[0,19],[-11,30],[5,11],[-21,6],[18,29],[-7,21],[12,3],[-17,31],[13,29],[-8,7],[12,17],[-9,6],[12,71],[17,39],[-10,8],[-13,-8],[-34,23],[22,22],[16,32],[10,37],[-1,40],[13,14],[-8,25],[11,50],[-4,33],[15,42],[3,43],[-3,39],[9,80],[-7,42],[13,21],[2,19],[21,79],[-17,19],[8,15],[-11,18],[-4,29],[-17,7],[0,16],[-19,17],[-34,-8],[-27,13],[-3,9],[-42,12],[-25,0],[-2,11],[-17,-5],[-15,11],[30,63],[-2,14],[-24,44],[-36,35],[-2,15],[22,82],[23,31],[-4,27],[8,46],[16,17],[15,39],[-22,4],[-16,36],[-15,7],[-10,17],[-30,20],[-7,27],[-17,19],[-16,56],[-39,52],[-29,19],[-24,30],[15,37],[-3,16],[23,-4],[9,19],[5,37],[27,24],[-8,28],[22,11],[3,16],[-11,6],[11,17],[-12,17],[-22,8],[1,-24],[-15,0],[4,65],[-5,4],[-22,-16],[3,-8],[-31,-4],[18,12],[5,17],[-14,31],[10,26],[-4,19],[14,6],[16,55],[-14,21],[21,22],[-9,9],[34,20],[-2,24],[-14,15],[16,21],[17,-8],[11,10],[-5,18],[43,-12],[35,18],[9,21],[22,-7],[-4,-29],[14,-11],[12,15],[17,-21],[-5,-11],[20,2],[43,-5],[16,24],[17,-39],[13,-13],[28,8],[42,21],[20,3],[2,20],[-12,16],[6,28],[-38,-10],[-16,12],[13,15],[-9,60],[-19,27],[-15,2],[-5,20],[-14,19],[-3,38],[-18,13],[-3,31],[24,16],[16,33],[-2,42],[-10,7],[8,26],[27,25],[6,22],[-1,40],[15,30],[3,52],[15,22],[6,45],[-6,31],[17,12],[-8,22],[5,38],[-8,30],[47,7],[15,27],[15,12],[-8,45],[17,5],[36,48],[49,24],[48,31],[32,9],[42,5],[45,13],[35,3],[35,15],[28,3],[26,-10],[25,5],[26,-5],[39,3],[73,14],[89,12],[69,3],[58,6],[20,6],[67,-15],[80,-8],[103,17],[41,0],[34,-8],[6,5],[4,52],[11,31],[5,38],[32,23],[20,-2],[23,22],[15,-8],[11,-19],[54,5],[30,-15],[5,-15],[15,-5],[34,9],[23,-8],[17,-13],[9,-19],[16,-7],[16,18],[18,-1],[43,11],[31,-7],[19,29],[-34,36],[-19,37],[18,42],[-2,44],[-18,31],[-1,34],[-7,20],[10,45],[-8,44],[7,18],[42,23],[-5,23],[12,15],[-4,31],[24,17],[-7,19],[12,30],[-15,26],[-21,7],[-17,-13],[-30,-36],[-27,-18],[-22,-23],[-27,8],[-14,-3],[-21,10],[-12,-3],[-32,29],[-14,3],[-31,-9],[-26,6],[-22,-13],[-1,16],[9,34],[32,37],[30,27],[9,29],[4,49],[-19,43],[-5,68],[9,62],[23,30],[4,39],[25,52],[10,47],[13,79],[28,-16],[19,3],[23,-16],[34,6],[26,-7],[30,-36],[25,-18],[18,-23],[2,-17],[39,-20],[28,3],[17,-11],[56,8],[31,-8],[42,-1],[91,30],[39,6],[27,27],[2,48],[8,50],[23,51],[3,32],[-28,17],[-16,18],[-10,31],[3,51],[19,28],[-1,21],[10,28],[40,32],[6,18],[-3,22],[8,34],[34,28],[9,15],[29,27],[36,6],[45,-9],[19,-12],[31,-32],[-4,-32],[16,-43],[27,-13],[5,-35],[19,-26],[17,-9],[45,-9],[18,-9],[21,-55],[2,-18],[-6,-47],[-21,-60],[-4,-38],[23,-51],[24,-31],[33,-14],[20,9],[55,-13],[23,3],[19,11],[36,-1],[43,-6],[12,-18],[47,-27],[29,-1],[18,15],[22,7],[53,36],[33,-3],[27,17],[26,0],[14,-11],[15,-65],[15,-37],[-3,-33],[-10,-17],[-2,-26],[13,-4],[39,13],[23,16],[30,-4],[17,8],[24,31],[21,2],[41,-31],[48,-26],[17,-37],[-1,-27],[35,-15],[20,-16],[17,-2],[38,14],[44,24],[10,13],[28,10],[15,16],[29,8]],[[4323,4222],[12,-36],[-17,-9],[14,-6],[4,-30],[-8,-4],[15,-18],[-9,-22],[8,-10],[-15,-28],[10,-47],[-9,0],[-12,-23],[7,-10],[0,-27],[-11,-2],[-7,-43],[-19,-8],[-15,-40],[15,-37],[-13,-29],[3,-16],[-16,-2],[-23,-43],[23,-30],[-12,-17],[-4,-27],[-31,-14],[-7,-15],[-25,-13],[-7,-25],[22,-12],[2,-26],[37,-58],[13,-8],[0,-25],[-19,-27],[-24,-52],[5,-126],[-26,-60],[0,-38],[11,-83],[-9,-13],[-44,-5],[-5,-17],[-20,-6],[-1,-23],[-18,-24],[4,-29],[-14,-7],[-3,-51],[15,-33],[-9,-46],[-21,-39],[14,-29],[14,-11],[14,-27],[-1,-34],[28,-44],[2,-12],[-17,-47],[-1,-27],[7,-16],[-45,-9],[-26,-24],[-1,-34],[5,-14],[31,-22],[-5,-18],[35,-19],[13,33],[75,-25],[20,182],[157,0],[77,-2],[30,-3],[-5,-23],[55,-9]],[[4546,2549],[-17,-22],[8,-30],[-14,-21],[14,2],[-6,-17],[9,-22],[-14,-13],[-7,-73],[-7,-17],[13,-28],[-9,-18],[-1,-52],[12,-28],[-15,-17],[15,-8],[14,5],[5,-26],[13,-16],[-20,-45],[-3,-27],[11,-13],[-7,-15],[6,-18],[24,-12],[-9,-34],[14,0],[4,-25],[-18,-11],[15,-28],[-22,-22],[7,-30],[-7,-30],[-1,-28],[9,-8],[-16,-8],[17,-30],[-8,-35],[4,-8],[-6,-29],[-24,-11],[6,-19],[-10,-10],[1,-37],[-19,-32],[3,-49],[14,-16],[-4,-21],[-13,-5],[6,-22],[-30,-27],[-14,-33],[8,-8],[-14,-18],[5,-30],[-16,-23],[3,-22],[-6,-31],[-19,-27],[5,-48],[-17,-40],[0,-18],[28,-19],[11,-23],[8,1],[16,-22],[-13,-50],[15,-24],[-7,-17],[21,-19],[18,-38],[14,-15],[1,-34],[11,-15],[11,-65],[-1,-23],[-16,-59],[-32,-51],[-8,-24],[-29,35],[-39,21],[-21,36],[-21,12],[-30,28],[-34,42],[-22,12],[-20,-6],[4,-79],[-55,-6],[22,-33],[-33,-4],[-23,-19],[5,-23],[9,-2],[-3,-47],[6,-11],[-48,1],[-28,-43],[0,-16],[-26,-4],[-17,-18],[-15,14],[-14,-7],[-38,28],[-15,-13],[-19,14],[-28,-3],[-6,23],[17,39],[-19,15],[0,15],[-39,16],[-15,0],[-20,-19],[-13,22],[14,20],[-10,16],[-31,-7]],[[3841,697],[0,27],[18,16],[-33,20],[4,19],[-15,10],[-12,26],[11,34],[-42,-8],[-27,2],[-3,53],[-21,4],[11,19],[25,-5],[3,21],[-17,10],[2,35],[-31,13],[-11,-15],[-28,38],[8,9],[-20,4],[-26,-12],[-11,37],[-47,20],[-29,4],[3,-13],[-13,-13],[-20,1],[-30,20],[-12,-2],[8,24],[-25,0],[-9,27],[-16,1],[-2,23],[-48,2],[-11,45],[-34,-7],[-5,19],[-18,13],[6,18],[-44,37],[-11,-9],[1,32],[-6,4],[-1,38],[22,21],[0,16],[16,80],[-1,111],[1,69],[-8,29],[2,35],[-12,9],[3,36],[-4,36],[17,63],[46,2],[16,8],[15,24],[-2,25],[-11,18],[6,38],[7,9],[4,36],[16,5],[3,17],[-20,26],[21,36],[-19,41],[6,45],[-7,8],[5,41],[11,21],[-8,19],[10,35],[-19,19],[4,86],[36,-19],[30,39],[-5,13],[-39,18],[-3,33],[-26,11],[-25,26],[-30,-8],[-9,19],[-34,10],[0,20],[-32,-5],[-14,-17]],[[3232,2542],[-11,7],[-7,20],[-13,-5],[-27,9],[1,13],[-25,13],[-21,22],[-14,43],[16,10],[0,29],[-8,2],[-21,65],[-2,23],[-12,7],[7,12],[-30,29],[-6,23],[-28,5],[-2,18],[-25,-4],[-9,19],[4,14],[-19,41],[15,8],[2,29],[-30,10],[3,9],[-50,21],[-13,-11],[-5,11],[28,76],[-4,6],[14,38],[37,8],[16,13],[26,10],[13,13],[-3,37],[-26,52],[4,12],[-7,35],[-9,1],[-5,26],[-27,6],[-15,20],[0,15],[-18,34],[-17,-4],[-16,10],[-14,46],[8,12],[-23,20],[21,51],[0,22],[-14,1],[6,15],[-27,11],[-11,15],[7,17],[-11,19],[-19,4],[-4,15],[-24,10],[-9,26],[-24,-9],[-19,2],[8,10],[-22,14],[-8,-14],[-19,42],[-21,16],[4,53],[-12,12],[-4,-12],[-23,12],[3,36],[-20,26]],[[2622,3914],[18,1],[7,-16],[23,-9],[3,-13],[28,8],[33,-27],[16,-5],[3,-13],[19,-7],[27,0],[17,-12],[7,29],[12,7],[1,18],[19,10],[5,41],[33,22],[23,-13],[13,14],[68,-17],[7,15],[27,24],[33,17],[11,-4],[16,19],[52,21],[24,33],[24,6],[18,21],[60,3],[31,-43],[19,6],[28,-8],[45,-5],[37,-10],[45,6],[24,-12],[54,-9],[12,-9],[5,-23],[30,-12],[3,-13],[27,17],[6,17],[13,6],[26,38],[50,4],[17,27],[28,21],[5,19],[25,-8],[2,16],[30,0],[3,34],[29,-6],[0,45],[8,8],[21,-15],[16,15],[27,14],[1,29],[45,-9],[3,11],[14,-12],[32,7],[4,9],[28,0],[35,8],[19,-4],[46,-30],[26,-25],[56,-3],[20,25],[59,9]],[[8364,6458],[-67,37],[-48,12],[-41,54],[-38,29],[-58,5],[-76,47],[-18,16],[-34,50],[-43,99],[-20,28],[-56,35],[-33,13],[-41,30],[-58,11],[-29,-8],[-29,-35],[-58,-5],[-17,-12],[-24,-4],[-19,11],[-35,11],[-8,-4],[-23,24],[11,11],[-12,56],[-27,30],[16,42],[23,40],[22,46],[20,52],[2,25],[-17,-18],[-46,-20],[-13,-38],[-33,-28],[-52,-21],[-25,-25],[-24,-34],[-47,-32],[-26,-23],[-14,26],[-5,92],[-9,23],[-5,44],[-19,43],[-27,6],[-46,38],[-79,10],[-39,15],[-58,11],[-63,5],[-48,11],[-15,14],[-32,58],[-26,22],[-42,14],[-43,-6],[-63,1]],[[6630,7392],[2,6],[65,28],[-4,32],[17,27],[11,56],[-46,13],[-17,22],[47,37],[-4,23],[13,58],[-7,44],[-24,14],[-32,6],[-28,-29],[-39,5],[-79,29],[-34,28],[-23,50],[-18,23],[-15,34],[3,56],[1,100],[3,20],[-13,29],[6,27],[-6,8],[-37,-3],[-17,6],[-25,22],[-19,35],[-17,55],[0,19],[16,42],[-6,42],[-50,28],[-32,11],[-18,14],[-13,35],[7,45],[0,64],[-4,41],[4,21],[-6,23],[6,36],[30,43],[-14,14],[-27,3],[-11,21],[0,28],[18,24],[-22,18],[17,37],[-9,28],[-4,66],[-6,8],[-43,-14],[-58,-33],[-23,-10],[-49,6],[-33,-4],[-17,13],[-3,24],[-31,45],[-63,58],[-7,36],[4,41],[-7,48],[2,40],[24,19],[28,47],[2,19],[-10,31]],[[5886,9330],[33,-1],[21,9],[43,50],[34,35],[22,14],[26,7],[26,-3],[29,-13],[34,-33],[22,-9],[63,-8],[62,-19],[35,-3],[13,6],[81,83],[77,59],[26,16],[110,52],[33,22],[21,25],[19,50],[17,19],[33,20],[47,16],[44,11],[29,2],[28,-12],[42,-46],[51,-75],[55,-70],[36,-24],[38,-11],[33,20],[16,26],[19,52],[29,41],[47,28],[24,8],[10,-15],[8,-41],[23,-41],[23,-20],[21,4],[43,43],[7,2],[33,-22],[88,-46],[52,-36],[33,-30],[8,-42],[-26,-65],[3,-19],[15,-13],[55,-25],[14,-2],[54,12],[40,14],[34,6],[35,18],[17,2],[25,16],[44,4],[21,13],[94,8],[75,2],[22,-9],[81,-14],[67,16],[46,30],[24,33],[21,50],[30,44],[25,18],[15,-5],[14,-24],[37,15],[32,38],[31,28],[19,2],[28,-9],[27,-18],[33,-6],[28,7],[32,24],[18,0],[12,15],[20,88],[17,-32],[38,-26],[50,-52],[29,-19],[17,-3],[12,14],[0,15],[-32,47],[10,28],[23,-5],[36,-25],[32,-35],[19,-44],[40,14],[19,-1],[26,-21],[39,-21],[49,-56],[32,-3],[19,-10],[48,-11],[22,10],[6,90],[-1,64],[-8,48],[3,23],[55,72],[31,-1],[35,-18],[32,-9],[23,-24],[12,-48],[33,-29],[19,-2],[34,12],[20,0],[18,14],[58,26],[27,5],[79,37],[25,4],[33,29],[34,-36],[17,-51],[28,-43],[4,-40],[22,-40],[-11,-88],[-20,-18],[-10,-22],[-15,-8],[-21,-34],[-28,-21],[-47,-52],[-9,-50],[1,-61],[-4,-41],[6,-15],[0,-54],[4,-10],[-13,-42],[-31,-21],[-34,-49],[-17,-7],[-14,-22],[-26,-16],[-27,4],[-4,-29],[-21,-26],[2,-19],[-38,-55],[3,-19],[-4,-43],[8,-54],[-7,-16],[15,-21],[-6,-16],[-19,-21],[-14,-40],[7,-41],[-15,-28],[0,-30],[23,-39],[-4,-41],[27,-20],[9,-27],[-10,-29],[10,-42],[11,-20],[21,-14],[10,-39],[4,-39],[34,-10],[-6,-31],[-18,-18],[-45,-2],[-33,-7],[-17,-20],[-2,-15],[-26,-17],[-19,-28],[-11,-2],[-53,30],[-16,2],[-28,-15],[1,-24],[-33,-29],[-26,-7],[-41,0],[-22,17],[-29,-11],[-89,-88],[-38,-50],[-42,-46],[-211,-142],[-99,-71],[-20,-67],[-14,-38],[-44,-75],[-39,-52],[-84,-47],[-38,-28],[-66,-33],[-62,-328],[-78,-406],[-13,-60]],[[3232,2542],[-154,-105],[-22,-12],[6,-15],[-67,-25],[-18,4],[-22,-14],[-32,7],[-7,16],[-22,6],[-80,-9],[-10,5],[-19,-11],[-18,6],[-12,-9],[-34,22],[-8,38],[-52,-64],[-22,-37],[-65,-82],[-5,-22],[-34,-4],[-2,-22],[-10,-2],[-22,21],[-43,-24],[-11,28],[-28,-16],[-83,-1],[-56,5],[-13,-11],[-29,2],[-39,11],[-29,-11],[-16,6],[-28,-32],[-38,-49],[-24,1],[-42,20],[-40,29],[-29,6],[-44,0],[1,49],[-12,5],[-11,-30],[-8,5],[8,-54],[-67,-6],[-4,-27],[5,-14],[-15,-20],[-39,-30],[-29,12],[-37,-20],[-19,7],[-9,13],[-14,0],[-11,18],[-22,8],[-29,1],[-11,14],[-48,15],[-20,-32],[-21,-2],[-13,8],[-26,-4],[2,-11],[-46,-15],[-21,-12],[-84,-4],[-3,8],[-39,1],[-17,-16],[-39,-4],[-74,-2],[-6,-8],[-33,4],[-36,-26],[5,-24],[-32,2],[-1,8],[-24,8],[-9,19],[-11,-15],[-13,0],[-44,28],[-67,10],[-45,26],[-12,24],[-33,-9],[0,-9],[-22,-15],[-19,-42]],[[735,2040],[-35,2],[-70,74],[-21,37],[-8,30],[5,15],[-1,33],[11,34],[20,29],[4,25],[16,14],[-4,30],[-15,10],[-5,27],[-18,13],[-10,24],[-20,6],[13,70]],[[597,2513],[12,16],[3,34],[-5,19],[51,83],[31,18],[40,-2],[22,-7],[21,16],[10,21],[-11,14],[3,23],[-13,37],[12,20],[24,-8],[22,2],[1,50],[14,28],[-3,17],[21,19],[29,41],[-3,15],[13,16],[38,-6],[84,7],[14,8],[-3,23],[14,26],[31,26],[5,31],[-4,43],[18,3],[14,13],[23,-3],[11,25],[20,-7],[19,74],[0,57],[10,38],[44,-3],[109,0],[16,7],[47,8],[20,9],[10,51],[58,-20],[-2,-54],[15,-2],[27,18],[-11,14],[14,19],[-8,34],[20,6],[1,24],[17,21],[-11,27],[10,13],[18,-4],[12,11],[13,-31],[12,-6],[42,-1],[7,-11],[28,5],[26,-7],[14,19],[49,-1],[34,8],[83,-32],[59,55],[10,13],[38,-12],[31,19],[1,17],[17,2],[10,-10],[15,8],[15,32],[-18,54],[-25,10],[-4,19],[-15,17],[-16,3],[-20,17],[-16,25],[-10,-4],[-7,22],[-16,6],[-1,27],[-16,-5],[-18,9],[30,20],[-2,20],[-14,22],[56,34],[8,19],[18,5],[29,-9],[10,41],[22,18],[4,18],[-10,29],[-29,38],[2,15],[-21,14],[-20,-1],[-14,37],[-20,11],[-1,14],[16,46],[3,29],[-7,9],[23,25],[18,-26],[8,18],[10,-36],[38,19],[11,31],[30,5],[20,20],[17,27],[17,10],[31,40],[6,16],[29,9],[9,18],[38,32],[35,-11],[26,2],[43,11],[24,-13],[36,8],[25,-8],[26,10],[26,-24],[3,-13],[49,-5],[-4,-39],[50,-5],[1,-15]],[[2618,4324],[-21,-40],[-20,-20],[-11,-43],[-30,-18],[-18,-46],[9,-9],[-19,-73],[-27,-10],[-12,-12],[-19,-4],[-24,6],[12,-30],[13,-3],[-1,-16],[14,2],[3,-14],[15,-3],[2,-23],[7,8],[20,-9],[5,-15],[11,6],[8,-22],[13,6],[11,-12],[23,-8],[17,7],[23,-15]],[[4236,9289],[24,-5],[19,-48],[22,-24],[25,1],[27,46],[19,5],[40,-12],[34,2],[25,27],[20,30],[32,13],[13,26],[-11,45],[2,30],[27,33],[10,38],[2,53],[-9,50],[-15,54],[6,26],[25,6],[20,-4],[25,-31],[65,-98],[19,-21],[34,-22],[51,-38],[44,-16],[33,4],[37,14],[33,-4],[16,17],[39,74],[34,23],[68,-19],[16,2],[4,21],[39,11],[22,-12],[16,-40],[24,0],[25,16],[16,-1],[-17,-32],[0,-41],[44,-41],[61,-2],[24,-15],[27,1],[29,18],[19,-16],[12,-59],[11,-6],[29,7],[41,-20],[20,-5],[23,-20],[33,-11],[26,1],[11,11],[8,34],[29,25],[17,43],[18,0],[34,-14],[11,-11],[21,-39],[11,-5],[53,12],[13,-8],[25,-38]],[[6630,7392],[24,-20],[-16,-8],[0,-13],[-21,-2],[-13,-11],[-39,-13],[5,-23],[-15,-10],[-25,6],[-40,2],[-181,41],[-22,-32],[-18,9],[-33,6],[-63,-1],[-28,-101],[19,5],[34,-19],[-3,-6],[26,-17],[5,-20],[-18,-47],[0,-28],[56,-42],[16,-7],[6,-20],[-12,-12],[17,-43],[-8,-19],[-41,-40],[-12,-21],[-18,3],[-26,-65],[50,-26],[-5,-121],[-4,-36],[20,-16],[27,-39],[13,-11],[-31,-59],[-54,11],[-15,-21],[8,-27],[4,-59]],[[6199,6420],[-64,5],[-39,-4],[-40,9],[-19,12],[-40,9],[-26,16],[-30,8],[-39,23],[-20,6],[6,31],[-61,22],[-21,0],[-75,18],[-6,35],[-46,-10],[-49,45],[-35,5],[-17,-18],[-23,-4],[-24,-22],[-10,-81],[-48,3],[-35,12],[-69,30],[-28,7],[-22,-12],[-14,-49],[-24,4],[-29,-27],[-12,-23],[-11,-40],[-14,-3],[-16,-25],[-26,-12],[-11,-41],[-4,-40],[-21,-26],[-39,-23],[-12,-35],[-11,-11],[-34,4],[-29,-71],[-32,-3],[3,-16],[-17,-35],[-11,-4],[-9,-42],[-13,-21],[-1,-29],[-10,-19],[-14,-6],[-22,-58],[9,-16],[-15,-7],[15,-17],[29,-15],[4,-17],[23,-2],[5,-17],[20,-6],[3,-37],[10,-20],[1,-22],[13,-32],[14,-11],[7,-42],[9,-5],[-4,-26],[15,-21],[14,-39],[2,-30],[27,-27],[-4,-8],[24,-4],[16,-19],[-11,-17],[12,-5],[-4,-20],[6,-21],[14,-3],[5,-19],[20,-1],[9,-15],[11,-41],[18,13],[8,-19],[10,0],[27,21],[14,-12],[12,-31],[21,12],[10,-26],[34,6],[-5,-26],[27,-6],[-3,14],[19,-1],[12,-25],[-10,-7],[14,-18],[14,12],[2,-19],[23,2],[20,-29],[28,2],[11,-23],[-4,-16],[-14,3],[-2,-19],[21,-1],[4,-19],[-29,-19],[-13,4],[-25,-14],[-9,-27],[-28,-19],[-7,10],[-62,-20],[-11,17],[-31,-3],[2,-39],[-46,-23],[-1,-17],[-13,-10],[-7,-33],[-30,-3],[-33,-35],[-22,6],[-64,-16],[-1,-14],[-15,0],[-8,-17],[-25,4],[-24,-13],[-11,-15],[-34,-1],[-55,-51],[-15,-45],[-27,-14],[0,-11],[-17,-13],[-29,-11],[15,-43],[27,-5],[-6,-20],[-25,-28],[-18,1],[-22,-25],[16,-25],[-12,2],[-1,-18],[-26,-2],[-10,-15],[-14,6],[-16,-32],[-47,-32],[-18,-2],[-35,-24],[-18,7],[-29,-6],[-16,14],[7,17],[-13,1],[-12,20],[-35,3],[3,-11],[-27,-3],[-18,-15],[0,-16],[-21,-7],[-20,3],[3,-55],[-25,-18],[10,-10],[-12,-28],[-17,-13],[-10,-26],[-13,-1],[17,-14],[-5,-12],[-28,-1],[-12,-23]],[[2618,4324],[35,11],[8,63],[-3,48],[-38,17],[-36,58],[-12,-5],[-60,31],[-52,4],[-8,24],[54,28],[26,2],[9,25],[37,6],[32,19],[15,15]],[[6199,6420],[34,-6],[4,-40],[22,-4],[24,-24],[48,-29],[63,-56],[71,-71],[91,-107],[30,-41],[52,-86],[47,-72],[29,-65],[22,-13],[13,-20],[13,5],[38,-23],[22,-34],[-1,-12],[18,-4],[6,-24],[17,-5],[0,-16],[49,-27],[19,5],[15,-33],[19,-17],[12,-1],[7,-23],[14,2],[21,-31],[28,-6],[7,-15],[-8,-53],[32,-35],[14,7],[16,-17],[24,-8],[16,-30],[-10,-18],[28,-44],[8,5],[19,-31],[47,-15],[18,-14],[9,6],[10,-15],[28,-17],[18,-42]],[[7322,5206],[-181,-105],[-132,-78],[-200,-114],[-32,-15],[-28,8],[-31,-7],[-15,-26],[-21,-5],[-32,-24],[-18,-7],[-28,-31],[-7,-15],[6,-15],[-13,-18],[-25,-13],[-13,2],[-36,-9],[-23,-49],[-30,-20],[-39,-72],[-10,-29],[-23,-47],[-28,-27],[-18,-28],[-5,-32],[-21,-35],[18,-3],[18,-23],[9,-20],[15,-8],[1,-14],[25,1],[1,-36],[17,-4],[10,11],[8,-23],[19,5],[8,-20],[13,5],[7,-20],[24,-2],[14,-12],[8,-76],[12,0],[0,-27],[13,-2],[0,-14],[13,-18],[25,6],[6,-21],[25,-2],[18,24],[16,-14],[13,11],[27,-35],[5,-18],[19,-1],[5,25],[16,-26],[3,-22],[20,11],[44,-13],[6,-27],[11,-8],[16,3],[18,-30],[32,-13],[5,24],[15,-15],[8,7],[4,-22],[24,-15],[21,3],[33,-10],[9,-18],[16,-4],[0,-26],[-26,6],[-11,-11],[-12,7],[-23,-7],[-14,-19],[-3,28],[-15,-5],[-2,-25],[-50,-5],[-15,11],[-75,4],[-2,12],[-23,0],[-22,-13],[-74,0],[-4,-7],[-28,-1],[-59,-35],[-8,3],[2,-23],[-22,9],[9,-41],[-14,-15],[8,-24],[-17,-44],[-12,-11],[-2,-36],[-36,-22],[-15,-3],[-14,-40],[-58,-3],[-21,-15],[-11,-22],[-37,21],[-27,-28],[-11,11],[-2,-21],[-41,-34],[5,-14],[-21,-6],[-17,-19],[-53,2],[-19,-6],[-13,9],[-10,-25],[-10,11],[-14,-7],[-23,21],[-25,-3],[-11,9],[-22,0],[-27,15],[-18,1],[2,-10],[-28,-8],[-37,13],[-7,14],[-35,11],[-19,-17],[-10,16],[-11,-3],[-24,18],[-32,5],[-52,-19],[-21,14],[-27,-13],[-14,-25],[-30,-7],[-17,-30],[-23,6],[-2,20],[-18,-11],[-35,-12],[-9,-12],[-14,3],[-30,-34],[-20,6],[2,19],[-14,-13],[-16,2],[-15,-22],[-31,15],[-1,-13],[-13,12],[-6,-11],[-20,10],[-6,16],[-12,-3],[-26,-28],[-30,18],[-22,-7],[-8,15],[-12,-9],[-26,35],[1,15],[-18,0],[-11,25],[-42,20],[-20,5],[-31,-13],[-4,-12],[-23,-2],[-9,-19],[-23,-4],[-26,6],[-13,-8],[-33,14],[-16,-9],[-24,4],[-18,-8],[-16,10],[-23,1],[-11,26],[-34,17],[-11,12],[-25,-7],[-19,10],[-44,13],[-18,-3],[-9,13],[-17,-2],[5,17],[-21,-3],[-7,14],[-36,-1],[-9,-16],[7,-9],[-17,-20],[-17,-4],[-10,-39],[-7,-4],[6,-26],[-9,-17],[-6,11],[-11,-13],[-8,10],[-5,-18],[-23,-1],[-30,-15],[-16,-2],[-29,-13],[-21,-1],[-35,-35],[-10,-17],[10,-4],[-10,-17],[9,-15],[-5,-42],[-15,-16],[-2,-31],[24,-18],[33,-41],[18,-31],[2,-33],[7,-20],[13,-9],[-2,-22],[8,2],[3,-26],[20,0],[-5,-14],[10,-32],[21,-13],[40,-44],[0,-10],[23,-23],[5,-43],[9,8],[16,-13],[-9,-23],[-9,-48],[12,-8],[1,-17],[-13,-9],[6,-16],[-8,-30],[19,-3],[-3,-24],[-15,-15],[3,-28],[-4,-24],[-18,-7],[0,-14]],[[597,2513],[-36,-29],[-60,-2],[-15,-20],[-39,11],[-24,-4],[-44,10],[-21,-3],[-15,-12],[-41,6],[-21,-11],[-36,-3],[-5,-13],[-50,4],[-16,13],[-2,17],[-25,22],[-19,43],[-32,38],[-13,10],[6,25],[-8,17],[0,20],[22,52],[14,-5],[16,37],[35,38],[11,20],[-7,6],[19,12],[44,45],[-22,5],[4,35],[-38,35],[-4,18],[-23,4],[3,16],[-13,4],[-33,33],[-31,-5],[-29,-11],[-26,-4],[-23,9],[17,27],[-5,19],[24,21],[-4,10],[19,31],[31,-6],[7,22],[16,5],[13,18],[21,-6],[23,20],[19,7],[-4,29],[18,34],[22,11],[17,19],[28,53],[21,55],[2,21],[13,38],[-9,13],[26,22],[1,26],[15,3],[1,29],[11,11],[3,22],[16,11],[13,23],[1,19],[25,46],[-30,9],[-3,29],[7,27],[-14,32],[-30,39],[-2,19],[9,35],[38,21],[23,2],[11,17],[24,16],[8,-12],[11,10],[27,-3],[5,9],[36,-4],[47,3],[16,28],[11,1],[34,28],[12,-1],[-6,20],[10,9],[-19,50],[-15,25],[-15,9],[-2,53],[14,37],[12,18],[-3,45],[15,17],[-22,27],[8,23],[36,13],[22,58],[-7,24],[9,0],[9,32],[-6,11],[17,26],[2,34],[-17,19],[15,23],[-16,26],[2,16],[-21,22],[10,25],[-1,32],[-9,13],[10,11],[-5,37],[-18,37]],[[8364,6458],[-95,-99],[-27,-38],[-37,-59],[-30,-67],[-42,-76],[-36,-59],[-62,-118],[-55,-97],[-21,-51],[2,-20],[21,-26],[58,-29],[11,-36],[-8,-26],[-3,-63],[-14,-17],[-174,-26],[-205,-175],[-24,-24],[-65,-12],[-73,-39],[-96,-58],[-67,-37]],[[3841,697],[-4,-25],[-10,3],[-22,-49],[2,-29],[-18,-19],[-1,-19],[-29,-6],[-21,-14],[-48,8],[-43,-21],[-16,8],[-20,-8],[-29,-25],[-12,5],[-42,-3],[-51,6],[-21,14],[-39,44],[-19,9],[-42,8],[-2,36],[-25,41],[-3,14],[-39,8],[-13,16],[-42,1],[-12,36],[-8,7],[6,21],[-9,11],[-15,-36],[-19,-18],[-2,-24],[-42,-8],[-15,-27],[-38,-14],[-12,4],[-14,-19],[-26,-15],[-10,6],[-25,-15],[-14,-30],[-13,-4],[-13,12],[11,27],[3,39],[-6,16],[-51,33],[-25,63],[4,27],[-9,19],[-74,40],[-25,17],[-10,31],[-47,12],[-27,-5],[-35,-21],[-14,5],[-12,-15],[-43,-17],[-30,25],[1,9],[-35,16],[-19,37],[-23,7],[-3,17],[-14,12],[8,17],[-15,1],[-29,15],[-17,21],[-18,0],[-17,-14],[-8,-22],[0,-24],[9,-3],[-13,-30],[25,-8],[1,-13],[-19,-36],[8,-16],[-6,-13],[-19,-5],[7,-22],[-7,-27],[-14,0],[-14,-23],[16,-9],[-51,-78],[11,-12],[-13,-11],[2,-39],[-5,-14],[16,-5],[-3,-40],[-9,-7],[5,-63],[-15,-8],[16,-9],[-13,-8],[5,-23],[-10,-7],[9,-17],[-18,-11],[-1,-19],[-18,2],[0,-24],[-12,3],[-6,-16],[7,-17],[-13,-9],[-5,-21],[-8,4],[-11,-27],[-31,-17],[-22,-18],[-41,-1],[-8,-10],[-26,-7],[-70,4],[-45,-25],[-36,6],[-27,-54],[-11,-2],[-36,21],[-11,-5],[-7,-39],[-42,1],[-32,10],[-12,-21],[7,-24],[-1,-21],[-31,0],[0,-37],[-6,-12],[-13,10],[-28,6],[-18,-13],[-1,-19],[-34,8],[-24,23],[-9,1],[-35,-30],[-31,-10],[-40,-2],[-35,-17],[-19,24],[21,39],[-6,41],[17,28],[0,59],[-10,21],[12,35],[0,25],[-16,33],[34,59],[24,10],[14,23],[3,58],[-7,29],[-25,34],[-44,16],[-25,0],[-40,-14],[-15,5],[-24,21],[-16,22],[-14,2],[-5,-15],[-15,4],[-48,145],[-12,58],[-34,70],[-17,23],[-31,5],[-14,15],[-18,36],[-39,95],[-19,13],[-23,68],[2,16],[37,34],[12,31],[2,37],[-41,2],[-26,23],[-11,35],[-11,54],[3,35],[17,30],[3,22],[-6,35],[-2,56],[-25,20],[-17,7],[-17,36],[-17,9],[-12,32],[3,52],[36,40],[4,15],[0,56],[-5,26],[-35,23],[-47,16],[-17,21],[-12,40],[-15,89],[-16,17],[-54,32],[-37,12]]],"transform":{"scale":[0.00010682225502550348,0.00009599793569356962],"translate":[101.87342699000004,13.236708263000025]},"objects":{"Sa Kaeo":{"type":"GeometryCollection","geometries":[{"arcs":[[0,1,2]],"type":"Polygon","properties":{"Shape_Leng":2.60322476091,"Shape_Area":0.114401344353,"ADM2_EN":"Mueang Sa Kaeo","ADM2_TH":"เมืองสระแก้ว","ADM2_PCODE":"TH2701","ADM1_EN":"Sa Kaeo","ADM1_TH":"สระแก้ว","ADM1_PCODE":"TH27","ADM0_EN":"Thailand","ADM0_TH":"ประเทศไทย","ADM0_PCODE":"TH"}},{"arcs":[[3,4,5,6,7]],"type":"Polygon","properties":{"Shape_Leng":1.55923951504,"Shape_Area":0.0405435792127,"ADM2_EN":"Khlong Hat","ADM2_TH":"คลองหาด","ADM2_PCODE":"TH2702","ADM1_EN":"Sa Kaeo","ADM1_TH":"สระแก้ว","ADM1_PCODE":"TH27","ADM0_EN":"Thailand","ADM0_TH":"ประเทศไทย","ADM0_PCODE":"TH"}},{"arcs":[[8,9,10]],"type":"Polygon","properties":{"Shape_Leng":1.59334697954,"Shape_Area":0.080506232254,"ADM2_EN":"Ta Phraya","ADM2_TH":"ตาพระยา","ADM2_PCODE":"TH2703","ADM1_EN":"Sa Kaeo","ADM1_TH":"สระแก้ว","ADM1_PCODE":"TH27","ADM0_EN":"Thailand","ADM0_TH":"ประเทศไทย","ADM0_PCODE":"TH"}},{"arcs":[[-7,11,12,13,14]],"type":"Polygon","properties":{"Shape_Leng":1.24370572416,"Shape_Area":0.0345228562628,"ADM2_EN":"Wang Nam Yen","ADM2_TH":"วังน้ำเย็น","ADM2_PCODE":"TH2704","ADM1_EN":"Sa Kaeo","ADM1_TH":"สระแก้ว","ADM1_PCODE":"TH27","ADM0_EN":"Thailand","ADM0_TH":"ประเทศไทย","ADM0_PCODE":"TH"}},{"arcs":[[-1,15,-10,16,17,-8,-15,18]],"type":"Polygon","properties":{"Shape_Leng":2.69303369158,"Shape_Area":0.128955156049,"ADM2_EN":"Watthana Nakhon","ADM2_TH":"วัฒนานคร","ADM2_PCODE":"TH2705","ADM1_EN":"Sa Kaeo","ADM1_TH":"สระแก้ว","ADM1_PCODE":"TH27","ADM0_EN":"Thailand","ADM0_TH":"ประเทศไทย","ADM0_PCODE":"TH"}},{"arcs":[[-4,-18,19,20]],"type":"Polygon","properties":{"Shape_Leng":2.02241148492,"Shape_Area":0.061415988993,"ADM2_EN":"Aranyaprathet","ADM2_TH":"อรัญประเทศ","ADM2_PCODE":"TH2706","ADM1_EN":"Sa Kaeo","ADM1_TH":"สระแก้ว","ADM1_PCODE":"TH27","ADM0_EN":"Thailand","ADM0_TH":"ประเทศไทย","ADM0_PCODE":"TH"}},{"arcs":[[-2,-19,-14,21]],"type":"Polygon","properties":{"Shape_Leng":1.43509519831,"Shape_Area":0.035727750745,"ADM2_EN":"Khao Chakan","ADM2_TH":"เขาฉกรรจ์","ADM2_PCODE":"TH2707","ADM1_EN":"Sa Kaeo","ADM1_TH":"สระแก้ว","ADM1_PCODE":"TH27","ADM0_EN":"Thailand","ADM0_TH":"ประเทศไทย","ADM0_PCODE":"TH"}},{"arcs":[[-9,22,-20,-17]],"type":"Polygon","properties":{"Shape_Leng":0.873769685891,"Shape_Area":0.0285126405962,"ADM2_EN":"Khok Sung","ADM2_TH":"โคกสูง","ADM2_PCODE":"TH2708","ADM1_EN":"Sa Kaeo","ADM1_TH":"สระแก้ว","ADM1_PCODE":"TH27","ADM0_EN":"Thailand","ADM0_TH":"ประเทศไทย","ADM0_PCODE":"TH"}},{"arcs":[[-6,23,-12]],"type":"Polygon","properties":{"Shape_Leng":1.42557434453,"Shape_Area":0.0428870316127,"ADM2_EN":"Wang Sombun","ADM2_TH":"วังสมบูรณ์","ADM2_PCODE":"TH2709","ADM1_EN":"Sa Kaeo","ADM1_TH":"สระแก้ว","ADM1_PCODE":"TH27","ADM0_EN":"Thailand","ADM0_TH":"ประเทศไทย","ADM0_PCODE":"TH"}}]}}}