{"type":"Topology","arcs":[[[6938,4600],[-12,-6],[2,-14],[11,-11],[15,-24],[10,-23],[-8,-15],[8,-16],[10,-11],[4,-11],[-6,-17],[14,-6],[2,-10],[12,1],[16,-6],[-3,-7],[14,-9],[7,1],[2,-21],[44,-27],[3,-12],[15,-41],[0,-11],[31,-31],[15,-27],[9,-25],[28,-99],[12,-14],[16,-10],[43,-5],[27,3],[36,10],[22,9],[22,4],[37,-6],[42,2],[32,7],[8,-1],[22,9],[27,5],[23,11],[15,3],[17,-2],[13,6],[37,0],[31,-7],[27,-3],[13,3],[13,-5],[34,-1],[30,3],[23,11],[27,-16],[35,-10]],[[7865,4128],[-6,-18],[-2,-20],[3,-18],[-16,-18],[10,-7],[10,-23],[4,-32],[26,-39],[38,6],[26,-3],[19,-9],[35,-41],[27,-19],[13,-13],[17,-5],[19,-19],[29,-20],[15,-18],[14,-8],[12,-36],[-2,-33],[-10,-35],[-13,-21],[-17,-13],[-13,-15],[-9,-31],[-2,-20],[-2,-42],[-10,-19],[3,-7],[-3,-14],[-18,-6],[-66,-14],[-10,-5],[-11,-16],[-22,-52],[-55,-242],[4,-5],[-3,-14],[11,-10],[-1,-22],[21,-13],[1,-22],[106,-5],[55,-12],[39,-14],[102,-41],[54,-27],[82,-44],[18,-13],[12,-17],[5,-17],[5,-29],[10,-27],[12,-18],[13,-8],[33,-12],[13,8],[32,10],[8,18],[24,23],[19,7],[28,-1],[33,4],[47,13],[23,1],[32,-6],[16,-20],[11,-5],[12,-17],[18,-10],[20,4],[17,8],[17,1],[11,6],[10,-12],[8,3],[-7,15],[3,6],[13,0],[8,-10],[15,4],[4,6],[13,-7],[23,-3],[6,15],[12,-1],[-2,10],[7,15],[7,4],[10,-9],[13,1],[12,-5],[16,6],[8,-13],[3,-15],[8,4],[12,-5],[-2,-8],[20,-18],[-9,-10],[-4,-33],[13,-6],[1,-12],[-6,-14],[22,-11],[8,-23],[-15,-10]],[[9088,2721],[-1,12],[-13,2],[0,11],[-9,9],[-4,-7],[-24,-4],[-10,7],[-1,10],[-18,7],[-10,-2],[-24,-16],[-13,-29],[-13,-18],[-26,-22],[-29,-32],[-12,-22],[-20,-29],[-60,-75],[-4,-24],[-24,-7],[-17,-14],[-25,-13],[-32,-36],[-7,-14],[-13,-14],[-5,-13],[-10,-12],[-14,-3],[-26,3],[-19,-5],[-18,-18],[-14,3],[-12,-14],[-11,-8],[-14,-21],[0,-8],[-22,-10],[15,-10],[-1,-7],[-22,-15],[-19,1],[-7,-8],[-34,7],[-133,-26],[2,-100],[7,-18],[15,-17],[-5,-23],[8,-24],[-10,-9],[-21,4],[-13,-7],[1,-21],[-32,2],[-1,-14],[-25,-17],[-31,-1],[-37,20],[-9,-6],[-3,-20],[-14,-6],[-11,7],[-10,-4],[-9,-18],[3,-26],[-3,-7],[-15,-8],[-9,2],[-8,9],[-11,-6],[-6,-23],[-12,-8],[-37,10],[-21,-12],[2,-11],[12,-12],[-1,-5],[-25,-5]],[[7984,1863],[-16,-18],[-18,5],[-1,24],[-15,-1],[-3,-12],[-9,2],[-9,23],[-24,32],[-52,60],[-22,16],[-48,47],[-23,30],[-17,32],[-6,20],[-15,64],[-7,22],[-8,45],[-26,12],[-42,10],[-50,2],[-42,0],[-100,4],[-18,-10],[-21,-20],[-7,-13],[-7,-28],[-3,-84],[17,-11],[64,-6],[27,-12],[14,-15],[14,-40],[2,-16],[-2,-23],[-12,-35],[-11,-21],[-10,-25],[-36,-45],[-8,-50],[-5,-48],[-11,-19],[-15,-19],[-68,27],[-46,13],[-63,7],[-37,5],[-35,8],[-31,2],[-29,-8],[-23,-10],[-12,1],[-30,21],[-8,9],[-29,14],[-25,25],[-19,10],[-16,1],[-28,-5],[-15,2]],[[6889,1864],[-27,9],[-26,15],[-23,21],[-88,108],[-17,27],[-13,57],[-4,9],[-18,26],[-56,9],[-14,7],[-13,24],[-12,5],[-33,2],[-17,-4],[-20,-12],[-17,-22],[-28,-18],[-8,-12],[-25,-9],[-45,-9],[-18,4],[-21,-9],[-17,-1],[-31,-8],[-26,-16],[-12,-12],[3,-22],[-10,-16],[2,-20],[-6,-17],[-9,-11],[-24,-4],[-14,4],[-20,18]],[[6182,1987],[15,15],[1,8],[12,6],[-3,18],[-10,8],[-9,20],[13,11],[-3,15],[3,12],[-7,10],[10,22],[-6,17],[-11,8],[9,6],[-1,28],[-10,14],[-23,13],[-15,22],[-28,5],[-13,16],[4,31],[-9,19],[-5,22],[7,27],[19,19],[26,20],[0,12],[-39,98],[-8,17],[-33,30],[-16,22],[-12,7],[-30,6],[-14,6],[-5,10],[0,28],[9,14],[35,32],[1,9],[-16,39],[-23,11],[-38,24],[-23,18],[-22,57],[-12,13],[-12,5],[-41,10],[-12,7],[-23,0],[-22,10],[-18,-4],[-8,7],[-8,-5],[-19,10],[-14,-6],[-8,6],[-37,3],[-8,-4],[-15,3],[-16,-3],[-18,13],[-17,-3],[-19,13],[-16,-4],[7,16],[8,3],[-3,20],[-12,7],[1,5],[22,15],[3,6],[-3,18],[10,7],[2,9]],[[5606,3016],[23,17],[29,38],[19,33],[28,39],[28,30],[16,7],[18,-1],[25,-9],[33,-8],[48,-22],[24,-6],[6,2],[27,56],[12,37],[28,28],[18,25],[17,16],[31,16],[19,20],[15,54],[1,19],[-7,31],[-8,17],[-1,27],[4,12],[19,30],[5,22],[14,12],[10,16],[-2,16],[8,14],[5,-2],[15,20],[5,19],[9,7],[8,22],[-7,7],[13,13],[-7,30],[-4,6],[-1,24],[6,22],[-3,11],[34,40],[9,3],[-8,11],[2,13],[12,6],[-9,11],[7,8],[10,1],[21,19],[9,3],[-4,10],[12,-3],[9,5],[12,26],[-2,19],[4,17],[-26,9],[-5,16],[-20,4],[-7,6],[8,15],[-6,10],[-14,3],[1,15],[9,14],[-13,0],[-4,10],[-17,9],[29,21],[6,-4],[9,14],[-3,7],[13,7],[-1,6],[18,23],[13,-9],[6,3],[9,18],[-3,5],[-29,-3],[-4,3],[21,14],[4,15],[-10,4],[15,27],[18,0],[-7,14],[31,10],[0,9],[10,-1],[20,-20],[-7,-24],[17,-25],[10,2],[1,10],[9,-6],[4,24],[9,1],[13,-8],[6,5],[-9,16],[1,11],[25,23],[11,21],[8,9],[17,8],[27,1],[18,-10],[17,-15],[7,-17],[-8,-26],[3,-17],[6,-5],[21,1],[19,-11],[14,0],[21,4],[20,16],[2,7],[-15,-6],[-7,7],[-14,-8],[-4,28],[28,27],[17,4],[-20,9],[7,17],[29,4],[3,36],[-9,1],[-38,-11],[-13,8],[-3,34],[25,28],[0,18],[-6,24],[1,12],[-31,-6],[-22,-7],[-7,2],[-1,14],[-12,13],[-1,6],[14,21],[22,19],[15,9],[1,-11],[36,-2],[8,12],[-10,13],[9,3],[24,-8],[12,5],[3,14],[12,-5],[6,10],[8,-2],[4,-11],[17,-3],[25,13],[8,1],[46,-25],[4,3],[-9,16],[4,8],[23,9],[28,23],[-10,19],[2,5],[24,6],[-6,16],[16,7],[-10,23]],[[6856,4683],[27,1],[8,-14],[6,-17],[1,-23],[5,-5],[30,-14],[5,-11]],[[6938,4600],[4,-11],[8,0],[25,13],[-2,9],[-22,-1],[-6,7],[2,22],[15,19],[18,9],[-6,48],[12,3],[32,-14],[37,-38],[34,-14],[5,-16],[-30,-36],[8,-13],[21,-9],[23,0],[20,6],[12,18],[7,-1],[5,17],[10,14],[-3,34],[18,16],[-2,13],[-20,13],[-15,-3],[-23,-28],[-22,9],[-1,4],[10,22],[23,27],[1,17],[-21,4],[-22,19],[5,5],[20,-1],[17,11],[27,-14],[14,-18],[14,6],[18,18],[8,2],[28,-2],[11,-6],[10,-18],[-2,-16],[-26,-30],[2,-9],[16,-3],[14,2],[15,-4],[10,5],[14,21],[10,26],[10,-10],[17,-5],[28,7],[8,14],[13,-10],[-1,-13],[-18,-35],[25,-22],[4,-23],[-8,-21],[10,-16],[27,-6],[19,10],[17,16],[20,2],[20,7],[24,37],[-4,12],[-28,26],[16,15],[24,8],[20,-8],[-1,-16],[5,-6],[28,-5],[16,3],[10,12],[2,21],[-16,30],[-13,7],[-16,-10],[-18,-2],[-1,11],[-14,1],[-13,30],[14,23],[15,6],[13,-10],[1,-23],[5,-4],[27,3],[25,12],[1,6],[-15,8],[-14,-2],[6,8],[15,6],[-11,3],[7,22],[32,22],[12,2],[45,-12],[56,-2],[41,-15],[12,15],[-7,3],[-23,-3],[-8,13],[-13,2],[-4,8],[19,16],[-20,19],[-1,9],[11,3],[3,12],[-13,5],[19,20],[33,-15],[23,5],[12,9],[6,-16],[-10,-5],[21,-11],[-7,-13],[25,-8],[-2,5],[19,8],[8,23],[9,-2],[-2,-15],[7,-3],[0,-11],[9,9],[14,-7],[19,0],[-9,19],[21,2],[-6,4],[26,22],[18,-8],[-2,-11],[21,-2],[3,-20],[14,6],[7,-12],[-5,-13],[1,-27],[11,-6],[14,0],[2,-13],[21,3],[12,-12],[3,9],[16,9],[21,6],[14,-3],[18,-13],[34,-10],[43,-2],[44,7],[41,13],[44,7],[10,-1],[28,-10],[19,-2],[54,12],[23,0],[23,10],[10,8],[12,0],[2,13],[12,0],[23,18],[32,17],[34,13],[23,14],[39,16],[22,5],[28,-5],[101,-11],[31,15],[12,3],[80,-3],[61,-36],[30,-2],[34,1],[14,-5],[19,-21],[25,-10],[28,-2],[35,2],[25,0],[51,-8],[17,2],[81,-2],[42,-3],[30,-9],[20,-21],[44,-28],[19,-6],[11,5],[6,24],[10,1],[12,-12],[16,-4],[9,9],[19,-1],[-5,15],[-11,-2],[4,10],[-5,9],[11,9],[-16,9],[-15,0],[6,8],[13,1],[-3,11],[19,14],[3,-10],[8,1],[5,22],[25,5],[6,7],[9,-11],[-3,-8],[8,-6],[6,6],[24,3],[22,9],[-2,-10],[10,-7],[9,7],[24,-4],[-2,-30],[28,-8],[5,-8],[-12,-9],[10,-5],[-2,-21],[-11,-1],[7,-21],[-19,-12],[-10,-1],[-5,-14],[-18,-9],[10,-17],[0,-9],[-12,-9],[12,-5],[1,-16],[19,-8],[-2,-8],[14,-27],[-8,-6],[-4,-12],[-12,-3],[-8,-15],[2,-7],[-12,-5],[-7,4],[0,-13],[7,-8],[-5,-16],[-7,-6],[2,-13],[-13,-7],[-5,-19],[7,-15],[14,-12],[-8,-11],[7,-6],[-5,-6],[9,-12],[14,1],[7,-7],[-6,-8],[4,-22],[11,-22],[-4,-2],[2,-31],[-4,-8],[8,-18],[5,-24],[32,-15],[2,-12],[15,-4],[-1,-27],[22,-16],[8,-20],[1,-16],[-7,-8],[5,-18],[-4,-14],[-6,-1],[5,-27],[-15,-13],[2,-5],[-30,-28],[-14,-12],[11,-17],[7,-23],[-24,-23],[-45,-5],[-16,-5],[-22,-21],[-20,-4],[-1,-69],[6,-5],[2,-15],[16,-29],[-4,-5],[8,-15],[-8,-2],[1,-14],[6,-10],[-7,-27],[8,-17],[-5,-6]],[[9751,3857],[-9,-3],[-22,8],[-24,0],[-42,8],[-14,7],[-10,-6],[-17,6],[-26,-3],[-30,18],[-9,9],[-21,9],[-11,8],[-52,14],[-18,1],[-32,-9],[-27,1],[-18,-14],[-14,-23],[-20,-20],[-35,-11],[-27,1],[-17,-25],[-11,-9],[-64,-29],[-8,-21],[-2,-20],[-11,-19],[-27,0],[-17,-4],[-32,-3],[-46,4],[-24,12],[-22,-1],[-35,-8],[-31,3],[-46,8],[-42,6],[-27,-3],[-18,5],[-27,0],[-46,9],[-27,2],[-1,8],[-13,6],[-70,2],[-8,2],[-5,40],[17,12],[12,-1],[12,7],[11,19],[-7,26],[-30,8],[1,8],[-23,8],[-30,46],[-36,1],[-30,10],[-10,7],[-30,5],[-10,-7],[-10,9],[-70,19],[-14,-6],[-32,8],[-6,-3],[-5,9],[-17,1],[-19,-5],[-6,5],[10,12],[9,31],[7,7],[-9,6],[11,18],[-17,14],[-35,19],[-38,9],[-30,2],[-34,-3],[-18,8],[-15,-6],[-13,10],[-5,16],[8,7],[-1,17],[-7,11],[5,9],[-9,0],[-8,9],[-26,-9],[-1,-21],[-8,-23],[-23,1],[-11,8],[-8,-1],[-21,5],[-11,16],[-26,1],[-40,-12],[-21,-9],[-14,-33]],[[6182,1987],[-24,3],[-31,-1],[-13,-9],[-26,-13],[-19,3],[-26,12],[-24,-9],[-27,-5],[-9,-6],[-3,-11],[-14,-4],[-17,4],[-6,-8],[-12,2],[-7,-7],[-24,-10],[-6,-11],[-22,0],[-12,-6],[0,-9],[-24,-7],[-14,3],[-15,-6],[-14,-14],[-41,-13],[3,-5],[-8,-13],[-16,-1],[-10,-6],[-33,-7],[-19,6],[-44,28],[-16,4],[-50,3],[-24,8],[-39,17],[-20,11],[-27,21],[-24,24],[-25,21],[-10,13],[-30,25],[-21,9],[-50,-11],[-113,-1],[-19,-4],[-22,8],[-3,4],[-25,1],[-10,-3],[-21,1],[-109,23],[-66,19],[-17,1],[-62,-2],[-50,2],[-41,3],[-26,-18],[-51,-28],[-34,-30],[-19,-10],[-68,-11],[-25,-10],[-10,-16],[5,-7],[-13,-4],[-5,-7],[-8,2],[-7,-15],[-7,3],[-17,-9],[-4,3],[-26,-5],[-15,-8],[-6,-15],[2,-19],[6,-5],[-3,-16],[-21,-5],[1,-25],[10,-14],[-2,-10],[-19,-19],[-21,-38],[-11,-13],[-17,-12],[-16,-17],[-50,-64],[-28,-31],[-8,4],[-4,-9],[-18,-6],[-1,-10],[-10,-1],[-13,-13],[-2,-19],[-13,-13],[-27,-13]],[[4130,1511],[6,15],[12,11],[-4,27],[-14,14],[-27,10],[-5,13],[9,15],[16,5],[12,12],[1,10],[-15,12],[-25,-1],[-26,-14],[-16,-21],[-31,-23],[-32,-13],[-11,-2],[-18,10],[-13,21],[13,35],[9,17],[18,22],[17,16],[23,33],[15,12],[4,10],[-17,33],[-19,20],[-44,32],[-23,10],[-26,7],[-24,12],[-12,10],[-28,-3],[-16,8],[-4,19],[-7,11],[-78,69],[-23,2],[-25,-7],[-22,-4],[-17,-20],[-8,-1],[-34,18],[-20,-2],[-18,-11],[-3,-7],[13,-34],[-4,-14],[-19,-20],[-16,-5],[-48,-4],[-33,2],[-10,34],[-1,16],[-9,17],[1,65],[8,35],[16,29],[18,21],[9,23],[4,22],[-8,21],[-25,25],[-6,12],[-1,32],[-8,8],[-42,13],[-14,21],[3,33],[14,59],[8,9],[23,13],[14,12],[14,21],[22,88],[20,27],[-30,30],[-51,27],[-18,5],[-50,3],[-31,-2],[-16,4]],[[3327,2601],[50,19],[14,3],[12,8],[17,1],[22,13],[8,18],[24,5],[23,17],[2,9],[17,17],[14,7],[24,24],[20,-1],[22,-11],[30,-20],[19,8],[28,29],[14,-3],[38,8],[16,2],[25,-12],[30,7],[14,7],[14,22],[37,12],[14,-2],[7,10],[23,-1],[7,20],[25,3],[5,-9],[14,4],[24,0],[1,-7],[-13,-8],[2,-16],[21,-13],[17,-23],[26,-3],[16,5],[31,-8],[24,10],[13,20],[17,3],[10,19],[8,-2],[31,26],[10,16],[-2,12],[6,19],[26,10],[27,8],[21,16],[8,2],[37,-7],[62,49],[13,13],[19,40],[12,19],[16,12],[35,18],[43,29],[28,29],[23,12],[8,-22],[7,-10],[18,-12],[20,-21],[8,-20],[12,-16],[-24,-17],[-11,-13],[-7,-28],[9,-32],[6,-12],[39,-51],[11,-26],[10,-17],[22,-21],[19,-26],[-8,-18],[12,-12],[-9,-7],[11,-20],[12,3],[28,-21],[-1,-13],[23,-10],[11,-10],[2,-14],[20,2],[21,-13],[19,3],[13,-8],[3,-9],[19,-6],[24,10],[13,21],[12,6],[45,4],[35,10],[20,3],[7,-4],[21,5],[27,0],[13,-10],[8,3],[8,12],[13,-4],[-12,29],[5,7],[-6,8],[6,25],[-13,5],[-8,19],[1,11],[-18,5],[-5,9],[-11,6],[-4,23],[24,23],[2,9],[13,19],[8,3],[2,9],[11,8],[8,-1],[9,8],[-9,13]],[[5140,2912],[29,1],[9,3],[5,-13],[-8,-6],[15,-18],[12,4],[12,-18],[7,-5],[-7,-6],[30,-8],[44,15],[12,13],[47,39],[24,17],[38,20],[197,66]],[[5140,2912],[2,17],[-17,-2],[-14,6],[-36,5],[-14,13],[12,1],[-4,8],[-19,9],[-16,-3],[-31,14],[-15,-4],[-19,15],[6,23],[-13,-2],[-1,6],[-15,-9],[-13,4],[-5,-7],[-15,9],[3,16],[-16,1],[-10,-6],[2,9],[-10,3],[-10,-13],[-13,5],[-17,-1],[-4,-6],[-16,19],[-10,-10],[-9,3],[-13,16],[-10,-18],[-7,6],[-9,-6],[-2,13],[-16,3],[-5,-4],[-12,12],[-3,14],[-25,11],[8,-17],[-12,5],[-3,9],[-11,0],[-8,-15],[-23,1],[-2,17],[-21,30],[-34,21],[-18,5],[-41,21],[-49,16],[-20,10],[-41,50],[-30,26],[-41,30],[-38,12],[-49,10],[-39,12],[-31,16],[-6,14],[-24,9],[-35,15],[-50,30],[-15,11],[-65,57],[-61,58],[-7,13]],[[3935,3548],[-63,101],[2,22],[19,3],[37,-11],[15,-2],[20,2],[19,6],[39,21],[18,16]],[[4041,3706],[42,-8],[35,0],[30,5],[37,13],[11,6],[30,-11],[17,-14],[12,-1],[27,3],[31,-2],[24,34],[23,20],[45,50],[15,30],[10,40],[20,34],[34,48],[12,27],[-15,40],[-5,20],[-8,16],[9,9],[-4,13],[-34,36],[0,12],[-6,17],[-16,10],[-7,14],[-22,34],[-20,24],[-15,25],[-3,37],[-5,23],[-1,26],[19,45],[16,27],[28,35],[13,8],[29,6],[56,6],[8,30],[40,12],[10,9],[4,14],[-6,18],[21,32],[3,10],[10,8],[11,21],[51,49],[62,48],[39,28],[27,12],[72,-12],[11,-9],[9,-20],[14,-52],[15,-15],[47,-18],[19,-12],[26,-23],[43,-20],[53,-17],[7,14],[-13,7],[-8,19],[-5,22],[19,13],[2,9],[6,-3],[13,20],[-7,7],[-8,-7],[-2,8],[-14,7],[-14,-6],[-2,11],[13,2],[-7,7],[6,8],[-7,6],[-3,14],[-8,12],[-1,12],[12,-2],[9,6],[5,14],[15,20],[-8,12],[3,9],[12,12],[12,4],[3,21],[-5,15],[14,9],[2,11],[-12,0],[-7,13],[-21,23],[-20,4],[4,8],[-8,6],[0,20],[-7,10],[-3,24],[12,14],[-1,12],[10,14],[23,11],[0,9],[11,21],[2,16],[-6,2],[-9,20],[-12,10],[3,23],[15,18],[-2,13],[4,15],[-9,16],[1,18],[17,55]],[[5120,5264],[13,6],[28,4],[49,-11],[11,6],[22,-11],[4,5],[33,-1]],[[5280,5262],[12,-3],[29,-1],[20,3],[20,-3],[23,4],[21,-3],[15,5],[31,2],[28,7],[14,-5],[20,4],[36,-13],[37,8],[25,10],[13,9],[11,-2],[31,4],[88,6],[23,5],[32,1],[12,-9],[87,-4],[54,1],[50,-7],[54,0],[18,8],[30,22],[36,8],[62,1],[34,-3],[19,-12],[22,-39],[26,-12],[18,-4],[26,5],[29,9],[13,-2],[9,-11],[16,1],[12,-7],[22,-6]],[[6458,5239],[7,-18],[15,-9],[-4,-14],[7,-8],[18,-1],[2,-12],[10,0],[5,-13],[18,-7],[-5,-12],[18,-9],[20,-28],[5,-12],[-9,-1],[8,-18],[-15,-24],[15,-8],[10,-13],[10,3],[6,-10],[14,-6],[9,-10],[-6,-6],[16,-5],[10,-13],[-12,-8],[14,-14],[-4,-9],[13,-8],[-14,-6],[8,-8],[-3,-11],[16,-9],[4,-11],[11,0],[4,-8],[-7,-7],[11,-2],[7,-14],[13,2],[8,-21],[18,-9],[2,-16],[19,-3],[5,-25],[12,-9],[2,-11],[13,-8],[9,-15],[14,-1],[18,-20],[1,-7],[-12,-13],[-7,-19],[6,-8],[11,3],[15,-12],[19,5]],[[4041,3706],[12,22],[2,18],[-15,29],[-2,25],[9,15],[44,54],[8,12],[12,33],[15,64],[8,21],[0,10],[-12,24],[-13,18],[-31,28],[-21,-2],[-7,14],[0,12],[25,2],[13,18],[-83,48],[-10,11],[-54,111],[-20,21],[-122,64],[-16,-19],[-28,17],[-47,19],[-30,4],[-17,0],[-29,-8],[6,32],[-13,10],[-13,1],[-16,24],[-25,23],[-15,6],[-12,11],[-35,9],[-6,-4],[-31,5],[-35,21],[-14,-9],[-8,-16],[-17,-17],[-8,1],[-11,-10],[-18,1],[-6,-7],[-11,0],[-11,16],[-7,-5],[1,21],[-18,-5],[-14,11],[-7,0]],[[3288,4510],[-9,7],[3,15],[11,-4],[0,12],[-11,8],[9,6],[-12,7],[-20,18],[1,9],[-14,0],[3,10],[-8,0],[17,26],[-12,7],[2,10],[-18,19],[-7,-9],[-10,2],[9,5],[3,14],[-21,-2],[-14,14],[2,6],[-14,3],[3,-12],[-12,7],[0,17],[-10,16],[10,30],[-6,13],[13,16],[-1,11],[14,-4],[3,6],[17,3],[-2,17],[7,3],[9,15],[11,-3],[9,7],[-5,9],[16,4],[-2,18],[13,3],[33,0],[11,10],[6,26],[20,0],[1,12],[22,4],[2,-7],[10,2],[-5,14],[9,-2],[1,14],[14,-4],[12,9],[5,12],[8,-1],[4,13],[17,0],[7,-7],[6,35],[13,13],[0,13],[21,-4],[12,11],[9,-1]],[[3503,5031],[10,-10],[8,7],[12,-13],[30,24],[-6,4],[11,14],[15,5],[6,-14],[8,7],[18,-8],[-5,-10],[10,3],[13,16],[13,5],[16,-8],[8,6],[0,19],[-10,-7],[-2,8],[22,7],[9,-3],[-6,16],[12,-2],[-1,-10],[23,1],[8,-12],[12,1],[2,-12],[17,-11],[13,5],[1,-7],[33,5],[14,19],[5,-1],[-3,13],[15,1],[-4,9],[12,0],[-6,9],[5,8],[13,5],[10,-13],[-4,-5],[14,-38],[28,23],[13,-1],[0,-9],[19,-1],[7,6],[12,-8],[12,6],[3,-9],[20,4],[3,8],[13,9],[10,-6],[15,5],[14,-13],[2,-16],[8,7],[6,-9],[-6,-9],[11,-3],[-2,-7],[12,10],[6,-15],[26,-2],[3,-10],[21,-7],[6,-13],[10,1],[16,13],[8,-3],[12,14],[2,20],[6,-8],[9,4],[-3,7],[9,8],[-1,7],[12,12],[9,-2],[4,-8],[29,7],[-7,-8],[25,-15],[11,1],[10,8],[13,4],[5,-13],[24,9],[7,-5],[14,11],[7,-6],[-3,-9],[9,1],[3,-12],[12,18],[-2,9],[8,8],[11,-10],[18,0],[-5,17],[15,1],[18,-4],[11,-7],[3,18],[8,8],[22,-14],[10,1],[-4,-10],[9,-13],[9,-3],[6,6],[22,42],[9,13],[2,16],[10,12],[9,21],[25,42],[12,12],[20,8],[38,28],[27,28],[38,7],[14,10],[26,33],[8,14],[11,45],[46,12],[19,3],[69,-1],[46,2],[58,-2],[11,-4],[-5,-19],[5,-58],[14,-14],[3,-10],[41,-10],[15,-16],[2,-17]],[[3935,3548],[-103,-8],[-50,-11],[-141,-38],[-16,-12],[-28,-13],[-14,-14],[-4,-30],[-6,-3],[1,-15],[8,-15],[14,-5],[2,-25],[12,-8],[-16,-11],[-1,-8],[-10,1],[-4,-7],[10,-3],[-20,-13],[-9,3],[-16,-7],[4,-7],[-6,-9],[10,-16],[8,-3],[-7,-8],[7,-24],[-18,4],[-16,-4],[-6,-20],[15,-8],[23,-6],[-5,-9],[27,-7],[4,-6],[20,-8],[1,-10],[13,-6],[1,-13],[13,-25],[-7,-6],[21,-22],[-8,-10],[0,-11],[-19,-8],[-2,-9],[-11,-4],[0,-12],[-12,-7],[-18,-2],[1,-19],[9,0],[-3,-13],[-10,-6],[-1,-11],[-8,-8],[-1,-12],[-10,1],[-3,-10],[-24,-5],[-8,-7],[-19,12],[-8,0],[-8,20],[-9,11],[-23,3],[-6,9],[-9,0],[-1,10],[-12,-3],[-11,7],[-12,-1],[-6,7],[-11,-3],[-7,6],[-28,-7],[-13,5],[-11,-4],[0,-7],[-17,-6],[-17,-10],[-22,-2],[-22,-16],[-16,-3],[-16,-14],[-5,-10],[-21,-8],[-17,-16],[-46,-16],[-29,-7],[-8,-10],[-17,0],[-9,-5]],[[3062,2882],[-10,37],[-9,14],[-18,10],[-18,4],[-31,29],[-7,10],[-9,26],[-17,9],[-38,2],[-9,6],[-17,2],[-15,-3],[-28,-30],[-34,-28],[-29,-16],[-29,-7],[-27,-23],[-35,-2],[-10,4],[-10,28],[-35,29],[-22,5],[-9,10],[-14,23],[-24,19],[-40,12],[-13,6],[-28,19],[-64,39],[-37,24],[-30,16],[-92,52],[-41,12],[-20,12],[-6,9],[-20,14],[-35,12],[-61,33],[-71,27],[-52,27],[-23,13],[-32,14],[-28,33],[9,29],[-10,21],[-11,11]],[[1853,3475],[-2,16],[7,8],[-11,23],[8,12],[8,26],[-5,34],[-13,18],[-6,21],[32,-10],[16,1],[14,5],[14,-8],[23,-4],[8,4],[23,22],[22,36],[9,1],[7,16],[-2,13],[10,22],[21,15],[18,20],[-2,16],[7,13],[-10,4],[5,20],[14,4],[8,15],[11,8],[5,12],[-4,6],[7,17],[15,8],[7,-2],[13,9],[11,-2],[12,15],[12,3],[-3,18],[5,14],[-6,6],[25,27],[23,14],[18,2],[12,-4],[9,13],[12,-4],[10,18],[-2,14],[-8,5],[-4,15],[1,21],[15,17],[-7,15],[-1,16],[6,13],[-13,6],[0,8],[7,8],[10,20],[20,21],[36,-8],[22,-12],[9,-1],[8,8],[9,-6],[10,3],[24,-7],[24,14],[15,3],[1,6],[13,7],[-4,5],[6,17],[10,3],[9,21],[13,-2],[16,11]],[[2515,4257],[8,-8],[5,-26],[-1,-11],[11,-10],[20,-12],[11,0],[7,-8],[32,5],[54,-11],[11,3],[21,-11],[16,-5],[41,-1],[27,31],[32,1],[61,-13],[17,16],[65,-6],[11,-7],[33,-6],[-3,-11],[28,-8],[18,-9],[4,7],[12,-7],[40,-2],[-6,21],[10,11],[15,7],[6,13],[16,15],[5,17],[25,5],[-1,20],[12,6],[4,9],[-12,33],[4,19],[-5,21],[-9,3],[-3,15],[2,15],[23,7],[11,7],[16,5],[5,15],[11,4],[-5,8],[4,21],[-2,15],[9,1],[2,14],[9,6],[32,6],[15,12],[-1,11]],[[3327,2601],[-13,-4],[-24,-16],[-17,-5],[-9,6],[-6,21],[0,23],[-4,21],[-17,26],[-20,39],[-32,53],[-35,34],[-12,20],[-3,40],[-16,15],[-22,1],[-22,-6],[-10,3],[-3,10]],[[3503,5031],[6,22],[12,9],[-8,25],[-10,0],[-12,7],[-13,-3],[-3,29],[-7,8],[-6,27],[5,2],[1,34],[-18,12],[0,25],[-4,14],[4,14],[-15,5],[7,30],[-3,15],[-5,2],[-5,29],[-7,0],[-4,10],[-14,5],[-17,24],[-16,7],[-8,9],[0,13],[-6,13],[28,41],[22,21],[23,14],[17,18],[12,22],[4,16],[-25,15],[-14,24],[-7,7],[-12,30]],[[3405,5626],[-12,8],[-58,54],[-11,22],[-2,24],[-17,22],[0,14],[5,23],[12,28],[31,28],[45,31],[23,21],[3,10],[38,20],[18,14],[-7,35],[-16,9],[-19,25],[15,25],[2,16],[18,2],[13,-8],[9,2],[15,12],[-1,6],[13,6],[-6,4],[29,44],[-18,7],[-3,9],[13,-3],[-3,13],[-15,4],[15,11],[-7,8],[-5,-8],[-8,7],[-17,-1],[-11,3],[3,10],[-23,-3],[1,12],[11,8],[-3,11],[11,2],[-11,17],[-10,-6],[1,11],[-12,14],[-14,-13],[-4,4],[-19,-7],[-8,-6],[-17,5],[-10,-7],[-19,6],[10,9],[-11,12],[-11,23],[-14,8],[-6,10],[-9,-23],[-11,-4],[-7,12],[-11,-4],[-10,22],[-10,2],[-5,-12],[-8,3],[-23,-16],[1,-9],[-12,-2],[-9,-19],[-11,2],[14,-11],[-11,-11],[-16,-8],[-21,7],[-14,10],[-5,22],[-14,10],[-46,10],[-9,6],[-3,12],[-14,12],[7,8],[-9,22],[0,12],[-7,14],[-6,-2],[-6,11],[-13,-1],[-12,14],[-4,11],[17,5],[-2,9],[-10,-1],[-9,8],[-32,17],[-25,17],[-15,14],[-3,18],[-12,12],[-4,16],[-10,8],[-13,-2],[-17,14],[-16,28],[6,4],[-19,17],[-9,-1],[-9,13],[-10,6],[-4,9],[-3,30],[-4,7],[-13,11],[-1,12],[-10,9],[1,6],[-18,42],[-6,20],[-12,13],[18,17],[22,6],[5,6],[-4,30],[4,13],[9,9],[28,18],[19,17],[31,24],[23,21],[3,20],[-3,32],[-11,11],[-19,36],[-9,7],[-6,14],[11,39],[14,8],[-3,19],[8,4],[-13,18],[-3,13],[-24,18],[-29,52],[-19,21],[-40,32],[-25,11],[-34,-13],[-43,11],[-21,-10],[-18,0],[-26,6],[-37,11],[-35,5],[-15,4],[-17,12],[-39,15],[-71,4],[-17,13],[-12,22],[-12,15],[-9,22],[-16,26],[4,3],[-17,26],[-10,1],[-32,9],[-48,9],[-14,5]],[[2203,7466],[12,16],[1,7],[13,8],[2,21],[80,24],[94,34],[15,37],[17,30],[24,50],[32,2],[48,5],[10,7],[27,8],[9,-3],[53,5],[2,8],[17,-6],[5,9],[21,6],[12,16],[17,7],[5,19],[10,9],[9,1],[29,19],[-6,13],[4,12],[32,9],[-4,4],[16,10],[-2,20],[-13,-4],[-2,12],[11,3],[-2,23],[26,-8],[11,1],[4,-9],[13,-3],[15,6],[7,-5],[48,16],[55,11],[54,13],[69,23],[42,7],[60,28],[24,15]],[[3229,8002],[39,-32],[28,-35],[13,-44],[13,-8],[36,-37],[12,-9],[44,-51],[22,-20],[128,-54],[8,-4],[13,2],[13,10],[23,12],[31,0],[21,-6],[15,-10],[0,10],[10,7],[25,-8],[23,4],[12,5],[33,-14],[15,0],[16,10],[11,-7],[15,14],[16,-19],[12,-3],[15,-15],[11,7],[7,-3],[-2,-12],[10,-14],[0,39],[24,11],[14,-5],[11,5],[31,-16],[-1,-8],[20,-19],[26,1],[15,-3],[24,-16],[3,-6],[26,-17],[10,-12],[-2,-20],[10,-5],[3,-12],[13,-6],[6,-16],[14,3],[13,-10],[3,-8],[12,-3],[1,-10],[16,-8],[12,6],[2,-25],[13,-6],[22,0],[-2,-11],[12,3],[12,-8],[6,-12],[13,-1],[-4,-11],[15,-11],[10,2],[2,11],[18,-2],[4,6],[16,-6],[20,28],[2,7],[8,-7],[7,5],[-5,21],[10,2],[-9,17],[28,2],[6,10],[13,-17],[7,8],[12,-7],[11,11],[8,-8],[8,12],[5,19],[24,-10],[0,-8],[24,-2],[11,17],[13,3],[19,14],[1,9],[13,6],[9,-9],[10,11],[10,-6],[-5,-8],[12,0],[-7,-11],[11,3],[2,-39],[20,-40],[22,-24],[32,-20],[28,-13],[32,-37],[0,-11],[6,-14],[6,2],[32,-16],[4,-12],[14,1],[4,-23],[15,-1],[23,-15],[24,-12],[12,-24],[8,3],[7,-7],[15,-3],[30,-29],[31,-10],[23,-1],[8,-4],[13,2],[26,22],[7,11],[-9,46],[0,21],[6,13],[24,13],[30,2],[34,-6],[25,-13],[7,-27],[-14,2],[-15,-14],[2,-40],[26,34],[11,-3],[27,7],[0,-7],[15,2],[12,9],[5,-6],[13,-1],[7,9],[25,-5],[8,8],[15,1],[17,10],[20,-4],[9,4],[-2,-10],[31,-2],[3,-5],[16,-5],[0,-5],[16,-3],[4,-8],[25,-1],[5,8]],[[5478,7294],[3,-8],[12,1],[8,-14],[-13,-2],[-3,-13],[-15,-15],[4,-5],[-13,-10],[-9,-1],[-9,-37],[-23,7],[-3,11],[-10,2],[-24,-13],[-5,6],[-9,-15],[6,-11],[-13,-12],[-4,5],[-16,-7],[2,-7],[-9,-14],[4,-6],[-19,-34],[-10,-5],[-4,-25],[6,-5],[-7,-18],[5,-27],[-9,-13],[-3,-32],[5,-6],[-8,-50],[1,-12],[10,-41],[19,-9],[4,-15],[18,-23],[17,-7],[-2,-20],[13,-12],[26,-15],[13,-15],[2,-21],[-11,-20],[-2,-21],[18,-30],[5,-24],[-7,-13],[2,-7],[-29,-40],[-9,-29],[6,-15],[-1,-9],[-10,-4],[8,-35],[-6,-30],[8,-11],[23,-10],[-1,-13],[8,-12],[-1,-12],[7,-16],[-3,-7],[-14,-11],[-10,-27],[-4,-5],[3,-17],[27,-9],[-7,-21],[1,-20],[11,-11],[-2,-18],[17,-18],[-5,-16],[3,-9],[-6,-32],[8,-8],[-10,0],[-4,-8],[19,-8],[16,2],[3,-19],[11,2],[26,-29],[0,-20],[6,-10],[14,-6],[16,12],[19,-2],[2,-10],[18,-11],[9,3],[18,-8],[-1,-20],[13,-8],[30,-11],[12,13],[6,-7],[-2,-15],[18,-11],[25,1],[-5,10],[7,7],[9,-5],[22,5],[0,-12],[16,-15],[-8,-11],[16,-7],[23,3],[7,-20],[-10,-14],[5,-4],[-7,-21],[45,-23],[14,5],[23,-6],[-7,-22],[-22,-10],[-15,5],[-25,-10],[-17,2],[-24,-12],[-14,-3],[12,-13],[-17,-18],[-16,0],[-6,-10],[-12,12],[-8,-11],[-12,4],[-27,1],[2,-10],[-12,-16],[-17,-6],[-14,-22],[-6,-28],[-6,-11],[-8,1],[-12,-19],[-38,-14],[5,-6],[0,-12],[10,-1],[-13,-11],[8,-7],[-11,-5],[13,-13],[1,-18],[-14,-16],[15,-4],[1,-11],[-8,8],[-12,-15],[8,-6],[-7,-18],[-13,-8],[-3,-12],[-18,-6],[-5,-14],[-8,-5],[-15,-47],[-6,-28],[-7,-1],[-9,-17],[-14,3],[0,-8],[-9,-7],[0,-31],[-7,-4],[1,-18],[-5,0],[-9,-14],[-11,0],[-15,-10],[-16,8],[-13,-1],[-6,-7],[-11,1],[-19,-8],[-17,-22],[-12,-9],[-12,-1]],[[3229,8002],[36,22],[52,46],[28,14],[34,12],[33,8],[16,0],[44,-14],[9,-5],[24,-2],[17,9],[13,20],[16,8],[7,-3],[8,7],[-6,5],[16,9],[18,25],[17,27],[5,14],[-5,26],[-22,16],[-2,6],[8,42],[-3,18],[-17,63],[2,25],[-1,45],[25,0],[21,15],[9,14],[-20,0],[-14,19],[0,10],[-22,38],[-12,11],[-4,11],[-1,48],[7,12],[-9,19],[23,19],[14,15],[18,11],[43,-4],[20,-10],[1,9],[15,17],[30,5],[29,10],[35,18],[25,10],[7,16],[-10,21],[-30,21],[-2,17],[7,23],[9,18],[14,19],[18,3]],[[3822,8880],[0,-12],[7,-7],[15,0],[63,28],[23,-2],[11,-14],[5,-37],[3,-29],[5,-16],[23,-29],[8,-4],[36,-4],[37,-13],[31,-18],[32,-12],[18,-12],[20,-23],[19,-24],[9,-1],[19,15],[28,10],[6,8],[2,24],[-13,23],[-19,6],[0,27],[12,20],[25,35],[13,31],[10,41],[20,54],[33,41],[17,2],[8,-8],[-3,-51],[1,-26],[-11,-28],[-34,-41],[-20,-30],[-7,-17],[-4,-36],[1,-14],[7,-16],[24,-10],[36,11],[37,19],[65,57],[24,10],[20,-1],[8,-8],[5,-23],[-8,-19],[-25,-34],[-21,-32],[-10,-19],[-9,-33],[7,-24],[13,-16],[37,-35],[15,-22],[20,-20],[9,-16],[-4,-17],[-9,-7],[-17,-4],[-21,10],[-32,7],[-53,3],[-24,-6],[-16,-10],[-14,-22],[2,-20],[12,-21],[31,-33],[24,-28],[10,-39],[9,-25],[9,-12],[23,-18],[24,-9],[32,-7],[9,-5],[4,-13],[-2,-30],[10,-19],[26,-22],[23,-29],[14,-7],[9,2],[31,36],[6,4],[32,5],[25,15],[21,49],[7,4],[-2,21],[-24,9],[-24,2],[-24,23],[-26,34],[-31,13],[-14,16],[2,19],[6,9],[23,9],[24,-2],[26,-27],[41,-12],[36,-6],[42,-3],[69,2],[46,-8],[45,1],[25,6],[14,6],[29,28],[16,26],[13,13],[24,15],[18,5],[27,-2],[39,-7],[49,-8],[16,-9],[5,-16],[-10,-27],[-30,-48],[-5,-20],[9,-6],[16,-2],[28,6],[8,16],[6,30],[12,22],[14,11],[16,7],[68,17],[24,4],[48,4],[54,0],[41,9],[18,-6],[8,-13],[-6,-20],[-39,-24],[-9,-22],[-1,-13],[12,-41],[-2,-52],[-4,-20],[-9,-28],[11,-18],[10,0],[15,21],[13,11],[31,-3],[8,2],[25,30],[4,27],[10,6],[18,-2],[35,-20],[10,-15],[-13,-18],[1,-32],[8,-30],[25,-72],[-6,-16],[-23,-23],[-13,-26],[-18,-27]],[[5634,7974],[-23,1],[-55,-9],[-21,-9],[-21,-21],[-16,-26],[-10,-69],[-3,-41],[-7,-57],[-2,-59],[-5,-39],[1,-45],[-5,-30],[-1,-35],[2,-66],[-5,-13],[1,-32],[-14,-33],[0,-26],[-3,-19],[-8,-11],[1,-10],[30,-9],[8,-22]],[[2203,7466],[-37,9],[-94,4],[-20,5],[-18,13],[-25,25],[-21,8],[-45,-3],[-59,12],[-28,-4],[-12,-13],[-12,-4],[-50,-1],[-4,-7],[-13,13],[-7,-2],[-14,10],[-10,-3],[-13,9],[-20,0],[-2,6],[-22,1],[-2,9],[-17,3],[-18,15],[-23,4],[-17,-5],[2,-8],[-11,-11],[2,-5],[-20,-5],[-7,-15],[-7,2],[0,-11],[8,-3],[-9,-10],[-12,0],[-7,-7],[-10,1],[-1,-13],[-7,-2],[0,-14],[-22,-1],[-19,-21],[-22,1],[-9,11],[-5,-11],[-20,2],[-7,6],[-13,-5],[-3,-7],[-16,9],[-16,-12],[-17,0],[-9,-7],[-17,5],[-15,-18],[-8,8],[-17,8]],[[1286,7437],[-9,20],[-4,21],[-14,13],[-16,-3],[-9,-9],[2,-15],[-18,-8],[0,9],[-9,9],[-20,-11],[13,-4],[-1,-7],[-10,-2],[-4,8],[-24,-1],[0,-10],[-23,-4],[-13,5],[-11,11],[-26,40],[-13,5],[-11,28],[12,23],[17,12],[2,6],[-12,5],[-3,8],[-20,9],[4,8],[-10,16],[-22,11],[8,1],[-5,10],[-8,-6],[-13,0],[-15,6],[5,-14],[-19,25],[3,10],[9,-7],[15,5],[-10,13],[6,12],[-19,-3],[-5,5],[5,15],[5,-8],[4,8],[-7,13],[6,8],[-10,7],[-4,-10],[-5,11],[8,14],[2,16],[9,3],[19,-20],[-9,-9],[0,-13],[7,4],[14,20],[-9,0],[12,12],[18,-6],[-1,-8],[15,6],[-7,19],[11,-3],[11,9],[-38,39],[0,14],[10,7],[10,-8],[4,12],[-13,7],[23,28],[14,-12],[6,4],[-6,12],[17,-2],[-11,15],[5,9],[-35,8],[-8,-10],[-9,1],[-2,9],[11,12],[8,-7],[0,11],[8,4],[11,-5],[5,5],[-2,22],[3,10],[-5,10],[12,0],[14,-18],[16,11],[14,0],[12,12],[12,27],[-2,12],[11,17],[-21,24],[-30,17],[-12,10],[-21,6],[0,19],[34,18],[25,5],[50,0],[28,2],[11,-3],[12,-10],[0,-8],[-10,-18],[-20,-21],[-4,-20],[27,-13],[27,1],[5,18],[23,25],[-2,10],[-21,26],[0,10],[11,2],[6,-13],[21,-15],[22,-27],[17,-7],[25,-4],[12,5],[16,16],[5,22],[11,7],[24,3],[4,8],[-16,7],[-15,0],[-37,-5],[-8,3],[-36,22],[-24,24],[-13,7],[-25,-13],[-16,-15],[-13,-3],[-7,7],[-4,37],[-13,16],[-17,15],[2,5],[15,7],[50,-2],[34,6],[9,5],[12,20],[-26,26],[-15,28],[9,34],[7,14],[2,18],[18,18],[15,-12],[18,13],[33,13],[1,-12],[10,0],[9,23],[-22,19],[-13,26],[6,13],[-3,7],[-22,8],[-3,21],[12,18],[12,4],[-8,24],[-24,0],[-10,5],[-6,19],[-7,3],[-27,0],[-33,-2],[-26,21],[-4,12],[18,24],[14,29],[0,18],[-12,16],[11,10],[-10,20],[-7,2],[-22,-11],[-6,5],[-7,14],[15,22],[-1,5],[-16,6],[15,26],[22,-15],[-5,-13],[4,-7],[25,2],[10,12],[14,-12],[17,9],[10,11],[16,-2],[29,1],[2,23],[-14,13],[-3,12],[3,22],[-7,13],[-25,5],[-22,-2],[-3,5],[10,11],[18,8],[20,5],[-1,9],[-10,14],[-43,38],[-31,15],[-17,13],[-7,1],[-29,-12],[-34,1],[-8,13],[0,30],[-4,35],[4,34],[14,40],[12,14],[-5,12],[-33,-9],[-5,8],[4,11],[26,29],[5,10],[12,-3],[26,-27],[15,1],[11,-12],[6,0],[14,18],[-2,27],[6,10],[45,36],[10,-4],[12,-44],[8,-4],[26,-2],[61,-17],[28,-6],[52,0],[3,-13],[-33,-14],[-6,-8],[2,-16],[15,-8],[21,10],[18,-10],[22,2],[34,-4],[9,-9],[-2,-8],[-11,-13],[-1,-9],[11,-10],[29,-11],[24,-1],[8,14],[33,31],[7,34],[-14,6],[-20,-21],[-9,-2],[-19,19],[-4,16],[-41,3],[-9,8],[6,22],[33,28],[-2,8],[12,16],[15,9],[30,16],[26,-9],[20,-18],[35,-6],[19,-8],[20,-2],[11,4],[20,17],[1,26],[10,12],[4,19],[-1,11],[8,3],[10,-4],[13,-15],[10,4],[-3,22],[-15,21],[15,9],[16,-1],[13,-6],[23,-16],[11,-14],[9,-25],[14,-11],[28,-13],[30,-32],[7,-13],[14,-6],[27,16],[20,4],[1,9],[-32,20],[34,7],[-11,12],[6,8],[11,1],[31,-16],[8,7],[-2,32],[3,10],[-13,13],[5,13],[-23,11],[2,17],[-13,11],[0,24],[-20,11],[9,4],[-1,7],[-18,-1],[-4,11],[12,11],[-5,14],[9,3],[5,-15],[8,-2],[3,13],[-7,19],[1,30],[-9,8],[2,13],[-5,17],[-12,4],[-12,20],[-20,14],[9,12],[24,-10],[-7,28],[21,-7],[10,4],[-1,15],[-6,10],[4,6],[-2,26],[-11,-2],[1,14],[-17,1],[0,18],[10,2],[-6,7],[-9,-5],[-11,10],[13,10],[-2,10],[7,4],[10,-17],[7,6],[-28,26],[12,10],[0,8],[15,21],[10,-5],[4,-17],[10,2],[8,-10],[11,-1],[9,-18],[17,1],[8,21],[-11,31],[2,21],[15,11],[68,33],[15,2],[10,-6],[16,-20],[55,-10],[6,-6],[5,-17],[9,-1],[16,9],[10,14],[12,4],[17,-15],[19,3],[-2,23],[-15,26],[20,27],[-7,33],[4,19],[8,16],[11,10],[11,2],[17,-7],[2,-9],[-3,-19],[6,-24],[8,-8],[21,-13],[0,-12],[-21,-10],[-24,-7],[-15,-7],[-9,-16],[27,-45],[28,-17],[27,-8],[13,-6],[42,3],[31,4],[23,-19],[29,-36],[16,-13],[38,-12],[23,-11],[14,-18],[9,-19],[3,-33],[4,-8],[14,-10],[26,-8],[35,-4],[12,6],[8,18],[-12,34],[7,17],[17,18],[25,8],[23,-8],[0,-30],[-8,-11],[8,-11],[48,-31],[27,-14],[14,-12],[5,-18],[2,-45],[8,-52],[12,-35],[17,-18],[41,6],[64,-8],[29,6],[32,12],[18,3],[20,-10],[35,-2],[12,-8],[-3,-7],[-28,-6],[-12,-8],[-30,-44],[-41,13],[-29,-4],[-21,-11],[-6,-22],[15,-46],[1,-11],[-10,-36],[29,-38],[8,-17],[1,-18],[-21,-40],[-2,-20],[17,-26],[8,-1],[16,14],[7,30],[18,12],[53,11],[12,-6],[17,-35],[1,-20],[-4,-11],[-15,-14],[0,-8],[12,-9],[16,-1],[51,4],[33,-4],[14,8],[14,13],[17,50],[19,9],[20,1],[9,-3],[19,-16],[17,-30],[-1,-14],[-9,-17],[-21,-17],[-14,-15],[-8,-23],[0,-36],[4,-7],[28,-10],[28,-4],[13,1],[37,17],[56,36],[17,2],[24,-4],[91,-42],[27,-21],[32,-15],[9,-8],[-6,-18]],[[5634,7974],[-3,-18],[9,-11],[33,-23],[40,-4],[8,-6],[19,-27],[34,-30],[20,-39],[10,-25],[19,-19],[3,-13],[-17,-19],[-1,-12],[29,-36],[68,-23],[11,-7],[17,-25],[9,-7],[26,-13],[22,3],[10,13],[18,32],[28,19],[27,7],[21,0],[18,-9],[-5,-9],[-25,-6],[-10,-14],[7,-10],[47,-44],[21,-15],[7,0],[7,11],[-2,28],[9,11],[27,15],[24,20],[4,11],[-12,24],[0,11],[7,8],[33,14],[9,0],[29,-20],[15,-7],[22,5],[2,19],[5,20],[0,14],[-6,31],[-7,22],[1,17],[12,24],[24,18],[33,5],[39,2],[38,-4],[6,-9],[0,-16],[18,-25],[7,-16],[5,-32],[-8,-9],[-11,-3],[-49,3],[-17,-6],[-6,-8],[-3,-19],[16,-29],[17,-15],[6,-11],[-3,-33],[7,-21],[22,-16],[17,-19],[8,-14],[7,-24],[13,-55],[9,-18],[15,-11],[17,-3],[12,11],[-2,25],[5,18],[-4,35],[14,5],[76,5],[29,-13],[35,-11],[28,-16],[53,-47],[14,-18],[4,-18],[-5,-20],[-14,-10],[-16,-3],[-29,1],[-12,-4],[4,-39],[-9,-21],[9,-23],[15,-4],[19,10],[35,11],[15,11],[8,16],[2,30],[12,5],[15,-7],[3,-9],[2,-26],[13,-24],[6,-19],[0,-13],[6,-29],[-3,-30],[4,-24],[-7,-11],[-17,-2],[-11,4],[-9,11],[0,27],[-17,7],[-15,-10],[1,-17],[28,-21],[22,-35],[8,-17],[9,-7],[31,-18],[-4,-16],[4,-18],[7,-11],[13,-5],[32,5],[3,-24],[-6,-7],[-22,-4],[-30,1],[-13,-14],[12,-10],[13,0],[23,8],[28,-25],[-13,-20],[-10,-7],[-52,5],[-11,-3],[-2,-9],[-13,-11],[16,-21],[5,-12],[-1,-20],[21,-10],[-11,-6],[1,-15],[14,-6],[5,7],[28,-9],[2,9],[29,3],[10,-8],[5,23],[24,13],[3,-4],[-12,-11],[11,-12],[-12,-19],[-16,-2],[-5,-12],[-17,-15],[11,-9],[14,2],[23,-8],[-7,-12],[-27,11],[-1,-7],[12,1],[-1,-8],[-14,0],[-9,-7],[-8,13],[9,4],[-4,10],[-35,-14],[6,-8],[-4,-9],[6,-13],[-27,3],[0,-22],[-6,-3],[3,-14],[-10,-15],[12,1],[3,-12],[9,-3],[-13,-15],[3,-17],[-23,-7],[9,-11],[9,0],[-5,-21],[-15,6],[0,11],[-12,-3],[2,-20],[-12,8],[-1,-14],[14,-4],[-3,-20],[-13,7],[-1,-8],[-11,-1],[-3,11],[-15,2],[6,-14],[-21,-4],[-12,3],[-23,-18],[-12,11],[-14,-20],[-28,-1],[-8,-15],[-30,26],[5,23],[-21,13],[-7,-2],[-19,-29],[-15,4],[-5,-7],[21,-4],[-23,-7],[-7,-8],[-5,11],[-22,2],[-4,8],[-17,10],[-1,-22],[-13,0],[-12,-11],[3,-5],[32,10],[12,-3],[9,-11],[-13,-6],[27,-12],[-8,-4],[-8,-13],[6,-16],[-12,-3],[-13,-32],[2,-35],[-6,-13],[2,-14],[8,-11],[34,-15],[10,-12],[1,-22],[3,-15],[16,-11],[24,3],[24,-22],[5,-12],[11,-9],[16,-20],[17,-32],[9,-9],[9,1],[-9,-38],[5,-29],[-6,-5],[1,-13],[-10,-11],[2,-24],[-3,-21],[-15,-24],[-27,-14],[-13,0],[-35,-8],[-20,-7],[-25,-22],[-7,-14],[0,-40],[11,-64],[8,-56],[9,-52],[8,-31],[13,-17],[-1,-18],[-12,-24],[-20,-6],[-10,-8],[-11,0],[0,-9],[-11,-6],[4,-28],[-15,-25],[-14,-32],[-2,-10],[-14,-6],[-7,-15],[-10,-9],[-19,-6],[-7,-20],[4,-20],[-2,-9],[-17,-26],[0,-22],[-15,-20],[-58,-3],[-29,-7],[2,-14],[10,-13],[1,-19],[7,-34],[11,-38],[16,-25],[2,-14],[9,-17],[-5,-7]],[[2515,4257],[1,26],[13,12],[-20,20],[-2,25],[-7,17],[13,12],[5,10],[-7,3],[7,22],[9,3],[22,-11],[17,10],[-4,12],[2,18],[-8,4],[5,15],[8,3],[7,14],[-3,17],[7,15],[14,4],[7,9],[21,3],[9,-3],[9,-17],[10,3],[5,13],[12,3],[15,-2],[10,23],[3,21],[-6,10],[10,8],[-12,32],[2,14],[5,4],[-3,16],[-13,10],[-22,28],[-42,26],[-21,18],[-14,-1],[-9,-11],[-22,-13],[-20,-4],[-44,8],[-29,-10],[-17,-2],[-49,12],[-34,-3],[-14,8],[-7,-3],[-42,1],[-30,12],[-32,3],[-1,7],[-14,-3],[-10,-14],[-29,12],[-23,6],[-118,-34],[-15,24],[-13,15],[-4,21],[5,16],[-11,22],[-21,15],[-18,19],[-11,7],[-6,-3],[-12,15],[-43,18],[0,5],[-37,14],[-17,10],[-10,-27],[-13,-6],[-42,-1],[-25,-11],[-17,-12],[-25,-14],[-7,-8],[-172,-75],[-45,-24],[-32,-7],[-28,-17],[-110,18],[-1,-14],[6,-7],[-1,-19],[-13,-12],[0,-21],[4,-16],[10,-11],[-5,-26],[6,-32],[13,-23],[-8,-13],[0,-17],[11,-3],[-1,-7],[10,-18],[-2,-8],[11,-11],[-24,-27],[-19,-16],[-22,1],[-10,-6],[-16,6],[-15,-5],[-8,-19],[18,-18],[14,-5],[12,-33],[-4,-5],[-20,-9],[5,-13],[-37,-9],[-17,29],[-23,2],[-6,-7],[4,-10],[-6,-5],[-14,1],[-10,-6],[-12,2],[-18,12],[25,9],[8,15],[-27,14],[-10,9],[-16,-6],[-18,0],[-8,-10],[-18,4],[-11,-7],[-4,-15],[-10,-19],[1,-11],[-9,-20],[-23,-14],[7,-53],[-1,-9],[23,-26],[-2,-17],[12,-3],[-8,-15],[-20,-8],[-35,-3],[-10,4],[-18,0],[-17,-7],[-14,-11],[-27,7],[-19,0],[-29,18],[-21,2],[-18,9],[-10,0],[-17,-8],[-25,-17],[-16,0],[-14,6],[-48,4],[-27,7],[-23,-8],[10,-1],[8,-10],[1,-11],[11,-6],[2,-29],[-1,-18],[21,-19],[4,-10],[14,-8],[19,-22],[-12,-3],[-47,21],[-9,1],[-17,-9],[-37,8],[-11,13],[-26,16],[-24,-3],[-13,-11],[-3,-10],[2,-19],[-4,-7],[-18,-7],[1,-23],[3,-25],[-5,-42],[11,-22],[-34,-27],[-6,-14],[6,-10],[-3,-8],[-18,-15],[-16,-19],[-17,-10]],[[413,3776],[-12,-10],[-6,3],[5,16],[-11,-4],[-10,4],[-3,-6],[-16,2],[6,-13],[-13,-2],[-11,-7],[-24,0],[7,9],[-6,11],[-12,1],[-6,9],[-18,-11],[6,-10],[-8,-12],[-25,-1],[-15,19],[-31,10],[-5,-2],[-13,24],[-6,24],[6,4],[2,27],[-14,1],[-4,9],[-13,6],[-10,0],[-15,20],[1,6],[-12,-1],[-7,14],[-20,12],[-11,29],[10,3],[0,10],[-15,5],[0,7],[-11,12],[0,13],[-13,11],[-5,16],[8,16],[-10,29],[-12,7],[-22,-1],[-19,22],[13,5],[11,30],[21,21],[-8,3],[-1,11],[8,-2],[0,19],[-5,3],[17,7],[-5,14],[8,-4],[25,8],[20,-5],[36,11],[-2,12],[11,7],[16,2],[-5,22],[-7,3],[19,12],[1,12],[10,-6],[1,21],[-9,7],[10,16],[-9,2],[3,25],[12,18],[24,14],[-8,2],[-2,19],[12,2],[5,7],[13,2],[-2,9],[6,11],[18,17],[11,29],[-2,9],[9,4],[-5,19],[8,11],[14,10],[10,-3],[13,8],[-5,14],[5,11],[22,-6],[10,13],[-6,12],[11,15],[-1,8],[11,5],[1,17],[6,12],[7,0],[2,14],[8,-1],[4,15],[15,3],[5,7],[18,0],[0,19],[6,7],[-7,15],[-13,8],[-16,1],[-3,6],[-23,10],[5,5],[-10,18],[-14,6],[4,7],[-19,14],[-6,12],[-14,4],[1,8],[-10,10],[4,19],[-15,6],[-8,-2],[0,22],[-16,4],[-16,-3],[-3,7],[12,6],[-10,26],[7,8],[-6,5],[12,6],[-8,7],[9,1],[6,15],[-16,3],[-11,8],[7,17],[-7,12],[5,2],[-19,7],[-18,15],[-6,21],[10,3],[-12,13],[-7,19],[10,13],[-9,6],[32,10],[-10,5],[2,15],[21,5],[8,10],[-5,32],[9,5],[-6,10],[7,2],[1,13],[14,-1],[11,-11],[11,7],[6,23],[-11,-7],[-5,19],[11,3],[14,18],[-1,13],[10,0],[9,9],[-23,17],[5,6],[-11,13],[13,4],[-9,11],[10,7],[-11,13],[-2,17],[-10,-1],[7,18],[30,27],[-1,13],[10,1],[-12,13],[-8,-2],[-8,11],[5,3],[-5,33],[9,3],[-7,8],[-13,-4],[4,17],[12,-4],[17,9],[-16,5],[8,13],[9,3],[13,-5],[3,5],[20,-6],[11,17],[11,0],[6,13],[10,5],[3,-6],[20,21],[4,17],[-9,7],[11,15],[19,3],[12,14],[14,6],[4,11],[17,16],[13,7],[15,-3],[-5,13],[31,17],[2,18],[-12,-2],[12,19],[-13,26],[10,2],[3,9],[-15,11],[12,2],[0,10],[9,-4],[-3,21],[10,-3],[-2,9],[6,29],[-9,2],[14,22],[8,-8],[10,15],[-7,13],[11,14],[1,11],[-8,10],[13,8],[10,-9],[14,-6],[8,-15],[11,-7],[26,11],[-15,7],[20,30],[3,19],[7,-7],[18,-1],[4,8],[-9,6],[-1,12],[14,2],[8,49],[22,0],[-5,19],[10,7],[-16,12],[-10,2],[11,18],[-16,4],[2,9],[10,0],[-2,10],[12,2],[6,-10],[2,11],[9,-4],[20,2],[9,14],[9,2],[8,15],[10,4],[-6,10],[12,7],[1,-13],[7,1],[7,12],[-4,10],[6,10],[10,-12],[18,-6],[1,22],[10,10],[12,4],[19,-1],[13,12],[10,-10],[-10,-7],[7,-10],[9,3],[1,12],[9,-1],[19,-20],[12,6],[14,-21],[9,3],[10,-9],[3,-10],[-1,-19],[11,-5],[15,4],[-5,-7],[12,-3],[9,12],[7,-6],[7,20],[-16,5],[-5,10],[12,0],[4,8],[12,-3],[-3,17],[-11,-12],[-5,2],[-9,42],[6,7],[30,0],[6,-6],[1,-19],[7,-1],[24,13],[4,28],[10,-3],[46,-2],[0,-14],[22,-5],[5,21],[17,11],[5,-10],[17,4],[-8,-15],[5,-6],[21,3],[15,-12],[10,16],[9,-5],[11,8],[10,-16],[10,6],[-8,17],[12,11],[14,-7],[0,11],[-15,9],[-5,24],[-13,-11],[-10,1],[8,18],[-8,2],[4,14],[-24,-7],[2,11],[-13,-3],[1,21],[-14,0],[5,11],[-18,10],[4,4],[-10,7],[14,6],[2,8],[-10,7],[-16,26],[0,7],[10,10],[26,7],[-4,12],[-15,2],[0,13],[-9,9],[13,44],[0,8],[12,3],[1,40],[-10,9],[8,10],[-2,8],[-9,0],[-14,11],[9,17],[0,54],[15,17],[18,1],[0,10],[-14,1],[-4,19],[7,17],[19,7],[9,23],[-9,8],[12,11],[3,10],[12,-3],[-1,11],[-14,5],[5,8],[-8,16],[-11,-1],[3,9],[13,4],[-18,5],[11,11],[-9,8],[-12,1],[12,7],[-5,10],[2,12],[-7,-3],[10,19]],[[1292,6924],[14,2],[2,7],[17,-4],[14,-8],[0,-11],[16,4],[2,-4],[17,4],[6,7],[14,-5],[25,18],[7,-20],[-3,-9],[9,-12],[-1,-11],[21,-4],[9,9],[17,-2],[-2,-12],[19,-9],[-3,-9],[16,-18],[19,2],[12,-6],[11,-17],[-18,-14],[6,-25],[-12,-18],[-1,-28],[-7,-22],[6,-3],[9,-19],[9,0],[19,-15],[7,-31],[24,-5],[35,-4],[19,-9],[22,-2],[17,12],[43,5],[23,20],[18,1],[3,8],[14,12],[29,17],[1,14],[12,-1],[21,14],[11,17],[8,-4],[66,11],[25,-2],[15,23],[14,-8],[28,-11],[-6,-14],[3,-10],[9,-6],[10,-19],[0,-17],[14,-7],[9,-11],[-1,-18],[-10,-2],[-16,-17],[2,-16],[19,-24],[15,-46],[-5,-4],[-6,-69],[-15,-10],[-7,1],[-9,-13],[-23,-16],[-11,0],[-6,-12],[-32,-20],[-7,-16],[-21,1],[-16,-25],[-20,-15],[16,-1],[3,-10],[19,-8],[-2,-7],[12,6],[16,-7],[8,6],[8,-5],[25,3],[-1,12],[14,0],[11,11],[9,-17],[16,4],[-8,-8],[3,-7],[-18,-10],[-13,-26],[-4,-14],[-1,-35],[-16,-40],[-14,-45],[5,-16],[10,-8],[-3,-15],[12,-25],[1,-11],[-18,-16],[-6,0],[2,-17],[26,-21],[13,-19],[8,-20],[-5,-24],[1,-20],[6,-16],[9,-35],[2,-55],[4,-15],[28,-16],[52,-4],[32,9],[46,1],[13,-9],[23,-9],[35,-7],[26,3],[9,-5],[14,7],[7,-7],[32,-3],[17,-8],[17,0],[12,-12],[30,-1],[15,-10],[15,7],[4,8],[20,-1],[-3,-9],[11,-4],[24,7],[15,7],[0,-14],[8,-12],[15,-5],[7,8],[14,4],[18,11],[16,0],[-1,12],[9,12],[23,6],[-7,7],[3,8],[-10,6],[19,2],[-15,9],[7,9],[11,-8],[8,14],[14,0],[-8,8],[6,10],[14,-9],[1,15],[13,-6],[-1,10],[14,4],[-5,8],[14,-5],[-3,9],[7,5],[-8,5],[9,19],[15,7],[1,-16],[9,1],[9,-8],[8,1],[-5,11],[10,-6],[16,9],[16,-13],[10,-1],[13,9],[5,-8],[-9,-21],[9,-25],[-3,-34],[11,-28],[32,-49],[13,-10],[15,-22],[22,-39],[9,-9],[21,-35],[-4,-6],[0,-20],[98,-18],[68,-9],[62,-6],[8,11],[41,13],[45,11],[40,3],[71,19],[27,15]],[[1853,3475],[-3,-23],[-12,-29],[-13,-11],[-8,-2],[-9,-16],[-15,-14],[-20,6],[-14,-3],[-9,-14],[-18,-6],[-5,-8],[-18,0],[-15,-11],[-13,11],[5,10],[-28,15],[-24,-11],[-33,-20],[-29,4],[-9,12],[-22,-1],[-7,7],[-17,2],[3,27],[-15,0],[-10,9],[-11,-4],[-9,3],[-23,-11],[-11,-1],[-9,-19],[-8,-1],[4,-16],[-8,0],[-16,-17],[-11,3],[-34,19],[-11,12],[-13,-4],[-12,3],[-6,11],[-13,6],[-5,12],[-11,-6],[-14,6],[4,18],[-17,14],[-12,-13],[-18,4],[-11,13],[-2,15],[-13,-7],[-27,12],[-8,8],[-11,-4],[-2,9],[-11,-2],[-6,6],[-3,-14],[-17,-6],[-12,6],[-5,8],[-15,9],[2,9],[-15,19],[-1,9],[-12,2],[-6,8],[-17,-5],[-1,-6],[-18,7],[-4,10],[-8,-10],[-15,-1],[-10,-9],[-13,-3],[-15,10],[-5,-4],[-18,4],[0,9],[-10,0],[-1,8],[-10,3],[-8,11],[4,20],[-15,4],[-12,-5],[-3,12],[-20,8],[14,24],[-8,7],[15,5],[4,7],[-3,16],[-15,5],[-11,12],[-49,-2],[-2,-5],[-33,12],[-27,4],[-12,-1],[-5,14],[-12,4],[-23,-5],[-15,-7],[-18,-1],[-4,18],[-8,18],[-20,7],[-2,13],[-15,-3],[4,-8],[-12,-2],[-11,8],[-18,2],[-14,-6],[-19,10],[-8,12],[1,11],[-15,7],[-5,-10],[-20,0],[-14,5],[-2,10],[8,9],[-20,6],[-30,-15],[-5,-7],[-15,11]],[[7984,1863],[33,-9],[-2,-25],[-7,-5],[12,-13],[2,-17],[8,-1],[0,-25],[-19,-9],[-2,-8],[-12,1],[-7,-10],[4,-18],[-3,-5],[8,-19],[2,-22],[9,-20],[16,-9],[14,9],[34,-11],[-8,-7],[7,-3],[3,-14],[-3,-12],[16,-9],[3,-17],[22,-11],[19,3],[13,-18],[24,0],[2,-9],[27,-28],[-3,-21],[29,0],[7,-7],[24,-10],[16,-15],[11,-6],[15,4],[17,-1],[41,5],[10,6],[35,1],[13,-24],[9,-8],[12,-32],[25,-39],[19,-23],[6,-22],[8,-12],[1,-32],[22,-43],[0,-29],[7,-24],[37,-40],[17,-15],[1,-10]],[[8578,1125],[-4,-15],[-63,-60],[-15,-8],[-23,-2],[-18,-17],[-18,-6],[-16,-9],[-24,-24],[-12,-16],[-18,-45],[-11,-7],[-19,6],[-18,-4],[-19,5],[-18,-11],[-12,-1],[-30,9],[-14,0],[-39,-5],[-28,-15],[-28,-33],[-10,-21],[-32,-49],[-6,-22],[1,-10],[-12,4],[-2,7],[-27,6],[-12,6],[-22,-5],[-13,8],[-1,6],[-13,-8],[-14,0],[-25,20],[-45,18],[-8,11],[-22,-3],[-12,8],[4,8],[-1,15],[-16,12],[-26,3],[-59,-15],[-10,0],[-36,14],[-28,4],[-18,-1],[-21,-7],[-45,1],[-41,-7],[-21,-1],[-50,2],[-42,-6],[-23,2],[-18,5],[-17,11],[-13,-2],[-31,-28],[-11,-32],[1,-15],[12,-39],[8,-10],[0,-17],[5,-35],[14,-22],[-2,-8],[-30,-34],[-9,-7],[-25,-11],[-92,-15],[-9,-12],[3,-41],[0,-67],[-4,-13],[-42,-14],[-14,-10],[-33,-18],[-46,-22],[-32,2],[-46,-1],[-30,3],[-14,-6],[-31,-37],[-18,33],[-4,21],[5,30],[8,8],[4,25],[-4,9],[-18,8],[-27,6],[-8,4],[-57,8],[-41,10],[-43,-3],[-15,5],[-37,16],[-35,9],[-49,45],[-60,29]],[[6518,635],[23,-2],[56,-10],[37,-2],[60,4],[17,6],[13,17],[0,11],[13,46],[20,42],[8,12],[20,12],[14,12],[24,5],[23,10],[14,11],[13,18],[20,24],[36,27],[8,17],[15,15],[3,9],[-4,33],[17,27],[11,13],[55,49],[16,12],[13,15],[0,6],[-21,6],[0,11],[24,14],[15,22],[14,27],[30,46],[18,31],[45,66],[-3,7],[-23,26],[-9,3],[-44,2],[-13,14],[-2,16],[-15,8],[-4,14],[-7,2],[-19,-3],[-49,32],[-12,3],[-8,14],[3,12],[-5,19],[0,16],[20,27],[4,25],[11,25],[-4,25],[-12,17],[-24,11],[-47,11],[-12,9],[-11,35],[15,6],[29,-9],[13,-14],[20,-13],[34,-12],[16,2],[18,10],[15,17],[6,14],[-10,16],[-36,9],[-13,8],[-15,20],[-18,19],[-7,45],[-13,28],[-9,9],[-27,13],[-32,29]],[[9088,2721],[-6,-11],[7,-7],[0,-13],[30,7],[-4,-22],[-8,5],[-4,-14],[16,3],[0,-13],[21,-1],[5,11],[9,-7],[-5,-8],[15,-2],[-1,13],[9,-6],[0,-16],[21,0],[-6,-17],[-17,-5],[-4,-13],[-6,-2],[16,-8],[14,-11],[3,13],[14,-10],[-6,-15],[13,1],[9,17],[13,-2],[3,-13],[8,-5],[8,9],[11,-8],[5,9],[-11,3],[6,10],[15,-9],[10,18],[14,0],[-5,-11],[6,-11],[11,0],[0,-9],[-10,0],[14,-12],[-16,-3],[15,-12],[0,-7],[-12,1],[-3,-10],[14,-17],[15,-4],[18,4],[17,-1],[4,12],[16,-15],[-17,-11],[13,-11]],[[9385,2485],[3,-4],[-7,-19],[-24,-9],[13,-16],[-4,-16],[18,-8],[-5,-8],[-10,8],[-5,-5],[14,-13],[0,-20],[-11,9],[-3,-6],[10,-29],[13,3],[6,-16],[-18,-2],[-4,-5],[10,-17],[-5,-12],[8,-16],[-22,-9],[-8,-15],[-12,0],[-9,12],[-16,-11],[-14,6],[0,-11],[-11,-7],[3,-26],[10,-41],[9,6],[14,-5],[0,-11],[13,3],[-3,10],[8,10],[15,-1],[-13,7],[1,7],[33,14],[-6,-13],[16,2],[2,-23],[10,-2],[-15,-12],[-2,-8],[14,-2],[2,-7],[15,-4],[2,-9],[19,-2],[11,-5],[11,5],[-2,-16],[10,-2],[11,5],[-4,-13],[11,0],[9,-7],[-8,-4],[17,-4],[-3,-8],[10,-3],[3,-9],[5,9],[10,2],[5,-9],[19,-3],[3,-6],[15,6],[6,-11],[-12,-15],[15,-15],[-9,-9],[1,-8],[-12,-16],[20,-2],[6,-12],[11,9],[12,-5],[8,2],[12,-4],[-10,10],[4,8],[13,-2],[4,8],[6,-11],[10,7],[11,-11],[5,-14],[-12,-7],[15,-3],[-7,-4],[5,-15],[-14,-9],[6,-10],[14,-4],[15,6],[1,-11],[-16,-25],[10,-1],[-6,-12],[-18,7],[-15,-10],[-13,3],[-8,-10],[4,-24],[-20,-1],[-7,15],[-13,-8],[2,-6],[-11,-3],[-12,4],[1,-16],[-7,5],[-15,-4],[-6,10],[-27,4],[-14,-11],[-14,-2],[0,-26],[-10,-3],[-16,-18],[-12,7],[-11,-5],[-11,-13],[-11,-4],[-17,3],[-22,9],[-13,-6],[2,-12],[-24,1],[-10,-7],[13,-12],[-14,-2],[-15,-15],[10,-23],[-11,-14],[1,-12],[-17,-13],[1,-15],[10,0],[-3,-17],[10,-3],[-12,-12],[-6,2],[-12,-9],[11,-2],[-10,-12],[-8,-4],[-9,9],[-11,-5],[-9,3],[-13,-4],[-15,5],[-5,-16],[-8,1],[-47,-8],[-14,-23],[-7,1],[1,-20],[-9,-6],[-33,-3],[-37,16],[-17,1],[-2,-8],[-18,5],[0,-10],[-15,7],[-9,-5],[5,-8],[-5,-8],[8,-13],[17,-18],[4,-19],[-43,-44],[-6,-12],[-3,-31],[-16,-32],[-10,-7],[3,-8],[-15,-37],[-7,-2],[-5,-16],[-19,-36],[-14,-33],[-18,-18],[3,-17],[-15,-15],[-17,4],[-15,-2],[-14,5],[-27,3],[-36,-2],[-20,6],[-26,-15],[-30,-7],[-108,-43]],[[1292,6924],[-13,8],[-12,-2],[2,13],[15,24],[-10,-2],[-1,8],[12,4],[-9,12],[23,3],[-3,8],[12,0],[-7,8],[5,9],[-14,-7],[-7,9],[11,5],[3,14],[-10,-6],[-5,13],[9,9],[1,10],[13,-8],[3,16],[-11,14],[12,5],[-1,7],[-16,0],[0,14],[8,5],[-14,6],[1,6],[19,-2],[1,8],[-9,6],[7,9],[-7,6],[-14,-15],[-6,4],[8,12],[-12,13],[7,5],[-16,12],[26,8],[5,15],[31,1],[-13,17],[-16,2],[-1,9],[18,7],[10,9],[23,5],[-10,18],[-16,-4],[-6,9],[8,13],[-11,2],[-14,-8],[-6,12],[12,4],[31,-4],[-6,16],[-2,21],[-11,21],[-3,19],[-20,26],[-10,32]],[[9751,3857],[11,-7],[14,-20],[-1,-13],[13,-5],[11,-12],[11,-28],[17,-17],[-2,-11],[15,-22],[15,3],[24,-3],[-1,-15],[8,-16],[35,-22],[-1,-23],[-10,-37],[18,-1],[6,-14],[21,-10],[2,-12],[15,3],[27,-15],[-3,-14],[-24,-11],[-13,-11],[-19,-22],[-13,-31],[-15,-20],[-63,-68],[-35,-52],[-47,-90],[-3,-34],[-6,-13],[-18,-21],[-18,-13],[-65,-34],[-17,-20],[-10,-26],[-7,-68],[1,-35],[4,-54],[-21,-68],[17,-23],[20,-4],[36,-12],[33,-22],[30,-4],[34,-8],[-46,-20],[-11,-13],[-26,-25],[-14,-5],[-25,-29],[-29,-28],[20,-3],[0,-8],[-14,-49],[2,-21],[-17,4],[-12,-10],[-48,-13],[-20,-3],[-5,-12],[-9,-4],[-3,-13],[-14,-9],[-7,5],[-26,-12],[-15,2],[-9,7],[-19,-2],[-13,12],[-14,-14],[2,-8],[-20,-26]],[[6518,635],[-32,-20],[-40,-29],[-8,-25],[-16,-17],[-31,-8],[-24,-9],[-40,-35],[-36,-13],[-29,-5],[-20,-9],[-22,1],[-37,13],[-15,-5],[-8,-49],[-23,-63],[-18,-26],[-16,-15],[-35,-22],[-12,-2],[-13,20],[-31,22],[-14,21],[-21,3],[-18,-5],[-9,-10],[-2,-11],[1,-32],[-11,-30],[-2,-29],[7,-19],[1,-21],[-31,-42],[-16,-31],[0,-25],[28,-45],[1,-11],[-14,-19],[-13,-7],[-32,-9],[-22,-14],[-11,-3],[-35,3],[-14,17],[-2,18],[6,56],[-6,20],[-11,8],[-19,7],[-31,-4],[-42,2],[-13,8],[-4,18],[-10,15],[-18,8],[-38,29],[-40,21],[-62,26],[-14,11],[-22,23],[-18,8],[-22,2],[-10,5],[-29,35],[-16,0],[-18,-6],[-16,6],[-17,18],[-11,3],[-20,-6],[-12,0],[-8,8],[3,45],[-8,33],[-33,20],[-22,6],[-36,-2],[-21,8],[-32,20],[-26,10],[-26,4],[-40,-2],[-24,15],[-24,45],[-32,17],[-5,10],[10,16],[-10,14],[-1,9],[8,15],[4,18],[-4,33],[-13,17],[-31,2],[-32,-4],[-16,0],[-12,8],[1,32],[-20,28],[-10,5],[-65,6],[-25,5],[-19,7],[-12,10],[3,28],[-4,16],[-17,0],[-19,-6],[-21,2],[-27,15],[-38,6],[-21,11],[-2,4],[21,26],[8,14],[0,12],[-7,21],[-20,40],[-47,22],[-14,11],[-7,16],[-5,31],[-1,30],[3,14],[-6,24],[-11,19],[3,26],[-3,40],[-12,36],[-10,21],[-1,14],[23,28],[9,34],[6,10],[26,37],[-6,7],[-55,28],[-63,33],[-7,0],[-41,-21],[-52,35],[-55,33],[-14,0],[-44,-15],[-31,0]]],"transform":{"scale":[0.00011843581058105918,0.00013168194319432226],"translate":[103.25082894300004,16.772255822000034]},"objects":{"Sakon Nakhon":{"type":"GeometryCollection","geometries":[{"arcs":[[0,1,2,3,4,5,6,7]],"type":"Polygon","properties":{"Shape_Leng":1.87571595136,"Shape_Area":0.0792581992824,"ADM2_EN":"Mueang Sakon Nakhon","ADM2_TH":"เมืองสกลนคร","ADM2_PCODE":"TH4701","ADM1_EN":"Sakon Nakhon","ADM1_TH":"สกลนคร","ADM1_PCODE":"TH47","ADM0_EN":"Thailand","ADM0_TH":"ประเทศไทย","ADM0_PCODE":"TH"}},{"arcs":[[-1,8,9]],"type":"Polygon","properties":{"Shape_Leng":1.44441934042,"Shape_Area":0.0393450176871,"ADM2_EN":"Kusuman","ADM2_TH":"กุสุมาลย์","ADM2_PCODE":"TH4702","ADM1_EN":"Sakon Nakhon","ADM1_TH":"สกลนคร","ADM1_PCODE":"TH47","ADM0_EN":"Thailand","ADM0_TH":"ประเทศไทย","ADM0_PCODE":"TH"}},{"arcs":[[-6,10,11,12,13]],"type":"Polygon","properties":{"Shape_Leng":1.32461572298,"Shape_Area":0.038075823621,"ADM2_EN":"Kut Bak","ADM2_TH":"กุดบาก","ADM2_PCODE":"TH4703","ADM1_EN":"Sakon Nakhon","ADM1_TH":"สกลนคร","ADM1_PCODE":"TH47","ADM0_EN":"Thailand","ADM0_TH":"ประเทศไทย","ADM0_PCODE":"TH"}},{"arcs":[[-7,-14,14,15,16,17,18,19]],"type":"Polygon","properties":{"Shape_Leng":1.57536031456,"Shape_Area":0.0634774476069,"ADM2_EN":"Phanna Nikhom","ADM2_TH":"พรรณานิคม","ADM2_PCODE":"TH4704","ADM1_EN":"Sakon Nakhon","ADM1_TH":"สกลนคร","ADM1_PCODE":"TH47","ADM0_EN":"Thailand","ADM0_TH":"ประเทศไทย","ADM0_PCODE":"TH"}},{"arcs":[[-17,20,21,22]],"type":"Polygon","properties":{"Shape_Leng":1.13738790964,"Shape_Area":0.0223549465612,"ADM2_EN":"Phang Khon","ADM2_TH":"พังโคน","ADM2_PCODE":"TH4705","ADM1_EN":"Sakon Nakhon","ADM1_TH":"สกลนคร","ADM1_PCODE":"TH47","ADM0_EN":"Thailand","ADM0_TH":"ประเทศไทย","ADM0_PCODE":"TH"}},{"arcs":[[-16,23,24,25,26,-21]],"type":"Polygon","properties":{"Shape_Leng":1.08301777797,"Shape_Area":0.0352666073863,"ADM2_EN":"Waritchaphum","ADM2_TH":"วาริชภูมิ","ADM2_PCODE":"TH4706","ADM1_EN":"Sakon Nakhon","ADM1_TH":"สกลนคร","ADM1_PCODE":"TH47","ADM0_EN":"Thailand","ADM0_TH":"ประเทศไทย","ADM0_PCODE":"TH"}},{"arcs":[[-13,27,-24,-15]],"type":"Polygon","properties":{"Shape_Leng":0.977392742665,"Shape_Area":0.0131516712277,"ADM2_EN":"Nikhom Nam Un","ADM2_TH":"นิคมน้ำอูน","ADM2_PCODE":"TH4707","ADM1_EN":"Sakon Nakhon","ADM1_TH":"สกลนคร","ADM1_PCODE":"TH47","ADM0_EN":"Thailand","ADM0_TH":"ประเทศไทย","ADM0_PCODE":"TH"}},{"arcs":[[-18,-23,28,29,30,31,32]],"type":"Polygon","properties":{"Shape_Leng":2.12487335429,"Shape_Area":0.0926780767566,"ADM2_EN":"Wanon Niwat","ADM2_TH":"วานรนิวาส","ADM2_PCODE":"TH4708","ADM1_EN":"Sakon Nakhon","ADM1_TH":"สกลนคร","ADM1_PCODE":"TH47","ADM0_EN":"Thailand","ADM0_TH":"ประเทศไทย","ADM0_PCODE":"TH"}},{"arcs":[[-32,33,34,35]],"type":"Polygon","properties":{"Shape_Leng":1.39988071781,"Shape_Area":0.0326151972596,"ADM2_EN":"Kham Ta Kla","ADM2_TH":"คำตากล้า","ADM2_PCODE":"TH4709","ADM1_EN":"Sakon Nakhon","ADM1_TH":"สกลนคร","ADM1_PCODE":"TH47","ADM0_EN":"Thailand","ADM0_TH":"ประเทศไทย","ADM0_PCODE":"TH"}},{"arcs":[[-31,36,37,-34]],"type":"Polygon","properties":{"Shape_Leng":1.99086865739,"Shape_Area":0.064647870168,"ADM2_EN":"Ban Muang","ADM2_TH":"บ้านม่วง","ADM2_PCODE":"TH4710","ADM1_EN":"Sakon Nakhon","ADM1_TH":"สกลนคร","ADM1_PCODE":"TH47","ADM0_EN":"Thailand","ADM0_TH":"ประเทศไทย","ADM0_PCODE":"TH"}},{"arcs":[[-19,-33,-36,38]],"type":"Polygon","properties":{"Shape_Leng":1.67537542456,"Shape_Area":0.0483380732865,"ADM2_EN":"Akat Amnuai","ADM2_TH":"อากาศอำนวย","ADM2_PCODE":"TH4711","ADM1_EN":"Sakon Nakhon","ADM1_TH":"สกลนคร","ADM1_PCODE":"TH47","ADM0_EN":"Thailand","ADM0_TH":"ประเทศไทย","ADM0_PCODE":"TH"}},{"arcs":[[-22,-27,39,40,41,-29]],"type":"Polygon","properties":{"Shape_Leng":2.69534361304,"Shape_Area":0.0800847298527,"ADM2_EN":"Sawang Daen Din","ADM2_TH":"สว่างแดนดิน","ADM2_PCODE":"TH4712","ADM1_EN":"Sakon Nakhon","ADM1_TH":"สกลนคร","ADM1_PCODE":"TH47","ADM0_EN":"Thailand","ADM0_TH":"ประเทศไทย","ADM0_PCODE":"TH"}},{"arcs":[[-26,42,-40]],"type":"Polygon","properties":{"Shape_Leng":1.13931733331,"Shape_Area":0.028345072242,"ADM2_EN":"Song Dao","ADM2_TH":"ส่องดาว","ADM2_PCODE":"TH4713","ADM1_EN":"Sakon Nakhon","ADM1_TH":"สกลนคร","ADM1_PCODE":"TH47","ADM0_EN":"Thailand","ADM0_TH":"ประเทศไทย","ADM0_PCODE":"TH"}},{"arcs":[[-4,43,44,45]],"type":"Polygon","properties":{"Shape_Leng":1.06301081338,"Shape_Area":0.0251551170791,"ADM2_EN":"Tao Ngoi","ADM2_TH":"เต่างอย","ADM2_PCODE":"TH4714","ADM1_EN":"Sakon Nakhon","ADM1_TH":"สกลนคร","ADM1_PCODE":"TH47","ADM0_EN":"Thailand","ADM0_TH":"ประเทศไทย","ADM0_PCODE":"TH"}},{"arcs":[[-3,46,47,-44]],"type":"Polygon","properties":{"Shape_Leng":1.04657900141,"Shape_Area":0.0214923409725,"ADM2_EN":"Khok Si Suphan","ADM2_TH":"โคกศรีสุพรรณ","ADM2_PCODE":"TH4715","ADM1_EN":"Sakon Nakhon","ADM1_TH":"สกลนคร","ADM1_PCODE":"TH47","ADM0_EN":"Thailand","ADM0_TH":"ประเทศไทย","ADM0_PCODE":"TH"}},{"arcs":[[-30,-42,48,-37]],"type":"Polygon","properties":{"Shape_Leng":1.40970739369,"Shape_Area":0.0351973564287,"ADM2_EN":"Charoen Sin","ADM2_TH":"เจริญศิลป์","ADM2_PCODE":"TH4716","ADM1_EN":"Sakon Nakhon","ADM1_TH":"สกลนคร","ADM1_PCODE":"TH47","ADM0_EN":"Thailand","ADM0_TH":"ประเทศไทย","ADM0_PCODE":"TH"}},{"arcs":[[-2,-10,49,-47]],"type":"Polygon","properties":{"Shape_Leng":1.12429991621,"Shape_Area":0.0306449376865,"ADM2_EN":"Phon Na Kaeo","ADM2_TH":"โพนนาแก้ว","ADM2_PCODE":"TH4717","ADM1_EN":"Sakon Nakhon","ADM1_TH":"สกลนคร","ADM1_PCODE":"TH47","ADM0_EN":"Thailand","ADM0_TH":"ประเทศไทย","ADM0_PCODE":"TH"}},{"arcs":[[-5,-46,50,-11]],"type":"Polygon","properties":{"Shape_Leng":1.2309987966,"Shape_Area":0.0599616830176,"ADM2_EN":"Phu Phan","ADM2_TH":"ภูพาน","ADM2_PCODE":"TH4718","ADM1_EN":"Sakon Nakhon","ADM1_TH":"สกลนคร","ADM1_PCODE":"TH47","ADM0_EN":"Thailand","ADM0_TH":"ประเทศไทย","ADM0_PCODE":"TH"}}]}}}