{"type":"Topology","arcs":[[[3857,7301],[-45,-228],[-10,-1],[-147,-412],[-101,-397],[230,-254],[118,-105],[144,-88],[59,-16],[81,-60],[26,-78],[141,-22],[-24,-123],[-32,-267],[88,-202],[24,-302],[39,-22],[6,-170],[41,-76],[80,-61],[59,61],[62,-67],[63,-12],[117,95],[25,-84],[-16,-81],[26,-163],[-7,-83],[13,-143],[65,-464],[-12,-121],[14,-152],[64,-262],[18,-182],[-78,-284],[-58,-439],[-54,-19],[0,-114],[-41,-46],[349,-111],[708,-306],[49,-73],[55,43],[162,-53],[-4,118],[33,314]],[[6187,1789],[214,-52],[14,-87],[45,-121],[70,32],[20,-112],[39,-26],[-70,-96],[39,-79],[-22,-34],[-56,-339],[-14,-332]],[[6466,543],[-73,-60],[-252,104],[-156,87],[-259,121],[-241,104],[-143,-19],[-273,67],[9,113],[-87,48],[-44,-17],[-128,43],[-4,-25],[-160,52],[-8,-30],[-90,8],[-95,100],[-91,71],[-85,36],[-249,217],[-113,22],[-93,48],[-37,-9],[-90,37],[-110,80],[-162,257],[-13,113],[-84,140],[-112,254],[-280,4]],[[2943,2509],[-32,129],[-96,162],[-117,146],[-96,204],[-56,229],[-11,142],[5,223],[34,178],[64,227],[161,503],[36,151],[18,216],[-9,162],[-38,188],[-51,77],[-71,44],[-256,26],[-159,59],[-100,93],[-111,166]],[[2058,5834],[28,108],[36,-6],[59,87],[57,235],[70,213],[85,148],[77,-149],[14,56],[68,-40],[88,-156],[104,-66],[93,610],[30,266],[-25,586]],[[2842,7726],[85,-69],[3,-61],[73,-52],[0,-87],[45,-36],[14,79],[39,3],[61,-53],[-10,-54],[157,-135],[29,141],[38,-57],[213,-162],[-8,-56],[112,-41],[86,256],[78,-41]],[[6187,1789],[18,72],[-53,173],[15,174],[51,147],[7,172],[29,74],[32,201],[22,320]],[[6308,3122],[159,-91],[12,-97],[91,13],[28,88],[58,-126],[115,766],[51,-148],[92,-60],[31,146],[83,210],[100,-81],[102,-117],[42,-22],[105,1],[31,53],[8,118],[-25,116],[-69,-49],[-54,32],[-5,113],[63,5],[143,174],[-3,225],[49,285],[9,107],[29,104],[47,76],[41,147],[13,145],[-39,212],[50,212],[-46,102],[-40,7],[-29,128],[36,145],[-8,63],[23,94],[7,128],[70,56],[64,304],[5,78],[86,-36],[23,197],[-84,86],[2,75],[-28,150],[37,127],[18,167],[63,143],[26,165],[36,86],[54,46],[8,137],[-40,267],[23,129],[16,279]],[[7987,8802],[27,307],[313,-292],[317,-230],[465,-367],[735,-554],[-55,-158],[-8,-147],[17,-263],[20,-82],[82,-58],[99,-38],[-64,-401],[-35,-132],[-269,-547],[-169,-427],[-123,-352],[-60,-107],[-55,-155],[-62,39],[-49,-10],[-75,-88],[-71,16],[-60,-30],[-9,-208],[6,-272],[103,-93],[34,-87],[16,-222],[-62,-154],[-12,-86],[-41,-87],[-95,-377],[-131,205],[-138,234],[-13,-47],[1,-236],[-64,-45],[-36,-201],[-91,-157],[-24,-263],[-53,-318],[-18,-213],[-40,-170],[-6,-88],[36,-121],[-34,-171],[-14,-140],[19,-204],[4,-258],[-6,-284],[-16,-176],[-39,-101],[-49,45],[-7,-38],[-69,52],[-56,-213],[-72,-30],[-121,-19],[-26,-183],[-12,55],[-157,64],[-34,44],[-30,-37],[-67,18],[-198,132],[-92,82],[-69,-18],[-34,83],[-67,-8],[-90,-56],[-117,40],[-150,188],[-137,-1],[-64,-43]],[[3857,7301],[94,-48],[23,339],[55,346],[31,140],[86,-86],[23,63],[113,-147],[-8,-40],[177,-158],[57,-86],[188,-132],[190,-79],[10,165],[22,169],[75,289],[31,317],[19,-8],[17,260],[49,270],[2,162],[22,252],[25,4],[-46,647],[118,5],[2,54],[273,-17],[4,-41],[276,5],[104,-19],[268,2],[47,-52],[79,11],[30,33],[129,-14],[82,26]],[[6524,9933],[-44,-268],[54,-132],[32,-21],[-42,-101],[-101,-147],[-95,-330],[-63,-282],[-90,-278],[-39,-190],[82,-14],[72,-41],[178,89],[143,16],[54,52],[28,-260],[-32,-131],[59,-119],[-119,-350],[-36,-239],[-68,-149],[33,-4],[-44,-255],[-15,-146],[53,-18],[-13,-244],[39,-9],[0,-145],[-20,-110],[10,-197],[40,-226],[-31,-113],[-9,-133],[-21,-56],[-15,-235],[-47,-84],[-10,-214],[-88,56],[-34,-102],[-23,-147],[-33,-103],[9,-91],[-18,-132],[-32,-83],[-97,-888],[9,-144],[168,-93]],[[2058,5834],[-16,-85],[-311,-524],[-155,-216],[-44,282],[-58,-17]],[[1474,5274],[-13,157],[-76,159],[0,242],[-42,415],[74,269],[-22,122],[-35,68],[19,165],[-15,58],[32,40],[-15,236],[10,62],[13,333],[4,271],[56,48],[-1,103],[20,44],[-6,188],[43,60],[109,-205],[60,-86],[84,-68],[61,-14],[84,57],[89,156],[54,222],[20,360],[-23,487],[19,141],[48,104],[62,31],[60,-7],[196,-125],[173,-180],[69,-111],[63,-145],[32,-141],[8,-164],[-54,-294],[-135,-380],[51,-63],[192,-163]],[[2943,2509],[-248,11],[70,-217],[-26,-176],[-38,-156],[-51,-142],[-118,-230],[-68,-96],[-59,48],[-35,-68],[-117,-48],[-43,22],[-189,-101],[-50,41],[-9,-36],[-173,-38],[-73,-54],[-35,-129],[-31,7],[-17,151],[-16,-59],[-62,11],[-38,-73],[-35,29],[-12,128],[-15,-84],[-34,54],[-7,-67],[-84,-70],[-114,22],[-61,-44],[-37,31],[-60,-60],[-166,-55],[-33,-127],[-31,17],[-10,98],[-121,-139],[-36,-5],[-1,58],[-110,-5],[-9,129],[-35,-74],[-53,-52],[-48,31],[-29,-94],[-70,-50],[-35,42],[-3,93],[-90,-22],[-43,470],[-74,891],[-61,780],[3,150],[41,1093],[0,182],[48,152],[56,306],[5,138],[42,149],[58,-29],[102,69],[56,-87],[-1,-97],[26,-129],[-5,-66],[53,-177],[78,46],[-10,222],[73,158],[15,-56],[-15,-97],[74,-66],[28,-219],[117,-122],[56,-142],[95,90],[47,121],[14,155],[92,107],[144,-13],[42,227],[140,107]],[[6524,9933],[88,0],[127,-90],[280,-231],[380,-298],[222,-207],[12,2],[354,-307]]],"transform":{"scale":[0.00005194738063806713,0.000023923545354538866],"translate":[100.44446201100004,13.478977511000037]},"objects":{"Samut Prakan":{"type":"GeometryCollection","geometries":[{"arcs":[[0,1,2,3,4,5]],"type":"Polygon","properties":{"Shape_Leng":0.822417003314,"Shape_Area":0.0143648070232,"ADM2_EN":"Mueang Samut Prakan","ADM2_TH":"เมืองสมุทรปราการ","ADM2_PCODE":"TH1101","ADM1_EN":"Samut Prakan","ADM1_TH":"สมุทรปราการ","ADM1_PCODE":"TH11","ADM0_EN":"Thailand","ADM0_TH":"ประเทศไทย","ADM0_PCODE":"TH"}},{"arcs":[[-2,6,7,8]],"type":"Polygon","properties":{"Shape_Leng":0.814470526889,"Shape_Area":0.0189856693983,"ADM2_EN":"Bang Bo","ADM2_TH":"บางบ่อ","ADM2_PCODE":"TH1102","ADM1_EN":"Samut Prakan","ADM1_TH":"สมุทรปราการ","ADM1_PCODE":"TH11","ADM0_EN":"Thailand","ADM0_TH":"ประเทศไทย","ADM0_PCODE":"TH"}},{"arcs":[[-1,9,10,-7]],"type":"Polygon","properties":{"Shape_Leng":0.779235211484,"Shape_Area":0.0183161330538,"ADM2_EN":"Bang Phli","ADM2_TH":"บางพลี","ADM2_PCODE":"TH1103","ADM1_EN":"Samut Prakan","ADM1_TH":"สมุทรปราการ","ADM1_PCODE":"TH11","ADM0_EN":"Thailand","ADM0_TH":"ประเทศไทย","ADM0_PCODE":"TH"}},{"arcs":[[-5,11,12]],"type":"Polygon","properties":{"Shape_Leng":0.35942403483,"Shape_Area":0.0049271825033,"ADM2_EN":"Phra Pradaeng","ADM2_TH":"พระประแดง","ADM2_PCODE":"TH1104","ADM1_EN":"Samut Prakan","ADM1_TH":"สมุทรปราการ","ADM1_PCODE":"TH11","ADM0_EN":"Thailand","ADM0_TH":"ประเทศไทย","ADM0_PCODE":"TH"}},{"arcs":[[-4,13,-12]],"type":"Polygon","properties":{"Shape_Leng":0.591151178396,"Shape_Area":0.013061732484,"ADM2_EN":"Phra Samut Chedi","ADM2_TH":"พระสมุทรเจดีย์","ADM2_PCODE":"TH1105","ADM1_EN":"Samut Prakan","ADM1_TH":"สมุทรปราการ","ADM1_PCODE":"TH11","ADM0_EN":"Thailand","ADM0_TH":"ประเทศไทย","ADM0_PCODE":"TH"}},{"arcs":[[-8,-11,14]],"type":"Polygon","properties":{"Shape_Leng":0.574413537222,"Shape_Area":0.00960646441401,"ADM2_EN":"Bang Sao Thong","ADM2_TH":"บางเสาธง","ADM2_PCODE":"TH1106","ADM1_EN":"Samut Prakan","ADM1_TH":"สมุทรปราการ","ADM1_PCODE":"TH11","ADM0_EN":"Thailand","ADM0_TH":"ประเทศไทย","ADM0_PCODE":"TH"}}]}}}