{"type":"Topology","arcs":[[[673,2019],[360,181],[117,80],[267,85],[58,32],[539,202],[187,-93],[19,111],[88,35],[-24,99],[83,190],[53,38],[35,168],[119,-103],[186,242],[1,26],[201,164],[144,146],[71,20],[40,106],[81,-37],[94,90],[81,113],[-27,28],[40,126],[-34,51],[-7,120],[-45,-15],[-38,71],[22,53],[-75,43],[-21,-20],[-28,133],[-70,153],[78,24],[147,-29],[55,28],[-41,368],[619,-29],[-52,33],[-53,149],[-122,4],[-72,59],[11,28],[93,-1],[76,38],[43,80],[36,-42],[-20,-63],[64,-5],[40,52],[33,-68],[61,26],[9,42],[88,-9],[70,-35],[54,69],[-2,53],[47,18],[14,81],[-52,-15],[-7,57],[98,28],[162,-325],[35,146],[124,-2],[141,217],[40,33],[-9,53],[106,190],[10,73]],[[5114,5983],[2,34],[99,-6],[227,-68],[93,-17],[128,41],[56,-1],[24,127],[73,-35],[71,38],[181,27],[6,-145],[126,20],[9,142],[77,-6],[-10,77],[82,6],[7,39],[70,-3],[49,258],[91,-9],[12,79],[36,-28],[116,3],[115,-22],[252,13],[70,-57],[89,-3],[29,138],[81,-1],[21,50],[100,12],[61,72],[-10,96],[52,-13],[100,94],[53,91],[113,103],[102,9],[257,47]],[[8224,7185],[104,13],[32,-145],[79,26],[9,-152],[149,37],[27,-9],[31,-115],[36,-2],[20,-85],[55,-89],[6,-72],[119,-101],[17,-444],[32,-144],[17,-203],[-15,-55],[101,-138],[48,-24],[-4,-63],[37,-61],[1,-141],[-18,-80],[41,-44],[7,-123],[51,-55],[18,-97],[48,-28],[-22,-41],[17,-144],[71,-167],[3,-73],[42,-87],[87,-25],[105,27],[24,51],[56,-22],[134,35],[17,59],[69,-2],[-11,-197],[43,-29],[73,-110],[19,-62],[-58,-170],[-80,-57],[-15,-86],[-197,-2],[13,-1121],[51,-295],[-121,-17],[-40,17],[-150,-53],[-17,-25],[-94,-2],[-37,67],[-68,-9],[-92,-55],[-57,39],[-55,-95],[-80,-5],[-21,45],[-120,-3],[-112,-27],[-71,-63],[-121,14],[-104,-44],[-263,-19],[-209,10],[-77,14],[-76,57],[-15,-77],[-85,60],[-71,-7],[-174,73],[-115,29],[-183,108],[-59,18],[-465,318],[-75,74],[-173,-51],[-45,-79],[-26,-111],[-29,-207],[-25,-85],[-104,-180],[-150,-160],[-124,-83],[-235,-118],[-145,-37],[-98,2],[-48,-32],[-130,2],[-70,-127],[-54,57],[-59,-37],[23,-82],[-132,-7],[-46,-50],[-53,14],[-130,-47],[-40,-71],[-17,67],[-99,-29],[4,-43],[-55,-18],[-30,33],[-108,-33],[-29,-59],[-43,38],[-28,-48],[-94,11],[-12,-65],[-249,-87],[-95,0],[-84,-54],[-7,41],[-51,-56],[-195,-53],[-14,-26],[-141,-43],[-2,23],[-133,-72],[-52,16],[-13,-47],[-56,-17],[-425,-185],[-149,-58],[-14,35],[-155,-109],[-121,-52],[-96,7],[-55,-73],[-289,-127],[-44,26],[-75,-65],[-130,-43],[-113,-61],[-26,117],[19,275],[-132,645],[-512,982]],[[5114,5983],[4,381],[-15,136],[-56,77],[-221,-55],[-47,13],[-40,108],[15,135],[34,33],[89,-6],[103,-82],[112,-16],[67,32],[46,59],[36,107],[7,233],[-11,115],[-60,66],[-61,-25],[-174,-160],[-60,-20],[-107,73],[-66,117],[-122,-51],[-31,29],[27,263],[-177,-6],[8,99],[-242,121],[-49,45],[4,45],[-141,61],[-80,76],[-117,142],[-34,85],[-121,109],[95,134],[-52,69]],[[3677,8525],[49,70],[42,-20],[35,86],[18,111],[120,32],[36,-111],[151,-389],[27,29],[103,-25],[52,76],[179,66],[164,215],[55,-31],[12,-72],[297,-11],[68,-151],[10,-139],[348,237],[71,-173],[215,143],[59,-3],[46,62],[58,-36],[50,96],[-8,73],[49,24],[155,-75],[65,8],[103,84],[55,78],[31,153],[105,0],[116,49],[-21,95],[-59,6],[2,144],[36,-7],[10,85],[-36,6],[12,119],[47,17],[-26,117],[-50,3],[3,75],[36,26],[99,8],[27,90],[80,26],[37,-60],[60,33],[28,-118],[151,33],[-82,156],[163,-1],[-16,142],[59,23],[6,-103],[94,5],[70,39],[11,-97],[111,27],[93,-69],[4,-51],[226,118],[92,-146],[52,-124],[-93,-52],[-24,62],[-47,-20],[30,-136],[-30,-141],[1,-142],[-42,-8],[44,-378],[36,-162],[-5,-76],[63,-142],[36,13],[32,-260],[34,-99],[29,-192],[-38,-104],[-10,-92],[144,-10],[45,22],[-13,-206],[-42,1],[20,-150],[44,11],[36,-44],[-2,-91],[44,-17]],[[673,2019],[-112,217],[-57,158],[-34,-5],[-56,62],[-23,116],[13,44],[-83,12],[-49,46],[-74,-7],[-144,118],[-3,154],[-51,168],[32,73],[86,16],[16,127],[-44,33],[-32,105],[59,85],[66,21],[35,54],[170,97],[38,105],[18,161],[-8,328],[-32,110],[87,57],[-122,400],[-43,205],[-58,169],[78,21],[-33,172],[-5,166],[99,17],[11,36],[-45,95],[-3,68],[-74,154],[-132,146],[-51,131],[75,49],[22,-49],[50,36],[23,-42],[133,87],[87,25],[60,100],[129,8],[-15,100],[15,130],[-35,72],[43,29],[86,122],[25,83],[-4,144],[-29,58],[-12,206],[103,315],[-15,118],[114,-7],[64,22],[77,-16],[5,-40],[135,5],[28,-56],[81,8],[102,-18],[61,-215],[170,77],[38,-91],[126,59],[68,-76],[80,-20],[156,80],[258,73],[-109,419],[151,23],[-53,183],[51,20],[-61,200],[282,86],[6,-11],[242,57],[364,38],[8,-120],[182,-129],[58,66],[139,63]]],"transform":{"scale":[0.00003934491449144636,0.000029947151315129968],"translate":[100.02667992900008,13.425330343000041]},"objects":{"Samut Sakhon":{"type":"GeometryCollection","geometries":[{"arcs":[[0,1,2]],"type":"Polygon","properties":{"Shape_Leng":1.26713616706,"Shape_Area":0.0374804603379,"ADM2_EN":"Mueang Samut Sakhon","ADM2_TH":"เมืองสมุทรสาคร","ADM2_PCODE":"TH7401","ADM1_EN":"Samut Sakhon","ADM1_TH":"สมุทรสาคร","ADM1_PCODE":"TH74","ADM0_EN":"Thailand","ADM0_TH":"ประเทศไทย","ADM0_PCODE":"TH"}},{"arcs":[[-2,3,4]],"type":"Polygon","properties":{"Shape_Leng":0.725743183645,"Shape_Area":0.0107569215908,"ADM2_EN":"Krathum Baen","ADM2_TH":"กระทุ่มแบน","ADM2_PCODE":"TH7402","ADM1_EN":"Samut Sakhon","ADM1_TH":"สมุทรสาคร","ADM1_PCODE":"TH74","ADM0_EN":"Thailand","ADM0_TH":"ประเทศไทย","ADM0_PCODE":"TH"}},{"arcs":[[-1,5,-4]],"type":"Polygon","properties":{"Shape_Leng":0.937976503114,"Shape_Area":0.0233224504449,"ADM2_EN":"Ban Phaeo","ADM2_TH":"บ้านแพ้ว","ADM2_PCODE":"TH7403","ADM1_EN":"Samut Sakhon","ADM1_TH":"สมุทรสาคร","ADM1_PCODE":"TH74","ADM0_EN":"Thailand","ADM0_TH":"ประเทศไทย","ADM0_PCODE":"TH"}}]}}}