{"type":"Topology","arcs":[[[8780,39],[-22,11],[-2,66],[11,38],[19,-75],[-6,-40]],[[8512,291],[-16,13],[27,72],[24,-8],[-23,-26],[-12,-51]],[[8895,436],[-5,-53],[-17,18],[5,51],[17,-16]],[[8546,469],[24,90],[21,49],[19,8],[14,-72],[-78,-75]],[[1694,822],[-20,21],[29,-3],[-9,-18]],[[1504,808],[-7,-34],[-31,-43],[-33,2],[-31,59],[-21,14],[-32,-19],[-86,-22],[-18,-13],[-34,17],[52,77],[41,18],[57,73],[53,44],[59,-16],[19,-16],[9,-38],[-6,-40],[9,-63]],[[244,1074],[-28,-48],[1,36],[27,12]],[[5165,1294],[-24,-60],[-40,5],[8,44],[24,-8],[32,19]],[[5053,1334],[5,-118],[-14,14],[-25,70],[11,31],[23,3]],[[67,1485],[27,-8],[30,-67],[60,-30],[12,-51],[39,-38],[17,17],[34,-19],[-6,-41],[-75,-48],[-30,30],[-45,17],[-21,43],[-42,0],[-14,-17],[-41,45],[-11,48],[-1,66],[18,27],[22,65],[27,-39]],[[995,1564],[18,-3],[11,-33],[-16,-21],[-62,36],[49,21]],[[5185,1616],[-9,-31],[-11,29],[20,2]],[[7759,1771],[22,4],[-16,-47],[-16,-12],[-5,37],[15,18]],[[1835,1718],[-33,-1],[-7,59],[-43,103],[12,29],[36,-35],[49,-94],[-14,-61]],[[1302,1847],[38,-29],[41,18],[48,-47],[21,-9],[58,37],[15,-23],[-28,-74],[33,-28],[7,18],[74,-63],[-24,-9],[-15,-48],[2,-96],[15,-88],[-2,-119],[-45,-104],[-46,-73],[-29,9],[-44,-29],[-39,14],[-25,-16],[-24,16],[-76,2],[-10,-22],[-28,13],[8,90],[14,44],[-39,223],[-17,80],[-41,76],[-17,80],[2,101],[-7,17],[3,77],[14,82],[22,9],[74,-62],[43,-26],[24,-41]],[[2811,1981],[28,-20],[-10,-54],[-18,-30],[-5,-45],[-58,-51],[-33,-76],[-10,21],[16,26],[15,82],[40,57],[3,65],[32,25]],[[897,2036],[19,-36],[41,-42],[20,-72],[7,-126],[-17,-56],[-38,-15],[-35,6],[-49,-17],[-8,-15],[-79,-34],[-12,-29],[-57,-19],[1,-33],[-60,-58],[-32,-14],[-22,35],[-64,0],[-19,-9],[-33,35],[-12,-47],[-10,42],[-45,41],[-31,-8],[-8,21],[-50,-28],[-1,-35],[-30,-19],[-62,17],[-45,-4],[-47,43],[-18,102],[22,4],[46,-28],[8,-45],[40,15],[20,-28],[31,18],[4,24],[-28,26],[5,38],[19,30],[68,57],[4,60],[25,20],[2,44],[-15,6],[6,60],[14,17],[22,-20],[8,28],[13,-31],[43,7],[21,-19],[40,34],[10,-28],[48,-2],[86,29],[22,30],[38,17],[6,-24],[41,-17],[38,49],[23,-4],[48,20],[18,-13]],[[2846,1995],[-35,17],[-9,41],[-21,36],[34,29],[16,-9],[18,-47],[-3,-67]],[[5118,2427],[14,-74],[-22,56],[8,18]],[[5022,2475],[-19,29],[12,50],[13,-48],[-6,-31]],[[5055,2765],[-18,33],[22,34],[-4,-67]],[[6378,2961],[-9,-48],[-15,43],[24,5]],[[7458,2913],[-4,8],[34,83],[-12,-62],[-18,-29]],[[5020,3156],[19,-53],[-14,-34],[-5,87]],[[6659,3167],[15,-39],[-30,-29],[-33,-7],[-17,-22],[-35,-8],[-32,-43],[-30,-74],[-24,-17],[0,98],[21,83],[14,22],[43,-5],[15,16],[48,14],[36,21],[9,-10]],[[6471,3159],[-12,34],[17,1],[-5,-35]],[[7066,3399],[11,-15],[-19,-29],[-18,22],[26,22]],[[6682,3379],[-5,-78],[-33,-61],[-26,36],[23,44],[2,51],[15,63],[24,-55]],[[6630,3476],[-19,-41],[-20,51],[15,19],[24,-29]],[[6481,3569],[-24,-59],[-44,-6],[6,43],[24,-1],[38,23]],[[6874,3666],[8,-24],[-54,-59],[-43,-34],[-35,24],[0,39],[40,28],[84,26]],[[4854,3701],[8,-54],[-15,-14],[-10,62],[17,6]],[[7078,3586],[39,-6],[20,-82],[-49,-93],[-26,22],[-3,42],[11,31],[-23,53],[-10,71],[43,60],[34,27],[-9,-28],[-46,-43],[3,-40],[16,-14]],[[6893,3738],[-35,1],[-23,22],[28,11],[65,-15],[-35,-19]],[[6804,3696],[-53,-1],[-16,48],[6,32],[131,-62],[-68,-17]],[[6231,3804],[60,4],[2,-21],[-95,-46],[-55,-41],[-28,55],[64,21],[42,36],[10,-8]],[[6554,3963],[63,-18],[23,-67],[5,-122],[39,-100],[-26,-41],[-75,28],[-84,-42],[-46,46],[11,78],[-5,28],[25,64],[0,58],[22,79],[48,9]],[[4767,3892],[-14,2],[-31,63],[0,22],[45,-87]],[[5173,4000],[23,-20],[-30,-36],[-10,55],[17,1]],[[4640,4027],[12,-37],[31,-22],[27,-50],[24,-99],[41,-53],[5,-88],[12,-53],[-3,-27],[25,-32],[17,-54],[21,10],[11,40],[12,-19],[26,12],[15,-43],[3,-89],[13,10],[39,-75],[-12,-13],[7,-42],[-12,-19],[-1,-53],[12,-70],[14,-138],[-13,-112],[-13,-13],[19,-59],[-25,-31],[26,-25],[-34,-3],[-7,-33],[7,-55],[-28,-29],[14,-156],[-18,-15],[33,-34],[18,-54],[35,-39],[11,-47],[35,51],[19,-121],[-9,-20],[15,-34],[12,-132],[-8,-120],[-7,-28],[-26,-20],[-1,-39],[23,-50],[1,-62],[44,-28],[3,-121],[-5,-54],[-39,-20],[3,-49],[-20,-22],[-3,-41],[19,-9],[-3,-33],[-39,-1],[-16,48],[-17,7],[-11,39],[-40,-20],[-25,57],[-28,-25],[-36,-92],[-27,22],[-10,-15],[21,-88],[27,-27],[-25,-9],[1,-53],[39,-50],[-63,13],[-17,-16],[-34,-98],[-22,-22],[-53,3],[-25,48],[-21,91],[-25,27],[-25,111],[-7,55],[-29,77],[8,44],[-4,79],[-42,91],[-29,22],[-45,118],[-34,45],[-46,-31],[-47,24],[-20,54],[-11,57],[-67,99],[-36,100],[-16,18],[-20,78],[2,73],[35,102],[42,38],[44,-9],[36,54],[9,77],[22,105],[24,179],[-16,8],[-24,57],[4,120],[30,12],[4,34],[55,-29],[36,30],[5,57],[15,-18],[24,36],[26,-5],[19,42],[-8,28],[31,35],[17,117],[-3,31],[13,33],[16,103],[-1,47],[-37,15],[1,30],[21,29],[4,50],[-32,83],[-4,63],[8,27],[-8,68],[7,49],[16,31],[46,20],[20,-41]],[[9613,3334],[10,-26],[-5,-154],[-6,-81],[15,-28],[3,-67],[-62,-57],[-18,5],[-46,-41],[10,-87],[-6,-30],[4,-63],[-24,-30],[20,-44],[-10,-33],[11,-43],[15,-174],[57,-52],[29,-4],[13,-37],[2,-47],[-22,-21],[1,-62],[25,-45],[7,-73],[19,-26],[-12,-43],[5,-41],[-33,6],[-28,-21],[-12,-63],[-20,71],[-34,23],[-11,-33],[-28,-22],[-22,21],[-10,61],[-50,40],[-2,-60],[27,-50],[-8,-26],[8,-81],[-13,-29],[-34,-20],[-10,-41],[5,-85],[19,-95],[-2,-62],[12,-41],[-4,-143],[-19,1],[23,-79],[15,-86],[-4,-31],[19,-51],[2,-180],[-10,-31],[-42,1],[0,-47],[18,0],[19,-34],[-5,-22],[-38,-7],[-26,-25],[3,-51],[-10,-24],[-45,-21],[-10,-72],[13,-91],[14,-55],[-24,-6],[-22,-45],[-24,4],[-44,-50],[8,-43],[-17,-14],[5,-80],[-14,-59],[-35,-13],[-43,-33],[-13,-32],[-27,-4],[-13,86],[-15,36],[0,58],[13,73],[-21,29],[0,27],[-19,24],[-2,76],[16,52],[-21,8],[-19,38],[-13,108],[-36,137],[-39,85],[-9,92],[-27,21],[-87,-27],[-9,-17],[-37,17],[12,50],[19,-9],[28,54],[15,66],[3,64],[34,68],[20,-3],[8,84],[-1,71],[-17,93],[-21,72],[-66,113],[-86,90],[-14,-15],[-5,-72],[-13,-69],[-39,-104],[-14,-60],[-18,-30],[8,-60],[-13,-59],[-30,-69],[-54,9],[-57,28],[-62,63],[-31,48],[-144,158],[-74,91],[-54,94],[-45,55],[-34,67],[-49,153],[-70,178],[-28,59],[31,45],[27,-5],[17,95],[-39,14],[-12,34],[-48,-9],[-19,-18],[-76,-39],[-33,-88],[-58,-30],[-24,-33],[-32,5],[-35,-24],[-29,-66],[-31,-16],[-16,30],[-8,54],[9,51],[-5,105],[19,82],[-11,97],[30,44],[64,-47],[86,54],[46,93],[-4,32],[-37,23],[-53,79],[0,62],[-32,112],[-40,82],[0,51],[-86,25],[-10,-27],[-50,-28],[-28,-37],[-28,2],[-23,29],[-39,101],[-2,18],[-38,26],[-36,67],[34,97],[2,60],[-44,125],[-21,16],[-17,52],[-4,54],[-13,-47],[-41,-7],[-9,46],[49,39],[33,118],[-13,55],[-23,5]],[[7115,3859],[63,127],[27,71],[25,22],[96,31],[93,-3],[76,77],[100,43],[48,-4],[41,18],[58,-1],[18,22],[38,-7],[5,38],[-30,2],[21,88],[-8,39],[19,49],[32,20],[20,31],[51,18],[31,65],[34,-10],[42,39],[4,130],[30,48],[-77,36],[26,51]],[[7998,4899],[48,-37],[28,3],[59,-42],[29,2],[-8,-31],[38,-35],[0,-22],[33,0],[39,50],[26,3],[59,-99],[37,-175],[17,-49],[21,-28],[17,-49],[30,-122],[-34,-28],[67,-7],[73,-40],[10,-64],[-6,-20],[59,21],[20,-46],[62,-24],[-52,-126],[-2,-82],[51,4],[132,-31],[19,15],[1,80],[14,15],[66,-17],[26,-17],[70,-67],[15,-82],[-8,-32],[20,-89],[4,-112],[21,-42],[-15,-23],[14,-50],[16,36],[81,7],[26,-30],[99,-27],[83,6],[62,-46],[52,15],[15,-49],[40,-2],[41,20]],[[7998,4899],[9,14],[-37,96],[-29,25],[-16,55],[-13,5]],[[7912,5094],[14,36],[42,-14],[36,34],[6,-16],[34,27],[9,-20],[31,14],[66,81],[-19,21],[43,77],[26,-3],[48,24],[62,-53],[36,84],[34,-4],[20,-39],[34,-6],[19,28],[19,-14],[6,24],[80,-22],[51,-46],[28,34],[48,-9],[26,-101],[-8,-29],[29,-18],[11,-77],[25,-2],[21,-40],[77,10],[76,21],[35,-18],[88,24],[83,-35],[-15,-13],[28,-37],[29,7],[9,28],[57,-9],[35,25],[54,6],[12,-23],[46,5],[9,16],[34,-30],[37,0],[72,-69],[49,21],[24,-13],[21,-34],[30,-8],[51,6]],[[9730,4945],[-6,-76],[4,-41],[39,-49],[-24,-63],[7,-50],[48,-48],[2,-86],[31,-32],[97,-70],[2,-36],[22,-73],[3,-54],[-35,-55],[-34,-18],[-9,-21],[-3,-94],[-8,-25],[7,-61],[-9,-86],[-36,-25],[-34,-45],[-100,-46],[-24,-23],[3,-44],[-59,-170],[-4,-44],[-18,-26],[-52,-14],[33,-133],[40,-3]],[[7912,5094],[-26,-12],[-43,1],[-21,80],[12,19],[-60,16],[3,44],[-46,11],[1,12],[-121,16],[-36,60],[-9,99],[68,91],[26,66],[-25,36],[-37,4],[4,29],[-104,11],[7,157],[-4,30],[-110,12],[-80,-42],[-16,1],[-17,-40],[-44,-7],[-93,7],[-45,-12],[-21,17],[-181,20],[-32,-84],[-25,-17]],[[6837,5719],[-13,11],[-95,27],[-17,20],[17,78],[-26,32],[-46,10],[-3,84],[-9,19],[11,36],[28,24],[-14,32],[18,33],[0,43],[-27,14],[16,60],[-9,19]],[[6668,6261],[24,-36],[6,31],[23,-17],[40,27],[11,-38],[69,-9],[-2,34],[29,-3],[34,33],[76,6],[-8,43],[29,2],[2,42],[18,-18],[-1,32],[30,19],[34,-33],[29,32],[45,-39],[-2,22],[35,18],[8,60],[38,-9],[11,-17],[35,42],[30,-17],[72,28],[73,66],[65,17],[0,18],[38,10],[62,-4],[4,21],[46,-4],[7,19],[57,32],[11,26],[63,20],[99,-4],[36,20],[10,84],[29,62],[1,89],[-13,28],[-84,13],[-22,24],[-49,30],[-54,153],[4,87],[12,28],[29,21],[4,22],[-26,58],[15,68],[-12,23],[18,42],[-1,46],[-20,56],[7,40],[-36,56],[-13,70],[-58,56],[-12,39],[104,156],[51,8],[33,35],[0,37],[17,28],[-19,56]],[[7859,8248],[52,0],[22,-45],[27,-3],[36,44],[58,14],[35,55],[34,25],[50,65],[16,55],[8,90]],[[8197,8548],[26,36],[31,97],[24,7],[7,79],[8,17],[69,1],[36,-15],[11,25],[30,-1],[30,-26],[-3,-72],[-15,-34],[-6,-56],[28,-60],[23,-17],[-6,-42],[33,-124],[-16,-7],[-7,-53],[27,-35],[8,-118],[-4,-32],[43,-30],[53,-63],[-4,-27],[-26,-20],[15,-32],[37,11],[22,-17],[-7,-76],[-29,-48],[-36,-17],[-35,16],[-16,-26],[13,-45],[-32,-88],[-1,-46],[32,-63],[103,-88],[46,-86],[5,-48],[-32,-72],[-3,-51],[13,-66],[-18,-141],[0,-74],[147,25],[10,-39],[38,-79],[15,-86],[42,-8],[21,-47],[39,-24],[38,-40],[33,-51],[11,-74],[-6,-13],[12,-69],[35,-10],[58,0],[60,-12],[26,32],[52,6],[67,-55],[30,-14],[62,-74],[26,4],[18,-32],[56,20],[30,-20],[23,20],[58,-11],[27,-24],[26,0],[72,-51],[16,-92],[59,-47],[16,-94],[26,-11],[1,-33],[21,-35],[45,-34],[0,-100],[15,-19],[-25,-21],[-3,-33],[-25,-58],[-35,-55],[7,-49],[-12,-46],[5,-65],[-10,-21],[-73,-40],[-33,-63],[-12,-68],[-20,-37],[11,-144],[-10,-32],[-37,-37],[3,-16]],[[7115,3859],[-71,5],[-19,-41],[-109,23],[-49,-3],[-82,-27],[-12,8],[-40,90],[-10,65],[-25,64],[21,62],[-38,35],[-5,26],[-32,40],[-53,101],[-15,13],[-15,56],[-57,54],[-29,40],[-25,93],[-17,-1]],[[6433,4562],[-13,68],[-16,30],[5,41],[72,137],[63,40],[5,43],[-18,27],[-86,13],[-30,59],[-10,76],[7,28],[32,39],[30,-22],[60,29],[10,43],[19,-24],[49,3],[26,67],[22,-8],[23,59],[-13,23],[21,71],[-6,14],[61,-9],[14,26],[42,15],[27,26],[39,-5],[-17,26],[33,35],[-19,37],[1,51],[-13,34],[6,48],[-22,17]],[[6433,4562],[-19,-2],[-50,-50],[-66,19],[-32,-43],[-88,-35],[-57,47],[-19,86],[-10,118],[-31,203],[-28,91],[-53,126],[-78,145],[-37,52],[-46,47],[-25,13],[-18,-16],[-17,-71],[-44,-15],[-36,38],[-25,3],[-20,-70],[-37,53],[-2,42],[-74,70],[-65,50],[-128,70],[-15,28],[8,69],[-52,-40],[-35,10],[-38,-24],[-25,20],[-22,-9],[-32,-47],[-24,5],[9,68],[-30,33],[24,20],[-6,62],[-38,64],[-78,274],[-10,-6],[-25,41],[-25,1],[0,29],[20,16],[3,46],[39,6],[8,54],[-16,72],[-12,92],[-15,183],[1,77],[39,71],[47,56],[45,21],[55,-35],[31,-54],[33,79],[-8,21],[-7,90],[-44,75],[-22,6],[-32,-27],[-3,17],[-33,-19],[-30,-40],[-20,-62],[-22,-11],[-18,69],[13,33],[-7,60],[48,3]],[[5007,7030],[28,11],[31,47],[55,49],[27,68],[7,76],[17,44],[68,38],[23,-42],[37,26],[11,-17],[-10,-40],[-33,-1],[28,-34],[6,-43],[30,-2],[28,-45],[41,-28],[-5,-56],[77,-82],[26,-73],[45,-55],[3,-27],[102,-12],[41,28],[-13,52],[19,10],[14,127],[49,17],[71,56],[151,61],[0,83],[-36,45],[-8,45],[9,81],[-21,70],[-21,40],[47,-4],[21,29],[117,-62],[4,-60],[20,-10],[44,81],[45,-11],[88,-55],[24,20],[1,30],[20,14],[42,-16],[-7,32],[20,25],[79,-81],[30,-2],[10,86],[55,47],[2,21],[45,1],[30,12],[1,52],[18,85],[64,54],[30,1],[17,60],[2,46],[-12,50],[6,27],[-28,69],[8,56],[16,17],[0,55],[-32,-2],[1,45],[-16,54],[6,26],[-20,11],[53,58]],[[6755,8408],[1,-55],[22,21],[52,-45],[16,-32],[-19,-34],[29,-43],[33,-143],[1,-104],[-6,-46],[-26,-44],[5,-40],[-19,-13],[-10,-55],[57,-81],[-24,-53],[24,-78],[-29,-51],[47,-44],[-17,-28],[8,-44],[-41,-86],[3,-19],[34,-6],[6,-18],[-23,-60],[69,-7],[17,-32],[-58,21],[-30,-37],[38,-39],[6,-27],[-47,17],[-18,55],[-18,-64],[10,-21],[39,-18],[-5,-41],[-16,-25],[-26,-5],[-9,-42],[-23,-27],[3,-70],[-37,-38],[-30,30],[-1,-88],[-23,-47],[19,-6],[1,-67],[-43,-50],[-35,-11],[-13,17],[-11,-66],[7,-65],[-21,-40],[-16,-5],[-16,-41],[30,-35],[1,-38],[19,8],[26,-42]],[[5717,4613],[34,-11],[-31,-48],[-27,8],[-17,50],[11,27],[30,-26]],[[5839,4591],[-13,-29],[-25,16],[-23,-9],[-25,60],[7,56],[-11,28],[30,32],[9,-23],[60,-65],[-9,-66]],[[3510,4795],[12,-21],[-19,-19],[-22,7],[2,33],[27,0]],[[4948,5245],[14,-49],[-14,-23],[12,-35],[-18,-59],[-22,-19],[14,-70],[-32,29],[11,71],[-8,32],[21,78],[-4,21],[26,24]],[[4100,5245],[-13,-40],[-28,-13],[-16,59],[57,-6]],[[3593,5253],[29,27],[31,-46],[-48,-62],[-9,-28],[-23,28],[-15,-41],[-29,26],[-40,12],[-15,29],[32,69],[38,-37],[22,21],[6,30],[21,-28]],[[5087,5505],[7,-32],[-21,-35],[15,-59],[4,-81],[13,-59],[-18,-94],[-17,-6],[0,-54],[-13,-61],[-21,-11],[-2,33],[-39,23],[-14,55],[6,26],[-8,53],[-16,33],[2,33],[21,34],[-17,20],[5,45],[20,13],[28,97],[29,-11],[-2,25],[38,13]],[[4123,5488],[-36,92],[3,15],[52,-25],[11,-51],[-30,-31]],[[3912,6024],[-26,24],[12,20],[14,-44]],[[7859,8248],[-15,-10],[-43,9],[-2,63],[-26,38],[-34,-8],[-29,30],[-33,5],[-30,28],[-52,8],[-35,42],[-31,-23],[-35,12],[19,68],[-9,69],[-16,0],[-42,108],[-12,-31],[-54,100],[-23,4],[-12,-69],[-38,-17],[-12,20],[-62,-14],[-28,-33],[-23,31],[-30,-30],[-22,1],[5,-33],[-50,-1],[-17,28],[-41,-7],[-22,-46],[-23,-18],[-13,-34],[-24,-19],[-13,-40],[-20,-7],[-30,-57],[-35,10],[-20,35],[-47,-25],[-25,-27]],[[5007,7030],[-26,64],[-52,15],[-33,48],[-51,204],[-4,52],[12,48],[21,39],[51,0],[44,55],[-65,108],[-67,250],[23,86],[2,-15],[46,115],[20,24],[28,-12],[57,102],[39,60],[16,62],[23,39],[17,-5],[-1,-37],[17,-86],[19,-6],[10,37],[72,156],[5,54],[36,38],[5,33],[-37,98],[13,47],[47,34],[44,52],[63,26],[32,-34],[14,17],[30,127],[-21,77],[32,77],[61,-27],[79,-61],[85,-14],[31,23],[38,-8],[55,15],[36,22],[43,-5],[1,28],[21,11],[4,98],[16,17],[18,-57],[70,-82],[46,4],[15,26],[24,-4],[135,57],[38,31],[46,5],[-2,52],[21,48],[48,57],[25,10],[6,51],[18,19],[6,61],[17,15],[74,22],[32,48],[18,54],[41,15],[40,-32],[39,5],[20,57],[24,33],[29,14],[48,64],[52,31],[62,2],[26,23],[72,6],[83,40],[23,1],[55,-30],[50,25],[46,-20],[63,70],[37,70],[4,27],[23,3],[43,-40],[53,-21],[10,-31],[-9,-42],[-21,-42],[7,-42],[30,-60],[-19,-50],[25,-58],[6,-57],[25,-26],[43,-12],[10,-86],[15,-37],[-9,-32],[10,-49],[25,-22],[39,-13],[14,-69],[44,-40],[14,-32],[6,-61],[28,-86],[10,-5],[51,-115],[25,-14],[11,-31],[21,19],[24,-28],[74,-27],[84,-65],[37,-17],[9,-31],[-3,-69],[-10,-36],[25,-24]],[[3980,7124],[49,-14],[-5,-25],[-53,8],[-19,20],[28,11]],[[5101,8580],[39,-18],[-6,-59],[-36,-12],[-18,20],[1,60],[20,9]]],"transform":{"scale":[0.00010663956075607369,0.00007810611731173341],"translate":[99.15406639600008,6.4227156880000384]},"objects":{"Satun":{"type":"GeometryCollection","geometries":[{"arcs":[[[0]],[[1]],[[2]],[[3]],[[4]],[[5]],[[6]],[[7]],[[8]],[[9]],[[10]],[[11]],[[12]],[[13]],[[14]],[[15]],[[16]],[[17]],[[18]],[[19]],[[20]],[[21]],[[22]],[[23]],[[24]],[[25]],[[26]],[[27]],[[28]],[[29]],[[30]],[[31]],[[32]],[[33]],[[34]],[[35]],[[36]],[[37]],[[38]],[[39]],[[40,41,42]]],"type":"MultiPolygon","properties":{"Shape_Leng":4.13718872693,"Shape_Area":0.0685644352353,"ADM2_EN":"Mueang Satun","ADM2_TH":"เมืองสตูล","ADM2_PCODE":"TH9101","ADM1_EN":"Satun","ADM1_TH":"สตูล","ADM1_PCODE":"TH91","ADM0_EN":"Thailand","ADM0_TH":"ประเทศไทย","ADM0_PCODE":"TH"}},{"arcs":[[-43,43,44,45]],"type":"Polygon","properties":{"Shape_Leng":0.816704569294,"Shape_Area":0.0180242235232,"ADM2_EN":"Khuan Don","ADM2_TH":"ควนโดน","ADM2_PCODE":"TH9102","ADM1_EN":"Satun","ADM1_TH":"สตูล","ADM1_PCODE":"TH91","ADM0_EN":"Thailand","ADM0_TH":"ประเทศไทย","ADM0_PCODE":"TH"}},{"arcs":[[-45,46,47,48,49,50]],"type":"Polygon","properties":{"Shape_Leng":1.53974178605,"Shape_Area":0.0435363741025,"ADM2_EN":"Khuan Kalong","ADM2_TH":"ควนกาหลง","ADM2_PCODE":"TH9103","ADM1_EN":"Satun","ADM1_TH":"สตูล","ADM1_PCODE":"TH91","ADM0_EN":"Thailand","ADM0_TH":"ประเทศไทย","ADM0_PCODE":"TH"}},{"arcs":[[-42,51,52,-47,-44]],"type":"Polygon","properties":{"Shape_Leng":0.70624797159,"Shape_Area":0.0175549908326,"ADM2_EN":"Tha Phae","ADM2_TH":"ท่าแพ","ADM2_PCODE":"TH9104","ADM1_EN":"Satun","ADM1_TH":"สตูล","ADM1_PCODE":"TH91","ADM0_EN":"Thailand","ADM0_TH":"ประเทศไทย","ADM0_PCODE":"TH"}},{"arcs":[[[-48,-53,53,54,55]],[[56]],[[57]],[[58]],[[59]],[[60]],[[61]],[[62]],[[63]],[[64]]],"type":"MultiPolygon","properties":{"Shape_Leng":1.8771832863,"Shape_Area":0.0327334471125,"ADM2_EN":"La-Ngu","ADM2_TH":"ละงู","ADM2_PCODE":"TH9105","ADM1_EN":"Satun","ADM1_TH":"สตูล","ADM1_PCODE":"TH91","ADM0_EN":"Thailand","ADM0_TH":"ประเทศไทย","ADM0_PCODE":"TH"}},{"arcs":[[[-50,65,-55,66]],[[67]],[[68]]],"type":"MultiPolygon","properties":{"Shape_Leng":1.42400502037,"Shape_Area":0.0380999672969,"ADM2_EN":"Thung Wa","ADM2_TH":"ทุ่งหว้า","ADM2_PCODE":"TH9106","ADM1_EN":"Satun","ADM1_TH":"สตูล","ADM1_PCODE":"TH91","ADM0_EN":"Thailand","ADM0_TH":"ประเทศไทย","ADM0_PCODE":"TH"}},{"arcs":[[-49,-56,-66]],"type":"Polygon","properties":{"Shape_Leng":0.879302249152,"Shape_Area":0.0172252670497,"ADM2_EN":"Manang","ADM2_TH":"มะนัง","ADM2_PCODE":"TH9107","ADM1_EN":"Satun","ADM1_TH":"สตูล","ADM1_PCODE":"TH91","ADM0_EN":"Thailand","ADM0_TH":"ประเทศไทย","ADM0_PCODE":"TH"}}]}}}