{"type":"Topology","arcs":[[[5258,6593],[34,7],[47,-45],[28,-76],[38,-16],[72,-1],[66,-7],[70,5],[74,-9],[-9,-44],[30,-11],[-6,-23],[24,-29],[-27,-12],[8,-19],[-27,-38],[22,-26],[-9,-8],[7,-43],[46,-21],[14,3],[20,-19],[-18,-18],[-24,21],[-21,-3],[0,-16],[-69,-14],[2,-8],[-30,-32],[-43,-15],[-12,-48],[26,-19],[5,-26],[-26,-29],[23,-13],[-2,-21],[20,0],[3,-32],[-15,0],[3,-22],[-42,-55],[-7,-32],[-11,-14],[10,-33],[-20,-44],[4,-22],[-18,-81],[6,-15],[-17,-22],[-5,-32],[8,-16],[-9,-65]],[[5501,5435],[10,-19],[-37,-12],[-29,0],[-13,-33],[-54,-53],[-76,-28],[-58,-45],[-51,-50],[-6,-15]],[[5187,5180],[-79,-3],[-68,-18],[-62,-30],[-50,-20],[-16,-15],[-30,-8],[-56,4],[-37,-5],[-41,19],[-45,3],[-89,-70],[-48,-49],[-31,-25],[-71,-39],[-45,5],[-29,28],[-33,3],[-156,47],[-18,14],[-63,8],[-47,15],[-117,18]],[[3956,5062],[-21,68],[27,33],[4,115],[-15,68],[-27,44],[3,26],[26,62],[-9,96],[-111,65],[-12,-10],[-93,-102],[-41,-62],[-9,-6],[-138,5],[-43,-4],[-17,13],[-31,-3],[-27,27],[27,22],[-14,33],[6,24],[-51,14],[-39,38],[-17,-1],[-15,16],[-44,6],[-36,16],[-11,14],[20,11],[-4,17],[-28,2],[-20,24],[-43,9],[8,16],[-31,27]],[[3130,5785],[32,3],[-3,19],[60,36],[11,15],[-22,8],[86,35],[9,12],[-15,14],[34,9],[12,19],[-26,4],[-12,20],[30,19],[42,-8],[41,2],[-33,39],[24,27],[54,-12],[12,20],[-30,4],[12,27],[31,14],[26,-15],[15,16],[24,-7],[5,33],[-17,42],[-20,-1],[16,15],[33,-9],[1,-12],[24,-9],[7,39],[15,3],[7,23],[20,9],[-2,16],[-75,149],[-66,125],[-35,57],[-47,99],[-6,46],[5,113],[76,45],[34,27],[20,31],[-48,39],[-77,34],[-2,96],[-7,96]],[[3405,7211],[32,-1],[62,10],[25,0],[69,-14],[58,8],[6,10],[-11,54],[2,92],[27,38],[30,18],[46,-3],[34,-10],[66,-29]],[[3851,7384],[18,-8],[64,-57],[29,-46],[89,-118],[71,-43],[73,-79],[28,-12],[69,29],[17,-13],[35,-47],[22,-41],[40,-34],[78,-45],[54,-12],[71,21],[103,66],[17,6],[41,-2],[42,-11],[15,-20],[-11,-82],[-18,-47],[-1,-25],[-45,-55],[9,-40],[35,-17],[40,-10],[106,-16],[117,-36],[60,-33],[53,-2],[52,16],[34,22]],[[3851,7384],[29,19],[37,9],[146,1],[88,44],[97,52],[9,9],[-1,80],[-35,27],[-28,56],[38,176],[45,82],[125,213]],[[4401,8152],[26,16],[56,6],[4,-22],[46,-28],[4,-20],[26,-19],[35,-42],[32,-27],[-11,-15],[22,-17],[36,2],[17,9],[15,43],[-4,13],[48,8],[26,-7],[35,-54],[11,-3],[0,-80],[-23,-37],[4,-36],[-7,-14],[-34,-32],[1,-29],[57,-12],[180,-29],[67,-21],[40,-7],[154,-19],[145,-24],[65,-17],[61,-22],[25,-26],[58,-31],[79,-14],[69,4]],[[5766,7549],[-8,-30],[-22,-41],[-38,-41],[-24,-33],[-67,-124],[-18,-70],[-30,-67],[-6,-38],[-14,-34],[-3,-80],[-15,-47],[-22,-43],[3,-54],[-7,-26],[-17,-13],[-54,-12],[-11,-12],[-34,-1],[-46,-35],[-47,-12],[-26,-15],[-50,-81],[28,-19],[20,-28]],[[5766,7549],[213,-2],[1,-11],[38,-34],[89,-57],[27,-12],[51,-10],[150,1],[91,-8],[74,5],[184,4],[18,-6],[7,20],[-22,17],[16,9],[50,-1],[1,14],[25,12],[22,32],[30,11],[3,20],[23,-15],[15,10],[29,-3],[49,14],[35,30],[15,51],[22,24],[11,-23],[33,-30],[7,-24],[-7,-38],[3,-25],[41,-8],[14,21],[-15,26],[4,26],[12,13],[29,8],[62,-33],[42,-13],[41,5],[29,26],[26,-9],[16,-24],[4,-86],[10,-43],[1,-31],[-11,-32],[-1,-27],[14,-24],[29,-12],[49,9],[30,-1],[50,-26],[14,-28],[21,-7],[2,18],[-19,42],[-25,24],[-63,8],[-25,28],[5,15],[62,30],[0,29],[-10,14],[12,12],[55,-7],[31,-15],[31,-34],[13,-39],[49,-63],[17,-41],[-4,-55],[47,-31],[49,2],[57,18],[19,-13],[-2,-36],[-47,-10],[-47,8],[-21,-4],[-21,-27],[16,-37],[58,-29],[-8,-26],[-16,-7],[-44,14],[-17,-9],[13,-30],[20,-11],[31,0],[48,29],[48,5],[64,-23],[14,-15],[-9,-25],[-39,-21],[-10,-37],[31,-26],[35,-2],[37,25],[19,40],[36,12],[31,-25],[2,-34],[-38,-42],[-29,4],[-40,-12],[-41,-27],[-31,-31],[-13,-26],[-13,-67],[6,-38],[14,-9],[44,1],[42,16],[134,84],[49,12],[58,-18],[26,-18],[16,-21],[-1,-18],[-19,-31],[-94,-51],[-55,-36],[-66,-56],[-26,-17],[-42,-49],[-42,-24],[-84,-10],[-39,-2],[-29,-32],[-59,-4],[-14,-6],[19,-34],[-49,-39],[5,-11],[42,-26],[-6,-15],[-52,-16],[-38,-33],[-11,-28],[16,-29],[40,-14],[32,16],[2,37],[43,13],[53,-9],[12,-27],[-51,-18],[-34,-31],[-27,-11],[-25,-29],[27,-16],[48,17],[78,-15],[13,-14],[-65,-67],[-6,-13],[5,-68],[29,-23],[-2,-24],[-26,-15],[-25,-45],[-26,-7],[-11,-13],[10,-19],[33,-6],[16,-23],[-32,-15],[-8,-41],[-24,-2],[-23,33],[-34,7],[-9,-19],[24,-26],[-7,-12],[-35,2],[-18,-12],[44,-22],[-10,-57],[-9,-6]],[[7647,5542],[-43,-7],[-15,-21],[-78,-33],[-13,-28],[6,-23],[33,-15],[-5,-14],[-26,-9],[-28,-31],[-63,82],[-47,13],[-12,-19],[27,-24],[4,-15],[-64,19],[-53,-37],[26,-13],[-3,-13],[-41,14],[-5,10],[24,23],[-24,20],[-23,-8],[-64,-4]],[[7160,5409],[-37,4],[-40,-14],[-31,0],[-31,70],[-15,-28],[-36,6],[3,19],[-37,26],[-29,-6],[15,-28],[-2,-23],[-62,-46],[-34,5],[-14,-8],[-4,22],[-30,2],[-6,-13],[-29,-11],[-8,16],[-36,-2],[-37,27],[6,39],[-19,2],[-32,-18],[-9,-20],[-28,8],[-16,-24],[43,-21],[-40,-26],[20,-6],[3,-19],[-53,-8],[-19,-19],[16,-22],[3,-47],[-28,-22],[-21,-4],[32,-35],[-8,-10],[-85,9],[-29,22],[-33,-39],[-43,-12],[-25,33],[-63,0],[-29,-7],[-9,18],[-12,-7],[-1,-25],[27,-2],[-5,-15],[-35,-1],[-2,11],[-33,7],[-17,-28],[-32,13],[-4,-36],[17,13],[1,-24],[13,-30],[-18,-32],[-30,-1],[-21,-11],[-11,-22],[-35,0],[-13,-35],[-55,-20],[-42,10],[-1,24],[21,37],[7,61],[-19,34],[-46,42],[-65,50],[-89,87],[-4,74],[-6,38],[-13,15],[-71,9],[-87,-5],[-12,5]],[[6781,3634],[16,-22],[-15,-33],[-25,-16],[-47,-8],[-6,-12],[52,-22],[14,-18],[37,-5],[27,7],[10,15],[28,-12],[42,-29],[50,-17],[14,10],[82,-10],[-19,41],[-10,49],[25,37],[55,-15],[76,10],[56,1],[2,8],[37,-6],[0,16],[37,13],[35,24],[38,0],[-11,-28],[22,-8],[4,16],[39,-19],[-10,-25],[25,6],[15,-7],[16,14],[29,-49],[84,-26],[31,-22],[26,8],[-6,-19],[27,-7],[-11,-42],[-28,-1],[15,-10],[13,-38],[15,6],[8,-26],[-21,-3],[27,-29],[-10,-18],[-16,4],[30,-66],[-4,-20],[25,-6],[40,-29],[47,7],[120,-3],[1,-15],[39,-11],[4,13],[58,-46],[32,4],[28,-16],[52,-47],[24,-5],[21,-16],[2,-17],[23,-22],[21,-42],[83,-17],[60,58],[44,27],[185,79],[63,25],[41,-21],[31,-7],[33,3],[41,29],[87,-22],[15,-15],[101,-22],[36,49],[23,47],[33,-2],[6,27],[-15,39],[93,-24],[30,-14],[-1,-10],[45,-27],[26,58]],[[9298,3240],[44,-20],[13,-21],[2,-53],[17,-30],[43,-47],[55,-34],[54,-44],[69,-44],[30,-12],[35,-5],[23,-15],[6,-30],[-6,-28],[12,-49],[-16,-40],[5,-16],[2,-63],[42,-56],[44,-20],[7,-22],[47,-65],[-33,0],[-7,21],[-50,4],[-38,15],[-15,34],[-26,-7],[-33,4],[-8,11],[-25,-3],[-7,13],[-56,-12],[-42,-30],[-47,21],[-38,-14],[-5,-12],[23,-8],[0,-15],[-26,-21],[6,-21],[-14,-26],[-18,-2],[-40,-32],[10,-18],[-24,2],[1,-21],[-31,-6],[24,-38],[-18,-7],[-10,-86],[12,-7],[5,-25],[-39,-9],[-31,-37],[-25,-7],[-11,-20],[-14,-70],[30,-34],[-27,-26],[21,-27],[-19,-23],[28,-31],[-11,-10],[-3,-33],[-32,-7],[-11,-22],[16,-9],[1,-17],[-23,-3],[6,-18],[-37,-17],[13,-34],[-21,-17],[-2,-30],[-12,3],[-9,-37],[40,-20],[7,-32],[-4,-30],[12,-20],[24,-17],[20,-1],[43,-61],[17,5],[5,-24],[40,-24],[3,-18],[21,-20],[26,-6],[44,-29],[-1,-11],[30,-18],[-4,-18],[47,-15],[-3,-13],[36,0],[-4,-23],[19,-4],[34,-28],[-12,-22],[-1,-46],[-14,-2],[-4,-28],[15,-29],[-18,-15],[16,-39],[-4,-40],[-17,-16],[-32,-3],[-37,-26],[-3,-31],[-12,-20],[-24,-8],[-15,-16],[-5,-30],[-53,-4],[3,-9],[-33,-21],[-41,-1],[-6,-14],[-27,-19],[-8,-20],[25,-40],[43,-39],[6,-21],[24,-30],[28,-9],[92,-5],[8,-10],[27,24],[58,26],[42,6],[27,-5],[4,18],[41,25],[51,13],[26,-30],[29,-13],[8,-20],[114,-81],[21,-23],[61,-15],[42,-24],[-1,-17],[19,-35],[-16,-35],[2,-16],[-44,12],[-29,25],[-59,17],[-86,35],[-80,23],[-37,28],[-23,8],[-34,-15],[-14,-28],[-47,-27],[-23,4],[-28,22],[-3,-19],[-47,-28],[-87,-25],[-22,8],[7,23],[-30,52],[-35,5],[-41,25],[-31,12],[-33,3],[-48,-10],[-15,5],[-7,67],[-11,25],[-91,62],[-50,-9],[-79,-8],[-50,-14],[-53,-45],[-26,-4],[-24,-18],[-27,-8],[-92,-4],[-27,-28],[-64,-41],[-7,-41],[-23,-24],[4,-17],[-24,-18],[-56,31],[-33,9],[-84,44],[-13,-4],[-35,-43],[-11,-29],[-30,-19],[-34,24],[-12,25],[3,27],[-8,24],[22,29],[22,9],[-17,37],[-20,22],[-58,19],[-8,28],[-55,2],[-36,-15],[-44,-36],[-48,-57],[-48,-44],[-8,-32],[-46,-79],[-33,-46],[-34,1],[5,-25],[-39,11],[-50,50],[-74,4],[-52,19],[-48,47],[-5,18],[0,73],[-17,33],[-47,7],[-24,-8],[-128,-97],[-30,-34],[-67,-27],[-58,-40],[-20,-9],[-81,-2],[-24,-10],[-73,-47],[-50,-47],[-14,-26],[-64,-28],[-20,-28],[5,-30],[-18,-21],[19,-30],[-4,-18],[16,-13],[-10,-27],[-46,4],[-53,19],[-37,-18],[-5,-26],[-13,-11],[-32,-4],[-72,3],[-63,16],[-21,11],[-44,1],[-58,-17],[-36,6],[-20,15],[-6,23],[-48,-3],[-16,5],[-65,69],[-59,26],[-103,23],[-32,-4]],[[5920,253],[-7,92],[5,18],[26,31],[8,24],[2,88],[7,55],[-3,33],[-22,43],[-2,21],[15,67],[34,89],[24,81],[-2,35],[-9,15],[-71,36],[-29,26],[-24,66],[-7,68],[28,47],[45,41],[33,38],[19,34],[12,36],[34,66],[27,42],[39,44],[49,41],[136,87],[21,20],[16,121],[1,92],[-12,38],[-31,70],[-1,32],[89,125],[28,48],[43,49],[10,34],[-37,29],[-72,23],[-85,31],[-51,27],[-19,21],[-8,47],[-34,47],[-38,28],[46,13],[29,29],[33,5],[22,17],[21,30],[-9,26],[23,17],[10,24],[21,13],[8,18],[49,71],[-64,36],[-6,9],[8,34],[-9,19],[-32,18],[-40,31],[-36,41],[-110,147],[-36,31],[-21,27],[-23,63],[-56,5],[-27,13],[-36,32],[-49,56]],[[5823,3324],[118,33],[59,35],[34,-3],[66,-27],[62,-14],[67,2],[38,8],[37,23],[31,40],[7,56],[13,46],[19,27],[37,30],[32,14],[102,21],[68,-8],[94,39],[74,-12]],[[3883,4445],[4,-64],[-11,-34],[-49,-67],[-43,-92],[-15,-40],[-50,-86],[-16,-80],[14,-37],[72,-135],[30,-60],[17,-26],[46,-50],[20,-10],[40,-1],[30,7],[23,-18],[7,-62],[45,-226],[6,-49],[-20,-28],[-42,-28],[-72,-38],[-12,-28],[12,-22],[21,-16],[79,-16],[43,-69],[-3,-25],[-15,-25],[-83,-21],[-18,-9],[-48,-58],[-22,-43],[-39,-50],[-20,-35],[-13,-57],[1,-27],[18,-52],[117,-89],[59,-40],[85,-42]],[[4081,2497],[-41,-48],[-67,-87],[-53,-55],[-99,-119],[-23,-41],[-8,-41],[-4,-78],[13,-76],[24,-115],[3,-67],[5,0],[1,-55],[-12,-48],[22,-22],[32,-10],[26,-25],[-36,-37],[-53,-35],[23,-16],[-8,-40],[16,-33],[-11,-32],[-48,-24],[-48,-16],[-106,-1],[-61,-15],[-32,-20],[-28,-41]],[[3508,1300],[-1,57],[35,93],[9,55],[-21,37],[-44,19],[-39,38],[-29,9],[-52,36],[60,59],[12,29],[7,92],[-15,109],[-22,-5],[-58,10],[-194,-3],[-29,-11],[-73,-9],[-111,44],[-10,7],[-20,114],[-29,64],[-25,127],[2,39],[13,41],[-77,23],[-93,16],[-79,32],[-58,-19],[-29,-2],[-17,-34],[-15,-12],[-35,-1],[-41,15],[-22,34],[-94,3],[-11,-22],[14,-6],[-11,-27],[-32,-3],[-59,7],[-9,-18],[-36,-6],[-13,-38],[2,-82],[-153,2],[-116,14],[-3,28],[-15,28],[-54,32],[-58,0],[-123,-12],[-102,-23]],[[1535,2280],[-6,43],[-9,14],[-44,33],[19,14],[-21,20],[14,20],[-1,24],[14,4],[-1,22],[23,44],[-30,2],[9,26],[-32,123],[-15,34],[-20,17],[-172,123],[-101,79],[-82,80],[-57,63],[-44,61],[-27,76],[3,84],[5,21]],[[960,3307],[377,12],[7,47],[29,34],[97,15],[101,34],[101,13],[68,-5],[96,-3],[87,19],[59,4],[90,-11],[65,-3],[31,17],[33,-4],[-6,31],[32,-3],[13,14],[-30,37],[13,15],[-14,19],[-31,5],[26,19],[-7,23],[-34,15],[1,49],[27,30],[-22,16],[16,35],[-20,22],[4,24],[22,2],[-32,14],[39,12],[-5,18],[26,13],[-9,41],[11,-1],[16,33],[-10,18],[3,24],[20,2],[-9,13],[13,13],[-13,21],[14,9],[-23,20],[9,28],[-16,10],[6,13],[23,-3],[37,47],[16,-2],[4,19],[-18,11],[31,22],[-16,14],[17,29],[-31,38],[-5,30],[-10,-2],[7,32],[21,14],[-20,4],[-17,38],[22,11],[0,53],[26,9],[-21,42],[16,-14],[21,26]],[[2334,4548],[13,-15],[49,-24],[6,-11],[73,-13],[22,5],[47,-17],[5,-14],[76,-15],[61,-4],[55,-14],[73,1],[66,-24],[47,6],[111,52],[65,22],[32,24],[43,-17],[66,-10],[44,6],[44,15],[59,12],[82,2],[177,7],[71,-8],[41,-24],[39,-32],[30,-12],[52,-1]],[[3883,4445],[72,-2]],[[3955,4443],[57,-12],[72,-9],[101,-23],[46,-8],[109,-9],[109,-12],[80,-33],[105,-66],[72,-39],[64,-44],[24,-7],[70,-5],[26,9],[32,0],[23,-11],[-3,-34],[15,-1],[4,-22],[17,-14],[-13,-28],[18,-9],[-11,-13],[-32,9],[-9,-8],[12,-50],[-6,-17]],[[4937,3987],[-6,-10],[-34,-11],[-25,16],[-25,-19],[-17,7],[-4,-24],[-21,12],[-1,-29],[-19,-10],[2,-41],[23,-5],[7,-18],[-14,-14],[18,-7],[-4,-27],[25,-3],[-1,-29],[14,-21],[-22,-30],[-35,-29],[54,-26],[20,4],[1,-20],[46,-22],[27,-22],[-17,-25],[12,-40],[-17,-10],[51,-77],[16,-14],[35,-2],[41,-11],[19,3],[8,-20],[28,-15],[17,1],[-2,-28],[20,-23],[-23,-15],[-23,-26],[2,-21],[-18,-17],[-9,-33],[-23,-5],[9,-17],[17,-3]],[[5089,3211],[14,-27],[24,-13],[-1,-45],[-13,-13],[45,-55],[13,4],[0,-33],[-23,-31],[13,-21],[-24,-5],[-90,-30],[-41,-22],[-51,-35],[-20,-21],[-35,-57],[0,-29],[-69,-23],[-259,-53],[-156,-41],[-105,-43],[-66,-33],[-52,-32],[-112,-56]],[[960,3307],[-1,34],[12,43],[15,15],[15,60],[1,28],[-12,48],[-29,56],[-10,55],[-23,63],[-17,25],[-110,55],[-86,25],[-83,27],[-119,36],[-103,21],[-67,20],[-128,29],[-57,20],[-56,33],[-41,30],[-30,38],[-26,22],[7,25],[-12,18],[6,30],[41,24],[-12,25],[11,21],[49,26],[-5,19],[22,4],[9,18],[45,6],[12,18],[-16,4],[14,17],[-8,18],[-24,5],[-5,41],[20,20],[18,3],[3,38],[42,27],[-6,19],[16,10],[-12,18],[20,10],[11,22],[37,12],[19,-4],[11,24],[36,1],[5,34],[-20,29],[27,38],[44,21],[-17,41],[26,-4],[31,83],[-21,19],[-2,32],[19,-19],[74,11],[-6,-19],[15,-19]],[[529,4856],[-8,-17],[104,-15],[156,5],[34,-6],[61,-46],[75,-12],[53,55],[31,3],[41,-12],[91,-19],[122,-30],[58,-20],[57,-6],[65,14],[33,11],[1,60],[-32,3],[10,49],[31,14],[128,-49],[49,-3],[55,4],[55,-5],[59,9],[51,17]],[[1909,4860],[81,35],[53,11],[41,0],[55,-6],[73,13]],[[2212,4913],[12,-31],[-24,-10],[20,-7],[5,-20],[23,-15],[27,-2],[-11,-14],[39,0],[-2,-17],[-22,-2],[17,-14],[-14,-42],[13,-15],[29,1],[11,-40],[17,-18],[-11,-17],[10,-16],[-17,-2],[13,-16],[-29,-19],[20,-12],[-4,-37]],[[5920,253],[-67,-21],[-81,-32],[-34,-25],[-26,-43],[24,-37],[-12,-24],[-51,-34],[-48,-14],[-55,-2],[-14,7],[-6,29],[27,36],[-5,28],[-15,19],[-48,5],[-54,-30],[-36,0],[-51,25],[-48,-20],[-14,1],[-57,26],[-28,32],[-20,-5],[-21,39],[-79,26],[-35,-3],[-34,-35],[-29,-9],[-46,30],[-11,26],[-34,13],[-44,-3],[-93,-37],[-68,-1],[-52,-5],[-41,5],[-35,-2],[-58,26],[-66,-32],[-169,2],[-53,17],[-39,6],[-23,12],[-35,47],[-60,31],[-48,1],[-90,67],[-45,52],[-32,26],[-51,-9],[-24,24],[-68,51]],[[3718,539],[14,31],[-46,17],[-24,15],[-74,15],[-20,18],[23,87],[-3,57],[-12,21],[-48,49],[-11,21],[-17,61],[-8,43],[-27,58],[-2,42],[17,38],[38,46],[4,60],[-7,64],[-7,18]],[[5089,3211],[29,3],[28,-8],[22,11],[-1,13],[33,12],[46,-44],[24,-6],[61,-33],[71,31],[221,66],[200,68]],[[3405,7211],[-21,14],[-7,19],[22,75],[0,23],[-29,133],[2,49],[-10,58],[-21,12],[-30,-25],[-24,-50],[-38,-22],[-37,-5],[-48,10],[-25,-27],[15,-18],[-7,-30],[-18,-5],[-39,-31],[-4,-27],[-14,-17],[-51,-22],[-9,-21],[13,-11],[-69,-24],[-82,18],[-55,5],[-84,29],[-127,29],[-77,21],[-72,23],[-21,73],[-95,118],[-26,17],[-24,6],[-32,-5],[-70,27],[-38,8],[-50,25]],[[2103,7663],[-23,44],[-5,26],[-48,53],[-52,39],[-67,34],[-58,23],[4,27],[-7,61],[-42,-19],[-29,23],[-63,73],[-38,36],[-30,91],[-31,21],[-12,20]],[[1602,8215],[19,1],[5,-17],[23,-1],[49,40],[7,11],[28,-3],[30,-38],[41,10],[32,0],[33,-12],[-16,28],[4,22],[21,12],[-10,21],[-32,-27],[-25,4],[-6,22],[17,19],[44,26],[-5,15],[-29,-25],[-24,14],[13,32],[-19,29],[-38,18],[-5,27],[48,31],[-8,27],[-30,-1],[-54,-28],[-36,12],[4,18],[30,39],[-10,26],[-117,64],[-20,15],[-4,23],[-30,-6],[-15,-33],[-37,-37],[-20,1],[9,37],[-27,18],[-68,8],[-72,33],[-19,0],[-15,-22],[-28,-14],[-33,15],[-36,45],[-14,10],[-22,-6],[-7,-46],[-19,-18],[-37,10],[-33,41],[-23,4],[-26,-9],[-6,-15],[19,-47],[-16,-27],[-65,-39],[-22,9],[10,26],[-4,16],[-49,60],[23,51],[31,232],[12,44],[13,19],[39,30],[42,14],[44,5],[68,51],[27,39],[13,34]],[[1169,9202],[45,-52],[42,-61],[60,-108],[20,-19],[4,-31],[39,-77],[40,-32],[40,-19],[57,-44],[49,-18],[27,-18],[14,5],[25,42],[45,30],[13,18],[26,7],[-5,13],[38,23],[34,-12],[19,8],[18,-17],[83,24],[49,32],[17,52],[17,31],[28,22],[6,55],[19,50],[46,-53],[21,-12],[64,-5],[126,3],[29,9],[93,1],[92,-4],[36,21],[51,63],[64,62],[7,26]],[[2667,9217],[11,-59],[21,-29],[55,7],[101,-30],[34,-2],[3,-10],[37,-23],[11,-25],[39,-49],[23,-41],[33,-39],[22,-16],[48,-52],[60,-84],[92,-95],[24,-18],[11,-44],[43,-88],[18,-32],[34,-38],[36,-26],[40,-17],[63,-12],[51,2],[63,-32],[25,-23],[25,7],[28,-22],[3,-16],[33,-19],[1,-12],[49,-3],[33,-22],[20,-1],[8,-20],[25,-22],[3,-18],[25,-18],[35,5],[9,-14],[32,-13],[45,15],[41,-16],[35,24],[43,15],[64,-17],[79,-5],[43,15],[50,-7],[7,-26]],[[3130,5785],[-23,5],[-5,19],[-36,0],[-8,-11],[-26,16],[-21,-5],[-14,-20],[-31,11],[-3,-29],[-19,6],[-5,-16],[17,-24],[-24,-4],[-24,15],[-2,-21],[-22,-8],[-34,36],[-24,-3],[-16,-22],[-33,-12],[2,18],[-19,17],[-29,-16],[4,-12],[-33,-13],[-9,19],[22,7],[-35,14],[-17,-35],[-2,-19],[-50,13],[-9,-19],[-43,12],[15,-48],[-15,-18],[-14,8],[-66,-12],[14,-22],[-22,8],[-26,-11],[-18,-27],[-25,-8],[4,-12],[42,-20],[-3,-25],[-33,-21],[-44,-9],[-7,16],[-23,1],[-19,-28],[-23,4],[-23,-10],[17,-12],[-31,-15],[-30,12],[-15,-13],[3,-27],[13,-15],[-18,-10],[-11,10],[-32,-6],[26,-20],[-29,-12],[-10,14],[-8,-17],[23,-16],[-13,-14],[-18,6],[-30,-34],[0,-43],[20,-8],[-9,-17],[31,-4],[-23,-14],[51,10],[-6,-27],[19,0],[33,-26],[-13,-14],[12,-18],[-31,-28],[-17,-28],[10,-18],[11,7],[5,-22],[-10,-27],[25,8],[22,-9],[-5,-38],[-32,-35],[22,-7],[-13,-30]],[[1909,4860],[-13,25],[-56,78],[8,82],[-7,16],[12,32],[-2,30],[-18,16],[-28,5],[-55,32],[-8,33],[41,29],[44,47],[19,40],[10,42],[-13,16],[-33,18],[-12,16],[-29,66],[0,21],[19,34],[49,69],[45,80],[38,97],[8,39],[-6,19],[-69,37],[-33,31],[-26,34],[-91,77],[-39,28],[-89,33],[-9,51],[-13,29],[13,25],[33,-7],[44,-1],[28,-7],[43,38],[24,39],[-47,7],[-34,-1],[-15,32],[-29,5],[-82,-12],[-4,23],[11,20],[-30,35],[-17,64],[-10,17]],[[1481,6439],[74,-14],[45,2],[55,37],[58,64],[57,70],[38,32],[51,31],[41,34]],[[1900,6695],[26,3],[55,-11],[65,-19],[24,3],[7,29],[-20,20],[10,133],[-8,53],[42,50],[25,22],[15,39],[16,-4],[9,32],[-19,15],[13,46],[-16,6],[22,45],[9,66],[36,54],[-31,48],[-7,48],[4,31],[14,36],[46,70],[-105,9],[-14,25],[-63,0],[-61,15],[-68,-2],[-8,37],[5,25]],[[1923,7619],[165,34],[15,10]],[[1923,7619],[-38,-9],[-25,-27],[-32,5],[-21,14],[-95,-2],[-112,-34],[-36,-26],[-26,0],[-66,79],[-20,12],[-42,5],[-54,23],[-70,48],[-32,13],[-91,-1],[-45,7]],[[1118,7726],[-20,32],[-15,39],[9,28],[-6,32],[6,42],[-13,13],[-6,29],[12,6],[38,-25],[37,16],[28,-15],[66,46],[-25,11],[7,21],[29,10],[-47,16],[4,21],[-31,17],[5,7],[39,-5],[40,6],[20,-8],[23,-30],[13,4],[26,34],[3,20],[32,-18],[12,6],[2,66],[19,7],[68,-13],[25,30],[1,17],[31,5],[-8,-24],[37,-3],[5,45],[18,4]],[[529,4856],[30,51],[21,7],[5,16],[24,25],[45,-3],[-14,22],[9,21],[-7,32],[11,2],[8,33],[-4,45],[-25,19],[6,25],[16,11],[25,0],[41,32],[2,-40],[20,14],[42,-8],[9,17],[-17,3],[0,16],[31,16],[6,21],[25,-3],[3,13],[30,10],[15,-13],[23,14],[-3,16],[50,56],[31,7],[-31,24],[12,47],[-17,9],[-8,38],[20,25],[-27,-2],[-21,14],[30,35],[20,8],[35,-2],[12,8],[23,-11],[36,-4],[-2,13],[25,42],[-19,10],[17,31],[32,7],[-13,30],[-26,24],[21,26],[34,7],[13,-6],[16,14],[6,38],[-37,10],[-38,39],[-3,27],[-34,13],[-19,-10],[-24,11],[15,13],[40,15],[23,28],[-32,27],[-4,37],[17,3],[24,-22],[29,-10],[31,15],[7,47],[-36,26],[-25,7],[-64,-10],[-61,-24],[-21,14],[-7,17],[25,40],[-65,-7],[-16,-11],[-3,52],[35,-13],[20,39],[-22,9],[-19,26],[25,21],[-15,19],[4,32],[-17,7],[19,19],[-48,10],[32,59],[52,3],[-1,17],[-36,-2],[-6,31],[-40,-2],[-7,-11],[-19,9],[16,13],[-13,23],[-22,0],[22,23],[5,33],[36,3],[16,-18],[3,19],[23,-5],[22,15]],[[962,6484],[72,-6],[86,29],[37,3],[67,-7],[90,3],[41,6],[60,-5],[22,-8],[30,-29],[14,-31]],[[7647,5542],[22,-36],[23,12],[13,-54],[42,-14],[0,-37],[23,-10],[-12,-24],[20,-57],[-24,-26],[-7,-35],[25,-12],[-2,-53],[-21,-17],[21,-17],[8,-23],[11,4],[22,-48],[-8,2],[-20,-57],[-7,-4],[-10,-60],[22,-19],[17,-34],[42,-23],[40,-12],[29,-26],[7,-20],[49,3],[150,-39],[7,-49],[18,4],[14,20],[38,26],[-1,20],[74,33],[2,-16],[52,-23],[37,-47],[26,-6],[8,-15],[27,-8],[43,-31],[17,12],[64,-9],[-11,-37],[3,-18],[66,-4],[32,-17],[16,-38],[44,-42],[2,-22],[70,-14],[130,7],[22,-2],[27,11],[24,-11],[-6,-46],[11,-6],[10,-36],[38,-29],[-4,-42],[13,-29],[-14,-11],[4,-39],[20,-21],[17,-67],[23,-18],[-56,-27],[-7,-60],[29,-33],[8,-58],[-45,-10],[-29,-18],[-8,-22],[-38,-29],[-30,-40],[-13,-33],[0,-39]],[[8896,3817],[-88,26],[-111,-1],[-68,11],[-43,24],[-17,2],[-23,-17],[-34,21],[-18,55],[-44,16],[-30,20],[-19,33],[-88,47],[-89,61],[-54,51],[-58,42],[-19,9],[-60,-11],[-3,-14],[-36,-4],[-41,6],[-61,-4],[-5,-12],[-116,14],[-97,7],[-113,2],[-49,12],[-45,-8],[-40,3],[-40,-19],[-30,13],[-19,-5],[-64,12],[-20,-12],[-27,-3],[-27,9],[-27,20],[2,22],[-18,9],[-45,-5],[-13,18],[-29,2],[-11,17]],[[7059,4286],[-13,4],[-4,39],[10,4],[-15,29],[-30,12],[-2,25],[-29,5],[4,29],[-34,2],[-4,15],[19,11],[25,-11],[-18,33],[23,8],[-36,3],[-51,36],[36,0],[11,49],[-10,21],[-38,-17],[-41,-3],[16,14],[-10,10],[20,49],[-12,19],[31,5],[-2,26],[-20,75],[-18,5],[-15,28],[28,8],[0,18],[-18,10],[75,34],[-21,16],[-5,33],[-29,20],[-32,4],[-7,13],[37,-6],[24,17],[-2,29],[33,30],[-4,23],[-21,-8],[-27,17],[-2,63],[21,5],[2,31],[30,-16],[56,21],[-19,8],[-20,28],[17,17],[-8,42],[36,19],[25,1],[4,-13],[49,2],[-10,27],[64,-15],[1,17],[52,18],[29,44],[-33,22],[-19,2],[2,17]],[[4937,3987],[16,-3],[72,12],[61,16],[53,24],[23,-1],[20,-25],[18,-43],[24,-40],[46,13],[29,1],[69,24],[75,2],[11,44],[0,36],[-43,113],[-11,53],[2,16]],[[5402,4229],[59,51],[145,79],[76,45],[72,39],[58,3],[64,-26],[197,-129],[65,-36],[128,-83],[45,-26],[60,-64],[21,-29],[18,-37],[61,-37],[-17,-28],[-28,-13],[79,-18],[61,-3],[75,-23],[74,-10],[-14,-97],[7,-9],[37,23],[10,29],[32,-11],[62,9],[30,20],[49,19],[32,-5],[28,9]],[[6988,3871],[12,-13],[-16,-13],[17,-19],[-10,-31],[23,-34],[-24,-17],[-7,-23],[-28,-20],[10,-8],[-13,-37],[-15,-11],[-23,2],[-21,-16],[-56,6],[-56,-3]],[[7059,4286],[-7,-25],[-30,-22],[-15,-79],[21,-14],[-12,-27],[-39,-22],[0,-46],[16,-8],[-8,-26],[0,-62],[-20,-35],[13,-9],[-1,-27],[11,-13]],[[5402,4229],[-41,93],[-79,60],[20,28],[41,11],[-11,31],[23,24],[-11,17],[33,4],[-12,18],[40,42],[-72,36],[-25,22],[-23,3],[-13,21],[-3,35],[12,51],[1,61],[-6,67],[4,113],[-4,42],[-21,39],[-23,17],[-23,33],[-48,40],[16,38],[10,5]],[[3956,5062],[-4,-56],[-17,-76],[9,-55],[5,-64],[-13,-36],[-3,-38],[26,-161],[8,-121],[-12,-12]],[[3718,539],[-34,-7],[-41,-33],[-18,-35],[-16,-8],[-42,6],[-14,-7],[-28,-37],[-35,-7],[-19,-13],[14,-21],[-33,-48],[-12,-32],[-40,-31],[-16,-2],[-100,-41],[-167,-25],[-54,14],[-19,11],[-41,49],[-26,37],[-29,8],[-17,-16],[-57,30],[-38,1],[-55,-26],[-30,-6],[-64,-26],[30,-18],[15,-20],[-16,-39],[21,-35],[-10,-23],[-26,-14],[-61,-8],[-111,-2],[-51,-11],[-51,-17],[-59,-7],[-24,16],[-25,31],[-1,17],[25,35],[7,33],[-23,38],[-64,21],[-34,-16],[-72,-6],[-53,-15],[-52,-1],[-75,-22],[-17,-10],[-23,-43],[-21,-22],[-12,-65],[-29,-18],[-58,-20],[-38,-5],[-115,-28],[-54,0],[-31,15],[-45,-6],[-21,46],[-19,29],[-8,27],[-44,6],[-7,13],[-35,21],[1,17],[27,36],[4,47],[22,18],[14,32],[-23,31],[-12,50],[16,17],[-3,35],[-10,25],[5,27],[-10,44],[8,20],[36,11],[22,25],[-4,26],[-18,37],[6,24],[-15,16],[15,27],[-14,29],[21,12],[-8,17],[16,9],[8,28],[0,48],[24,12],[-17,11],[18,11],[-28,25],[17,-3],[28,21],[-7,18],[13,9],[-4,24],[-23,27],[14,30],[-17,-6],[-16,18],[-30,8],[2,23],[-31,37],[-9,26],[19,12],[-6,19],[49,61],[-53,-7],[-42,25],[-38,-12],[-34,5],[-19,23],[4,47],[17,85],[-10,61],[-29,88],[10,30],[-21,51],[3,19],[135,74],[13,25],[-18,63],[9,16],[60,50],[30,52],[1,59],[12,59],[21,61],[-6,40],[8,54],[-6,41],[-12,29]],[[962,6484],[3,39],[-26,11],[28,52],[-33,-13],[-38,16],[-7,21],[-26,-1],[-62,26],[6,14],[-7,38],[-23,2],[-22,-28],[-14,1],[-71,38],[-27,2],[-1,16],[30,-2],[-9,36],[13,16],[-26,9],[8,29],[19,9],[3,21],[-39,25],[-7,19],[35,26],[43,13],[29,-4],[-3,21],[13,21],[-20,23],[13,18],[46,-5],[13,23],[-30,1],[-36,18],[-11,18],[36,43],[-24,2],[-11,21],[-52,29],[7,25],[23,11],[10,18],[20,8],[101,-13],[17,13],[-3,15],[-40,21],[3,17],[51,-10],[24,42],[-18,29],[-16,8],[-31,43],[2,8],[34,-1],[11,12],[55,11],[9,16]],[[934,7421],[237,-83],[47,-31],[20,-39],[69,-39],[45,-33],[62,-26],[8,-17],[14,-66],[25,-47],[26,-25],[125,-91],[30,-70],[12,-47],[29,-24],[91,-25],[19,-14],[35,-6],[72,-43]],[[8896,3817],[4,-44],[11,-15],[53,-20],[92,-70],[33,-57],[9,-66],[-7,-125],[13,-40],[35,-48],[116,-73],[43,-19]],[[934,7421],[-25,30],[-68,33],[-81,20],[-16,10],[-12,40],[-26,29],[-15,58],[10,19],[39,2],[14,-33],[-14,-16],[23,-11],[34,1],[55,-45],[14,-6],[32,10],[19,15],[31,9],[3,18],[-24,23],[3,66],[9,21],[-23,11],[15,49],[12,2],[35,-24],[11,-28],[31,4],[51,18],[25,-28],[22,8]],[[1169,9202],[13,51],[16,24],[88,81],[42,18],[171,48],[23,8],[40,30],[-26,46],[-9,4],[-9,55],[41,2],[8,21],[15,-6],[-1,23],[26,-1],[18,30],[36,-12],[41,1],[25,60],[15,23],[-22,35],[-21,2],[5,26],[16,-1],[14,18],[40,20],[8,23],[11,-8],[23,31],[15,-11],[14,15],[18,-9],[16,14],[48,-34],[14,6],[26,-20],[49,11],[1,15],[-22,41],[-17,-3],[-2,29],[-24,18],[7,10],[-18,30],[19,27],[68,6],[32,-11],[7,-16],[54,-30],[37,2],[18,13],[69,-22],[18,-29],[14,-77],[22,-73],[12,3],[21,-45],[38,-38],[-61,-26],[-23,-45],[-4,-56],[25,-33],[44,-36],[84,-51],[85,-83],[71,-46],[21,-33],[36,-8],[2,-19],[17,-23]]],"transform":{"scale":[0.00010057880018002204,0.000122604494549455],"translate":[103.90283929500004,14.342360443000075]},"objects":{"Si Sa Ket":{"type":"GeometryCollection","geometries":[{"arcs":[[0,1,2,3,4,5,6]],"type":"Polygon","properties":{"Shape_Leng":1.23356349285,"Shape_Area":0.0454163183273,"ADM2_EN":"Mueang Si Sa Ket","ADM2_TH":"เมืองศรีสะเกษ","ADM2_PCODE":"TH3301","ADM1_EN":"Si Sa Ket","ADM1_TH":"ศรีสะเกษ","ADM1_PCODE":"TH33","ADM0_EN":"Thailand","ADM0_TH":"ประเทศไทย","ADM0_PCODE":"TH"}},{"arcs":[[-7,7,8,9]],"type":"Polygon","properties":{"Shape_Leng":0.71786327197,"Shape_Area":0.0189189258193,"ADM2_EN":"Yang Chum Noi","ADM2_TH":"ยางชุมน้อย","ADM2_PCODE":"TH3302","ADM1_EN":"Si Sa Ket","ADM1_TH":"ศรีสะเกษ","ADM1_PCODE":"TH33","ADM0_EN":"Thailand","ADM0_TH":"ประเทศไทย","ADM0_PCODE":"TH"}},{"arcs":[[-1,-10,10,11,12]],"type":"Polygon","properties":{"Shape_Leng":1.74916015622,"Shape_Area":0.0606942014907,"ADM2_EN":"Kanthararom","ADM2_TH":"กันทรารมย์","ADM2_PCODE":"TH3303","ADM1_EN":"Si Sa Ket","ADM1_TH":"ศรีสะเกษ","ADM1_PCODE":"TH33","ADM0_EN":"Thailand","ADM0_TH":"ประเทศไทย","ADM0_PCODE":"TH"}},{"arcs":[[13,14,15,16]],"type":"Polygon","properties":{"Shape_Leng":2.38153628185,"Shape_Area":0.115300806219,"ADM2_EN":"Kantharalak","ADM2_TH":"กันทรลักษ์","ADM2_PCODE":"TH3304","ADM1_EN":"Si Sa Ket","ADM1_TH":"ศรีสะเกษ","ADM1_PCODE":"TH33","ADM0_EN":"Thailand","ADM0_TH":"ประเทศไทย","ADM0_PCODE":"TH"}},{"arcs":[[17,18,19,20,21,22]],"type":"Polygon","properties":{"Shape_Leng":1.59073745459,"Shape_Area":0.0645685786145,"ADM2_EN":"Khukhan","ADM2_TH":"ขุขันธ์","ADM2_PCODE":"TH3305","ADM1_EN":"Si Sa Ket","ADM1_TH":"ศรีสะเกษ","ADM1_PCODE":"TH33","ADM0_EN":"Thailand","ADM0_TH":"ประเทศไทย","ADM0_PCODE":"TH"}},{"arcs":[[-18,23,24,25,26]],"type":"Polygon","properties":{"Shape_Leng":0.851080825799,"Shape_Area":0.0226506781672,"ADM2_EN":"Phrai Bueng","ADM2_TH":"ไพรบึง","ADM2_PCODE":"TH3306","ADM1_EN":"Si Sa Ket","ADM1_TH":"ศรีสะเกษ","ADM1_PCODE":"TH33","ADM0_EN":"Thailand","ADM0_TH":"ประเทศไทย","ADM0_PCODE":"TH"}},{"arcs":[[-22,27,28,29,30]],"type":"Polygon","properties":{"Shape_Leng":1.03634816278,"Shape_Area":0.0319221807063,"ADM2_EN":"Prang Ku","ADM2_TH":"ปรางค์กู่","ADM2_PCODE":"TH3307","ADM1_EN":"Si Sa Ket","ADM1_TH":"ศรีสะเกษ","ADM1_PCODE":"TH33","ADM0_EN":"Thailand","ADM0_TH":"ประเทศไทย","ADM0_PCODE":"TH"}},{"arcs":[[-16,31,32,-19,-27,33]],"type":"Polygon","properties":{"Shape_Leng":1.33008797479,"Shape_Area":0.0791108053392,"ADM2_EN":"Khun Han","ADM2_TH":"ขุนหาญ","ADM2_PCODE":"TH3308","ADM1_EN":"Si Sa Ket","ADM1_TH":"ศรีสะเกษ","ADM1_PCODE":"TH33","ADM0_EN":"Thailand","ADM0_TH":"ประเทศไทย","ADM0_PCODE":"TH"}},{"arcs":[[-6,34,35,36,37,38,-8]],"type":"Polygon","properties":{"Shape_Leng":1.39179176391,"Shape_Area":0.0421264296723,"ADM2_EN":"Rasi Salai","ADM2_TH":"ราษีไศล","ADM2_PCODE":"TH3309","ADM1_EN":"Si Sa Ket","ADM1_TH":"ศรีสะเกษ","ADM1_PCODE":"TH33","ADM0_EN":"Thailand","ADM0_TH":"ประเทศไทย","ADM0_PCODE":"TH"}},{"arcs":[[-5,39,-30,40,41,42,43,-35]],"type":"Polygon","properties":{"Shape_Leng":1.41398509983,"Shape_Area":0.0368683084609,"ADM2_EN":"Uthumphon Phisai","ADM2_TH":"อุทุมพรพิสัย","ADM2_PCODE":"TH3310","ADM1_EN":"Si Sa Ket","ADM1_TH":"ศรีสะเกษ","ADM1_PCODE":"TH33","ADM0_EN":"Thailand","ADM0_TH":"ประเทศไทย","ADM0_PCODE":"TH"}},{"arcs":[[-36,-44,44,45]],"type":"Polygon","properties":{"Shape_Leng":0.35809444886,"Shape_Area":0.00455578039133,"ADM2_EN":"Bueng Bun","ADM2_TH":"บึงบูรพ์","ADM2_PCODE":"TH3311","ADM1_EN":"Si Sa Ket","ADM1_TH":"ศรีสะเกษ","ADM1_PCODE":"TH33","ADM0_EN":"Thailand","ADM0_TH":"ประเทศไทย","ADM0_PCODE":"TH"}},{"arcs":[[-29,46,47,-41]],"type":"Polygon","properties":{"Shape_Leng":0.945954433773,"Shape_Area":0.0178388804148,"ADM2_EN":"Huai Thap Than","ADM2_TH":"ห้วยทับทัน","ADM2_PCODE":"TH3312","ADM1_EN":"Si Sa Ket","ADM1_TH":"ศรีสะเกษ","ADM1_PCODE":"TH33","ADM0_EN":"Thailand","ADM0_TH":"ประเทศไทย","ADM0_PCODE":"TH"}},{"arcs":[[-12,48,49,50]],"type":"Polygon","properties":{"Shape_Leng":1.00746579702,"Shape_Area":0.0230628249394,"ADM2_EN":"Non Khun","ADM2_TH":"โนนคูณ","ADM2_PCODE":"TH3313","ADM1_EN":"Si Sa Ket","ADM1_TH":"ศรีสะเกษ","ADM1_PCODE":"TH33","ADM0_EN":"Thailand","ADM0_TH":"ประเทศไทย","ADM0_PCODE":"TH"}},{"arcs":[[-17,-34,-26,51,52,53]],"type":"Polygon","properties":{"Shape_Leng":0.826131485151,"Shape_Area":0.0182323619245,"ADM2_EN":"Si Rattana","ADM2_TH":"ศรีรัตนะ","ADM2_PCODE":"TH3314","ADM1_EN":"Si Sa Ket","ADM1_TH":"ศรีสะเกษ","ADM1_PCODE":"TH33","ADM0_EN":"Thailand","ADM0_TH":"ประเทศไทย","ADM0_PCODE":"TH"}},{"arcs":[[-2,-13,-51,54,-53,55]],"type":"Polygon","properties":{"Shape_Leng":1.16526725761,"Shape_Area":0.0230798212902,"ADM2_EN":"Nam Kliang","ADM2_TH":"น้ำเกลี้ยง","ADM2_PCODE":"TH3315","ADM1_EN":"Si Sa Ket","ADM1_TH":"ศรีสะเกษ","ADM1_PCODE":"TH33","ADM0_EN":"Thailand","ADM0_TH":"ประเทศไทย","ADM0_PCODE":"TH"}},{"arcs":[[-4,56,-24,-23,-31,-40]],"type":"Polygon","properties":{"Shape_Leng":0.90514840402,"Shape_Area":0.0243034392821,"ADM2_EN":"Wang Hin","ADM2_TH":"วังหิน","ADM2_PCODE":"TH3316","ADM1_EN":"Si Sa Ket","ADM1_TH":"ศรีสะเกษ","ADM1_PCODE":"TH33","ADM0_EN":"Thailand","ADM0_TH":"ประเทศไทย","ADM0_PCODE":"TH"}},{"arcs":[[-20,-33,57]],"type":"Polygon","properties":{"Shape_Leng":1.17493105769,"Shape_Area":0.0517493479675,"ADM2_EN":"Phu Sing","ADM2_TH":"ภูสิงห์","ADM2_PCODE":"TH3317","ADM1_EN":"Si Sa Ket","ADM1_TH":"ศรีสะเกษ","ADM1_PCODE":"TH33","ADM0_EN":"Thailand","ADM0_TH":"ประเทศไทย","ADM0_PCODE":"TH"}},{"arcs":[[-42,-48,58,59]],"type":"Polygon","properties":{"Shape_Leng":0.486048276062,"Shape_Area":0.00867596177503,"ADM2_EN":"Mueang Chan","ADM2_TH":"เมืองจันทร์","ADM2_PCODE":"TH3318","ADM1_EN":"Si Sa Ket","ADM1_TH":"ศรีสะเกษ","ADM1_PCODE":"TH33","ADM0_EN":"Thailand","ADM0_TH":"ประเทศไทย","ADM0_PCODE":"TH"}},{"arcs":[[-14,-54,-55,-50,60]],"type":"Polygon","properties":{"Shape_Leng":0.966961899058,"Shape_Area":0.0214228371151,"ADM2_EN":"Benchalak","ADM2_TH":"เบญจลักษ์","ADM2_PCODE":"TH3319","ADM1_EN":"Si Sa Ket","ADM1_TH":"ศรีสะเกษ","ADM1_PCODE":"TH33","ADM0_EN":"Thailand","ADM0_TH":"ประเทศไทย","ADM0_PCODE":"TH"}},{"arcs":[[-3,-56,-52,-25,-57]],"type":"Polygon","properties":{"Shape_Leng":0.61201455777,"Shape_Area":0.0141609575716,"ADM2_EN":"Phayu","ADM2_TH":"พยุห์","ADM2_PCODE":"TH3320","ADM1_EN":"Si Sa Ket","ADM1_TH":"ศรีสะเกษ","ADM1_PCODE":"TH33","ADM0_EN":"Thailand","ADM0_TH":"ประเทศไทย","ADM0_PCODE":"TH"}},{"arcs":[[-43,-60,61,-45]],"type":"Polygon","properties":{"Shape_Leng":0.54635476843,"Shape_Area":0.00958059630963,"ADM2_EN":"Pho Si Suwan","ADM2_TH":"โพธิ์ศรีสุวรรณ","ADM2_PCODE":"TH3321","ADM1_EN":"Si Sa Ket","ADM1_TH":"ศรีสะเกษ","ADM1_PCODE":"TH33","ADM0_EN":"Thailand","ADM0_TH":"ประเทศไทย","ADM0_PCODE":"TH"}},{"arcs":[[-38,62]],"type":"Polygon","properties":{"Shape_Leng":0.618022355749,"Shape_Area":0.0119001402116,"ADM2_EN":"Sila Lat","ADM2_TH":"ศิลาลาด","ADM2_PCODE":"TH3322","ADM1_EN":"Si Sa Ket","ADM1_TH":"ศรีสะเกษ","ADM1_PCODE":"TH33","ADM0_EN":"Thailand","ADM0_TH":"ประเทศไทย","ADM0_PCODE":"TH"}}]}}}