{"type":"Topology","arcs":[[[8894,3403],[-5,-27],[-330,-182],[-94,48],[-341,-1],[-31,-58],[-222,-138],[-139,-169],[122,-49],[-131,-149],[-173,45],[-38,-185],[-145,-77],[25,-230]],[[7392,2231],[-136,-29],[-170,154],[-56,-61],[-139,104]],[[6891,2399],[-116,481],[-3,245],[-383,105],[36,151],[264,220],[-16,63],[-137,87],[-52,-23],[-148,53],[-284,-25]],[[6052,3756],[-78,153],[-151,-24],[-41,90],[-282,39],[11,131],[-92,214],[-244,96],[84,69],[-62,99],[13,83],[-181,54],[-7,69],[175,62],[-36,94],[46,45],[187,36],[-28,101],[-91,102],[-68,141]],[[5207,5410],[199,39],[45,-40],[224,94],[377,65],[-55,201],[335,116],[401,13],[198,31],[131,86],[169,70],[265,53],[-81,90],[-112,228],[44,73],[203,133],[279,235],[121,-46],[159,13],[260,118],[282,80]],[[8651,7062],[14,-160],[-100,-20],[202,-327],[42,-230],[-40,-6],[26,-398],[-69,-373],[-117,-72],[-361,-102],[-434,-145],[-43,-73],[90,-168],[4,-301],[-24,-117],[68,-5],[11,-125],[135,-230],[-56,-93],[109,-127],[165,55],[56,-75],[87,2],[-41,-99],[183,-26],[50,29],[126,-45],[-112,-134],[38,-91],[-56,-61],[32,-117],[258,-25]],[[6052,3756],[69,-97],[-111,-112],[-168,-39],[-93,-211],[-169,-97],[-1045,7],[25,-114],[-190,-225],[-213,-146],[-146,-32],[-135,73],[-225,-126],[-210,-20],[-557,31],[42,72],[16,244],[79,192],[-227,228],[-172,322],[-310,-42],[-46,-195],[-103,-54],[-9,-82],[200,-193],[-37,-121],[-132,-40],[-299,-37],[-23,137],[-521,-58],[-48,37],[-123,-101],[-90,16]],[[1081,2973],[110,114],[-69,103],[55,109],[-21,144],[121,132],[-29,91],[-143,103],[29,65],[209,135],[32,107],[-188,53],[-181,-61],[-124,29],[-57,71],[-44,193],[43,46],[269,30],[58,64],[217,65],[-64,104],[-212,67],[-107,-42],[-587,-117],[-250,93],[-19,291],[-105,101],[-24,290],[226,71],[141,-8],[152,64],[103,184],[42,153],[412,3],[705,-40],[53,-60],[194,-86],[205,-29],[187,3],[87,-31],[139,90],[-3,60],[382,15],[266,106],[178,41]],[[3469,5889],[192,-57],[220,-18],[8,-45],[132,37],[35,64],[429,11],[255,-147],[7,-124],[152,22],[133,-165],[143,34],[32,-91]],[[6891,2399],[-291,-121],[-232,-129],[-166,-31],[152,-113],[-311,-259],[-206,-115],[-392,-169]],[[5445,1462],[-186,63],[9,67],[-121,106],[-134,36],[30,102],[-91,46],[-74,113],[-93,41],[-112,-45],[-303,-59],[-140,-4],[-74,-53],[127,-56],[32,-98],[-338,-42],[-137,47],[-76,-38],[-68,-194],[-164,107],[-405,129],[-180,232],[-202,-94],[-247,18],[-126,-22],[-276,124],[-133,-57],[-522,-80],[-47,67],[-193,-20],[-85,38],[-73,214],[-283,31],[-44,35],[162,312],[-14,164],[37,147],[180,134]],[[8894,3403],[153,-42],[14,-98],[-38,-138],[48,-60],[-78,-48],[-85,-144],[54,-77],[141,-16],[10,-43],[150,-46],[-45,-201],[165,-51],[284,-137],[153,-44],[-314,-265],[-157,-62],[121,-116],[7,-84],[-87,-59],[144,-170],[-17,-136],[74,-94],[-112,-27],[188,-143],[-119,-8],[-60,-78],[386,-128],[80,-88],[45,-123],[-164,-101],[53,-117],[-206,-16],[-54,-64],[26,-77],[-133,-57],[61,-174],[-43,-43],[-155,-14],[-22,52],[-159,54],[-190,-120],[-236,0],[-70,87],[-118,-13],[-92,42],[-142,0],[-8,52],[-486,19],[-203,-77],[-53,52],[38,175],[-92,80],[111,115],[-62,133]],[[7600,665],[236,66],[-4,286],[50,79],[-87,62],[13,141],[46,3],[-15,133],[79,31],[-82,80],[-35,173],[-349,73],[48,140],[130,11],[6,122],[-223,-16],[-21,182]],[[7600,665],[-83,129],[-134,49],[-171,114],[-106,-135],[-9,-86],[-218,-167],[-324,8],[-66,-31],[-27,87],[-278,417],[-256,-8],[-251,-30],[-121,185],[-129,84],[48,87],[-30,94]],[[3469,5889],[-43,324],[2,144],[131,41],[-88,71],[6,89],[-99,126],[17,120],[-99,15],[-78,-50],[-188,31],[13,78],[-128,96],[-98,250],[-109,51],[-119,-16],[-175,-89],[-205,133],[42,128],[-252,-13],[-27,41],[107,50],[-25,63],[-154,27],[-5,-62],[-97,-30],[-71,69],[-163,31],[-205,-1],[54,55],[-141,140],[66,13],[-34,137],[-83,2],[-32,138],[721,-139],[232,36],[248,153],[36,75],[97,16],[40,103],[-38,122],[75,3],[516,178],[71,-57],[283,51],[167,-34],[34,135],[-113,172],[63,112],[205,118],[201,1],[297,82],[693,401],[410,273],[207,107],[44,-72],[-93,-401],[49,-123],[355,-144],[308,-107],[1260,-691],[360,-186],[43,32],[57,205],[629,-147],[678,-579],[61,-96],[-7,-117],[-257,-527],[-323,34],[-147,-18]]],"transform":{"scale":[0.000030574257725772224,0.000039944732573257646],"translate":[100.18238138500004,14.721096421000025]},"objects":{"Sing Buri":{"type":"GeometryCollection","geometries":[{"arcs":[[0,1,2,3,4,5]],"type":"Polygon","properties":{"Shape_Leng":0.680078746216,"Shape_Area":0.0110515880624,"ADM2_EN":"Mueang Sing Buri","ADM2_TH":"เมืองสิงห์บุรี","ADM2_PCODE":"TH1701","ADM1_EN":"Sing Buri","ADM1_TH":"สิงห์บุรี","ADM1_PCODE":"TH17","ADM0_EN":"Thailand","ADM0_TH":"ประเทศไทย","ADM0_PCODE":"TH"}},{"arcs":[[-4,6,7,8]],"type":"Polygon","properties":{"Shape_Leng":0.761139751687,"Shape_Area":0.0156415101206,"ADM2_EN":"Bang Rachan","ADM2_TH":"บางระจัน","ADM2_PCODE":"TH1702","ADM1_EN":"Sing Buri","ADM1_TH":"สิงห์บุรี","ADM1_PCODE":"TH17","ADM0_EN":"Thailand","ADM0_TH":"ประเทศไทย","ADM0_PCODE":"TH"}},{"arcs":[[-3,9,10,-7]],"type":"Polygon","properties":{"Shape_Leng":0.662297575105,"Shape_Area":0.00926473703089,"ADM2_EN":"Khai Bang Rachan","ADM2_TH":"ค่ายบางระจัน","ADM2_PCODE":"TH1703","ADM1_EN":"Sing Buri","ADM1_TH":"สิงห์บุรี","ADM1_PCODE":"TH17","ADM0_EN":"Thailand","ADM0_TH":"ประเทศไทย","ADM0_PCODE":"TH"}},{"arcs":[[-1,11,12]],"type":"Polygon","properties":{"Shape_Leng":0.500311069905,"Shape_Area":0.0069615399299,"ADM2_EN":"Phrom Buri","ADM2_TH":"พรหมบุรี","ADM2_PCODE":"TH1704","ADM1_EN":"Sing Buri","ADM1_TH":"สิงห์บุรี","ADM1_PCODE":"TH17","ADM0_EN":"Thailand","ADM0_TH":"ประเทศไทย","ADM0_PCODE":"TH"}},{"arcs":[[-2,-13,13,-10]],"type":"Polygon","properties":{"Shape_Leng":0.303229417702,"Shape_Area":0.00337318219531,"ADM2_EN":"Tha Chang","ADM2_TH":"ท่าช้าง","ADM2_PCODE":"TH1705","ADM1_EN":"Sing Buri","ADM1_TH":"สิงห์บุรี","ADM1_PCODE":"TH17","ADM0_EN":"Thailand","ADM0_TH":"ประเทศไทย","ADM0_PCODE":"TH"}},{"arcs":[[-5,-9,14]],"type":"Polygon","properties":{"Shape_Leng":0.825571613404,"Shape_Area":0.0224339925032,"ADM2_EN":"In Buri","ADM2_TH":"อินทร์บุรี","ADM2_PCODE":"TH1706","ADM1_EN":"Sing Buri","ADM1_TH":"สิงห์บุรี","ADM1_PCODE":"TH17","ADM0_EN":"Thailand","ADM0_TH":"ประเทศไทย","ADM0_PCODE":"TH"}}]}}}