{"type":"Topology","arcs":[[[5692,4892],[-55,-45],[9,-26],[20,-16],[26,-47],[48,-10],[-13,-38],[7,-50],[-7,-37],[31,-27],[-19,-30],[-21,-3],[-7,18],[9,24],[-36,0],[-39,29],[-20,0],[-10,-15],[25,-9],[12,-15],[8,-29],[-6,-15],[-15,0],[-16,17],[-9,-3],[-2,-32],[-14,-24],[10,-20],[24,3],[23,-13],[24,-38],[10,-5],[18,8],[6,29],[9,8],[41,-9],[3,-12],[-20,-14],[-2,-21],[12,7],[20,-27],[-16,-8],[1,-10],[-19,-5],[8,-19],[-15,-47],[-12,-16],[14,-2],[-1,-27],[18,-1],[-8,-18],[17,-18],[-7,-22],[16,-20],[0,-16],[-12,-43],[-20,-21],[0,-16],[-17,-23],[-1,-22],[13,-10],[-10,-27],[-19,-9],[-5,-19],[-19,-7],[22,-24],[-8,-25],[9,-18],[0,-22],[17,-4],[-1,-23],[-9,-16],[10,-21],[19,-14]],[[5741,3812],[-6,-32],[48,-65],[-8,-8],[-61,-19],[-89,-14],[-50,-15],[-31,2],[-8,-18]],[[5536,3643],[-59,24],[-39,-79],[-76,4],[-33,21]],[[5329,3613],[12,14],[-86,66],[-35,-1],[-20,11],[3,31],[14,63],[9,70],[2,48],[-4,22],[-19,29],[-33,36],[-13,3],[-3,20],[-9,1],[-26,73],[0,9],[17,20],[-18,17],[-10,20],[2,14],[-8,47],[-7,18],[-36,47],[-5,18],[-26,41],[-18,18],[2,11],[-10,62],[9,13],[-5,36],[22,42],[-17,2],[-16,16],[1,27],[-20,-1],[-16,-10],[-22,-38],[-12,-48],[-16,-15],[-17,-5],[-48,1],[-35,-9],[-15,7],[-17,19],[-16,6],[-25,-8],[-9,15],[-19,14],[0,15],[30,21],[34,45],[-8,9],[-23,1],[-21,26],[9,14],[24,12],[9,14],[2,20],[20,12],[7,28],[28,18],[17,1],[-4,30],[33,3],[0,-25],[15,-2],[9,19],[-11,20],[6,14],[23,-4],[6,6],[-13,24],[21,20],[4,22],[42,-9],[6,24],[11,17],[26,11],[40,-6],[73,40],[49,25],[18,13],[43,93],[42,51],[28,26],[28,13]],[[5334,5166],[4,-10],[-38,-31],[4,-8],[36,0],[-14,-25],[-26,-13],[-13,-32],[37,-17],[11,0],[51,19],[35,23],[0,-19],[29,-4],[22,-12],[-13,-9],[-25,-52],[32,7],[25,-6],[41,20],[20,2],[16,17],[14,-3],[-24,-52],[13,-13],[-7,-9],[9,-23],[34,-2],[6,8],[12,-25],[3,-28],[16,18],[11,35],[8,-3],[-3,-23],[19,7],[13,-11]],[[5692,4892],[12,-5],[23,33],[-3,-17],[26,-2],[29,19],[46,22],[55,4],[26,11],[93,-12],[118,-21],[73,-8],[26,4],[28,44],[27,18],[26,7],[29,-6],[28,20],[15,-4],[7,17],[20,21],[14,3],[-13,15],[-6,22],[14,35],[16,26],[24,57],[7,26],[17,32],[29,31],[36,56],[33,30],[34,20],[38,7],[26,-3],[46,-17],[48,-26],[105,-34]],[[6864,5317],[-8,-44],[-10,-27],[-10,-3],[-6,-26],[24,-3],[17,5],[-8,-42],[4,-15],[23,-10],[68,-3],[6,-35],[-8,-29],[19,-14],[12,10],[54,-10],[9,-12],[13,6],[15,-15],[12,0],[4,-24],[15,-4],[27,-23],[5,-26],[30,-16],[-5,-49],[13,-22],[31,-9],[14,-27],[-12,-26],[-15,2],[-19,-24],[9,-3],[-4,-33],[10,-2],[2,-27],[34,5],[21,-15],[0,-12],[17,-7],[18,4],[15,-19],[17,15],[19,-6],[20,10],[63,-29],[9,8],[17,-5],[13,-37],[-15,-10],[9,-6],[-4,-27],[14,-8],[-16,-25],[-13,10],[-4,-15],[-24,-7],[-1,-55],[-7,-3],[-2,-33],[7,-10],[-1,-25],[11,-9],[-23,-56],[19,-5],[12,-24],[32,-19],[3,-17],[8,7],[18,-31],[15,4],[-8,-29],[-23,-12],[5,-7],[-19,-23],[2,-13],[27,2],[2,-17],[18,-7],[22,1],[16,-13],[26,-8],[7,-15],[15,-7],[10,-30],[33,4],[54,-29],[8,23],[37,-11],[24,-18],[28,-1],[25,-10],[21,-24],[7,-15],[48,-16],[3,-17]],[[7884,3993],[13,-16],[-2,-11],[-19,-8],[-10,-30],[-13,-20],[-19,-4],[-7,-16],[8,-19],[-18,-5],[-3,-33],[6,-12],[-4,-20],[-20,-31],[-17,-15],[2,-27],[-16,-20],[-28,-1],[-27,-33],[-50,4],[-16,11],[-13,-2],[-22,8],[-16,-2],[-6,-14],[-3,-45],[-25,-24],[39,-39],[19,-50],[-10,-22],[0,-19],[-26,-18],[-33,-9],[-62,-2],[-15,-14],[-21,5],[-12,-14],[-27,-11],[-30,-2],[-18,5],[-27,-4],[-7,-19],[-19,15],[5,34],[-19,-17],[-8,12],[-24,-18],[-41,-16],[22,-3],[12,-22],[-8,-11],[-18,6],[-21,-23],[-22,10],[-6,-14],[-35,10],[-7,18],[-15,5],[0,23],[9,8],[-27,23],[-37,2],[-30,-4],[-13,-16],[-16,-3],[-14,7],[-16,-15],[0,-15],[-35,2],[-29,-12],[-1,-13],[-12,-3],[-6,-22],[-21,0],[-6,-41],[2,-33],[-9,-31],[-22,-14],[-35,-36],[-48,-33],[-6,5]],[[6753,3160],[-19,19],[-6,20],[-25,9],[-12,-7],[-19,13],[-27,-3],[-8,16],[-14,-3],[3,26],[9,16],[-4,19],[-38,0],[-25,15],[-17,19],[-20,1],[-32,21],[-20,-8],[-23,1],[-41,10],[-26,-14],[-21,-3],[-26,4],[-21,-2],[-26,11],[-25,32],[-2,45],[-21,12],[-19,1],[-23,31],[-1,18],[13,17],[-5,11],[-46,19],[-14,38],[-41,29],[2,18],[-48,17],[-4,20],[7,4],[6,46],[-20,5],[-22,29],[-13,-29],[-12,-5],[-37,21],[-28,37],[-15,9],[-45,11],[-26,-3],[-14,18],[-3,21],[-19,5],[-21,-15],[-35,17],[-23,-7]],[[6864,5317],[54,-15],[109,-9],[57,4],[25,10],[36,32],[14,19],[4,23],[21,14],[9,17],[38,17],[37,44],[49,27],[10,-9],[24,-3],[40,10],[14,-7],[23,0],[37,19],[14,27],[7,-12],[26,9],[17,22],[-1,18],[-14,15],[19,28],[9,21],[-2,13],[-16,8],[-12,18],[25,-2],[21,-12],[6,-23],[-4,-12],[19,-14],[39,-17],[25,-4],[12,16],[16,-22],[39,-22],[69,-26],[37,2],[21,25],[3,20],[38,36],[23,9],[-19,-16],[5,-8],[42,-22],[5,-10],[24,-12],[40,-6],[5,15],[45,26],[-11,-10],[-18,-48],[-2,-55],[11,-23],[-16,-36],[9,-28],[16,-9],[-1,-13],[24,-8],[10,-32],[3,-30],[-10,-47],[-23,3],[-31,36],[-28,-3],[-61,-24],[10,-45],[7,-72],[0,-83],[19,-18],[-4,-20],[-38,-33],[-4,-37],[4,-15],[-49,-25],[16,-40],[4,-24],[-1,-38],[-12,-19],[-7,-37],[-34,-40],[-6,-19],[-29,9],[-43,-34],[10,-25],[-14,-32],[28,-21],[-1,-21],[25,-8],[17,-17],[15,-31],[-3,-34],[-33,-21],[-20,-23],[20,-13],[9,10],[23,1],[47,10],[9,-19],[31,-10],[36,2],[11,-12],[22,-2],[19,-18],[17,-2],[9,-12],[35,-12],[-13,-22],[2,-16],[-35,-22],[15,-33],[-2,-24],[-16,-32],[-44,-16],[-24,3],[-32,-11],[-41,-57],[13,-11],[-2,-15],[15,-19],[-7,-38],[-23,-23],[17,-29],[-4,-13]],[[7651,5634],[-4,17],[10,-3],[-6,-14]],[[7524,5768],[10,-16],[-9,-4],[-18,9],[17,11]],[[7429,5904],[-13,18],[-14,4],[-3,14],[9,16],[-2,30],[7,27],[22,27],[28,9],[11,-16],[-1,-23],[15,-21],[-4,-21],[-33,-25],[-10,-30],[-12,-9]],[[7459,6158],[-31,10],[-3,12],[22,21],[23,0],[11,-34],[-22,-9]],[[9230,5527],[-23,-35],[-16,9],[-41,35],[10,4],[31,-12],[34,14],[5,-15]],[[8937,5520],[-40,32],[5,8],[33,-7],[2,-33]],[[8794,5510],[-10,49],[-8,8],[21,2],[-2,-30],[7,-9],[-8,-20]],[[9344,5901],[-3,-17],[-27,-43],[-35,-3],[0,14],[29,23],[1,26],[17,-1],[6,9],[12,-8]],[[9165,6000],[6,-38],[-18,-39],[2,-19],[47,-41],[5,-24],[-17,-35],[-81,-30],[-21,0],[-27,10],[-55,2],[37,63],[14,5],[-11,27],[4,34],[26,34],[45,34],[14,14],[30,3]],[[8823,6162],[-2,14],[11,1],[-9,-15]],[[7345,6285],[3,-17],[-7,-17],[-18,26],[6,14],[16,-6]],[[7497,6359],[-54,15],[-15,18],[17,31],[32,1],[17,-19],[24,-7],[-2,-31],[-19,-8]],[[7619,6467],[4,-9],[-20,4],[3,16],[13,-11]],[[7661,6609],[-24,8],[26,16],[10,-11],[-12,-13]],[[7704,6690],[-3,-13],[-13,3],[16,10]],[[9956,6793],[-1,-19],[22,-17],[-6,-5],[-25,7],[3,8],[-14,12],[8,19],[13,-5]],[[7568,6861],[22,-21],[34,-2],[24,-7],[18,8],[11,-15],[-21,-23],[4,-8],[-7,-41],[23,-13],[-23,-22],[7,-22],[-23,-9],[-5,-15],[6,-28],[-11,-19],[-37,-16],[-63,-8],[-30,1],[-36,9],[-29,25],[-40,14],[8,14],[-4,67],[38,47],[20,0],[17,14],[23,0],[25,10],[-6,24],[10,20],[28,14],[17,2]],[[7540,6865],[-18,15],[15,3],[3,-18]],[[7411,6805],[-34,8],[13,27],[8,30],[17,15],[9,-1],[4,-44],[-17,-35]],[[9869,7081],[2,-20],[17,2],[8,-17],[15,-4],[19,12],[10,-7],[-6,-23],[12,-11],[-8,-8],[-2,-24],[18,-17],[16,3],[17,-14],[12,-1],[-16,-30],[2,-25],[-25,-5],[-7,-12],[-30,-24],[-16,-29],[5,-26],[9,-10],[-37,-10],[-14,-30],[-42,-24],[-26,-56],[-11,-37],[8,-4],[-10,-29],[0,-20],[25,-16],[10,-29],[1,-22],[29,-20],[3,-15],[-5,-29],[26,-5],[-3,-24],[23,-13],[-18,-18],[-39,21],[-52,0],[-42,-19],[-25,-30],[-30,-49],[-17,-2],[-22,-13],[-24,2],[-30,-37],[-22,-58],[-26,-39],[3,-13],[-47,-24],[-17,10],[-20,1],[-18,14],[-17,-5],[-60,-6],[-29,-7],[-44,-25],[-61,-42],[-18,11],[-7,21],[-22,27],[-50,14],[-9,-10],[-41,9],[-36,-23],[-38,-2],[-6,30],[5,28],[12,0],[25,-13],[12,25],[-13,8],[-6,32],[8,48],[-5,54],[-10,27],[0,35],[-22,51],[-16,1],[2,17],[-9,31],[-14,17],[-27,14],[10,14],[5,-13],[30,-2],[23,11],[16,17],[11,21],[5,29],[-4,33],[-13,29],[16,41],[-5,16],[3,38],[-6,30],[-15,29],[-9,44],[-14,29],[-31,33],[-6,1],[-38,35],[6,15],[18,19],[21,-13],[57,10],[6,9],[16,-1],[99,6],[65,11],[30,14],[35,5],[58,16],[1,-9],[24,-30],[50,-41],[28,-13],[27,-4],[32,2],[31,12],[12,14],[17,-23],[-10,-7],[5,-15],[51,-27],[29,-10],[30,3],[22,8],[5,18],[12,-25],[45,-17],[35,8],[29,23],[5,17],[-14,29],[19,-5],[18,24],[20,47],[-6,24],[-18,10],[25,21]],[[9800,7086],[21,-11],[-22,-8],[-17,11],[18,8]],[[7751,7059],[-3,17],[9,11],[11,-11],[-17,-17]],[[7708,7131],[-20,29],[-3,27],[11,38],[16,-5],[-3,-13],[10,-21],[-16,-27],[5,-28]],[[7443,7342],[21,-34],[12,-11],[43,-10],[-2,-12],[10,-58],[8,-15],[-9,-22],[-19,-22],[-21,-9],[-24,8],[-24,25],[-9,27],[3,43],[-17,49],[-22,18],[20,23],[14,8],[16,-8]],[[7475,7350],[9,-21],[-16,-2],[-4,23],[11,0]],[[7435,7399],[28,-3],[13,-8],[3,-18],[-26,2],[-9,10],[-26,-11],[-3,14],[-18,6],[-17,21],[14,13],[5,17],[16,11],[23,-27],[-3,-27]],[[7480,7455],[3,19],[8,-6],[-11,-13]],[[7562,7469],[-16,-14],[-34,-60],[-16,17],[9,63],[19,3],[10,-8],[11,7],[17,-8]],[[7437,7474],[-37,5],[9,23],[14,-2],[20,-17],[-6,-9]],[[7442,7529],[1,-18],[-12,4],[11,14]],[[7501,7537],[-6,-13],[-13,11],[19,2]],[[7533,7562],[11,7],[7,-14],[-21,-2],[-10,-19],[-15,7],[-3,19],[28,16],[3,-14]],[[7491,7691],[-7,-20],[7,-24],[16,-4],[-6,-13],[-24,-9],[-28,16],[23,31],[-4,22],[23,1]],[[7467,8086],[-2,-11],[-14,7],[16,4]],[[7464,8143],[8,-26],[-4,-16],[-14,-4],[-2,19],[12,15],[-14,16],[9,10],[5,-14]],[[9147,7701],[-2,-19],[-14,5],[-9,-11],[-18,17],[9,6],[34,2]],[[9291,7722],[10,2],[-3,-18],[-19,-11],[-3,24],[15,3]],[[9330,8223],[-3,-16],[-13,3],[16,13]],[[9613,8234],[24,-6],[11,-21],[6,-31],[14,-5],[15,9],[31,-10],[9,6],[55,-10],[11,-13],[40,-18],[-4,-10],[-34,-12],[-2,-22],[7,-34],[16,-11],[19,2],[3,12],[17,5],[14,-25],[25,-12],[-5,-25],[25,-40],[-9,-25],[7,-13],[23,-14],[8,-29],[2,-34],[-9,-17],[-12,-6],[-4,-55],[20,-9],[-26,-11],[-4,-10],[29,-74],[-9,-8],[19,-10],[-20,-2],[-8,-18],[-16,-5],[-5,-14],[13,-21],[15,-13],[-17,-15],[-7,5],[-15,-13],[-19,-4],[1,-27],[23,-15],[4,-9],[23,-5],[-9,-15],[-33,3],[-12,24],[-20,6],[-30,39],[-16,12],[-51,18],[-26,16],[-29,24],[-2,8],[-44,12],[-49,9],[-42,24],[-33,2],[-6,5],[-38,6],[-16,11],[-25,4],[-31,-8],[-42,19],[-27,26],[7,11],[-6,19],[-15,3],[-15,19],[-5,36],[27,20],[-30,76],[-22,24],[-21,0],[-16,-10],[-9,6],[1,23],[-21,12],[7,20],[0,29],[-7,11],[4,22],[24,14],[9,16],[-7,17],[9,28],[17,-6],[19,19],[-13,20],[29,0],[21,15],[5,17],[15,11],[37,-7],[9,26],[13,0],[12,-11],[6,-25],[15,-4],[-10,-20],[41,-24],[28,0],[13,10],[20,34],[-1,14],[20,3],[2,17],[26,1],[39,11]],[[8323,9981],[8,-12],[-19,-15],[-10,26],[8,15],[13,-14]],[[8405,9989],[53,-20],[13,26],[23,-7],[17,-13],[-10,-18],[14,-18],[23,-16],[4,-10],[-26,-29],[-1,-11],[23,-18],[22,9],[-12,-22],[9,-16],[-7,-13],[25,-6],[-2,-16],[-23,-5],[-25,-21],[6,-12],[-10,-11],[8,-11],[-12,-18],[-42,-8],[4,-30],[14,-12],[-21,4],[-4,-7],[-38,11],[-12,-24],[6,-10],[-17,-7],[-7,20],[10,14],[-24,13],[-20,-15],[-17,20],[-22,4],[4,54],[21,17],[14,-1],[15,13],[9,28],[9,5],[6,27],[0,31],[-6,21],[-12,-2],[-15,12],[-15,27],[4,41],[17,21],[-2,12],[13,7],[16,-10]],[[4804,6603],[38,-97],[23,-51],[28,-44],[74,-107],[51,-61],[61,-61],[47,-40],[84,-69],[50,-57],[19,-30],[-1,-28],[-37,44],[-50,29],[-11,17],[-15,-4],[-35,-24],[-30,-31],[-23,-15],[-15,-31],[-17,-49],[-13,-9],[-38,-14],[-18,-14],[-6,-29],[3,-21],[-26,-5],[-22,-12],[-32,-4],[-58,-18],[-8,-10],[-2,-24],[-50,-25],[-50,-15],[-11,-12]],[[4714,5682],[-10,10],[-19,-10],[-3,14],[-29,-9],[-42,0],[-4,22],[-12,5],[3,15],[-13,4],[3,11],[-39,-3],[-9,9],[-17,-6],[-25,-26],[-23,3],[-46,-2],[-34,-4],[-40,0],[-38,-19],[-6,-11],[-16,7],[-22,-1],[-44,-25],[-12,-11],[-18,2],[-30,24],[-80,28],[-126,6],[-31,-12],[-23,9],[-13,-14],[-35,13],[-39,-14],[-4,14],[-58,38],[-31,27],[-6,40],[-20,21],[-21,13],[-26,-8],[-24,29],[-19,5],[-31,22],[-42,12],[17,27],[-13,44],[7,15],[-23,30],[-49,27],[-18,18],[-12,2],[-7,18],[-16,-6],[-7,9],[-34,-13],[-14,7],[-21,-16],[-38,31],[-25,-1],[-12,29],[-11,-3],[-23,18],[-17,-7],[-43,14],[-7,23],[-29,9],[9,12],[-22,-8],[-4,7],[-24,-4],[-3,10],[-34,2],[-45,-24],[-5,-12],[-42,-9],[-40,8],[-32,2],[-29,-20],[0,-22],[-42,3],[-29,-13],[-2,-14],[20,-17],[-32,-26],[0,-9],[-36,-29],[-46,43],[-13,27],[-17,14],[-18,31],[2,20],[-20,17],[4,14],[-11,7],[-11,32],[-17,11],[1,17],[-28,18],[-16,66],[2,23],[-11,21],[-35,3],[-15,26],[-26,20],[-10,16],[-20,11],[-42,-2],[-20,24],[-55,14],[11,35],[-16,10],[-16,19],[-20,-7],[-43,-5],[-28,-10],[-6,6],[9,94]],[[2222,6637],[19,14],[23,3],[11,27],[39,11],[49,-17],[18,3],[13,15],[1,20],[33,6],[20,23],[18,10],[16,22],[-1,21],[12,16],[27,2],[20,-21],[14,-1],[7,18],[20,16],[57,-8],[31,5],[49,-7],[27,-7],[21,2],[26,-20],[40,-9],[14,-11],[39,-4],[8,-13],[31,10],[27,18],[43,39],[22,15],[37,-7],[9,13],[-14,30],[25,-16],[30,-11],[63,-35],[19,-13],[11,0],[36,-14],[24,0],[18,8],[23,-4],[2,-8],[23,-1],[20,8],[52,-42],[20,-1],[28,-15],[41,8],[61,17],[42,5],[44,-2],[16,-9],[20,0],[14,-8],[26,-2],[31,9],[32,1],[12,6],[23,-13],[2,-17],[36,-34],[37,-61],[-16,-22],[20,0],[8,-13],[3,-40],[14,-4],[-2,-14],[23,-18],[-6,-8],[25,-14],[7,-12],[-1,-22],[8,-10],[-5,-23],[-19,-11],[-14,-31],[16,-18],[24,3],[57,-4],[36,-8],[23,21],[33,12],[92,14],[10,5],[-2,15],[21,18],[12,25],[16,7],[119,20],[69,18],[24,-140],[29,10],[30,21],[21,10],[20,16],[45,21],[-13,70],[9,15],[27,7],[29,14],[3,10],[19,4],[38,1],[33,23],[8,-8],[32,16]],[[2222,6637],[-13,-21],[-33,-9],[-21,-15],[-20,5],[-14,31],[13,33],[-35,9],[-13,18],[-56,-14],[-40,2],[-20,63],[-25,31]],[[1945,6770],[30,43],[-46,67],[-20,20],[1,23],[15,22],[-9,30],[-20,12],[-23,-6],[-32,10],[-43,27],[-11,21],[18,27],[-10,16],[7,15],[-10,13],[12,15],[25,11],[17,-5],[17,33],[2,15],[32,17],[5,16],[19,14],[3,10],[22,20],[23,9],[-7,14],[13,23],[0,25],[-6,11],[-20,8],[10,43],[12,5],[-6,21],[6,12],[-4,23],[9,39],[-13,24],[8,13],[-4,27],[3,29],[7,9],[60,11],[2,13],[28,4],[22,10],[16,-12],[-14,-26],[12,-13],[21,2],[15,14],[42,1],[20,8],[13,16],[18,5],[28,25],[3,20],[19,19],[43,-2],[16,12],[25,-5],[5,-21],[33,24],[8,-11],[24,-3],[4,9],[28,9],[29,16],[6,13],[15,6],[26,37],[2,36],[49,24],[27,4],[38,-15],[2,-11],[32,0],[3,-18],[25,-9],[20,5],[5,-14],[22,-2],[25,26],[19,-11],[24,4],[20,-18],[-1,-12],[30,-28],[13,-30],[35,-34],[19,-6],[20,-20],[-3,-36],[16,-7],[2,-20],[12,2],[12,-20],[10,6],[30,-6],[14,3],[19,-19],[23,8],[5,15],[9,-9],[37,-3],[11,-19],[27,4],[51,20],[12,-14],[-2,-14],[11,-1],[-12,-14],[21,-5],[25,11],[7,16],[32,16],[25,56],[28,6],[20,12],[24,27],[27,-4],[20,-18],[12,-1],[20,19],[15,1],[16,-19],[25,1],[14,-6],[8,-20],[22,-11],[9,-28],[11,17],[23,11],[31,5],[43,-3],[30,53],[21,21],[26,-21],[22,6],[34,-16],[24,7],[3,20],[24,12],[-2,8],[21,4],[111,-2],[21,-10],[48,-1],[36,7],[43,15],[40,-15],[31,-33],[12,0],[17,-21],[30,5],[1,35],[16,9],[17,-117],[9,-37],[38,-92],[51,-84],[37,-49],[97,-118],[51,-53],[9,-19],[-9,-45],[0,-62],[10,-61],[25,-70],[-3,-13],[16,-23],[31,-69],[64,-119],[17,-51]],[[3541,4533],[3,-14],[-8,-29],[-18,-11],[-14,-29],[-10,-4],[2,-34],[15,-3],[26,-31],[-4,-51],[9,-18],[14,-2],[57,-67],[20,2],[15,-15],[60,18],[67,-2],[17,-8],[-12,-13],[-6,-28],[7,-69],[7,-8],[26,-4],[9,-13],[-16,-15],[-5,-22],[-19,-24],[13,-17],[0,-23],[-43,-24],[8,-12],[-3,-32],[5,-18],[-7,-11],[32,-29],[22,-5],[16,-16],[13,-43],[-3,-37],[-16,-17],[-1,-31],[-9,-15],[4,-33],[-37,-12],[-20,5],[1,-18],[44,-16],[-1,-32],[22,-29],[-9,-20],[1,-56],[7,-20],[29,-39],[20,-1],[7,-13],[-19,-12],[-15,1],[-36,-9],[-24,-34],[-73,-37],[-3,-10],[-23,3],[-15,-6],[-13,13],[-36,-7],[-57,-22],[-22,2],[-54,-18],[-27,-4],[-22,-22],[9,-32],[47,-38],[37,-19],[23,-7],[17,-31],[13,-13],[34,-3],[19,2],[14,-20],[-6,-25],[-1,-40],[-10,-19],[-50,-54],[-4,-44],[-35,-52],[-30,-27],[-24,-29],[-3,-26],[-12,-5],[3,-27]],[[3480,2754],[18,-22],[1,-13],[-26,-32],[-5,-18],[-54,4],[-57,-18],[-18,6],[-13,24],[1,12],[-32,23],[-33,8],[-103,8],[-30,-5],[-30,1],[-44,12],[-31,-6],[-5,-7],[-35,6],[-7,-6],[-21,10],[-10,18],[-27,4],[-16,-49],[-15,-2],[-36,-59],[-15,-4]],[[2837,2649],[-10,19],[-24,5],[-15,19],[-12,27],[-3,32],[-12,44],[-10,17],[-9,35],[-16,16],[-31,-9],[-18,15],[7,21],[4,66],[31,19],[25,-8],[17,2],[0,35],[15,18],[8,34],[20,18],[42,27],[43,20],[7,8]],[[2896,3129],[25,-10],[25,9],[18,-3],[23,-15],[20,6],[3,66],[-2,28],[15,56],[15,21],[5,25],[32,21],[-16,26],[-13,55],[11,21],[-2,32],[3,21],[-7,43],[-10,30],[2,11],[-25,10],[-5,9],[-36,-7],[-16,2],[-24,14],[-47,19],[-14,3],[-37,21],[-41,13],[-22,20],[-30,7],[-18,10],[7,6],[46,17],[-4,19],[-31,6],[-3,10],[-58,15],[-7,12],[-20,-1],[-8,12],[-22,6],[-6,15],[-67,5],[-55,-2],[-71,-9],[-39,11],[-12,9],[-17,-2],[-16,8],[-24,2],[-25,-12],[-12,16],[-3,52],[-13,27],[-3,24],[5,32],[-17,8],[-9,15],[3,34],[21,11],[8,14],[1,23],[13,70],[18,29],[-4,21],[-16,38],[-22,19],[-1,16],[-18,10],[-27,7],[-9,9],[-5,42],[10,17],[-7,31],[21,8],[2,24],[-25,2],[0,60],[-9,16],[-26,25],[-3,36],[6,11],[-5,19],[17,16],[12,30],[1,21],[-8,10],[-26,5],[3,25],[-6,9],[21,17],[-11,32],[-30,-6],[-22,17],[-28,-9],[-24,9],[3,16],[-7,22],[-13,14],[-24,14],[1,26],[9,14],[-4,25],[-36,19],[-8,39]],[[1990,4951],[17,-4],[29,-23],[36,11],[19,-2],[18,-24],[17,0],[9,-19],[48,-26],[26,-9],[27,4],[27,-14],[16,-3],[28,-16],[10,-16],[25,9],[37,-20],[17,-1],[12,-11],[33,-5],[50,-15],[17,-20],[22,-14],[29,-1],[25,-16],[16,2],[8,-15],[23,-10],[9,9],[19,-1],[20,13],[13,-2],[27,11],[21,-41],[15,18],[43,-10],[3,-10],[20,-9],[21,25],[23,3],[14,-10],[36,-6],[17,-10],[14,13],[34,3],[17,-10],[32,-8],[49,-3],[18,-21],[2,-14],[17,-13],[5,-36],[24,-9],[13,-24],[-5,-18],[15,-14],[48,-13],[12,11],[16,1],[22,35],[22,12],[21,-8],[26,-2],[11,9],[15,-5],[20,-45],[18,-13],[26,-5],[27,14],[21,22],[35,9],[34,-8]],[[2896,3129],[-13,8],[-25,-6],[-28,1],[-16,16],[-6,37],[5,15],[-4,33],[-12,14],[-21,6],[-41,-11],[-13,-11],[-41,6],[-38,-4],[-47,15],[-5,6],[6,23],[-51,14],[-23,-8],[-25,2],[-23,-8],[-10,15],[-32,5],[-12,15],[2,16],[-25,28],[-3,11],[-31,-31],[-7,-30],[-27,-7],[-11,-24],[-12,-8],[-24,-45],[-34,17],[-35,13],[-10,11],[-20,8],[-37,-9],[-21,11],[-33,-4],[-17,-12],[-18,-3],[-13,15],[-39,10],[-25,-2],[-13,9],[-10,29],[-21,2],[-45,13],[-19,40],[-13,8],[-29,-2],[-18,-16],[-28,3],[-33,21],[-28,33],[-18,-1],[-16,-14],[-16,14],[5,22],[-15,17],[-52,-16],[-56,-29],[-26,21],[-2,25],[17,31],[-31,7],[-22,18],[-36,17],[-22,-13],[-36,10],[-13,28],[10,24],[-18,25],[-26,-20],[-8,7],[-15,-13],[-32,5],[-23,-20],[-16,-2],[-18,13],[-18,-25],[-29,-1],[-29,-26],[-14,-20],[-7,-21],[-19,15],[-27,-5],[-43,27],[-25,-5],[-4,-8],[13,-37],[-16,-12],[-14,22],[-23,14],[-13,1],[-16,13],[-18,0],[-18,15],[-13,-3],[-25,17],[-6,19],[-24,12],[-17,34],[-31,38],[-13,-4],[-13,-17],[-15,-5],[-3,-25],[-14,-20],[-15,-3],[-10,12],[-31,6],[-49,17],[-11,15],[-10,28],[-17,11],[-28,27],[-51,-23],[-29,19],[-26,-7],[-35,2],[-15,11],[2,24],[-26,16],[-14,16]],[[380,3737],[32,66],[-2,15],[-36,16],[-18,29],[-20,12],[-9,20],[-28,23],[-22,-1],[3,32],[-11,9],[-14,25],[7,12],[-12,28],[-28,9],[-13,28],[-14,14],[-7,24],[4,35],[-11,47],[52,32],[24,2],[29,24],[9,21],[17,13],[-17,26],[0,34],[-13,49],[-3,46],[-24,23],[5,18],[-11,8],[-22,31],[23,26],[5,16],[-9,48],[52,42],[14,8],[12,19],[41,9],[-4,30],[-35,29],[-1,16],[-12,25],[10,26],[-5,27],[-14,26],[7,23],[27,17],[-8,16],[-1,22],[15,32],[3,34],[14,14],[24,5],[19,25],[16,9],[-3,16],[37,11],[-2,22],[17,13],[28,6],[4,21],[-8,11],[21,12],[-1,24],[22,43],[-12,27],[-13,17],[3,35],[-6,18],[-1,35],[-12,16],[2,30],[16,24],[0,24],[-58,16],[-13,25],[-30,10],[-29,15],[6,10],[-5,27],[15,20],[22,15],[-2,22],[16,9],[6,17],[22,10],[42,31],[22,24],[6,14],[52,27],[6,21],[24,16],[22,23],[17,-3],[71,0],[25,-8],[20,15],[18,1],[13,19],[27,0],[13,-9],[16,3],[19,19],[17,-17],[0,-44],[42,-39],[31,-13],[14,-14],[42,-13],[30,6],[16,19],[20,9],[45,31],[30,13],[18,0],[20,-22],[15,2],[33,-15],[45,-14]],[[1293,5734],[-18,-15],[-23,-34],[-13,-55],[1,-15],[23,-9],[22,-22],[14,-54],[22,-29],[3,-18],[43,6],[17,-20],[36,-21],[10,-24],[20,4],[24,-7],[-7,-20],[27,-3],[25,-21],[31,-10],[38,10],[67,-18],[-1,-19],[20,-15],[29,-2],[3,-25],[17,-3],[8,-26],[-29,-24],[-9,-38],[-31,-82],[58,-5],[21,8],[25,0],[19,-28],[-3,-9],[15,-33],[25,-35],[48,-5],[15,-5],[32,3],[13,-14],[20,0],[9,-23],[31,-28]],[[2837,2649],[-11,-13],[13,-6],[-19,-71],[11,-17],[-2,-20],[-15,-8],[-47,-11],[-3,-10],[17,-13],[-8,-22],[15,-16],[0,-28],[-10,-6],[-3,-25],[-11,-27],[2,-45],[-8,-28]],[[2758,2283],[-5,-27],[-17,-33],[7,-38],[-14,-32],[-17,-25],[-12,-44]],[[2700,2084],[-24,3],[-79,-8],[-72,2],[-34,-11],[-62,-2],[-23,-5],[-86,-38],[-67,-27],[-78,-36],[-11,-8],[-8,-35],[-47,4],[-23,-5],[-16,14],[-15,41],[-27,7],[-8,17],[-19,13],[0,20],[-28,13],[-39,2],[-29,-4],[-35,9],[-22,0],[-15,-15],[-10,-27],[-13,-19],[-27,-27],[-10,-38],[-13,-16],[-5,-18],[-17,-19],[-38,-63],[-38,15],[-23,-2],[-39,-26],[-11,1],[-6,18],[-30,6],[-4,15],[2,33],[-28,24],[-33,6],[-9,8],[-16,41],[-36,12],[-22,18],[-22,-1],[-47,-27],[-36,10],[-35,-1],[-23,5],[-24,-45],[-39,-41],[-19,-5],[-29,8],[-44,-24],[-11,-16],[-33,7],[-24,-3],[-10,-8],[-6,-31],[-27,-25],[-12,22],[-39,0],[-15,7],[-29,-17],[-34,11],[-32,21],[-21,1],[-63,25],[2,18],[-44,31],[-21,10],[-1,15],[-20,16],[-46,12],[-14,15],[-16,0],[-5,11],[14,10],[1,18],[28,21],[15,17],[35,-4],[30,10],[21,1],[11,9],[2,16],[10,7],[32,1],[19,18],[5,38],[34,16],[12,12],[7,33],[44,18],[13,22],[20,15],[6,59],[-13,39],[6,42],[-2,36],[12,5],[4,50],[-7,27],[9,23],[-1,16],[9,24],[-7,17],[5,16],[20,28],[-10,12],[0,37],[-8,30],[-18,19],[-50,13],[-19,18],[-34,-14],[-24,4],[-26,14],[-36,3],[-62,46],[9,27],[-17,48],[-26,8],[-10,24],[-24,27],[-37,10],[-22,11],[-5,9],[13,19],[9,41],[-11,14],[-13,-2],[-40,13],[-16,-11],[-50,7],[-23,29],[-13,31],[-12,42],[-13,11],[-29,-1],[-67,23],[-28,6],[-59,22],[-11,-6],[-34,4],[-43,-2],[-25,7],[-25,21],[-35,4],[9,43],[15,24],[13,9],[15,28],[3,39],[-4,18],[16,42],[-12,24],[-31,16],[-13,1],[-29,30],[41,30],[-6,33],[12,46],[76,24],[67,27],[5,8],[28,10],[29,3],[31,17],[27,20],[28,-11],[27,-4],[15,4]],[[4714,5682],[-20,-41],[-4,-51],[-2,-82],[5,-33],[11,-43],[31,-61],[16,-9],[4,-16],[-13,-38],[-2,-76],[19,-16],[29,-43],[23,-23],[23,-32]],[[4834,5118],[-18,-18],[-24,-10],[-30,-57],[-9,-3],[-31,-57],[-10,4],[-13,-39],[6,-8],[22,-4],[-9,-43],[-7,-16],[-28,-10],[-119,-1],[-84,-21],[-83,-3],[-9,-4],[-60,-7],[-37,-11],[-38,3],[-55,-4],[-30,5],[-43,14],[-46,5],[-21,8],[-33,-21],[-23,-1],[-18,7],[-4,11],[-53,-1],[-35,35],[-3,14],[-45,3],[-17,11],[-13,27],[-21,15],[-11,-6],[-46,7],[-20,12],[-28,-2],[-13,18],[-46,19],[-38,-19],[-29,13],[-16,0],[-39,-12],[-13,-16],[3,-24]],[[3497,4931],[-43,9],[-8,-7],[-30,35],[-26,10],[-24,-13],[-23,39],[-5,34],[-28,23],[-8,22],[6,15],[-15,27],[-1,22],[-23,13],[-14,16],[-22,4],[-9,9],[-33,16],[-43,-2],[-36,4],[-22,49],[-37,12],[-18,10],[-42,-10],[-15,4],[-6,26],[3,29],[-19,11],[-26,41],[-28,18],[-12,39],[-30,27],[-1,20],[-11,4],[-24,-14],[-20,-24],[-22,-10],[-2,-22],[-25,-10],[-6,-11],[-60,6],[-20,-7],[-9,12],[-27,7],[-26,28],[-39,55],[-15,-2],[-16,22],[-5,31],[-29,-6],[-19,4],[-21,13],[-12,-10],[-28,17],[-25,55],[-13,-9],[-6,-24],[-20,6],[1,-17],[-26,-12],[-31,-3],[-36,9],[-47,-1],[-35,-17],[-47,17],[-22,-4],[-1,22],[-14,26],[-20,12],[-26,8],[-3,14],[33,17],[15,32],[-28,24],[10,12],[-5,30],[-30,-4],[-5,-6],[-59,-3],[-23,10],[-10,-11],[-35,-22],[-49,-5],[-2,-14],[-28,-12],[-26,-32],[-33,-24],[-20,15],[-26,9],[-24,-14],[-36,-5],[-4,-8],[-22,-2],[-24,-16],[-13,-21],[-14,-3],[-20,-26],[-27,19],[-17,0],[-17,20],[-29,7],[-5,19],[-17,18],[52,13],[28,24],[9,49],[18,34],[6,26],[-12,28],[-37,1],[-24,-21],[-21,-5],[-24,3],[-18,11],[-28,7],[-37,-16]],[[1374,5806],[15,33],[-6,31],[25,45],[-8,25],[2,18],[-28,4],[-29,-17],[-21,6],[-18,-8],[-17,10],[-40,0],[3,16],[14,12],[16,41],[-2,21],[-37,53],[-3,62],[3,12],[18,7],[20,-21],[37,-22],[39,6],[29,16],[15,24],[32,18],[14,20],[-6,13],[-25,12],[-21,37],[-23,3],[-13,19],[4,21],[-12,24],[14,21],[-6,9],[11,10],[17,-8],[33,-2],[15,13],[26,11],[32,-4],[33,7],[16,31],[16,7],[3,16],[14,4],[9,28],[12,7],[21,-8],[17,7],[21,0],[6,18],[-7,18],[10,9],[-1,24],[41,21],[4,38],[26,24],[33,12],[6,34],[33,15],[30,29],[7,18],[14,9],[39,11],[49,-6]],[[6753,3160],[-14,-8],[16,-55],[21,-30],[0,-54],[-42,-12],[-17,2],[-25,-7],[-30,21],[-40,-5],[-47,-17],[-8,-10],[-21,-3],[-7,-24],[-18,-26],[15,-22],[3,-41],[15,-12],[23,-30],[6,-23],[-13,-36],[-10,-45],[-9,-16],[-3,-23],[6,-23],[-4,-13],[8,-40],[-14,-50],[14,-31],[25,-13],[18,0],[-11,-26],[9,-21],[-10,-35],[-12,-7],[2,-13],[-23,-78],[-9,-42],[-40,-9],[-50,-29],[2,-29],[-31,-23],[-40,-16],[-22,-16]],[[6366,2170],[-14,15],[-33,21],[-45,10],[-56,6],[-27,-4],[-11,6],[-23,-12],[-34,-3],[-18,6],[-31,2],[-16,-16],[1,-45],[-7,-18],[1,-43],[5,-49],[-5,-6],[-29,3],[-29,-20],[-40,-8],[-41,13],[-7,13],[-39,8],[-61,30],[-32,-9],[-23,-22],[-8,1],[-1,29],[17,26],[-4,14],[-23,5],[-11,-11],[-21,-3],[-33,12],[-10,-12],[-30,-4],[0,21],[-29,20],[-22,-26],[20,-5],[-5,-16],[7,-19],[-4,-22],[-15,-11],[-15,2],[-12,-12],[-39,0],[-35,7],[-11,-9],[-56,4],[-11,-6],[-21,10],[0,26],[-17,9],[-14,-8],[-23,10],[-24,4],[-16,-4],[-33,17],[-6,-9],[-30,10],[-18,-8],[-35,3],[-9,13],[-19,-14],[-14,-1],[-42,10],[-25,34]],[[5055,2135],[36,16],[-26,9],[0,22],[-17,11],[-23,3],[-23,-14],[-1,-16],[-15,-6],[-5,19],[16,10],[7,16],[35,32],[-23,28],[12,34],[-6,12],[-22,10],[-27,21],[-9,-7],[0,-27],[-15,-6],[1,38],[-9,7],[-14,-10],[-12,5],[-11,21],[12,19],[-19,0],[-4,-23],[-31,-10],[-6,11],[14,28],[6,34],[-19,3],[-8,-16],[0,45],[-32,13],[8,14],[-10,3],[-10,-14],[-24,6],[5,14],[48,-1],[23,14],[-24,25],[3,28],[15,6],[13,-5],[11,35],[-15,51],[-41,13],[13,19],[-4,15],[-14,11],[-8,19],[-17,5],[-31,-13],[-24,24],[-5,20],[6,15],[25,11],[11,66]],[[4771,2848],[23,5],[35,0],[50,6],[48,11],[17,22],[20,2],[44,-7],[36,2],[33,7],[44,-7],[26,10],[33,-30],[55,-33],[34,22],[37,7],[30,-5],[18,17],[4,16],[17,13],[20,56],[-2,37],[-16,43],[2,31],[8,9],[4,41],[15,30],[25,32],[15,33],[1,37],[16,39],[-16,12],[35,19],[22,21],[9,20],[-17,37],[-1,28],[-12,23],[-17,14],[-6,14],[23,-8],[25,2],[18,103],[13,10],[24,-1],[-20,31],[-7,24]],[[4771,2848],[-14,25],[11,20],[54,70],[26,21],[20,36],[-68,28],[-23,4],[-53,19],[-11,8],[-28,78],[-27,22],[-29,-6],[-41,-4],[-34,8],[-29,-13],[16,31],[12,11]],[[4553,3206],[9,9],[-10,8],[-28,-2],[1,10],[31,6],[-45,14],[5,13],[42,24],[21,7],[-13,41],[-17,19],[-16,7],[8,29],[31,22],[45,10],[24,13],[8,24],[-18,21],[-21,6],[-27,0],[3,12],[35,13],[17,18],[33,1],[32,-19],[17,8],[-2,37],[-25,8],[-6,10],[27,17],[-8,25],[43,20],[48,-9],[13,-10],[12,3],[-4,17],[22,14],[7,-4],[-7,-36],[28,-22],[17,15],[6,30],[15,14],[15,1],[6,14],[27,8],[2,-11],[39,-14],[43,29],[41,8],[9,-19],[17,-5],[6,9],[32,-2],[17,12],[22,-26],[27,-18],[9,2],[34,-28],[13,-2],[64,6]],[[3480,2754],[28,-5],[118,38],[26,16],[8,25],[28,38],[28,23],[14,2],[34,49],[24,14],[24,-12],[27,-2],[14,-18],[61,-3],[8,-24],[23,-2],[9,-11],[-33,-25],[0,-23],[-14,-15],[2,-16],[15,-9],[16,1],[46,24],[25,-2],[24,20],[26,27],[18,13],[3,13],[17,13],[19,3],[45,16],[14,9],[28,1],[65,37],[4,13],[47,43],[32,19],[6,11],[27,8],[41,-14],[3,26],[14,6],[14,37],[9,4],[-11,29],[26,27],[32,24],[18,7],[21,-3]],[[5055,2135],[-15,-1],[-10,-15],[21,-18],[-28,-2],[13,-21],[4,-31],[15,-11],[4,-19],[12,11],[31,-1],[10,-11],[-18,-11],[-8,-14],[-22,-19],[3,-19],[23,-5],[-6,-29],[11,-16],[15,-7],[-6,-20],[-27,17]],[[5077,1893],[-13,10],[-17,-2],[1,25],[-24,7],[-34,2],[-24,-6],[-16,5],[-28,-19],[-82,-10],[-21,1],[-60,-8],[-13,10],[-64,-12],[-9,-25],[-1,-22],[-14,-15],[-15,1],[-5,11],[-18,2],[-16,13],[-31,-3],[-9,15],[-9,-12],[-14,7],[-34,-37],[-20,-1],[-23,12],[7,12],[-11,22],[-26,7],[-13,13],[-14,-5],[-19,-19],[-23,-1],[-15,-19],[-28,-8],[-18,4],[-34,-20],[-39,2],[-11,20],[-34,-5],[3,8],[-17,4],[-6,10],[-36,3],[-6,13],[-14,-1],[-47,47],[2,38],[-14,23],[-21,-1],[2,15],[-23,19],[-13,-1],[-30,18],[-32,0],[-33,-6],[-17,2],[-35,-26],[-30,5],[-39,-8],[-7,-7],[-34,13],[-33,7],[-19,21],[0,15],[-38,9],[-11,-4],[-9,-21],[-18,-14],[-59,24],[-18,33],[-17,5],[-15,22],[-9,3],[-36,-10],[-44,-2],[-48,-14],[-11,0],[-2,18],[-10,6],[-41,40],[-15,8],[-56,-1],[-52,-26],[-45,-5],[-50,-12],[-47,-14],[-29,1],[-30,9],[-27,43],[-27,54],[-19,22],[-63,39],[-26,11],[-57,3]],[[6366,2170],[25,-17],[15,-47],[-34,-25],[20,-30],[0,-18],[-11,-8],[-9,9],[-22,-5],[-15,-14],[-16,-36],[-31,-23],[-1,-18],[16,-17],[-11,-25],[-31,2],[-23,-8],[-20,9],[-7,14],[-19,2],[-53,-43],[-1,-17],[-35,-42],[7,-24],[-9,-19],[2,-25],[31,-29],[18,-37],[-2,-15],[-24,-33],[-17,3],[-22,-7],[-21,7],[-15,-26],[10,-5],[-8,-17],[-29,-15],[-12,-26],[-26,3],[-6,-22],[-28,-13],[-19,-35],[-26,-6],[-16,-30],[8,-13],[3,-24],[10,-4],[3,-24],[-28,3],[-33,-13],[-17,-13],[-1,-14],[-23,-7],[2,-41],[-25,-16],[2,-14],[-22,-8],[-2,-25],[10,-12],[1,-33],[-10,-12],[7,-9],[-32,-4],[1,22],[-36,-7],[-35,6],[-21,-18],[1,-14],[-30,-11],[-13,-14],[-21,-2],[3,-20],[-69,-9],[-19,-7],[2,-30],[-23,14],[-21,-5],[-44,-3],[-39,-9],[12,-23],[-16,-5],[-53,-40],[-8,-28],[-35,-2],[-19,-7],[-38,4],[-38,-10],[-10,-11],[-14,1]],[[5161,931],[12,20],[-9,36],[-9,6],[-23,-1],[4,24],[28,5],[-2,14],[-29,9],[-29,2],[-27,9],[10,-26],[-24,8],[-3,11],[20,27],[7,18],[-26,0],[-5,16],[14,11],[-24,13],[-20,-5],[8,12],[-22,44],[16,22],[-19,13],[-6,15],[-18,-11],[5,28],[16,23],[18,7],[-15,18],[17,11],[26,6],[20,17],[17,-10],[10,5],[-2,29],[-18,12],[-3,12],[-22,8],[-18,30],[-33,-12],[-15,9],[-3,22],[-18,7],[-43,-19],[-20,15],[1,32],[22,9],[31,-9],[28,-1],[11,11],[-12,28],[-23,-1],[-16,7],[-1,28],[22,30],[-12,23],[6,24],[16,10],[-5,41],[-18,21],[28,3],[9,-13],[-2,-19],[21,10],[-7,30],[-41,36],[-5,22],[23,26],[-18,11],[8,13],[19,-3],[2,22],[-10,19],[14,-6],[21,-23],[23,19],[25,-17],[-4,25],[12,22],[5,22]],[[5161,931],[-8,2],[-36,-10],[-2,-14],[15,-1],[-2,-15],[-34,6],[-28,-18],[4,-20],[-12,-16],[-38,15],[11,-20],[-32,2],[-14,-27],[-30,-7],[-2,-18],[18,-32],[-1,-14],[-15,2],[0,-15],[-15,-2],[-2,-15],[-16,-15],[-1,-27],[-17,2],[-14,-27],[8,-26],[-11,-10],[5,-11],[-21,-13],[-5,-20],[-31,-26],[-11,6],[-21,-15],[18,-29],[-4,-26],[-14,-11],[17,-6],[-2,-17],[14,-3],[-10,-27],[21,-17],[-6,-17],[21,-26],[10,12],[21,-9],[24,-25],[-4,-12],[36,-10],[10,-27],[12,-10],[6,10],[40,-11],[0,16],[17,-8],[0,-14],[23,11],[-2,-20],[14,-2],[-24,-18],[17,-3],[0,-13],[17,3],[-3,-14],[21,-11],[-12,-17],[11,-22],[-4,-11],[8,-19],[0,-44],[12,-4],[14,11],[12,-5],[-3,-13],[16,-11],[-3,-20],[-27,10],[-23,2],[1,-19],[-10,-17],[-50,-11],[-17,4],[-36,-12],[-43,10],[-42,28],[-31,11],[-80,45],[-70,44],[-30,22],[-34,33],[2,34],[-11,17],[-16,58],[-22,24],[0,13],[19,18]],[[4624,357],[-19,33],[22,15],[4,38],[-16,8],[1,23],[-14,20],[4,25],[-25,66],[-12,69],[2,32],[13,13],[25,69],[-2,48],[-9,70],[2,50],[17,15],[-29,22],[-4,28],[-15,13],[-31,12],[-18,-4],[-43,18],[-8,22],[-34,6],[-20,24],[-71,-5],[-32,14],[-1,13],[-60,13],[-16,0],[-29,-11],[-37,16],[-21,17],[-13,22],[-15,8],[-25,52],[-19,23],[-17,4],[6,-18],[-25,-4],[-26,-54],[-26,-12],[-5,9],[-50,15],[-23,16],[-19,-6],[-31,-29],[-58,1],[-115,0],[-53,-2],[-72,7],[-34,-5],[0,27],[9,68],[-10,9],[-5,23],[5,20],[-5,39],[7,16],[-42,3],[-109,-2],[-48,-6],[-15,-23],[-34,-22],[-36,-2],[-23,24],[-38,12],[-66,7],[-33,-14],[-11,12],[-34,-2],[-18,8],[-9,25],[-30,10]],[[2983,1408],[23,37],[-4,12],[7,25],[-10,19],[3,17],[-27,36],[6,12],[-19,4],[-12,17],[0,15],[-16,6],[-41,4],[-2,13],[-17,23],[12,39],[-6,11],[13,6],[0,16],[-35,22],[-30,11],[-6,24],[-34,40],[7,13],[-23,41],[5,17],[11,4],[-3,19],[-26,44],[-31,26],[-9,42],[12,17],[-20,21],[-11,23]],[[3541,4533],[-25,31],[-10,19],[7,37],[-7,27],[-1,47],[-6,1],[-3,25],[-10,13],[4,35],[-13,34],[1,27],[13,22],[20,15],[-24,37],[11,10],[-1,18]],[[4834,5118],[22,7],[23,-12],[9,-25],[31,9],[12,-5],[13,15],[-3,-32],[17,-2],[16,-37],[25,-9],[22,15],[36,2],[40,36],[17,20],[18,-6],[19,5],[14,30],[17,0],[13,-9],[19,2],[39,40],[30,5],[0,-11],[22,19],[15,3],[14,-12]],[[4624,357],[-58,-4],[0,-8],[-26,3],[-31,-8],[-2,33],[-13,10],[-30,7],[-37,-24],[-29,11],[-23,-3],[-27,-21],[-52,-31],[-34,8],[-3,-6],[-47,3],[-17,12],[-32,7],[-18,21],[-16,-7],[-52,-3],[-20,5],[-2,-7],[-34,-4],[0,8],[-45,-4],[-17,-9],[-28,3],[-9,-14],[-27,1],[-29,7],[-5,-8],[-28,12],[-2,-9],[-31,-7],[-25,0],[-20,-9],[-66,4],[-2,5],[-54,9],[-34,-3],[-7,23],[-13,-3],[-32,7],[-2,22],[-15,-4],[-12,27],[-20,7],[-8,16],[-19,11],[-19,-2],[-17,7],[-6,15],[-20,-1],[4,12],[-19,4],[-10,12],[6,13],[-22,-1],[-27,11],[-8,16],[1,19],[-13,2],[-9,13],[-40,16],[-7,12],[-38,6],[-7,41],[-10,8],[-37,-3],[-2,10],[-35,0],[-23,11],[-48,3],[-10,10],[-9,33],[-8,4],[-7,31],[-16,3],[-6,28],[9,14],[2,19],[13,23],[-11,25],[21,16],[7,39],[18,26],[-10,49],[16,22],[7,39],[-10,14],[-19,11],[-15,53],[-2,89],[-7,26],[-2,31],[-41,35],[-1,14],[-13,15],[-4,34],[12,15],[4,23]],[[1293,5734],[23,2],[21,36],[23,11],[14,23]]],"transform":{"scale":[0.00016476577887788595,0.00018256462616261378],"translate":[98.44309888900005,8.300800579000054]},"objects":{"Surat Thani":{"type":"GeometryCollection","geometries":[{"arcs":[[0,1,2,3,4]],"type":"Polygon","properties":{"Shape_Leng":1.19634076871,"Shape_Area":0.0275783030553,"ADM2_EN":"Mueang Surat Thani","ADM2_TH":"เมืองสุราษฎร์ธาน","ADM2_PCODE":"TH8401","ADM1_EN":"Surat Thani","ADM1_TH":"สุราษฎร์ธานี","ADM1_PCODE":"TH84","ADM0_EN":"Thailand","ADM0_TH":"ประเทศไทย","ADM0_PCODE":"TH"}},{"arcs":[[-1,5,6,7,8]],"type":"Polygon","properties":{"Shape_Leng":1.88694679796,"Shape_Area":0.0887161105642,"ADM2_EN":"Kanchanadit","ADM2_TH":"กาญจนดิษฐ์","ADM2_PCODE":"TH8402","ADM1_EN":"Surat Thani","ADM1_TH":"สุราษฎร์ธานี","ADM1_PCODE":"TH84","ADM0_EN":"Thailand","ADM0_TH":"ประเทศไทย","ADM0_PCODE":"TH"}},{"arcs":[[[-7,9]],[[10]],[[11]],[[12]],[[13]]],"type":"MultiPolygon","properties":{"Shape_Leng":1.42163178767,"Shape_Area":0.0301340172417,"ADM2_EN":"Don Sak","ADM2_TH":"ดอนสัก","ADM2_PCODE":"TH8403","ADM1_EN":"Surat Thani","ADM1_TH":"สุราษฎร์ธานี","ADM1_PCODE":"TH84","ADM0_EN":"Thailand","ADM0_TH":"ประเทศไทย","ADM0_PCODE":"TH"}},{"arcs":[[[14]],[[15]],[[16]],[[17]],[[18]],[[19]],[[20]],[[21]],[[22]],[[23]],[[24]],[[25]],[[26]],[[27]],[[28]],[[29]],[[30]],[[31]],[[32]],[[33]],[[34]],[[35]],[[36]],[[37]],[[38]],[[39]],[[40]],[[41]],[[42]],[[43]],[[44]]],"type":"MultiPolygon","properties":{"Shape_Leng":2.12515214793,"Shape_Area":0.023204750624,"ADM2_EN":"Ko Samui","ADM2_TH":"เกาะสมุย","ADM2_PCODE":"TH8404","ADM1_EN":"Surat Thani","ADM1_TH":"สุราษฎร์ธานี","ADM1_PCODE":"TH84","ADM0_EN":"Thailand","ADM0_TH":"ประเทศไทย","ADM0_PCODE":"TH"}},{"arcs":[[[45]],[[46]],[[47]],[[48]],[[49]],[[50]]],"type":"MultiPolygon","properties":{"Shape_Leng":0.90982497766,"Shape_Area":0.0116931262287,"ADM2_EN":"Ko Pha-Ngan","ADM2_TH":"เกาะพะงัน","ADM2_PCODE":"TH8405","ADM1_EN":"Surat Thani","ADM1_TH":"สุราษฎร์ธานี","ADM1_PCODE":"TH84","ADM0_EN":"Thailand","ADM0_TH":"ประเทศไทย","ADM0_PCODE":"TH"}},{"arcs":[[51,52,53]],"type":"Polygon","properties":{"Shape_Leng":1.60894447651,"Shape_Area":0.0573901905882,"ADM2_EN":"Chaiya","ADM2_TH":"ไชยา","ADM2_PCODE":"TH8406","ADM1_EN":"Surat Thani","ADM1_TH":"สุราษฎร์ธานี","ADM1_PCODE":"TH84","ADM0_EN":"Thailand","ADM0_TH":"ประเทศไทย","ADM0_PCODE":"TH"}},{"arcs":[[-54,54,55]],"type":"Polygon","properties":{"Shape_Leng":1.74895694587,"Shape_Area":0.0795884558163,"ADM2_EN":"Tha Chana","ADM2_TH":"ท่าชนะ","ADM2_PCODE":"TH8407","ADM1_EN":"Surat Thani","ADM1_TH":"สุราษฎร์ธานี","ADM1_PCODE":"TH84","ADM0_EN":"Thailand","ADM0_TH":"ประเทศไทย","ADM0_PCODE":"TH"}},{"arcs":[[56,57,58,59,60]],"type":"Polygon","properties":{"Shape_Leng":1.73761659752,"Shape_Area":0.0634697194105,"ADM2_EN":"Khiri Rat Nikhom","ADM2_TH":"คีรีรัฐนิคม","ADM2_PCODE":"TH8408","ADM1_EN":"Surat Thani","ADM1_TH":"สุราษฎร์ธานี","ADM1_PCODE":"TH84","ADM0_EN":"Thailand","ADM0_TH":"ประเทศไทย","ADM0_PCODE":"TH"}},{"arcs":[[-60,61,62,63]],"type":"Polygon","properties":{"Shape_Leng":2.10137784548,"Shape_Area":0.122929618985,"ADM2_EN":"Ban Ta Khun","ADM2_TH":"บ้านตาขุน","ADM2_PCODE":"TH8409","ADM1_EN":"Surat Thani","ADM1_TH":"สุราษฎร์ธานี","ADM1_PCODE":"TH84","ADM0_EN":"Thailand","ADM0_TH":"ประเทศไทย","ADM0_PCODE":"TH"}},{"arcs":[[-59,64,65,66,-62]],"type":"Polygon","properties":{"Shape_Leng":1.93549684156,"Shape_Area":0.0981087003225,"ADM2_EN":"Phanom","ADM2_TH":"พนม","ADM2_PCODE":"TH8410","ADM1_EN":"Surat Thani","ADM1_TH":"สุราษฎร์ธานี","ADM1_PCODE":"TH84","ADM0_EN":"Thailand","ADM0_TH":"ประเทศไทย","ADM0_PCODE":"TH"}},{"arcs":[[-53,67,68,69,70,-55]],"type":"Polygon","properties":{"Shape_Leng":2.12027728673,"Shape_Area":0.0901120774499,"ADM2_EN":"Tha Chang","ADM2_TH":"ท่าฉาง","ADM2_PCODE":"TH8411","ADM1_EN":"Surat Thani","ADM1_TH":"สุราษฎร์ธานี","ADM1_PCODE":"TH84","ADM0_EN":"Thailand","ADM0_TH":"ประเทศไทย","ADM0_PCODE":"TH"}},{"arcs":[[-2,-9,71,72,73,74]],"type":"Polygon","properties":{"Shape_Leng":1.54395162291,"Shape_Area":0.0629307695851,"ADM2_EN":"Ban Na San","ADM2_TH":"บ้านนาสาร","ADM2_PCODE":"TH8412","ADM1_EN":"Surat Thani","ADM1_TH":"สุราษฎร์ธานี","ADM1_PCODE":"TH84","ADM0_EN":"Thailand","ADM0_TH":"ประเทศไทย","ADM0_PCODE":"TH"}},{"arcs":[[-3,-75,75,76]],"type":"Polygon","properties":{"Shape_Leng":0.774957313832,"Shape_Area":0.01793106666,"ADM2_EN":"Ban Na Doem","ADM2_TH":"บ้านนาเดิม","ADM2_PCODE":"TH8413","ADM1_EN":"Surat Thani","ADM1_TH":"สุราษฎร์ธานี","ADM1_PCODE":"TH84","ADM0_EN":"Thailand","ADM0_TH":"ประเทศไทย","ADM0_PCODE":"TH"}},{"arcs":[[-58,77,-76,-74,78,79,-65]],"type":"Polygon","properties":{"Shape_Leng":1.61391770446,"Shape_Area":0.0557008373209,"ADM2_EN":"Khian Sa","ADM2_TH":"เคียนซา","ADM2_PCODE":"TH8414","ADM1_EN":"Surat Thani","ADM1_TH":"สุราษฎร์ธานี","ADM1_PCODE":"TH84","ADM0_EN":"Thailand","ADM0_TH":"ประเทศไทย","ADM0_PCODE":"TH"}},{"arcs":[[-73,80,81,-79]],"type":"Polygon","properties":{"Shape_Leng":1.27660293264,"Shape_Area":0.0318125972414,"ADM2_EN":"Wiang Sa","ADM2_TH":"เวียงสระ","ADM2_PCODE":"TH8415","ADM1_EN":"Surat Thani","ADM1_TH":"สุราษฎร์ธานี","ADM1_PCODE":"TH84","ADM0_EN":"Thailand","ADM0_TH":"ประเทศไทย","ADM0_PCODE":"TH"}},{"arcs":[[-66,-80,-82,82,83,84]],"type":"Polygon","properties":{"Shape_Leng":2.19640480207,"Shape_Area":0.0633594993176,"ADM2_EN":"Phrasaeng","ADM2_TH":"พระแสง","ADM2_PCODE":"TH8416","ADM1_EN":"Surat Thani","ADM1_TH":"สุราษฎร์ธานี","ADM1_PCODE":"TH84","ADM0_EN":"Thailand","ADM0_TH":"ประเทศไทย","ADM0_PCODE":"TH"}},{"arcs":[[-4,-77,-78,-57,85,-69,86]],"type":"Polygon","properties":{"Shape_Leng":2.15892253653,"Shape_Area":0.0734715247109,"ADM2_EN":"Phunphin","ADM2_TH":"พุนพิน","ADM2_PCODE":"TH8417","ADM1_EN":"Surat Thani","ADM1_TH":"สุราษฎร์ธานี","ADM1_PCODE":"TH84","ADM0_EN":"Thailand","ADM0_TH":"ประเทศไทย","ADM0_PCODE":"TH"}},{"arcs":[[-84,87]],"type":"Polygon","properties":{"Shape_Leng":1.06864369184,"Shape_Area":0.0375671984443,"ADM2_EN":"Chai Buri","ADM2_TH":"ชัยบุรี","ADM2_PCODE":"TH8418","ADM1_EN":"Surat Thani","ADM1_TH":"สุราษฎร์ธานี","ADM1_PCODE":"TH84","ADM0_EN":"Thailand","ADM0_TH":"ประเทศไทย","ADM0_PCODE":"TH"}},{"arcs":[[-61,-64,88,-70,-86]],"type":"Polygon","properties":{"Shape_Leng":1.34301979438,"Shape_Area":0.0404452713149,"ADM2_EN":"Vibhavadi","ADM2_TH":"วิภาวดี","ADM2_PCODE":"TH8419","ADM1_EN":"Surat Thani","ADM1_TH":"สุราษฎร์ธานี","ADM1_PCODE":"TH84","ADM0_EN":"Thailand","ADM0_TH":"ประเทศไทย","ADM0_PCODE":"TH"}}]}}}