{"type":"Topology","arcs":[[[8460,6499],[-25,-10],[1,-27],[-61,8],[-97,1],[-79,-11]],[[8199,6460],[-92,-38],[-58,-1],[-16,-38],[-153,7],[-61,35],[-63,-19],[-10,-30],[-41,-42],[-43,-14],[17,-47],[-13,-41],[-43,18],[-33,0],[-46,15],[-13,44],[-22,5],[-5,30],[-45,7],[-124,64],[-85,-12],[-80,-27],[-72,-17],[-46,-35],[-61,-8],[-54,-33],[-6,-39],[6,-52],[-20,-21],[9,-35],[22,-7],[-2,-75],[-32,-46],[-24,-68],[-35,-23],[-22,-32],[19,-37],[43,-14],[54,13],[40,-7],[-5,-24],[36,-40],[33,-16],[-1,-29],[28,-49],[-12,-22],[12,-28],[47,-47],[1,-26],[-135,1],[-10,-58],[16,-6],[17,-67],[-15,-1],[0,-47],[-82,-28],[-30,-26],[-6,-31],[-27,-38],[3,-16]],[[6859,5242],[-11,-13],[-50,23],[-48,7],[-66,-28],[-17,-25],[-64,-38],[-17,-50],[-43,-19],[-49,-50],[-28,-14],[-36,-61],[-8,-30],[-29,-4],[-55,-32],[10,-23],[-23,-19],[6,-28],[-54,-42],[-29,-56]],[[6248,4740],[-32,61],[11,15],[-31,124],[-33,54],[1,59],[-28,23],[-58,28],[-35,-5],[-83,56],[-45,71],[-1,32],[-42,33],[-35,16],[-35,91],[-44,58],[-45,28],[-38,-16],[4,-33],[-55,3],[-22,-31],[-31,-13],[8,-71],[-19,1],[-23,37],[-38,-13],[-23,-26],[-22,16],[-39,-2],[-16,-22],[-44,18],[-65,-28],[-19,4],[23,46],[1,54],[-88,53]],[[5207,5461],[-32,43],[-13,-14],[-39,10],[-58,53],[-42,12],[-33,28],[-58,-5],[-22,8],[-6,79]],[[4904,5675],[52,33],[21,69],[-51,63],[-5,61],[-47,3],[-60,35],[5,25],[-31,4],[-32,47],[-87,26],[-71,46],[-22,29],[36,111],[12,12],[115,-31],[102,25],[97,-11],[67,21],[16,68],[20,13],[16,143],[33,45],[73,32],[14,24],[74,0],[-6,25],[23,10],[32,-12],[4,-21],[29,-3],[-29,-28],[24,-17],[17,19],[22,-53],[68,4],[-10,26],[27,21],[14,35],[-15,22],[7,34],[-36,-24],[12,30],[-14,40],[43,3],[-10,31],[33,6],[10,-26],[35,29],[-22,24],[8,43],[20,8]],[[5537,6794],[65,1],[9,-25],[21,29],[44,-25],[54,-82],[56,24],[50,44],[91,-12],[20,14],[73,18],[19,54],[29,24],[80,-5],[33,38],[37,15],[-14,31],[8,31],[50,15],[44,-12],[42,1],[15,-22],[59,-10],[56,11],[7,-27],[31,-6],[83,8],[3,29],[62,-34],[-15,-9],[8,-38],[96,-21],[50,0],[15,-27],[48,-10],[70,61],[33,-28],[76,26],[24,-28],[70,24],[41,41],[7,40],[-17,29],[32,11],[47,-37],[6,18],[43,18],[41,3],[61,50],[40,-5],[-2,41],[16,33],[83,57],[46,-9],[35,-26],[11,-33],[-11,-17],[30,-31],[-7,-19],[41,-37],[-3,-11],[70,-23],[-16,-45],[66,-64],[29,12],[1,-21],[43,0],[52,-22],[112,-80],[-4,-18],[54,-11],[55,21],[15,-17],[28,7],[54,-8],[51,-21],[50,21],[18,-61],[92,-74],[11,-84]],[[6248,4740],[13,-34],[-7,-62],[20,-18],[9,-35],[-37,-72],[-6,-45],[43,-27],[-23,-45],[-55,-154],[-59,-122],[-97,-97],[-40,-72],[-88,-129],[-30,-89]],[[5891,3739],[-59,-103],[-18,-52],[-65,-234]],[[5749,3350],[-19,-32],[-132,-145],[-8,-69],[-15,-28],[-62,-29],[-128,-20]],[[5385,3027],[19,63],[-11,16],[-100,10],[-27,-3],[-58,20],[-114,76],[-12,16],[-241,3],[3,-42],[-16,-21],[5,-62],[-17,-26],[-68,-26],[-69,-53],[-27,-4],[-63,35],[-65,-2],[-58,30],[-29,-4],[-28,27],[-99,24],[-98,42],[-48,2],[-71,-10],[-31,83],[-52,47],[-7,29],[-88,16],[-18,-64],[7,-39],[-46,-19],[-38,43],[-36,72],[-44,67],[-141,159],[-20,8],[-32,-16],[-112,122],[1,22],[30,44],[-62,23],[-91,77],[-119,84],[-9,56],[97,153],[22,18]],[[3304,4123],[35,-13],[41,43],[-38,40],[-1,17],[46,10],[12,34],[28,-16],[12,21],[36,8],[2,40],[104,67],[-22,23],[-5,42],[39,38],[8,38],[28,28],[42,-10],[13,66],[30,35],[-4,56],[46,82],[2,51],[73,-10],[57,-33],[29,-1],[50,34],[22,99],[51,-13],[41,8],[100,-32],[31,72],[2,43],[-12,44],[30,19],[3,25],[48,1],[86,32],[38,-20],[40,13],[-2,60],[-29,30],[21,15],[-51,82],[33,71],[6,33],[44,25],[41,-47],[65,-5],[13,-26],[71,-19],[24,-18],[54,0],[25,-17],[40,5],[33,17],[38,-15],[48,23],[8,37],[23,30],[34,-7],[38,47],[72,31],[-1,13],[43,-22],[69,14]],[[140,2236],[-14,-20],[-10,-57],[-41,-11],[-26,26],[-26,-8],[-23,67],[20,5],[9,49],[34,59],[79,-31],[12,-20],[-14,-59]],[[309,2459],[34,-21],[8,-28],[-32,-32],[-136,-24],[-40,-13],[-45,15],[-7,22],[48,10],[44,48],[36,24],[61,9],[29,-10]],[[3852,2833],[-3,-28],[57,-19],[90,2],[85,18],[51,18],[74,6],[91,-79],[106,-15],[38,-13],[-39,-56],[-94,-16],[-40,-17],[-111,-2],[-94,-51],[-13,17],[-68,-22],[-22,-31],[-71,-62],[-82,-44],[-13,-18],[-2,-45],[13,-11],[5,-77],[-31,1],[-42,-35],[-38,-5],[-46,10],[-60,27],[-30,34],[-8,37],[-67,48],[-3,19],[70,176],[-4,29],[-39,131],[14,71],[34,14],[12,-14],[35,5],[30,46],[45,36],[3,43],[50,-3],[1,-26],[68,-64],[48,-35]],[[3978,3261],[-30,13],[41,15],[-11,-28]],[[2181,3464],[18,-25],[13,-72],[27,-29],[-2,-19],[71,-85],[-8,-26],[-35,-29],[-12,-44],[-30,27],[-11,43],[16,32],[-15,52],[-29,52],[0,54],[-20,48],[17,21]],[[2195,3893],[-30,0],[-15,27],[33,16],[12,-43]],[[2669,4015],[18,-14],[53,12],[12,-49],[30,-43],[36,-21],[2,-18],[104,-20],[-73,-32],[-23,-18],[2,-27],[-23,-26],[16,-36],[-12,-41],[-29,-20],[-55,3],[-35,33],[0,35],[-29,8],[-26,37],[-36,-7],[-28,25],[16,56],[36,16],[-38,39],[15,36],[-12,23],[-45,20],[111,35],[13,-6]],[[1768,4264],[23,-57],[32,-43],[5,-48],[-74,11],[-116,-36],[-28,-1],[12,54],[-11,130],[2,35],[23,67],[5,70],[96,-107],[31,-75]],[[6859,5242],[80,-21],[23,16],[8,-46],[-30,-30],[24,-20],[0,-45],[-31,-37],[9,-54],[42,-18],[11,-19],[54,10],[117,9],[21,-42],[43,-21],[25,-47],[51,-7],[27,-62],[96,5],[44,23],[44,-8],[21,23],[79,11],[29,38],[32,7],[79,-1],[3,25],[34,11],[78,-19],[15,33],[107,-8],[49,49],[95,-9],[67,21],[33,22],[42,11],[33,37],[-4,14],[39,30],[36,3],[48,23],[134,102]],[[8566,5251],[11,-41],[-13,-19],[23,-37],[50,-27],[70,-21],[13,-26],[30,-14],[52,-2],[12,-42],[35,-44],[53,-36],[20,-25],[9,-53],[-37,-18],[-3,-36],[-24,-21],[13,-53],[97,-44],[19,-37],[2,-35],[39,-31],[-35,-34],[24,-18],[-11,-37],[45,-8],[34,-26],[46,-64],[0,-51],[42,-30],[17,-49],[89,-39],[2,-48],[19,-26],[45,-18],[33,-53],[-14,-45],[50,-88],[42,-30],[5,-25],[-18,-60],[-43,-47],[-1,-32],[34,-53],[52,-25],[17,-42],[-17,-40]],[[9494,3601],[-39,38],[-124,67],[-63,-2],[-60,39],[-92,27],[-43,-3],[-17,14],[-117,13],[-14,15],[-51,8],[-25,18],[-55,16],[-25,-14],[-37,22],[-41,1],[-32,-19],[-26,3],[-24,-21],[-56,12],[-5,52],[-82,-4],[-59,-27],[1,-32],[-47,-20],[-17,-27],[-61,12],[-41,-4],[-51,-25],[-3,-13],[-72,-81],[8,-30],[-16,-15],[3,-60],[-16,-43],[-36,1],[-19,-16],[-72,30],[-41,25],[-14,-11],[-63,50],[-10,-23],[-24,19],[18,13],[2,41],[-27,16],[-59,-21],[-91,40],[0,18],[-59,0],[-5,-18],[-39,23],[-22,-14],[-62,10],[11,-18],[-29,-8],[-19,35],[17,25],[-30,-4],[-30,25],[-10,-15],[-52,25],[-35,-3],[-1,-34],[-51,1],[-16,44],[10,23],[-28,-8],[21,25],[-26,0],[-13,27],[-72,-13],[-4,13],[-46,-22],[-32,2],[-53,23],[-66,-12],[-6,-47],[-45,27],[-63,-25],[-32,17],[-17,-53],[-23,-34],[-42,-14],[37,-45],[-28,-14],[27,-32],[-36,-35],[1,-27],[23,-42],[-83,-2],[10,-24],[-37,0],[-41,19],[-59,67],[-26,49],[-4,51],[-96,41],[-27,-16],[-69,9],[-49,-11],[-60,-54],[-83,-22],[-33,16],[-35,43],[-33,22],[-98,43]],[[9494,3601],[-11,-40],[21,-42],[-12,-18],[23,-33],[34,-19],[5,-50],[22,-20],[14,-43],[61,-14],[49,5],[105,-11],[61,3],[26,-13],[3,-62],[-27,-29],[24,-35],[28,-161],[-14,-42],[6,-35],[39,-78],[24,-11],[2,-36],[-25,-14],[-28,-64],[-72,-40],[-9,-35],[-32,-30],[13,-63],[69,-39],[-12,-34],[32,-9],[19,-50],[44,-31],[-4,-35],[27,-23],[-4,-30],[-52,-2],[22,-57],[28,-40],[-28,-1],[-4,-21],[-45,-52],[-75,-53],[-54,15],[-60,-19],[-65,22],[-28,0],[-98,-30],[-86,-5],[-31,-17],[-73,-1],[-62,-24],[-58,-48],[-62,-35],[-24,-43],[-47,-4],[-47,24],[-49,-11],[-21,-40],[-38,-37],[-89,-16],[-19,-11],[-7,-46],[-22,-14],[-7,-38],[-30,-9],[-57,-42],[-25,-36],[3,-39],[-56,-3],[-44,-24],[-162,-43],[-27,3],[-18,-19],[-55,-3],[-84,61],[-21,43],[-19,-13],[-4,-74],[-27,-29],[-51,4],[-42,-16],[-66,-12],[-45,6],[-37,-17],[-102,11],[-93,45],[-72,21],[19,27],[-72,14],[-53,-48],[-104,-28],[-43,23],[-201,3],[-98,-63],[-79,-4],[-33,-12],[-24,-27],[-43,-23],[-24,1],[-31,-35],[-32,14],[21,17],[11,44],[24,34],[-21,58],[-14,102],[-25,39],[-17,49],[-47,95],[-2,34],[-162,21],[-40,-9]],[[6570,1857],[-22,96],[-70,91],[-186,141],[-38,46],[-5,59],[38,53],[120,101],[49,48],[94,143],[9,39],[1,99],[14,37],[-3,140],[-27,7],[-20,-19],[-31,4],[-41,75],[11,54],[-38,54],[-95,8],[-71,46],[-55,1],[-63,30],[-50,10],[-80,38],[-44,40],[-40,-23],[-47,-4],[-70,49],[-61,30]],[[4721,0],[-20,44],[24,10],[14,-49],[-18,-5]],[[4720,473],[-31,52],[-10,39],[8,53],[-34,116],[16,14],[24,-27],[-2,-45],[26,-46],[7,-90],[-4,-66]],[[3821,977],[-29,3],[23,19],[6,-22]],[[4198,1256],[-21,17],[-9,39],[8,40],[31,-13],[13,-25],[-22,-58]],[[4169,1372],[-28,9],[-23,72],[51,-37],[0,-44]],[[5604,1482],[30,-9],[40,-47],[37,-16],[27,-37],[26,1],[15,-26],[77,-19],[63,24],[74,-52],[31,-35],[46,-4],[123,-108],[46,-63],[45,-37],[-38,-27],[-47,6],[-113,69],[-72,27],[-53,9],[-40,-19],[-60,10],[-41,17],[-102,21],[-15,98],[-29,38],[-38,15],[-13,77],[-25,45],[6,42]],[[7219,1453],[-29,11],[15,26],[42,28],[-28,-65]],[[6679,1683],[-16,11],[0,47],[16,12],[13,-42],[-13,-28]],[[3304,4123],[-12,73],[-48,28],[-55,-25],[-17,12],[50,29],[16,-12],[26,19],[14,78],[-19,170],[22,21],[-38,28],[-24,85],[-26,60],[22,30],[-33,19],[-42,69],[-31,113],[-50,103],[-55,57],[-85,41],[-36,39],[7,30],[-42,5],[-13,-28],[-20,0],[-39,-36],[-6,-24],[-40,-16],[-15,-47],[-14,29],[-108,147],[47,44],[35,-30],[21,-43],[50,25],[-18,34],[-30,9],[15,26],[64,-55],[40,26],[28,60],[2,66],[22,27],[45,20],[-105,138],[-108,89],[8,31],[31,20],[-29,12],[-57,83],[-17,43],[4,25],[-52,57],[-32,45],[3,21],[-32,47],[4,49],[29,112],[-6,35],[-39,66],[-53,-2],[-10,-32],[-32,-31],[-46,3],[-44,-49],[-25,18],[-91,32],[-52,40],[-47,13],[-86,3],[-21,46],[29,-5],[35,16],[67,-30],[105,-1],[-22,82],[35,103],[70,50],[-20,25],[88,106],[39,55],[55,50],[42,16],[67,-16],[14,20],[-16,32],[23,36],[28,-18],[24,34],[16,-18],[17,21],[26,-27],[36,15],[-17,9],[25,46],[33,25],[-2,21],[38,19],[25,35],[-9,38],[14,29],[-27,30],[-6,35],[24,47],[18,6],[19,44],[0,43],[-17,38],[-37,8],[8,32],[-13,22],[-7,84],[-14,31],[-153,42],[-31,20],[8,56],[-19,31],[2,34],[58,62],[35,19],[18,34],[39,36],[-21,36],[32,65],[6,67],[-44,14],[-74,10],[-61,-6],[0,73],[11,14],[61,5],[7,52]],[[2696,8195],[21,-1],[96,-34],[67,0],[39,-40],[91,12],[33,27],[64,0],[54,17],[13,-61],[79,-32],[-1,-47],[57,-48],[47,-53],[18,-42],[22,-12],[31,-55],[9,-69],[-11,-95],[17,-23],[-16,-18],[21,-41],[-16,-85],[-51,-47],[-69,-28],[-13,-21],[0,-39],[-41,-54],[-11,-47],[23,-70],[42,-60],[30,-29],[-25,-61],[37,-44],[32,-52],[91,-13],[0,-78],[12,-53],[29,-54],[-2,-58],[-18,-36],[-28,-13],[3,-69],[-19,-57],[21,-41],[-3,-64],[-18,-42],[13,-87],[-12,-44],[3,-67],[21,-108],[113,4],[30,17],[10,56],[41,52],[81,6],[34,-31],[72,-2],[47,-38],[27,2],[31,-98],[21,-42],[13,-79],[16,-2],[18,80],[-19,3],[-2,42],[48,18],[29,-20],[73,4],[15,-29],[51,-18],[32,-38],[24,3],[-6,-39],[8,-39],[98,-24],[29,40],[6,36],[-13,23],[107,14],[36,-12],[102,-79],[14,-35],[3,-67],[20,-33],[32,-12],[87,3],[2,-44],[83,0],[13,-6]],[[2812,5032],[2,-28],[-41,-21],[-38,30],[5,16],[37,0],[16,20],[19,-17]],[[2558,5500],[-42,25],[2,17],[37,-7],[3,-35]],[[2646,5649],[3,-28],[-21,-15],[-14,19],[32,24]],[[5537,6794],[50,28],[-6,23],[25,32],[-4,41],[28,51],[-20,10],[3,36],[40,14],[-24,14],[9,29],[32,17],[-8,36],[25,-19],[3,24],[26,23],[-12,33],[-25,-6],[-6,35],[-16,-16],[-46,13],[-48,64],[-4,21],[-35,9],[-6,-29],[-35,-33],[-39,-10],[-9,45],[-38,-3],[-79,-31],[-51,-64],[2,-25],[-65,3],[-29,-64],[5,-23],[-38,7],[-145,78],[-24,-53],[-9,-42],[-24,-26],[-32,1],[-15,-16],[-69,-3],[-2,82],[-104,-14],[-62,56],[19,48],[-55,34],[-28,64],[-52,-5],[-2,74],[-70,-7],[-59,50],[-49,-20],[-25,29],[-39,-3],[-22,25],[-3,55],[-19,57],[-35,9],[24,115],[30,12],[3,105],[-9,46],[-35,32],[-16,43],[-62,-5],[-8,170],[-34,117],[-1,112],[-10,41],[-21,9],[72,40],[30,-21],[30,7],[58,31],[16,25],[53,1],[37,-14],[12,-30],[15,9],[28,61],[21,23],[-77,20],[-23,66],[53,47],[4,33],[-37,7],[-67,-18],[-26,36]],[[4277,8672],[21,35],[61,21],[-2,54],[37,19],[35,-9],[19,25],[49,-7],[41,29],[40,69],[77,46],[23,4],[22,-54],[17,-101],[39,-56],[39,-11],[25,9],[54,48],[34,-36],[42,-9],[19,26],[56,12],[65,-16],[44,-36],[17,-30],[32,-19],[49,5],[30,-14],[9,22],[69,21],[24,-6],[65,32],[-43,5],[-11,24],[32,21],[-41,36],[30,44],[-9,26],[66,34],[-9,22],[21,30],[-11,40],[32,-9],[35,74],[34,-9],[39,26],[22,-25],[32,19],[41,53]],[[5689,9156],[25,-33],[50,21],[48,-3],[39,-56],[51,14],[16,-29],[57,5],[68,-15],[79,10],[64,-24],[30,-23],[63,-4],[67,26],[46,3],[32,-13],[7,-29],[1,-180],[11,-59],[-2,-67],[87,-41],[0,-23],[23,-7],[51,21],[92,-11],[9,-38],[31,-26],[18,-36],[28,-4],[12,-29],[79,-59],[123,-2],[93,-43],[57,-8],[76,53],[74,63],[45,22],[49,51],[-18,51],[-22,20],[-7,41],[-45,42],[4,23],[-28,16],[37,45],[-1,16],[58,29],[13,30],[-31,29],[8,66],[-22,29],[2,63],[-24,48],[98,73],[183,-39],[23,-30],[56,36]],[[7672,9171],[-17,-57],[0,-33],[-19,-39],[-36,-14],[4,-34],[-16,-14],[-15,-59],[19,-48],[-19,-70],[28,-45],[14,-48],[41,-32],[-18,-46],[-30,-24],[40,-88],[-60,-50],[-2,-45],[52,-39],[33,-50],[69,-33],[55,-37],[11,-80],[42,-17],[0,-32],[27,-71],[-9,-63],[22,-30],[42,-19],[4,-31],[30,-11],[45,-61],[-1,-59],[-47,-27],[-9,-34],[36,-32],[-14,-49],[65,-27],[38,-50],[73,-7],[5,-21],[-32,-41],[26,-29],[-2,-23],[54,-41],[3,-13],[-48,-68],[20,-52],[-7,-36],[45,-70],[-1,-66],[32,-112],[76,-27],[2,-24],[38,-33],[-5,-43],[110,-20],[52,-17],[23,-51],[-20,-38],[32,-49],[-30,-31],[7,-62],[-27,-53],[-1,-31],[-42,-16]],[[2696,8195],[-42,28],[-27,52],[-42,22],[-68,103],[19,40],[58,31],[27,51],[110,47],[127,8],[68,9],[85,49],[42,58],[36,24],[29,35],[-22,78],[71,126],[22,53],[-2,32],[-35,64],[-15,87],[159,26],[85,9],[46,32],[58,19],[-5,65],[133,-34],[29,-38],[53,-33],[61,-15],[31,-36],[66,-36],[208,-4],[46,15],[28,25],[18,-13],[-56,-62],[-10,-62],[-24,-29],[-3,-72],[-25,-38],[13,-33],[41,-22],[7,-95],[40,-9],[18,-59],[24,-14],[83,13],[16,-20]],[[8199,6460],[24,-31],[69,-30],[22,-44],[0,-34],[42,-37],[85,-38],[-30,-29],[-3,-69],[-43,-31],[-23,-44],[2,-67],[-26,-20],[-16,-43],[22,-31],[3,-35],[49,-11],[47,-63],[53,-29],[56,-75],[35,-23],[9,-39],[65,-63],[100,-28],[-5,-45],[16,-34],[-90,-86],[3,-51],[-50,-35],[-47,-4],[-23,-15],[21,-25]],[[5689,9156],[-9,40],[30,14],[-9,20],[-32,-1],[13,38],[37,-20],[35,15],[-11,29],[31,63],[112,-9],[8,36],[49,17],[-18,9],[23,55],[99,0],[24,28],[-25,38],[36,6],[-16,39],[38,-5],[-18,26],[41,73],[50,1],[-2,21],[-38,29],[-1,20],[80,0],[18,27],[30,8],[17,-15],[5,40],[35,9],[21,25],[29,66],[36,14],[44,56],[36,10],[31,-22],[46,23],[45,11],[14,-11],[54,-3],[72,23],[16,-20],[26,9],[38,-36],[32,-14],[34,8],[15,-13],[50,3],[4,-47],[94,-26],[42,-33],[39,20],[23,-13],[42,-46],[66,-1],[34,14],[22,-19],[43,-3],[10,25],[45,4],[41,41],[12,-18],[52,24],[36,39],[64,8],[41,58],[73,-28],[70,17],[21,-67],[0,-41],[-20,-29],[-75,-30],[-23,-27],[7,-35],[33,-15],[54,36],[40,3],[7,-33],[-47,-47],[11,-37],[-13,-46],[-46,-5],[-23,-52],[-37,-39],[-21,-68],[-42,-33],[-78,37],[-44,-125],[67,-74],[88,-54]],[[6570,1857],[-44,-10],[-48,-57],[-45,-26],[-65,-59],[-28,-37],[-89,-72],[-63,-20],[-36,1],[-48,29],[27,43],[-25,55],[12,39],[-23,24],[-42,16],[-38,-60],[-32,-10],[-43,-35],[-66,93],[-20,8],[-32,117],[-62,120],[-62,151],[-59,103],[-143,147],[-55,76],[-151,112],[-50,59],[-2,37],[14,58],[40,31],[29,61],[16,88],[16,38],[19,11],[13,39]],[[5929,1555],[-8,-19],[-46,8],[54,11]]],"transform":{"scale":[0.00008967049284928463,0.00010402222702270217],"translate":[99.05249154600004,6.97262001200005]},"objects":{"Trang":{"type":"GeometryCollection","geometries":[{"arcs":[[0,1,2,3,4,5,6]],"type":"Polygon","properties":{"Shape_Leng":1.48138027812,"Shape_Area":0.0360475049265,"ADM2_EN":"Mueang Trang","ADM2_TH":"เมืองตรัง","ADM2_PCODE":"TH9201","ADM1_EN":"Trang","ADM1_TH":"ตรัง","ADM1_PCODE":"TH92","ADM0_EN":"Thailand","ADM0_TH":"ประเทศไทย","ADM0_PCODE":"TH"}},{"arcs":[[[-4,7,8,9,10,11]],[[12]],[[13]],[[14]],[[15]],[[16]],[[17]],[[18]],[[19]]],"type":"MultiPolygon","properties":{"Shape_Leng":1.89642536608,"Shape_Area":0.0524024046708,"ADM2_EN":"Kantang","ADM2_TH":"กันตัง","ADM2_PCODE":"TH9202","ADM1_EN":"Trang","ADM1_TH":"ตรัง","ADM1_PCODE":"TH92","ADM0_EN":"Thailand","ADM0_TH":"ประเทศไทย","ADM0_PCODE":"TH"}},{"arcs":[[-3,20,21,22,-8]],"type":"Polygon","properties":{"Shape_Leng":1.2775194961,"Shape_Area":0.036269128244,"ADM2_EN":"Yan Ta Khao","ADM2_TH":"ย่านตาขาว","ADM2_PCODE":"TH9203","ADM1_EN":"Trang","ADM1_TH":"ตรัง","ADM1_PCODE":"TH92","ADM0_EN":"Thailand","ADM0_TH":"ประเทศไทย","ADM0_PCODE":"TH"}},{"arcs":[[[-9,-23,23,24]],[[25]],[[26]],[[27]],[[28]],[[29]],[[30]],[[31]],[[32]]],"type":"MultiPolygon","properties":{"Shape_Leng":1.87592482989,"Shape_Area":0.0675876660615,"ADM2_EN":"Palian","ADM2_TH":"ปะเหลียน","ADM2_PCODE":"TH9204","ADM1_EN":"Trang","ADM1_TH":"ตรัง","ADM1_PCODE":"TH92","ADM0_EN":"Thailand","ADM0_TH":"ประเทศไทย","ADM0_PCODE":"TH"}},{"arcs":[[[-5,-12,33,34]],[[35]],[[36]],[[37]]],"type":"MultiPolygon","properties":{"Shape_Leng":1.79024759126,"Shape_Area":0.0379324162876,"ADM2_EN":"Sikao","ADM2_TH":"สิเกา","ADM2_PCODE":"TH9205","ADM1_EN":"Trang","ADM1_TH":"ตรัง","ADM1_PCODE":"TH92","ADM0_EN":"Thailand","ADM0_TH":"ประเทศไทย","ADM0_PCODE":"TH"}},{"arcs":[[-7,38,39,40,41]],"type":"Polygon","properties":{"Shape_Leng":1.95509696759,"Shape_Area":0.0636342170413,"ADM2_EN":"Huai Yot","ADM2_TH":"ห้วยยอด","ADM2_PCODE":"TH9206","ADM1_EN":"Trang","ADM1_TH":"ตรัง","ADM1_PCODE":"TH92","ADM0_EN":"Thailand","ADM0_TH":"ประเทศไทย","ADM0_PCODE":"TH"}},{"arcs":[[-6,-35,42,-39]],"type":"Polygon","properties":{"Shape_Leng":1.65662839311,"Shape_Area":0.041114590601,"ADM2_EN":"Wang Wiset","ADM2_TH":"วังวิเศษ","ADM2_PCODE":"TH9207","ADM1_EN":"Trang","ADM1_TH":"ตรัง","ADM1_PCODE":"TH92","ADM0_EN":"Thailand","ADM0_TH":"ประเทศไทย","ADM0_PCODE":"TH"}},{"arcs":[[-2,43,-21]],"type":"Polygon","properties":{"Shape_Leng":0.748984318864,"Shape_Area":0.0202162763107,"ADM2_EN":"Na Yong","ADM2_TH":"นาโยง","ADM2_PCODE":"TH9208","ADM1_EN":"Trang","ADM1_TH":"ตรัง","ADM1_PCODE":"TH92","ADM0_EN":"Thailand","ADM0_TH":"ประเทศไทย","ADM0_PCODE":"TH"}},{"arcs":[[-41,44]],"type":"Polygon","properties":{"Shape_Leng":0.923109437201,"Shape_Area":0.0176050445682,"ADM2_EN":"Ratsada","ADM2_TH":"รัษฎา","ADM2_PCODE":"TH9209","ADM1_EN":"Trang","ADM1_TH":"ตรัง","ADM1_PCODE":"TH92","ADM0_EN":"Thailand","ADM0_TH":"ประเทศไทย","ADM0_PCODE":"TH"}},{"arcs":[[[-10,-25,45]],[[46]]],"type":"MultiPolygon","properties":{"Shape_Leng":0.575782533389,"Shape_Area":0.0130695613313,"ADM2_EN":"Hat Samran","ADM2_TH":"หาดสำราญ","ADM2_PCODE":"TH9210","ADM1_EN":"Trang","ADM1_TH":"ตรัง","ADM1_PCODE":"TH92","ADM0_EN":"Thailand","ADM0_TH":"ประเทศไทย","ADM0_PCODE":"TH"}}]}}}