{"type":"Topology","arcs":[[[3785,6227],[21,3],[9,-7],[23,2],[33,-18],[19,1],[26,-11],[36,-9],[7,-15],[10,-1],[8,-22],[18,-10],[19,5],[17,-13],[12,8],[10,-5],[25,1],[-1,-15],[8,-13],[18,-15],[15,-1],[12,-6],[3,-10],[16,-2],[14,12],[24,0],[20,-7],[16,7],[11,-6],[8,3],[23,-15],[20,4],[12,-6],[11,3],[1,-13],[16,-2],[8,-31],[13,-15],[29,-13],[33,5],[19,-10],[19,-1],[8,9],[15,-5],[28,5]],[[4497,5998],[13,1],[20,-9],[13,5],[49,-4],[9,9],[16,-3],[30,4],[2,-7],[23,5],[9,11],[18,-11],[15,3],[15,-9],[11,2],[24,-16],[23,-3],[13,7],[15,-4],[2,-11],[19,-7],[32,9],[26,-11],[13,10],[21,7],[15,21],[30,16],[44,-3],[2,6],[27,3],[36,-10],[5,14],[11,-2],[-4,-17],[6,-21],[-11,-29],[-8,-2],[0,-23],[-13,-13],[12,-10],[-7,-29],[14,-12],[-18,-17],[1,-11],[38,-26],[10,-2],[14,-25],[39,-22],[24,-2],[3,-44],[12,-27],[-17,-13],[3,-5],[23,4],[12,-10]],[[5231,5665],[6,-7],[-39,-15],[-17,-12],[-26,-4],[-17,6],[-36,21],[-26,11],[-35,5],[-30,-3],[-35,-11],[-66,-34],[-72,-49],[-124,-59],[-32,-18],[-40,-18],[-64,-23],[-33,-19],[-44,-14]],[[4501,5422],[-55,-5],[-25,-7],[-42,-27],[-41,-10],[-34,1],[-30,5],[-4,5],[-38,14],[-62,16],[-39,5],[-25,-2],[-62,-29],[-29,-12],[-66,-15],[-53,-5],[-53,3],[-36,5],[-22,-7],[-15,-25],[-22,-25],[-31,-21],[-27,-9],[-39,-7],[-75,-2],[-89,3],[-77,3],[-35,4],[-2,3],[-46,8],[-3,15],[15,16],[25,7],[23,2],[30,-2],[34,2],[23,6],[30,26],[4,22],[-9,17],[-12,11],[-47,25],[-22,9],[-63,12],[-31,9],[-19,1],[-42,-5],[-31,-9],[-36,-18],[-42,-29],[-39,-34],[-55,-54],[-34,-26],[-64,-37],[-25,-17],[-73,-39],[-108,-55],[-35,2],[-14,6]],[[2707,5152],[30,27],[-1,22],[-25,16],[-19,-1],[-9,-6],[-15,-26],[-10,-9],[-20,-7],[-28,1],[-24,17],[1,15],[7,9],[31,14],[7,16],[-11,10],[-51,14],[-15,2],[-23,-5],[-38,-19],[-25,0],[-16,7],[-10,20],[13,6],[35,-9],[13,4],[6,17],[-9,7],[-37,12],[-9,10],[-4,14],[17,17],[17,3],[38,-5],[17,0],[20,6],[6,7],[-5,17],[-15,8],[-26,-5]],[[2520,5378],[-59,25],[-10,21],[5,23],[39,25],[14,14],[4,19],[-8,13],[26,14],[-6,37],[0,52],[21,25],[62,22],[55,31],[-11,34],[14,19],[11,29],[-3,15],[-10,9],[-43,10],[-40,4],[-6,6],[-3,19],[-7,13],[-42,32],[-71,31],[-42,21],[-28,8],[-1,9],[11,7],[20,46],[15,18],[35,33],[11,22],[-13,9],[7,21],[17,35],[-7,52],[14,33],[0,25]],[[2491,6259],[29,5],[-1,5],[36,8],[16,-1],[23,6],[21,11],[3,10],[16,1],[28,23],[11,3],[81,-8],[84,-23],[47,-16],[33,-24],[0,-13],[11,-16],[0,-28],[-15,-18],[-1,-15],[9,-7],[1,-14],[-10,-5],[-11,-28],[41,5],[18,14],[55,25],[-11,-43],[34,-10],[9,17],[15,14],[24,15],[23,9],[22,3],[117,24],[49,5],[39,10],[1,13],[-8,23],[-26,54],[-8,20],[0,21],[14,44],[34,-2],[35,4],[33,-4],[27,3],[37,-11],[26,-14],[16,-24],[26,-13],[27,-2],[18,-13],[27,-7],[36,-31],[20,-12],[2,-7],[49,-13],[30,-2],[18,-6],[14,3]],[[9961,7717],[-145,-89],[-156,-92],[-100,-51],[-142,-62],[-156,-63],[-147,-69],[-33,-22],[-85,-33],[-22,-6],[-87,-32],[-12,-13],[-5,-16],[-27,-33],[-38,-28],[-35,-41],[-45,-37],[-65,-45],[-66,-35],[-31,-14],[-44,-7],[-56,6],[-59,16],[-6,-2],[-71,-1],[-31,-12],[-11,-16],[4,-8],[-21,-31],[7,-11],[-3,-14],[8,-13],[-26,-29],[6,-15],[-3,-8],[-35,-20],[-1,-23],[-7,-6],[-17,11],[-15,1],[-22,-10],[-54,2],[-6,-5],[-38,-1],[-43,4],[-23,-17],[-9,-23],[-15,-13],[3,-7],[41,-12],[30,-15],[5,-23],[19,-35],[22,-9],[1,-11],[10,-10],[2,-13],[10,-2],[-11,-31],[5,-6],[-15,-13],[0,-10],[-21,-27],[-16,-1],[-8,-10],[-14,-4],[7,-18],[-12,-16],[-1,-40],[12,-19],[-3,-16],[-9,-9],[6,-15],[-9,-26],[28,-14],[0,-6],[30,-27],[6,-16],[27,-12],[19,-4],[2,-18],[-70,-11],[-35,-18],[-15,-3],[-36,3],[-17,5],[-18,-1],[-17,-7],[-5,-8],[-22,2],[-30,-11],[-42,-12],[-56,4],[-30,6],[-23,-1],[-35,5]],[[7688,6149],[-39,-1],[-36,-6],[-30,0],[-47,13],[-59,23],[-32,23],[-28,1],[-37,5],[-34,16],[-18,-8],[-39,-4],[-25,-23],[-24,-14],[-19,-4],[-23,2],[-24,-4],[-6,-15],[-54,-4],[-40,2],[-44,-1]],[[7030,6150],[-9,5],[-30,1],[-39,13],[-3,25],[-29,22],[-9,23],[-33,31],[-65,50],[-11,20],[-2,22],[6,15],[-8,3],[7,26],[-23,14],[-32,1],[-12,4],[12,23],[-2,26],[-11,13],[4,7],[40,28],[-7,31],[-24,11],[-16,24],[-19,9],[-26,4],[-68,20],[-42,37],[-17,6],[-30,27],[-17,22],[-19,32],[-18,15]],[[6478,6760],[3,17],[-2,26],[6,39],[10,21],[57,67],[11,31],[-16,35],[11,92],[1,37],[-8,46],[1,17],[-14,48],[4,24],[-2,47],[8,18],[21,13],[11,11],[0,20],[7,5],[1,15],[-13,8],[-3,13],[-35,29],[-10,15],[-1,23],[7,11],[36,27],[35,30],[43,58],[20,35],[18,24],[48,37],[17,21],[54,51],[10,15],[48,29],[40,9],[42,0],[30,5],[29,-5],[22,9],[-15,17],[-10,23],[-17,26],[-39,18],[-23,16],[2,8],[13,7],[14,14]],[[6950,7962],[49,5],[2,-14],[16,-18],[22,7],[20,-10],[29,0],[22,-10],[1,-13],[31,-10],[15,-15],[15,-5],[6,-12],[14,-11],[20,-7],[22,3],[-1,7],[24,-10],[36,18],[7,12],[27,-5],[10,7],[19,-1],[13,11],[-3,7],[20,7],[13,-1],[20,13],[31,-19],[19,-5],[2,15],[24,10],[17,-5],[14,13],[19,4],[12,-4],[28,8],[12,-5],[-1,-12],[21,-14],[-6,-9],[8,-14],[36,-12],[5,-24],[23,-17],[20,-5],[4,-14],[-14,-19],[24,-9],[56,-5],[26,-8],[24,-21],[60,-15],[27,-14],[0,-15],[23,-47],[49,-34],[41,1],[11,-3],[11,-15],[11,-7],[20,-2],[40,7],[18,-7],[26,-22],[46,-4],[15,-21],[14,2],[-4,32],[2,12],[44,2],[46,13],[24,10],[8,21],[15,16],[6,18],[11,15],[22,67],[6,5],[65,38],[11,2],[76,-11],[20,2],[53,14],[21,1],[44,-12],[36,-2],[33,5],[51,23],[41,24],[19,4],[32,-8],[20,-1],[57,8],[9,-11],[20,-7],[27,-2],[73,18],[15,10],[-3,13],[13,8],[13,-4],[30,10],[0,12],[25,19],[-2,10],[29,31],[-2,15],[7,12],[-3,10],[10,7],[-5,6],[8,12],[-4,23],[16,22],[18,10],[8,9],[-3,17],[10,17],[-7,17],[3,11],[-20,15]],[[9279,8158],[42,0],[28,-8],[18,-14],[11,-25],[14,-14],[33,-11],[79,-14],[105,-28],[46,-15],[56,-25],[18,-23],[17,-43],[3,-20],[21,-44],[36,-42],[58,-31],[36,-21],[36,-35],[25,-28]],[[9961,7717],[20,-22],[12,-38],[6,-50],[-7,-38],[5,-34],[-24,-50],[-14,-25],[-20,-54],[-7,-26],[-8,-45],[6,-39],[0,-47],[-9,-18],[-17,-61],[-25,-31],[-18,-8],[-52,-28],[-37,-25],[-13,-41],[-18,-16],[-15,-33],[-36,-51],[-30,-36],[-8,-16],[5,-30],[20,-24],[54,-107],[-3,-31],[-8,-19],[-30,-37],[-6,-32],[5,-45],[-4,-33],[-29,-63],[-15,-26],[-45,-50],[-25,-19],[-41,-26],[-55,-23],[-74,-23],[-46,-1],[-28,-13],[-26,-4],[-50,-15],[-34,-3],[-39,7],[-38,1],[-22,-2],[-69,-11],[-133,-19],[-55,-9],[-11,-6],[-28,-25],[-28,-21],[-43,-23],[-22,-16],[-18,-30],[-32,-35],[-11,-16],[-7,-20],[5,-24],[26,-38],[37,-20],[89,-25],[25,-13],[32,-25],[13,-5],[40,-3],[10,-5],[9,-20],[60,10],[41,11],[15,9],[36,1],[29,5],[96,7],[28,-1],[76,-10],[35,1],[63,12],[77,22],[17,-15],[1,-16],[23,-18],[25,-8],[18,-12],[-1,-10],[-16,-20],[-5,-12],[8,-28],[15,-28],[7,-36],[34,-51],[9,-6],[8,-27],[-10,-14],[-34,-30],[-24,-31],[-25,-8],[-40,-2],[-77,15],[-42,1],[-36,-17]],[[9358,5552],[-11,8],[-65,12],[-18,10],[0,11],[18,10],[14,18],[-5,8],[7,9],[-9,5],[11,9],[-7,18],[-25,20],[-37,4],[-19,13],[-9,-1],[-38,14],[-5,21],[-7,-4],[-7,-29],[4,-6],[-25,-27],[-13,-2],[-10,-27],[-47,-1],[-89,16],[-44,18],[-23,15],[-25,24],[-1,16],[10,15],[-7,14],[13,18],[0,11],[-10,10],[8,15],[-17,11],[-10,-5],[-45,-38],[-20,-7],[-25,-2],[-61,3],[-16,16],[-25,-2],[-11,-26],[2,-56],[9,-23],[-3,-13],[-16,-20],[-39,-30],[-14,-7],[-32,-9],[-47,-20],[-40,-5],[-36,8],[-29,23],[-19,34],[-42,43],[-36,25],[-26,12],[-38,20],[-25,20],[-49,23],[-34,7],[-40,1],[-53,-6],[-66,-14],[-89,-25]],[[7895,5755],[-12,14],[-21,9],[11,11],[-17,11],[3,11],[-5,16],[18,1],[6,8],[-13,5],[-11,32],[2,10],[-13,11],[-2,10],[-20,-2],[-8,10],[-38,-6],[-20,9],[1,7],[-18,19],[-1,9],[-27,4],[-5,16],[-18,20],[10,15],[1,18],[18,4],[1,20],[-11,10],[5,11],[23,28],[3,11],[-36,8],[-7,10],[-6,24]],[[2520,5378],[-19,-7],[-39,-1],[-21,7],[-16,13],[2,36],[-13,26],[-38,42],[-11,25],[-25,22],[-25,9],[-43,5],[-10,-8],[8,-9],[0,-19],[-34,-11],[-15,-8],[-4,-10],[9,-13],[11,-5],[37,-2],[13,-3],[20,-16],[15,-27],[-2,-12],[-16,5],[-12,18],[-17,11],[-22,6],[-24,1],[-39,-6],[-23,8],[-11,15],[0,17],[10,21],[-1,20],[-9,29],[-1,27],[3,13],[-4,15],[-13,16],[-21,6],[-23,-17],[-32,-4],[-34,9],[-36,19],[-13,3],[-23,-6],[-10,-8],[-3,-17],[12,-17],[-11,-13],[-12,-2],[-21,7],[-2,16],[6,24],[-6,16],[-26,19],[-9,16],[-17,-16],[-13,-33],[-27,-20],[-40,-9],[-22,2],[-12,-6],[-18,10],[-3,-14],[-23,-7],[-18,-20],[-20,-8],[-1,-10],[-40,1],[-12,-5],[17,-11],[-5,-13],[-14,3],[-147,-2],[-59,-3],[-72,4],[-119,0],[-41,6],[-22,8],[-70,37],[-30,22],[-1,7],[-125,1],[-57,1],[-43,-3],[-31,3],[-31,6],[-46,20],[-20,17],[-49,14],[-51,11],[-115,16],[-123,12],[-31,5],[-48,12],[4,44],[9,131],[3,10],[35,29],[22,-13],[20,3],[18,-6],[12,3],[21,-7],[27,2],[36,11],[1,14],[16,15],[31,10],[54,31],[8,10],[-12,23],[-30,3],[-19,-14],[-27,-5],[-14,7],[-5,14],[23,22],[14,20],[4,18],[-5,37],[-8,32],[-40,26],[-14,0],[-2,-13],[27,-10],[8,-11],[0,-16],[-19,-8],[-15,1],[-27,9],[-33,-1],[-10,-12],[-24,-3],[-7,5],[-28,44],[-10,28],[-12,18],[-27,20],[-17,7],[-21,1],[-16,-3],[-24,-11],[-38,-4],[-23,6],[-43,25],[-15,13],[-4,26],[7,10],[45,9],[20,7],[7,9],[-4,11],[-29,37],[-4,16],[3,39],[-1,20],[-12,48],[2,22],[-16,20],[-41,25],[-44,32],[-15,7],[12,19],[21,23],[30,42],[24,27],[48,51],[14,10],[-25,12],[-30,6],[3,23],[13,23],[7,28],[7,13],[-16,31],[3,20],[-1,30],[-17,10],[2,15],[8,9],[10,22],[67,31],[40,20],[19,-4],[26,-22],[52,-23],[37,-5],[24,1],[37,10],[22,11],[35,-3],[2,8],[18,19],[13,23],[17,16],[32,17],[31,-15],[52,-29],[24,5],[22,0],[8,-6],[25,-7],[27,-11],[12,6],[31,-5],[18,-20],[14,0],[41,-13],[12,2],[25,13],[2,10],[-14,5],[1,15],[8,8],[32,9],[33,20],[2,8],[17,13],[38,13],[9,15],[-5,23],[-16,8],[4,5],[46,1],[23,-4],[20,-17],[14,-4],[-15,-11],[1,-7],[20,-3],[5,9],[16,0],[23,-10],[32,-9],[30,1],[-6,-15],[18,-25],[48,9],[22,-4],[17,-12],[28,-26],[28,-11],[20,6],[12,27],[15,13],[9,23],[29,8],[68,-1],[7,-2]],[[1537,7131],[7,-5],[6,-21],[-30,-10],[-30,-22],[12,-12],[13,-4],[0,-25],[39,-5],[28,-12],[7,-24],[-11,-36],[5,-14],[-6,-33],[27,-2],[26,10],[24,-1],[33,-11],[56,3],[29,-7],[7,-7],[-4,-34],[-7,-14],[8,-21],[24,-27],[12,-22],[37,-10],[19,-22],[24,-5],[10,11],[7,20],[13,5],[26,0],[39,8],[53,-8],[-13,-17],[7,-37],[25,-6],[13,-9],[18,-22],[32,-69],[-9,-10],[-21,4],[-10,11],[-3,15],[-30,17],[-7,-4],[-7,-28],[9,-29],[1,-16],[23,-36],[15,0],[13,15],[50,28],[34,5],[33,-14],[34,-40],[1,-6],[-20,-40],[-4,-18],[3,-30],[-19,-27],[22,-61],[2,-37],[15,-55],[36,-35],[15,-7],[57,-6],[38,7],[11,10],[-3,26],[9,40],[15,18],[20,12],[22,4],[23,-7],[7,-7],[-8,-35],[2,-19]],[[8074,9435],[-19,1],[-91,-2],[-56,6],[-62,-12],[-71,-2],[-56,0],[-156,3],[-48,8],[-29,8],[-35,2],[-27,-11],[-23,-5],[-19,3],[-23,11],[-24,5],[-71,12],[-109,16],[-55,7],[-56,2],[-35,3],[-94,1],[-50,5],[-4,-10],[20,-8],[-21,-27],[-8,-5],[-2,-19],[8,-17],[-24,-28],[-8,0],[-6,-16],[-28,6],[-14,-4],[-28,-38],[-43,-46],[-21,-19],[-38,-28],[-65,-34],[-45,-14],[-51,-20],[-31,-8],[-71,-27],[-49,-21],[-100,-23],[-47,-15],[-15,-8],[-40,-29],[-50,-31],[-35,-19],[-42,16],[-13,-12],[-8,-19],[46,-4],[8,-9],[36,-2],[16,15],[23,8],[22,-3],[9,12],[37,-2],[23,1],[36,-7],[0,-6],[25,-6],[18,9],[24,20],[24,-9],[23,-14],[25,-8],[26,-3],[30,4],[32,-4],[25,3],[29,-14],[14,0],[24,-9],[4,4],[11,-14],[33,-20],[14,10],[27,0],[23,-17],[6,11],[17,7],[53,-6],[18,-6],[10,-13],[22,-8],[22,-2],[6,5],[22,-6],[35,1],[0,6],[22,7],[16,-2],[14,10],[18,-1],[15,5]],[[6969,8916],[-5,-15],[-20,-8],[12,-42],[-17,1],[-5,-8],[-21,0],[-4,-7],[-16,3],[-18,-18],[-7,-28],[-19,-23],[-29,-16],[-13,-11],[-1,-20],[-32,-20],[-26,-10],[-36,-10],[-10,-7],[-10,-27],[-18,-8],[-14,0],[-15,-8],[-61,-14],[-55,-7],[-45,-9],[-46,-13],[-14,-8],[-28,-30],[-35,-32],[-52,-40],[-60,-55]],[[6249,8426],[-8,10],[-50,38],[-26,16],[-54,45],[-30,42],[-22,10],[-52,19],[-91,64],[-45,36],[-21,21],[-49,7],[-43,5],[-46,13],[-28,12],[-36,20],[-43,32],[3,24],[14,12],[19,5],[9,26],[-37,3],[-3,5],[-34,17],[-12,17],[-26,18],[-49,0],[-2,-5],[-31,5],[-40,33],[-28,9],[-24,-8],[-14,2],[-5,18],[-19,13],[-24,9],[-36,1],[-29,18],[7,0],[7,18],[-22,9],[-14,-3],[-34,10],[-21,11],[-34,7],[-40,19],[-75,24],[-12,14]],[[4999,9147],[-10,21],[-17,10],[-21,20],[116,104],[41,18],[36,26],[21,29],[5,20],[-9,18],[-14,11],[-20,25],[-34,17],[-32,10],[-17,1],[-11,18],[-29,34],[-12,59],[13,27],[17,40],[15,12],[23,9],[28,19],[12,14],[35,27],[21,20],[14,20],[-6,24],[4,20],[19,9],[0,16],[6,18],[30,23],[21,6],[10,19],[-1,17],[12,9],[39,44],[16,3],[53,-5],[9,1],[31,-6],[18,10],[11,15],[67,-24],[37,-10],[52,-21],[26,-7],[16,1],[0,12],[14,8],[38,4],[12,-4],[29,4],[42,-3],[31,-11],[54,-27],[45,-30],[17,-3],[27,15],[72,-1],[36,-22],[18,-4],[43,1],[14,-2],[47,-24],[89,-14],[149,-43],[86,-21],[83,-19],[58,-12],[99,-16],[104,-10],[54,-2],[57,1],[116,-4],[61,-7],[92,-17],[33,-2],[47,2],[29,-3],[9,-5],[25,-4],[40,-16],[21,-21],[37,-2],[54,2],[87,1],[33,-2],[42,1],[73,-4],[20,-13],[61,-29],[49,-4],[88,-3],[138,-12],[29,-4],[55,-4],[42,-10],[30,-12],[19,-17],[32,-20],[-3,-26],[19,-23],[-4,-21],[-14,-12],[-25,-13],[-40,-7],[-82,11],[-79,18],[-18,2]],[[4748,4395],[16,-12],[40,-16],[9,-12],[24,-4],[34,3],[39,-12],[88,18],[14,-20],[15,-14],[24,-9],[5,-15],[14,-2],[-13,-18],[-6,0],[-21,-20],[8,-9],[21,-3],[41,2],[16,-2],[52,0],[37,6],[23,-1],[-4,-41],[-15,0],[-1,-30],[-12,-16],[11,-29],[-5,-16],[-12,-11],[-23,-3],[-2,-12],[-14,-9],[6,-17],[12,-16],[1,-11],[24,-19],[-10,-23],[26,-17],[18,-5],[35,50],[15,7],[1,-14],[24,-11],[36,-11],[11,0],[14,16],[37,21],[-5,-14],[35,-18],[19,-18],[35,-20],[47,-22],[6,-12],[15,-3],[-1,-8],[8,-33],[9,-1],[14,11],[21,-1],[12,15],[50,3],[13,-10],[9,2],[8,-13],[13,-8],[45,6],[14,9],[1,26],[-15,14],[6,12],[-3,10],[10,7],[-7,5],[19,3],[-23,15],[-8,16],[16,27],[45,5],[11,-12],[20,-7],[12,5],[0,-11],[15,-1],[18,15],[-18,11],[31,29],[16,-6],[30,9],[17,-5],[24,9],[12,-8],[14,2],[26,15],[15,3],[13,-6],[20,16],[26,0],[29,5],[21,-2],[10,13],[30,23],[12,16],[19,13],[8,24],[19,4],[22,17],[24,4],[15,8],[20,3],[50,-3],[32,23],[7,14],[2,32],[30,27],[8,11]],[[6469,4333],[33,-13],[12,-14],[30,-18],[38,-39],[28,-23],[21,-12],[44,-16],[57,-17],[31,-11],[35,-22],[42,-17],[10,2],[46,-9],[12,-8],[10,-15],[11,-1],[37,-18],[27,-18],[2,-6],[31,-21],[21,0],[16,7],[50,1],[16,-16],[30,-15],[4,-7],[27,10],[17,-7],[67,-19],[24,-22],[12,-27]],[[7310,3942],[22,-14],[46,-42],[9,-14],[5,-18],[-9,-5],[-26,11],[-12,9],[-51,8],[-24,9],[-37,2],[-21,-8],[-18,2],[-40,-7],[20,-46],[-1,-8],[-21,-16],[-27,-11],[-43,-26],[-18,-17],[-26,-38],[-7,-41],[4,-13],[-11,-25],[-18,-23],[18,-33],[5,-22],[34,-36],[27,-13],[17,-17],[4,-11],[1,-39],[-18,-43],[-3,-37],[-6,-15],[-38,-33],[-10,-12],[-4,-20],[6,-20],[42,-34],[1,-18],[-56,-57],[-14,-24],[-8,-36],[-21,-50],[-6,-38],[-8,-18],[-6,-29],[6,-35],[32,-47],[6,-49],[-3,-30],[-9,-39],[-17,-41],[-9,-9]],[[6969,2706],[-67,64],[-11,6],[-23,-3],[-15,7],[-24,17],[-39,5],[-9,-7],[-24,-8],[-10,3],[-34,-3],[-21,-6],[-25,2],[-20,-6],[-49,-32],[-29,-5],[-6,-5],[-22,4],[-2,-4],[-19,7],[-38,-6],[-8,5],[-48,3],[-14,6],[-31,-2],[-18,-4],[-9,4],[-23,-9],[-14,11],[-23,-6],[-25,7],[-21,17],[-20,0],[3,10],[-27,-12],[-5,4],[-23,-5],[-13,4],[-15,-6],[17,-6],[-6,-27],[-31,2],[-14,-8],[10,-25],[-20,-14],[-40,-14],[-22,-14],[-30,-10],[-92,-1],[-14,-4],[-58,-2],[-34,3],[-11,7],[-36,1],[-30,13],[-24,-4],[31,-14],[73,-47],[37,-36],[28,-14],[24,-23],[-33,-58],[-6,-28],[4,-11],[-7,-16],[25,-8],[11,-26],[-2,-12],[-14,-24],[-6,-19],[1,-14],[-12,-4],[-9,-17],[13,-1],[-10,-19],[-2,-17],[-10,-26],[18,-33],[23,-30]],[[5890,2163],[-61,5],[-16,-4],[-24,1],[-58,33],[-15,3],[-30,-9],[-16,6],[-9,17],[-35,4],[-1,24],[-13,18],[-21,14],[-11,0],[-24,18],[-22,11],[-9,22],[-26,8],[-22,-2],[-42,-18],[-43,-2],[-15,17],[10,5],[-21,21],[-15,5],[-4,28],[-32,33],[-33,11],[-7,8],[-13,-1],[-1,9],[-20,11],[-12,-2],[-12,11],[-36,-2],[-22,-8],[-16,-28],[-17,3],[14,-9],[-19,-14],[-17,-3],[-11,-9],[-24,4],[6,9],[-15,4],[2,7],[-20,-1],[-12,9],[-27,-13],[-7,11],[-27,0],[-2,9],[-15,-5],[-22,1]],[[4930,2433],[-18,6],[-14,11],[-20,6],[-4,-10],[-14,3],[-3,14],[-9,3]],[[4848,2466],[-9,12],[-14,-3],[-33,6],[-32,9],[-11,12],[-57,19],[-27,6],[-88,16],[-10,13],[20,-5],[49,10],[48,15],[-19,4],[-1,35],[10,5],[26,-2],[23,2],[-6,33],[6,8],[20,9],[59,12],[20,12],[33,-1],[7,6],[1,19],[-8,32],[51,22],[9,14],[-7,18],[6,18],[39,43],[6,14],[19,7],[0,9],[-16,13],[0,14],[21,24],[8,21],[-3,27],[2,24],[12,15],[39,18],[25,19],[-14,4],[-40,3],[-39,-6],[-47,2],[3,-17],[-17,3],[-18,-8],[-41,-10],[-17,2],[-13,-6],[-4,-11],[-11,-5],[-40,-4],[-36,-13],[-7,6],[-13,-5],[-3,7],[-22,-3],[-19,4],[-2,-8],[-38,-5],[-1,-10],[-24,-9],[-19,17],[39,30],[-3,13],[7,25],[0,69],[-4,55],[-13,41],[10,23],[18,-1],[7,14],[11,4],[2,10],[-34,4],[-42,-8],[-10,-9],[-49,-2],[-9,8],[-48,12],[-30,-5],[-20,-7],[-19,3],[-22,-9],[-11,6],[-33,-1],[-44,6],[-29,2],[-15,12],[-27,-5],[-23,-9],[-33,-1],[-12,-11],[-22,-33],[-4,-13],[-18,-20],[-34,-91],[-27,7],[-28,18],[-39,12],[-16,-2],[-15,6],[-25,-1],[-23,9],[-4,-4],[-38,1],[-14,-8],[-11,3],[-80,-114],[-79,-17],[-37,-13],[-52,5],[-25,-1],[-1,-5],[-29,-1]],[[3527,3005],[-7,43],[-13,21],[-13,16],[-39,25],[-35,20],[-42,13],[-8,10],[-4,20],[1,34],[9,21],[25,26],[13,5],[16,14],[7,14],[23,12],[36,7],[4,4]],[[3500,3310],[19,-2],[30,8],[7,5],[40,6],[33,9],[2,9],[16,10],[40,10],[0,8],[15,6],[1,16],[11,7],[-10,12],[1,18],[21,17],[20,43],[0,9],[13,13],[-6,5],[28,20],[12,-3],[13,15],[9,1],[6,15],[8,4],[2,16],[12,11],[14,2],[4,10],[18,6],[21,19],[21,7],[11,13],[-4,8],[19,14],[16,3],[4,11],[18,10],[45,8],[-3,4],[26,10],[14,12],[1,12],[14,11],[16,4],[10,17],[32,27],[12,-1],[8,17],[22,18],[0,16],[21,13],[9,11]],[[4212,3880],[32,10],[8,12],[19,-3],[15,4],[8,9],[11,-1],[12,10],[12,2],[10,20],[17,12],[-12,8],[-8,15],[14,5],[15,11],[0,8],[-18,14],[-2,15],[18,3],[11,23],[23,18],[7,12],[-11,7],[13,3],[2,9],[-9,13],[3,8],[25,12],[16,0],[-1,10],[20,8],[8,10],[22,12],[-9,7],[11,12],[0,13],[7,2],[-6,12],[-9,0],[-7,19],[-13,10],[1,13],[17,5],[0,11],[16,9],[2,-8],[19,9],[3,8],[-12,4],[4,20],[7,9],[27,5],[8,10],[13,-4],[15,-14],[24,0],[38,19],[22,-4],[7,8],[22,-2],[24,8],[-11,11],[36,24]],[[6969,2706],[-13,-17],[0,-20],[11,-24],[31,-27],[19,-24],[4,-19],[55,-22],[32,-15],[46,-13],[33,-14],[18,-17],[13,-31],[4,-32],[10,-57],[9,-38],[-3,-9],[16,-10],[3,-18],[7,-8],[32,-6],[14,-19],[-6,-15],[-11,-14],[3,-40],[9,-14],[15,-12],[36,-15],[28,-19],[15,-19],[9,-36],[15,-27],[10,-57],[-10,-42],[2,-13],[28,-31],[6,-17],[1,-41],[-6,-12],[0,-39],[10,-20],[14,-5],[22,-19],[-33,-42],[-42,-40],[1,-14],[30,-41],[21,-22],[8,-24],[46,-44],[-1,-19],[-16,-30],[-22,-19],[-7,-27],[18,-25],[12,-24],[-2,-13],[-14,-22],[12,-8],[5,-12],[18,-13],[3,-8],[-7,-18],[2,-35],[-4,-8],[-19,-11],[-36,-10],[-12,-12],[-7,-19],[-30,-10],[-5,-12],[27,-22],[33,-22],[54,-25],[1,-7],[-39,-34],[0,-17],[8,-10],[29,-7],[10,-25],[-9,-33]],[[7533,975],[-17,2],[-27,-4],[-21,-8],[-33,-22],[-42,-57],[-11,-10],[1,-9],[-16,-13],[0,-20],[-15,-5],[-27,6],[-11,8],[-39,-3],[-19,-14],[-11,-3],[-17,5],[-20,-1]],[[7208,827],[-16,19],[-11,22],[-11,10],[-15,4],[-23,22],[9,16],[-28,25],[-11,14],[-27,6],[-17,-2],[-40,17],[-5,9],[-17,10],[-25,24],[-15,4],[0,7],[-20,4],[-35,33],[-7,22],[-37,25],[-16,-11],[-10,2],[-26,14],[-22,-8],[-27,-1],[-10,-11],[-23,-4],[-34,6],[-31,-4],[-54,40],[-17,7],[-24,1],[24,15],[-7,12],[-14,10],[-18,-1],[-13,-9],[-21,20],[7,7],[-24,8],[0,12],[-13,24],[8,13],[-1,16],[-21,6],[-15,-5],[-12,12],[16,2],[-12,8],[-5,16],[-17,6],[-5,13],[-17,0],[-12,21],[-33,9],[-12,20],[10,9],[-15,11],[-21,2],[-8,9],[-22,2],[13,20],[-37,11],[-25,-4],[6,9],[-23,14],[-21,-3],[4,9],[-17,4],[3,12],[-23,-1],[-2,15],[-28,4],[19,11],[-15,0],[-38,14],[1,16],[-45,12],[-4,8],[5,19],[36,7],[29,0],[6,5],[12,31],[-4,24],[2,11],[-14,11],[24,-4],[14,10],[38,8],[0,7],[-34,13],[-27,18],[-2,9],[-23,2],[0,18],[15,2],[-18,14],[-2,10],[24,13],[7,23],[17,7],[20,1],[-13,12],[4,19],[32,13],[-27,15],[-3,11],[16,16],[-28,-2],[-4,10],[15,15],[37,12],[20,0],[11,5],[7,19],[22,16],[-8,19],[11,9],[35,-1],[-1,28],[10,4],[5,-15],[16,16],[-12,6],[-33,-3],[-7,14],[12,11],[-13,3],[-9,15],[18,9],[-21,3],[0,20],[24,15],[-2,17],[-14,14],[-16,-14],[-2,-7],[-33,-2],[-3,-12],[-28,-14],[-17,-20],[-23,-2],[1,-5],[-16,-17],[-41,0],[-18,2],[-42,-5],[-51,-1],[-48,16],[-28,23],[-28,49]],[[7208,827],[-6,-13],[1,-31],[-8,-16],[-11,-4],[-29,0],[-15,4],[-38,17],[-25,16],[-69,9],[-40,-3],[-37,-17],[-12,-12],[-20,-11],[-23,-18],[-15,-4],[-34,-1],[-13,-29],[3,-21],[-5,-20],[-51,-20],[-27,5],[-21,9],[-13,0],[-6,-8],[-30,13],[-44,28],[-55,10],[-46,18],[-32,-4],[-25,-13],[-19,-14],[-32,-3],[-20,3],[-35,13],[-10,-1],[-25,-35],[-15,-10],[-6,-17],[-18,-14],[5,-11],[18,-16],[42,-12],[24,-25],[-20,-37],[-29,-8],[-7,-24],[-9,-6],[-27,-6],[-29,0],[-14,-9],[-2,-56],[-14,-7],[-52,-10],[-13,-20],[-2,-18],[2,-22],[5,-7],[20,-7],[4,-12],[-23,-20],[-40,-12],[-21,-9],[7,-9],[15,1],[66,-6],[2,-18],[-12,-23],[-11,-7],[-33,-28],[-6,-13],[-40,-28],[-15,-4],[-36,-17],[-43,-30],[-11,-11],[-19,-8],[-52,-9],[-43,-12],[-25,-26],[-21,-9],[-40,-5],[-77,15],[-11,-3],[-30,-17],[-39,-12],[-17,2],[-25,14],[-77,4],[-26,-3],[-52,3],[-17,7],[-35,-3],[-17,5],[-19,20],[1,8],[-12,13],[-1,23],[-20,0],[-32,7],[-25,10],[-10,9],[-26,12],[-11,14],[-32,2],[-14,6],[-17,18],[-10,18],[-5,20],[16,35],[-12,11],[-20,8],[-4,13],[9,22],[-27,31],[3,18],[-31,30],[-37,21],[-21,25],[-14,31],[1,16],[-14,27],[-38,16],[-11,8],[-58,29],[-48,31],[8,12],[40,6],[15,9],[12,29],[-4,19],[6,26],[-2,21],[7,13],[44,53],[16,14],[14,27],[-5,18],[-45,32],[-14,6],[-2,26],[-18,7],[-33,6],[-35,21],[-35,6],[-20,11],[-53,5],[-14,-4],[-20,2],[-26,13],[-27,-3],[-4,-34],[-11,-13],[-25,-2],[-28,3],[-38,11],[-15,8],[-34,29],[-15,9],[-61,19],[-41,23],[-71,-6],[-55,2],[-2,10],[13,23],[-15,22],[1,11],[-34,16],[-48,10],[-17,14],[-67,42]],[[4063,1153],[51,-1],[42,5],[17,11],[4,11],[-10,16],[-30,18],[-46,16],[-14,13],[2,9],[18,11],[5,12],[57,18],[-9,6],[7,10],[-8,19],[27,22],[8,-1],[22,-17],[-4,-10],[30,-10],[20,17],[-6,2],[17,18],[-34,30],[-1,12],[-12,11],[11,6],[16,31],[25,30],[25,13],[3,33],[17,16],[-46,7],[-27,1],[-6,23],[6,27],[14,27],[61,-22],[5,9],[-11,5],[-42,43],[-1,9],[18,5],[17,19],[2,8],[22,2],[24,-3],[20,-8],[15,1],[7,23],[27,-1],[24,-5],[26,-1],[30,-7],[16,4],[34,0],[20,4],[7,8],[33,8],[-1,17],[-15,10],[0,32],[-8,10],[12,20],[13,4],[5,9],[21,10],[11,15],[22,12],[28,8],[7,13],[19,5],[2,7],[-11,8],[5,31],[-3,23],[-11,12],[8,23],[-8,3],[2,29],[23,20],[23,13],[-12,34],[16,5],[15,14],[-5,4],[10,10],[-11,26],[8,3],[-3,12],[10,0],[8,11],[11,-2],[32,17],[-5,39],[7,6],[-7,12],[-24,21],[3,17],[-11,2],[1,16],[-7,3],[-1,26],[23,14],[0,9],[27,4],[-1,4],[37,12],[-1,7],[15,6],[26,27],[-2,9],[17,0],[-10,13],[12,2]],[[7310,3942],[24,0],[12,-10],[14,-3],[29,5],[21,9],[13,1],[17,8],[53,4],[33,-4],[26,1],[62,-64],[7,-14],[-5,-12],[22,-9],[65,0],[35,8],[96,9],[82,1]],[[7916,3872],[3,-21],[-3,-18],[11,-7],[4,-17],[37,-4],[27,2],[7,16],[18,-8],[33,-21],[21,-19],[23,16],[63,-10],[12,-20],[21,-6],[19,-11],[17,0],[44,3],[15,-1],[63,-28],[8,3],[-10,18],[9,16],[26,1],[0,-8],[16,-5],[21,10],[41,3],[26,7],[6,-9],[19,-2],[10,5],[25,-4],[15,7],[27,0],[44,4],[35,20],[22,20],[47,2],[-1,16],[16,1],[4,11],[19,-1],[26,16],[23,10],[4,9],[19,2],[21,15],[22,-1],[7,8],[31,2],[8,-4],[24,8],[2,13],[17,3],[23,15],[27,-23],[49,20],[22,28],[15,4],[34,0],[15,4],[34,1],[28,-10],[19,-2],[51,-24],[37,-8]],[[9334,3919],[-5,-18],[8,-26],[-32,-42],[-9,-27],[-17,-8],[4,-7],[44,-10],[37,4],[15,-3],[28,-35],[9,-23],[17,-18],[34,-18],[17,-16],[23,-15],[21,-22],[9,-23],[3,-33],[9,-36],[-11,-5],[-30,12],[-39,2],[-59,-12],[-22,-13],[-39,-3],[-25,-5],[-27,-10],[-11,-12],[-24,-46],[25,-16],[0,-15],[25,-19],[3,-21],[54,-24],[17,-11],[-1,-13],[-27,0],[-12,-18],[-11,-6],[-67,-19],[-20,-14],[-39,-47],[-29,9],[-39,3],[-56,14],[-18,-8],[2,-16],[-11,-12],[-1,-33],[-18,-33],[-18,-12],[-15,-17],[18,-14],[53,-10],[-6,-8],[-27,-4],[-4,-8],[46,-20],[28,-19],[1,-11],[-27,-11],[-8,-13],[-30,-5],[-16,-8],[-8,-13],[-3,-24],[-6,-10],[10,-5],[22,-3],[8,-11],[-24,-27],[-15,-10],[0,-10],[28,-15],[25,-1],[23,-11],[14,-16],[27,-16],[38,-14],[14,4],[52,1],[18,-5],[15,-13],[0,-14],[16,-18],[-34,3],[-47,-1],[-18,-4],[-49,-1],[-54,-11],[-15,-14],[14,-10],[5,-29],[-10,-16],[3,-9],[22,-15],[8,-16],[0,-21],[-6,-13],[-12,-7],[-40,-3],[-16,-12],[30,-37],[26,-17],[23,-30],[15,-8],[-33,-24],[-19,-19],[-15,-6],[-21,-26],[6,-14],[-6,-19],[25,-22],[-14,-14],[17,-11],[66,-16],[3,-12],[18,-19],[-4,-11],[-38,-27],[2,-12],[19,-13],[12,-17],[4,-17],[16,-4],[26,5],[36,-3],[16,-7],[2,-7],[-30,-16],[-22,-24],[-39,-14],[-10,-45],[-2,-29],[7,-7],[46,-12],[21,-39],[0,-15],[-17,-14],[-20,-8],[-13,-14],[-21,-8],[-5,-8],[9,-23],[27,-34],[11,-17],[-11,-24],[-9,-5],[-34,2],[-22,-3],[-12,-7],[-2,-10],[12,-26],[4,-26],[6,-16],[-26,10],[-30,2],[-21,-3],[-17,-30],[-25,-15],[-24,-31],[-12,-6],[-39,-6],[-13,-21],[9,-17],[-4,-8],[-42,-6],[-101,-32],[-14,2],[7,-9],[25,-9],[30,-2],[2,-13],[-9,-11],[-54,-32],[-14,-33],[-14,-16],[-29,-21],[-32,-48],[-14,-6],[-49,-12],[-27,-17],[-9,-36],[-7,-14],[-28,-5],[-15,-8],[-6,-22],[-37,-12],[-16,-17],[-7,-61],[-19,-14],[-39,2],[-40,-19],[-4,-21],[4,-21],[-31,-1],[-18,3],[-14,24],[-56,27],[-26,-8],[-32,-4],[-18,-11],[-8,-17],[6,-15],[-15,-18],[-20,-16],[-43,-14],[-21,-1],[-40,21],[-6,-7],[6,-16],[-7,-16],[6,-30],[-13,-9],[-17,19],[-17,6],[-48,-14],[-26,8],[-16,-9],[-25,-22],[-16,-8],[-29,-21],[-32,-13],[-15,2],[-70,-4],[-35,-6],[-21,5],[-25,21],[-18,9],[-24,3],[-14,7],[-34,5]],[[6478,6760],[-71,20],[-46,-27],[-15,-21],[-14,-4],[-61,4],[-39,6],[-8,-13],[3,-10],[-18,-11],[-7,-12],[-9,-1],[-7,-13],[-11,0],[-12,-13],[-18,-7],[4,-8],[-12,-4],[3,-9],[-9,-15],[-20,-9],[-21,-2],[-12,7],[-15,-15],[-16,-4],[-15,6],[3,31],[-8,11],[-40,19],[1,11],[-26,20],[-20,-8],[-19,-2],[-26,-23],[-25,1],[-3,-13],[-16,-11],[-2,-10],[-19,-7],[-19,0],[-3,-9],[-17,-1],[-15,-10],[4,-12],[-14,-3],[-3,-8],[-13,1],[-13,-14],[-1,-13],[11,-10],[-12,-20],[-18,-2],[-12,-9],[-15,6],[-19,-2],[-28,-23],[-8,2],[-19,-14],[-9,4],[-24,-17],[-22,-3],[2,-10],[-13,3],[-23,-12],[-1,-9],[-19,4],[-24,-12],[-25,-7],[3,-6],[-26,0],[-4,-4]],[[5433,6414],[-8,14],[-50,40],[-44,11],[-27,5],[-35,1],[-40,-4],[-31,7],[-13,-6],[-6,-12],[-11,-3],[-4,12],[12,30],[8,11],[16,11],[22,7],[11,52],[-3,18],[-12,9],[-39,52],[-16,24],[-12,4],[-18,-6],[-36,44],[-29,21],[-8,-2],[-8,-18],[-15,-12],[-25,-8],[-19,-22],[-21,6],[-24,25],[-38,26],[-20,10],[-36,28],[-29,7],[-37,20],[3,11],[16,12],[-2,11],[-22,1],[-21,-14],[-48,17],[-43,1],[-7,-15],[3,-13],[25,-2],[8,-24],[31,-19],[1,-7],[-42,0],[-62,10],[-22,-6],[-9,8],[0,18],[28,7],[7,18],[-2,9],[-18,12],[-54,58],[-44,13],[0,-10],[20,-13],[18,-20],[-3,-4],[-50,-11],[-24,-7],[3,-34],[-3,-20],[31,-13],[6,-22]],[[4512,6768],[-8,-1],[-18,14],[-49,6],[-6,4],[19,24],[6,33],[-5,4],[-51,17],[-34,0],[4,-16],[-26,-10],[-29,15],[0,13],[-24,8],[-15,27],[-31,13],[-26,15],[-23,9],[2,40],[14,8],[-17,17],[-6,19],[-21,16],[-41,-19],[-29,-3],[-11,14],[22,7],[-7,24],[-25,5]],[[4077,7071],[-9,5],[-2,13],[16,-8],[6,7],[-13,13],[31,29],[-10,5],[12,19],[-4,6],[38,10],[-19,10],[-19,15],[-24,2],[-2,19],[-22,-9],[-3,7],[24,22],[42,11],[-9,3],[7,10],[14,2],[7,19],[10,9],[30,7],[10,15],[13,-4],[17,19],[27,8],[-3,13],[10,2],[13,-12],[21,11],[6,11],[19,3],[8,7],[47,-6],[23,19],[-2,14],[-20,6],[-1,16],[13,6],[-2,13],[-13,6],[18,12],[36,6],[6,16],[-14,2],[-21,20],[19,17],[13,3],[-11,33],[27,7],[0,16],[-16,4],[-1,7],[-18,13],[-22,-8],[-49,11],[-74,12],[-75,22],[-46,8],[-4,13],[8,25],[-4,15],[3,32],[-7,9],[-4,31],[4,24],[-11,1],[-15,38],[2,7],[24,24],[19,23],[12,28],[-7,22],[18,30],[15,18],[20,13],[14,22],[3,77],[-9,7],[-3,17],[-16,19],[9,8],[-4,18],[13,26],[18,24]],[[4234,8216],[38,-4],[26,-13],[63,25],[16,0],[32,-7],[14,-13],[-2,-8],[16,3],[46,-11],[37,-29],[3,-12],[63,-6],[17,13],[16,0],[-3,-15],[23,-17],[19,5],[17,-5],[5,-9],[-6,-12],[-12,-3],[12,-10],[-10,-11],[59,-13],[56,-14],[76,-15],[29,-1],[15,4],[43,24],[67,26],[13,7],[44,44],[17,38],[58,25],[35,8],[61,-4],[42,-14],[2,-16],[-6,-20],[-20,-18],[4,-9],[-13,-8],[5,-29],[18,-25],[17,-11],[11,11],[-5,18],[18,23],[16,-2],[19,8],[14,10],[-1,15],[17,9],[5,9],[33,3],[11,9],[24,9],[28,-10],[12,-9],[16,1],[17,8],[30,7],[6,7],[12,-3],[50,9],[5,9],[22,8],[-1,10],[23,7],[11,-2],[-2,-13],[16,-7],[30,6],[14,-1],[6,7],[19,-7],[26,3],[10,-14],[-2,-29],[-5,-9],[21,-11],[36,33],[8,5],[122,50],[20,14],[27,7],[19,-6],[30,-19],[21,-9],[31,-5],[38,15],[61,31],[47,21]],[[6272,8282],[18,-8],[15,-1],[29,10],[45,33],[15,2],[1,-43],[13,-5],[45,9],[23,1],[18,-7],[13,-28],[12,-18],[3,-30],[-4,-17],[5,-9],[13,-4],[39,9],[31,0],[31,-12],[17,-12],[-1,-7],[-19,-22],[-15,-5],[17,-16],[45,-13],[39,-7],[23,4],[-1,-29],[30,-10],[8,-6],[14,-22],[11,-9],[38,-17],[14,-10],[14,-3],[40,3],[30,-10],[9,-11]],[[6249,8426],[35,-50],[3,-10],[-4,-45],[-11,-20],[0,-19]],[[4234,8216],[85,35],[32,5],[93,28],[43,15],[121,49],[29,15],[12,15],[11,29],[20,36],[11,13],[10,23],[1,41],[-9,4],[-10,22],[8,0],[-3,16],[-10,9],[14,17],[-7,12],[7,6],[-9,17],[-4,32],[0,44],[-2,44],[8,12],[51,46],[24,17],[8,11],[6,21],[18,20],[-1,9],[12,17],[1,16],[21,28],[3,16],[56,52],[48,38],[36,44],[14,28],[14,16],[3,13]],[[1537,7131],[55,34],[25,12],[37,-2],[34,6],[9,20],[-4,17],[-1,52],[-14,37],[-27,15],[-11,10],[-8,16],[5,28],[9,12],[20,9],[59,12],[34,15],[43,0],[31,4],[10,9],[13,0],[26,10],[34,24],[2,9],[17,13],[-4,15],[-11,12],[-10,-4],[-20,4],[10,7],[-1,15],[17,12],[0,14],[21,14],[35,8],[11,-7],[13,4],[14,15],[14,2],[8,-7],[28,-1],[16,10],[25,4],[-33,52],[-33,32],[-40,9],[-53,-10],[-39,2],[-39,13],[-27,16],[-14,15],[4,13],[36,34],[33,17],[56,14],[21,12],[32,6],[28,-9],[20,8],[27,-12],[0,10],[39,-18],[13,10],[3,-6],[19,-8],[14,-32],[14,-6],[5,8],[56,-19],[14,15],[5,-11],[20,-11],[17,3],[13,-7],[9,11],[57,1],[6,-6],[16,-1],[15,-10],[58,-11],[9,-11],[18,-10],[38,-26],[5,-13],[31,-8],[13,7],[12,-8],[34,3],[7,7],[39,-3],[11,11],[19,0],[24,-13],[26,-5],[16,-19],[-6,-12],[47,1],[-5,-15],[11,-5],[11,9],[26,2],[17,13],[-19,17],[29,1],[26,7],[-1,8],[19,-3],[-13,-9],[1,-20],[20,0],[3,-14],[17,-21],[-6,-15],[8,-9],[30,8],[-1,-8],[28,-2],[30,-23],[-4,-9],[21,-2],[10,-9],[2,17],[23,1],[16,-4],[4,-12],[16,2],[7,-18],[23,0],[33,-5],[10,-5],[4,-22],[11,-4],[-7,-8],[19,-7],[-4,-10],[28,7],[14,-2],[-11,11],[13,4],[15,-8],[-4,-29],[-18,-18],[13,-5],[-3,-8],[23,-7],[-18,-11],[-3,-8],[31,-10],[-11,-9],[10,-3],[13,9],[14,-4],[-8,-12],[20,-8],[-2,-11],[17,-7],[43,-3],[9,10],[-23,10],[25,3],[-8,15],[23,-1],[8,14],[19,3],[14,12],[12,-11],[-14,-13],[14,-7],[20,-3],[-2,-8],[11,-4],[-8,-10],[-10,9],[-10,-5],[20,-14],[9,1],[19,-19],[19,-5],[13,-20],[37,0],[21,-8],[14,2],[-6,11],[-13,4],[0,16],[7,6],[38,-4],[2,7],[21,-6],[-2,-36],[-17,-11],[14,-6],[49,18],[11,-14],[-11,-20],[16,-9],[11,-13],[7,1],[5,18],[-4,10],[11,2],[10,-8],[34,2],[34,-3],[13,14],[4,-11],[42,-25],[6,-17],[-7,-13],[16,0],[48,-14],[12,-18],[-16,2],[-27,-9],[-45,7],[4,-19],[-18,-9],[20,-6],[-12,-19],[8,-18],[26,10],[14,-3],[27,-18],[0,-4],[-28,-16],[-8,-12],[2,-12]],[[3937,7035],[-17,-4],[-63,-6],[-64,-3],[-9,-4],[-19,1],[-31,-20],[-22,-26],[9,-25],[-3,-13],[9,-4],[-8,-20],[18,-19],[-6,-11],[15,-9],[-4,-8],[21,-4],[6,-6],[-11,-5],[19,-24],[16,-35],[12,-1],[6,-15],[3,-57],[-29,-22],[-45,-21],[-44,-30],[-13,-24],[-11,-56],[7,-32],[11,-30],[26,-36],[48,-39],[-2,-49],[2,-14],[-5,-29],[5,-40],[-5,-17],[15,-16],[-5,-13],[6,-3],[10,-19]],[[4501,5422],[3,-14],[20,-43],[33,-10],[23,-34],[6,-13],[12,-4],[10,-32],[25,4],[33,12],[19,0],[21,-11],[5,-8],[20,-11],[12,2],[26,-8],[9,-9],[17,-30],[64,-32],[34,-30],[2,-8],[-16,-3],[2,-13],[-8,-6],[-1,-17],[23,-7],[-1,-12],[9,-9]],[[4903,5076],[-10,-2],[-1,-14],[24,-23],[16,-5],[-11,-8],[20,-12],[1,-11],[12,3],[9,-29],[9,-2],[-17,-9],[5,-7],[-10,-3],[-26,-19],[15,-8],[-9,-4],[-16,-33],[24,-7],[-4,-14],[-27,-18],[31,-12],[-9,-19],[29,-11],[-6,-12],[21,-11],[-10,-3],[21,-11],[11,-1],[-12,-23],[18,-3],[-10,-4],[16,-6],[-25,-7],[23,-1],[-17,-16],[14,-12],[-12,0],[4,-9],[-26,-1],[-8,-19],[14,-2],[-4,-10],[-15,-3],[-22,6],[-12,-2],[-7,-13],[-13,-1],[-23,-24],[-22,-7],[-17,0],[0,-14],[9,1],[-9,-19],[11,-7],[-6,-11],[-17,7],[3,-12],[-26,-4],[-12,-29],[-13,-13],[-7,2],[-18,-16],[-7,-16],[-8,0],[-4,-19],[18,-2],[-6,-6],[17,-2],[7,-14],[-13,-5],[6,-16],[-13,-9],[5,-6],[-8,-9]],[[4212,3880],[-31,0],[-1,11],[-13,13],[0,13],[-53,55],[-20,16],[-40,24],[-26,12],[-43,15],[0,7],[-38,17],[-10,-1],[-30,12],[-30,7],[-19,9],[1,15],[-13,9],[18,26],[9,21],[25,17],[12,12],[9,21],[-22,12],[3,17],[12,30],[23,7],[13,8],[30,4],[18,29],[15,6],[32,51],[15,36],[19,21],[-19,8],[-62,3],[-23,-10],[-33,1],[-17,12],[-3,19],[-14,11],[-22,9],[-11,-7],[-20,6],[-19,-3],[-18,10],[-24,-5],[-9,-12],[-25,2],[0,4],[-29,3],[-13,-9],[-19,-5],[-15,8],[-6,-5],[-29,7],[-7,20],[-29,6],[-4,8],[-39,-2],[-16,2],[-48,-3],[-39,11],[-19,19],[1,14],[-16,13],[-52,2],[16,18],[-1,28],[-52,-6],[-32,1],[-31,-14],[-23,3],[-11,11],[-26,11],[-8,8],[-24,3],[-19,-1],[-29,-9],[-26,0],[-52,-18],[-13,-7],[-12,-15],[-27,-16],[-17,-4],[-54,-3],[-24,-10],[-22,-19],[-12,-31],[-27,-27],[-29,-3],[-25,-12],[-25,4],[-33,19],[-34,7],[-18,11],[-4,11],[11,5],[-30,18],[-25,2],[-5,-5],[-25,5],[-9,-4],[-26,16],[-58,14],[-15,11],[-17,-11]],[[2486,4560],[2,18],[52,43],[-10,9],[-39,5],[-23,5],[-39,-11],[-14,1],[-8,9],[21,19],[21,8],[27,19],[31,7],[10,5],[-10,17],[-42,6],[-26,-2],[-8,-6],[-2,-24],[-11,-9],[-14,-1],[-32,9],[-13,18],[9,19],[13,13],[17,8],[41,10],[5,10],[-33,17],[-4,7],[39,26],[-15,21],[11,5],[39,0],[8,2],[23,21],[31,1],[67,7],[33,15],[33,32],[21,11],[53,37],[43,23],[75,33],[15,20],[1,12],[-13,14],[-21,11],[-46,11],[-39,-7],[-106,-55],[-33,-10],[-35,-1],[-12,6],[-4,25],[2,18],[8,25],[10,17],[25,20],[33,18],[31,8],[23,-3]],[[7895,5755],[-58,-25],[-24,-7],[-67,-7],[-70,-3],[-56,-8],[-26,-6],[-12,-8],[-4,-38],[-13,-11],[-62,-14],[-67,-6],[-45,-12],[-9,-27],[-12,-15],[-30,-15],[-43,-14],[-42,-22],[-11,-8],[-30,-48],[20,-12],[8,1],[6,-19],[20,8],[26,3],[8,-5],[20,-39],[18,-10],[16,-1],[6,-8],[-27,-30],[-38,-13],[0,-7],[17,-24],[2,-13],[-11,-8],[-24,-2],[-25,-10],[10,-17],[26,-16],[-4,-10],[-19,-4],[-21,6],[-7,-11],[-15,-8],[-7,-16],[-23,-19],[0,-10],[-14,1],[-13,7],[-18,-12],[13,-12],[26,-13],[6,-11],[22,10],[13,10],[14,-2],[37,5],[90,-33],[45,3],[42,-10],[23,2],[9,-15],[22,-15],[17,-4],[15,-11],[27,10],[68,3],[37,-4],[22,3],[0,-8],[-16,-2],[-10,-13],[12,-40],[49,-17],[9,-8],[-12,-11],[-2,-20],[-17,-16],[2,-11],[20,-16],[6,-16],[-4,-16],[-34,-13],[-10,-13],[4,-20],[-13,-15],[-8,-25],[11,-21],[-23,-4],[1,-6],[23,-17],[33,-7],[38,4],[44,-14],[206,-22],[8,-76],[12,-65],[-21,-67],[-18,-40],[-25,-40],[-54,-75],[-26,-24],[-17,-38],[-21,-70],[-3,-28],[1,-25],[7,-14],[38,-45],[16,-12],[40,-17],[7,-6],[7,-23],[7,-42],[8,-26],[15,-18],[14,0],[14,14],[20,3],[25,-18],[-1,-11],[-45,-24],[-35,-9],[-39,1],[-21,-12],[-5,-33]],[[6469,4333],[-17,8],[-31,8],[-40,-15],[-24,2],[-31,-10],[-74,3],[-14,-4],[-18,7],[-34,7],[-20,-5],[-45,6],[-10,-9],[-9,6],[-22,3],[-25,-3],[-10,14],[-18,3],[-51,23],[-29,3],[-5,12],[-14,-1],[-17,12],[-30,-6],[-19,9],[-36,-9],[-34,5],[-28,6],[-11,10],[-17,-3],[-9,5],[-29,-5],[-1,24],[-16,9],[-30,-2],[-12,12],[-19,-16],[-11,5],[-11,-5],[-25,13],[6,5],[-10,8],[-2,11],[-14,12],[-28,0],[-34,-8],[-3,-10],[-22,3],[-8,11],[24,22],[8,12],[9,40],[9,18],[24,6],[-10,15],[-30,13],[-42,0],[-13,2],[1,12],[21,11],[28,-6],[38,0],[15,-8],[4,11],[-9,13],[12,36],[-1,18],[-27,15],[-18,-1],[-23,-17],[-42,-13],[-13,-36],[-27,-3],[-8,9],[-5,26],[-6,6],[-34,-1],[-19,-15],[-7,-15],[-5,-30],[-18,-1],[-6,8],[12,17],[2,14],[-4,22],[7,17],[22,21],[12,16],[14,10],[46,-2],[8,6],[-38,22],[3,9],[24,17],[5,14],[9,4],[19,-5],[52,30],[-3,9],[-29,11],[-14,-3],[-26,-13],[-27,-1],[-18,25],[-38,6],[-36,-7],[-10,4],[-16,24],[8,12],[27,10],[22,42],[12,4],[12,-5],[37,-24],[25,-4],[31,1],[22,8],[21,14],[25,10],[8,12],[-25,17],[-19,6],[-43,6],[-41,7],[-25,-1],[-15,10],[15,37],[24,27],[33,26],[25,37]],[[5443,5153],[48,24],[6,-2],[20,-29],[27,-18],[43,-19],[22,-18],[45,-16],[43,-4],[55,0],[44,5],[51,-2],[12,-16],[17,-3],[16,5],[23,19],[12,3],[34,-1],[28,9],[63,24],[34,8],[15,10],[6,31],[7,6],[31,-12],[20,3],[8,9],[-3,9],[-41,9],[-24,28],[-33,19],[-17,16],[-21,27],[1,16],[23,27],[9,23],[13,14],[14,4],[42,5],[35,8],[19,9],[7,23],[51,23],[42,24],[23,7],[8,9],[9,33],[18,37],[7,35],[13,32],[-1,6],[-27,35],[-7,37],[3,36],[-7,8],[-40,1],[-18,8],[-27,28],[-8,13],[4,18],[11,19]],[[6251,5815],[57,6],[62,19],[40,4],[44,-7],[69,-18],[52,-17],[20,17],[4,9],[0,25],[10,6],[-7,19],[-8,6],[13,12],[27,34],[12,8],[36,-9],[17,7],[23,-3],[22,-7],[22,-3],[12,-7],[13,14],[-17,11],[-12,20],[24,26],[1,14],[-15,7],[1,15],[-7,7],[9,32],[13,13],[54,17],[22,16],[31,10],[20,12],[35,-5],[65,16],[15,9]],[[6251,5815],[-80,0],[-41,-3],[-80,-16],[-44,-2],[-77,10],[-77,5]],[[5852,5809],[-26,24],[-15,20],[-29,15],[-15,21],[-10,5],[-17,-1],[-27,-21],[-21,1],[7,21],[-5,6],[-23,8],[-14,12],[-44,16],[-11,15],[-23,21],[-25,7],[-48,29],[-12,14],[-28,46],[17,13],[2,29],[9,6],[28,-3],[16,10],[1,16],[-14,8],[-39,12],[-8,10],[-5,22],[-24,46],[-21,10],[-51,3],[-54,-9],[-15,4],[1,10],[30,42],[-3,28],[22,21],[28,14],[30,0],[15,10],[5,17],[-3,27]],[[6969,8916],[32,22],[17,17],[33,10],[60,-12],[12,-11],[27,-35],[36,-10],[8,-11],[-1,-13],[23,-3],[6,-11],[11,-4],[1,-10],[43,11],[23,-12],[1,-13],[15,-8],[21,2],[-3,-17],[18,9],[15,-11],[-18,-2],[18,-17],[24,0],[3,-14],[40,-13],[15,5],[13,-8],[-3,11],[14,13],[4,-10],[10,1],[1,16],[37,-8],[7,-12],[39,4],[36,12],[15,-5],[112,20],[46,0],[23,-20],[15,-18],[1,-21],[14,-1],[15,-14],[36,-9],[47,-3]],[[7931,8713],[15,-24],[67,-72],[32,-46],[3,-18],[1,-53],[11,-36],[9,-15],[19,-18],[26,-17],[17,-16],[23,-6],[20,3],[39,-3],[38,-11],[26,-12],[14,-19],[-14,-37],[13,-35],[11,-11],[36,-26],[38,-42],[33,-17],[31,-3],[36,-8],[59,-16],[63,-14],[46,-7],[18,0],[17,8],[22,20],[72,28],[53,23],[49,26],[42,9],[38,-1],[26,-3],[19,-6],[19,-17],[13,-19],[18,-10],[40,-1],[24,-7],[52,-31],[28,-6],[25,1],[61,10]],[[3500,3310],[-11,33],[-23,21],[6,39],[15,8],[26,5],[3,5],[-18,12],[-7,13],[1,14],[-7,16],[-16,14],[-4,25],[12,7],[-2,15],[-9,4],[4,27],[-30,19],[-8,24],[-9,3],[5,30],[-19,7],[-22,-7],[-18,1],[-103,-4],[-55,9],[-2,14],[-21,14],[-14,14],[-13,24],[-25,11],[-53,3],[-2,11],[9,25],[-7,3],[-44,2],[-14,-7],[-12,10],[-22,10],[-21,5],[-7,10],[-20,3],[-14,18],[-15,13],[-42,15],[-1,10],[-60,-21],[2,-13],[-31,-17],[-11,-13],[-14,-2],[-6,31],[-119,25],[-39,-1],[-6,13],[-23,16],[-31,9],[-34,14],[-13,22],[-18,13],[0,14],[8,25],[6,2],[15,37],[7,-1],[-17,31],[-9,-2],[-7,14],[-17,11],[5,10],[12,2],[-3,24],[5,10],[-20,8],[6,22],[19,17],[-4,18],[-12,20],[9,15],[-18,7],[0,24],[-33,8],[-9,18],[7,12],[-9,5],[-18,-7],[-2,10],[-16,5],[8,12],[2,25],[6,12],[-24,6],[-11,8],[14,8],[28,-1],[5,7],[-19,17],[8,13],[15,1],[11,-6],[19,-21],[19,1],[6,9],[-7,7],[7,11],[25,9],[2,7],[-14,8],[-26,4],[-8,12],[8,9],[21,5],[12,11],[8,18],[21,10],[2,15],[-24,15],[-1,35]],[[4497,5998],[-7,0],[-3,20],[-28,29],[-10,22],[8,6],[3,15],[41,19],[7,-2],[31,10],[5,8],[-20,7],[-9,23],[16,25],[-1,11],[10,9],[29,10],[42,29],[17,0],[32,10],[22,11],[18,13],[17,22],[18,12],[39,17],[56,17],[26,-16],[21,-18],[21,-10],[27,-8],[34,1],[28,9],[23,20],[13,21],[2,13],[-2,40],[-17,1],[-22,11],[3,17],[-12,21],[-66,27],[-62,47],[-59,35],[-73,60],[-51,36],[-85,67],[-14,8],[-19,21],[-34,24]],[[5852,5809],[-34,-1],[-54,-9],[-62,-17],[-61,-19],[-110,-43],[-80,-23],[-47,-9],[-64,-1],[-36,-4],[-53,-12],[-20,-6]],[[9358,5552],[-6,-7],[3,-14],[24,-27],[-12,-13],[-3,11],[-21,14],[-23,9],[-48,3],[-38,-10],[-6,-12],[-21,-19],[-26,-10],[-14,0],[-1,-17],[-21,-7],[-33,-23],[-13,-21],[-33,-27],[-20,-24],[-2,-14],[-35,-11],[-14,-21],[-11,-7],[-26,-4],[-10,-6],[-25,-6],[-28,-11],[-28,-15],[-4,-17],[-16,-18],[30,-14],[-9,-18],[-15,1],[-11,10],[-10,0],[-19,-22],[-36,-12],[-21,-13],[-17,-16],[-26,-16],[0,-9],[11,-5],[21,-29],[-3,-15],[-33,-2],[-19,-7],[-16,-33],[-1,-8],[14,-7],[30,-5],[61,-20],[26,-4],[1,-5],[-31,-22],[-13,-6],[-9,-18],[-33,-25],[-13,-6],[-31,-3],[-14,-12],[9,-11],[12,-32],[42,-11],[34,-16],[42,-27],[4,-9],[-4,-19],[-21,-32],[-6,-14],[24,-21],[32,-10],[30,3],[36,-8],[58,-23],[34,-2],[37,-11],[17,-8],[1,-14],[-15,-22],[-1,-31],[6,-15],[-8,-28],[7,-5],[31,12],[31,-8],[18,-1],[25,-8],[41,19],[24,-11],[10,1],[12,21],[16,8],[20,1],[33,-15],[19,-14],[27,5],[18,-14],[4,-26],[-12,-29],[-30,-30],[-32,-11],[6,-11],[-5,-20],[19,-22],[22,-20],[20,-8],[58,4],[24,-9],[1,-21],[14,-8],[39,-8],[11,-12],[7,-19],[-10,-14],[1,-31],[8,-16],[-4,-12],[8,-13],[22,-8],[48,5],[32,-11],[59,-4],[74,-9],[31,-13],[23,-24],[21,-18],[41,-19],[10,-9],[25,-11],[8,-8],[-21,-9],[-29,-7],[-79,-8],[-10,-4],[-1,-22],[-64,-11],[-14,-4],[-21,-18],[-12,-21],[-19,-21],[-15,-10],[-6,-13],[-21,-25],[-11,-7],[-13,4],[-26,15],[-47,17],[-23,14],[-4,19],[-13,7],[-25,-6],[-20,-1],[-41,8],[-14,-7],[-16,-23]],[[4848,2466],[2,-13],[-22,3],[-29,-18],[-15,9],[0,-6],[-22,-21],[-37,-15],[-12,4],[-22,-6],[-17,10],[-14,-2],[-6,-7],[-12,7],[-20,-5],[-7,-13],[-13,0],[6,-40],[-17,-4],[-17,-14],[-22,-1],[-22,-6],[-8,6],[-34,0],[-33,14],[-58,-3],[-8,-5],[-12,5],[-56,8],[-5,-9],[-19,-3],[-6,-11],[-30,-1],[3,8],[-20,-1],[-5,-8],[-46,-9],[-11,-7],[-29,10],[-28,-3],[-17,3],[-12,10],[4,8]],[[4100,2340],[5,3],[-13,18],[-24,24],[-6,15],[-34,13],[-17,15],[-17,21],[-2,41],[-4,11],[13,26],[-9,31],[4,19],[-4,19],[-18,10],[-29,3],[-23,8],[-55,29],[-43,28],[-43,22],[-35,30],[-13,20],[-2,34],[-10,14],[-15,8],[-54,17],[-92,47],[-14,12],[-15,20],[-10,26],[6,81]],[[4903,5076],[21,-2],[31,3],[17,8],[7,-3],[14,10],[8,-7],[12,3],[5,10],[22,3],[15,9],[9,-8],[20,7],[45,7],[1,6],[23,-10],[28,1],[6,8],[23,3],[39,28],[-5,12],[7,3],[43,0],[37,-15],[25,12],[26,-1],[17,-14],[8,-1],[17,11],[19,-6]],[[8074,9435],[-19,-5],[-34,-18],[-43,-10],[-41,-15],[-10,-11],[1,-25],[-19,-21],[-45,-24],[-18,-40],[-19,-30],[-21,-18],[-54,-24],[-25,-24],[-17,-59],[-28,-25],[-9,-30],[7,-37],[24,-18],[44,-13],[21,-29],[22,-42],[22,-31],[43,-54],[21,-35],[17,-20],[26,-47],[11,-17]],[[3937,7035],[20,1],[19,8],[31,-15],[22,12],[-5,17],[6,17],[11,8],[17,-10],[19,-2]],[[4063,1153],[-23,11],[-7,13],[-23,9],[-5,10],[-16,9],[-40,-9],[-33,-16],[-3,-11],[-21,3],[-10,-5],[-23,1],[-47,-17],[-4,-9],[-18,-6],[-6,6],[-41,2],[-10,4],[-22,-3],[-22,6],[-19,20],[-5,14],[-34,25],[-20,25],[7,14],[21,12],[5,9],[32,1],[26,13],[-2,6],[30,4],[12,-1],[5,19],[11,11],[19,5],[10,13],[2,20],[30,16],[25,3],[14,10],[3,12],[-9,9],[8,5],[-12,25],[14,10],[-12,19],[4,18],[10,1],[2,30],[9,15],[-27,18],[-15,2],[3,15],[-28,0],[2,9],[-37,9],[3,12],[-24,12],[1,7],[-35,18],[-21,5],[3,5],[-20,8],[-2,12],[-32,15],[6,6],[-10,9],[-13,-3],[-6,10],[-19,-2],[7,8],[-10,9],[-6,15],[-16,1],[-20,11],[-9,12],[3,20],[-6,21],[-32,13],[8,24],[9,-2],[2,19],[9,-1],[8,12],[-9,8],[-1,14],[28,11],[-4,12],[19,2],[-1,11],[-13,6],[8,14],[26,4],[2,22],[9,6],[-22,21],[15,15],[-17,17],[11,11],[13,-6],[-2,12],[-24,22],[1,16],[7,11],[3,18],[9,13],[19,5],[26,24],[30,6],[-3,16],[-11,5],[7,32],[-5,11],[7,12],[14,5],[-9,17],[-10,8],[24,4],[0,13],[19,-1],[-8,12],[13,-1],[2,8],[17,13],[14,2],[11,16],[-5,14],[21,14],[0,9],[-19,6],[5,8],[30,8],[37,-13],[34,19],[44,9],[6,-9],[20,2],[6,-7],[26,-3],[21,4],[12,-21],[30,-10],[39,-3],[7,-14],[20,-3]]],"transform":{"scale":[0.0001265506824682463,0.00018889650965096463],"translate":[104.37158424400008,14.209372880000045]},"objects":{"Ubon Ratchathani":{"type":"GeometryCollection","geometries":[{"arcs":[[0,1,2,3,4,5,6]],"type":"Polygon","properties":{"Shape_Leng":1.43433898611,"Shape_Area":0.048064751629,"ADM2_EN":"Mueang Ubon Ratchathani","ADM2_TH":"เมืองอุบลราชธานี","ADM2_PCODE":"TH3401","ADM1_EN":"Ubon Ratchathani","ADM1_TH":"อุบลราชธานี","ADM1_PCODE":"TH34","ADM0_EN":"Thailand","ADM0_TH":"ประเทศไทย","ADM0_PCODE":"TH"}},{"arcs":[[7,8,9,10,11,12]],"type":"Polygon","properties":{"Shape_Leng":1.70917287952,"Shape_Area":0.0849625888794,"ADM2_EN":"Si Mueang Mai","ADM2_TH":"ศรีเมืองใหม่","ADM2_PCODE":"TH3402","ADM1_EN":"Ubon Ratchathani","ADM1_TH":"อุบลราชธานี","ADM1_PCODE":"TH34","ADM0_EN":"Thailand","ADM0_TH":"ประเทศไทย","ADM0_PCODE":"TH"}},{"arcs":[[-8,13,14,15]],"type":"Polygon","properties":{"Shape_Leng":1.64318684441,"Shape_Area":0.0539403764172,"ADM2_EN":"Khong Chiam","ADM2_TH":"โขงเจียม","ADM2_PCODE":"TH3403","ADM1_EN":"Ubon Ratchathani","ADM1_TH":"อุบลราชธานี","ADM1_PCODE":"TH34","ADM0_EN":"Thailand","ADM0_TH":"ประเทศไทย","ADM0_PCODE":"TH"}},{"arcs":[[-6,16,17]],"type":"Polygon","properties":{"Shape_Leng":1.6990070519,"Shape_Area":0.0719531914993,"ADM2_EN":"Khueang Nai","ADM2_TH":"เขื่องใน","ADM2_PCODE":"TH3404","ADM1_EN":"Ubon Ratchathani","ADM1_TH":"อุบลราชธานี","ADM1_PCODE":"TH34","ADM0_EN":"Thailand","ADM0_TH":"ประเทศไทย","ADM0_PCODE":"TH"}},{"arcs":[[18,19,20,21]],"type":"Polygon","properties":{"Shape_Leng":1.57686735263,"Shape_Area":0.0506600187111,"ADM2_EN":"Khemarat","ADM2_TH":"เขมราฐ","ADM2_PCODE":"TH3405","ADM1_EN":"Ubon Ratchathani","ADM1_TH":"อุบลราชธานี","ADM1_PCODE":"TH34","ADM0_EN":"Thailand","ADM0_TH":"ประเทศไทย","ADM0_PCODE":"TH"}},{"arcs":[[22,23,24,25,26,27,28,29,30,31]],"type":"Polygon","properties":{"Shape_Leng":2.55836462,"Shape_Area":0.107171917784,"ADM2_EN":"Det Udom","ADM2_TH":"เดชอุดม","ADM2_PCODE":"TH3407","ADM1_EN":"Ubon Ratchathani","ADM1_TH":"อุบลราชธานี","ADM1_PCODE":"TH34","ADM0_EN":"Thailand","ADM0_TH":"ประเทศไทย","ADM0_PCODE":"TH"}},{"arcs":[[-26,32,33,34]],"type":"Polygon","properties":{"Shape_Leng":1.38796182749,"Shape_Area":0.0510614063227,"ADM2_EN":"Na Chaluai","ADM2_TH":"นาจะหลวย","ADM2_PCODE":"TH3408","ADM1_EN":"Ubon Ratchathani","ADM1_TH":"อุบลราชธานี","ADM1_PCODE":"TH34","ADM0_EN":"Thailand","ADM0_TH":"ประเทศไทย","ADM0_PCODE":"TH"}},{"arcs":[[-27,-35,35,36]],"type":"Polygon","properties":{"Shape_Leng":2.07556053489,"Shape_Area":0.0919097188621,"ADM2_EN":"Nam Yuen","ADM2_TH":"น้ำยืน","ADM2_PCODE":"TH3409","ADM1_EN":"Ubon Ratchathani","ADM1_TH":"อุบลราชธานี","ADM1_PCODE":"TH34","ADM0_EN":"Thailand","ADM0_TH":"ประเทศไทย","ADM0_PCODE":"TH"}},{"arcs":[[-25,37,38,39,-33]],"type":"Polygon","properties":{"Shape_Leng":2.03821727929,"Shape_Area":0.122930543783,"ADM2_EN":"Buntharik","ADM2_TH":"บุณฑริก","ADM2_PCODE":"TH3410","ADM1_EN":"Ubon Ratchathani","ADM1_TH":"อุบลราชธานี","ADM1_PCODE":"TH34","ADM0_EN":"Thailand","ADM0_TH":"ประเทศไทย","ADM0_PCODE":"TH"}},{"arcs":[[-11,40,41,42,43,44,45]],"type":"Polygon","properties":{"Shape_Leng":1.8354594648,"Shape_Area":0.0868744172525,"ADM2_EN":"Trakan Phuet Phon","ADM2_TH":"ตระการพืชผล","ADM2_PCODE":"TH3411","ADM1_EN":"Ubon Ratchathani","ADM1_TH":"อุบลราชธานี","ADM1_PCODE":"TH34","ADM0_EN":"Thailand","ADM0_TH":"ประเทศไทย","ADM0_PCODE":"TH"}},{"arcs":[[-21,46,-45,47]],"type":"Polygon","properties":{"Shape_Leng":0.930867790479,"Shape_Area":0.0271915912321,"ADM2_EN":"Kut Khaopun","ADM2_TH":"กุดข้าวปุ้น","ADM2_PCODE":"TH3412","ADM1_EN":"Ubon Ratchathani","ADM1_TH":"อุบลราชธานี","ADM1_PCODE":"TH34","ADM0_EN":"Thailand","ADM0_TH":"ประเทศไทย","ADM0_PCODE":"TH"}},{"arcs":[[-7,-18,48,49]],"type":"Polygon","properties":{"Shape_Leng":1.71417659903,"Shape_Area":0.0601402169074,"ADM2_EN":"Muang Sam Sip","ADM2_TH":"ม่วงสามสิบ","ADM2_PCODE":"TH3414","ADM1_EN":"Ubon Ratchathani","ADM1_TH":"อุบลราชธานี","ADM1_PCODE":"TH34","ADM0_EN":"Thailand","ADM0_TH":"ประเทศไทย","ADM0_PCODE":"TH"}},{"arcs":[[-4,50,51,-32,52,53]],"type":"Polygon","properties":{"Shape_Leng":1.6036650336,"Shape_Area":0.0520897996753,"ADM2_EN":"Warin Chamrap","ADM2_TH":"วารินชำราบ","ADM2_PCODE":"TH3415","ADM1_EN":"Ubon Ratchathani","ADM1_TH":"อุบลราชธานี","ADM1_PCODE":"TH34","ADM0_EN":"Thailand","ADM0_TH":"ประเทศไทย","ADM0_PCODE":"TH"}},{"arcs":[[-9,-16,54,-38,-24,55,56,57]],"type":"Polygon","properties":{"Shape_Leng":2.05670564187,"Shape_Area":0.0823616378554,"ADM2_EN":"Phibun Mangsahan","ADM2_TH":"พิบูลมังสาหาร","ADM2_PCODE":"TH3419","ADM1_EN":"Ubon Ratchathani","ADM1_TH":"อุบลราชธานี","ADM1_PCODE":"TH34","ADM0_EN":"Thailand","ADM0_TH":"ประเทศไทย","ADM0_PCODE":"TH"}},{"arcs":[[-10,-58,58,59,-41]],"type":"Polygon","properties":{"Shape_Leng":0.823149928592,"Shape_Area":0.0250659773268,"ADM2_EN":"Tan Sum","ADM2_TH":"ตาลสุม","ADM2_PCODE":"TH3420","ADM1_EN":"Ubon Ratchathani","ADM1_TH":"อุบลราชธานี","ADM1_PCODE":"TH34","ADM0_EN":"Thailand","ADM0_TH":"ประเทศไทย","ADM0_PCODE":"TH"}},{"arcs":[[-12,-46,-47,-20,60,61]],"type":"Polygon","properties":{"Shape_Leng":1.26851592675,"Shape_Area":0.047081693947,"ADM2_EN":"Pho Sai","ADM2_TH":"โพธิ์ไทร","ADM2_PCODE":"TH3421","ADM1_EN":"Ubon Ratchathani","ADM1_TH":"อุบลราชธานี","ADM1_PCODE":"TH34","ADM0_EN":"Thailand","ADM0_TH":"ประเทศไทย","ADM0_PCODE":"TH"}},{"arcs":[[-31,62,-53]],"type":"Polygon","properties":{"Shape_Leng":1.08625034528,"Shape_Area":0.032336370874,"ADM2_EN":"Samrong","ADM2_TH":"สำโรง","ADM2_PCODE":"TH3422","ADM1_EN":"Ubon Ratchathani","ADM1_TH":"อุบลราชธานี","ADM1_PCODE":"TH34","ADM0_EN":"Thailand","ADM0_TH":"ประเทศไทย","ADM0_PCODE":"TH"}},{"arcs":[[-2,63,-42,-60,64]],"type":"Polygon","properties":{"Shape_Leng":1.0280679234,"Shape_Area":0.0162146381046,"ADM2_EN":"Don Mot Daeng","ADM2_TH":"ดอนมดแดง","ADM2_PCODE":"TH3424","ADM1_EN":"Ubon Ratchathani","ADM1_TH":"อุบลราชธานี","ADM1_PCODE":"TH34","ADM0_EN":"Thailand","ADM0_TH":"ประเทศไทย","ADM0_PCODE":"TH"}},{"arcs":[[-15,65,-39,-55]],"type":"Polygon","properties":{"Shape_Leng":1.8194594911,"Shape_Area":0.0659397424487,"ADM2_EN":"Sirindhorn","ADM2_TH":"สิรินธร","ADM2_PCODE":"TH3425","ADM1_EN":"Ubon Ratchathani","ADM1_TH":"อุบลราชธานี","ADM1_PCODE":"TH34","ADM0_EN":"Thailand","ADM0_TH":"ประเทศไทย","ADM0_PCODE":"TH"}},{"arcs":[[-29,66,67]],"type":"Polygon","properties":{"Shape_Leng":0.879523371659,"Shape_Area":0.0206739988338,"ADM2_EN":"Thung Si Udom","ADM2_TH":"ทุ่งศรีอุดม","ADM2_PCODE":"TH3426","ADM1_EN":"Ubon Ratchathani","ADM1_TH":"อุบลราชธานี","ADM1_PCODE":"TH34","ADM0_EN":"Thailand","ADM0_TH":"ประเทศไทย","ADM0_PCODE":"TH"}},{"arcs":[[-23,-52,68,-56]],"type":"Polygon","properties":{"Shape_Leng":1.34569511903,"Shape_Area":0.0201366127925,"ADM2_EN":"Na Yia","ADM2_TH":"นาเยีย","ADM2_PCODE":"TH3429","ADM1_EN":"Ubon Ratchathani","ADM1_TH":"อุบลราชธานี","ADM1_PCODE":"TH34","ADM0_EN":"Thailand","ADM0_TH":"ประเทศไทย","ADM0_PCODE":"TH"}},{"arcs":[[-19,69,-61]],"type":"Polygon","properties":{"Shape_Leng":0.851155812672,"Shape_Area":0.0183682965969,"ADM2_EN":"Na Tan","ADM2_TH":"นาตาล","ADM2_PCODE":"TH3430","ADM1_EN":"Ubon Ratchathani","ADM1_TH":"อุบลราชธานี","ADM1_PCODE":"TH34","ADM0_EN":"Thailand","ADM0_TH":"ประเทศไทย","ADM0_PCODE":"TH"}},{"arcs":[[-1,-50,70,-43,-64]],"type":"Polygon","properties":{"Shape_Leng":0.782746289317,"Shape_Area":0.019291126877,"ADM2_EN":"Lao Suea Kok","ADM2_TH":"เหล่าเสือโก้ก","ADM2_PCODE":"TH3431","ADM1_EN":"Ubon Ratchathani","ADM1_TH":"อุบลราชธานี","ADM1_PCODE":"TH34","ADM0_EN":"Thailand","ADM0_TH":"ประเทศไทย","ADM0_PCODE":"TH"}},{"arcs":[[-3,-65,-59,-57,-69,-51]],"type":"Polygon","properties":{"Shape_Leng":0.727776077215,"Shape_Area":0.0220203730119,"ADM2_EN":"Sawang Wirawong","ADM2_TH":"สว่างวีระวงศ์","ADM2_PCODE":"TH3432","ADM1_EN":"Ubon Ratchathani","ADM1_TH":"อุบลราชธานี","ADM1_PCODE":"TH34","ADM0_EN":"Thailand","ADM0_TH":"ประเทศไทย","ADM0_PCODE":"TH"}},{"arcs":[[-28,-37,71,-67]],"type":"Polygon","properties":{"Shape_Leng":1.23215341919,"Shape_Area":0.0237344699902,"ADM2_EN":"Nam Khun","ADM2_TH":"น้ำขุ่น","ADM2_PCODE":"TH3433","ADM1_EN":"Ubon Ratchathani","ADM1_TH":"อุบลราชธานี","ADM1_PCODE":"TH34","ADM0_EN":"Thailand","ADM0_TH":"ประเทศไทย","ADM0_PCODE":"TH"}}]}}}