{"type":"Topology","arcs":[[[1163,6495],[17,-45],[33,-19],[19,-29],[-7,-56],[29,-12],[-1,-22],[102,-48],[130,-17],[75,-50],[135,-72],[43,-11],[105,3],[1,15],[173,1],[9,4],[1,138],[48,-25],[29,25],[30,-11],[78,-60],[78,-13],[15,-11],[-4,-42],[66,-72],[98,-62],[21,-38],[74,-16],[6,-93],[57,18],[15,21],[56,34],[22,29],[42,28],[65,18],[40,-2],[57,-18],[77,91],[59,-8],[71,-29],[37,-29],[105,-46],[0,-87],[27,-46],[192,-24],[96,-39],[65,-77],[44,-40],[60,-7],[54,8],[-20,49],[69,43],[86,34],[31,-8],[50,9]],[[4023,5779],[14,-32],[26,1],[8,27],[70,-1],[64,16],[14,19],[3,44],[79,44],[69,-46],[26,7],[81,-11],[41,-18],[-4,-11],[87,-23]],[[4601,5795],[-153,-114],[-73,-50],[-36,-11],[-20,-20],[15,-37],[78,-50],[-201,-229],[-42,-26],[-79,-20],[-179,-24],[-156,-12],[-60,-20],[-116,-73],[-133,-50],[6,-33],[-17,-56],[16,-140],[-18,-64],[-53,-105],[-31,-37],[-56,-116],[-3,-47]],[[3290,4461],[-48,27],[-68,4],[-30,14],[-56,-12],[57,-81],[-18,-14],[23,-40],[-19,-20],[-47,-17],[-59,-47],[-25,-54],[-50,-19],[-174,-122],[-51,-57],[-40,-11],[-42,-53],[-70,-65],[-95,-59],[-39,-17],[-158,-42],[-81,-41],[-72,-44],[-64,-50]],[[2064,3641],[-15,47],[-50,64],[-52,22],[-57,3],[-22,11],[-1,53],[-16,22],[-82,38],[-19,22],[1,30],[71,24],[-23,20],[-87,-15],[-18,-14],[-14,-41],[-78,-78],[-33,-13],[-41,4],[-70,56],[21,34],[97,-12],[33,15],[-32,44],[-5,87],[73,152],[-16,59],[23,36],[76,23],[15,42],[-17,11],[-87,-1],[-21,55],[-45,76],[1,17],[66,40],[13,52],[63,43],[-39,119],[-53,44],[-56,2],[-102,37],[-48,-2],[-46,16],[-54,69],[-42,41],[-76,60],[-67,31],[-171,98],[-33,7],[-50,-23],[-6,-70],[9,-29],[28,-17],[79,5],[6,-24],[-31,-33],[-140,-62],[-88,-15],[-62,-37],[-81,-28],[-108,-62],[-51,-14],[-54,22],[-71,4],[-127,-26],[-40,-16],[-92,6],[-17,27],[33,58],[-17,48],[-49,37],[37,13],[48,-26],[23,8],[-13,47],[100,-4],[1,17],[-55,28],[19,53],[-40,26],[34,18],[39,-18],[41,-1],[-10,37],[-46,26],[18,22],[-22,6],[13,51],[16,-3],[24,-63],[60,14],[-28,83],[97,23],[8,19],[-19,24],[38,37],[-21,17],[-27,-5],[-61,31],[-2,34],[61,-30],[55,21],[80,6],[4,20],[-31,13],[-40,-23],[-43,3],[-48,24],[25,20],[87,14],[-104,39],[-25,-9],[7,28],[-29,34],[-49,8],[-9,15],[39,30],[34,6],[-15,20],[-42,-15],[-17,12],[21,87],[33,41],[-66,44],[17,9],[84,-5],[11,26],[60,59],[-23,23],[38,20],[9,32],[22,4],[35,51],[-26,24],[37,25],[-5,23],[-22,-17],[3,47],[-13,33],[-41,6],[-16,54],[26,25],[-28,-5],[-17,42],[-37,-38],[-42,-16],[9,-38],[-19,18],[-30,-3],[-6,-36],[-48,38],[-12,46],[40,32],[19,43],[66,49],[6,22],[-20,31],[31,-13],[-2,23],[54,-5],[29,37],[81,28],[76,-8],[20,12],[47,0],[30,23],[11,-15],[39,4],[32,-13],[8,22],[34,-9],[1,21],[60,-35],[56,-20],[30,9],[40,-16],[32,19],[35,-30],[-3,-17],[34,8],[52,-3],[59,-15]],[[1163,6495],[3,17],[32,3],[85,55],[-7,16],[46,36],[-2,69],[-24,4],[-8,42],[-21,29],[40,44],[25,12],[14,37],[21,16],[-16,21],[28,13],[-7,41],[-19,27],[8,22],[43,12],[5,32],[-16,57],[-34,5],[-12,36],[-46,16],[-15,21],[-24,-4],[-13,62],[-31,27],[-2,49],[13,52],[-30,17],[-14,38],[50,65],[9,28],[28,16],[-32,56],[31,32],[51,12]],[[1322,7628],[107,-22],[79,-3],[42,-19],[137,-41],[35,-5],[172,8],[69,-1],[140,-42],[0,-22],[-52,-88],[-87,-55],[-98,-80],[-115,-14],[-95,-26],[-49,-21],[-37,-29],[59,-87],[-11,-41],[5,-91],[22,-53],[0,-79],[87,4],[124,27],[97,-11],[67,-1],[46,-25],[46,5],[70,26],[45,1],[-6,38],[19,24],[1,49],[34,4],[-10,15],[38,20],[41,5],[6,26],[40,21],[-10,69],[36,13],[12,48],[77,46],[53,1],[132,-26],[6,-93],[17,-17],[-15,-32],[8,-19],[-22,-27],[12,-47],[-16,-45],[204,-33],[-51,-23],[-57,-38],[-40,-75],[60,-25],[58,-49],[94,-24],[67,-9],[62,-34],[78,-12],[44,-18],[39,-49],[47,6],[37,-11],[4,-18],[63,-24],[61,-11],[25,-73],[52,-50],[10,-41],[88,-41],[10,-45],[-15,-13],[37,-24],[34,-54],[32,1],[-26,-47],[204,16],[8,-37],[33,-6],[7,-32],[38,6],[92,-5],[34,-51],[-44,-36],[6,-68],[-22,-43],[-18,-3],[-12,-44]],[[1322,7628],[-2,48],[26,12],[-1,30],[34,0],[40,54],[-1,16],[99,21],[7,-26],[26,-18],[15,16],[46,3],[61,-23],[18,-17],[112,52],[88,54],[18,47],[-16,30],[41,21],[69,1],[37,63],[-2,42],[180,66],[51,-4],[37,-22],[57,16],[72,32],[-4,37],[53,27],[53,50],[24,-48],[20,-17],[70,10],[44,23],[-6,12],[48,12],[75,55],[-14,26],[60,61],[36,19],[17,64],[62,25],[53,48],[-28,42],[44,42],[11,35],[-1,108],[99,53],[141,23],[44,-13]],[[3335,8836],[62,-69],[107,-139],[64,-57],[-7,-74],[5,-37],[-12,-34],[40,-46],[43,-23],[58,-45],[12,-35],[52,-21],[48,-35],[9,-34],[30,-17],[22,-51],[56,-38],[-6,-44]],[[3918,8037],[-13,-17],[13,-26],[51,-15],[33,-27],[19,-42],[21,-13],[27,14],[34,-4],[17,22],[68,-11],[89,-46],[-8,-44],[11,-40],[-23,-15],[14,-27],[53,-31],[5,-23],[-19,-74],[33,-39],[-37,-35],[-44,-17],[47,-24],[2,-23],[102,-14],[40,-15],[19,6],[37,-46],[-21,-72],[19,-35],[-21,-21],[41,-24],[3,-47],[24,-37],[45,-31],[40,32],[30,-13],[95,-64],[103,-82],[55,-54],[26,-1],[32,-29],[38,-15],[39,3],[81,-16],[62,10],[89,-14],[16,-16],[74,4],[52,-12],[-1,-18],[29,-18],[-13,-78],[33,-71],[-9,-17],[21,-26]],[[5491,6649],[-110,-10],[-62,-21],[-6,-34],[-28,1],[-38,-40],[-69,-37],[-27,-32],[46,-25],[118,-53],[-103,-81],[-77,-70],[-49,-22],[-63,-14],[-17,-15],[0,-41],[-19,-77],[-26,-33],[-191,-178],[-93,-26],[-76,-46]],[[3290,4461],[59,22],[46,-29],[29,31],[-2,20],[58,13],[-8,18],[78,31],[57,-27],[26,-44],[25,-16],[4,-43],[21,-17],[7,-89],[46,-42],[56,8],[14,-11],[79,5],[-16,26],[75,43],[36,7],[13,33],[39,17],[-19,18],[20,17],[38,-2],[56,-47],[75,-22],[44,-22],[35,-65],[176,-57],[109,-5],[24,38],[38,14],[149,-29],[6,33],[35,-6],[-14,24],[41,10],[2,22],[-33,-6],[9,28],[35,-14],[13,23],[44,-42],[96,34],[37,-13],[11,-25],[18,10],[15,-26]],[[5092,4307],[28,1],[4,-32],[26,-24],[70,-4],[24,-14],[-42,-50],[-3,-70],[-31,0],[-33,-19],[37,-25],[11,-24],[-26,-39],[-28,-2],[29,-49],[-33,-2],[-29,-22],[1,-31],[44,-19],[1,-22],[-48,-2],[48,-27],[63,22],[5,18],[46,-7],[18,15],[65,0],[23,-30],[-51,-53],[28,-8],[-4,-32],[-27,-19],[58,-4],[25,-14],[-46,-44],[-6,-22],[69,-20],[5,-35],[-110,-20],[-3,-20],[58,-2],[16,-37],[38,-6],[8,-72],[-34,-13],[14,-21],[-39,-24],[-26,33],[-15,-17],[50,-43],[-34,-15],[8,-24],[33,3],[2,-17],[38,0],[14,-49],[-35,-18],[-14,-24],[-3,-46],[-31,-35],[3,-28],[64,33],[39,-34],[45,40],[74,24],[27,30],[40,3],[29,-58],[-11,-74],[-52,-24],[7,-49],[56,-8],[9,-37],[-38,-44],[-40,-13],[-36,9],[16,-31],[37,-22],[6,-23],[40,-11],[65,11],[15,-18],[33,24],[9,-16],[54,-20],[31,1],[17,26],[-41,5],[1,22],[61,13],[23,18],[22,-11],[13,-59],[22,-9],[16,36],[76,-10],[64,-26],[8,-76],[53,-66],[-14,-29],[30,-28],[-25,-2],[-30,30],[-106,4],[19,-23],[7,-41],[-13,-27],[-59,-23],[-28,-38],[-51,-34],[-49,-17],[-13,-40],[18,-28],[-57,-27],[-62,25],[-22,-2],[-28,36],[-48,10],[-17,-11],[-92,43],[-71,-10],[-127,79],[-48,-30],[-26,-29],[-51,-90],[-53,6],[-91,-36],[-93,6],[-79,41],[-40,40],[-30,7],[-162,-91]],[[4694,2330],[-9,67],[-29,17],[-86,10],[-53,-15],[-44,17],[-21,26],[-69,46],[-76,68],[-38,-2],[-74,14],[-29,14],[-176,49],[-123,46],[-48,39],[13,14],[-93,50],[-63,40],[-45,16],[-89,16],[-29,34],[-40,10],[-167,-63],[-11,-10],[-102,5],[-23,-11],[-77,1],[-60,38],[-38,51],[-16,5],[-43,-33],[-28,-68],[-23,-20],[-11,-50],[-162,-15],[-22,28],[9,47],[-29,25],[-47,9],[-21,25],[42,41],[-9,22],[-50,3],[-35,-35],[-50,-8],[-2,26],[42,38],[21,59]],[[2561,3016],[45,45],[-2,30],[-44,13],[-85,-29],[-102,-15],[-56,-39],[-27,1],[18,32],[-7,31],[-47,15],[-22,22],[5,27],[35,23],[72,32],[-16,42],[-33,3],[-98,-26],[-102,8],[-14,19],[20,19],[83,20],[2,25],[-48,45],[-35,107],[3,30],[41,15],[73,-44],[35,0],[37,25],[-1,70],[-38,15],[-45,-14],[-42,-30],[-22,19],[25,32],[-3,24],[-93,9],[-9,24]],[[5491,6649],[59,-45],[-10,-27],[24,-35],[61,-18],[33,0],[33,35],[31,2],[40,-18],[68,-49],[2,-33],[34,-25],[43,0],[71,23],[13,20],[44,-11],[32,6],[-5,22],[32,-11]],[[6096,6485],[4,-27],[29,-7],[-17,-29],[32,-27],[-44,-29],[-1,-26],[21,-15],[13,-78],[-57,-4],[-40,-16],[17,-25],[-35,-28],[-66,-9],[-40,-49],[0,-25],[-24,-11],[-32,13],[-20,-35],[-44,-50],[-34,-17],[-107,-106],[7,-14],[58,-10],[-29,-68],[-84,-4],[-77,-15],[22,-50],[38,11],[-16,-53],[-49,-55],[1,-27],[-22,-6],[8,-22],[42,-24],[-6,-23],[-70,-31],[-23,-22],[4,-27],[98,-71],[-3,-69],[47,-70],[-7,-14],[-62,-27],[-48,-30],[-36,-52],[-17,-96],[-74,-38],[-1,-42],[-51,3],[-3,-38],[59,-22],[-1,-23],[-60,-46],[-9,-41],[-44,-16],[6,-45],[18,-12],[-21,-49],[22,-23],[-51,-14],[-9,-47],[-25,-20],[39,5],[-11,-45],[44,-20],[-24,-40],[42,-43],[1,-36],[-48,-20],[-53,31],[-42,-40],[-39,0],[0,-28]],[[4694,2330],[-28,-55],[-4,-27],[26,-18],[-3,-88],[26,-56],[-23,-74],[-20,-41],[-3,-41],[45,-11],[38,-21],[-21,-17],[-111,-140],[-96,-149],[9,-5]],[[4529,1587],[-30,15],[-90,16],[-19,-13],[16,-58],[-9,-34],[-89,-60],[-16,-25],[13,-64],[-19,-11],[-63,9],[-38,-10],[-71,-42],[-40,-5],[-61,12],[-78,39],[-30,49],[-73,5],[-58,18],[-69,-14],[-48,-46],[-19,-37],[-94,33],[-100,-9],[-38,13],[-53,-14],[-23,-52],[-33,-34],[-64,-35],[-57,-8],[-40,-32],[-53,-20],[-44,-3],[-27,-51],[-103,-32],[-65,-13]],[[2844,1074],[-30,21],[-111,110],[-73,97],[-125,124],[-28,48],[-48,56],[-13,29],[-48,39],[-42,2],[-122,34],[-68,-8],[-24,34],[-14,70],[-24,47],[-43,9],[-26,38],[-86,54],[-103,95],[-102,59],[-54,41],[-30,39],[5,64],[28,53],[74,30],[-47,44],[-25,52],[-14,-3],[-27,84],[-17,89],[-22,34],[-84,25],[10,45],[-14,61],[8,32],[43,18],[140,75],[139,65],[151,79],[37,7],[125,3],[63,-9],[77,5],[19,26],[262,25]],[[4529,1587],[144,-110],[25,-35],[-3,-39],[17,-86],[-2,-104],[6,-30],[44,-65],[-4,-36],[-100,-29],[-10,-18],[6,-45],[88,-68],[36,-11],[57,7],[62,26],[58,-16],[41,-35],[34,-82],[43,-79],[47,-2],[16,21],[50,2],[64,-18],[29,14],[-13,47],[-40,19],[25,22],[60,-45],[20,-123],[-6,-32],[-56,-75],[28,-38],[43,10],[28,23],[46,-5],[19,-40],[-13,-18],[-83,-56],[-48,-17],[-23,-28],[-1,-23],[-57,-20],[-40,-5],[-78,19],[-30,-6],[-35,24],[-53,-52],[-5,-19],[-20,-311],[-227,37],[-69,14],[-2,33],[42,37],[4,58],[27,42],[0,93],[-13,4],[-43,62],[-31,8],[-59,-10],[6,-15],[-19,-49],[-64,-12],[-27,19],[14,18],[-39,30],[-43,49],[-32,22],[-5,23],[-55,32],[-6,26],[-96,-13],[-12,18],[-60,7],[-52,-17],[-97,6],[-77,20],[-53,-17],[-42,-29],[-50,20],[-54,-18],[-50,32],[-43,-6],[-31,20],[-2,22],[-41,47],[-24,1],[-41,27],[-59,2],[-1,15],[-41,21],[-3,20],[-34,25],[-31,-9],[-30,27],[-76,37],[-63,-3],[-76,15],[-48,19],[-44,30],[-41,45],[-75,139],[-13,50]],[[3335,8836],[42,8],[77,57],[162,58],[26,23],[-23,39],[-9,47],[8,25],[105,42],[57,-19],[16,28],[132,63],[75,63],[27,62],[54,28],[49,62],[52,42],[-34,43],[0,31],[21,32],[0,46],[23,26],[-7,41],[29,25],[32,81],[31,26],[180,107],[101,16],[173,61],[48,0],[82,-22],[89,5],[90,-17],[70,-1],[50,17],[158,-22],[179,-11],[63,-15],[100,28],[88,7],[102,-33],[131,-6],[73,-12],[62,-26],[-5,-32],[53,-43],[5,-75],[31,-43],[55,-12],[47,6],[46,-15],[42,12],[44,-4],[68,23],[24,-2],[62,-44],[86,-6],[12,-58],[30,-41],[43,-85],[46,-46],[21,-46],[-42,-20],[-1,-50],[-18,-11],[7,-61],[-32,-42],[15,-31],[39,14],[33,-17],[57,3],[65,-15],[21,-29],[4,-57],[43,-64],[60,-47],[34,-7],[82,34],[55,10],[36,-29],[5,-106],[-12,-10],[33,-20],[74,-9],[37,-51],[45,-26],[165,-39],[132,30],[81,34],[89,62],[45,12],[30,49],[-11,6],[13,59],[24,49],[17,-3],[31,-76],[37,-39],[148,-49],[73,14],[33,-3],[25,-26],[-7,-76],[20,-15],[61,-13],[31,-33],[42,-20],[52,30],[66,-35],[22,-26],[258,-18],[54,-1],[68,9],[46,-41],[27,-5],[48,27],[52,-14],[64,-42],[-22,-42],[62,-13],[24,-14],[122,-116],[27,-68],[13,-52],[36,-49],[115,22],[50,41],[25,-1],[15,-22],[79,-40],[85,-7],[31,7],[32,-20],[-25,-29],[17,-20],[-24,-32],[9,-33],[-27,-23],[2,-32],[-58,-34],[-11,-32],[15,-7],[-14,-38],[11,-19],[-7,-65],[-33,-89],[-4,-34],[16,-44],[-39,-33],[-93,-7],[-35,20],[-30,37],[-109,30],[-15,42],[-47,43],[-32,9],[-62,-14],[14,-13],[-77,-35],[-14,-21],[-34,1],[-31,-16],[-34,6],[-41,-14],[-74,9],[-79,-4],[-91,-12],[-58,5],[-27,-13],[-39,27],[-76,3],[-7,21],[-94,14],[-76,4],[-29,18],[-20,31],[-61,-8],[-34,17],[-85,0],[-43,13],[-63,42],[-54,-22],[-59,0],[-88,50],[-34,-5],[-46,-26],[-44,4],[-70,23],[-111,-9],[-26,9],[-13,-21],[-54,7],[-23,-10],[-58,27],[-66,-44],[-54,-46],[-34,6],[-52,-19],[0,-30],[-27,15],[-40,-29],[-97,-7],[-74,-35],[-77,-29],[-149,3],[-61,-18],[-27,-40],[-22,-57],[-55,-36],[-7,-33],[-67,-54],[11,-15],[-66,-24]],[[6587,7378],[-71,-5],[-53,27],[-30,35],[24,31],[-27,40],[-53,-4],[-14,-20],[-52,-15],[-44,12],[-38,-29],[-26,0],[-57,-34],[-41,22],[-10,18],[-72,31],[-75,2],[-85,25],[-35,34],[-33,14],[-50,6],[-31,19],[-55,16],[-83,8],[-48,-4],[-15,53],[14,88],[18,32],[38,10],[56,-3],[41,65],[66,30],[4,11],[-42,29],[-2,38],[-66,1],[-44,46],[-51,-5],[-71,-40],[-12,33],[-8,167],[-34,51],[14,115],[-38,80],[-112,115],[-99,83],[-103,56],[-30,27],[-96,58],[-65,-9],[-43,5],[-58,32],[-47,13],[-67,-44],[-38,-33],[-10,-27],[-45,-40],[14,-26],[-10,-52],[4,-39],[41,-89],[74,-68],[28,-95],[-11,-49],[-41,-57],[-19,-81],[-19,-47],[18,-28],[-9,-21],[-59,-5],[-55,-17],[-112,20],[-25,-9],[-22,-32],[-2,41],[-29,47],[-60,-76],[-53,22],[-23,33],[-1,28],[-54,25],[-34,30],[-36,-16],[-55,61],[0,30],[-46,43],[-38,11],[-11,-44],[32,-50],[-11,-42],[-41,-55]],[[6587,7378],[-22,-36],[15,-12],[-46,-68],[-53,-18],[17,-13],[-20,-38],[29,-21],[-2,-51],[-51,-5],[-8,-45],[-56,1],[-11,-40],[-21,0],[-58,-45],[-1,-16],[-44,-24],[31,-15],[8,-33],[80,-54],[-29,-45],[39,-22],[29,2],[56,-66],[-21,-23],[-14,25],[-35,-4],[12,-21],[-15,-31],[-22,3],[-2,-42],[-40,-16],[2,-31],[-27,-16],[-62,-8],[-17,-17],[-51,19],[-3,-20],[-35,7],[-4,-22],[-39,-32]]],"transform":{"scale":[0.00008276168036803359,0.00010596864836483582],"translate":[103.99747018900005,15.289305787000046]},"objects":{"Yasothon":{"type":"GeometryCollection","geometries":[{"arcs":[[0,1,2,3,4]],"type":"Polygon","properties":{"Shape_Leng":1.79499420201,"Shape_Area":0.054835899779,"ADM2_EN":"Mueang Yasothon","ADM2_TH":"เมืองยโสธร","ADM2_PCODE":"TH3501","ADM1_EN":"Yasothon","ADM1_TH":"ยโสธร","ADM1_PCODE":"TH35","ADM0_EN":"Thailand","ADM0_TH":"ประเทศไทย","ADM0_PCODE":"TH"}},{"arcs":[[-1,5,6]],"type":"Polygon","properties":{"Shape_Leng":1.16769298413,"Shape_Area":0.0198588094599,"ADM2_EN":"Sai Mun","ADM2_TH":"ทรายมูล","ADM2_PCODE":"TH3502","ADM1_EN":"Yasothon","ADM1_TH":"ยโสธร","ADM1_PCODE":"TH35","ADM0_EN":"Thailand","ADM0_TH":"ประเทศไทย","ADM0_PCODE":"TH"}},{"arcs":[[-2,-7,7,8,9,10]],"type":"Polygon","properties":{"Shape_Leng":1.67427836351,"Shape_Area":0.0482289420574,"ADM2_EN":"Kut Chum","ADM2_TH":"กุดชุม","ADM2_PCODE":"TH3503","ADM1_EN":"Yasothon","ADM1_TH":"ยโสธร","ADM1_PCODE":"TH35","ADM0_EN":"Thailand","ADM0_TH":"ประเทศไทย","ADM0_PCODE":"TH"}},{"arcs":[[-4,11,12,13,14]],"type":"Polygon","properties":{"Shape_Leng":1.53707923767,"Shape_Area":0.0463394535426,"ADM2_EN":"Kham Khuean Kaeo","ADM2_TH":"คำเขื่อนแก้ว","ADM2_PCODE":"TH3504","ADM1_EN":"Yasothon","ADM1_TH":"ยโสธร","ADM1_PCODE":"TH35","ADM0_EN":"Thailand","ADM0_TH":"ประเทศไทย","ADM0_PCODE":"TH"}},{"arcs":[[-3,-11,15,16,-12]],"type":"Polygon","properties":{"Shape_Leng":1.09214546104,"Shape_Area":0.0262819133705,"ADM2_EN":"Pa Tio","ADM2_TH":"ป่าติ้ว","ADM2_PCODE":"TH3505","ADM1_EN":"Yasothon","ADM1_TH":"ยโสธร","ADM1_PCODE":"TH35","ADM0_EN":"Thailand","ADM0_TH":"ประเทศไทย","ADM0_PCODE":"TH"}},{"arcs":[[-14,17,18,19]],"type":"Polygon","properties":{"Shape_Leng":0.895481623026,"Shape_Area":0.0354545724204,"ADM2_EN":"Maha Chana Chai","ADM2_TH":"มหาชนะชัย","ADM2_PCODE":"TH3506","ADM1_EN":"Yasothon","ADM1_TH":"ยโสธร","ADM1_PCODE":"TH35","ADM0_EN":"Thailand","ADM0_TH":"ประเทศไทย","ADM0_PCODE":"TH"}},{"arcs":[[-19,20]],"type":"Polygon","properties":{"Shape_Leng":0.805923618181,"Shape_Area":0.0159132321252,"ADM2_EN":"Kho Wang","ADM2_TH":"ค้อวัง","ADM2_PCODE":"TH3507","ADM1_EN":"Yasothon","ADM1_TH":"ยโสธร","ADM1_PCODE":"TH35","ADM0_EN":"Thailand","ADM0_TH":"ประเทศไทย","ADM0_PCODE":"TH"}},{"arcs":[[-9,21,22]],"type":"Polygon","properties":{"Shape_Leng":1.95297869798,"Shape_Area":0.0756337859839,"ADM2_EN":"Loeng Nok Tha","ADM2_TH":"เลิงนกทา","ADM2_PCODE":"TH3508","ADM1_EN":"Yasothon","ADM1_TH":"ยโสธร","ADM1_PCODE":"TH35","ADM0_EN":"Thailand","ADM0_TH":"ประเทศไทย","ADM0_PCODE":"TH"}},{"arcs":[[-10,-23,23,-16]],"type":"Polygon","properties":{"Shape_Leng":1.17960287587,"Shape_Area":0.0232119107769,"ADM2_EN":"Thai Charoen","ADM2_TH":"ไทยเจริญ","ADM2_PCODE":"TH3509","ADM1_EN":"Yasothon","ADM1_TH":"ยโสธร","ADM1_PCODE":"TH35","ADM0_EN":"Thailand","ADM0_TH":"ประเทศไทย","ADM0_PCODE":"TH"}}]}}}